{
    "type": "FeatureCollection",
    "features": [
        {
            "id": 6067,
            "type": "Feature",
            "geometry": {
                "type": "Point",
                "coordinates": [
                    20.83014,
                    52.17653
                ]
            },
            "properties": {
                "ref:rspo": 6067,
                "official_name": "Niepubliczny Punkt Przedszkolny",
                "name": "Niepubliczny Punkt Przedszkolny",
                "addr:country": "PL",
                "addr:postcode": "05-820",
                "addr:city": "Piast\u00f3w",
                "addr:street": "ul. Grunwaldzka",
                "addr:housenumber": "34",
                "addr:teryt:simc": 6260,
                "addr:teryt:sym_ul": 921496,
                "contact:phone": "+48 605186436",
                "ref:regon": "146271728",
                "operator": "Agnieszka D\u0105browska",
                "operator:type": "private",
                "amenity": "kindergarten"
            }
        },
        {
            "id": 25819,
            "type": "Feature",
            "geometry": {
                "type": "Point",
                "coordinates": [
                    20.84789,
                    52.17723
                ]
            },
            "properties": {
                "ref:rspo": 25819,
                "official_name": "Przedszkole Miejskie Nr 3",
                "name": "Przedszkole Miejskie Nr 3",
                "addr:country": "PL",
                "addr:postcode": "05-820",
                "addr:city": "Piast\u00f3w",
                "addr:street": "ul. Cypriana Godebskiego",
                "addr:housenumber": "21",
                "addr:teryt:simc": 5681,
                "addr:teryt:sym_ul": 921496,
                "contact:phone": "+48 227231132",
                "contact:email": "przedszkole3.wicedyrektor@vp.pl",
                "ref:regon": "013000553",
                "ref:vatin": "PL5342026034",
                "operator": "Miasto Piast\u00f3w",
                "operator:type": "government",
                "amenity": "kindergarten"
            }
        },
        {
            "id": 130849,
            "type": "Feature",
            "geometry": {
                "type": "Point",
                "coordinates": [
                    20.84157,
                    52.17835
                ]
            },
            "properties": {
                "isced:level": "1;2",
                "ref:rspo": 130849,
                "official_name": "Szko\u0142a Podstawowa Nr 3 I. Bohater\u00f3w Powstania Warszawskiego Z Oddzia\u0142ami Integracyjnymi",
                "name": "Szko\u0142a Podstawowa Nr 3 I. Bohater\u00f3w Powstania Warszawskiego Z Oddzia\u0142ami Integracyjnymi",
                "addr:country": "PL",
                "addr:postcode": "05-820",
                "addr:city": "Piast\u00f3w",
                "addr:street": "ul. Aleja Tysi\u0105clecia",
                "addr:housenumber": "5",
                "addr:teryt:simc": 206,
                "addr:teryt:sym_ul": 921496,
                "contact:phone": "+48 227237822",
                "contact:email": "sp3@piastow.pl",
                "contact:website": "http:\/\/sp3piastow.pl",
                "ref:regon": "364621912",
                "operator": "Miasto Piast\u00f3w",
                "operator:type": "government",
                "amenity": "school"
            }
        },
        {
            "id": 269726,
            "type": "Feature",
            "geometry": {
                "type": "Point",
                "coordinates": [
                    20.84941,
                    52.17946
                ]
            },
            "properties": {
                "ref:rspo": 269726,
                "official_name": "Punkt Przedszkolny Gumisiowy \u015awiat",
                "name": "Punkt Przedszkolny Gumisiowy \u015awiat",
                "addr:country": "PL",
                "addr:postcode": "05-820",
                "addr:city": "Piast\u00f3w",
                "addr:street": "ul. Jana Kasprowicza",
                "addr:housenumber": "12d",
                "addr:teryt:simc": 8153,
                "addr:teryt:sym_ul": 921496,
                "contact:phone": "+48 694147625",
                "ref:regon": "381732127",
                "operator": "Miasto Piast\u00f3w",
                "operator:type": "government",
                "amenity": "kindergarten"
            }
        },
        {
            "id": 30031,
            "type": "Feature",
            "geometry": {
                "type": "Point",
                "coordinates": [
                    20.84424,
                    52.18129
                ]
            },
            "properties": {
                "isced:level": "3",
                "ref:rspo": 30031,
                "official_name": "Liceum Og\u00f3lnokszta\u0142c\u0105ce Z Oddzia\u0142ami Dwuj\u0119zycznymi im. Adama Mickiewicza",
                "name": "Liceum Og\u00f3lnokszta\u0142c\u0105ce Z Oddzia\u0142ami Dwuj\u0119zycznymi",
                "addr:country": "PL",
                "addr:postcode": "05-820",
                "addr:city": "Piast\u00f3w",
                "addr:street": "ul. 11 Listopada",
                "addr:housenumber": "2A",
                "addr:teryt:simc": 11205,
                "addr:teryt:sym_ul": 921496,
                "contact:phone": "+48 227236506",
                "contact:email": "sekretariat@mickiewicz.internetdsl.pl",
                "ref:regon": "000799345",
                "ref:vatin": "PL5341465174",
                "operator": "Miasto Piast\u00f3w",
                "operator:type": "government",
                "amenity": "school"
            }
        },
        {
            "id": 25818,
            "type": "Feature",
            "geometry": {
                "type": "Point",
                "coordinates": [
                    20.844009399414,
                    52.182201385498
                ]
            },
            "properties": {
                "ref:rspo": 25818,
                "official_name": "Przedszkole Miejskie Nr 2",
                "name": "Przedszkole Miejskie Nr 2",
                "addr:country": "PL",
                "addr:postcode": "05-820",
                "addr:city": "Piast\u00f3w",
                "addr:street": "ul. Joachima Lelewela",
                "addr:housenumber": "16\/18",
                "addr:teryt:simc": 10793,
                "addr:teryt:sym_ul": 921496,
                "contact:phone": "+48 227236647",
                "contact:email": "przedszkole2@piastow.pl",
                "ref:regon": "013000560",
                "ref:vatin": "PL5342026123",
                "operator": "Miasto Piast\u00f3w",
                "operator:type": "government",
                "amenity": "kindergarten"
            }
        },
        {
            "id": 74335,
            "type": "Feature",
            "geometry": {
                "type": "Point",
                "coordinates": [
                    20.83451,
                    52.18336
                ]
            },
            "properties": {
                "ref:rspo": 74335,
                "official_name": "Zesp\u00f3\u0142 Szk\u00f3\u0142 im.fridtjofa Nansena",
                "name": "Zesp\u00f3\u0142 Szk\u00f3\u0142 im.fridtjofa Nansena",
                "addr:country": "PL",
                "addr:postcode": "05-820",
                "addr:city": "Piast\u00f3w",
                "addr:street": "ul. Karola Namys\u0142owskiego",
                "addr:housenumber": "11",
                "addr:teryt:simc": 13975,
                "addr:teryt:sym_ul": 921496,
                "contact:phone": "+48 227236585",
                "contact:email": "sekretariat@nansen.edu.pl",
                "contact:website": "https:\/\/nansen.edu.pl\/",
                "ref:regon": "000199355",
                "ref:vatin": "PL5341583152",
                "operator": "Powiat Pruszkowski",
                "operator:type": "government",
                "landuse": "education",
                "fixme": "amenity=school, amenity=college albo landuse=education w zale\u017cno\u015bci od tego, jakie plac\u00f3wki wchodz\u0105 w sk\u0142ad zespo\u0142u. Sprawd\u017a, kiedy stosowa\u0107 amenity=* a kiedy landuse=education.",
                "note": "Children RSPO: 109054;109061;265535"
            }
        },
        {
            "id": 123439,
            "type": "Feature",
            "geometry": {
                "type": "Point",
                "coordinates": [
                    20.83451,
                    52.18333
                ]
            },
            "properties": {
                "isced:level": "1;2",
                "ref:rspo": 123439,
                "official_name": "Niepubliczna Szko\u0142a Podstawowa Fundacji Adys",
                "name": "Niepubliczna Szko\u0142a Podstawowa Fundacji Adys",
                "addr:country": "PL",
                "addr:postcode": "05-820",
                "addr:city": "Piast\u00f3w",
                "addr:street": "ul. Karola Namys\u0142owskiego",
                "addr:housenumber": "11",
                "addr:teryt:simc": 13975,
                "addr:teryt:sym_ul": 921496,
                "contact:phone": "+48 222167356",
                "contact:email": "adys@adys.edu.pl",
                "contact:website": "http:\/\/www.adys.edu.pl",
                "ref:regon": "147313311",
                "operator": "Fundacja Adys",
                "operator:type": "ngo",
                "amenity": "school"
            }
        },
        {
            "id": 109054,
            "type": "Feature",
            "geometry": {
                "type": "Point",
                "coordinates": [
                    20.83451,
                    52.1833
                ]
            },
            "properties": {
                "isced:level": "3",
                "ref:rspo": 109054,
                "official_name": "Liceum Og\u00f3lnokszta\u0142c\u0105ce",
                "name": "Liceum Og\u00f3lnokszta\u0142c\u0105ce",
                "addr:country": "PL",
                "addr:postcode": "05-820",
                "addr:city": "Piast\u00f3w",
                "addr:street": "ul. Karola Namys\u0142owskiego",
                "addr:housenumber": "11",
                "addr:teryt:simc": 13975,
                "addr:teryt:sym_ul": 921496,
                "contact:phone": "+48 227236585",
                "contact:email": "sekretariat@nansen.edu.pl",
                "ref:regon": "015818460",
                "operator": "Powiat Pruszkowski",
                "operator:type": "government",
                "amenity": "school",
                "note": "Parent RSPO: 74335"
            }
        },
        {
            "id": 109061,
            "type": "Feature",
            "geometry": {
                "type": "Point",
                "coordinates": [
                    20.83451,
                    52.18327
                ]
            },
            "properties": {
                "isced:level": "3",
                "ref:rspo": 109061,
                "official_name": "Technikum",
                "name": "Technikum",
                "addr:country": "PL",
                "addr:postcode": "05-820",
                "addr:city": "Piast\u00f3w",
                "addr:street": "ul. Karola Namys\u0142owskiego",
                "addr:housenumber": "11",
                "addr:teryt:simc": 13975,
                "addr:teryt:sym_ul": 921496,
                "contact:phone": "+48 227236585",
                "contact:email": "sekretariat@nansen.edu.pl",
                "ref:regon": "146520321",
                "operator": "Powiat Pruszkowski",
                "operator:type": "government",
                "amenity": "school",
                "note": "Parent RSPO: 74335"
            }
        },
        {
            "id": 265535,
            "type": "Feature",
            "geometry": {
                "type": "Point",
                "coordinates": [
                    20.83451,
                    52.18324
                ]
            },
            "properties": {
                "isced:level": "3",
                "ref:rspo": 265535,
                "official_name": "Bran\u017cowa Szko\u0142a I Stopnia",
                "name": "Bran\u017cowa Szko\u0142a I Stopnia",
                "addr:country": "PL",
                "addr:postcode": "05-820",
                "addr:city": "Piast\u00f3w",
                "addr:street": "ul. Karola Namys\u0142owskiego",
                "addr:housenumber": "11",
                "addr:teryt:simc": 13975,
                "addr:teryt:sym_ul": 921496,
                "contact:phone": "+48 227236585",
                "contact:email": "sekretariat@nansen.edu.pl",
                "ref:regon": "368772571",
                "operator": "Powiat Pruszkowski",
                "operator:type": "government",
                "amenity": "school",
                "note": "Parent RSPO: 74335"
            }
        },
        {
            "id": 25816,
            "type": "Feature",
            "geometry": {
                "type": "Point",
                "coordinates": [
                    20.8307,
                    52.18358
                ]
            },
            "properties": {
                "ref:rspo": 25816,
                "official_name": "Przedszkole Miejskie Nr 1",
                "name": "Przedszkole Miejskie Nr 1",
                "addr:country": "PL",
                "addr:postcode": "05-820",
                "addr:city": "Piast\u00f3w",
                "addr:street": "ul. Stanis\u0142awa Moniuszki",
                "addr:housenumber": "11",
                "addr:teryt:simc": 13246,
                "addr:teryt:sym_ul": 921496,
                "contact:phone": "+48 227236547",
                "ref:regon": "013000524",
                "ref:vatin": "PL5342026057",
                "operator": "Miasto Piast\u00f3w",
                "operator:type": "government",
                "amenity": "kindergarten"
            }
        },
        {
            "id": 132275,
            "type": "Feature",
            "geometry": {
                "type": "Point",
                "coordinates": [
                    20.83875,
                    52.18367
                ]
            },
            "properties": {
                "ref:rspo": 132275,
                "official_name": "Przedszkole Pomara\u0144czowa Ciuchcia",
                "name": "Przedszkole Pomara\u0144czowa Ciuchcia",
                "addr:country": "PL",
                "addr:postcode": "05-820",
                "addr:city": "Piast\u00f3w",
                "addr:street": "ul. Warszawska",
                "addr:housenumber": "43",
                "addr:teryt:simc": 23682,
                "addr:teryt:sym_ul": 921496,
                "contact:phone": "+48 226669468",
                "ref:regon": "365525346",
                "operator": "El\u017cbieta Pluta",
                "operator:type": "private",
                "amenity": "kindergarten"
            }
        },
        {
            "id": 9690,
            "type": "Feature",
            "geometry": {
                "type": "Point",
                "coordinates": [
                    20.85466,
                    52.18397
                ]
            },
            "properties": {
                "isced:level": "1;2",
                "ref:rspo": 9690,
                "official_name": "Szko\u0142a Podstawowa Nr 1 im. Stanis\u0142awa Staszica",
                "name": "Szko\u0142a Podstawowa Nr 1",
                "addr:country": "PL",
                "addr:postcode": "05-820",
                "addr:city": "Piast\u00f3w",
                "addr:street": "ul. J\u00f3zefa Brandta",
                "addr:housenumber": "22",
                "addr:teryt:simc": 2033,
                "addr:teryt:sym_ul": 921496,
                "contact:phone": "+48 227237996",
                "contact:email": "sp1piast@sp1piast.pl",
                "contact:website": "http:\/\/www.sp1piastow.pl",
                "ref:regon": "012701992",
                "ref:vatin": "PL5342026181",
                "operator": "Miasto Piast\u00f3w",
                "operator:type": "government",
                "amenity": "school"
            }
        },
        {
            "id": 106807,
            "type": "Feature",
            "geometry": {
                "type": "Point",
                "coordinates": [
                    20.8438899,
                    52.18427
                ]
            },
            "properties": {
                "ref:rspo": 106807,
                "official_name": "Przedszkole Niepubliczne Zgromadzenia Si\u00f3str Franciszkanek Misjonarek Maryi",
                "name": "Przedszkole Niepubliczne Zgromadzenia Si\u00f3str Franciszkanek Misjonarek Maryi",
                "addr:country": "PL",
                "addr:postcode": "05-820",
                "addr:city": "Piast\u00f3w",
                "addr:street": "ul. ks. Piotra Skargi",
                "addr:housenumber": "20",
                "addr:teryt:simc": 20010,
                "addr:teryt:sym_ul": 921496,
                "contact:phone": "+48 227233315",
                "contact:email": "fmmprzedszkole@gmail.com",
                "contact:website": "http:\/\/przedszkolefmm.pl\/",
                "ref:regon": "146486481",
                "ref:vatin": "PL5342094478",
                "operator": "Zgromadzenie Si\u00f3str Franciszkanek Misjonarek Maryi",
                "operator:type": "religious",
                "amenity": "kindergarten"
            }
        },
        {
            "id": 266088,
            "type": "Feature",
            "geometry": {
                "type": "Point",
                "coordinates": [
                    20.83055,
                    52.18488
                ]
            },
            "properties": {
                "isced:level": "1;2",
                "ref:rspo": 266088,
                "official_name": "Niepubliczna Szko\u0142a Podstawowa Azyl",
                "name": "Niepubliczna Szko\u0142a Podstawowa Azyl",
                "addr:country": "PL",
                "addr:postcode": "05-820",
                "addr:city": "Piast\u00f3w",
                "addr:street": "ul. Bohater\u00f3w Wolno\u015bci",
                "addr:housenumber": "43",
                "addr:teryt:simc": 1685,
                "addr:teryt:sym_ul": 921496,
                "contact:phone": "+48 733931114",
                "contact:email": "szkola-azyl@wp.pl",
                "ref:regon": "369239710",
                "ref:vatin": "PL5342560532",
                "operator": "Artur Chmieli\u0144ski",
                "operator:type": "private",
                "amenity": "school"
            }
        },
        {
            "id": 130858,
            "type": "Feature",
            "geometry": {
                "type": "Point",
                "coordinates": [
                    20.85803,
                    52.18626
                ]
            },
            "properties": {
                "ref:rspo": 130858,
                "official_name": "Punkt Przedszkolny \"Domowe Przedszkole\"",
                "name": "Punkt Przedszkolny \"Domowe Przedszkole\"",
                "addr:country": "PL",
                "addr:postcode": "05-820",
                "addr:city": "Piast\u00f3w",
                "addr:street": "ul. Henryka Sienkiewicza",
                "addr:housenumber": "12",
                "addr:teryt:simc": 19834,
                "addr:teryt:sym_ul": 921496,
                "contact:phone": "+48 696883702",
                "ref:regon": "364645309",
                "ref:vatin": "PL5222654443",
                "operator": "Karolin Klimko",
                "operator:type": "private",
                "amenity": "kindergarten"
            }
        },
        {
            "id": 130878,
            "type": "Feature",
            "geometry": {
                "type": "Point",
                "coordinates": [
                    20.84797,
                    52.18821
                ]
            },
            "properties": {
                "ref:rspo": 130878,
                "official_name": "Przedszkole \"Ma\u0142a Akademia\"",
                "name": "Przedszkole \"Ma\u0142a Akademia\"",
                "addr:country": "PL",
                "addr:postcode": "05-820",
                "addr:city": "Piast\u00f3w",
                "addr:street": "ul. Warszawska",
                "addr:housenumber": "39",
                "addr:teryt:simc": 23682,
                "addr:teryt:sym_ul": 921496,
                "contact:phone": "+48 530160661",
                "contact:email": "przedszkole@malaakademia.edu.pl",
                "contact:website": "http:\/\/malaakademia.edu.pl",
                "ref:regon": "364646734",
                "ref:vatin": "PL5342094107",
                "operator": "Joanna \u017bo\u0142nowska",
                "operator:type": "private",
                "amenity": "kindergarten"
            }
        },
        {
            "id": 24650,
            "type": "Feature",
            "geometry": {
                "type": "Point",
                "coordinates": [
                    20.83029,
                    52.18904
                ]
            },
            "properties": {
                "isced:level": "1;2",
                "ref:rspo": 24650,
                "official_name": "Szko\u0142a Podstawowa Nr 4 im. Bohater\u00f3w Spod Darnicy",
                "name": "Szko\u0142a Podstawowa Nr 4",
                "addr:country": "PL",
                "addr:postcode": "05-820",
                "addr:city": "Piast\u00f3w",
                "addr:street": "ul. \u017bbikowska",
                "addr:housenumber": "25",
                "addr:teryt:simc": 26414,
                "addr:teryt:sym_ul": 921496,
                "contact:phone": "+48 227236759",
                "contact:email": "sp4_piastow@gazeta.pl",
                "contact:website": "http:\/\/www.sp4piastow",
                "ref:regon": "000800172",
                "ref:vatin": "PL5342032508",
                "operator": "Miasto Piast\u00f3w",
                "operator:type": "government",
                "amenity": "school"
            }
        },
        {
            "id": 74221,
            "type": "Feature",
            "geometry": {
                "type": "Point",
                "coordinates": [
                    20.83029,
                    52.189009999999996
                ]
            },
            "properties": {
                "ref:rspo": 74221,
                "official_name": "O\u015brodek Doradczo-Szkoleniowy \"Mer\"",
                "name": "O\u015brodek Doradczo-Szkoleniowy \"Mer\"",
                "addr:country": "PL",
                "addr:postcode": "05-820",
                "addr:city": "Piast\u00f3w",
                "addr:street": "ul. \u017bbikowska",
                "addr:housenumber": "25",
                "addr:teryt:simc": 26414,
                "addr:teryt:sym_ul": 921496,
                "contact:phone": "+48 227232319",
                "contact:email": "piotrbhp@behapowiec.com.pl",
                "ref:regon": "146403963",
                "ref:vatin": "PL1180508969",
                "operator": "Piotr Pietras",
                "operator:type": "private",
                "fixme": "w zale\u017cno\u015bci od przedmiotu dzia\u0142alno\u015bci (np. amenity=training + training=*, amenity=dancing_school, amenity=language_school, amenity=music_school)"
            }
        },
        {
            "id": 25820,
            "type": "Feature",
            "geometry": {
                "type": "Point",
                "coordinates": [
                    20.83633,
                    52.18942
                ]
            },
            "properties": {
                "ref:rspo": 25820,
                "official_name": "Przedszkole Miejskie Nr 4",
                "name": "Przedszkole Miejskie Nr 4",
                "addr:country": "PL",
                "addr:postcode": "05-820",
                "addr:city": "Piast\u00f3w",
                "addr:street": "ul. \u017bbikowska",
                "addr:housenumber": "5",
                "addr:teryt:simc": 26414,
                "addr:teryt:sym_ul": 921496,
                "contact:phone": "+48 227232297",
                "contact:email": "przedszkole4@piastow.pl",
                "ref:regon": "013000530",
                "ref:vatin": "PL5342026169",
                "operator": "Miasto Piast\u00f3w",
                "operator:type": "government",
                "amenity": "kindergarten"
            }
        },
        {
            "id": 130601,
            "type": "Feature",
            "geometry": {
                "type": "Point",
                "coordinates": [
                    20.84495,
                    52.18972
                ]
            },
            "properties": {
                "ref:rspo": 130601,
                "official_name": "Przedszkole Niepubliczne \"Minimadagaskar\"",
                "name": "Przedszkole Niepubliczne \"Minimadagaskar\"",
                "addr:country": "PL",
                "addr:postcode": "05-820",
                "addr:city": "Piast\u00f3w",
                "addr:street": "ul. Aleja Krakowska",
                "addr:housenumber": "28",
                "addr:teryt:simc": 41777,
                "addr:teryt:sym_ul": 921496,
                "contact:email": "przedszkole@minimadagaskar.pl",
                "contact:website": "http:\/\/www.minimadagaskar.edu.pl",
                "ref:regon": "364234635",
                "ref:vatin": "PL7611225298",
                "operator": "Rafa\u0142 Kami\u0144ski Akademia Domu, Mini Madagaskar",
                "operator:type": "consortium",
                "amenity": "kindergarten"
            }
        },
        {
            "id": 266114,
            "type": "Feature",
            "geometry": {
                "type": "Point",
                "coordinates": [
                    20.83262,
                    52.18976
                ]
            },
            "properties": {
                "ref:rspo": 266114,
                "official_name": "Punkt Przedszkolny Happy",
                "name": "Punkt Przedszkolny Happy",
                "addr:country": "PL",
                "addr:postcode": "05-820",
                "addr:city": "Piast\u00f3w",
                "addr:street": "ul. \u017bbikowska",
                "addr:housenumber": "22",
                "addr:door": "1",
                "addr:teryt:simc": 26414,
                "addr:teryt:sym_ul": 921496,
                "contact:phone": "+48 788772102",
                "contact:website": "http:\/\/www.happy-zlobek.pl",
                "ref:regon": "369275107",
                "ref:vatin": "PL5372420385",
                "operator": "Agnieszka D\u0105browska",
                "operator:type": "private",
                "amenity": "kindergarten"
            }
        },
        {
            "id": 24649,
            "type": "Feature",
            "geometry": {
                "type": "Point",
                "coordinates": [
                    20.84488,
                    52.19015
                ]
            },
            "properties": {
                "isced:level": "1;2",
                "ref:rspo": 24649,
                "official_name": "Szko\u0142a Podstawowa Nr 2 im. Marii Sk\u0142odowskiej-Curie",
                "name": "Szko\u0142a Podstawowa Nr 2",
                "addr:country": "PL",
                "addr:postcode": "05-820",
                "addr:city": "Piast\u00f3w",
                "addr:street": "ul. Aleja Krakowska",
                "addr:housenumber": "20",
                "addr:teryt:simc": 41777,
                "addr:teryt:sym_ul": 921496,
                "contact:phone": "+48 227236553",
                "contact:email": "szkola@sp2piastow.pl",
                "contact:website": "http:\/\/www.sp2piastow.pl",
                "ref:regon": "013178386",
                "ref:vatin": "PL5342026229",
                "operator": "Miasto Piast\u00f3w",
                "operator:type": "government",
                "amenity": "school"
            }
        },
        {
            "id": 133334,
            "type": "Feature",
            "geometry": {
                "type": "Point",
                "coordinates": [
                    20.83667,
                    52.19147
                ]
            },
            "properties": {
                "isced:level": "1;2",
                "ref:rspo": 133334,
                "official_name": "Szko\u0142a Podstawowa Nr 5 im. Zbigniewa G\u0119sickiego \"Juno\"",
                "name": "Szko\u0142a Podstawowa Nr 5",
                "addr:country": "PL",
                "addr:postcode": "05-820",
                "addr:city": "Piast\u00f3w",
                "addr:street": "ul. Kazimierza Pu\u0142askiego",
                "addr:housenumber": "6\/8",
                "addr:teryt:simc": 18099,
                "addr:teryt:sym_ul": 921496,
                "contact:phone": "+48 227231472",
                "contact:email": "szkola@sp5piastow.pl",
                "ref:regon": "367061170",
                "operator": "Miasto Piast\u00f3w",
                "operator:type": "government",
                "amenity": "school"
            }
        }
    ]
}