{
    "type": "FeatureCollection",
    "features": [
        {
            "id": 80179,
            "type": "Feature",
            "geometry": {
                "type": "Point",
                "coordinates": [
                    20.79621,
                    52.15093
                ]
            },
            "properties": {
                "ref:rspo": 80179,
                "official_name": "Przedszkole Miejskie Nr 13",
                "name": "Przedszkole Miejskie Nr 13",
                "addr:postcode": "05-800",
                "addr:city": "Pruszk\u00f3w",
                "addr:street": "Antka",
                "addr:housenumber": "7",
                "addr:teryt:simc": 921510,
                "addr:teryt:sym_ul": 347,
                "phone": "+48 227586201",
                "email": "pm13@miasto.pruszkow.pl",
                "website": "http:\/\/przedszkolemiejskienr13.pl",
                "ref:regon": "013008170",
                "ref:vatin": "PL5341458642",
                "operator": "Miasto Pruszk\u00f3w",
                "operator:type": "government",
                "amenity": "kindergarten"
            }
        },
        {
            "id": 271653,
            "type": "Feature",
            "geometry": {
                "type": "Point",
                "coordinates": [
                    20.79388,
                    52.15207
                ]
            },
            "properties": {
                "ref:rspo": 271653,
                "official_name": "Niepubliczne Przedszkole Lemurek",
                "name": "Niepubliczne Przedszkole Lemurek",
                "addr:postcode": "05-800",
                "addr:city": "Pruszk\u00f3w",
                "addr:street": "Emancypantek",
                "addr:housenumber": "4",
                "addr:teryt:simc": 921510,
                "addr:teryt:sym_ul": 4796,
                "email": "biuro.lemurek@gmail.com",
                "ref:regon": "383472676",
                "operator": "Daria Szyma\u0144ska",
                "operator:type": "private",
                "amenity": "kindergarten"
            }
        },
        {
            "id": 131064,
            "type": "Feature",
            "geometry": {
                "type": "Point",
                "coordinates": [
                    20.78997,
                    52.15323
                ]
            },
            "properties": {
                "ref:rspo": 131064,
                "official_name": "Niepubliczna Poradnia Psychologiczno - Pedagogiczna Sensis",
                "name": "Niepubliczna Poradnia Psychologiczno - Pedagogiczna Sensis",
                "addr:postcode": "05-800",
                "addr:city": "Pruszk\u00f3w",
                "addr:street": "Helenowska",
                "addr:housenumber": "26",
                "addr:door": "40",
                "addr:teryt:simc": 921510,
                "addr:teryt:sym_ul": 6574,
                "phone": "+48 500466250",
                "email": "sensis@sensis.edu.pl",
                "website": "http:\/\/www.sensis.edu.pl",
                "ref:regon": "364915298",
                "operator": "Monika Kulesza",
                "operator:type": "private",
                "healthcare": "counselling",
                "counselling_type": "education",
                "fixme": "w zale\u017cno\u015bci od przedmiotu dzia\u0142alno\u015bci (np. healthcare=counselling + counselling_type=education albo healthcare=psychotherapist)"
            }
        },
        {
            "id": 69377,
            "type": "Feature",
            "geometry": {
                "type": "Point",
                "coordinates": [
                    20.79048,
                    52.15612
                ]
            },
            "properties": {
                "ref:rspo": 69377,
                "official_name": "Punkt Przedszkolny Przy \u015arodowiskowym Ognisku Wychowawczym Tpd",
                "name": "Punkt Przedszkolny Przy \u015arodowiskowym Ognisku Wychowawczym Tpd",
                "addr:postcode": "05-800",
                "addr:city": "Pruszk\u00f3w",
                "addr:street": "Helenowska",
                "addr:housenumber": "3a",
                "addr:teryt:simc": 921510,
                "addr:teryt:sym_ul": 6574,
                "ref:regon": "146380334",
                "ref:vatin": "PL5252265692",
                "operator": "Towarzystwo Przyjaci\u00f3\u0142 Dzieci Zarz\u0105d Mazowieckiego Oddzia\u0142u Wojew\u00f3dzkiego",
                "operator:type": "ngo",
                "amenity": "kindergarten"
            }
        },
        {
            "id": 104847,
            "type": "Feature",
            "geometry": {
                "type": "Point",
                "coordinates": [
                    20.79048,
                    52.15609
                ]
            },
            "properties": {
                "isced:level": "3",
                "ref:rspo": 104847,
                "official_name": "Niepubliczne Liceum Og\u00f3lnokszta\u0142c\u0105ce dla Doros\u0142ych",
                "name": "Niepubliczne Liceum Og\u00f3lnokszta\u0142c\u0105ce dla Doros\u0142ych",
                "addr:postcode": "05-800",
                "addr:city": "Pruszk\u00f3w",
                "addr:street": "Helenowska",
                "addr:housenumber": "3",
                "addr:teryt:simc": 921510,
                "addr:teryt:sym_ul": 6574,
                "phone": "+48 227586633",
                "email": "lo1dladoroslych@gmail.com",
                "website": "http:\/\/www.szkolydladoroslych.pl",
                "ref:regon": "146450187",
                "operator": "Ewa Grela",
                "operator:type": "private",
                "amenity": "school"
            }
        },
        {
            "id": 128038,
            "type": "Feature",
            "geometry": {
                "type": "Point",
                "coordinates": [
                    20.8041899,
                    52.15685
                ]
            },
            "properties": {
                "ref:rspo": 128038,
                "official_name": "Pogodne Przedszkole Montessori",
                "name": "Pogodne Przedszkole Montessori",
                "addr:postcode": "05-800",
                "addr:city": "Pruszk\u00f3w",
                "addr:street": "Targowa",
                "addr:housenumber": "6",
                "addr:door": "5 i 6",
                "addr:teryt:simc": 921510,
                "addr:teryt:sym_ul": 22659,
                "phone": "+48 660670306",
                "ref:regon": "362045143",
                "ref:vatin": "PL5342501819",
                "operator": "Pogodne Przedszkole Montessori Sp\u00f3\u0142ka Z Ograniczon\u0105 Odpowiedzialno\u015bci\u0105",
                "operator:type": "private",
                "amenity": "kindergarten"
            }
        },
        {
            "id": 120738,
            "type": "Feature",
            "geometry": {
                "type": "Point",
                "coordinates": [
                    20.8057,
                    52.1569999
                ]
            },
            "properties": {
                "ref:rspo": 120738,
                "official_name": "Punkt Przedszkolny Baby Club \"Tuptu\u015b\"",
                "name": "Punkt Przedszkolny Baby Club \"Tuptu\u015b\"",
                "addr:postcode": "05-800",
                "addr:city": "Pruszk\u00f3w",
                "addr:street": "Komorowska",
                "addr:housenumber": "43A",
                "addr:teryt:simc": 921510,
                "addr:teryt:sym_ul": 9075,
                "phone": "+48 883322446",
                "email": "tuptus1@onet.eu",
                "website": "http:\/\/www.tuptus.edu.pl",
                "ref:regon": "146950458",
                "ref:vatin": "PL5342422592",
                "operator": "Baby Club Tuptu\u015b Sp\u00f3\u0142ka Z Ograniczon\u0105 Odpowiedzialno\u015bci\u0105",
                "operator:type": "private",
                "amenity": "kindergarten"
            }
        },
        {
            "id": 91310,
            "type": "Feature",
            "geometry": {
                "type": "Point",
                "coordinates": [
                    20.81842,
                    52.15714
                ]
            },
            "properties": {
                "ref:rspo": 91310,
                "official_name": "Punkt Przedszkolny \"Bursztynek\"",
                "name": "Punkt Przedszkolny \"Bursztynek\"",
                "addr:postcode": "05-800",
                "addr:city": "Pruszk\u00f3w",
                "addr:street": "Kosynier\u00f3w",
                "addr:housenumber": "13",
                "addr:teryt:simc": 921510,
                "addr:teryt:sym_ul": 9501,
                "phone": "+48 509286062",
                "ref:regon": "146407369",
                "operator": "Agnieszka Szymczyk-Wierzbik",
                "operator:type": "private",
                "amenity": "kindergarten"
            }
        },
        {
            "id": 78209,
            "type": "Feature",
            "geometry": {
                "type": "Point",
                "coordinates": [
                    20.79195,
                    52.15732
                ]
            },
            "properties": {
                "isced:level": "1;2",
                "ref:rspo": 78209,
                "official_name": "Szko\u0142a Podstawowa Nr 2 im.k. Makuszy\u0144skiego",
                "name": "Szko\u0142a Podstawowa Nr 2 im.k. Makuszy\u0144skiego",
                "addr:postcode": "05-800",
                "addr:city": "Pruszk\u00f3w",
                "addr:street": "Jasna",
                "addr:housenumber": "2",
                "addr:teryt:simc": 921510,
                "addr:teryt:sym_ul": 7335,
                "phone": "+48 227587974",
                "email": "sp2@miasto.pruszkow.pl",
                "website": "http:\/\/www.sp2pruszkow.pl",
                "ref:regon": "010418967",
                "ref:vatin": "PL5341463689",
                "operator": "Miasto Pruszk\u00f3w",
                "operator:type": "government",
                "amenity": "school"
            }
        },
        {
            "id": 91283,
            "type": "Feature",
            "geometry": {
                "type": "Point",
                "coordinates": [
                    20.79195,
                    52.157289999999996
                ]
            },
            "properties": {
                "ref:rspo": 91283,
                "official_name": "Przedszkole Miejskie Nr 14 \"R\u00f3\u017cany Ogr\u00f3d\"",
                "name": "Przedszkole Miejskie Nr 14 \"R\u00f3\u017cany Ogr\u00f3d\"",
                "addr:postcode": "05-800",
                "addr:city": "Pruszk\u00f3w",
                "addr:street": "Jasna",
                "addr:housenumber": "2",
                "addr:teryt:simc": 921510,
                "addr:teryt:sym_ul": 7335,
                "phone": "+48 227582038",
                "ref:regon": "013007970",
                "ref:vatin": "PL5341458613",
                "operator": "Miasto Pruszk\u00f3w",
                "operator:type": "government",
                "amenity": "kindergarten"
            }
        },
        {
            "id": 69374,
            "type": "Feature",
            "geometry": {
                "type": "Point",
                "coordinates": [
                    20.82081,
                    52.15754
                ]
            },
            "properties": {
                "ref:rspo": 69374,
                "official_name": "Przedszkole Niepubliczne Dzia\u0142alno\u015b\u0107 Dydaktyczno Wychowawcza",
                "name": "Przedszkole Niepubliczne Dzia\u0142alno\u015b\u0107 Dydaktyczno Wychowawcza",
                "addr:postcode": "05-803",
                "addr:city": "Pruszk\u00f3w",
                "addr:street": "Zawiszy",
                "addr:housenumber": "3",
                "addr:teryt:simc": 921510,
                "addr:teryt:sym_ul": 25853,
                "phone": "+48 227587908",
                "ref:regon": "146380305",
                "ref:vatin": "PL5341913129",
                "operator": "Zgromadzenie Si\u00f3str S\u0142u\u017cebnic Jezusa W Eucharystii",
                "operator:type": "religious",
                "amenity": "kindergarten"
            }
        },
        {
            "id": 131109,
            "type": "Feature",
            "geometry": {
                "type": "Point",
                "coordinates": [
                    20.8134799,
                    52.1580299
                ]
            },
            "properties": {
                "ref:rspo": 131109,
                "official_name": "Niepubliczna Poradnia Psychologiczno - Pedagogiczna \"Rim\"",
                "name": "Niepubliczna Poradnia Psychologiczno - Pedagogiczna \"Rim\"",
                "addr:postcode": "05-800",
                "addr:city": "Pruszk\u00f3w",
                "addr:street": "Wo\u0142owskiego",
                "addr:housenumber": "5",
                "addr:teryt:simc": 921510,
                "addr:teryt:sym_ul": 24729,
                "phone": "+48 507295988",
                "email": "biuro@centrum-rim.pl",
                "website": "http:\/\/www.centrum-rim.pl",
                "ref:regon": "364944302",
                "operator": "Barbara Kropielnicka",
                "operator:type": "private",
                "healthcare": "counselling",
                "counselling_type": "education",
                "fixme": "w zale\u017cno\u015bci od przedmiotu dzia\u0142alno\u015bci (np. healthcare=counselling + counselling_type=education albo healthcare=psychotherapist)"
            }
        },
        {
            "id": 3178,
            "type": "Feature",
            "geometry": {
                "type": "Point",
                "coordinates": [
                    20.81079,
                    52.15837
                ]
            },
            "properties": {
                "ref:rspo": 3178,
                "official_name": "Weso\u0142e Kangurki",
                "name": "Weso\u0142e Kangurki",
                "addr:postcode": "05-800",
                "addr:city": "Pruszk\u00f3w",
                "addr:street": "Ceglana",
                "addr:housenumber": "14",
                "addr:door": "11",
                "addr:teryt:simc": 921510,
                "addr:teryt:sym_ul": 2587,
                "phone": "+48 697124127",
                "email": "przedszkolekangurki@gmail.com",
                "ref:regon": "146247144",
                "operator": "Katarzyna Gierlach",
                "operator:type": "private",
                "amenity": "kindergarten"
            }
        },
        {
            "id": 87100,
            "type": "Feature",
            "geometry": {
                "type": "Point",
                "coordinates": [
                    20.78619,
                    52.15839
                ]
            },
            "properties": {
                "ref:rspo": 87100,
                "official_name": "Przedszkole Miejskie Nr 15",
                "name": "Przedszkole Miejskie Nr 15",
                "addr:postcode": "05-800",
                "addr:city": "Pruszk\u00f3w",
                "addr:street": "D\u0119bowa",
                "addr:housenumber": "8",
                "addr:teryt:simc": 921510,
                "addr:teryt:sym_ul": 3811,
                "phone": "+48 227588838",
                "email": "przedszkole@pm15.pl",
                "website": "http:\/\/pm15.pl",
                "ref:regon": "013007963",
                "ref:vatin": "PL5341458547",
                "operator": "Miasto Pruszk\u00f3w",
                "operator:type": "government",
                "amenity": "kindergarten"
            }
        },
        {
            "id": 273406,
            "type": "Feature",
            "geometry": {
                "type": "Point",
                "coordinates": [
                    20.81745,
                    52.15849
                ]
            },
            "properties": {
                "ref:rspo": 273406,
                "official_name": "Promienie Ostoja Przedszkole Fundacji Sternik",
                "name": "Promienie Ostoja Przedszkole Fundacji Sternik",
                "addr:postcode": "05-800",
                "addr:city": "Pruszk\u00f3w",
                "addr:street": "Ksi\u0119cia J\u00f3zefa",
                "addr:housenumber": "1",
                "addr:teryt:simc": 921510,
                "addr:teryt:sym_ul": 7624,
                "email": "przedszkole.promienie@promienie.edu.pl",
                "ref:regon": "384463640",
                "operator": "\"Fundacja Sternik-Warszawa Zach\u00f3d\"",
                "operator:type": "ngo",
                "amenity": "kindergarten"
            }
        },
        {
            "id": 276308,
            "type": "Feature",
            "geometry": {
                "type": "Point",
                "coordinates": [
                    20.81476,
                    52.15862
                ]
            },
            "properties": {
                "ref:rspo": 276308,
                "official_name": "Przedszkole Sezamkowa",
                "name": "Przedszkole Sezamkowa",
                "addr:postcode": "05-800",
                "addr:city": "Pruszk\u00f3w",
                "addr:street": "Wo\u0142owskiego",
                "addr:housenumber": "2",
                "addr:door": "U1",
                "addr:teryt:simc": 921510,
                "addr:teryt:sym_ul": 24729,
                "email": "sezamkowa2@wp.pl",
                "ref:regon": "387085806",
                "ref:vatin": "PL5291826462",
                "operator": "Adrian D\u0105browski",
                "operator:type": "private",
                "amenity": "kindergarten"
            }
        },
        {
            "id": 84354,
            "type": "Feature",
            "geometry": {
                "type": "Point",
                "coordinates": [
                    20.81343,
                    52.15937
                ]
            },
            "properties": {
                "isced:level": "1;2",
                "ref:rspo": 84354,
                "official_name": "Szko\u0142a Podstawowa Nr 6 im. H. Sienkiewicza",
                "name": "Szko\u0142a Podstawowa Nr 6",
                "addr:postcode": "05-800",
                "addr:city": "Pruszk\u00f3w",
                "addr:street": "Lipowa",
                "addr:housenumber": "31",
                "addr:teryt:simc": 921510,
                "addr:teryt:sym_ul": 11139,
                "phone": "+48 227587944",
                "email": "sp6@miasto.pruszkow.pl",
                "ref:regon": "010421538",
                "ref:vatin": "PL5341464803",
                "operator": "Miasto Pruszk\u00f3w",
                "operator:type": "government",
                "amenity": "school"
            }
        },
        {
            "id": 274004,
            "type": "Feature",
            "geometry": {
                "type": "Point",
                "coordinates": [
                    20.79789,
                    52.15942
                ]
            },
            "properties": {
                "isced:level": "1;2",
                "ref:rspo": 274004,
                "official_name": "Podstawowa Szko\u0142a Montessori w Pruszkowie",
                "name": "Podstawowa Szko\u0142a Montessori w Pruszkowie",
                "addr:postcode": "05-800",
                "addr:city": "Pruszk\u00f3w",
                "addr:street": "Powsta\u0144c\u00f3w",
                "addr:housenumber": "7A",
                "addr:door": "U2",
                "addr:teryt:simc": 921510,
                "addr:teryt:sym_ul": 17354,
                "phone": "+48 660670306",
                "email": "kontakt@pogodneprzedszkole.pl",
                "ref:regon": "384993727",
                "operator": "Pogodne Przedszkole Montessori Sp\u00f3\u0142ka Z Ograniczon\u0105 Odpowiedzialno\u015bci\u0105",
                "operator:type": "private",
                "amenity": "school"
            }
        },
        {
            "id": 274005,
            "type": "Feature",
            "geometry": {
                "type": "Point",
                "coordinates": [
                    20.79789,
                    52.159389999999995
                ]
            },
            "properties": {
                "ref:rspo": 274005,
                "official_name": "Przedszkole Montessori Pocemon",
                "name": "Przedszkole Montessori Pocemon",
                "addr:postcode": "05-800",
                "addr:city": "Pruszk\u00f3w",
                "addr:street": "Powsta\u0144c\u00f3w",
                "addr:housenumber": "7A",
                "addr:door": "U2",
                "addr:teryt:simc": 921510,
                "addr:teryt:sym_ul": 17354,
                "phone": "+48 660670306",
                "email": "kontakt@pogodneprzedszkole.pl",
                "ref:regon": "384994537",
                "operator": "Pogodne Przedszkole Montessori Sp\u00f3\u0142ka Z Ograniczon\u0105 Odpowiedzialno\u015bci\u0105",
                "operator:type": "private",
                "amenity": "kindergarten"
            }
        },
        {
            "id": 128756,
            "type": "Feature",
            "geometry": {
                "type": "Point",
                "coordinates": [
                    20.78478,
                    52.1597
                ]
            },
            "properties": {
                "ref:rspo": 128756,
                "official_name": "Przedszkole Z Oddzia\u0142ami Integracyjnymi Mali Olimpijczycy",
                "name": "Przedszkole Z Oddzia\u0142ami Integracyjnymi Mali Olimpijczycy",
                "addr:postcode": "05-804",
                "addr:city": "Pruszk\u00f3w",
                "addr:street": "Akacjowa",
                "addr:housenumber": "1",
                "addr:teryt:simc": 921510,
                "addr:teryt:sym_ul": 157,
                "phone": "+48 506141922",
                "email": "przedszkole@mali-olimpijczycy.pl",
                "ref:regon": "362395529",
                "operator": "Ama Sp\u00f3\u0142ka Z Ograniczon\u0105 Odpowiedzialno\u015bci\u0105",
                "operator:type": "private",
                "amenity": "kindergarten"
            }
        },
        {
            "id": 133694,
            "type": "Feature",
            "geometry": {
                "type": "Point",
                "coordinates": [
                    20.80094,
                    52.1604
                ]
            },
            "properties": {
                "isced:level": "1;2",
                "ref:rspo": 133694,
                "official_name": "Szko\u0142a Podstawowa Nr 3 im. Miry Zimi\u0144skiej-Sygiety\u0144skiej, Z Oddzia\u0142ami Przedszkolnymi I Oddzia\u0142ami Integracyjnymi",
                "name": "Szko\u0142a Podstawowa Nr 3",
                "addr:postcode": "05-800",
                "addr:city": "Pruszk\u00f3w",
                "addr:street": "Aleja Wojska Polskiego",
                "addr:housenumber": "34",
                "addr:teryt:simc": 921510,
                "addr:teryt:sym_ul": 24623,
                "phone": "+48 227280883",
                "email": "sp3@miasto.pruszkow.pl",
                "ref:regon": "367543319",
                "operator": "Miasto Pruszk\u00f3w",
                "operator:type": "government",
                "amenity": "school"
            }
        },
        {
            "id": 278569,
            "type": "Feature",
            "geometry": {
                "type": "Point",
                "coordinates": [
                    20.80515,
                    52.16088
                ]
            },
            "properties": {
                "ref:rspo": 278569,
                "official_name": "Niepubliczne Przedszkole Otulina",
                "name": "Niepubliczne Przedszkole Otulina",
                "addr:postcode": "05-803",
                "addr:city": "Pruszk\u00f3w",
                "addr:street": "Boles\u0142awa Prusa",
                "addr:housenumber": "35",
                "addr:door": "U2",
                "addr:teryt:simc": 921510,
                "addr:teryt:sym_ul": 17577,
                "phone": "+48 606698325",
                "email": "firmanty.karolina@gmail.com",
                "ref:regon": "389974150",
                "ref:vatin": "PL5342557748",
                "operator": "Kwf Sp\u00f3\u0142ka Z Ograniczon\u0105 Odpowiedzialno\u015bci\u0105",
                "operator:type": "consortium",
                "amenity": "kindergarten"
            }
        },
        {
            "id": 132192,
            "type": "Feature",
            "geometry": {
                "type": "Point",
                "coordinates": [
                    20.79305,
                    52.16097
                ]
            },
            "properties": {
                "ref:rspo": 132192,
                "official_name": "Niepubliczny Punkt Przedszkolny \"Rim\"",
                "name": "Niepubliczny Punkt Przedszkolny \"Rim\"",
                "addr:postcode": "05-800",
                "addr:city": "Pruszk\u00f3w",
                "addr:street": "O\u0142\u00f3wkowa",
                "addr:housenumber": "39",
                "addr:teryt:simc": 921510,
                "addr:teryt:sym_ul": 15037,
                "phone": "+48 882107121",
                "email": "przedszkole@centrum-rim.pl",
                "ref:regon": "365498282",
                "operator": "Barbara Kropielnicka",
                "operator:type": "private",
                "amenity": "kindergarten"
            }
        },
        {
            "id": 74205,
            "type": "Feature",
            "geometry": {
                "type": "Point",
                "coordinates": [
                    20.78497,
                    52.16099
                ]
            },
            "properties": {
                "ref:rspo": 74205,
                "official_name": "Poradnia Psychologiczno-Pedagogiczna",
                "name": "Poradnia Psychologiczno-Pedagogiczna",
                "addr:postcode": "05-800",
                "addr:city": "Pruszk\u00f3w",
                "addr:street": "Juliana Gomuli\u0144skiego",
                "addr:housenumber": "2",
                "addr:teryt:simc": 921510,
                "addr:teryt:sym_ul": 5793,
                "phone": "+48 227586829",
                "email": "kontakt@pruszkowporadnia.pl",
                "website": "http:\/\/www.pruszkowporadnia.pl",
                "ref:regon": "000837643",
                "ref:vatin": "PL5341644155",
                "operator": "Powiat Pruszkowski",
                "operator:type": "government",
                "healthcare": "counselling",
                "counselling_type": "education",
                "fixme": "w zale\u017cno\u015bci od przedmiotu dzia\u0142alno\u015bci (np. healthcare=counselling + counselling_type=education albo healthcare=psychotherapist)"
            }
        },
        {
            "id": 74329,
            "type": "Feature",
            "geometry": {
                "type": "Point",
                "coordinates": [
                    20.78497,
                    52.160959999999996
                ]
            },
            "properties": {
                "ref:rspo": 74329,
                "official_name": "Zesp\u00f3\u0142 Szk\u00f3\u0142 Og\u00f3lnokszta\u0142c\u0105cych I Sportowych",
                "name": "Zesp\u00f3\u0142 Szk\u00f3\u0142 Og\u00f3lnokszta\u0142c\u0105cych I Sportowych",
                "addr:postcode": "05-804",
                "addr:city": "Pruszk\u00f3w",
                "addr:street": "Juliana Gomuli\u0144skiego",
                "addr:housenumber": "2",
                "addr:teryt:simc": 921510,
                "addr:teryt:sym_ul": 5793,
                "phone": "+48 227588962",
                "email": "sekretariat@zsoispruszkow.pl",
                "website": "http:\/\/www.zsoispruszkow.pl",
                "ref:regon": "000660311",
                "ref:vatin": "PL5341838155",
                "operator": "Powiat Pruszkowski",
                "operator:type": "government",
                "landuse": "education",
                "fixme": "amenity=school, amenity=college albo landuse=education w zale\u017cno\u015bci od tego, jakie plac\u00f3wki wchodz\u0105 w sk\u0142ad zespo\u0142u. Sprawd\u017a, kiedy stosowa\u0107 amenity=* a kiedy landuse=education.",
                "note": "Children RSPO: 109344;109345;131602"
            }
        },
        {
            "id": 109344,
            "type": "Feature",
            "geometry": {
                "type": "Point",
                "coordinates": [
                    20.78497,
                    52.16093
                ]
            },
            "properties": {
                "isced:level": "3",
                "ref:rspo": 109344,
                "official_name": "Liceum Og\u00f3lnokszta\u0142c\u0105ce Sportowe",
                "name": "Liceum Og\u00f3lnokszta\u0142c\u0105ce Sportowe",
                "addr:postcode": "05-804",
                "addr:city": "Pruszk\u00f3w",
                "addr:street": "Juliana Gomuli\u0144skiego",
                "addr:housenumber": "2",
                "addr:teryt:simc": 921510,
                "addr:teryt:sym_ul": 5793,
                "phone": "+48 227588962",
                "email": "sekretariat@zsoispruszkow.pl",
                "website": "http:\/\/www.zsoispruszkow.pl",
                "ref:regon": "141989579",
                "operator": "Powiat Pruszkowski",
                "operator:type": "government",
                "amenity": "school",
                "note": "Parent RSPO: 74329"
            }
        },
        {
            "id": 109345,
            "type": "Feature",
            "geometry": {
                "type": "Point",
                "coordinates": [
                    20.78497,
                    52.1609
                ]
            },
            "properties": {
                "isced:level": "3",
                "ref:rspo": 109345,
                "official_name": "Liceum Og\u00f3lnokszta\u0142c\u0105ce",
                "name": "Liceum Og\u00f3lnokszta\u0142c\u0105ce",
                "addr:postcode": "05-800",
                "addr:city": "Pruszk\u00f3w",
                "addr:street": "Juliana Gomuli\u0144skiego",
                "addr:housenumber": "2",
                "addr:teryt:simc": 921510,
                "addr:teryt:sym_ul": 5793,
                "phone": "+48 227588962",
                "email": "sekretariat@zsoispruszkow.pl",
                "website": "http:\/\/www.zsoispruszkow.pl",
                "ref:regon": "015768376",
                "operator": "Powiat Pruszkowski",
                "operator:type": "government",
                "amenity": "school",
                "note": "Parent RSPO: 74329"
            }
        },
        {
            "id": 131602,
            "type": "Feature",
            "geometry": {
                "type": "Point",
                "coordinates": [
                    20.78497,
                    52.160869999999996
                ]
            },
            "properties": {
                "isced:level": "3",
                "ref:rspo": 131602,
                "official_name": "Szko\u0142a Mistrzostwa Sportowego Liceum Og\u00f3lnokszta\u0142c\u0105ce",
                "name": "Szko\u0142a Mistrzostwa Sportowego Liceum Og\u00f3lnokszta\u0142c\u0105ce",
                "addr:postcode": "05-800",
                "addr:city": "Pruszk\u00f3w",
                "addr:street": "Juliana Gomuli\u0144skiego",
                "addr:housenumber": "2",
                "addr:teryt:simc": 921510,
                "addr:teryt:sym_ul": 5793,
                "phone": "+48 227588962",
                "email": "sekretariat@zsoispruszkow.pl",
                "website": "http:\/\/www.zsoispruszkow.pl",
                "ref:regon": "365324004",
                "operator": "Powiat Pruszkowski",
                "operator:type": "government",
                "amenity": "school",
                "note": "Parent RSPO: 74329"
            }
        },
        {
            "id": 85861,
            "type": "Feature",
            "geometry": {
                "type": "Point",
                "coordinates": [
                    20.78349,
                    52.16114
                ]
            },
            "properties": {
                "ref:rspo": 85861,
                "official_name": "Mi\u0119dzyszkolny O\u015brodek Sportowy",
                "name": "Mi\u0119dzyszkolny O\u015brodek Sportowy",
                "addr:postcode": "05-804",
                "addr:city": "Pruszk\u00f3w",
                "addr:street": "Juliana Gomuli\u0144skiego",
                "addr:housenumber": "4",
                "addr:teryt:simc": 921510,
                "addr:teryt:sym_ul": 5793,
                "phone": "+48 227582291",
                "email": "mos@mospruszkow.pl",
                "website": "http:\/\/mospruszkow.pl\/",
                "ref:regon": "001193998",
                "ref:vatin": "PL5341644020",
                "operator": "Powiat Pruszkowski",
                "operator:type": "government",
                "leisure": "sports_centre"
            }
        },
        {
            "id": 84352,
            "type": "Feature",
            "geometry": {
                "type": "Point",
                "coordinates": [
                    20.7951799,
                    52.16151
                ]
            },
            "properties": {
                "isced:level": "1;2",
                "ref:rspo": 84352,
                "official_name": "Szko\u0142a Podstawowa Nr 8 im. W. Broniewskiego",
                "name": "Szko\u0142a Podstawowa Nr 8",
                "addr:postcode": "05-800",
                "addr:city": "Pruszk\u00f3w",
                "addr:street": "Obro\u0144c\u00f3w Pokoju",
                "addr:housenumber": "44",
                "addr:teryt:simc": 921510,
                "addr:teryt:sym_ul": 14642,
                "phone": "+48 227586893",
                "email": "sp8@miasto.pruszkow.pl",
                "website": "http:\/\/www.sp8pruszkow.pl",
                "ref:regon": "010421395",
                "ref:vatin": "PL5341470092",
                "operator": "Miasto Pruszk\u00f3w",
                "operator:type": "government",
                "amenity": "school"
            }
        },
        {
            "id": 49309,
            "type": "Feature",
            "geometry": {
                "type": "Point",
                "coordinates": [
                    20.80979,
                    52.16164
                ]
            },
            "properties": {
                "isced:level": "1;2",
                "ref:rspo": 49309,
                "official_name": "Szko\u0142a Podstawowa Niepubliczna Nr 39 w Pruszkowie",
                "name": "Szko\u0142a Podstawowa Niepubliczna Nr 39 w Pruszkowie",
                "addr:postcode": "05-800",
                "addr:city": "Pruszk\u00f3w",
                "addr:street": "Ko\u015bcielna",
                "addr:housenumber": "5",
                "addr:teryt:simc": 921510,
                "addr:teryt:sym_ul": 9546,
                "phone": "+48 227582159",
                "email": "krzysztofwarszykowski@wp.pl",
                "ref:regon": "146367405",
                "ref:vatin": "PL5341889980",
                "operator": "Krzysztof Warszykowski",
                "operator:type": "private",
                "amenity": "school"
            }
        },
        {
            "id": 79167,
            "type": "Feature",
            "geometry": {
                "type": "Point",
                "coordinates": [
                    20.81973,
                    52.16207
                ]
            },
            "properties": {
                "ref:rspo": 79167,
                "official_name": "Przedszkole Miejskie Nr 12",
                "name": "Przedszkole Miejskie Nr 12",
                "addr:postcode": "05-800",
                "addr:city": "Pruszk\u00f3w",
                "addr:street": "Andrzeja",
                "addr:housenumber": "12",
                "addr:teryt:simc": 921510,
                "addr:teryt:sym_ul": 301,
                "phone": "+48 227582258",
                "email": "pm12@miasto.pruszkow.pl",
                "website": "http:\/\/przedszkole12.pruszkow.pl",
                "ref:regon": "013007986",
                "ref:vatin": "PL5341458725",
                "operator": "Miasto Pruszk\u00f3w",
                "operator:type": "government",
                "amenity": "kindergarten"
            }
        },
        {
            "id": 125111,
            "type": "Feature",
            "geometry": {
                "type": "Point",
                "coordinates": [
                    20.80472,
                    52.16226
                ]
            },
            "properties": {
                "ref:rspo": 125111,
                "official_name": "Niepubliczne Przedszkole Specjalistyczne \"M\u0105dra S\u00f3wka\"",
                "name": "Niepubliczne Przedszkole Specjalistyczne \"M\u0105dra S\u00f3wka\"",
                "addr:postcode": "05-800",
                "addr:city": "Pruszk\u00f3w",
                "addr:street": "Aleja Niepodleg\u0142o\u015bci",
                "addr:housenumber": "5",
                "addr:teryt:simc": 921510,
                "addr:teryt:sym_ul": 14199,
                "phone": "+48 503810023",
                "ref:regon": "147425777",
                "operator": "Anna Jakubowska",
                "operator:type": "private",
                "amenity": "kindergarten"
            }
        },
        {
            "id": 128368,
            "type": "Feature",
            "geometry": {
                "type": "Point",
                "coordinates": [
                    20.80472,
                    52.16223
                ]
            },
            "properties": {
                "ref:rspo": 128368,
                "official_name": "Niepubliczna Poradnia Psychologiczno - Pedagogiczna M\u0105dra S\u00f3wka",
                "name": "Niepubliczna Poradnia Psychologiczno - Pedagogiczna M\u0105dra S\u00f3wka",
                "addr:postcode": "05-800",
                "addr:city": "Pruszk\u00f3w",
                "addr:street": "Aleja Niepodleg\u0142o\u015bci",
                "addr:housenumber": "5",
                "addr:teryt:simc": 921510,
                "addr:teryt:sym_ul": 14199,
                "phone": "+48 503810023",
                "email": "poradnia.pruszkow@gmail.com",
                "ref:regon": "362258732",
                "operator": "Anna Jakubowska",
                "operator:type": "private",
                "healthcare": "counselling",
                "counselling_type": "education",
                "fixme": "w zale\u017cno\u015bci od przedmiotu dzia\u0142alno\u015bci (np. healthcare=counselling + counselling_type=education albo healthcare=psychotherapist)"
            }
        },
        {
            "id": 80148,
            "type": "Feature",
            "geometry": {
                "type": "Point",
                "coordinates": [
                    20.79888,
                    52.1624
                ]
            },
            "properties": {
                "ref:rspo": 80148,
                "official_name": "Przedszkole Miejskie Nr 10",
                "name": "Przedszkole Miejskie Nr 10",
                "addr:postcode": "05-800",
                "addr:city": "Pruszk\u00f3w",
                "addr:street": "Fryderyka Chopina",
                "addr:housenumber": "13",
                "addr:teryt:simc": 921510,
                "addr:teryt:sym_ul": 2849,
                "phone": "+48 227588312",
                "email": "pm10@miasto.pruszow.pl",
                "website": "http:\/\/www.przedszkole10.org",
                "ref:regon": "013008000",
                "ref:vatin": "PL5341459044",
                "operator": "Miasto Pruszk\u00f3w",
                "operator:type": "government",
                "amenity": "kindergarten"
            }
        },
        {
            "id": 79094,
            "type": "Feature",
            "geometry": {
                "type": "Point",
                "coordinates": [
                    20.80617,
                    52.16243
                ]
            },
            "properties": {
                "ref:rspo": 79094,
                "official_name": "Przedszkole Miejskie Nr 4 \"Pod Kasztanem\"",
                "name": "Przedszkole Miejskie Nr 4 \"Pod Kasztanem\"",
                "addr:postcode": "05-800",
                "addr:city": "Pruszk\u00f3w",
                "addr:street": "Boles\u0142awa Prusa",
                "addr:housenumber": "27",
                "addr:teryt:simc": 921510,
                "addr:teryt:sym_ul": 17577,
                "phone": "+48 227588929",
                "email": "pm4@miasto.pruszkow.pl",
                "ref:regon": "013008069",
                "ref:vatin": "PL5341459334",
                "operator": "Miasto Pruszk\u00f3w",
                "operator:type": "government",
                "amenity": "kindergarten"
            }
        },
        {
            "id": 129753,
            "type": "Feature",
            "geometry": {
                "type": "Point",
                "coordinates": [
                    20.80182,
                    52.1626199
                ]
            },
            "properties": {
                "ref:rspo": 129753,
                "official_name": "Punkt Przedszkolny \"\u0179r\u00f3de\u0142ko\"",
                "name": "Punkt Przedszkolny \"\u0179r\u00f3de\u0142ko\"",
                "addr:postcode": "05-800",
                "addr:city": "Pruszk\u00f3w",
                "addr:street": "Aleja Niepodleg\u0142o\u015bci",
                "addr:housenumber": "12",
                "addr:teryt:simc": 921510,
                "addr:teryt:sym_ul": 14199,
                "phone": "+48 788670466",
                "email": "mariaprokopiuk@poczta.onet.pl",
                "website": "http:\/\/miejscedlarodziny.pl",
                "ref:regon": "362883720",
                "operator": "Maria Prokopiuk",
                "operator:type": "private",
                "amenity": "kindergarten"
            }
        },
        {
            "id": 80124,
            "type": "Feature",
            "geometry": {
                "type": "Point",
                "coordinates": [
                    20.79597,
                    52.16274
                ]
            },
            "properties": {
                "ref:rspo": 80124,
                "official_name": "Przedszkole Miejskie Nr 9",
                "name": "Przedszkole Miejskie Nr 9",
                "addr:postcode": "05-800",
                "addr:city": "Pruszk\u00f3w",
                "addr:street": "Stanis\u0142awa Moniuszki",
                "addr:housenumber": "9",
                "addr:teryt:simc": 921510,
                "addr:teryt:sym_ul": 13246,
                "phone": "+48 227586853",
                "email": "pm9moniuszki9.pruszkow@op.pl",
                "ref:regon": "013008017",
                "ref:vatin": "PL5341459073",
                "operator": "Miasto Pruszk\u00f3w",
                "operator:type": "government",
                "amenity": "kindergarten"
            }
        },
        {
            "id": 120712,
            "type": "Feature",
            "geometry": {
                "type": "Point",
                "coordinates": [
                    20.7927399,
                    52.16325
                ]
            },
            "properties": {
                "ref:rspo": 120712,
                "official_name": "Niepubliczne Przedszkole Kraina Cud\u00f3w",
                "name": "Niepubliczne Przedszkole Kraina Cud\u00f3w",
                "addr:postcode": "05-800",
                "addr:city": "Pruszk\u00f3w",
                "addr:street": "Stalowa",
                "addr:housenumber": "28\/30",
                "addr:teryt:simc": 921510,
                "addr:teryt:sym_ul": 20808,
                "phone": "+48 501274549",
                "ref:regon": "146945109",
                "ref:vatin": "PL5341093229",
                "operator": "Wizerunek Agnieszka Charaszkiewicz",
                "operator:type": "consortium",
                "amenity": "kindergarten"
            }
        },
        {
            "id": 104649,
            "type": "Feature",
            "geometry": {
                "type": "Point",
                "coordinates": [
                    20.78791,
                    52.16376
                ]
            },
            "properties": {
                "isced:level": "1;2",
                "ref:rspo": 104649,
                "official_name": "\"Azymut\" Szko\u0142a Podstawowa Fundacji Sternik",
                "name": "\"Azymut\" Szko\u0142a Podstawowa Fundacji Sternik",
                "addr:postcode": "05-800",
                "addr:city": "Pruszk\u00f3w",
                "addr:street": "Stanis\u0142awa Staszica",
                "addr:housenumber": "1",
                "addr:teryt:simc": 921510,
                "addr:teryt:sym_ul": 21071,
                "email": "sekretariat@azymut.edu.pl",
                "website": "http:\/\/azymut.edu.pl\/",
                "ref:regon": "146445482",
                "ref:vatin": "PL5342483079",
                "operator": "\"Fundacja Sternik-Warszawa Zach\u00f3d\"",
                "operator:type": "ngo",
                "amenity": "school"
            }
        },
        {
            "id": 129559,
            "type": "Feature",
            "geometry": {
                "type": "Point",
                "coordinates": [
                    20.78791,
                    52.16373
                ]
            },
            "properties": {
                "ref:rspo": 129559,
                "official_name": "\"Promienie Pruszk\u00f3w\" Przedszkole Fundacji Sternik",
                "name": "\"Promienie Pruszk\u00f3w\" Przedszkole Fundacji Sternik",
                "addr:postcode": "05-800",
                "addr:city": "Pruszk\u00f3w",
                "addr:street": "Stanis\u0142awa Staszica",
                "addr:housenumber": "1",
                "addr:teryt:simc": 921510,
                "addr:teryt:sym_ul": 21071,
                "email": "przedszkole.promienie@promienie.edu.pl",
                "website": "http:\/\/www.promienie.edu.pl",
                "ref:regon": "362666371",
                "operator": "\"Fundacja Sternik-Warszawa Zach\u00f3d\"",
                "operator:type": "ngo",
                "amenity": "kindergarten"
            }
        },
        {
            "id": 272877,
            "type": "Feature",
            "geometry": {
                "type": "Point",
                "coordinates": [
                    20.78791,
                    52.163700000000006
                ]
            },
            "properties": {
                "isced:level": "3",
                "ref:rspo": 272877,
                "official_name": "Pryzmat Akademickie Liceum Og\u00f3lnokszta\u0142c\u0105ce Fundacji Sternik",
                "name": "Pryzmat Akademickie Liceum Og\u00f3lnokszta\u0142c\u0105ce Fundacji Sternik",
                "addr:postcode": "05-800",
                "addr:city": "Pruszk\u00f3w",
                "addr:street": "Stanis\u0142awa Staszica",
                "addr:housenumber": "1",
                "addr:teryt:simc": 921510,
                "addr:teryt:sym_ul": 21071,
                "phone": "+48 509000081",
                "email": "sekretariat@sternikpruszkow.edu.pl",
                "website": "http:\/\/www.lopryzmat.edu.pl",
                "ref:regon": "384308045",
                "operator": "\"Fundacja Sternik-Warszawa Zach\u00f3d\"",
                "operator:type": "ngo",
                "amenity": "school"
            }
        },
        {
            "id": 133324,
            "type": "Feature",
            "geometry": {
                "type": "Point",
                "coordinates": [
                    20.82124,
                    52.16376
                ]
            },
            "properties": {
                "isced:level": "4",
                "ref:rspo": 133324,
                "official_name": "Niepubliczna Szko\u0142a Policealna w Pruszkowie",
                "name": "Niepubliczna Szko\u0142a Policealna w Pruszkowie",
                "addr:postcode": "05-800",
                "addr:city": "Pruszk\u00f3w",
                "addr:street": "Andrzeja",
                "addr:housenumber": "1",
                "addr:teryt:simc": 921510,
                "addr:teryt:sym_ul": 301,
                "phone": "+48 227587996",
                "email": "sekretariat@medicum.edu.pl",
                "ref:regon": "367016554",
                "operator": "\"Mtc O\u015brodek Techniczny\" Sp\u00f3\u0142ka Z Ograniczon\u0105 Odpowiedzialno\u015bci\u0105",
                "operator:type": "private",
                "amenity": "college"
            }
        },
        {
            "id": 79989,
            "type": "Feature",
            "geometry": {
                "type": "Point",
                "coordinates": [
                    20.81389,
                    52.16447
                ]
            },
            "properties": {
                "ref:rspo": 79989,
                "official_name": "Przedszkole Miejskie Nr 6",
                "name": "Przedszkole Miejskie Nr 6",
                "addr:postcode": "05-800",
                "addr:city": "Pruszk\u00f3w",
                "addr:street": "Hubala",
                "addr:housenumber": "1",
                "addr:teryt:simc": 921510,
                "addr:teryt:sym_ul": 6769,
                "phone": "+48 227584128",
                "email": "pm6@miasto.pruszkow.pl",
                "ref:regon": "013008046",
                "ref:vatin": "PL5341459268",
                "operator": "Miasto Pruszk\u00f3w",
                "operator:type": "government",
                "amenity": "kindergarten"
            }
        },
        {
            "id": 133696,
            "type": "Feature",
            "geometry": {
                "type": "Point",
                "coordinates": [
                    20.8119096,
                    52.1646752
                ]
            },
            "properties": {
                "isced:level": "1;2",
                "ref:rspo": 133696,
                "official_name": "Szko\u0142a Podstawowa Nr 4 im. Jana Paw\u0142a II, Z Oddzia\u0142ami Przedszkolnymi I Oddzia\u0142ami Sportowymi",
                "name": "Szko\u0142a Podstawowa Nr 4",
                "addr:postcode": "05-800",
                "addr:city": "Pruszk\u00f3w",
                "addr:street": "Hubala",
                "addr:housenumber": "4",
                "addr:teryt:simc": 921510,
                "addr:teryt:sym_ul": 6769,
                "phone": "+48 227586807",
                "email": "sp4@miasto.pruszkow.pl",
                "website": "http:\/\/www.sp4pruszkow.edupage.org",
                "ref:regon": "367543472",
                "operator": "Miasto Pruszk\u00f3w",
                "operator:type": "government",
                "amenity": "school"
            }
        },
        {
            "id": 80165,
            "type": "Feature",
            "geometry": {
                "type": "Point",
                "coordinates": [
                    20.81153,
                    52.165
                ]
            },
            "properties": {
                "ref:rspo": 80165,
                "official_name": "Przedszkole Miejskie Nr 11",
                "name": "Przedszkole Miejskie Nr 11",
                "addr:postcode": "05-800",
                "addr:city": "Pruszk\u00f3w",
                "addr:street": "Hubala",
                "addr:housenumber": "2",
                "addr:teryt:simc": 921510,
                "addr:teryt:sym_ul": 6769,
                "phone": "+48 227584364",
                "ref:regon": "013007992",
                "ref:vatin": "PL5341459015",
                "operator": "Miasto Pruszk\u00f3w",
                "operator:type": "government",
                "amenity": "kindergarten"
            }
        },
        {
            "id": 79947,
            "type": "Feature",
            "geometry": {
                "type": "Point",
                "coordinates": [
                    20.80123,
                    52.16513
                ]
            },
            "properties": {
                "ref:rspo": 79947,
                "official_name": "Przedszkole Miejskie Nr 3",
                "name": "Przedszkole Miejskie Nr 3",
                "addr:postcode": "05-800",
                "addr:city": "Pruszk\u00f3w",
                "addr:street": "Fryderyka Chopina",
                "addr:housenumber": "1",
                "addr:teryt:simc": 921510,
                "addr:teryt:sym_ul": 2849,
                "phone": "+48 227586832",
                "email": "pm3@miasto.pruszkow.pl",
                "website": "http:\/\/przedszkole3.pruszkow.pl",
                "ref:regon": "013008075",
                "ref:vatin": "PL5341461294",
                "operator": "Miasto Pruszk\u00f3w",
                "operator:type": "government",
                "amenity": "kindergarten"
            }
        },
        {
            "id": 120475,
            "type": "Feature",
            "geometry": {
                "type": "Point",
                "coordinates": [
                    20.80772,
                    52.1653499
                ]
            },
            "properties": {
                "ref:rspo": 120475,
                "official_name": "Punkt Przedszkolny-Przedszkolna Akademia U\u015bmiechu",
                "name": "Punkt Przedszkolny-Przedszkolna Akademia U\u015bmiechu",
                "addr:postcode": "05-800",
                "addr:city": "Pruszk\u00f3w",
                "addr:street": "Boles\u0142awa Prusa",
                "addr:housenumber": "61",
                "addr:teryt:simc": 921510,
                "addr:teryt:sym_ul": 17577,
                "phone": "+48 533033122",
                "email": "przedszkolnaakademiapruszkow@gmail.com",
                "ref:regon": "146908522",
                "ref:vatin": "PL7571405656",
                "operator": "Marta Jab\u0142o\u0144ska",
                "operator:type": "private",
                "amenity": "kindergarten"
            }
        },
        {
            "id": 120739,
            "type": "Feature",
            "geometry": {
                "type": "Point",
                "coordinates": [
                    20.808,
                    52.16594
                ]
            },
            "properties": {
                "ref:rspo": 120739,
                "official_name": "Niepubliczne Przedszkole Montessori",
                "name": "Niepubliczne Przedszkole Montessori",
                "addr:postcode": "05-800",
                "addr:city": "Pruszk\u00f3w",
                "addr:street": "Boles\u0142awa Prusa",
                "addr:housenumber": "16",
                "addr:teryt:simc": 921510,
                "addr:teryt:sym_ul": 17577,
                "phone": "+48 227285050",
                "ref:regon": "146950493",
                "ref:vatin": "PL5340019544",
                "operator": "Marlena Sieradzka",
                "operator:type": "private",
                "amenity": "kindergarten"
            }
        },
        {
            "id": 74156,
            "type": "Feature",
            "geometry": {
                "type": "Point",
                "coordinates": [
                    20.804500579834,
                    52.166088104248
                ]
            },
            "properties": {
                "isced:level": "3",
                "ref:rspo": 74156,
                "official_name": "Spo\u0142eczne Liceum Og\u00f3lnokszta\u0142c\u0105ce Nr 23",
                "name": "Spo\u0142eczne Liceum Og\u00f3lnokszta\u0142c\u0105ce Nr 23",
                "addr:postcode": "05-800",
                "addr:city": "Pruszk\u00f3w",
                "addr:street": "Polskiej Organizacji Wojskowej",
                "addr:housenumber": "10",
                "addr:teryt:simc": 921510,
                "addr:teryt:sym_ul": 17049,
                "phone": "+48 227587680",
                "email": "slo23_pruszkow@o2.pl",
                "website": "http:\/\/www.slo23.edu.pl",
                "ref:regon": "146400864",
                "ref:vatin": "PL5341815438",
                "operator": "Obywatelskie Towarzystwo Edukacyjne",
                "operator:type": "ngo",
                "amenity": "school"
            }
        },
        {
            "id": 267059,
            "type": "Feature",
            "geometry": {
                "type": "Point",
                "coordinates": [
                    20.804500579834,
                    52.166058104247995
                ]
            },
            "properties": {
                "isced:level": "1;2",
                "ref:rspo": 267059,
                "official_name": "Szko\u0142a Podstawowa Nr 5 Im I. J. Paderewskiego",
                "name": "Szko\u0142a Podstawowa Nr 5 Im I. J. Paderewskiego",
                "addr:postcode": "05-800",
                "addr:city": "Pruszk\u00f3w",
                "addr:street": "Jana D\u0142ugosza",
                "addr:housenumber": "53",
                "addr:teryt:simc": 921510,
                "addr:teryt:sym_ul": 3851,
                "phone": "+48 224863121",
                "email": "sekretariat@sp5pruszkow.pl",
                "website": "http:\/\/www.sp5pruszkow.pl",
                "ref:regon": "369856146",
                "operator": "Miasto Pruszk\u00f3w",
                "operator:type": "government",
                "amenity": "school"
            }
        },
        {
            "id": 56154,
            "type": "Feature",
            "geometry": {
                "type": "Point",
                "coordinates": [
                    20.8017893,
                    52.1661409
                ]
            },
            "properties": {
                "ref:rspo": 56154,
                "official_name": "Pa\u0144stwowa Szko\u0142a Muzyczna I St. im. Witolda Lutos\u0142awskiego w Pruszkowie",
                "name": "Pa\u0144stwowa Szko\u0142a Muzyczna I St.",
                "addr:postcode": "05-800",
                "addr:city": "Pruszk\u00f3w",
                "addr:street": "Tadeusza Ko\u015bciuszki",
                "addr:housenumber": "41",
                "addr:teryt:simc": 921510,
                "addr:teryt:sym_ul": 9582,
                "phone": "+48 227588086",
                "email": "psmpru@poczta.onet.pl",
                "website": "http:\/\/www.muzyczna.pruszkow.pl",
                "ref:regon": "000841142",
                "operator": "Ministerstwo Kultury I Dziedzictwa Narodowego",
                "operator:type": "public",
                "amenity": "music_school"
            }
        },
        {
            "id": 74338,
            "type": "Feature",
            "geometry": {
                "type": "Point",
                "coordinates": [
                    20.8017893,
                    52.1661109
                ]
            },
            "properties": {
                "ref:rspo": 74338,
                "official_name": "M\u0142odzie\u017cowy Dom Kultury",
                "name": "M\u0142odzie\u017cowy Dom Kultury",
                "addr:postcode": "05-800",
                "addr:city": "Pruszk\u00f3w",
                "addr:street": "Tadeusza Ko\u015bciuszki",
                "addr:housenumber": "41",
                "addr:teryt:simc": 921510,
                "addr:teryt:sym_ul": 9582,
                "phone": "+48 227588128",
                "email": "sekretariat@mdkpruszkow.pl",
                "website": "http:\/\/www.mdkpruszkow.pl",
                "ref:regon": "000959346",
                "ref:vatin": "PL5341644362",
                "operator": "Powiat Pruszkowski",
                "operator:type": "government",
                "amenity": "community_centre",
                "community_centre:for": "juvenile"
            }
        },
        {
            "id": 119923,
            "type": "Feature",
            "geometry": {
                "type": "Point",
                "coordinates": [
                    20.82041,
                    52.16622
                ]
            },
            "properties": {
                "ref:rspo": 119923,
                "official_name": "Punkt Przedszkolny \"Promyk 2\"",
                "name": "Punkt Przedszkolny \"Promyk 2\"",
                "addr:postcode": "05-800",
                "addr:city": "Pruszk\u00f3w",
                "addr:street": "Kr\u0119ta",
                "addr:housenumber": "1",
                "addr:teryt:simc": 921510,
                "addr:teryt:sym_ul": 9925,
                "phone": "+48 698580175",
                "ref:regon": "146870995",
                "operator": "Izabela Makowska - P\u0142ocharska",
                "operator:type": "private",
                "amenity": "kindergarten"
            }
        },
        {
            "id": 268006,
            "type": "Feature",
            "geometry": {
                "type": "Point",
                "coordinates": [
                    20.80124,
                    52.16644
                ]
            },
            "properties": {
                "ref:rspo": 268006,
                "official_name": "Niepubliczny Punkt Przedszkolny \"S\u0142oneczna Kraina III\"",
                "name": "Niepubliczny Punkt Przedszkolny \"S\u0142oneczna Kraina III\"",
                "addr:postcode": "05-800",
                "addr:city": "Pruszk\u00f3w",
                "addr:street": "Fryderyka Chopina",
                "addr:housenumber": "2\/4",
                "addr:teryt:simc": 921510,
                "addr:teryt:sym_ul": 2849,
                "email": "k.bors@autograf.pl",
                "ref:regon": "380859200",
                "operator": "Katarzyna Bors",
                "operator:type": "private",
                "amenity": "kindergarten"
            }
        },
        {
            "id": 273408,
            "type": "Feature",
            "geometry": {
                "type": "Point",
                "coordinates": [
                    20.80124,
                    52.16641
                ]
            },
            "properties": {
                "ref:rspo": 273408,
                "official_name": "Niepubliczny Punkt Przedszkolny \"S\u0142oneczna Kraina IV\"",
                "name": "Niepubliczny Punkt Przedszkolny \"S\u0142oneczna Kraina IV\"",
                "addr:postcode": "05-800",
                "addr:city": "Pruszk\u00f3w",
                "addr:street": "Fryderyka Chopina",
                "addr:housenumber": "2\/4",
                "addr:teryt:simc": 921510,
                "addr:teryt:sym_ul": 2849,
                "phone": "+48 605876543",
                "ref:regon": "384463610",
                "operator": "Katarzyna Bors",
                "operator:type": "private",
                "amenity": "kindergarten"
            }
        },
        {
            "id": 74332,
            "type": "Feature",
            "geometry": {
                "type": "Point",
                "coordinates": [
                    20.80379,
                    52.16659
                ]
            },
            "properties": {
                "isced:level": "3",
                "ref:rspo": 74332,
                "official_name": "Liceum Og\u00f3lnokszta\u0142c\u0105ce im. Tadeusza Ko\u015bciuszki",
                "name": "Liceum Og\u00f3lnokszta\u0142c\u0105ce",
                "addr:postcode": "05-800",
                "addr:city": "Pruszk\u00f3w",
                "addr:street": "Tadeusza Ko\u015bciuszki",
                "addr:housenumber": "38",
                "addr:teryt:simc": 921510,
                "addr:teryt:sym_ul": 9582,
                "phone": "+48 227586373",
                "email": "szkola@kosciuszko.pruszkow.pl",
                "website": "https:\/\/kosciuch-pruszkow.edupage.org\/",
                "ref:regon": "000799368",
                "ref:vatin": "PL5341626826",
                "operator": "Powiat Pruszkowski",
                "operator:type": "government",
                "amenity": "school"
            }
        },
        {
            "id": 109248,
            "type": "Feature",
            "geometry": {
                "type": "Point",
                "coordinates": [
                    20.80049,
                    52.16706
                ]
            },
            "properties": {
                "isced:level": "3",
                "ref:rspo": 109248,
                "official_name": "Liceum Og\u00f3lnokszta\u0142c\u0105ce im. Tomasza Zana",
                "name": "Liceum Og\u00f3lnokszta\u0142c\u0105ce",
                "addr:postcode": "05-800",
                "addr:city": "Pruszk\u00f3w",
                "addr:street": "Ignacego Daszy\u0144skiego",
                "addr:housenumber": "6",
                "addr:teryt:simc": 921510,
                "addr:teryt:sym_ul": 3639,
                "phone": "+48 227587735",
                "email": "sekretariat@zan.pruszkow.pl",
                "website": "http:\/\/zan.pruszkow.pl",
                "ref:regon": "140111455",
                "operator": "Powiat Pruszkowski",
                "operator:type": "government",
                "amenity": "school"
            }
        },
        {
            "id": 132114,
            "type": "Feature",
            "geometry": {
                "type": "Point",
                "coordinates": [
                    20.80755,
                    52.16719
                ]
            },
            "properties": {
                "ref:rspo": 132114,
                "official_name": "Niepubliczny Punkt Przedszkolny \"S\u0142oneczna Kraina\"",
                "name": "Niepubliczny Punkt Przedszkolny \"S\u0142oneczna Kraina\"",
                "addr:postcode": "05-800",
                "addr:city": "Pruszk\u00f3w",
                "addr:street": "Anielin",
                "addr:housenumber": "1",
                "addr:door": "101",
                "addr:teryt:simc": 921510,
                "addr:teryt:sym_ul": 33101,
                "phone": "+48 605876543",
                "ref:regon": "365479250",
                "operator": "Katarzyna Bors",
                "operator:type": "private",
                "amenity": "kindergarten"
            }
        },
        {
            "id": 132197,
            "type": "Feature",
            "geometry": {
                "type": "Point",
                "coordinates": [
                    20.80755,
                    52.167159999999996
                ]
            },
            "properties": {
                "ref:rspo": 132197,
                "official_name": "Niepubliczny Punkt Przedszkolny \"S\u0142oneczna Kraina II\"",
                "name": "Niepubliczny Punkt Przedszkolny \"S\u0142oneczna Kraina II\"",
                "addr:postcode": "05-800",
                "addr:city": "Pruszk\u00f3w",
                "addr:street": "Anielin",
                "addr:housenumber": "1",
                "addr:door": "8",
                "addr:teryt:simc": 921510,
                "addr:teryt:sym_ul": 33101,
                "phone": "+48 605876543",
                "ref:regon": "365498320",
                "operator": "Katarzyna Bors",
                "operator:type": "private",
                "amenity": "kindergarten"
            }
        },
        {
            "id": 131138,
            "type": "Feature",
            "geometry": {
                "type": "Point",
                "coordinates": [
                    20.80225,
                    52.1672
                ]
            },
            "properties": {
                "ref:rspo": 131138,
                "official_name": "Niepubliczne Przedszkole \"Fabryka U\u015bmiechu\"",
                "name": "Niepubliczne Przedszkole \"Fabryka U\u015bmiechu\"",
                "addr:postcode": "05-800",
                "addr:city": "Pruszk\u00f3w",
                "addr:street": "Tadeusza Ko\u015bciuszki",
                "addr:housenumber": "50",
                "addr:teryt:simc": 921510,
                "addr:teryt:sym_ul": 9582,
                "phone": "+48 537432233",
                "email": "fabrykausmiechu-pruszkow@wp.pl",
                "ref:regon": "365003464",
                "operator": "Katarzyna Perz",
                "operator:type": "private",
                "amenity": "kindergarten"
            }
        },
        {
            "id": 126651,
            "type": "Feature",
            "geometry": {
                "type": "Point",
                "coordinates": [
                    20.79953,
                    52.16776
                ]
            },
            "properties": {
                "ref:rspo": 126651,
                "official_name": "Niepubliczny Punkt Przedszkolny Misiowa Kraina",
                "name": "Niepubliczny Punkt Przedszkolny Misiowa Kraina",
                "addr:postcode": "05-800",
                "addr:city": "Pruszk\u00f3w",
                "addr:street": "Henryka Sienkiewicza",
                "addr:housenumber": "5",
                "addr:teryt:simc": 921510,
                "addr:teryt:sym_ul": 19834,
                "phone": "+48 691123319",
                "email": "przedszkole@miasiowa-kraina.com.pl",
                "ref:regon": "360583706",
                "operator": "Marta G\u00f3recka",
                "operator:type": "private",
                "amenity": "kindergarten"
            }
        },
        {
            "id": 86657,
            "type": "Feature",
            "geometry": {
                "type": "Point",
                "coordinates": [
                    20.78869,
                    52.1689099
                ]
            },
            "properties": {
                "isced:level": "1;2",
                "ref:rspo": 86657,
                "official_name": "Szko\u0142a Podstawowa Nr 10 im. M. Konopnickiej",
                "name": "Szko\u0142a Podstawowa Nr 10",
                "addr:postcode": "05-800",
                "addr:city": "Pruszk\u00f3w",
                "addr:street": "P\u0142ywacka",
                "addr:housenumber": "16",
                "addr:teryt:simc": 921510,
                "addr:teryt:sym_ul": 16546,
                "phone": "+48 222993971",
                "email": "sp10@miasto.pruszkow.pl",
                "website": "https:\/\/sp10pruszkow.edupage.org\/",
                "ref:regon": "000799463",
                "ref:vatin": "PL5341922594",
                "operator": "Miasto Pruszk\u00f3w",
                "operator:type": "government",
                "amenity": "school"
            }
        },
        {
            "id": 274576,
            "type": "Feature",
            "geometry": {
                "type": "Point",
                "coordinates": [
                    20.78869,
                    52.1688799
                ]
            },
            "properties": {
                "ref:rspo": 274576,
                "official_name": "Przedszkole Miejskie Nr 16 w Pruszkowie",
                "name": "Przedszkole Miejskie Nr 16 w Pruszkowie",
                "addr:postcode": "05-800",
                "addr:city": "Pruszk\u00f3w",
                "addr:street": "P\u0142ywacka",
                "addr:housenumber": "16",
                "addr:teryt:simc": 921510,
                "addr:teryt:sym_ul": 16546,
                "phone": "+48 227358752",
                "ref:regon": "385983694",
                "ref:vatin": "PL5342622730",
                "operator": "Miasto Pruszk\u00f3w",
                "operator:type": "government",
                "amenity": "kindergarten"
            }
        },
        {
            "id": 86659,
            "type": "Feature",
            "geometry": {
                "type": "Point",
                "coordinates": [
                    20.82724,
                    52.16963
                ]
            },
            "properties": {
                "ref:rspo": 86659,
                "official_name": "Przedszkole Miejskie Nr 2 im. Kubusia Puchatka",
                "name": "Przedszkole Miejskie Nr 2",
                "addr:postcode": "05-800",
                "addr:city": "Pruszk\u00f3w",
                "addr:street": "Partyzant\u00f3w",
                "addr:housenumber": "2\/4",
                "addr:teryt:simc": 921510,
                "addr:teryt:sym_ul": 15733,
                "phone": "+48 227391253",
                "email": "pm2@miasto.pruszkow.pl",
                "website": "http:\/\/przedszkole2pruszkow.pl",
                "ref:regon": "013008081",
                "ref:vatin": "PL5341461420",
                "operator": "Miasto Pruszk\u00f3w",
                "operator:type": "government",
                "amenity": "kindergarten"
            }
        },
        {
            "id": 74318,
            "type": "Feature",
            "geometry": {
                "type": "Point",
                "coordinates": [
                    20.79186,
                    52.17
                ]
            },
            "properties": {
                "isced:level": "3",
                "ref:rspo": 74318,
                "official_name": "Liceum Og\u00f3lnokszta\u0142c\u0105ce Niepubliczne dla Doros\u0142ych \"Wiktoria\"",
                "name": "Liceum Og\u00f3lnokszta\u0142c\u0105ce Niepubliczne dla Doros\u0142ych \"Wiktoria\"",
                "addr:postcode": "05-800",
                "addr:city": "Pruszk\u00f3w",
                "addr:street": "Promyka",
                "addr:housenumber": "24",
                "addr:teryt:simc": 921510,
                "addr:teryt:sym_ul": 17540,
                "phone": "+48 227582285",
                "email": "dyrektor@szkoly-psb.edu.pl",
                "website": "http:\/\/www.szkoly-psb.edu.pl",
                "ref:regon": "146401697",
                "ref:vatin": "PL5341441185",
                "operator": "Mariusz \u017byta",
                "operator:type": "private",
                "amenity": "school"
            }
        },
        {
            "id": 74319,
            "type": "Feature",
            "geometry": {
                "type": "Point",
                "coordinates": [
                    20.79155,
                    52.1703199
                ]
            },
            "properties": {
                "isced:level": "4",
                "ref:rspo": 74319,
                "official_name": "Prywatna Szko\u0142a Biznesu - Szko\u0142a Policealna",
                "name": "Prywatna Szko\u0142a Biznesu - Szko\u0142a Policealna",
                "addr:postcode": "05-800",
                "addr:city": "Pruszk\u00f3w",
                "addr:street": "Promyka",
                "addr:housenumber": "24\/26",
                "addr:teryt:simc": 921510,
                "addr:teryt:sym_ul": 17540,
                "phone": "+48 227582285",
                "email": "dyrektor@szkoly-psb.edu.pl",
                "website": "http:\/\/www.szkoly-psb.edu.pl",
                "ref:regon": "146397903",
                "ref:vatin": "PL5341441185",
                "operator": "Mariusz \u017byta",
                "operator:type": "private",
                "amenity": "college"
            }
        },
        {
            "id": 74333,
            "type": "Feature",
            "geometry": {
                "type": "Point",
                "coordinates": [
                    20.79155,
                    52.1702899
                ]
            },
            "properties": {
                "ref:rspo": 74333,
                "official_name": "Zesp\u00f3\u0142 Szk\u00f3\u0142 Nr 1 im. Stanis\u0142awa Staszica",
                "name": "Zesp\u00f3\u0142 Szk\u00f3\u0142 Nr 1",
                "addr:postcode": "05-800",
                "addr:city": "Pruszk\u00f3w",
                "addr:street": "Promyka",
                "addr:housenumber": "24\/26",
                "addr:teryt:simc": 921510,
                "addr:teryt:sym_ul": 17540,
                "phone": "+48 227586675",
                "email": "sekretariat@zsnr1-pruszkow.com",
                "website": "http:\/\/www.zsnr1-pruszkow.com",
                "ref:regon": "000665780",
                "ref:vatin": "PL5341573113",
                "operator": "Powiat Pruszkowski",
                "operator:type": "government",
                "landuse": "education",
                "fixme": "amenity=school, amenity=college albo landuse=education w zale\u017cno\u015bci od tego, jakie plac\u00f3wki wchodz\u0105 w sk\u0142ad zespo\u0142u. Sprawd\u017a, kiedy stosowa\u0107 amenity=* a kiedy landuse=education.",
                "note": "Children RSPO: 109038;109040"
            }
        },
        {
            "id": 109038,
            "type": "Feature",
            "geometry": {
                "type": "Point",
                "coordinates": [
                    20.79155,
                    52.170259900000005
                ]
            },
            "properties": {
                "isced:level": "3",
                "ref:rspo": 109038,
                "official_name": "Bran\u017cowa Szko\u0142a I Stopnia",
                "name": "Bran\u017cowa Szko\u0142a I Stopnia",
                "addr:postcode": "05-800",
                "addr:city": "Pruszk\u00f3w",
                "addr:street": "Promyka",
                "addr:housenumber": "24\/26",
                "addr:teryt:simc": 921510,
                "addr:teryt:sym_ul": 17540,
                "phone": "+48 227288654",
                "email": "sekretariat@zsnr1-pruszkow.com",
                "website": "http:\/\/www.zsnr1-pruszkow.com",
                "ref:regon": "146519039",
                "operator": "Powiat Pruszkowski",
                "operator:type": "government",
                "amenity": "school",
                "note": "Parent RSPO: 74333"
            }
        },
        {
            "id": 109040,
            "type": "Feature",
            "geometry": {
                "type": "Point",
                "coordinates": [
                    20.79155,
                    52.1702299
                ]
            },
            "properties": {
                "isced:level": "3",
                "ref:rspo": 109040,
                "official_name": "Technikum",
                "name": "Technikum",
                "addr:postcode": "05-800",
                "addr:city": "Pruszk\u00f3w",
                "addr:street": "Promyka",
                "addr:housenumber": "24\/26",
                "addr:teryt:simc": 921510,
                "addr:teryt:sym_ul": 17540,
                "phone": "+48 227288654",
                "email": "sekretariat@zsnr1-pruszkow.com",
                "website": "http:\/\/zsnr1-pruszkow.com",
                "ref:regon": "146519045",
                "operator": "Powiat Pruszkowski",
                "operator:type": "government",
                "amenity": "school",
                "note": "Parent RSPO: 74333"
            }
        },
        {
            "id": 74314,
            "type": "Feature",
            "geometry": {
                "type": "Point",
                "coordinates": [
                    20.81146,
                    52.17086
                ]
            },
            "properties": {
                "isced:level": "3",
                "ref:rspo": 74314,
                "official_name": "Liceum Og\u00f3lnokszta\u0142c\u0105ce dla Doros\u0142ych \u017bak",
                "name": "Liceum Og\u00f3lnokszta\u0142c\u0105ce dla Doros\u0142ych \u017bak",
                "addr:postcode": "05-800",
                "addr:city": "Pruszk\u00f3w",
                "addr:street": "Majowa",
                "addr:housenumber": "1",
                "addr:teryt:simc": 921510,
                "addr:teryt:sym_ul": 11988,
                "phone": "+48 227306197",
                "email": "pruszkow@zak.edu.pl",
                "website": "http:\/\/www.zak.edu.pl\/pruszkow",
                "ref:regon": "146451459",
                "ref:vatin": "PL7292597869",
                "operator": "Centrum Nauki I Biznesu \"\u017bak\" Sp\u00f3\u0142ka Z Ograniczon\u0105 Odpowiedzialno\u015bci\u0105",
                "operator:type": "private",
                "amenity": "school"
            }
        },
        {
            "id": 80697,
            "type": "Feature",
            "geometry": {
                "type": "Point",
                "coordinates": [
                    20.81146,
                    52.170829999999995
                ]
            },
            "properties": {
                "isced:level": "4",
                "ref:rspo": 80697,
                "official_name": "Szko\u0142a Policealna Centrum Nauki I Biznesu \"\u017bak\"",
                "name": "Szko\u0142a Policealna Centrum Nauki I Biznesu \"\u017bak\"",
                "addr:postcode": "05-800",
                "addr:city": "Pruszk\u00f3w",
                "addr:street": "Majowa",
                "addr:housenumber": "1",
                "addr:teryt:simc": 921510,
                "addr:teryt:sym_ul": 11988,
                "phone": "+48 227306197",
                "email": "pruszkow@zak.edu.pl",
                "website": "http:\/\/www.zak.edu.pl",
                "ref:regon": "146451399",
                "operator": "Centrum Nauki I Biznesu \"\u017bak\" Sp\u00f3\u0142ka Z Ograniczon\u0105 Odpowiedzialno\u015bci\u0105",
                "operator:type": "private",
                "amenity": "college"
            }
        },
        {
            "id": 104491,
            "type": "Feature",
            "geometry": {
                "type": "Point",
                "coordinates": [
                    20.81146,
                    52.1708
                ]
            },
            "properties": {
                "ref:rspo": 104491,
                "official_name": "Zak\u0142ad Doskonalenia Zawodowego w Warszawie O\u015brodek Kszta\u0142cenia Zawodowego w Pruszkowie",
                "name": "Zak\u0142ad Doskonalenia Zawodowego w Warszawie O\u015brodek Kszta\u0142cenia Zawodowego w Pruszkowie",
                "addr:postcode": "05-800",
                "addr:city": "Pruszk\u00f3w",
                "addr:street": "Majowa",
                "addr:housenumber": "1",
                "addr:teryt:simc": 921510,
                "addr:teryt:sym_ul": 11988,
                "phone": "+48 227587160",
                "email": "okz9@zdz.edu.pl",
                "website": "http:\/\/www.pruszkow.zdz.edu.pl",
                "ref:regon": "146450320",
                "operator": "Zak\u0142ad Doskonalenia Zawodowego W Warszawie",
                "operator:type": "ngo",
                "fixme": "w zale\u017cno\u015bci od przedmiotu dzia\u0142alno\u015bci (np. amenity=training + training=*, amenity=dancing_school, amenity=language_school, amenity=music_school)"
            }
        },
        {
            "id": 91293,
            "type": "Feature",
            "geometry": {
                "type": "Point",
                "coordinates": [
                    20.8305599,
                    52.1709
                ]
            },
            "properties": {
                "ref:rspo": 91293,
                "official_name": "Przedszkole Niepubliczne \"Jedynka\" Centrum Edukacji Lokalnej w Pruszkowie",
                "name": "Przedszkole Niepubliczne \"Jedynka\" Centrum Edukacji Lokalnej w Pruszkowie",
                "addr:postcode": "05-800",
                "addr:city": "Pruszk\u00f3w",
                "addr:street": "Sadowa",
                "addr:housenumber": "62",
                "addr:teryt:simc": 921510,
                "addr:teryt:sym_ul": 19404,
                "phone": "+48 227582271",
                "email": "kontakt@sadowajedynka.pl",
                "website": "https:\/\/sadowajedynka.pl",
                "ref:regon": "146407381",
                "ref:vatin": "PL5342254700",
                "operator": "Anna Barszczewska",
                "operator:type": "private",
                "amenity": "kindergarten"
            }
        },
        {
            "id": 124015,
            "type": "Feature",
            "geometry": {
                "type": "Point",
                "coordinates": [
                    20.7871,
                    52.17119
                ]
            },
            "properties": {
                "ref:rspo": 124015,
                "official_name": "Niepubliczne Muzyczne Przedszkole \"S\u0142oneczko\"",
                "name": "Niepubliczne Muzyczne Przedszkole \"S\u0142oneczko\"",
                "addr:postcode": "05-800",
                "addr:city": "Pruszk\u00f3w",
                "addr:street": "Promyka",
                "addr:housenumber": "49",
                "addr:teryt:simc": 921510,
                "addr:teryt:sym_ul": 17540,
                "phone": "+48 504411677",
                "email": "biuro@sloneczko.pruszkow.pl",
                "ref:regon": "147368890",
                "operator": "Fam Group Sp\u00f3\u0142ka Z Ograniczon\u0105 Odpowiedzialno\u015bci\u0105",
                "operator:type": "private",
                "amenity": "kindergarten"
            }
        },
        {
            "id": 69378,
            "type": "Feature",
            "geometry": {
                "type": "Point",
                "coordinates": [
                    20.81587,
                    52.1712599
                ]
            },
            "properties": {
                "ref:rspo": 69378,
                "official_name": "Punkt Przedszkolny \"Promyk\"",
                "name": "Punkt Przedszkolny \"Promyk\"",
                "addr:postcode": "05-800",
                "addr:city": "Pruszk\u00f3w",
                "addr:street": "Gabriela Narutowicza",
                "addr:housenumber": "9",
                "addr:teryt:simc": 921510,
                "addr:teryt:sym_ul": 14018,
                "phone": "+48 604471201",
                "ref:regon": "146373216",
                "ref:vatin": "PL5361013050",
                "operator": "Maria Makowska",
                "operator:type": "private",
                "amenity": "kindergarten"
            }
        },
        {
            "id": 77944,
            "type": "Feature",
            "geometry": {
                "type": "Point",
                "coordinates": [
                    20.81374,
                    52.17163
                ]
            },
            "properties": {
                "isced:level": "1;2",
                "ref:rspo": 77944,
                "official_name": "Szko\u0142a Podstawowa Nr 1 im. J. Pi\u0142sudskiego",
                "name": "Szko\u0142a Podstawowa Nr 1",
                "addr:postcode": "05-800",
                "addr:city": "Pruszk\u00f3w",
                "addr:street": "Topolowa",
                "addr:housenumber": "10",
                "addr:teryt:simc": 921510,
                "addr:teryt:sym_ul": 22880,
                "phone": "+48 227586352",
                "email": "sp1@miasto.pruszkow.pl",
                "ref:regon": "000799428",
                "ref:vatin": "PL5341465518",
                "operator": "Miasto Pruszk\u00f3w",
                "operator:type": "government",
                "amenity": "school"
            }
        },
        {
            "id": 277997,
            "type": "Feature",
            "geometry": {
                "type": "Point",
                "coordinates": [
                    20.8177,
                    52.17174
                ]
            },
            "properties": {
                "ref:rspo": 277997,
                "official_name": "Zesp\u00f3\u0142 Szk\u00f3\u0142 Specjalnych im. Ks. Jana Twardowskiego",
                "name": "Zesp\u00f3\u0142 Szk\u00f3\u0142 Specjalnych",
                "addr:postcode": "05-800",
                "addr:city": "Pruszk\u00f3w",
                "addr:street": "Wapienna",
                "addr:housenumber": "2",
                "addr:teryt:simc": 921510,
                "addr:teryt:sym_ul": 23624,
                "phone": "+48 227588019",
                "email": "sekretariat@zsspruszkow.pl",
                "website": "https:\/\/zsspruszkow.edupage.org",
                "ref:regon": "389736981",
                "operator": "Powiat Pruszkowski",
                "operator:type": "government",
                "landuse": "education",
                "fixme": "amenity=school, amenity=college albo landuse=education w zale\u017cno\u015bci od tego, jakie plac\u00f3wki wchodz\u0105 w sk\u0142ad zespo\u0142u. Sprawd\u017a, kiedy stosowa\u0107 amenity=* a kiedy landuse=education.",
                "note": "Children RSPO: 109160;109244;109941"
            }
        },
        {
            "id": 109160,
            "type": "Feature",
            "geometry": {
                "type": "Point",
                "coordinates": [
                    20.8177,
                    52.17171
                ]
            },
            "properties": {
                "isced:level": "1;2",
                "ref:rspo": 109160,
                "official_name": "Szko\u0142a Podstawowa Specjalna",
                "name": "Szko\u0142a Podstawowa Specjalna",
                "addr:postcode": "05-800",
                "addr:city": "Pruszk\u00f3w",
                "addr:street": "Wapienna",
                "addr:housenumber": "2",
                "addr:teryt:simc": 921510,
                "addr:teryt:sym_ul": 23624,
                "phone": "+48 227588019",
                "email": "sekretariat@zsspruszkow.pl",
                "website": "http:\/\/www.zsspruszkow.edupage.org",
                "ref:regon": "000967535",
                "operator": "Powiat Pruszkowski",
                "operator:type": "government",
                "amenity": "school",
                "note": "Parent RSPO: 277997"
            }
        },
        {
            "id": 109244,
            "type": "Feature",
            "geometry": {
                "type": "Point",
                "coordinates": [
                    20.8177,
                    52.17168
                ]
            },
            "properties": {
                "isced:level": "3",
                "ref:rspo": 109244,
                "official_name": "Bran\u017cowa Szko\u0142a I Stopnia Specjalna",
                "name": "Bran\u017cowa Szko\u0142a I Stopnia Specjalna",
                "addr:postcode": "05-800",
                "addr:city": "Pruszk\u00f3w",
                "addr:street": "Wapienna",
                "addr:housenumber": "2",
                "addr:teryt:simc": 921510,
                "addr:teryt:sym_ul": 23624,
                "phone": "+48 227588019",
                "email": "sekretariat@zsspruszkow.pl",
                "website": "http:\/\/www.zsspruszkow.edupage.org",
                "ref:regon": "000967541",
                "operator": "Powiat Pruszkowski",
                "operator:type": "government",
                "amenity": "school",
                "note": "Parent RSPO: 277997"
            }
        },
        {
            "id": 109941,
            "type": "Feature",
            "geometry": {
                "type": "Point",
                "coordinates": [
                    20.8177,
                    52.17165
                ]
            },
            "properties": {
                "ref:rspo": 109941,
                "official_name": "Szko\u0142a Specjalna Przysposabiaj\u0105ca Do Pracy",
                "name": "Szko\u0142a Specjalna Przysposabiaj\u0105ca Do Pracy",
                "addr:postcode": "05-800",
                "addr:city": "Pruszk\u00f3w",
                "addr:street": "Wapienna",
                "addr:housenumber": "2",
                "addr:teryt:simc": 921510,
                "addr:teryt:sym_ul": 23624,
                "phone": "+48 227588019",
                "email": "sekretariat@zsspruszkow.pl",
                "website": "http:\/\/www.zsspruszkow.edupage.pl",
                "ref:regon": "140047042",
                "operator": "Powiat Pruszkowski",
                "operator:type": "government",
                "amenity": "school",
                "note": "Parent RSPO: 277997"
            }
        },
        {
            "id": 79142,
            "type": "Feature",
            "geometry": {
                "type": "Point",
                "coordinates": [
                    20.81682,
                    52.17207
                ]
            },
            "properties": {
                "ref:rspo": 79142,
                "official_name": "Integracyjne Miejskie Przedszkole Nr 5",
                "name": "Integracyjne Miejskie Przedszkole Nr 5",
                "addr:postcode": "05-800",
                "addr:city": "Pruszk\u00f3w",
                "addr:street": "Gabriela Narutowicza",
                "addr:housenumber": "20",
                "addr:teryt:simc": 921510,
                "addr:teryt:sym_ul": 14018,
                "phone": "+48 227588034",
                "ref:regon": "013008052",
                "ref:vatin": "PL5341459305",
                "operator": "Miasto Pruszk\u00f3w",
                "operator:type": "government",
                "amenity": "kindergarten"
            }
        },
        {
            "id": 125102,
            "type": "Feature",
            "geometry": {
                "type": "Point",
                "coordinates": [
                    20.80448,
                    52.17512
                ]
            },
            "properties": {
                "ref:rspo": 125102,
                "official_name": "Przedszkole Niepubliczne \"Peregrini\"",
                "name": "Przedszkole Niepubliczne \"Peregrini\"",
                "addr:postcode": "05-800",
                "addr:city": "Pruszk\u00f3w",
                "addr:street": "Szkolna",
                "addr:housenumber": "1",
                "addr:teryt:simc": 921510,
                "addr:teryt:sym_ul": 21970,
                "phone": "+48 602107347",
                "email": "archico@wp.pl",
                "ref:regon": "147425234",
                "operator": "Bogna Lewandowska",
                "operator:type": "private",
                "amenity": "kindergarten"
            }
        },
        {
            "id": 104848,
            "type": "Feature",
            "geometry": {
                "type": "Point",
                "coordinates": [
                    20.80464,
                    52.17554
                ]
            },
            "properties": {
                "ref:rspo": 104848,
                "official_name": "Specjalny O\u015brodek Wychowawczy",
                "name": "Specjalny O\u015brodek Wychowawczy",
                "addr:postcode": "05-800",
                "addr:city": "Pruszk\u00f3w",
                "addr:street": "Szkolna",
                "addr:housenumber": "3",
                "addr:teryt:simc": 921510,
                "addr:teryt:sym_ul": 21970,
                "phone": "+48 227588413",
                "email": "sowsam@o2.pl",
                "ref:regon": "146450247",
                "operator": "Zg. Ss. Benedyktynek Samarytanek Krzy\u017ca Chrystusowego, Zarz\u0105d Generalny",
                "operator:type": "religious",
                "amenity": "social_facility",
                "social_facility": "group_home",
                "social_facility:for": "child;juvenile"
            }
        },
        {
            "id": 80035,
            "type": "Feature",
            "geometry": {
                "type": "Point",
                "coordinates": [
                    20.80333,
                    52.17582
                ]
            },
            "properties": {
                "ref:rspo": 80035,
                "official_name": "Przedszkole Miejskie Nr 7",
                "name": "Przedszkole Miejskie Nr 7",
                "addr:postcode": "05-800",
                "addr:city": "Pruszk\u00f3w",
                "addr:street": "Juliusza S\u0142owackiego",
                "addr:housenumber": "1",
                "addr:teryt:simc": 921510,
                "addr:teryt:sym_ul": 20291,
                "phone": "+48 227588553",
                "email": "pm7@miasto.pruszkow.pl",
                "ref:regon": "013008030",
                "ref:vatin": "PL5341459216",
                "operator": "Miasto Pruszk\u00f3w",
                "operator:type": "government",
                "amenity": "kindergarten"
            }
        },
        {
            "id": 127564,
            "type": "Feature",
            "geometry": {
                "type": "Point",
                "coordinates": [
                    20.80818,
                    52.17641
                ]
            },
            "properties": {
                "ref:rspo": 127564,
                "official_name": "Niepubliczny Punkt Przedszkolny Weso\u0142e Misie",
                "name": "Niepubliczny Punkt Przedszkolny Weso\u0142e Misie",
                "addr:postcode": "05-800",
                "addr:city": "Pruszk\u00f3w",
                "addr:street": "G\u00f3rna",
                "addr:housenumber": "6",
                "addr:teryt:simc": 921510,
                "addr:teryt:sym_ul": 5948,
                "phone": "+48 506133974",
                "ref:regon": "361710822",
                "ref:vatin": "PL5341191802",
                "operator": "Ewa Sasin",
                "operator:type": "private",
                "amenity": "kindergarten"
            }
        },
        {
            "id": 80102,
            "type": "Feature",
            "geometry": {
                "type": "Point",
                "coordinates": [
                    20.79936,
                    52.17659
                ]
            },
            "properties": {
                "ref:rspo": 80102,
                "official_name": "Przedszkole Miejskie Nr 8",
                "name": "Przedszkole Miejskie Nr 8",
                "addr:postcode": "05-800",
                "addr:city": "Pruszk\u00f3w",
                "addr:street": "3 Maja",
                "addr:housenumber": "67",
                "addr:teryt:simc": 921510,
                "addr:teryt:sym_ul": 11937,
                "phone": "+48 227582227",
                "email": "pm8@miasto.pruszkow.pl",
                "website": "http:\/\/pm8pruszkow.edupage.org",
                "ref:regon": "013008023",
                "ref:vatin": "PL5341459156",
                "operator": "Miasto Pruszk\u00f3w",
                "operator:type": "government",
                "amenity": "kindergarten"
            }
        },
        {
            "id": 79156,
            "type": "Feature",
            "geometry": {
                "type": "Point",
                "coordinates": [
                    20.79816,
                    52.17816
                ]
            },
            "properties": {
                "isced:level": "1;2",
                "ref:rspo": 79156,
                "official_name": "Szko\u0142a Podstawowa Nr 9 im. Marii Sk\u0142odowskiej-Curie",
                "name": "Szko\u0142a Podstawowa Nr 9",
                "addr:postcode": "05-800",
                "addr:city": "Pruszk\u00f3w",
                "addr:street": "Mostowa",
                "addr:housenumber": "6",
                "addr:teryt:simc": 921510,
                "addr:teryt:sym_ul": 13379,
                "phone": "+48 227586748",
                "email": "sp9pruszkow@poczta.onet.pl",
                "ref:regon": "010421389",
                "ref:vatin": "PL5341464335",
                "operator": "Miasto Pruszk\u00f3w",
                "operator:type": "government",
                "amenity": "school"
            }
        },
        {
            "id": 106723,
            "type": "Feature",
            "geometry": {
                "type": "Point",
                "coordinates": [
                    20.80345,
                    52.18045
                ]
            },
            "properties": {
                "ref:rspo": 106723,
                "official_name": "O\u015brodek Kszta\u0142cenia Ustawicznego \"Bezpieczna Praca\"",
                "name": "O\u015brodek Kszta\u0142cenia Ustawicznego \"Bezpieczna Praca\"",
                "addr:postcode": "05-800",
                "addr:city": "Pruszk\u00f3w",
                "addr:street": "Ludowa",
                "addr:housenumber": "36",
                "addr:teryt:simc": 921510,
                "addr:teryt:sym_ul": 11383,
                "phone": "+48 227584220",
                "email": "szkolenia@bezpiecznapraca.pl",
                "ref:regon": "146484476",
                "operator": "Barbara Uler-Bladowska",
                "operator:type": "private",
                "fixme": "w zale\u017cno\u015bci od przedmiotu dzia\u0142alno\u015bci (np. amenity=training + training=*, amenity=dancing_school, amenity=language_school, amenity=music_school)"
            }
        },
        {
            "id": 3783,
            "type": "Feature",
            "geometry": {
                "type": "Point",
                "coordinates": [
                    20.80529,
                    52.18104
                ]
            },
            "properties": {
                "ref:rspo": 3783,
                "official_name": "Przedszkole Niepubliczne \"Piotru\u015b Pan\"",
                "name": "Przedszkole Niepubliczne \"Piotru\u015b Pan\"",
                "addr:postcode": "05-800",
                "addr:city": "Pruszk\u00f3w",
                "addr:street": "Zachodnia",
                "addr:housenumber": "22",
                "addr:teryt:simc": 921510,
                "addr:teryt:sym_ul": 25305,
                "phone": "+48 607221225",
                "email": "kontakt@piotruspan.pruszkow.pl",
                "ref:regon": "146253877",
                "operator": "Ma\u0142gorzata Piasecka",
                "operator:type": "private",
                "amenity": "kindergarten"
            }
        },
        {
            "id": 119913,
            "type": "Feature",
            "geometry": {
                "type": "Point",
                "coordinates": [
                    20.81823,
                    52.18319
                ]
            },
            "properties": {
                "ref:rspo": 119913,
                "official_name": "Przedszkola Pomara\u0144czowa Ciuchcia Sp. Z O.o. Sp\u00f3\u0142ka Komandytowa",
                "name": "Przedszkola Pomara\u0144czowa Ciuchcia Sp. Z O.o. Sp\u00f3\u0142ka Komandytowa",
                "addr:postcode": "05-800",
                "addr:city": "Pruszk\u00f3w",
                "addr:street": "Konstantego Ildefonsa Ga\u0142czy\u0144skiego",
                "addr:housenumber": "31",
                "addr:teryt:simc": 921510,
                "addr:teryt:sym_ul": 5300,
                "email": "pruszkow@pomaranczowa-ciuchcia.pl",
                "ref:regon": "146869779",
                "operator": "Przedszkola Pomara\u0144czowa Ciuchcia Sp\u00f3\u0142ka Z Ograniczon\u0105 Odpowiedzialno\u015bci\u0105",
                "operator:type": "private",
                "amenity": "kindergarten"
            }
        },
        {
            "id": 267060,
            "type": "Feature",
            "geometry": {
                "type": "Point",
                "coordinates": [
                    20.81526,
                    52.18695
                ]
            },
            "properties": {
                "ref:rspo": 267060,
                "official_name": "Przedszkole Miejskie Nr 1",
                "name": "Przedszkole Miejskie Nr 1",
                "addr:postcode": "05-800",
                "addr:city": "Pruszk\u00f3w",
                "addr:street": "Jarzynowa",
                "addr:housenumber": "21",
                "addr:teryt:simc": 921510,
                "addr:teryt:sym_ul": 7296,
                "phone": "+48 575593313",
                "ref:regon": "369856206",
                "ref:vatin": "PL5342579945",
                "operator": "Miasto Pruszk\u00f3w",
                "operator:type": "government",
                "amenity": "kindergarten"
            }
        }
    ]
}