{
    "type": "FeatureCollection",
    "features": [
        {
            "id": 133786,
            "type": "Feature",
            "geometry": {
                "type": "Point",
                "coordinates": [
                    20.12676,
                    51.86781
                ]
            },
            "properties": {
                "isced:level": "1;2",
                "ref:rspo": 133786,
                "official_name": "Szko\u0142a Podstawowa im. Marii Rodziewicz\u00f3wny w \u017belaznej",
                "name": "Szko\u0142a Podstawowa",
                "addr:country": "PL",
                "addr:postcode": "96-116",
                "addr:place": "\u017belazna",
                "addr:housenumber": "5",
                "addr:teryt:sym_ul": 737887,
                "contact:phone": "+48 468313315",
                "contact:email": "zelaznagim@op.pl",
                "ref:regon": "367628783",
                "operator": "Gmina Skierniewice",
                "operator:type": "government",
                "amenity": "school"
            }
        },
        {
            "id": 275934,
            "type": "Feature",
            "geometry": {
                "type": "Point",
                "coordinates": [
                    20.12676,
                    51.867779999999996
                ]
            },
            "properties": {
                "ref:rspo": 275934,
                "official_name": "Niepubliczny Punkt Przedszkolny \u201eKraina Przyja\u017ani\u201d \u2013 Niepubliczny Punkt Przedszkolny w \u017belaznej",
                "name": "Niepubliczny Punkt Przedszkolny \u201eKraina Przyja\u017ani\u201d \u2013 Niepubliczny Punkt Przedszkolny w \u017belaznej",
                "addr:country": "PL",
                "addr:postcode": "96-116",
                "addr:place": "\u017belazna",
                "addr:housenumber": "5",
                "addr:teryt:sym_ul": 737887,
                "contact:email": "krainaprzyjazni@op.pl",
                "ref:regon": "386957664",
                "operator": "Marzena Kulhawik",
                "operator:type": "private",
                "amenity": "kindergarten"
            }
        },
        {
            "id": 34709,
            "type": "Feature",
            "geometry": {
                "type": "Point",
                "coordinates": [
                    20.1305799,
                    51.91722
                ]
            },
            "properties": {
                "isced:level": "1;2",
                "ref:rspo": 34709,
                "official_name": "Szko\u0142a Podstawowa im. Ks. Jana Twardowskiego w D\u0119bowej G\u00f3rze",
                "name": "Szko\u0142a Podstawowa",
                "addr:country": "PL",
                "addr:postcode": "96-116",
                "addr:place": "D\u0119bowa G\u00f3ra",
                "addr:housenumber": "42A",
                "addr:teryt:sym_ul": 737568,
                "contact:phone": "+48 468313393",
                "contact:email": "spdg@vp.pl",
                "contact:website": "http:\/\/www.spdg.cba.pl",
                "ref:regon": "001130220",
                "ref:vatin": "PL8361690846",
                "operator": "Gmina Skierniewice",
                "operator:type": "government",
                "amenity": "school"
            }
        },
        {
            "id": 275932,
            "type": "Feature",
            "geometry": {
                "type": "Point",
                "coordinates": [
                    20.1305799,
                    51.91719
                ]
            },
            "properties": {
                "ref:rspo": 275932,
                "official_name": "Niepubliczny Punkt Przedszkolny \u201eKraina Przyja\u017ani\u201d \u2013 Niepubliczny Punkt Przedszkolny w D\u0119bowej G\u00f3rze",
                "name": "Niepubliczny Punkt Przedszkolny \u201eKraina Przyja\u017ani\u201d \u2013 Niepubliczny Punkt Przedszkolny w D\u0119bowej G\u00f3rze",
                "addr:country": "PL",
                "addr:postcode": "96-116",
                "addr:place": "D\u0119bowa G\u00f3ra",
                "addr:housenumber": "42A",
                "addr:teryt:sym_ul": 737568,
                "contact:email": "krainaprzyjazni@op.pl",
                "ref:regon": "386957256",
                "operator": "Marzena Kulhawik",
                "operator:type": "private",
                "amenity": "kindergarten"
            }
        },
        {
            "id": 83525,
            "type": "Feature",
            "geometry": {
                "type": "Point",
                "coordinates": [
                    20.2002476,
                    51.9604623
                ]
            },
            "properties": {
                "isced:level": "1;2",
                "ref:rspo": 83525,
                "official_name": "Szko\u0142a Podstawowa im. Prof. Szczepana A. Pieni\u0105\u017cka w Miedniewicach",
                "name": "Szko\u0142a Podstawowa",
                "addr:country": "PL",
                "addr:postcode": "96-100",
                "addr:place": "Miedniewice",
                "addr:housenumber": "88",
                "addr:teryt:sym_ul": 737597,
                "contact:phone": "+48 468331490",
                "contact:email": "spmiedniewice@op.pl",
                "contact:website": "http:\/\/www.spmiedniewice.org",
                "ref:regon": "000272431",
                "ref:vatin": "PL8361690786",
                "operator": "Gmina Skierniewice",
                "operator:type": "government",
                "amenity": "school"
            }
        },
        {
            "id": 275941,
            "type": "Feature",
            "geometry": {
                "type": "Point",
                "coordinates": [
                    20.2002476,
                    51.9604323
                ]
            },
            "properties": {
                "ref:rspo": 275941,
                "official_name": "Niepubliczny Punkt Przedszkolny \u201eKraina Przyja\u017ani\u201d \u2013 Niepubliczny Punkt Przedszkolny w Miedniewicach Nr 1",
                "name": "Niepubliczny Punkt Przedszkolny \u201eKraina Przyja\u017ani\u201d \u2013 Niepubliczny Punkt Przedszkolny w Miedniewicach Nr 1",
                "addr:country": "PL",
                "addr:postcode": "96-100",
                "addr:place": "Miedniewice",
                "addr:housenumber": "88",
                "addr:teryt:sym_ul": 737597,
                "contact:email": "krainaprzyjazni@op.pl",
                "ref:regon": "386957925",
                "operator": "Marzena Kulhawik",
                "operator:type": "private",
                "amenity": "kindergarten"
            }
        },
        {
            "id": 275943,
            "type": "Feature",
            "geometry": {
                "type": "Point",
                "coordinates": [
                    20.2002476,
                    51.960402300000005
                ]
            },
            "properties": {
                "ref:rspo": 275943,
                "official_name": "Niepubliczny Punkt Przedszkolny \u201eKraina Przyja\u017ani\u201d \u2013 Niepubliczny Punkt Przedszkolny w Miedniewicach Nr 2",
                "name": "Niepubliczny Punkt Przedszkolny \u201eKraina Przyja\u017ani\u201d \u2013 Niepubliczny Punkt Przedszkolny w Miedniewicach Nr 2",
                "addr:country": "PL",
                "addr:postcode": "96-100",
                "addr:place": "Miedniewice",
                "addr:housenumber": "88",
                "addr:teryt:sym_ul": 737597,
                "contact:email": "krainaprzyjazni@op.pl",
                "ref:regon": "386957960",
                "operator": "Marzena Kulhawik",
                "operator:type": "private",
                "amenity": "kindergarten"
            }
        },
        {
            "id": 83570,
            "type": "Feature",
            "geometry": {
                "type": "Point",
                "coordinates": [
                    20.08909,
                    51.97262
                ]
            },
            "properties": {
                "isced:level": "1;2",
                "ref:rspo": 83570,
                "official_name": "Szko\u0142a Podstawowa Im Janusza Korczaka w Mokrej Lewej",
                "name": "Szko\u0142a Podstawowa Im Janusza Korczaka w Mokrej Lewej",
                "addr:country": "PL",
                "addr:postcode": "96-100",
                "addr:place": "Mokra Lewa",
                "addr:housenumber": "75A",
                "addr:teryt:sym_ul": 737611,
                "contact:phone": "+48 468333052",
                "contact:email": "sekretariat@sp-mokralewa.pl",
                "contact:website": "http:\/\/www.sp-mokralewa.pl",
                "ref:regon": "001227409",
                "ref:vatin": "PL8361690817",
                "operator": "Gmina Skierniewice",
                "operator:type": "government",
                "amenity": "school"
            }
        },
        {
            "id": 275938,
            "type": "Feature",
            "geometry": {
                "type": "Point",
                "coordinates": [
                    20.08909,
                    51.97259
                ]
            },
            "properties": {
                "ref:rspo": 275938,
                "official_name": "Niepubliczny Punkt Przedszkolny \u201eKraina Przyja\u017ani\u201d \u2013 Niepubliczny Punkt Przedszkolny w Mokrej Lewej",
                "name": "Niepubliczny Punkt Przedszkolny \u201eKraina Przyja\u017ani\u201d \u2013 Niepubliczny Punkt Przedszkolny w Mokrej Lewej",
                "addr:country": "PL",
                "addr:postcode": "96-100",
                "addr:place": "Mokra Lewa",
                "addr:housenumber": "75A",
                "addr:teryt:sym_ul": 737611,
                "contact:email": "krainaprzyjazni@op.pl",
                "ref:regon": "386957842",
                "operator": "Marzena Kulhawik",
                "operator:type": "private",
                "amenity": "kindergarten"
            }
        },
        {
            "id": 83538,
            "type": "Feature",
            "geometry": {
                "type": "Point",
                "coordinates": [
                    20.11432,
                    51.9861999
                ]
            },
            "properties": {
                "isced:level": "1;2",
                "ref:rspo": 83538,
                "official_name": "Szko\u0142a Podstawowa im. Kornela Makuszy\u0144skiego w Mokrej Prawej",
                "name": "Szko\u0142a Podstawowa",
                "addr:country": "PL",
                "addr:postcode": "96-100",
                "addr:place": "Mokra Prawa",
                "addr:housenumber": "82A",
                "addr:teryt:sym_ul": 737634,
                "contact:phone": "+48 468334633",
                "contact:email": "spmokraprawa@gminaskierniewice.pl",
                "contact:website": "http:\/\/spmokraprawa.eu",
                "ref:regon": "001130207",
                "ref:vatin": "PL8361690792",
                "operator": "Gmina Skierniewice",
                "operator:type": "government",
                "amenity": "school"
            }
        },
        {
            "id": 275935,
            "type": "Feature",
            "geometry": {
                "type": "Point",
                "coordinates": [
                    20.11432,
                    51.9861699
                ]
            },
            "properties": {
                "ref:rspo": 275935,
                "official_name": "Niepubliczny Punkt Przedszkolny \u201eKraina Przyja\u017ani\u201d \u2013 Niepubliczny Punkt Przedszkolny w Mokrej Prawej",
                "name": "Niepubliczny Punkt Przedszkolny \u201eKraina Przyja\u017ani\u201d \u2013 Niepubliczny Punkt Przedszkolny w Mokrej Prawej",
                "addr:country": "PL",
                "addr:postcode": "96-100",
                "addr:place": "Mokra Prawa",
                "addr:housenumber": "82A",
                "addr:teryt:sym_ul": 737634,
                "contact:email": "krainaprzyjazni@op.pl",
                "ref:regon": "386957813",
                "operator": "Marzena Kulhawik",
                "operator:type": "private",
                "amenity": "kindergarten"
            }
        },
        {
            "id": 83932,
            "type": "Feature",
            "geometry": {
                "type": "Point",
                "coordinates": [
                    20.09522,
                    52.00611
                ]
            },
            "properties": {
                "isced:level": "1;2",
                "ref:rspo": 83932,
                "official_name": "Szko\u0142a Podstawowa im. Marii Konopnickiej w Sierakowicach Prawych",
                "name": "Szko\u0142a Podstawowa",
                "addr:country": "PL",
                "addr:postcode": "96-100",
                "addr:place": "Sierakowice Prawe",
                "addr:housenumber": "69A",
                "addr:teryt:sym_ul": 737781,
                "contact:phone": "+48 468334504",
                "contact:email": "spsierakowice@poczta.onet.pl",
                "contact:website": "http:\/\/www.sp-sierakowiceprawe.cba.pl",
                "ref:regon": "001130213",
                "ref:vatin": "PL8361690800",
                "operator": "Gmina Skierniewice",
                "operator:type": "government",
                "amenity": "school"
            }
        },
        {
            "id": 275939,
            "type": "Feature",
            "geometry": {
                "type": "Point",
                "coordinates": [
                    20.09522,
                    52.00608
                ]
            },
            "properties": {
                "ref:rspo": 275939,
                "official_name": "Niepubliczny Punkt Przedszkolny \u201eKraina Przyja\u017ani\u201d \u2013 Niepubliczny Punkt Przedszkolny w Sierakowicach Prawych",
                "name": "Niepubliczny Punkt Przedszkolny \u201eKraina Przyja\u017ani\u201d \u2013 Niepubliczny Punkt Przedszkolny w Sierakowicach Prawych",
                "addr:country": "PL",
                "addr:postcode": "96-100",
                "addr:place": "Sierakowice Prawe",
                "addr:housenumber": "69A",
                "addr:teryt:sym_ul": 737781,
                "contact:email": "krainaprzyjazni@op.pl",
                "ref:regon": "386957888",
                "operator": "Marzena Kulhawik",
                "operator:type": "private",
                "amenity": "kindergarten"
            }
        },
        {
            "id": 278382,
            "type": "Feature",
            "geometry": {
                "type": "Point",
                "coordinates": [
                    20.09522,
                    52.00605
                ]
            },
            "properties": {
                "ref:rspo": 278382,
                "official_name": "Niepubliczny Punkt Przedszkolny \"Kraina Przyja\u017ani \" - Niepubliczny Punkt Przedszkolny w Sierakowicach Prawych Nr 2",
                "name": "Niepubliczny Punkt Przedszkolny \"Kraina Przyja\u017ani \" - Niepubliczny Punkt Przedszkolny w Sierakowicach Prawych Nr 2",
                "addr:country": "PL",
                "addr:postcode": "96-100",
                "addr:place": "Sierakowice Prawe",
                "addr:housenumber": "69A",
                "addr:teryt:sym_ul": 737781,
                "contact:email": "krainaprzyjazni@op.pl",
                "ref:regon": "389872508",
                "operator": "Marzena Kulhawik",
                "operator:type": "private",
                "amenity": "kindergarten"
            }
        }
    ]
}