{
    "type": "FeatureCollection",
    "features": [
        {
            "id": 58645,
            "type": "Feature",
            "geometry": {
                "type": "Point",
                "coordinates": [
                    20.1219499,
                    51.77315
                ]
            },
            "properties": {
                "ref:rspo": 58645,
                "official_name": "Punkt Przedszkolny w Z\u0142otej",
                "name": "Punkt Przedszkolny w Z\u0142otej",
                "addr:country": "PL",
                "addr:postcode": "96-130",
                "addr:place": "Z\u0142ota",
                "addr:housenumber": "76",
                "addr:teryt:simc": 728204,
                "contact:phone": "+48 468157014",
                "contact:email": "zlota.szkola@wp.pl",
                "ref:regon": "101490954",
                "operator": "Stowarzyszenie \"Razem Dla Z\u0142otej\" Na Rzecz Rozwoju Z\u0142otej I Okolicy",
                "operator:type": "ngo",
                "amenity": "kindergarten"
            }
        },
        {
            "id": 58850,
            "type": "Feature",
            "geometry": {
                "type": "Point",
                "coordinates": [
                    20.1219499,
                    51.77312
                ]
            },
            "properties": {
                "isced:level": "1;2",
                "ref:rspo": 58850,
                "official_name": "Szko\u0142a Podstawowa w Z\u0142otej",
                "name": "Szko\u0142a Podstawowa w Z\u0142otej",
                "addr:country": "PL",
                "addr:postcode": "96-130",
                "addr:place": "Z\u0142ota",
                "addr:housenumber": "76",
                "addr:teryt:simc": 728204,
                "contact:phone": "+48 468157014",
                "contact:email": "zlota.szkola@wp.pl",
                "contact:website": "http:\/\/www.zlota.szkola.szkolnastrona.pl",
                "ref:regon": "001111977",
                "ref:vatin": "PL8361689406",
                "operator": "Gmina G\u0142uch\u00f3w",
                "operator:type": "government",
                "amenity": "school"
            }
        },
        {
            "id": 88170,
            "type": "Feature",
            "geometry": {
                "type": "Point",
                "coordinates": [
                    20.07759,
                    51.7777699
                ]
            },
            "properties": {
                "ref:rspo": 88170,
                "official_name": "Zesp\u00f3\u0142 Szk\u00f3\u0142 w G\u0142uchowie",
                "name": "Zesp\u00f3\u0142 Szk\u00f3\u0142 w G\u0142uchowie",
                "addr:country": "PL",
                "addr:postcode": "96-130",
                "addr:city": "G\u0142uch\u00f3w",
                "addr:street": "Plac Uniwersytecki",
                "addr:housenumber": "3",
                "addr:teryt:simc": 727860,
                "addr:teryt:sym_ul": 23376,
                "contact:phone": "+48 468157079",
                "contact:email": "zspgluchow@interia.pl",
                "contact:website": "http:\/\/zspgluchow.pl",
                "ref:regon": "750773856",
                "operator": "Powiat Skierniewicki",
                "operator:type": "government",
                "landuse": "education",
                "fixme": "amenity=school, amenity=college albo landuse=education w zale\u017cno\u015bci od tego, jakie plac\u00f3wki wchodz\u0105 w sk\u0142ad zespo\u0142u. Sprawd\u017a, kiedy stosowa\u0107 amenity=* a kiedy landuse=education.",
                "note": "Children RSPO: 105220;118482;120873"
            }
        },
        {
            "id": 105220,
            "type": "Feature",
            "geometry": {
                "type": "Point",
                "coordinates": [
                    20.07759,
                    51.7777399
                ]
            },
            "properties": {
                "isced:level": "3",
                "ref:rspo": 105220,
                "official_name": "Technikum w Zespole Szk\u00f3\u0142 w G\u0142uchowie",
                "name": "Technikum w Zespole Szk\u00f3\u0142 w G\u0142uchowie",
                "addr:country": "PL",
                "addr:postcode": "96-130",
                "addr:city": "G\u0142uch\u00f3w",
                "addr:street": "Plac Uniwersytecki",
                "addr:housenumber": "3",
                "addr:teryt:simc": 727860,
                "addr:teryt:sym_ul": 23376,
                "contact:phone": "+48 468157079",
                "contact:email": "zspgluchow@interia.pl",
                "contact:website": "http:\/\/www.zsgluchow.pl",
                "ref:regon": "750213778",
                "operator": "Powiat Skierniewicki",
                "operator:type": "government",
                "amenity": "school",
                "note": "Parent RSPO: 88170"
            }
        },
        {
            "id": 118482,
            "type": "Feature",
            "geometry": {
                "type": "Point",
                "coordinates": [
                    20.07759,
                    51.777709900000005
                ]
            },
            "properties": {
                "isced:level": "3",
                "ref:rspo": 118482,
                "official_name": "Liceum Og\u00f3lnokszta\u0142c\u0105ce w Zespole Szk\u00f3\u0142 G\u0142uchowie",
                "name": "Liceum Og\u00f3lnokszta\u0142c\u0105ce w Zespole Szk\u00f3\u0142 G\u0142uchowie",
                "addr:country": "PL",
                "addr:postcode": "96-130",
                "addr:city": "G\u0142uch\u00f3w",
                "addr:street": "Plac Uniwersytecki",
                "addr:housenumber": "3",
                "addr:teryt:simc": 727860,
                "addr:teryt:sym_ul": 23376,
                "contact:phone": "+48 468157079",
                "contact:email": "zspgluchow@interia.pl",
                "ref:regon": "101052065",
                "operator": "Powiat Skierniewicki",
                "operator:type": "government",
                "amenity": "school",
                "note": "Parent RSPO: 88170"
            }
        },
        {
            "id": 120873,
            "type": "Feature",
            "geometry": {
                "type": "Point",
                "coordinates": [
                    20.07759,
                    51.7776799
                ]
            },
            "properties": {
                "isced:level": "3",
                "ref:rspo": 120873,
                "official_name": "Bran\u017cowa Szko\u0142a I Stopnia w Zespole Szk\u00f3\u0142 w G\u0142uchowie.",
                "name": "Bran\u017cowa Szko\u0142a I Stopnia w Zespole Szk\u00f3\u0142 w G\u0142uchowie.",
                "addr:country": "PL",
                "addr:postcode": "96-130",
                "addr:city": "G\u0142uch\u00f3w",
                "addr:street": "Plac Uniwersytecki",
                "addr:housenumber": "3",
                "addr:teryt:simc": 727860,
                "addr:teryt:sym_ul": 23376,
                "contact:phone": "+48 458157079",
                "contact:email": "zspgluchow@interia.pl",
                "ref:regon": "100854503",
                "operator": "Powiat Skierniewicki",
                "operator:type": "government",
                "amenity": "school",
                "note": "Parent RSPO: 88170"
            }
        },
        {
            "id": 58623,
            "type": "Feature",
            "geometry": {
                "type": "Point",
                "coordinates": [
                    20.07624,
                    51.77856
                ]
            },
            "properties": {
                "ref:rspo": 58623,
                "official_name": "Gminne Przedszkole w G\u0142uchowie",
                "name": "Gminne Przedszkole w G\u0142uchowie",
                "addr:country": "PL",
                "addr:postcode": "96-130",
                "addr:city": "G\u0142uch\u00f3w",
                "addr:street": "Plac Uniwersytecki",
                "addr:housenumber": "5",
                "addr:teryt:simc": 727860,
                "addr:teryt:sym_ul": 23376,
                "contact:phone": "+48 468157193",
                "contact:email": "przedszkolegluchow@wp.pl",
                "ref:regon": "750020973",
                "ref:vatin": "PL8361690088",
                "operator": "Gmina G\u0142uch\u00f3w",
                "operator:type": "government",
                "amenity": "kindergarten"
            }
        },
        {
            "id": 58848,
            "type": "Feature",
            "geometry": {
                "type": "Point",
                "coordinates": [
                    20.08149,
                    51.77922
                ]
            },
            "properties": {
                "isced:level": "1;2",
                "ref:rspo": 58848,
                "official_name": "Szko\u0142a Podstawowa im. Marcina Wasilewskiego w G\u0142uchowie",
                "name": "Szko\u0142a Podstawowa",
                "addr:country": "PL",
                "addr:postcode": "96-130",
                "addr:city": "G\u0142uch\u00f3w",
                "addr:street": "Rawska",
                "addr:housenumber": "9",
                "addr:teryt:simc": 727860,
                "addr:teryt:sym_ul": 18498,
                "contact:phone": "+48 468157047",
                "contact:email": "spgluchow6@wp.pl",
                "contact:website": "http:\/\/spgluchow.szkolnastrona.pl\/",
                "ref:regon": "000265483",
                "ref:vatin": "PL8361689599",
                "operator": "Gmina G\u0142uch\u00f3w",
                "operator:type": "government",
                "amenity": "school"
            }
        },
        {
            "id": 55539,
            "type": "Feature",
            "geometry": {
                "type": "Point",
                "coordinates": [
                    20.12559,
                    51.79282
                ]
            },
            "properties": {
                "ref:rspo": 55539,
                "official_name": "Punkt Przedszkolny w Wysokienicach",
                "name": "Punkt Przedszkolny w Wysokienicach",
                "addr:country": "PL",
                "addr:postcode": "96-130",
                "addr:place": "Wysokienice",
                "addr:housenumber": "32",
                "addr:teryt:simc": 728180,
                "contact:phone": "+48 468157053",
                "contact:email": "szkola_wysokienice@interia.pl",
                "ref:regon": "101488880",
                "ref:vatin": "PL8361851545",
                "operator": "Stowarzyszenie \"Ma\u0142e Pociechy\"",
                "operator:type": "ngo",
                "amenity": "kindergarten"
            }
        },
        {
            "id": 58585,
            "type": "Feature",
            "geometry": {
                "type": "Point",
                "coordinates": [
                    20.12559,
                    51.79279
                ]
            },
            "properties": {
                "isced:level": "1;2",
                "ref:rspo": 58585,
                "official_name": "Szko\u0142a Podstawowa im.ksi\u0119cia J\u00f3zefa Poniatowskiego w Wysokienicach",
                "name": "Szko\u0142a Podstawowa im.ksi\u0119cia J\u00f3zefa Poniatowskiego w Wysokienicach",
                "addr:country": "PL",
                "addr:postcode": "96-130",
                "addr:place": "Wysokienice",
                "addr:housenumber": "32",
                "addr:teryt:simc": 728180,
                "contact:phone": "+48 468157053",
                "contact:email": "szkola_wysokienice@interia.pl",
                "contact:website": "http:\/\/www.spwysokienice.pl",
                "ref:regon": "001111983",
                "ref:vatin": "PL8361689381",
                "operator": "Gmina G\u0142uch\u00f3w",
                "operator:type": "government",
                "amenity": "school"
            }
        },
        {
            "id": 54005,
            "type": "Feature",
            "geometry": {
                "type": "Point",
                "coordinates": [
                    20.0153,
                    51.81035
                ]
            },
            "properties": {
                "isced:level": "1;2",
                "ref:rspo": 54005,
                "official_name": "Szko\u0142a Podstawowa w Bia\u0142yninie",
                "name": "Szko\u0142a Podstawowa w Bia\u0142yninie",
                "addr:country": "PL",
                "addr:postcode": "96-130",
                "addr:place": "Bia\u0142ynin",
                "addr:housenumber": "49",
                "addr:teryt:simc": 727759,
                "contact:phone": "+48 468157069",
                "contact:email": "trsa@interia.pl",
                "contact:website": "http:\/\/spbialynin.szkolnastrona.pl",
                "ref:regon": "001112020",
                "ref:vatin": "PL8361689369",
                "operator": "Gmina G\u0142uch\u00f3w",
                "operator:type": "government",
                "amenity": "school"
            }
        },
        {
            "id": 58934,
            "type": "Feature",
            "geometry": {
                "type": "Point",
                "coordinates": [
                    20.0153,
                    51.81032
                ]
            },
            "properties": {
                "ref:rspo": 58934,
                "official_name": "Punkt Przedszkolny w Bia\u0142yninie",
                "name": "Punkt Przedszkolny w Bia\u0142yninie",
                "addr:country": "PL",
                "addr:postcode": "96-130",
                "addr:place": "Bia\u0142ynin",
                "addr:housenumber": "49",
                "addr:teryt:simc": 727759,
                "contact:phone": "+48 468157069",
                "contact:email": "spbialynin@wp.pl",
                "ref:regon": "101490859",
                "operator": "Stowarzyszenie Na Rzecz Upowszechniania Wychowania Przedszkolnego \"Dzieci\u0119cy Raj\"",
                "operator:type": "ngo",
                "amenity": "kindergarten"
            }
        },
        {
            "id": 61908,
            "type": "Feature",
            "geometry": {
                "type": "Point",
                "coordinates": [
                    20.10203,
                    51.82635
                ]
            },
            "properties": {
                "isced:level": "1;2",
                "ref:rspo": 61908,
                "official_name": "Szko\u0142a Podstawowa im. Janusza Korczaka w Michowicach",
                "name": "Szko\u0142a Podstawowa",
                "addr:country": "PL",
                "addr:postcode": "96-130",
                "addr:place": "Michowice",
                "addr:housenumber": "51",
                "addr:teryt:simc": 728010,
                "contact:phone": "+48 468157011",
                "contact:email": "spmichowice@wp.pl",
                "contact:website": "http:\/\/www.spmichowice.pl",
                "ref:regon": "001111990",
                "ref:vatin": "PL8361689412",
                "operator": "Gmina G\u0142uch\u00f3w",
                "operator:type": "government",
                "amenity": "school"
            }
        },
        {
            "id": 58938,
            "type": "Feature",
            "geometry": {
                "type": "Point",
                "coordinates": [
                    20.12052,
                    51.83854
                ]
            },
            "properties": {
                "ref:rspo": 58938,
                "official_name": "Punkt Przedszkolny w Michowicach",
                "name": "Punkt Przedszkolny w Michowicach",
                "addr:country": "PL",
                "addr:postcode": "96-130",
                "addr:place": "Michowice",
                "addr:housenumber": "46",
                "addr:teryt:simc": 728010,
                "contact:phone": "+48 468157011",
                "contact:email": "stowarzyszeniesowa@op.pl",
                "ref:regon": "101490925",
                "operator": "Stowarzyszenie O\u015bwiatowo-Edukacyjno-Wychowawcze \"Sowa\"",
                "operator:type": "ngo",
                "amenity": "kindergarten"
            }
        },
        {
            "id": 54336,
            "type": "Feature",
            "geometry": {
                "type": "Point",
                "coordinates": [
                    20.05858,
                    51.84568
                ]
            },
            "properties": {
                "ref:rspo": 54336,
                "official_name": "Punkt Przedszkolny w Janis\u0142awicach",
                "name": "Punkt Przedszkolny w Janis\u0142awicach",
                "addr:country": "PL",
                "addr:postcode": "96-130",
                "addr:place": "Janis\u0142awice",
                "addr:housenumber": "49",
                "addr:teryt:simc": 727943,
                "contact:phone": "+48 468157088",
                "contact:email": "spjanislawice@wp.pl",
                "ref:regon": "101488822",
                "operator": "Stowarzyszenie Na Rzecz Rozwoju Janis\u0142awic I Okolicy",
                "operator:type": "ngo",
                "amenity": "kindergarten"
            }
        },
        {
            "id": 58563,
            "type": "Feature",
            "geometry": {
                "type": "Point",
                "coordinates": [
                    20.05858,
                    51.84565
                ]
            },
            "properties": {
                "isced:level": "1;2",
                "ref:rspo": 58563,
                "official_name": "Publiczna Szko\u0142a Podstawowa w Janis\u0142awicach",
                "name": "Publiczna Szko\u0142a Podstawowa w Janis\u0142awicach",
                "addr:country": "PL",
                "addr:postcode": "96-130",
                "addr:place": "Janis\u0142awice",
                "addr:housenumber": "49",
                "addr:teryt:simc": 727943,
                "contact:phone": "+48 468157088",
                "contact:email": "spjanislawice@wp.pl",
                "ref:regon": "101490055",
                "operator": "Stowarzyszenie Na Rzecz Rozwoju Janis\u0142awic I Okolicy",
                "operator:type": "ngo",
                "amenity": "school"
            }
        }
    ]
}