{"type":"FeatureCollection","features":[{"id":22689,"type":"Feature","geometry":{"type":"Point","coordinates":[20.1018,51.92589]},"properties":{"isced:level":"1;2","ref:rspo":22689,"official_name":"Szko\u0142a Podstawowa im. Jana Paw\u0142a II w D\u0105browicach","name":"Szko\u0142a Podstawowa","addr:country":"PL","addr:postcode":"96-124","addr:place":"D\u0105browice","addr:housenumber":"86","addr:teryt:sym_ul":731241,"contact:phone":"+48 468313367","contact:email":"spdabrowice@wp.pl","contact:website":"https:\/\/spdabrowice.edupage.org","ref:regon":"001112468","ref:vatin":"PL8361665357","operator":"Gmina Mak\u00f3w","operator:type":"government","amenity":"school"}},{"id":278565,"type":"Feature","geometry":{"type":"Point","coordinates":[19.9749899,51.9442]},"properties":{"isced:level":"1;2","ref:rspo":278565,"official_name":"Szko\u0142a Filialna w \u015awi\u0119tem Szko\u0142y Podstawowej im. Ksi\u0119dza Jana Twardowskiego w Makowie","name":"Szko\u0142a Filialna w \u015awi\u0119tem Szko\u0142y Podstawowej","addr:country":"PL","addr:postcode":"96-124","addr:place":"\u015awi\u0119te Laski","addr:housenumber":"63","addr:teryt:sym_ul":731620,"contact:phone":"+48 468352225","contact:email":"spswiete@wp.pl","ref:regon":"100359000","operator":"Gmina Mak\u00f3w","operator:type":"government","amenity":"school","note":"Parent RSPO: 22686"}},{"id":22704,"type":"Feature","geometry":{"type":"Point","coordinates":[20.00093,51.95038]},"properties":{"isced:level":"1;2","ref:rspo":22704,"official_name":"Szko\u0142a Podstawowa w S\u0142omkowie","name":"Szko\u0142a Podstawowa w S\u0142omkowie","addr:country":"PL","addr:postcode":"96-124","addr:city":"S\u0142omk\u00f3w","addr:street":"ul. G\u0142\u00f3wna","addr:housenumber":"68","addr:teryt:simc":5635,"addr:teryt:sym_ul":731531,"contact:phone":"+48 468352282","contact:email":"spslomkow@wp.pl","ref:regon":"001112445","ref:vatin":"PL8361665340","operator":"Gmina Mak\u00f3w","operator:type":"government","amenity":"school"}},{"id":22686,"type":"Feature","geometry":{"type":"Point","coordinates":[19.99346,51.9588899]},"properties":{"isced:level":"1;2","ref:rspo":22686,"official_name":"Szko\u0142a Podstawowa im. Ks. Jana Twardowskiego w Makowie Z Fili\u0105 w \u015awi\u0119tem","name":"Szko\u0142a Podstawowa","addr:country":"PL","addr:postcode":"96-124","addr:city":"Mak\u00f3w","addr:street":"ul. G\u0142\u00f3wna","addr:housenumber":"4","addr:teryt:simc":5635,"addr:teryt:sym_ul":731270,"contact:phone":"+48 468348177","contact:email":"sp_makow@poczta.onet.pl","ref:regon":"001003590","ref:vatin":"PL8361666279","operator":"Gmina Mak\u00f3w","operator:type":"government","amenity":"school","note":"Children RSPO: 278565"}},{"id":22697,"type":"Feature","geometry":{"type":"Point","coordinates":[19.99346,51.9588599]},"properties":{"ref:rspo":22697,"official_name":"Gminne Przedszkole w Makowie","name":"Gminne Przedszkole w Makowie","addr:country":"PL","addr:postcode":"96-124","addr:city":"Mak\u00f3w","addr:street":"ul. G\u0142\u00f3wna","addr:housenumber":"4","addr:teryt:simc":5635,"addr:teryt:sym_ul":731270,"contact:phone":"+48 468312282","contact:email":"przedszkoletecza@wp.pl","ref:regon":"100554273","ref:vatin":"PL8361818200","operator":"Gmina Mak\u00f3w","operator:type":"government","amenity":"kindergarten"}},{"id":85513,"type":"Feature","geometry":{"type":"Point","coordinates":[19.95282,51.96589]},"properties":{"isced:level":"1;2","ref:rspo":85513,"official_name":"Szko\u0142a Podstawowa im. Boles\u0142awa Chrobrego w Pszczonowie","name":"Szko\u0142a Podstawowa","addr:country":"PL","addr:postcode":"99-420","addr:place":"Pszczon\u00f3w","addr:housenumber":"53","addr:teryt:sym_ul":731442,"contact:phone":"+48 468352224","contact:email":"sppszczonow@gmail.com","ref:regon":"001112480","ref:vatin":"PL8361665305","operator":"Gmina Mak\u00f3w","operator:type":"government","amenity":"school"}},{"id":22722,"type":"Feature","geometry":{"type":"Point","coordinates":[20.05846,51.97645]},"properties":{"isced:level":"1;2","ref:rspo":22722,"official_name":"Szko\u0142a Podstawowa im. Ksi\u0119dza Stefana Kardyna\u0142a Wyszy\u0144skiego w Woli Makowskiej","name":"Szko\u0142a Podstawowa","addr:country":"PL","addr:postcode":"96-124","addr:place":"Wola Makowska","addr:housenumber":"25B","addr:teryt:sym_ul":731666,"contact:phone":"+48 468312002","contact:email":"s_p_wolamakowska@op.pl","ref:regon":"001112474","ref:vatin":"PL8361666339","operator":"Gmina Mak\u00f3w","operator:type":"government","amenity":"school"}}]}