{
    "type": "FeatureCollection",
    "features": [
        {
            "id": 87031,
            "type": "Feature",
            "geometry": {
                "type": "Point",
                "coordinates": [
                    20.1624899,
                    52.07838
                ]
            },
            "properties": {
                "ref:rspo": 87031,
                "official_name": "Zesp\u00f3\u0142 Szk\u00f3\u0142 w Bolimowie",
                "name": "Zesp\u00f3\u0142 Szk\u00f3\u0142 w Bolimowie",
                "addr:country": "PL",
                "addr:postcode": "99-417",
                "addr:city": "Bolim\u00f3w",
                "addr:street": "ul. Soko\u0142owska",
                "addr:housenumber": "24",
                "addr:teryt:simc": 20500,
                "addr:teryt:sym_ul": 725068,
                "contact:phone": "+48 468380268",
                "contact:email": "lebol@poczta.onet.pl",
                "contact:website": "http:\/\/www.zsp-bolimow.pl",
                "ref:regon": "750773974",
                "operator": "Powiat Skierniewicki",
                "operator:type": "government",
                "landuse": "education",
                "fixme": "amenity=school, amenity=college albo landuse=education w zale\u017cno\u015bci od tego, jakie plac\u00f3wki wchodz\u0105 w sk\u0142ad zespo\u0142u. Sprawd\u017a, kiedy stosowa\u0107 amenity=* a kiedy landuse=education.",
                "note": "Children RSPO: 87033;118575;120823;120864;120865"
            }
        },
        {
            "id": 196252,
            "type": "Feature",
            "geometry": {
                "type": "Point",
                "coordinates": [
                    20.1624899,
                    52.07835
                ]
            },
            "properties": {
                "ref:rspo": 196252,
                "official_name": "Zesp\u00f3\u0142 Szkolno-Przedszkolny w Bolimowie",
                "name": "Zesp\u00f3\u0142 Szkolno-Przedszkolny w Bolimowie",
                "addr:country": "PL",
                "addr:postcode": "99-417",
                "addr:city": "Bolim\u00f3w",
                "addr:street": "ul. Soko\u0142owska",
                "addr:housenumber": "24",
                "addr:teryt:simc": 20500,
                "addr:teryt:sym_ul": 725068,
                "contact:phone": "+48 468380310",
                "contact:email": "zsp@bolimow.pl",
                "contact:website": "http:\/\/www.spbolimow.szkolnastrona.pl",
                "ref:regon": "367988607",
                "ref:vatin": "PL8361865731",
                "operator": "Gmina Bolim\u00f3w",
                "operator:type": "government",
                "landuse": "education",
                "fixme": "amenity=school, amenity=college albo landuse=education w zale\u017cno\u015bci od tego, jakie plac\u00f3wki wchodz\u0105 w sk\u0142ad zespo\u0142u. Sprawd\u017a, kiedy stosowa\u0107 amenity=* a kiedy landuse=education.",
                "note": "Children RSPO: 8841;9090"
            }
        },
        {
            "id": 87033,
            "type": "Feature",
            "geometry": {
                "type": "Point",
                "coordinates": [
                    20.1624899,
                    52.078320000000005
                ]
            },
            "properties": {
                "isced:level": "3",
                "ref:rspo": 87033,
                "official_name": "Zesp\u00f3\u0142 Szk\u00f3\u0142 w Bolimowie.technikum w Bolimowie",
                "name": "Zesp\u00f3\u0142 Szk\u00f3\u0142 w Bolimowie.technikum w Bolimowie",
                "addr:country": "PL",
                "addr:postcode": "99-417",
                "addr:city": "Bolim\u00f3w",
                "addr:street": "ul. Soko\u0142owska",
                "addr:housenumber": "24",
                "addr:teryt:simc": 20500,
                "addr:teryt:sym_ul": 725068,
                "contact:phone": "+48 468380268",
                "contact:email": "lebol@poczta.onet.pl",
                "ref:regon": "750428326",
                "operator": "Powiat Skierniewicki",
                "operator:type": "government",
                "amenity": "school",
                "note": "Parent RSPO: 87031"
            }
        },
        {
            "id": 118575,
            "type": "Feature",
            "geometry": {
                "type": "Point",
                "coordinates": [
                    20.1624899,
                    52.07829
                ]
            },
            "properties": {
                "isced:level": "3",
                "ref:rspo": 118575,
                "official_name": "Szko\u0142a Bran\u017cowa I Stopnia w Bolimowie",
                "name": "Szko\u0142a Bran\u017cowa I Stopnia w Bolimowie",
                "addr:country": "PL",
                "addr:postcode": "99-417",
                "addr:city": "Bolim\u00f3w",
                "addr:street": "ul. Soko\u0142owska",
                "addr:housenumber": "24",
                "addr:teryt:simc": 20500,
                "addr:teryt:sym_ul": 725068,
                "contact:phone": "+48 468380268",
                "contact:email": "lebol@poczta.onet.pl",
                "ref:regon": "101647551",
                "operator": "Powiat Skierniewicki",
                "operator:type": "government",
                "amenity": "school",
                "note": "Parent RSPO: 87031"
            }
        },
        {
            "id": 120823,
            "type": "Feature",
            "geometry": {
                "type": "Point",
                "coordinates": [
                    20.1624899,
                    52.07826
                ]
            },
            "properties": {
                "isced:level": "3",
                "ref:rspo": 120823,
                "official_name": "Zesp\u00f3\u0142 Szk\u00f3\u0142 w Bolimowie. Liceum Og\u00f3lnokszta\u0142c\u0105ce w Bolimowie.",
                "name": "Zesp\u00f3\u0142 Szk\u00f3\u0142 w Bolimowie. Liceum Og\u00f3lnokszta\u0142c\u0105ce w Bolimowie.",
                "addr:country": "PL",
                "addr:postcode": "99-417",
                "addr:city": "Bolim\u00f3w",
                "addr:street": "ul. Soko\u0142owska",
                "addr:housenumber": "24",
                "addr:teryt:simc": 20500,
                "addr:teryt:sym_ul": 725068,
                "contact:phone": "+48 468380268",
                "contact:email": "lebol@poczta.onet.pl",
                "ref:regon": "750773980",
                "operator": "Powiat Skierniewicki",
                "operator:type": "government",
                "amenity": "school",
                "note": "Parent RSPO: 87031"
            }
        },
        {
            "id": 120864,
            "type": "Feature",
            "geometry": {
                "type": "Point",
                "coordinates": [
                    20.1624899,
                    52.078230000000005
                ]
            },
            "properties": {
                "isced:level": "4",
                "ref:rspo": 120864,
                "official_name": "Zesp\u00f3\u0142 Szk\u00f3\u0142 w Bolimowie.szko\u0142a Policealna w Bolimowie",
                "name": "Zesp\u00f3\u0142 Szk\u00f3\u0142 w Bolimowie.szko\u0142a Policealna w Bolimowie",
                "addr:country": "PL",
                "addr:postcode": "99-417",
                "addr:city": "Bolim\u00f3w",
                "addr:street": "ul. Soko\u0142owska",
                "addr:housenumber": "24",
                "addr:teryt:simc": 20500,
                "addr:teryt:sym_ul": 725068,
                "contact:phone": "+48 468380268",
                "contact:email": "lebol@poczta.onet.pl",
                "ref:regon": "750819771",
                "operator": "Powiat Skierniewicki",
                "operator:type": "government",
                "amenity": "college",
                "note": "Parent RSPO: 87031"
            }
        },
        {
            "id": 120865,
            "type": "Feature",
            "geometry": {
                "type": "Point",
                "coordinates": [
                    20.1624899,
                    52.0782
                ]
            },
            "properties": {
                "isced:level": "4",
                "ref:rspo": 120865,
                "official_name": "Zesp\u00f3\u0142 Szk\u00f3\u0142 w Bolimowie. Szko\u0142a Policealna w Bolimowie.",
                "name": "Zesp\u00f3\u0142 Szk\u00f3\u0142 w Bolimowie. Szko\u0142a Policealna w Bolimowie.",
                "addr:country": "PL",
                "addr:postcode": "99-417",
                "addr:city": "Bolim\u00f3w",
                "addr:street": "ul. Soko\u0142owska",
                "addr:housenumber": "24",
                "addr:teryt:simc": 20500,
                "addr:teryt:sym_ul": 725068,
                "contact:phone": "+48 468380268",
                "contact:email": "lebol@poczta.onet.pl",
                "ref:regon": "750819759",
                "operator": "Powiat Skierniewicki",
                "operator:type": "government",
                "amenity": "college",
                "note": "Parent RSPO: 87031"
            }
        },
        {
            "id": 8841,
            "type": "Feature",
            "geometry": {
                "type": "Point",
                "coordinates": [
                    20.1624899,
                    52.07817
                ]
            },
            "properties": {
                "ref:rspo": 8841,
                "official_name": "Przedszkole w Bolimowie",
                "name": "Przedszkole w Bolimowie",
                "addr:country": "PL",
                "addr:postcode": "99-417",
                "addr:city": "Bolim\u00f3w",
                "addr:street": "ul. Soko\u0142owska",
                "addr:housenumber": "24",
                "addr:teryt:simc": 20500,
                "addr:teryt:sym_ul": 725068,
                "contact:phone": "+48 468380310",
                "contact:email": "zsp@bolimow.pl",
                "ref:regon": "750020938",
                "operator": "Gmina Bolim\u00f3w",
                "operator:type": "government",
                "amenity": "kindergarten",
                "note": "Parent RSPO: 196252"
            }
        },
        {
            "id": 9090,
            "type": "Feature",
            "geometry": {
                "type": "Point",
                "coordinates": [
                    20.1624899,
                    52.078140000000005
                ]
            },
            "properties": {
                "isced:level": "1;2",
                "ref:rspo": 9090,
                "official_name": "Szko\u0142a Podstawowa im.henryka D\u0105browskiego w Bolimowie",
                "name": "Szko\u0142a Podstawowa im.henryka D\u0105browskiego w Bolimowie",
                "addr:country": "PL",
                "addr:postcode": "99-417",
                "addr:city": "Bolim\u00f3w",
                "addr:street": "ul. Soko\u0142owska",
                "addr:housenumber": "24",
                "addr:teryt:simc": 20500,
                "addr:teryt:sym_ul": 725068,
                "contact:phone": "+48 468380310",
                "contact:email": "zsp@bolimow.pl",
                "contact:website": "http:\/\/www.spbolimow.szkolnastrona.pl",
                "ref:regon": "000266732",
                "ref:vatin": "PL8361666345",
                "operator": "Gmina Bolim\u00f3w",
                "operator:type": "government",
                "amenity": "school",
                "note": "Parent RSPO: 196252"
            }
        },
        {
            "id": 11496,
            "type": "Feature",
            "geometry": {
                "type": "Point",
                "coordinates": [
                    20.21731,
                    52.09934
                ]
            },
            "properties": {
                "isced:level": "1;2",
                "ref:rspo": 11496,
                "official_name": "Szko\u0142a Podstawowa w Huminie",
                "name": "Szko\u0142a Podstawowa w Huminie",
                "addr:country": "PL",
                "addr:postcode": "99-417",
                "addr:place": "Humin",
                "addr:housenumber": "44A",
                "addr:teryt:sym_ul": 725074,
                "contact:phone": "+48 468380318",
                "contact:email": "sp_humin@wp.pl",
                "contact:website": "http:\/\/www.sphumin.togbol.org",
                "ref:regon": "101465040",
                "operator": "Towarzystwo O\u015bwiatowe Gminy Bolim\u00f3w",
                "operator:type": "ngo",
                "amenity": "school"
            }
        },
        {
            "id": 114515,
            "type": "Feature",
            "geometry": {
                "type": "Point",
                "coordinates": [
                    20.17132,
                    52.12381
                ]
            },
            "properties": {
                "ref:rspo": 114515,
                "official_name": "Przedszkole Niepubliczne J\u0119zykowo-Artystyczne \"Le\u015bne Skrzaty\" w Kurabce",
                "name": "Przedszkole Niepubliczne J\u0119zykowo-Artystyczne \"Le\u015bne Skrzaty\" w Kurabce",
                "addr:country": "PL",
                "addr:postcode": "99-417",
                "addr:place": "Kurabka",
                "addr:housenumber": "23",
                "addr:teryt:sym_ul": 725217,
                "contact:phone": "+48 605329947",
                "contact:email": "impresjazagorze@gazeta.pl",
                "ref:regon": "101601939",
                "operator": "Nadia Meguedad",
                "operator:type": "private",
                "amenity": "kindergarten"
            }
        },
        {
            "id": 11497,
            "type": "Feature",
            "geometry": {
                "type": "Point",
                "coordinates": [
                    20.14868,
                    52.13725
                ]
            },
            "properties": {
                "isced:level": "1;2",
                "ref:rspo": 11497,
                "official_name": "Szko\u0142a Podstawowa w K\u0119szycach",
                "name": "Szko\u0142a Podstawowa w K\u0119szycach",
                "addr:country": "PL",
                "addr:postcode": "99-417",
                "addr:place": "K\u0119szyce-Wie\u015b",
                "addr:housenumber": "50",
                "addr:teryt:sym_ul": 725157,
                "contact:phone": "+48 468380368",
                "contact:email": "keszycesp@onet.eu",
                "contact:website": "http:\/\/keszycesp.szkolnastrona.pl",
                "ref:regon": "101465092",
                "operator": "Towarzystwo O\u015bwiatowe Gminy Bolim\u00f3w",
                "operator:type": "ngo",
                "amenity": "school"
            }
        }
    ]
}