{
    "type": "FeatureCollection",
    "features": [
        {
            "id": 28219,
            "type": "Feature",
            "geometry": {
                "type": "Point",
                "coordinates": [
                    20.26537,
                    51.87487
                ]
            },
            "properties": {
                "isced:level": "1;2",
                "ref:rspo": 28219,
                "official_name": "Publiczna Szko\u0142a Podstawowa im. Jana Antoniego Grabowskiego w Nowym Dworze",
                "name": "Publiczna Szko\u0142a Podstawowa",
                "addr:country": "PL",
                "addr:postcode": "96-115",
                "addr:place": "Nowy Dw\u00f3r-Parcela",
                "addr:housenumber": "60",
                "addr:teryt:sym_ul": 734392,
                "contact:phone": "+48 468314111",
                "contact:email": "nowy-dwor@wp.pl",
                "contact:website": "http:\/\/www.spnowydwor.pl",
                "ref:regon": "000681075",
                "ref:vatin": "PL8361620366",
                "operator": "Gmina Nowy Kaw\u0119czyn",
                "operator:type": "government",
                "amenity": "school"
            }
        },
        {
            "id": 196420,
            "type": "Feature",
            "geometry": {
                "type": "Point",
                "coordinates": [
                    20.19869,
                    51.90611
                ]
            },
            "properties": {
                "isced:level": "1;2",
                "ref:rspo": 196420,
                "official_name": "Szko\u0142a Podstawowa im. J\u00f3zefa Wybickiego w Strzybodze",
                "name": "Szko\u0142a Podstawowa",
                "addr:country": "PL",
                "addr:postcode": "96-115",
                "addr:place": "Strzyboga",
                "addr:housenumber": "29",
                "addr:teryt:sym_ul": 734512,
                "contact:phone": "+48 468314102",
                "contact:email": "sekretariat@sp-strzyboga.pl",
                "ref:regon": "367993710",
                "operator": "Gmina Nowy Kaw\u0119czyn",
                "operator:type": "government",
                "amenity": "school"
            }
        },
        {
            "id": 28220,
            "type": "Feature",
            "geometry": {
                "type": "Point",
                "coordinates": [
                    20.25349,
                    51.9204
                ]
            },
            "properties": {
                "isced:level": "1;2",
                "ref:rspo": 28220,
                "official_name": "Szko\u0142a Podstawowa im. Armii Krajowej w Trzciannie",
                "name": "Szko\u0142a Podstawowa",
                "addr:country": "PL",
                "addr:postcode": "96-115",
                "addr:place": "Trzcianna",
                "addr:housenumber": "14",
                "addr:teryt:sym_ul": 734570,
                "contact:phone": "+48 468314291",
                "contact:email": "sptrzcianna@op.pl",
                "contact:website": "http:\/\/sptrzcianna.edupage.org",
                "ref:regon": "001130710",
                "ref:vatin": "PL8361648146",
                "operator": "Gmina Nowy Kaw\u0119czyn",
                "operator:type": "government",
                "amenity": "school"
            }
        }
    ]
}