{
    "type": "FeatureCollection",
    "features": [
        {
            "id": 270394,
            "type": "Feature",
            "geometry": {
                "type": "Point",
                "coordinates": [
                    15.80644,
                    51.76606
                ]
            },
            "properties": {
                "ref:rspo": 270394,
                "official_name": "Niepubliczne Przedszkole w Siedlisku",
                "name": "Niepubliczne Przedszkole w Siedlisku",
                "addr:country": "PL",
                "addr:postcode": "67-112",
                "addr:city": "Siedlisko",
                "addr:street": "Plac Zamkowy",
                "addr:housenumber": "23",
                "addr:teryt:simc": 913479,
                "addr:teryt:sym_ul": 25554,
                "contact:phone": "+48 683888431",
                "contact:email": "biuro@wzgorzadalkowskie.pl",
                "ref:regon": "382512089",
                "operator": "Fundacja \"Porozumienie Wzg\u00f3rz Dalkowskich\"",
                "operator:type": "ngo",
                "amenity": "kindergarten"
            }
        },
        {
            "id": 88477,
            "type": "Feature",
            "geometry": {
                "type": "Point",
                "coordinates": [
                    15.81677,
                    51.7689499
                ]
            },
            "properties": {
                "ref:rspo": 88477,
                "official_name": "Przedszkole Publiczne w Siedlisku",
                "name": "Przedszkole Publiczne w Siedlisku",
                "addr:country": "PL",
                "addr:postcode": "67-112",
                "addr:city": "Siedlisko",
                "addr:street": "G\u0142ogowska",
                "addr:housenumber": "37",
                "addr:teryt:simc": 913479,
                "addr:teryt:sym_ul": 5614,
                "contact:phone": "+48 683883580",
                "ref:regon": "081089764",
                "operator": "Gmina Siedlisko",
                "operator:type": "government",
                "amenity": "kindergarten"
            }
        },
        {
            "id": 88364,
            "type": "Feature",
            "geometry": {
                "type": "Point",
                "coordinates": [
                    15.92692,
                    51.77161
                ]
            },
            "properties": {
                "isced:level": "1;2",
                "ref:rspo": 88364,
                "official_name": "Szko\u0142a Podstawowa im. Kornela Makuszynskiego w Bielawach",
                "name": "Szko\u0142a Podstawowa",
                "addr:country": "PL",
                "addr:postcode": "67-112",
                "addr:place": "Bielawy",
                "addr:housenumber": "17",
                "addr:teryt:simc": 913396,
                "contact:phone": "+48 683881724",
                "contact:email": "spbielawy@poczta.onet.pl",
                "ref:regon": "970778754",
                "operator": "Gmina Siedlisko",
                "operator:type": "government",
                "amenity": "school"
            }
        },
        {
            "id": 56382,
            "type": "Feature",
            "geometry": {
                "type": "Point",
                "coordinates": [
                    15.81431,
                    51.77415
                ]
            },
            "properties": {
                "ref:rspo": 56382,
                "official_name": "Zesp\u00f3\u0142 Plac\u00f3wek O\u015bwiatowych w Siedlisku",
                "name": "Zesp\u00f3\u0142 Plac\u00f3wek O\u015bwiatowych w Siedlisku",
                "addr:country": "PL",
                "addr:postcode": "67-112",
                "addr:city": "Siedlisko",
                "addr:street": "Kasztanowa",
                "addr:housenumber": "19",
                "addr:teryt:simc": 913479,
                "addr:teryt:sym_ul": 8171,
                "contact:phone": "+48 683560208",
                "contact:email": "zpowsiedlisku@poczta.onet.pl",
                "ref:regon": "977995213",
                "operator": "Gmina Siedlisko",
                "operator:type": "government",
                "landuse": "education",
                "fixme": "amenity=school, amenity=college albo landuse=education w zale\u017cno\u015bci od tego, jakie plac\u00f3wki wchodz\u0105 w sk\u0142ad zespo\u0142u. Sprawd\u017a, kiedy stosowa\u0107 amenity=* a kiedy landuse=education.",
                "note": "Children RSPO: 65200;65202;88408"
            }
        },
        {
            "id": 65200,
            "type": "Feature",
            "geometry": {
                "type": "Point",
                "coordinates": [
                    15.81431,
                    51.774119999999996
                ]
            },
            "properties": {
                "isced:level": "3",
                "ref:rspo": 65200,
                "official_name": "Bran\u017cowa Szko\u0142a I Stopna w Siedlisku",
                "name": "Bran\u017cowa Szko\u0142a I Stopna w Siedlisku",
                "addr:country": "PL",
                "addr:postcode": "67-112",
                "addr:city": "Siedlisko",
                "addr:street": "Kasztanowa",
                "addr:housenumber": "19",
                "addr:teryt:simc": 913479,
                "addr:teryt:sym_ul": 8171,
                "contact:phone": "+48 683560208",
                "contact:email": "zpowsiedlisku@poczta.onet.pl",
                "ref:regon": "080368746",
                "operator": "Gmina Siedlisko",
                "operator:type": "government",
                "amenity": "school",
                "note": "Parent RSPO: 56382"
            }
        },
        {
            "id": 65202,
            "type": "Feature",
            "geometry": {
                "type": "Point",
                "coordinates": [
                    15.81431,
                    51.77409
                ]
            },
            "properties": {
                "isced:level": "3",
                "ref:rspo": 65202,
                "official_name": "Liceum Og\u00f3lnokszta\u0142cace w Siedlisku",
                "name": "Liceum Og\u00f3lnokszta\u0142cace w Siedlisku",
                "addr:country": "PL",
                "addr:postcode": "67-112",
                "addr:city": "Siedlisko",
                "addr:street": "Kasztanowa",
                "addr:housenumber": "19",
                "addr:teryt:simc": 913479,
                "addr:teryt:sym_ul": 8171,
                "contact:phone": "+48 683560208",
                "contact:email": "zpowsiedlisku@poczta.onet.pl",
                "ref:regon": "080950995",
                "operator": "Gmina Siedlisko",
                "operator:type": "government",
                "amenity": "school",
                "note": "Parent RSPO: 56382"
            }
        },
        {
            "id": 88408,
            "type": "Feature",
            "geometry": {
                "type": "Point",
                "coordinates": [
                    15.81431,
                    51.77406
                ]
            },
            "properties": {
                "isced:level": "1;2",
                "ref:rspo": 88408,
                "official_name": "Szko\u0142a Podstawowa im. Janusza Korczaka w Siedlisku",
                "name": "Szko\u0142a Podstawowa",
                "addr:country": "PL",
                "addr:postcode": "67-112",
                "addr:city": "Siedlisko",
                "addr:street": "Kasztanowa",
                "addr:housenumber": "19",
                "addr:teryt:simc": 913479,
                "addr:teryt:sym_ul": 8171,
                "contact:phone": "+48 683560208",
                "contact:email": "zpowsiedlisku@poczta.onet.pl",
                "ref:regon": "970778760",
                "operator": "Gmina Siedlisko",
                "operator:type": "government",
                "amenity": "school",
                "note": "Parent RSPO: 56382"
            }
        }
    ]
}