{"type":"FeatureCollection","features":[{"id":267608,"type":"Feature","geometry":{"type":"Point","coordinates":[15.62679,51.839]},"properties":{"ref:rspo":267608,"official_name":"Przedszkole w \u0141ugach","name":"Przedszkole w \u0141ugach","addr:country":"PL","addr:postcode":"67-106","addr:place":"\u0141ugi","addr:housenumber":"35","addr:teryt:sym_ul":912793,"contact:phone":"+48 683550226","contact:email":"zsotyn@wp.pl","ref:regon":"380405350","operator":"Gmina Oty\u0144","operator:type":"government","amenity":"kindergarten","note":"Parent RSPO: 267607"}},{"id":23821,"type":"Feature","geometry":{"type":"Point","coordinates":[15.70112,51.84073]},"properties":{"ref:rspo":23821,"official_name":"Kotar-Bph Jan Kotowski Ekspercka Firma Us\u0142ugowo-Doradczo-Szkoleniowa","name":"Kotar-Bph Jan Kotowski Ekspercka Firma Us\u0142ugowo-Doradczo-Szkoleniowa","addr:country":"PL","addr:postcode":"67-106","addr:place":"Zak\u0119cie","addr:housenumber":"74","addr:teryt:sym_ul":912830,"contact:phone":"+48 603369752","contact:email":"j.kotowski@interia.pl","contact:website":"http:\/\/www.kotar-bph.pl","ref:regon":"081077732","operator":"Kotar-Bhp Ekspercka Firma-Us\u0142ugowo-Doradczo-Szkoleniowa Plac. O\u015bw. Kszta\u0142. Ustaw. Jan Kotowski","operator:type":"consortium","fixme":"w zale\u017cno\u015bci od przedmiotu dzia\u0142alno\u015bci (np. amenity=training + training=*, amenity=dancing_school, amenity=language_school, amenity=music_school)"}},{"id":267607,"type":"Feature","geometry":{"type":"Point","coordinates":[15.70533,51.8469399]},"properties":{"ref:rspo":267607,"official_name":"Zesp\u00f3\u0142 Szkolno-Przedszkolny Z Oddzia\u0142ami Integracyjnymi w Otyniu","name":"Zesp\u00f3\u0142 Szkolno-Przedszkolny Z Oddzia\u0142ami Integracyjnymi w Otyniu","addr:country":"PL","addr:postcode":"67-106","addr:city":"Oty\u0144","addr:street":"ul. \u017beromskiego","addr:housenumber":"3","addr:teryt:simc":26464,"addr:teryt:sym_ul":912824,"contact:phone":"+48 683550226","contact:email":"zsotyn@wp.pl","contact:website":"http:\/\/www.zsotyn.pl","ref:regon":"380405231","ref:vatin":"PL9252126308","operator":"Gmina Oty\u0144","operator:type":"government","landuse":"education","fixme":"amenity=school, amenity=college albo landuse=education w zale\u017cno\u015bci od tego, jakie plac\u00f3wki wchodz\u0105 w sk\u0142ad zespo\u0142u. Sprawd\u017a, kiedy stosowa\u0107 amenity=* a kiedy landuse=education.","note":"Children RSPO: 78081;133753;267608"}},{"id":78081,"type":"Feature","geometry":{"type":"Point","coordinates":[15.70533,51.8469099]},"properties":{"isced:level":"1;2","ref:rspo":78081,"official_name":"Szko\u0142a Podstawowa im. Stefana \u017beromskiego w Otyniu","name":"Szko\u0142a Podstawowa","addr:country":"PL","addr:postcode":"67-106","addr:city":"Oty\u0144","addr:street":"ul. \u017beromskiego","addr:housenumber":"3","addr:teryt:simc":26464,"addr:teryt:sym_ul":912824,"contact:phone":"+48 683550226","contact:email":"zsotyn@wp.pl","contact:website":"http:\/\/zsotyn.pl","ref:regon":"970570901","ref:vatin":"PL9251907624","operator":"Gmina Oty\u0144","operator:type":"government","amenity":"school","note":"Parent RSPO: 267607"}},{"id":133753,"type":"Feature","geometry":{"type":"Point","coordinates":[15.70533,51.846879900000005]},"properties":{"ref:rspo":133753,"official_name":"Publiczne Przedszkole Z Oddzia\u0142ami Integracyjnymi w Otyniu","name":"Publiczne Przedszkole Z Oddzia\u0142ami Integracyjnymi w Otyniu","addr:country":"PL","addr:postcode":"67-106","addr:city":"Oty\u0144","addr:street":"ul. \u017beromskiego","addr:housenumber":"3A","addr:teryt:simc":26464,"addr:teryt:sym_ul":912824,"contact:phone":"+48 683559226","contact:email":"zsotyn@wp.pl","ref:regon":"367581745","ref:vatin":"PL9252118220","operator":"Gmina Oty\u0144","operator:type":"government","amenity":"kindergarten","note":"Parent RSPO: 267607"}},{"id":122299,"type":"Feature","geometry":{"type":"Point","coordinates":[15.71541,51.8481]},"properties":{"ref:rspo":122299,"official_name":"Przedszkole Prowadzone Przez Zgromadzenie Si\u00f3str \u015aw. El\u017cbiety","name":"Przedszkole Prowadzone Przez Zgromadzenie Si\u00f3str \u015aw. El\u017cbiety","addr:country":"PL","addr:postcode":"67-106","addr:city":"Oty\u0144","addr:street":"ul. Moniuszki","addr:housenumber":"12","addr:teryt:simc":13242,"addr:teryt:sym_ul":912824,"contact:phone":"+48 683550293","contact:email":"przedszkoleotyn@wp.pl","contact:website":"http:\/\/przedszkoleotyn.edupage.org","ref:regon":"081196075","ref:vatin":"PL9251470877","operator":"Zgromadzenie Si\u00f3str \u015aw. El\u017cbiety Prowincja Pozna\u0144ska","operator:type":"religious","amenity":"kindergarten"}},{"id":114591,"type":"Feature","geometry":{"type":"Point","coordinates":[15.67015,51.87397]},"properties":{"isced:level":"1;2","ref:rspo":114591,"official_name":"Szko\u0142a Podstawowa im. Henryka Sienkiewicza w Niedoradzu","name":"Szko\u0142a Podstawowa","addr:country":"PL","addr:postcode":"67-106","addr:city":"Niedoradz","addr:street":"ul. Markiewiczowej","addr:housenumber":"7","addr:teryt:simc":12369,"addr:teryt:sym_ul":912818,"contact:phone":"+48 683881293","contact:email":"spniedoradz@wp.pl","contact:website":"http:\/\/spniedoradz.pl","ref:regon":"970570947","ref:vatin":"PL9251907618","operator":"Gmina Oty\u0144","operator:type":"government","amenity":"school"}}]}