{
    "type": "FeatureCollection",
    "features": [
        {
            "id": 74687,
            "type": "Feature",
            "geometry": {
                "type": "Point",
                "coordinates": [
                    15.72666,
                    51.78288
                ]
            },
            "properties": {
                "ref:rspo": 74687,
                "official_name": "Przedszkole nr 5",
                "name": "Przedszkole nr 5",
                "addr:postcode": "67-100",
                "addr:city": "Nowa S\u00f3l",
                "addr:street": "Kr\u0119ta",
                "addr:housenumber": "18",
                "addr:city:simc": 988520,
                "addr:street:sym_ul": 9925,
                "phone": "+48 683873171",
                "email": "pp5nowasol@wp.pl",
                "website": "http:\/\/www.pp5nowasol.edupage.org",
                "ref:regon": "978110079",
                "ref:vatin": "PL9251470883",
                "operator": "Gmina Nowa S\u00f3l -Miasto",
                "operator:type": "government",
                "amenity": "kindergarten"
            }
        },
        {
            "id": 74837,
            "type": "Feature",
            "geometry": {
                "type": "Point",
                "coordinates": [
                    15.7247,
                    51.783
                ]
            },
            "properties": {
                "isced:level": "1;2",
                "ref:rspo": 74837,
                "official_name": "Szko\u0142a Podstawowa nr 5 im. W\u0142adys\u0142awa Broniewskiego",
                "name": "Szko\u0142a Podstawowa nr 5",
                "addr:postcode": "67-100",
                "addr:city": "Nowa S\u00f3l",
                "addr:street": "M\u0142odych",
                "addr:housenumber": "2",
                "addr:city:simc": 988520,
                "addr:street:sym_ul": 13087,
                "phone": "+48 683874451",
                "email": "psns5@wp.pl",
                "website": "http:\/\/www.sp5nowasol.edupage.org",
                "ref:regon": "970452751",
                "ref:vatin": "PL9251470914",
                "operator": "Gmina Nowa S\u00f3l -Miasto",
                "operator:type": "government",
                "amenity": "school"
            }
        },
        {
            "id": 55086,
            "type": "Feature",
            "geometry": {
                "type": "Point",
                "coordinates": [
                    15.71804,
                    51.79546
                ]
            },
            "properties": {
                "ref:rspo": 55086,
                "official_name": "Przedszkole nr 9 z Oddzia\u0142ami Integracytjnymi",
                "name": "Przedszkole nr 9 z Oddzia\u0142ami Integracytjnymi",
                "addr:postcode": "67-100",
                "addr:city": "Nowa S\u00f3l",
                "addr:street": "Wroc\u0142awska",
                "addr:housenumber": "35B",
                "addr:city:simc": 988520,
                "addr:street:sym_ul": 24806,
                "phone": "+48 683875071",
                "email": "pp9nsol@wp.pl",
                "ref:regon": "978110116",
                "ref:vatin": "PL9251470883",
                "operator": "Gmina Nowa S\u00f3l -Miasto",
                "operator:type": "government",
                "amenity": "kindergarten"
            }
        },
        {
            "id": 11198,
            "type": "Feature",
            "geometry": {
                "type": "Point",
                "coordinates": [
                    15.71887,
                    51.79594
                ]
            },
            "properties": {
                "ref:rspo": 11198,
                "official_name": "Zesp\u00f3\u0142 Szk\u00f3\u0142 Ponadgimnazjalnych nr 2",
                "name": "Zesp\u00f3\u0142 Szk\u00f3\u0142 Ponadgimnazjalnych nr 2",
                "addr:postcode": "67-100",
                "addr:city": "Nowa S\u00f3l",
                "addr:street": "Wroc\u0142awska",
                "addr:housenumber": "33a",
                "addr:city:simc": 988520,
                "addr:street:sym_ul": 24806,
                "phone": "+48 683874761",
                "email": "sekretariat@nitki.org.pl",
                "website": "http:\/\/www.zsp2-nitki.pl",
                "ref:regon": "000181125",
                "operator": "Powiat Nowosolski",
                "operator:type": "government",
                "landuse": "education",
                "fixme": "amenity=school, amenity=college albo landuse=education w zale\u017cno\u015bci od tego, jakie plac\u00f3wki wchodz\u0105 w sk\u0142ad zespo\u0142u. Sprawd\u017a, kiedy stosowa\u0107 amenity=* a kiedy landuse=education.",
                "note": "Children RSPO: 13371;13372;15774;16366;275894"
            }
        },
        {
            "id": 13371,
            "type": "Feature",
            "geometry": {
                "type": "Point",
                "coordinates": [
                    15.71887,
                    51.79591
                ]
            },
            "properties": {
                "isced:level": "3",
                "ref:rspo": 13371,
                "official_name": "Technikum w Zespole Szk\u00f3\u0142 Ponadgimnazjalnych nr 2",
                "name": "Technikum w Zespole Szk\u00f3\u0142 Ponadgimnazjalnych nr 2",
                "addr:postcode": "67-100",
                "addr:city": "Nowa S\u00f3l",
                "addr:street": "Wroc\u0142awska",
                "addr:housenumber": "33a",
                "addr:city:simc": 988520,
                "addr:street:sym_ul": 24806,
                "phone": "+48 683874761",
                "email": "sekretariat@nitki.org.pl",
                "website": "http:\/\/www.zsp2-nitki.pl",
                "ref:regon": "977996081",
                "operator": "Powiat Nowosolski",
                "operator:type": "government",
                "amenity": "school",
                "note": "Parent RSPO: 11198"
            }
        },
        {
            "id": 13372,
            "type": "Feature",
            "geometry": {
                "type": "Point",
                "coordinates": [
                    15.71887,
                    51.795880000000004
                ]
            },
            "properties": {
                "isced:level": "3",
                "ref:rspo": 13372,
                "official_name": "Zesp\u00f3\u0142 Szk\u00f3\u0142 Ponadgimnazjalnych nr 2 im. Marii D\u0105browskiej w Nowej Soli Bran\u017cowa Szko\u0142a I Stopnia",
                "name": "Zesp\u00f3\u0142 Szk\u00f3\u0142 Ponadgimnazjalnych nr 2",
                "addr:postcode": "67-100",
                "addr:city": "Nowa S\u00f3l",
                "addr:street": "Wroc\u0142awska",
                "addr:housenumber": "33a",
                "addr:city:simc": 988520,
                "addr:street:sym_ul": 24806,
                "phone": "+48 683874761",
                "email": "sekretariat@nitki.org.pl",
                "website": "http:\/\/www.zsp2-nitki.pl",
                "ref:regon": "977996075",
                "operator": "Powiat Nowosolski",
                "operator:type": "government",
                "amenity": "school",
                "note": "Parent RSPO: 11198"
            }
        },
        {
            "id": 15774,
            "type": "Feature",
            "geometry": {
                "type": "Point",
                "coordinates": [
                    15.71887,
                    51.79585
                ]
            },
            "properties": {
                "isced:level": "3",
                "ref:rspo": 15774,
                "official_name": "Publiczne Liceum Og\u00f3lnokszta\u0142c\u0105ce dla Doros\u0142ych w Zespole Szk\u00f3\u0142 Ponadgimnazjalnych nr 2",
                "name": "Publiczne Liceum Og\u00f3lnokszta\u0142c\u0105ce dla Doros\u0142ych w Zespole Szk\u00f3\u0142 Ponadgimnazjalnych nr 2",
                "addr:postcode": "67-100",
                "addr:city": "Nowa S\u00f3l",
                "addr:street": "Wroc\u0142awska",
                "addr:housenumber": "33a",
                "addr:city:simc": 988520,
                "addr:street:sym_ul": 24806,
                "phone": "+48 683874761",
                "email": "sekretariat@nitki.org.pl",
                "website": "http:\/\/www.zsp2-nitki.pl",
                "ref:regon": "080285173",
                "operator": "Powiat Nowosolski",
                "operator:type": "government",
                "amenity": "school",
                "note": "Parent RSPO: 11198"
            }
        },
        {
            "id": 16366,
            "type": "Feature",
            "geometry": {
                "type": "Point",
                "coordinates": [
                    15.71887,
                    51.79582
                ]
            },
            "properties": {
                "isced:level": "4",
                "ref:rspo": 16366,
                "official_name": "Szko\u0142a Policealna nr 2 w Zespole Szk\u00f3\u0142 Ponadgimnazjalnych nr 2 im. Marii D\u0105browskiej",
                "name": "Szko\u0142a Policealna nr 2 w Zespole Szk\u00f3\u0142 Ponadgimnazjalnych nr 2",
                "addr:postcode": "67-100",
                "addr:city": "Nowa S\u00f3l",
                "addr:street": "Wroc\u0142awska",
                "addr:housenumber": "33a",
                "addr:city:simc": 988520,
                "addr:street:sym_ul": 24806,
                "phone": "+48 683874761",
                "email": "sekretariat@nitki.org.pl",
                "website": "http:\/\/www.zsp2-nitki.pl",
                "ref:regon": "977923656",
                "operator": "Powiat Nowosolski",
                "operator:type": "government",
                "amenity": "college",
                "note": "Parent RSPO: 11198"
            }
        },
        {
            "id": 275894,
            "type": "Feature",
            "geometry": {
                "type": "Point",
                "coordinates": [
                    15.71887,
                    51.795790000000004
                ]
            },
            "properties": {
                "isced:level": "3",
                "ref:rspo": 275894,
                "official_name": "Bran\u017cowa Szko\u0142a II Stopnia nr 2 w Nowej Soli",
                "name": "Bran\u017cowa Szko\u0142a II Stopnia nr 2 w Nowej Soli",
                "addr:postcode": "67-100",
                "addr:city": "Nowa S\u00f3l",
                "addr:street": "Wroc\u0142awska",
                "addr:housenumber": "33a",
                "addr:city:simc": 988520,
                "addr:street:sym_ul": 24806,
                "phone": "+48 683874761",
                "email": "sekretariat@nitki.org.pl",
                "website": "http:\/\/www.zsp2-nitki.pl",
                "ref:regon": "386949423",
                "operator": "Powiat Nowosolski",
                "operator:type": "government",
                "amenity": "school",
                "note": "Parent RSPO: 11198"
            }
        },
        {
            "id": 11226,
            "type": "Feature",
            "geometry": {
                "type": "Point",
                "coordinates": [
                    15.6805,
                    51.79784
                ]
            },
            "properties": {
                "ref:rspo": 11226,
                "official_name": "Zesp\u00f3\u0142 Szk\u00f3\u0142 Ponadgimnazjalnych nr 4",
                "name": "Zesp\u00f3\u0142 Szk\u00f3\u0142 Ponadgimnazjalnych nr 4",
                "addr:postcode": "67-100",
                "addr:city": "Nowa S\u00f3l",
                "addr:street": "Wojska Polskiego",
                "addr:housenumber": "106",
                "addr:city:simc": 988520,
                "addr:street:sym_ul": 24628,
                "phone": "+48 683872931",
                "email": "zsp4@zsp4.net.pl",
                "website": "http:\/\/www.zsp4.net.pl",
                "ref:regon": "000186507",
                "operator": "Powiat Nowosolski",
                "operator:type": "government",
                "landuse": "education",
                "fixme": "amenity=school, amenity=college albo landuse=education w zale\u017cno\u015bci od tego, jakie plac\u00f3wki wchodz\u0105 w sk\u0142ad zespo\u0142u. Sprawd\u017a, kiedy stosowa\u0107 amenity=* a kiedy landuse=education.",
                "note": "Children RSPO: 16437;16438"
            }
        },
        {
            "id": 16437,
            "type": "Feature",
            "geometry": {
                "type": "Point",
                "coordinates": [
                    15.6805,
                    51.79781
                ]
            },
            "properties": {
                "isced:level": "3",
                "ref:rspo": 16437,
                "official_name": "Technikum w Zespole Szk\u00f3\u0142 Ponadgimnazjalnych nr 4",
                "name": "Technikum w Zespole Szk\u00f3\u0142 Ponadgimnazjalnych nr 4",
                "addr:postcode": "67-100",
                "addr:city": "Nowa S\u00f3l",
                "addr:street": "Wojska Polskiego",
                "addr:housenumber": "106",
                "addr:city:simc": 988520,
                "addr:street:sym_ul": 24628,
                "phone": "+48 683872931",
                "email": "zsp4nsol@o2.pl",
                "website": "http:\/\/www.zsp4.net.pl",
                "ref:regon": "977995845",
                "operator": "Powiat Nowosolski",
                "operator:type": "government",
                "amenity": "school",
                "note": "Parent RSPO: 11226"
            }
        },
        {
            "id": 16438,
            "type": "Feature",
            "geometry": {
                "type": "Point",
                "coordinates": [
                    15.6805,
                    51.79778
                ]
            },
            "properties": {
                "isced:level": "3",
                "ref:rspo": 16438,
                "official_name": "Zesp\u00f3\u0142 Szk\u00f3\u0142 Ponadgimnazjalnych nr 4 im. Jana Paw\u0142a II w Nowej Soli Bran\u017cowa Szko\u0142a I Stopnia",
                "name": "Zesp\u00f3\u0142 Szk\u00f3\u0142 Ponadgimnazjalnych nr 4",
                "addr:postcode": "67-100",
                "addr:city": "Nowa S\u00f3l",
                "addr:street": "Wojska Polskiego",
                "addr:housenumber": "106",
                "addr:city:simc": 988520,
                "addr:street:sym_ul": 24628,
                "phone": "+48 683872931",
                "email": "zsp4nsol@o2.pl",
                "website": "http:\/\/www.zsp4.net.pl",
                "ref:regon": "977995822",
                "operator": "Powiat Nowosolski",
                "operator:type": "government",
                "amenity": "school",
                "note": "Parent RSPO: 11226"
            }
        },
        {
            "id": 56500,
            "type": "Feature",
            "geometry": {
                "type": "Point",
                "coordinates": [
                    15.71621,
                    51.79797
                ]
            },
            "properties": {
                "ref:rspo": 56500,
                "official_name": "Prywatne Przedszkole \"Mali Odkrywcy\"",
                "name": "Prywatne Przedszkole \"Mali Odkrywcy\"",
                "addr:postcode": "67-100",
                "addr:city": "Nowa S\u00f3l",
                "addr:street": "Muzealna",
                "addr:housenumber": "40",
                "addr:city:simc": 988520,
                "addr:street:sym_ul": 13518,
                "phone": "+48 500169470",
                "ref:regon": "081083514",
                "ref:vatin": "PL9252097340",
                "operator": "Prywatne Przedszkole \"Mali Odkrywcy\" S.c. Alina Olejniczak, Beata Faron, Kamila Pawlak",
                "operator:type": "private",
                "amenity": "kindergarten"
            }
        },
        {
            "id": 49844,
            "type": "Feature",
            "geometry": {
                "type": "Point",
                "coordinates": [
                    15.71162,
                    51.79844
                ]
            },
            "properties": {
                "isced:level": "1;2",
                "ref:rspo": 49844,
                "official_name": "Szko\u0142a Podstawowa nr 2 im. Marii Konopnickiej z Oddzia\u0142ami Integracyjnymi w Nowej Soli",
                "name": "Szko\u0142a Podstawowa nr 2",
                "addr:postcode": "67-100",
                "addr:city": "Nowa S\u00f3l",
                "addr:street": "Gimnazjalna",
                "addr:housenumber": "11",
                "addr:city:simc": 988520,
                "addr:street:sym_ul": 5527,
                "phone": "+48 683560964",
                "email": "sp2nsol@wp.pl",
                "website": "http:\/\/psp2nowasol.edupage.org",
                "ref:regon": "970452722",
                "ref:vatin": "PL9251424392",
                "operator": "Gmina Nowa S\u00f3l -Miasto",
                "operator:type": "government",
                "amenity": "school"
            }
        },
        {
            "id": 120035,
            "type": "Feature",
            "geometry": {
                "type": "Point",
                "coordinates": [
                    15.70659,
                    51.79864
                ]
            },
            "properties": {
                "ref:rspo": 120035,
                "official_name": "Niepubliczne Przedszkole \"Przysz\u0142o\u015bci\"",
                "name": "Niepubliczne Przedszkole \"Przysz\u0142o\u015bci\"",
                "addr:postcode": "67-100",
                "addr:city": "Nowa S\u00f3l",
                "addr:street": "Boles\u0142awy Sidorskiej",
                "addr:housenumber": "9",
                "addr:city:simc": 988520,
                "addr:street:sym_ul": 39455,
                "phone": "+48 683888431",
                "email": "nowa_sol@wzgorzadalkowskie.pl",
                "website": "http:\/\/edukacja.wzgorzadalkowskie.pl",
                "ref:regon": "081162969",
                "operator": "Fundacja \"Porozumienie Wzg\u00f3rz Dalkowskich\"",
                "operator:type": "ngo",
                "amenity": "kindergarten"
            }
        },
        {
            "id": 23542,
            "type": "Feature",
            "geometry": {
                "type": "Point",
                "coordinates": [
                    15.69704,
                    51.79883
                ]
            },
            "properties": {
                "isced:level": "3",
                "ref:rspo": 23542,
                "official_name": "Prywatne Liceum Og\u00f3lnokszta\u0142c\u0105ce dla Doros\u0142ych \"Twoja Szko\u0142a\"",
                "name": "Prywatne Liceum Og\u00f3lnokszta\u0142c\u0105ce dla Doros\u0142ych \"Twoja Szko\u0142a\"",
                "addr:postcode": "67-100",
                "addr:city": "Nowa S\u00f3l",
                "addr:street": "Kasprowicza",
                "addr:housenumber": "8",
                "addr:city:simc": 988520,
                "addr:street:sym_ul": 8147,
                "phone": "+48 683524737",
                "email": "nowasol@twoja-szkola.pl",
                "website": "http:\/\/www.twoja-szkola.pl",
                "ref:regon": "081078401",
                "operator": "\"Casus\" Sp\u00f3\u0142ka Z Ograniczon\u0105 Odpowiedzialno\u015bci\u0105",
                "operator:type": "private",
                "amenity": "school"
            }
        },
        {
            "id": 132319,
            "type": "Feature",
            "geometry": {
                "type": "Point",
                "coordinates": [
                    15.69704,
                    51.7988
                ]
            },
            "properties": {
                "isced:level": "4",
                "ref:rspo": 132319,
                "official_name": "Prywatna Szko\u0142a Policealna dla Doros\u0142ych \"Twoja-Szko\u0142a\"",
                "name": "Prywatna Szko\u0142a Policealna dla Doros\u0142ych \"Twoja-Szko\u0142a\"",
                "addr:postcode": "67-100",
                "addr:city": "Nowa S\u00f3l",
                "addr:street": "Kasprowicza",
                "addr:housenumber": "8",
                "addr:city:simc": 988520,
                "addr:street:sym_ul": 8147,
                "phone": "+48 683524737",
                "email": "nowasol@twoja-szkola.pl",
                "website": "http:\/\/www.twoja-szkola.pl",
                "ref:regon": "365547253",
                "operator": "\"Casus\" Sp\u00f3\u0142ka Z Ograniczon\u0105 Odpowiedzialno\u015bci\u0105",
                "operator:type": "private",
                "amenity": "college"
            }
        },
        {
            "id": 11146,
            "type": "Feature",
            "geometry": {
                "type": "Point",
                "coordinates": [
                    15.71306,
                    51.79913
                ]
            },
            "properties": {
                "isced:level": "3",
                "ref:rspo": 11146,
                "official_name": "Liceum Og\u00f3lnokszta\u0142c\u0105ce",
                "name": "Liceum Og\u00f3lnokszta\u0142c\u0105ce",
                "addr:postcode": "67-100",
                "addr:city": "Nowa S\u00f3l",
                "addr:street": "Gimnazjalna",
                "addr:housenumber": "9",
                "addr:city:simc": 988520,
                "addr:street:sym_ul": 5527,
                "phone": "+48 684583895",
                "email": "lonsol@poczta.onet.pl",
                "website": "http:\/\/www.lonowasol.zgora.pl",
                "ref:regon": "000233862",
                "operator": "Powiat Nowosolski",
                "operator:type": "government",
                "amenity": "school"
            }
        },
        {
            "id": 27026,
            "type": "Feature",
            "geometry": {
                "type": "Point",
                "coordinates": [
                    15.71055,
                    51.80013
                ]
            },
            "properties": {
                "ref:rspo": 27026,
                "official_name": "Pa\u0144stwowa Szko\u0142a Muzyczna I St. im. Gra\u017cyny Bacewicz w Nowej Soli",
                "name": "Pa\u0144stwowa Szko\u0142a Muzyczna I St.",
                "addr:postcode": "67-100",
                "addr:city": "Nowa S\u00f3l",
                "addr:street": "Zjednoczenia",
                "addr:housenumber": "42",
                "addr:city:simc": 988520,
                "addr:street:sym_ul": 26174,
                "phone": "+48 683873605",
                "email": "sekretariat@psm.wer.pl",
                "website": "http:\/\/psm.wer.pl",
                "ref:regon": "000287071",
                "operator": "Ministerstwo Kultury I Dziedzictwa Narodowego",
                "operator:type": "government",
                "amenity": "music_school"
            }
        },
        {
            "id": 269444,
            "type": "Feature",
            "geometry": {
                "type": "Point",
                "coordinates": [
                    15.72503,
                    51.80028
                ]
            },
            "properties": {
                "ref:rspo": 269444,
                "official_name": "Niepubliczne Przedszkole \"Nibylandia\" w Nowej Soli",
                "name": "Niepubliczne Przedszkole \"Nibylandia\" w Nowej Soli",
                "addr:postcode": "67-100",
                "addr:city": "Nowa S\u00f3l",
                "addr:street": "Aleja Wolno\u015bci",
                "addr:housenumber": "8",
                "addr:city:simc": 988520,
                "addr:street:sym_ul": 24682,
                "email": "biuro@nibylandia24.eu",
                "website": "http:\/\/www.nibylandia24.eu",
                "ref:regon": "381486711",
                "operator": "Nibylandia S.c. Marek Ma\u0142kiewicz, Wies\u0142aw Golec",
                "operator:type": "private",
                "amenity": "kindergarten"
            }
        },
        {
            "id": 55506,
            "type": "Feature",
            "geometry": {
                "type": "Point",
                "coordinates": [
                    15.68982,
                    51.80153
                ]
            },
            "properties": {
                "ref:rspo": 55506,
                "official_name": "Przedszkole nr 12",
                "name": "Przedszkole nr 12",
                "addr:postcode": "67-100",
                "addr:city": "Nowa S\u00f3l",
                "addr:street": "Osiedle Konstytucji 3 Maja",
                "addr:city:simc": 988520,
                "addr:street:sym_ul": 9209,
                "phone": "+48 684707037",
                "email": "maria401@poczta.onet.pl",
                "ref:regon": "978110139",
                "ref:vatin": "PL9251470883",
                "operator": "Gmina Nowa S\u00f3l -Miasto",
                "operator:type": "government",
                "amenity": "kindergarten"
            }
        },
        {
            "id": 7658,
            "type": "Feature",
            "geometry": {
                "type": "Point",
                "coordinates": [
                    15.69983,
                    51.8016099
                ]
            },
            "properties": {
                "isced:level": "1;2",
                "ref:rspo": 7658,
                "official_name": "Katolicka Szko\u0142a Podstawowa im. \u015aw. Urszuli Led\u00f3chowskiej",
                "name": "Katolicka Szko\u0142a Podstawowa",
                "addr:postcode": "67-100",
                "addr:city": "Nowa S\u00f3l",
                "addr:street": "Kardyna\u0142a Stefana Wyszy\u0144skiego",
                "addr:housenumber": "2",
                "addr:city:simc": 988520,
                "addr:street:sym_ul": 25107,
                "phone": "+48 684114944",
                "email": "szkolakatolickanowasol@gmail.com",
                "website": "http:\/\/www.szkolakatolickanowasol.pl",
                "ref:regon": "081068839",
                "ref:vatin": "PL9252100852",
                "operator": "Centrum Edukacyjne Diecezji Zielonog\u00f3rsko-Gorzowskiej",
                "operator:type": "religious",
                "amenity": "school"
            }
        },
        {
            "id": 11282,
            "type": "Feature",
            "geometry": {
                "type": "Point",
                "coordinates": [
                    15.7223,
                    51.80436
                ]
            },
            "properties": {
                "ref:rspo": 11282,
                "official_name": "Specjalny O\u015brodek Szkolno-Wychowawczy im. Janusza Korczaka",
                "name": "Specjalny O\u015brodek Szkolno-Wychowawczy",
                "addr:postcode": "67-100",
                "addr:city": "Nowa S\u00f3l",
                "addr:street": "Arciszewskiego",
                "addr:housenumber": "13",
                "addr:city:simc": 988520,
                "addr:street:sym_ul": 391,
                "phone": "+48 683882440",
                "email": "poczta@soswnowasol.pl",
                "website": "http:\/\/www.soswnowasol.pl",
                "ref:regon": "000700810",
                "operator": "Powiat Nowosolski",
                "operator:type": "government",
                "amenity": "school",
                "note": "Children RSPO: 20641;20643;20644"
            }
        },
        {
            "id": 20644,
            "type": "Feature",
            "geometry": {
                "type": "Point",
                "coordinates": [
                    15.7223,
                    51.80433
                ]
            },
            "properties": {
                "ref:rspo": 20644,
                "official_name": "Publiczna Szko\u0142a Specjalna Przysposabiaj\u0105ca do Pracy w Specjalnym O\u015brodku Szkolno-Wychowawczym",
                "name": "Publiczna Szko\u0142a Specjalna Przysposabiaj\u0105ca do Pracy w Specjalnym O\u015brodku Szkolno-Wychowawczym",
                "addr:postcode": "67-100",
                "addr:city": "Nowa S\u00f3l",
                "addr:street": "Arciszewskiego",
                "addr:housenumber": "13",
                "addr:city:simc": 988520,
                "addr:street:sym_ul": 391,
                "phone": "+48 683882440",
                "email": "poczta@soswnowasol.pl",
                "website": "http:\/\/www.soswnowasol.pl",
                "ref:regon": "080038440",
                "operator": "Powiat Nowosolski",
                "operator:type": "government",
                "amenity": "school",
                "note": "Parent RSPO: 11282"
            }
        },
        {
            "id": 20643,
            "type": "Feature",
            "geometry": {
                "type": "Point",
                "coordinates": [
                    15.72043,
                    51.80466
                ]
            },
            "properties": {
                "isced:level": "3",
                "ref:rspo": 20643,
                "official_name": "Bran\u017cowa Szko\u0142a I Stopnia Specjalna",
                "name": "Bran\u017cowa Szko\u0142a I Stopnia Specjalna",
                "addr:postcode": "67-100",
                "addr:city": "Nowa S\u00f3l",
                "addr:street": "Wincentego Witosa",
                "addr:housenumber": "19",
                "addr:city:simc": 988520,
                "addr:street:sym_ul": 34244,
                "phone": "+48 683882440",
                "email": "poczta@soswnowasol.pl",
                "website": "http:\/\/www.soswnowasol.pl",
                "ref:regon": "978050667",
                "operator": "Powiat Nowosolski",
                "operator:type": "government",
                "amenity": "school",
                "note": "Parent RSPO: 11282"
            }
        },
        {
            "id": 49842,
            "type": "Feature",
            "geometry": {
                "type": "Point",
                "coordinates": [
                    15.71907,
                    51.80519
                ]
            },
            "properties": {
                "isced:level": "1;2",
                "ref:rspo": 49842,
                "official_name": "Szko\u0142a Podstawowa nr 1 im. Tadeusza Ko\u015bciuszki",
                "name": "Szko\u0142a Podstawowa nr 1",
                "addr:postcode": "67-100",
                "addr:city": "Nowa S\u00f3l",
                "addr:street": "Szkolna",
                "addr:housenumber": "1",
                "addr:city:simc": 988520,
                "addr:street:sym_ul": 21970,
                "phone": "+48 683875404",
                "email": "sp1_nsol@wp.pl",
                "website": "http:\/\/sp1nowasol.edupage.org",
                "ref:regon": "970452716",
                "ref:vatin": "PL9251427812",
                "operator": "Gmina Nowa S\u00f3l -Miasto",
                "operator:type": "government",
                "amenity": "school"
            }
        },
        {
            "id": 53996,
            "type": "Feature",
            "geometry": {
                "type": "Point",
                "coordinates": [
                    15.7231851,
                    51.80531
                ]
            },
            "properties": {
                "ref:rspo": 53996,
                "official_name": "Przedszkole nr 1",
                "name": "Przedszkole nr 1",
                "addr:postcode": "67-100",
                "addr:city": "Nowa S\u00f3l",
                "addr:street": "Bohater\u00f3w Getta",
                "addr:housenumber": "1",
                "addr:city:simc": 988520,
                "addr:street:sym_ul": 1637,
                "phone": "+48 683872655",
                "email": "pp1nowasol@wp.pl",
                "website": "https:\/\/www.facebook.com\/publiczne-przedszkole-nr-1-w-nowej-soli-",
                "ref:regon": "978110040",
                "ref:vatin": "PL9251470883",
                "operator": "Gmina Nowa S\u00f3l -Miasto",
                "operator:type": "government",
                "amenity": "kindergarten"
            }
        },
        {
            "id": 55170,
            "type": "Feature",
            "geometry": {
                "type": "Point",
                "coordinates": [
                    15.69941,
                    51.80575
                ]
            },
            "properties": {
                "ref:rspo": 55170,
                "official_name": "Przedszkole nr 11",
                "name": "Przedszkole nr 11",
                "addr:postcode": "67-100",
                "addr:city": "Nowa S\u00f3l",
                "addr:street": "Jana Matejki",
                "addr:housenumber": "28",
                "addr:city:simc": 988520,
                "addr:street:sym_ul": 12485,
                "phone": "+48 684707036",
                "email": "przedszkole11@wp.pl",
                "website": "http:\/\/www.przedszkole11.com.pl",
                "ref:regon": "978110122",
                "ref:vatin": "PL9251470883",
                "operator": "Gmina Nowa S\u00f3l -Miasto",
                "operator:type": "government",
                "amenity": "kindergarten"
            }
        },
        {
            "id": 74832,
            "type": "Feature",
            "geometry": {
                "type": "Point",
                "coordinates": [
                    15.6979,
                    51.80641
                ]
            },
            "properties": {
                "isced:level": "1;2",
                "ref:rspo": 74832,
                "official_name": "Szko\u0142a Podstawowa nr 8 im. Janusza Korczaka",
                "name": "Szko\u0142a Podstawowa nr 8",
                "addr:postcode": "67-100",
                "addr:city": "Nowa S\u00f3l",
                "addr:street": "Jana Matejki",
                "addr:housenumber": "29",
                "addr:city:simc": 988520,
                "addr:street:sym_ul": 12485,
                "phone": "+48 683874209",
                "email": "osemka_nsol@poczta.onet.pl",
                "website": "http:\/\/www.sp8nowasol.edupage.org",
                "ref:regon": "970570640",
                "ref:vatin": "PL9251531604",
                "operator": "Gmina Nowa S\u00f3l -Miasto",
                "operator:type": "government",
                "amenity": "school"
            }
        },
        {
            "id": 20641,
            "type": "Feature",
            "geometry": {
                "type": "Point",
                "coordinates": [
                    15.72409,
                    51.80644
                ]
            },
            "properties": {
                "isced:level": "1;2",
                "ref:rspo": 20641,
                "official_name": "Szko\u0142a Podstawowa Specjalna w Specjalnym O\u015brodku Szkolno-Wychowawczym",
                "name": "Szko\u0142a Podstawowa Specjalna w Specjalnym O\u015brodku Szkolno-Wychowawczym",
                "addr:postcode": "67-100",
                "addr:city": "Nowa S\u00f3l",
                "addr:street": "Bohater\u00f3w Getta",
                "addr:housenumber": "7",
                "addr:city:simc": 988520,
                "addr:street:sym_ul": 1637,
                "phone": "+48 683882440",
                "email": "poczta@soswnowasol.pl",
                "website": "http:\/\/www.soswnowasol.pl",
                "ref:regon": "978050680",
                "operator": "Powiat Nowosolski",
                "operator:type": "government",
                "amenity": "school",
                "note": "Parent RSPO: 11282"
            }
        },
        {
            "id": 54287,
            "type": "Feature",
            "geometry": {
                "type": "Point",
                "coordinates": [
                    15.70945,
                    51.8074
                ]
            },
            "properties": {
                "ref:rspo": 54287,
                "official_name": "Przedszkole nr 6",
                "name": "Przedszkole nr 6",
                "addr:postcode": "67-100",
                "addr:city": "Nowa S\u00f3l",
                "addr:street": "Kasprzaka",
                "addr:housenumber": "3",
                "addr:city:simc": 988520,
                "addr:street:sym_ul": 8156,
                "phone": "+48 684707038",
                "email": "przedszkole-art6@o2.pl",
                "ref:regon": "978110085",
                "ref:vatin": "PL9251470883",
                "operator": "Gmina Nowa S\u00f3l -Miasto",
                "operator:type": "government",
                "amenity": "kindergarten"
            }
        },
        {
            "id": 74684,
            "type": "Feature",
            "geometry": {
                "type": "Point",
                "coordinates": [
                    15.71678,
                    51.80802
                ]
            },
            "properties": {
                "ref:rspo": 74684,
                "official_name": "Przedszkole nr 8",
                "name": "Przedszkole nr 8",
                "addr:postcode": "67-100",
                "addr:city": "Nowa S\u00f3l",
                "addr:street": "Stefana \u017beromskiego",
                "addr:housenumber": "7",
                "addr:city:simc": 988520,
                "addr:street:sym_ul": 26464,
                "phone": "+48 684707040",
                "email": "przedszkole8ns@tlen.pl",
                "ref:regon": "978110100",
                "ref:vatin": "PL9251470883",
                "operator": "Gmina Nowa S\u00f3l -Miasto",
                "operator:type": "government",
                "amenity": "kindergarten"
            }
        },
        {
            "id": 54352,
            "type": "Feature",
            "geometry": {
                "type": "Point",
                "coordinates": [
                    15.71508,
                    51.80868
                ]
            },
            "properties": {
                "ref:rspo": 54352,
                "official_name": "Przedszkole nr 7 z Oddzia\u0142ami Integracyjnymi",
                "name": "Przedszkole nr 7 z Oddzia\u0142ami Integracyjnymi",
                "addr:postcode": "67-100",
                "addr:city": "Nowa S\u00f3l",
                "addr:street": "Drzewna",
                "addr:housenumber": "5",
                "addr:city:simc": 988520,
                "addr:street:sym_ul": 4308,
                "phone": "+48 684707039",
                "email": "publiczneprzedszkolenr7@wp.pl",
                "ref:regon": "000260468",
                "ref:vatin": "PL9251470883",
                "operator": "Gmina Nowa S\u00f3l -Miasto",
                "operator:type": "government",
                "amenity": "kindergarten"
            }
        },
        {
            "id": 49845,
            "type": "Feature",
            "geometry": {
                "type": "Point",
                "coordinates": [
                    15.70738,
                    51.80874
                ]
            },
            "properties": {
                "isced:level": "1;2",
                "ref:rspo": 49845,
                "official_name": "Szko\u0142a Podstawowa nr 6",
                "name": "Szko\u0142a Podstawowa nr 6",
                "addr:postcode": "67-100",
                "addr:city": "Nowa S\u00f3l",
                "addr:street": "Tadeusza Ko\u015bciuszki",
                "addr:housenumber": "26",
                "addr:city:simc": 988520,
                "addr:street:sym_ul": 9572,
                "phone": "+48 684588451",
                "email": "psp6@poczta.onet.pl",
                "website": "http:\/\/www.sp6nowasol.edupage.org",
                "ref:regon": "970452691",
                "ref:vatin": "PL9251426480",
                "operator": "Gmina Nowa S\u00f3l -Miasto",
                "operator:type": "government",
                "amenity": "school"
            }
        },
        {
            "id": 268863,
            "type": "Feature",
            "geometry": {
                "type": "Point",
                "coordinates": [
                    15.71004,
                    51.80936
                ]
            },
            "properties": {
                "ref:rspo": 268863,
                "official_name": "Niepubliczne Przedszkole \"S\u0142oneczko\"",
                "name": "Niepubliczne Przedszkole \"S\u0142oneczko\"",
                "addr:postcode": "67-100",
                "addr:city": "Nowa S\u00f3l",
                "addr:street": "Osiedle Paderewskiego",
                "addr:housenumber": "2",
                "addr:door": "u",
                "addr:city:simc": 988520,
                "addr:street:sym_ul": 15522,
                "email": "wiola0904@interia.pl",
                "ref:regon": "381270827",
                "operator": "Wioleta Kotowska",
                "operator:type": "private",
                "amenity": "kindergarten"
            }
        },
        {
            "id": 3766,
            "type": "Feature",
            "geometry": {
                "type": "Point",
                "coordinates": [
                    15.70667,
                    51.80989
                ]
            },
            "properties": {
                "ref:rspo": 3766,
                "official_name": "Centrum Kszta\u0142cenia Zawodowego I Ustawicznego \"Elektryk\"",
                "name": "Centrum Kszta\u0142cenia Zawodowego I Ustawicznego \"Elektryk\"",
                "addr:postcode": "67-100",
                "addr:city": "Nowa S\u00f3l",
                "addr:street": "Tadeusza Ko\u015bciuszki",
                "addr:housenumber": "28",
                "addr:city:simc": 988520,
                "addr:street:sym_ul": 9572,
                "phone": "+48 684755555",
                "email": "sekretariat@ckziu-elektryk.pl",
                "website": "http:\/\/www.ckziu-elektryk.pl",
                "ref:regon": "081064764",
                "operator": "Powiat Nowosolski",
                "operator:type": "government",
                "landuse": "education",
                "fixme": "amenity=school, amenity=college albo landuse=education w zale\u017cno\u015bci od tego, jakie plac\u00f3wki wchodz\u0105 w sk\u0142ad zespo\u0142u. Sprawd\u017a, kiedy stosowa\u0107 amenity=* a kiedy landuse=education.",
                "note": "Children RSPO: 10176;10187;10196;16369;274139;275869;275890"
            }
        },
        {
            "id": 10176,
            "type": "Feature",
            "geometry": {
                "type": "Point",
                "coordinates": [
                    15.70667,
                    51.80986
                ]
            },
            "properties": {
                "isced:level": "3",
                "ref:rspo": 10176,
                "official_name": "Liceum Og\u00f3lnokszta\u0142c\u0105ce im. W\u0142odzimierza Krukowskiego",
                "name": "Liceum Og\u00f3lnokszta\u0142c\u0105ce",
                "addr:postcode": "67-100",
                "addr:city": "Nowa S\u00f3l",
                "addr:street": "Tadeusza Ko\u015bciuszki",
                "addr:housenumber": "28",
                "addr:city:simc": 988520,
                "addr:street:sym_ul": 9572,
                "phone": "+48 684755555",
                "email": "sekretariat@ckziu-elektryk.pl",
                "website": "http:\/\/www.ckziu-elektryk.pl",
                "ref:regon": "977991706",
                "operator": "Powiat Nowosolski",
                "operator:type": "government",
                "amenity": "school",
                "note": "Parent RSPO: 3766"
            }
        },
        {
            "id": 10187,
            "type": "Feature",
            "geometry": {
                "type": "Point",
                "coordinates": [
                    15.70667,
                    51.809830000000005
                ]
            },
            "properties": {
                "isced:level": "3",
                "ref:rspo": 10187,
                "official_name": "Technikum im. W\u0142odzimierza Krukowskiego",
                "name": "Technikum",
                "addr:postcode": "67-100",
                "addr:city": "Nowa S\u00f3l",
                "addr:street": "Tadeusza Ko\u015bciuszki",
                "addr:housenumber": "28",
                "addr:city:simc": 988520,
                "addr:street:sym_ul": 9572,
                "phone": "+48 684755555",
                "email": "sekretariat@ckziu-elektryk.pl",
                "website": "http:\/\/www.ckziu-elektryk.pl",
                "ref:regon": "978052554",
                "operator": "Powiat Nowosolski",
                "operator:type": "government",
                "amenity": "school",
                "note": "Parent RSPO: 3766"
            }
        },
        {
            "id": 10196,
            "type": "Feature",
            "geometry": {
                "type": "Point",
                "coordinates": [
                    15.70667,
                    51.8098
                ]
            },
            "properties": {
                "isced:level": "4",
                "ref:rspo": 10196,
                "official_name": "Publiczna Szko\u0142a Policealna nr 1 w Centrum Kszta\u0142cenia Zawodowego I Ustawicznego \"Elektryk\"",
                "name": "Publiczna Szko\u0142a Policealna nr 1 w Centrum Kszta\u0142cenia Zawodowego I Ustawicznego \"Elektryk\"",
                "addr:postcode": "67-100",
                "addr:city": "Nowa S\u00f3l",
                "addr:street": "Tadeusza Ko\u015bciuszki",
                "addr:housenumber": "28",
                "addr:city:simc": 988520,
                "addr:street:sym_ul": 9572,
                "phone": "+48 684755555",
                "email": "sekretariat@ckziu-elektryk.pl",
                "website": "http:\/\/www.ckziu-elektryk.pl",
                "ref:regon": "977925477",
                "operator": "Powiat Nowosolski",
                "operator:type": "government",
                "amenity": "college",
                "note": "Parent RSPO: 3766"
            }
        },
        {
            "id": 16369,
            "type": "Feature",
            "geometry": {
                "type": "Point",
                "coordinates": [
                    15.70667,
                    51.80977
                ]
            },
            "properties": {
                "isced:level": "3",
                "ref:rspo": 16369,
                "official_name": "Bran\u017cowa Szko\u0142a I Stopnia w Centrum Kszta\u0142cenia Zawodowego I Ustawicznego \"Elektryk\"",
                "name": "Bran\u017cowa Szko\u0142a I Stopnia w Centrum Kszta\u0142cenia Zawodowego I Ustawicznego \"Elektryk\"",
                "addr:postcode": "67-100",
                "addr:city": "Nowa S\u00f3l",
                "addr:street": "Tadeusza Ko\u015bciuszki",
                "addr:housenumber": "28",
                "addr:city:simc": 988520,
                "addr:street:sym_ul": 9572,
                "phone": "+48 684755555",
                "email": "sekretariat@ckziu-elektryk.pl",
                "website": "http:\/\/www.ckziu-elektryk.pl",
                "ref:regon": "977932448",
                "operator": "Powiat Nowosolski",
                "operator:type": "government",
                "amenity": "school",
                "note": "Parent RSPO: 3766"
            }
        },
        {
            "id": 274139,
            "type": "Feature",
            "geometry": {
                "type": "Point",
                "coordinates": [
                    15.70667,
                    51.809740000000005
                ]
            },
            "properties": {
                "isced:level": "3",
                "ref:rspo": 274139,
                "official_name": "Liceum Og\u00f3lnokszta\u0142c\u0105ce dla Doros\u0142ych w Centrum Kszta\u0142cenia Zawodowego I Ustawicznego \"Elektryk\"",
                "name": "Liceum Og\u00f3lnokszta\u0142c\u0105ce dla Doros\u0142ych w Centrum Kszta\u0142cenia Zawodowego I Ustawicznego \"Elektryk\"",
                "addr:postcode": "67-100",
                "addr:city": "Nowa S\u00f3l",
                "addr:street": "Tadeusza Ko\u015bciuszki",
                "addr:housenumber": "28",
                "addr:city:simc": 988520,
                "addr:street:sym_ul": 9572,
                "phone": "+48 684755555",
                "email": "sekretariat@ckziu-elektryk.pl",
                "website": "http:\/\/www.ckziu-elektryk.pl",
                "ref:regon": "385299383",
                "operator": "Powiat Nowosolski",
                "operator:type": "government",
                "amenity": "school",
                "note": "Parent RSPO: 3766"
            }
        },
        {
            "id": 275869,
            "type": "Feature",
            "geometry": {
                "type": "Point",
                "coordinates": [
                    15.70667,
                    51.80971
                ]
            },
            "properties": {
                "ref:rspo": 275869,
                "official_name": "Centrum Kszta\u0142cenia Zawodowego w Centrum Kszta\u0142cenia Zawodowego I Ustawicznego \"Elktryk\"",
                "name": "Centrum Kszta\u0142cenia Zawodowego w Centrum Kszta\u0142cenia Zawodowego I Ustawicznego \"Elktryk\"",
                "addr:postcode": "67-100",
                "addr:city": "Nowa S\u00f3l",
                "addr:street": "Tadeusza Ko\u015bciuszki",
                "addr:housenumber": "28",
                "addr:city:simc": 988520,
                "addr:street:sym_ul": 9572,
                "phone": "+48 684755555",
                "email": "sekretariat@ckziu-elektryk.pl",
                "website": "http:\/\/www.ckziu-elektryk.pl",
                "ref:regon": "386945106",
                "operator": "Powiat Nowosolski",
                "operator:type": "government",
                "fixme": "w zale\u017cno\u015bci od przedmiotu dzia\u0142alno\u015bci (np. amenity=training + training=*, amenity=dancing_school, amenity=language_school, amenity=music_school) albo amenity=school, amenity=college, albo landuse=education w zale\u017cno\u015bci od tego, jakie plac\u00f3wki wchodz\u0105 w sk\u0142ad zespo\u0142u. Sprawd\u017a, kiedy stosowa\u0107 amenity=* a kiedy landuse=education.",
                "note": "Parent RSPO: 3766"
            }
        },
        {
            "id": 275890,
            "type": "Feature",
            "geometry": {
                "type": "Point",
                "coordinates": [
                    15.70667,
                    51.80968
                ]
            },
            "properties": {
                "isced:level": "3",
                "ref:rspo": 275890,
                "official_name": "Bran\u017cowa Szko\u0142a II Stopnia nr 1 w Nowej Soli",
                "name": "Bran\u017cowa Szko\u0142a II Stopnia nr 1 w Nowej Soli",
                "addr:postcode": "67-100",
                "addr:city": "Nowa S\u00f3l",
                "addr:street": "Tadeusza Ko\u015bciuszki",
                "addr:housenumber": "28",
                "addr:city:simc": 988520,
                "addr:street:sym_ul": 9572,
                "phone": "+48 684755555",
                "email": "sekretariat@ckziu-elektryk.pl",
                "website": "http:\/\/www.ckziu-elektryk.pl",
                "ref:regon": "386948837",
                "operator": "Powiat Nowosolski",
                "operator:type": "government",
                "amenity": "school",
                "note": "Parent RSPO: 3766"
            }
        },
        {
            "id": 11265,
            "type": "Feature",
            "geometry": {
                "type": "Point",
                "coordinates": [
                    15.70947,
                    51.81152
                ]
            },
            "properties": {
                "ref:rspo": 11265,
                "official_name": "Poradnia Psychologiczno-Pedagogiczna",
                "name": "Poradnia Psychologiczno-Pedagogiczna",
                "addr:postcode": "67-100",
                "addr:city": "Nowa S\u00f3l",
                "addr:street": "Marsza\u0142ka J\u00f3zefa Pi\u0142sudskiego",
                "addr:housenumber": "65",
                "addr:city:simc": 988520,
                "addr:street:sym_ul": 16274,
                "phone": "+48 683874700",
                "email": "sekretariat@pppns.pl",
                "website": "http:\/\/www.pppns.pl",
                "ref:regon": "000705901",
                "operator": "Powiat Nowosolski",
                "operator:type": "government",
                "healthcare": "counselling",
                "counselling_type": "education",
                "fixme": "w zale\u017cno\u015bci od przedmiotu dzia\u0142alno\u015bci (np. healthcare=counselling + counselling_type=education albo healthcare=psychotherapist)"
            }
        },
        {
            "id": 54130,
            "type": "Feature",
            "geometry": {
                "type": "Point",
                "coordinates": [
                    15.70618,
                    51.81376
                ]
            },
            "properties": {
                "ref:rspo": 54130,
                "official_name": "Przedszkole nr 2",
                "name": "Przedszkole nr 2",
                "addr:postcode": "67-100",
                "addr:city": "Nowa S\u00f3l",
                "addr:street": "Okr\u0119\u017cna",
                "addr:housenumber": "2",
                "addr:city:simc": 988520,
                "addr:street:sym_ul": 14907,
                "phone": "+48 683873648",
                "email": "przedszkole2ns@neostrada.pl",
                "ref:regon": "978110062",
                "ref:vatin": "PL9251470883",
                "operator": "Gmina Nowa S\u00f3l -Miasto",
                "operator:type": "government",
                "amenity": "kindergarten"
            }
        },
        {
            "id": 47311,
            "type": "Feature",
            "geometry": {
                "type": "Point",
                "coordinates": [
                    15.71182,
                    51.82102
                ]
            },
            "properties": {
                "isced:level": "1;2",
                "ref:rspo": 47311,
                "official_name": "Szko\u0142a Podstawowa nr 3 im. Juliana Tuwima",
                "name": "Szko\u0142a Podstawowa nr 3",
                "addr:postcode": "67-100",
                "addr:city": "Nowa S\u00f3l",
                "addr:street": "Botaniczna",
                "addr:housenumber": "22",
                "addr:city:simc": 988520,
                "addr:street:sym_ul": 1920,
                "phone": "+48 683875447",
                "email": "sp3nsol@wp.pl",
                "website": "http:\/\/www.sp3nsol.edupage.org",
                "ref:regon": "970452700",
                "ref:vatin": "PL9251426451",
                "operator": "Gmina Nowa S\u00f3l -Miasto",
                "operator:type": "government",
                "amenity": "school"
            }
        }
    ]
}