{
    "type": "FeatureCollection",
    "features": [
        {
            "id": 48295,
            "type": "Feature",
            "geometry": {
                "type": "Point",
                "coordinates": [
                    15.66037,
                    51.79658
                ]
            },
            "properties": {
                "isced:level": "1;2",
                "ref:rspo": 48295,
                "official_name": "Szko\u0142a Podstawowa im. Or\u0142a Bia\u0142ego w Lubieszowie",
                "name": "Szko\u0142a Podstawowa",
                "addr:country": "PL",
                "addr:postcode": "67-100",
                "addr:place": "Lubiesz\u00f3w",
                "addr:housenumber": "53",
                "addr:teryt:simc": 912209,
                "contact:phone": "+48 683887917",
                "contact:email": "splubieszow@onet.pl",
                "contact:website": "https:\/\/splubieszow.edupage.org\/",
                "ref:regon": "970459061",
                "ref:vatin": "PL9252108871",
                "operator": "Gmina Nowa S\u00f3l",
                "operator:type": "government",
                "amenity": "school"
            }
        },
        {
            "id": 274651,
            "type": "Feature",
            "geometry": {
                "type": "Point",
                "coordinates": [
                    15.66037,
                    51.796549999999996
                ]
            },
            "properties": {
                "ref:rspo": 274651,
                "official_name": "Punkt Przedszkolny w Publicznej Szkole Podstawowej w Lubieszowie",
                "name": "Punkt Przedszkolny w Publicznej Szkole Podstawowej w Lubieszowie",
                "addr:country": "PL",
                "addr:postcode": "67-100",
                "addr:place": "Lubiesz\u00f3w",
                "addr:housenumber": "53",
                "addr:teryt:simc": 912209,
                "contact:phone": "+48 683887917",
                "contact:email": "splubieszow@onet.pl",
                "ref:regon": "386137412",
                "operator": "Gmina Nowa S\u00f3l",
                "operator:type": "government",
                "amenity": "kindergarten"
            }
        },
        {
            "id": 131343,
            "type": "Feature",
            "geometry": {
                "type": "Point",
                "coordinates": [
                    15.76992,
                    51.7994
                ]
            },
            "properties": {
                "ref:rspo": 131343,
                "official_name": "Rzedszkole w Przyborowie",
                "name": "Rzedszkole w Przyborowie",
                "addr:country": "PL",
                "addr:postcode": "67-100",
                "addr:city": "Przybor\u00f3w",
                "addr:street": "Szkolna",
                "addr:housenumber": "18",
                "addr:teryt:simc": 912273,
                "addr:teryt:sym_ul": 21970,
                "contact:phone": "+48 683881692",
                "ref:regon": "365125546",
                "operator": "Gmina Nowa S\u00f3l",
                "operator:type": "government",
                "amenity": "kindergarten",
                "note": "Parent RSPO: 131336"
            }
        },
        {
            "id": 131336,
            "type": "Feature",
            "geometry": {
                "type": "Point",
                "coordinates": [
                    15.76971,
                    51.79944
                ]
            },
            "properties": {
                "ref:rspo": 131336,
                "official_name": "Zesp\u00f3\u0142 Edukacyjny w Przyborowie",
                "name": "Zesp\u00f3\u0142 Edukacyjny w Przyborowie",
                "addr:country": "PL",
                "addr:postcode": "67-100",
                "addr:city": "Przybor\u00f3w",
                "addr:street": "Szkolna",
                "addr:housenumber": "16",
                "addr:teryt:simc": 912273,
                "addr:teryt:sym_ul": 21970,
                "contact:phone": "+48 683881692",
                "contact:email": "przyborowszkola@op.pl",
                "ref:regon": "365122281",
                "ref:vatin": "PL9252108888",
                "operator": "Gmina Nowa S\u00f3l",
                "operator:type": "government",
                "landuse": "education",
                "fixme": "amenity=school, amenity=college albo landuse=education w zale\u017cno\u015bci od tego, jakie plac\u00f3wki wchodz\u0105 w sk\u0142ad zespo\u0142u. Sprawd\u017a, kiedy stosowa\u0107 amenity=* a kiedy landuse=education.",
                "note": "Children RSPO: 14235;131343"
            }
        },
        {
            "id": 14235,
            "type": "Feature",
            "geometry": {
                "type": "Point",
                "coordinates": [
                    15.76971,
                    51.799409999999995
                ]
            },
            "properties": {
                "isced:level": "1;2",
                "ref:rspo": 14235,
                "official_name": "Szko\u0142a Podstawowa im. J\u00f3zefa M\u0142ynarczyka w Przyborowie",
                "name": "Szko\u0142a Podstawowa",
                "addr:country": "PL",
                "addr:postcode": "67-100",
                "addr:city": "Przybor\u00f3w",
                "addr:street": "Szkolna",
                "addr:housenumber": "16",
                "addr:teryt:simc": 912273,
                "addr:teryt:sym_ul": 21970,
                "contact:phone": "+48 683881692",
                "contact:email": "przyborowszkola@op.pl",
                "contact:website": "http:\/\/www.zsprzyborow.pl",
                "ref:regon": "970459055",
                "ref:vatin": "PL9251846472",
                "operator": "Gmina Nowa S\u00f3l",
                "operator:type": "government",
                "amenity": "school",
                "note": "Parent RSPO: 131336"
            }
        },
        {
            "id": 9739,
            "type": "Feature",
            "geometry": {
                "type": "Point",
                "coordinates": [
                    15.87027,
                    51.8868099
                ]
            },
            "properties": {
                "ref:rspo": 9739,
                "official_name": "Przedszkole w Lubi\u0119cinie",
                "name": "Przedszkole w Lubi\u0119cinie",
                "addr:country": "PL",
                "addr:postcode": "67-108",
                "addr:place": "Lubi\u0119cin",
                "addr:housenumber": "70",
                "addr:teryt:simc": 912215,
                "contact:phone": "+48 683881590",
                "contact:email": "przedszkole@gminanowasol.pl",
                "contact:website": "http:\/\/www.przedszkole-lubiecin.pl",
                "ref:regon": "971272583",
                "ref:vatin": "PL9251829433",
                "operator": "Gmina Nowa S\u00f3l",
                "operator:type": "government",
                "amenity": "kindergarten",
                "note": "Parent RSPO: 16410"
            }
        },
        {
            "id": 16410,
            "type": "Feature",
            "geometry": {
                "type": "Point",
                "coordinates": [
                    15.86888,
                    51.88723
                ]
            },
            "properties": {
                "ref:rspo": 16410,
                "official_name": "Zesp\u00f3\u0142 Edukacyjny w Lubi\u0119cinie",
                "name": "Zesp\u00f3\u0142 Edukacyjny w Lubi\u0119cinie",
                "addr:country": "PL",
                "addr:postcode": "67-108",
                "addr:place": "Lubi\u0119cin",
                "addr:housenumber": "82",
                "addr:teryt:simc": 912215,
                "contact:phone": "+48 683886382",
                "contact:email": "lubiencingim@poczta.onet.pl",
                "contact:website": "http:\/\/www.zslubiecin.civ.pl",
                "ref:regon": "080197606",
                "ref:vatin": "PL9252048123",
                "operator": "Gmina Nowa S\u00f3l",
                "operator:type": "government",
                "landuse": "education",
                "fixme": "amenity=school, amenity=college albo landuse=education w zale\u017cno\u015bci od tego, jakie plac\u00f3wki wchodz\u0105 w sk\u0142ad zespo\u0142u. Sprawd\u017a, kiedy stosowa\u0107 amenity=* a kiedy landuse=education.",
                "note": "Children RSPO: 9739;20009"
            }
        },
        {
            "id": 20009,
            "type": "Feature",
            "geometry": {
                "type": "Point",
                "coordinates": [
                    15.86888,
                    51.8872
                ]
            },
            "properties": {
                "isced:level": "1;2",
                "ref:rspo": 20009,
                "official_name": "Szko\u0142a Podstawowa im. Marii Konopnickiej w Lubi\u0119cinie",
                "name": "Szko\u0142a Podstawowa",
                "addr:country": "PL",
                "addr:postcode": "67-108",
                "addr:place": "Lubi\u0119cin",
                "addr:housenumber": "82a",
                "addr:teryt:simc": 912215,
                "contact:phone": "+48 683886382",
                "contact:email": "lubiencingim@poczta.onet.pl",
                "contact:website": "http:\/\/www.zslubiecin.civ.pl",
                "ref:regon": "970460472",
                "ref:vatin": "PL9251846489",
                "operator": "Gmina Nowa S\u00f3l",
                "operator:type": "government",
                "amenity": "school",
                "note": "Parent RSPO: 16410"
            }
        }
    ]
}