{
    "type": "FeatureCollection",
    "features": [
        {
            "id": 91494,
            "type": "Feature",
            "geometry": {
                "type": "Point",
                "coordinates": [
                    15.7264,
                    51.67211
                ]
            },
            "properties": {
                "ref:rspo": 91494,
                "official_name": "Niepubliczna Inna Forma Wychowania Przedszkolnego - \"Przedszkolandia Na Wzg\u00f3rzach Dalkowskich\" Punkt Przedszkolny w Pop\u0119szycach",
                "name": "Niepubliczna Inna Forma Wychowania Przedszkolnego - \"Przedszkolandia Na Wzg\u00f3rzach Dalkowskich\" Punkt Przedszkolny w Pop\u0119szycach",
                "addr:country": "PL",
                "addr:postcode": "67-124",
                "addr:place": "Pop\u0119szyce",
                "addr:housenumber": "19b",
                "addr:teryt:sym_ul": 912416,
                "contact:email": "biuro@wzgorzadalkowski.pl",
                "ref:regon": "081092298",
                "operator": "Dane Do Uzupe\u0142nienia",
                "operator:type": "private",
                "amenity": "kindergarten"
            }
        },
        {
            "id": 91493,
            "type": "Feature",
            "geometry": {
                "type": "Point",
                "coordinates": [
                    15.78721,
                    51.67949
                ]
            },
            "properties": {
                "ref:rspo": 91493,
                "official_name": "Niepubliczna Inna Forma Wychowania Przedszkolnego - \"Przedszkolandia Na Wzg\u00f3rzach Dalkowskich\" Punkt Przedszkolny w Mi\u0142akowie",
                "name": "Niepubliczna Inna Forma Wychowania Przedszkolnego - \"Przedszkolandia Na Wzg\u00f3rzach Dalkowskich\" Punkt Przedszkolny w Mi\u0142akowie",
                "addr:country": "PL",
                "addr:postcode": "67-124",
                "addr:place": "Mi\u0142ak\u00f3w",
                "addr:housenumber": "43",
                "addr:teryt:sym_ul": 912391,
                "contact:email": "biuro@wzgorzadalkowskie.pl",
                "ref:regon": "081092275",
                "operator": "Dane Do Uzupe\u0142nienia",
                "operator:type": "private",
                "amenity": "kindergarten"
            }
        },
        {
            "id": 89333,
            "type": "Feature",
            "geometry": {
                "type": "Point",
                "coordinates": [
                    15.63255,
                    51.68338
                ]
            },
            "properties": {
                "isced:level": "1;2",
                "ref:rspo": 89333,
                "official_name": "Publiczna Szko\u0142a Podstawowa im. Jana Paw\u0142a Ii",
                "name": "Publiczna Szko\u0142a Podstawowa",
                "addr:country": "PL",
                "addr:postcode": "67-124",
                "addr:place": "Bor\u00f3w Wielki",
                "addr:housenumber": "53A",
                "addr:teryt:sym_ul": 912356,
                "contact:phone": "+48 683888943",
                "contact:email": "psp.borowwielki@wp.pl",
                "contact:website": "http:\/\/www.psp2borowwielki.szkolnastrona.pl",
                "ref:regon": "970570344",
                "ref:vatin": "PL9252108859",
                "operator": "Gmina Nowe Miasteczko",
                "operator:type": "government",
                "amenity": "school"
            }
        },
        {
            "id": 89196,
            "type": "Feature",
            "geometry": {
                "type": "Point",
                "coordinates": [
                    15.73169,
                    51.68611
                ]
            },
            "properties": {
                "ref:rspo": 89196,
                "official_name": "Zesp\u00f3\u0142 Szk\u00f3\u0142 Nr 1",
                "name": "Zesp\u00f3\u0142 Szk\u00f3\u0142 Nr 1",
                "addr:country": "PL",
                "addr:postcode": "67-124",
                "addr:city": "Nowe Miasteczko",
                "addr:street": "ul. Marcinkowskiego",
                "addr:housenumber": "1",
                "addr:teryt:simc": 12294,
                "addr:teryt:sym_ul": 988566,
                "contact:phone": "+48 683888122",
                "contact:email": "zs-n.miasteczko@oswiata.org.pl",
                "ref:regon": "081089540",
                "operator": "Gmina Nowe Miasteczko",
                "operator:type": "government",
                "landuse": "education",
                "fixme": "amenity=school, amenity=college albo landuse=education w zale\u017cno\u015bci od tego, jakie plac\u00f3wki wchodz\u0105 w sk\u0142ad zespo\u0142u. Sprawd\u017a, kiedy stosowa\u0107 amenity=* a kiedy landuse=education.",
                "note": "Children RSPO: 91155;91156;119398;119401;119403"
            }
        },
        {
            "id": 91155,
            "type": "Feature",
            "geometry": {
                "type": "Point",
                "coordinates": [
                    15.73169,
                    51.68608
                ]
            },
            "properties": {
                "isced:level": "1;2",
                "ref:rspo": 91155,
                "official_name": "Szko\u0142a Podstawowa im. Komisji Edukacji Narodowej w Nowym Miasteczku",
                "name": "Szko\u0142a Podstawowa",
                "addr:country": "PL",
                "addr:postcode": "67-124",
                "addr:city": "Nowe Miasteczko",
                "addr:street": "ul. Marcinkowskiego",
                "addr:housenumber": "1",
                "addr:teryt:simc": 12294,
                "addr:teryt:sym_ul": 988566,
                "contact:phone": "+48 683888122",
                "contact:email": "zs-n.miasteczko@oswiata.org.pl",
                "ref:regon": "970570663",
                "ref:vatin": "PL9251725426",
                "operator": "Gmina Nowe Miasteczko",
                "operator:type": "government",
                "amenity": "school",
                "note": "Parent RSPO: 89196"
            }
        },
        {
            "id": 91156,
            "type": "Feature",
            "geometry": {
                "type": "Point",
                "coordinates": [
                    15.73488,
                    51.6879599
                ]
            },
            "properties": {
                "ref:rspo": 91156,
                "official_name": "Przedszkole w Nowym Miasteczku",
                "name": "Przedszkole w Nowym Miasteczku",
                "addr:country": "PL",
                "addr:postcode": "67-124",
                "addr:city": "Nowe Miasteczko",
                "addr:street": "ul. Lipowa",
                "addr:housenumber": "5",
                "addr:teryt:simc": 11139,
                "addr:teryt:sym_ul": 988566,
                "contact:phone": "+48 583888122",
                "ref:regon": "000264880",
                "ref:vatin": "PL9252100817",
                "operator": "Gmina Nowe Miasteczko",
                "operator:type": "government",
                "amenity": "kindergarten",
                "note": "Parent RSPO: 89196"
            }
        },
        {
            "id": 119398,
            "type": "Feature",
            "geometry": {
                "type": "Point",
                "coordinates": [
                    15.73642,
                    51.6904899
                ]
            },
            "properties": {
                "isced:level": "3",
                "ref:rspo": 119398,
                "official_name": "Bran\u017cowa Szko\u0142a I Stopnia",
                "name": "Bran\u017cowa Szko\u0142a I Stopnia",
                "addr:country": "PL",
                "addr:postcode": "67-124",
                "addr:city": "Nowe Miasteczko",
                "addr:street": "pl. Strzelecki",
                "addr:housenumber": "2",
                "addr:teryt:simc": 21384,
                "addr:teryt:sym_ul": 988566,
                "contact:phone": "+48 683888122",
                "ref:regon": "081158560",
                "operator": "Gmina Nowe Miasteczko",
                "operator:type": "government",
                "amenity": "school",
                "note": "Parent RSPO: 89196"
            }
        },
        {
            "id": 119401,
            "type": "Feature",
            "geometry": {
                "type": "Point",
                "coordinates": [
                    15.73642,
                    51.6904599
                ]
            },
            "properties": {
                "isced:level": "3",
                "ref:rspo": 119401,
                "official_name": "Technikum",
                "name": "Technikum",
                "addr:country": "PL",
                "addr:postcode": "67-124",
                "addr:city": "Nowe Miasteczko",
                "addr:street": "pl. Strzelecki",
                "addr:housenumber": "2",
                "addr:teryt:simc": 21384,
                "addr:teryt:sym_ul": 988566,
                "contact:phone": "+48 683888122",
                "ref:regon": "081158620",
                "operator": "Gmina Nowe Miasteczko",
                "operator:type": "government",
                "amenity": "school",
                "note": "Parent RSPO: 89196"
            }
        },
        {
            "id": 119403,
            "type": "Feature",
            "geometry": {
                "type": "Point",
                "coordinates": [
                    15.73642,
                    51.690429900000005
                ]
            },
            "properties": {
                "isced:level": "3",
                "ref:rspo": 119403,
                "official_name": "Liceum Og\u00f3lnokszta\u0142c\u0105ce w Nowym Miasteczku",
                "name": "Liceum Og\u00f3lnokszta\u0142c\u0105ce w Nowym Miasteczku",
                "addr:country": "PL",
                "addr:postcode": "67-124",
                "addr:city": "Nowe Miasteczko",
                "addr:street": "pl. Strzelecki",
                "addr:housenumber": "2",
                "addr:teryt:simc": 21384,
                "addr:teryt:sym_ul": 988566,
                "contact:phone": "+48 683888122",
                "ref:regon": "081158650",
                "operator": "Gmina Nowe Miasteczko",
                "operator:type": "government",
                "amenity": "school",
                "note": "Parent RSPO: 89196"
            }
        }
    ]
}