{
    "type": "FeatureCollection",
    "features": [
        {
            "id": 52764,
            "type": "Feature",
            "geometry": {
                "type": "Point",
                "coordinates": [
                    20.68045,
                    52.12147
                ]
            },
            "properties": {
                "isced:level": "1;2",
                "ref:rspo": 52764,
                "official_name": "Szko\u0142a Podstawowa Nr 1 im. Ks. Piotra Skargi w Milan\u00f3wku",
                "name": "Szko\u0142a Podstawowa Nr 1",
                "addr:country": "PL",
                "addr:postcode": "05-822",
                "addr:city": "Milan\u00f3wek",
                "addr:street": "Kr\u00f3lewska",
                "addr:housenumber": "69",
                "addr:teryt:simc": 921020,
                "addr:teryt:sym_ul": 9987,
                "contact:phone": "+48 227583524",
                "contact:email": "sekretariat@sp1.milanowek.pl",
                "contact:website": "https:\/\/jedyneczka.edupage.org\/",
                "ref:regon": "011301670",
                "ref:vatin": "PL5291656209",
                "operator": "Gmina Milan\u00f3wek",
                "operator:type": "government",
                "amenity": "school"
            }
        },
        {
            "id": 262913,
            "type": "Feature",
            "geometry": {
                "type": "Point",
                "coordinates": [
                    20.66095,
                    52.12187
                ]
            },
            "properties": {
                "isced:level": "1;2",
                "ref:rspo": 262913,
                "official_name": "Spo\u0142eczna Szko\u0142a Podstawowa Milanowskiego Towarzystwa Edukacyjnego",
                "name": "Spo\u0142eczna Szko\u0142a Podstawowa Milanowskiego Towarzystwa Edukacyjnego",
                "addr:country": "PL",
                "addr:postcode": "05-822",
                "addr:city": "Milan\u00f3wek",
                "addr:street": "Brzozowa",
                "addr:housenumber": "1a",
                "addr:teryt:simc": 921020,
                "addr:teryt:sym_ul": 2276,
                "contact:phone": "+48 227583402",
                "contact:email": "sekretariat@brzozowa.pl",
                "contact:website": "http:\/\/www.brzozowa.pl",
                "ref:regon": "368075323",
                "operator": "Milanowskie Towarzystwo Edukacyjne",
                "operator:type": "ngo",
                "amenity": "school"
            }
        },
        {
            "id": 64965,
            "type": "Feature",
            "geometry": {
                "type": "Point",
                "coordinates": [
                    20.66165,
                    52.12244
                ]
            },
            "properties": {
                "isced:level": "1;2",
                "ref:rspo": 64965,
                "official_name": "Milanowska Prywatna Szko\u0142a Podstawowa",
                "name": "Milanowska Prywatna Szko\u0142a Podstawowa",
                "addr:country": "PL",
                "addr:postcode": "05-822",
                "addr:city": "Milan\u00f3wek",
                "addr:street": "Warszawska",
                "addr:housenumber": "52b",
                "addr:teryt:simc": 921020,
                "addr:teryt:sym_ul": 23682,
                "contact:phone": "+48 608378978",
                "contact:email": "sekretariat@mto.edu.pl",
                "contact:website": "http:\/\/www.mto.edu.pl",
                "ref:regon": "146394394",
                "ref:vatin": "PL5291640579",
                "operator": "\"Milanowskie Towarzystwo O\u015bwiatowe\" Sp\u00f3\u0142ka Z Ograniczon\u0105 Odpowiedzialno\u015bci\u0105",
                "operator:type": "private",
                "amenity": "school"
            }
        },
        {
            "id": 64978,
            "type": "Feature",
            "geometry": {
                "type": "Point",
                "coordinates": [
                    20.66165,
                    52.122409999999995
                ]
            },
            "properties": {
                "ref:rspo": 64978,
                "official_name": "\"Truskawkowe Przedszkole\"",
                "name": "\"Truskawkowe Przedszkole\"",
                "addr:country": "PL",
                "addr:postcode": "05-822",
                "addr:city": "Milan\u00f3wek",
                "addr:street": "Warszawska",
                "addr:housenumber": "52",
                "addr:teryt:simc": 921020,
                "addr:teryt:sym_ul": 23682,
                "contact:phone": "+48 793028881",
                "contact:email": "j.olejniczak@poczta.onet.pl",
                "ref:regon": "146433639",
                "operator": "Joanna Olejniczak",
                "operator:type": "private",
                "amenity": "kindergarten"
            }
        },
        {
            "id": 65203,
            "type": "Feature",
            "geometry": {
                "type": "Point",
                "coordinates": [
                    20.66165,
                    52.12238
                ]
            },
            "properties": {
                "ref:rspo": 65203,
                "official_name": "Prywatne Szkolne Przedszkole",
                "name": "Prywatne Szkolne Przedszkole",
                "addr:country": "PL",
                "addr:postcode": "05-822",
                "addr:city": "Milan\u00f3wek",
                "addr:street": "Warszawska",
                "addr:housenumber": "52b",
                "addr:teryt:simc": 921020,
                "addr:teryt:sym_ul": 23682,
                "contact:phone": "+48 227249793",
                "contact:email": "sekretariat@mto.edu.pl",
                "contact:website": "http:\/\/www.mto.edu.pl",
                "ref:regon": "146394589",
                "operator": "\"Milanowskie Towarzystwo O\u015bwiatowe\" Sp\u00f3\u0142ka Z Ograniczon\u0105 Odpowiedzialno\u015bci\u0105",
                "operator:type": "private",
                "amenity": "kindergarten"
            }
        },
        {
            "id": 58211,
            "type": "Feature",
            "geometry": {
                "type": "Point",
                "coordinates": [
                    20.6587299,
                    52.12273
                ]
            },
            "properties": {
                "isced:level": "1;2",
                "ref:rspo": 58211,
                "official_name": "Szko\u0142a Podstawowa Nr 3 im. Fryderyka Chopina w Milan\u00f3wku",
                "name": "Szko\u0142a Podstawowa Nr 3",
                "addr:country": "PL",
                "addr:postcode": "05-822",
                "addr:city": "Milan\u00f3wek",
                "addr:street": "\u017babie Oczko",
                "addr:housenumber": "1",
                "addr:teryt:simc": 921020,
                "addr:teryt:sym_ul": 26371,
                "contact:phone": "+48 227583460",
                "contact:email": "sp3@sp3.milanowek.pl",
                "contact:website": "http:\/\/zsg3milanowek.szkolnastrona.pl",
                "ref:regon": "015838190",
                "ref:vatin": "PL5291655084",
                "operator": "Gmina Milan\u00f3wek",
                "operator:type": "government",
                "amenity": "school"
            }
        },
        {
            "id": 58207,
            "type": "Feature",
            "geometry": {
                "type": "Point",
                "coordinates": [
                    20.65617,
                    52.12464
                ]
            },
            "properties": {
                "isced:level": "1;2",
                "ref:rspo": 58207,
                "official_name": "Integracyjna Spo\u0142eczna Szko\u0142a Podstawowa Nr 18 im. Gen. Bryg. Augusta Emila Fieldorfa",
                "name": "Integracyjna Spo\u0142eczna Szko\u0142a Podstawowa Nr 18",
                "addr:country": "PL",
                "addr:postcode": "05-822",
                "addr:city": "Milan\u00f3wek",
                "addr:street": "Spacerowa",
                "addr:housenumber": "3",
                "addr:teryt:simc": 921020,
                "addr:teryt:sym_ul": 20641,
                "contact:phone": "+48 227583244",
                "contact:email": "info@szkolamilanowek.pl",
                "contact:website": "http:\/\/www.szkolamilanowek.pl",
                "ref:regon": "146380541",
                "ref:vatin": "PL5291019224",
                "operator": "Towarzystwo Przyjaci\u00f3\u0142 Integracyjnych Spo\u0142ecznych Szk\u00f3\u0142 Podstawowych W Milan\u00f3wku",
                "operator:type": "ngo",
                "amenity": "school"
            }
        },
        {
            "id": 58185,
            "type": "Feature",
            "geometry": {
                "type": "Point",
                "coordinates": [
                    20.66641998291,
                    52.124881744385
                ]
            },
            "properties": {
                "ref:rspo": 58185,
                "official_name": "Przedszkole Nr 1",
                "name": "Przedszkole Nr 1",
                "addr:country": "PL",
                "addr:postcode": "05-822",
                "addr:city": "Milan\u00f3wek",
                "addr:street": "Zbigniewa Herberta",
                "addr:housenumber": "43",
                "addr:teryt:simc": 921020,
                "addr:teryt:sym_ul": 31283,
                "contact:phone": "+48 227583592",
                "contact:email": "przedszkolemilanowek@op.pl",
                "ref:regon": "013000346",
                "ref:vatin": "PL5291282803",
                "operator": "Gmina Milan\u00f3wek",
                "operator:type": "government",
                "amenity": "kindergarten"
            }
        },
        {
            "id": 64789,
            "type": "Feature",
            "geometry": {
                "type": "Point",
                "coordinates": [
                    20.66641998291,
                    52.124851744385
                ]
            },
            "properties": {
                "isced:level": "3",
                "ref:rspo": 64789,
                "official_name": "Spo\u0142eczne Liceum Og\u00f3lnokszta\u0142c\u0105ce Nr 5 Spo\u0142ecznego Towarzystwa O\u015bwiatowego",
                "name": "Spo\u0142eczne Liceum Og\u00f3lnokszta\u0142c\u0105ce Nr 5 Spo\u0142ecznego Towarzystwa O\u015bwiatowego",
                "addr:country": "PL",
                "addr:postcode": "05-822",
                "addr:city": "Milan\u00f3wek",
                "addr:street": "Zbigniewa Herberta",
                "addr:housenumber": "41",
                "addr:teryt:simc": 921020,
                "addr:teryt:sym_ul": 31283,
                "contact:phone": "+48 227583692",
                "contact:email": "liceum@slo5.edu.pl",
                "ref:regon": "146433740",
                "operator": "Samodzielne Ko\u0142o Terenowe Nr. 10 W Milan\u00f3wku Spo\u0142.tow.o\u015bwiatowego",
                "operator:type": "ngo",
                "amenity": "school"
            }
        },
        {
            "id": 22405,
            "type": "Feature",
            "geometry": {
                "type": "Point",
                "coordinates": [
                    20.66767,
                    52.12646
                ]
            },
            "properties": {
                "ref:rspo": 22405,
                "official_name": "Zesp\u00f3\u0142 Szk\u00f3\u0142 Nr 1",
                "name": "Zesp\u00f3\u0142 Szk\u00f3\u0142 Nr 1",
                "addr:country": "PL",
                "addr:postcode": "05-822",
                "addr:city": "Milan\u00f3wek",
                "addr:street": "Piasta",
                "addr:housenumber": "14",
                "addr:teryt:simc": 921020,
                "addr:teryt:sym_ul": 16041,
                "contact:phone": "+48 227583344",
                "contact:email": "zs1milanowek@op.pl",
                "contact:website": "http:\/\/www.zs1-milanowek.pl",
                "ref:regon": "017266124",
                "ref:vatin": "PL5291236743",
                "operator": "Powiat Grodziski",
                "operator:type": "government",
                "landuse": "education",
                "fixme": "amenity=school, amenity=college albo landuse=education w zale\u017cno\u015bci od tego, jakie plac\u00f3wki wchodz\u0105 w sk\u0142ad zespo\u0142u. Sprawd\u017a, kiedy stosowa\u0107 amenity=* a kiedy landuse=education.",
                "note": "Children RSPO: 41090;41092"
            }
        },
        {
            "id": 41090,
            "type": "Feature",
            "geometry": {
                "type": "Point",
                "coordinates": [
                    20.66767,
                    52.12643
                ]
            },
            "properties": {
                "isced:level": "3",
                "ref:rspo": 41090,
                "official_name": "Liceum Og\u00f3lnokszta\u0142c\u0105ce",
                "name": "Liceum Og\u00f3lnokszta\u0142c\u0105ce",
                "addr:country": "PL",
                "addr:postcode": "05-822",
                "addr:city": "Milan\u00f3wek",
                "addr:street": "Piasta",
                "addr:housenumber": "14",
                "addr:teryt:simc": 921020,
                "addr:teryt:sym_ul": 16041,
                "contact:phone": "+48 227583344",
                "contact:email": "zs1milanowek@op.pl",
                "contact:website": "http:\/\/www.zs1-milanowek.pl",
                "ref:regon": "017267514",
                "ref:vatin": "PL5291236743",
                "operator": "Powiat Grodziski",
                "operator:type": "government",
                "amenity": "school",
                "note": "Parent RSPO: 22405"
            }
        },
        {
            "id": 41092,
            "type": "Feature",
            "geometry": {
                "type": "Point",
                "coordinates": [
                    20.66767,
                    52.126400000000004
                ]
            },
            "properties": {
                "isced:level": "3",
                "ref:rspo": 41092,
                "official_name": "Liceum Og\u00f3lnokszta\u0142c\u0105ce dla Doros\u0142ych",
                "name": "Liceum Og\u00f3lnokszta\u0142c\u0105ce dla Doros\u0142ych",
                "addr:country": "PL",
                "addr:postcode": "05-822",
                "addr:city": "Milan\u00f3wek",
                "addr:street": "Piasta",
                "addr:housenumber": "14",
                "addr:teryt:simc": 921020,
                "addr:teryt:sym_ul": 16041,
                "contact:phone": "+48 227583344",
                "contact:email": "zs1milanowek@op.pl",
                "contact:website": "http:\/\/www.zs1milanowek.pl",
                "ref:regon": "015266143",
                "ref:vatin": "PL5291236743",
                "operator": "Powiat Grodziski",
                "operator:type": "government",
                "amenity": "school",
                "note": "Parent RSPO: 22405"
            }
        },
        {
            "id": 52748,
            "type": "Feature",
            "geometry": {
                "type": "Point",
                "coordinates": [
                    20.65844,
                    52.12749
                ]
            },
            "properties": {
                "ref:rspo": 52748,
                "official_name": "Przedszkole Niepubliczne Si\u00f3str Urszulanek Sjk im.\u015bw.urszuli Led\u00f3chowskiej",
                "name": "Przedszkole Niepubliczne Si\u00f3str Urszulanek Sjk im.\u015bw.urszuli Led\u00f3chowskiej",
                "addr:country": "PL",
                "addr:postcode": "05-822",
                "addr:city": "Milan\u00f3wek",
                "addr:street": "Adama Mickiewicza",
                "addr:housenumber": "11",
                "addr:teryt:simc": 921020,
                "addr:teryt:sym_ul": 12740,
                "contact:phone": "+48 227247131",
                "contact:email": "urszulankiprzed@o2.pl",
                "ref:regon": "146432769",
                "ref:vatin": "PL5291197397",
                "operator": "Centrum Warszawskie Zgromadzenia Si\u00f3str  Urszulanek Serca Jezusa Konaj\u0105cego",
                "operator:type": "religious",
                "amenity": "kindergarten"
            }
        },
        {
            "id": 63992,
            "type": "Feature",
            "geometry": {
                "type": "Point",
                "coordinates": [
                    20.66613,
                    52.12787
                ]
            },
            "properties": {
                "isced:level": "1;2",
                "ref:rspo": 63992,
                "official_name": "Szko\u0142a Podstawowa Nr 2 im. Armii Krajowej w Milan\u00f3wku",
                "name": "Szko\u0142a Podstawowa Nr 2",
                "addr:country": "PL",
                "addr:postcode": "05-822",
                "addr:city": "Milan\u00f3wek",
                "addr:street": "Literacka",
                "addr:housenumber": "20",
                "addr:teryt:simc": 921020,
                "addr:teryt:sym_ul": 11221,
                "contact:phone": "+48 227583485",
                "contact:email": "dyrektor@sp2.milanowek.pl",
                "contact:website": "http:\/\/sp2milanowek.superszkolna.pl\/",
                "ref:regon": "011267720",
                "ref:vatin": "PL5291082323",
                "operator": "Gmina Milan\u00f3wek",
                "operator:type": "government",
                "amenity": "school"
            }
        },
        {
            "id": 17289,
            "type": "Feature",
            "geometry": {
                "type": "Point",
                "coordinates": [
                    20.6745899,
                    52.12856
                ]
            },
            "properties": {
                "ref:rspo": 17289,
                "official_name": "Zesp\u00f3\u0142 Szk\u00f3\u0142 Nr 2 Imienia Genera\u0142a J\u00f3zefa Bema",
                "name": "Zesp\u00f3\u0142 Szk\u00f3\u0142 Nr 2 Imienia Genera\u0142a J\u00f3zefa Bema",
                "addr:country": "PL",
                "addr:postcode": "05-822",
                "addr:city": "Milan\u00f3wek",
                "addr:street": "W\u00f3jtowska",
                "addr:housenumber": "3",
                "addr:teryt:simc": 921020,
                "addr:teryt:sym_ul": 24795,
                "contact:phone": "+48 227583316",
                "contact:email": "zs2milanowek@powiat-grodziski.pl",
                "contact:website": "http:\/\/zsbem.pl",
                "ref:regon": "000829750",
                "ref:vatin": "PL5291021362",
                "operator": "Powiat Grodziski",
                "operator:type": "government",
                "landuse": "education",
                "fixme": "amenity=school, amenity=college albo landuse=education w zale\u017cno\u015bci od tego, jakie plac\u00f3wki wchodz\u0105 w sk\u0142ad zespo\u0142u. Sprawd\u017a, kiedy stosowa\u0107 amenity=* a kiedy landuse=education.",
                "note": "Children RSPO: 41093;41097;41098;41100"
            }
        },
        {
            "id": 41093,
            "type": "Feature",
            "geometry": {
                "type": "Point",
                "coordinates": [
                    20.6745899,
                    52.12853
                ]
            },
            "properties": {
                "isced:level": "3",
                "ref:rspo": 41093,
                "official_name": "Liceum Og\u00f3lnokszta\u0142c\u0105ce",
                "name": "Liceum Og\u00f3lnokszta\u0142c\u0105ce",
                "addr:country": "PL",
                "addr:postcode": "05-822",
                "addr:city": "Milan\u00f3wek",
                "addr:street": "W\u00f3jtowska",
                "addr:housenumber": "3",
                "addr:teryt:simc": 921020,
                "addr:teryt:sym_ul": 24795,
                "contact:phone": "+48 227583316",
                "contact:email": "zs2milanowek@powiat-grodziski.pl",
                "ref:regon": "015292436",
                "ref:vatin": "PL5291021362",
                "operator": "Powiat Grodziski",
                "operator:type": "government",
                "amenity": "school",
                "note": "Parent RSPO: 17289"
            }
        },
        {
            "id": 41097,
            "type": "Feature",
            "geometry": {
                "type": "Point",
                "coordinates": [
                    20.6745899,
                    52.1285
                ]
            },
            "properties": {
                "isced:level": "3",
                "ref:rspo": 41097,
                "official_name": "Bran\u017cowa Szko\u0142a I Stopnia",
                "name": "Bran\u017cowa Szko\u0142a I Stopnia",
                "addr:country": "PL",
                "addr:postcode": "05-822",
                "addr:city": "Milan\u00f3wek",
                "addr:street": "W\u00f3jtowska",
                "addr:housenumber": "3",
                "addr:teryt:simc": 921020,
                "addr:teryt:sym_ul": 24795,
                "contact:phone": "+48 227583316",
                "contact:email": "zs2milanowek@powiat-grodziski.pl",
                "ref:regon": "015292459",
                "ref:vatin": "PL5291021362",
                "operator": "Powiat Grodziski",
                "operator:type": "government",
                "amenity": "school",
                "note": "Parent RSPO: 17289"
            }
        },
        {
            "id": 41098,
            "type": "Feature",
            "geometry": {
                "type": "Point",
                "coordinates": [
                    20.6745899,
                    52.12847
                ]
            },
            "properties": {
                "isced:level": "3",
                "ref:rspo": 41098,
                "official_name": "Technikum",
                "name": "Technikum",
                "addr:country": "PL",
                "addr:postcode": "05-822",
                "addr:city": "Milan\u00f3wek",
                "addr:street": "W\u00f3jtowska",
                "addr:housenumber": "3",
                "addr:teryt:simc": 921020,
                "addr:teryt:sym_ul": 24795,
                "contact:phone": "+48 227583316",
                "contact:email": "zs2milanowek@powiat-grodziski.pl",
                "ref:regon": "015292413",
                "ref:vatin": "PL5291021362",
                "operator": "Powiat Grodziski",
                "operator:type": "government",
                "amenity": "school",
                "note": "Parent RSPO: 17289"
            }
        },
        {
            "id": 41100,
            "type": "Feature",
            "geometry": {
                "type": "Point",
                "coordinates": [
                    20.6745899,
                    52.12844
                ]
            },
            "properties": {
                "isced:level": "4",
                "ref:rspo": 41100,
                "official_name": "Szko\u0142a Policealna",
                "name": "Szko\u0142a Policealna",
                "addr:country": "PL",
                "addr:postcode": "05-822",
                "addr:city": "Milan\u00f3wek",
                "addr:street": "W\u00f3jtowska",
                "addr:housenumber": "3",
                "addr:teryt:simc": 921020,
                "addr:teryt:sym_ul": 24795,
                "contact:phone": "+48 227583316",
                "contact:email": "zsbem@pro.onet.pl",
                "ref:regon": "140611005",
                "ref:vatin": "PL5291021362",
                "operator": "Powiat Grodziski",
                "operator:type": "government",
                "amenity": "college",
                "note": "Parent RSPO: 17289"
            }
        },
        {
            "id": 64699,
            "type": "Feature",
            "geometry": {
                "type": "Point",
                "coordinates": [
                    20.67358,
                    52.12919
                ]
            },
            "properties": {
                "ref:rspo": 64699,
                "official_name": "Przedszkole Spo\u0142eczne T.p.I.s.s.p.",
                "name": "Przedszkole Spo\u0142eczne T.p.I.s.s.p.",
                "addr:country": "PL",
                "addr:postcode": "05-822",
                "addr:city": "Milan\u00f3wek",
                "addr:street": "Wsp\u00f3lna",
                "addr:housenumber": "18",
                "addr:teryt:simc": 921020,
                "addr:teryt:sym_ul": 24885,
                "contact:phone": "+48 227558088",
                "contact:email": "przedszkole.wspolna@vp.pl",
                "contact:website": "http:\/\/www.przedszkolespoleczne.pl",
                "ref:regon": "146395689",
                "ref:vatin": "PL5291019224",
                "operator": "Towarzystwo Przyjaci\u00f3\u0142 Integracyjnych Spo\u0142ecznych Szk\u00f3\u0142 Podstawowych W Milan\u00f3wku",
                "operator:type": "ngo",
                "amenity": "kindergarten"
            }
        },
        {
            "id": 42477,
            "type": "Feature",
            "geometry": {
                "type": "Point",
                "coordinates": [
                    20.67696,
                    52.1302499
                ]
            },
            "properties": {
                "ref:rspo": 42477,
                "official_name": "Przedszkole \"Na Wiejskiej\" Monika D\u0105browiecka-Freney",
                "name": "Przedszkole \"Na Wiejskiej\" Monika D\u0105browiecka-Freney",
                "addr:country": "PL",
                "addr:postcode": "05-822",
                "addr:city": "Milan\u00f3wek",
                "addr:street": "Wiejska",
                "addr:housenumber": "4",
                "addr:teryt:simc": 921020,
                "addr:teryt:sym_ul": 24048,
                "contact:phone": "+48 501088885",
                "contact:email": "przedszkole@wiejska4.pl",
                "contact:website": "http:\/\/www.wiejska4.pl",
                "ref:regon": "146357690",
                "ref:vatin": "PL6861205706",
                "operator": "Monika D\u0105browiecka-Freney",
                "operator:type": "private",
                "amenity": "kindergarten"
            }
        },
        {
            "id": 276300,
            "type": "Feature",
            "geometry": {
                "type": "Point",
                "coordinates": [
                    20.6599,
                    52.13057
                ]
            },
            "properties": {
                "ref:rspo": 276300,
                "official_name": "Niepubliczny Terapeutyczny Punkt Przedszkolny \"R\u00f3wnowaga\"",
                "name": "Niepubliczny Terapeutyczny Punkt Przedszkolny \"R\u00f3wnowaga\"",
                "addr:country": "PL",
                "addr:postcode": "05-822",
                "addr:city": "Milan\u00f3wek",
                "addr:street": "Tadeusza Ko\u015bciuszki",
                "addr:housenumber": "53",
                "addr:teryt:simc": 921020,
                "addr:teryt:sym_ul": 9582,
                "contact:email": "zdanowska.com@gmail.com",
                "ref:regon": "387082185",
                "operator": "Fundacja \"R\u00f3wnowaga\"",
                "operator:type": "ngo",
                "amenity": "kindergarten"
            }
        },
        {
            "id": 130989,
            "type": "Feature",
            "geometry": {
                "type": "Point",
                "coordinates": [
                    20.70222,
                    52.13123
                ]
            },
            "properties": {
                "ref:rspo": 130989,
                "official_name": "Europejskie Przedszkole Publiczne \"Kasperek\" w Milan\u00f3wku",
                "name": "Europejskie Przedszkole Publiczne \"Kasperek\" w Milan\u00f3wku",
                "addr:country": "PL",
                "addr:postcode": "05-822",
                "addr:city": "Milan\u00f3wek",
                "addr:street": "Brwinowska",
                "addr:housenumber": "2d",
                "addr:teryt:simc": 921020,
                "addr:teryt:sym_ul": 2195,
                "contact:email": "biuro@przedszkolekasperek.pl",
                "ref:regon": "364857052",
                "operator": "Europejskie Przedszkole Niepubliczne \"Kasperek\" Stanejko Sp\u00f3\u0142ka Jawna",
                "operator:type": "private",
                "amenity": "kindergarten"
            }
        }
    ]
}