{
    "type": "FeatureCollection",
    "features": [
        {
            "id": 25303,
            "type": "Feature",
            "geometry": {
                "type": "Point",
                "coordinates": [
                    20.71825,
                    52.11648
                ]
            },
            "properties": {
                "ref:rspo": 25303,
                "official_name": "Klub Rodzinny Ihaha",
                "name": "Klub Rodzinny Ihaha",
                "addr:country": "PL",
                "addr:postcode": "05-807",
                "addr:city": "Podkowa Le\u015bna",
                "addr:street": "Kwiatowa",
                "addr:housenumber": "15",
                "addr:teryt:simc": 10562,
                "addr:teryt:sym_ul": 921504,
                "contact:phone": "+48 227291528",
                "contact:email": "kjacniacka@gmail.com",
                "contact:website": "http:\/\/ihaha.edu.pl",
                "ref:regon": "146333777",
                "ref:vatin": "PL5212979847",
                "operator": "Dane Do Uzupe\u0142nienia",
                "operator:type": "private",
                "amenity": "kindergarten"
            }
        },
        {
            "id": 109948,
            "type": "Feature",
            "geometry": {
                "type": "Point",
                "coordinates": [
                    20.72567,
                    52.11761
                ]
            },
            "properties": {
                "ref:rspo": 109948,
                "official_name": "Klub Rodzinny Ihaha",
                "name": "Klub Rodzinny Ihaha",
                "addr:country": "PL",
                "addr:postcode": "05-807",
                "addr:city": "Podkowa Le\u015bna",
                "addr:street": "Bluszczowa",
                "addr:housenumber": "1",
                "addr:teryt:simc": 1430,
                "addr:teryt:sym_ul": 921504,
                "contact:phone": "+48 227300797",
                "contact:email": "kjacniacka@gmail.com",
                "contact:website": "http:\/\/ihaha.edu.pl",
                "ref:regon": "146545634",
                "ref:vatin": "PL5212979847",
                "operator": "Katarzyna Jacniacka",
                "operator:type": "private",
                "amenity": "kindergarten"
            }
        },
        {
            "id": 93122,
            "type": "Feature",
            "geometry": {
                "type": "Point",
                "coordinates": [
                    20.72591,
                    52.11844
                ]
            },
            "properties": {
                "isced:level": "1;2",
                "ref:rspo": 93122,
                "official_name": "Szko\u0142a Podstawowa im.bohater\u00f3w Warszawy",
                "name": "Szko\u0142a Podstawowa im.bohater\u00f3w Warszawy",
                "addr:country": "PL",
                "addr:postcode": "05-807",
                "addr:city": "Podkowa Le\u015bna",
                "addr:street": "Jana Paw\u0142a II",
                "addr:housenumber": "20",
                "addr:teryt:simc": 7123,
                "addr:teryt:sym_ul": 921504,
                "contact:phone": "+48 227589567",
                "contact:email": "sekretariat@podkowa-szkola.pl",
                "contact:website": "http:\/\/podkowa-szkola.pl",
                "ref:regon": "000800189",
                "operator": "Miasto Podkowa Le\u015bna",
                "operator:type": "government",
                "amenity": "school"
            }
        },
        {
            "id": 48752,
            "type": "Feature",
            "geometry": {
                "type": "Point",
                "coordinates": [
                    20.7269599,
                    52.12076
                ]
            },
            "properties": {
                "isced:level": "4",
                "ref:rspo": 48752,
                "official_name": "Medyczna Szko\u0142a Policealna",
                "name": "Medyczna Szko\u0142a Policealna",
                "addr:country": "PL",
                "addr:postcode": "05-807",
                "addr:city": "Podkowa Le\u015bna",
                "addr:street": "Modrzewiowa",
                "addr:housenumber": "45",
                "addr:teryt:simc": 13184,
                "addr:teryt:sym_ul": 921504,
                "contact:phone": "+48 222438825",
                "contact:email": "msp@msp.edu.pl",
                "contact:website": "http:\/\/www.msp.edu.pl",
                "ref:regon": "146404550",
                "operator": "Fundacja Edukacyjna Silesia",
                "operator:type": "ngo",
                "amenity": "college"
            }
        },
        {
            "id": 64786,
            "type": "Feature",
            "geometry": {
                "type": "Point",
                "coordinates": [
                    20.7269599,
                    52.120729999999995
                ]
            },
            "properties": {
                "isced:level": "4",
                "ref:rspo": 64786,
                "official_name": "Medyczna Szko\u0142a Policealna",
                "name": "Medyczna Szko\u0142a Policealna",
                "addr:country": "PL",
                "addr:postcode": "05-807",
                "addr:city": "Podkowa Le\u015bna",
                "addr:street": "Modrzewiowa",
                "addr:housenumber": "45",
                "addr:teryt:simc": 13184,
                "addr:teryt:sym_ul": 921504,
                "contact:phone": "+48 222438825",
                "contact:email": "msp@msp.edu.pl",
                "contact:website": "http:\/\/www.msp.edu.pl",
                "ref:regon": "146432717",
                "operator": "Fundacja Edukacyjna Silesia",
                "operator:type": "ngo",
                "amenity": "college"
            }
        },
        {
            "id": 25301,
            "type": "Feature",
            "geometry": {
                "type": "Point",
                "coordinates": [
                    20.72791,
                    52.12118
                ]
            },
            "properties": {
                "isced:level": "1;2",
                "ref:rspo": 25301,
                "official_name": "Szko\u0142a Podstawowa Nr 2 im.\u015bw.teresy Od Dzieci\u0105tka Jezus",
                "name": "Szko\u0142a Podstawowa Nr 2 im.\u015bw.teresy Od Dzieci\u0105tka Jezus",
                "addr:country": "PL",
                "addr:postcode": "05-807",
                "addr:city": "Podkowa Le\u015bna",
                "addr:street": "Ko\u015bcielna",
                "addr:housenumber": "4",
                "addr:teryt:simc": 9546,
                "addr:teryt:sym_ul": 921504,
                "contact:phone": "+48 227291281",
                "contact:email": "marzena.pradzynska@szkola2.pl",
                "contact:website": "http:\/\/www.szkola2.pl",
                "ref:regon": "146337025",
                "ref:vatin": "PL5341592122",
                "operator": "Komitet Budowy Szko\u0142y \u015aw. Teresy W Podkowie Le\u015bnej",
                "operator:type": "ngo",
                "amenity": "school"
            }
        },
        {
            "id": 25299,
            "type": "Feature",
            "geometry": {
                "type": "Point",
                "coordinates": [
                    20.73982,
                    52.12364
                ]
            },
            "properties": {
                "ref:rspo": 25299,
                "official_name": "Niepubliczne Przedszkole \" Na Akacjowej\"",
                "name": "Niepubliczne Przedszkole \" Na Akacjowej\"",
                "addr:country": "PL",
                "addr:postcode": "05-807",
                "addr:city": "Podkowa Le\u015bna",
                "addr:street": "Akacjowa",
                "addr:housenumber": "8",
                "addr:teryt:simc": 157,
                "addr:teryt:sym_ul": 921504,
                "contact:phone": "+48 607070797",
                "contact:email": "katarzyna.marszewska@gmail.com",
                "contact:website": "http:\/\/przedszkolenaakacjowej.pl",
                "ref:regon": "146334009",
                "ref:vatin": "PL5341296808",
                "operator": "Katarzyna Marszewska",
                "operator:type": "private",
                "amenity": "kindergarten"
            }
        },
        {
            "id": 25302,
            "type": "Feature",
            "geometry": {
                "type": "Point",
                "coordinates": [
                    20.72737,
                    52.12383
                ]
            },
            "properties": {
                "ref:rspo": 25302,
                "official_name": "Przedszkole Miejskie im.krasnala Ha\u0142aba\u0142y",
                "name": "Przedszkole Miejskie im.krasnala Ha\u0142aba\u0142y",
                "addr:country": "PL",
                "addr:postcode": "05-807",
                "addr:city": "Podkowa Le\u015bna",
                "addr:street": "Miejska",
                "addr:housenumber": "7",
                "addr:teryt:simc": 12772,
                "addr:teryt:sym_ul": 921504,
                "contact:phone": "+48 227589546",
                "contact:email": "przedszkole@podkowalesna.edu.pl",
                "contact:website": "http:\/\/przedszkole.podkowalesna.edu.pl",
                "ref:regon": "013003617",
                "operator": "Miasto Podkowa Le\u015bna",
                "operator:type": "government",
                "amenity": "kindergarten"
            }
        },
        {
            "id": 64788,
            "type": "Feature",
            "geometry": {
                "type": "Point",
                "coordinates": [
                    20.7419258,
                    52.124372
                ]
            },
            "properties": {
                "isced:level": "3",
                "ref:rspo": 64788,
                "official_name": "Podkowia\u0144skie Liceum Og\u00f3lnokszta\u0142c\u0105ce Nr 60",
                "name": "Podkowia\u0144skie Liceum Og\u00f3lnokszta\u0142c\u0105ce Nr 60",
                "addr:country": "PL",
                "addr:postcode": "05-807",
                "addr:city": "Podkowa Le\u015bna",
                "addr:street": "Wiewi\u00f3rek",
                "addr:housenumber": "2",
                "addr:door": "4",
                "addr:teryt:simc": 24209,
                "addr:teryt:sym_ul": 921504,
                "contact:phone": "+48 227291080",
                "contact:email": "plo60@wiewiory.edu.pl",
                "ref:regon": "146433237",
                "operator": "Towarzystwo Przyjaci\u00f3\u0142 Liceum Podkowia\u0144skiego",
                "operator:type": "ngo",
                "amenity": "school"
            }
        },
        {
            "id": 263313,
            "type": "Feature",
            "geometry": {
                "type": "Point",
                "coordinates": [
                    20.72368,
                    52.12445
                ]
            },
            "properties": {
                "ref:rspo": 263313,
                "official_name": "Niepubliczne Przedszkole Ekologiczno-Sportowe \"Moje Przedszkole\"",
                "name": "Niepubliczne Przedszkole Ekologiczno-Sportowe \"Moje Przedszkole\"",
                "addr:country": "PL",
                "addr:postcode": "05-807",
                "addr:city": "Podkowa Le\u015bna",
                "addr:street": "Brwinowska",
                "addr:housenumber": "10",
                "addr:teryt:simc": 2195,
                "addr:teryt:sym_ul": 921504,
                "contact:email": "sekretariat@mprzedszkole.edu.pl",
                "ref:regon": "368180050",
                "operator": "Moje Przedszkole Sp\u00f3\u0142ka Z Ograniczon\u0105 Odpowiedzialno\u015bci\u0105",
                "operator:type": "private",
                "amenity": "kindergarten"
            }
        },
        {
            "id": 127760,
            "type": "Feature",
            "geometry": {
                "type": "Point",
                "coordinates": [
                    20.73783,
                    52.12646
                ]
            },
            "properties": {
                "ref:rspo": 127760,
                "official_name": "Montessoria\u0144scy Odkrywcy",
                "name": "Montessoria\u0144scy Odkrywcy",
                "addr:country": "PL",
                "addr:postcode": "05-807",
                "addr:city": "Podkowa Le\u015bna",
                "addr:street": "Borsucza",
                "addr:housenumber": "17",
                "addr:teryt:simc": 1876,
                "addr:teryt:sym_ul": 921504,
                "contact:phone": "+48 606129930",
                "contact:email": "ania.szyszka@me.com",
                "ref:regon": "361836687",
                "operator": "Anna Szyszka",
                "operator:type": "private",
                "amenity": "kindergarten"
            }
        }
    ]
}