{
    "type": "FeatureCollection",
    "features": [
        {
            "id": 64781,
            "type": "Feature",
            "geometry": {
                "type": "Point",
                "coordinates": [
                    20.55001,
                    52.05422
                ]
            },
            "properties": {
                "ref:rspo": 64781,
                "official_name": "Europejskie Studium Przygotowania Zawodowego I Wiedzy Praktycznej",
                "name": "Europejskie Studium Przygotowania Zawodowego I Wiedzy Praktycznej",
                "addr:country": "PL",
                "addr:postcode": "96-316",
                "addr:place": "Budy Micha\u0142owskie",
                "addr:housenumber": "50",
                "addr:teryt:simc": 728434,
                "contact:phone": "+48 502284397",
                "contact:email": "espz@tlen.pl",
                "contact:website": "http:\/\/www.espz.pl",
                "ref:regon": "146433616",
                "operator": "Centrum Wiedzy Praktycznej",
                "operator:type": "ngo",
                "fixme": "w zale\u017cno\u015bci od przedmiotu dzia\u0142alno\u015bci (np. amenity=training + training=*, amenity=dancing_school, amenity=language_school, amenity=music_school)"
            }
        },
        {
            "id": 8887,
            "type": "Feature",
            "geometry": {
                "type": "Point",
                "coordinates": [
                    20.48451,
                    52.05486
                ]
            },
            "properties": {
                "ref:rspo": 8887,
                "official_name": "Zesp\u00f3\u0142 Szk\u00f3\u0142 Publicznych w Mi\u0119dzyborowie",
                "name": "Zesp\u00f3\u0142 Szk\u00f3\u0142 Publicznych w Mi\u0119dzyborowie",
                "addr:country": "PL",
                "addr:postcode": "96-316",
                "addr:city": "Mi\u0119dzybor\u00f3w",
                "addr:street": "Stanis\u0142awa Staszica",
                "addr:housenumber": "5",
                "addr:teryt:simc": 728569,
                "addr:teryt:sym_ul": 21065,
                "contact:phone": "+48 468552718",
                "contact:email": "zsp@szkola.miedzyborow.pl",
                "ref:regon": "016319960",
                "ref:vatin": "PL5291613772",
                "operator": "Gmina Jaktor\u00f3w",
                "operator:type": "government",
                "landuse": "education",
                "fixme": "amenity=school, amenity=college albo landuse=education w zale\u017cno\u015bci od tego, jakie plac\u00f3wki wchodz\u0105 w sk\u0142ad zespo\u0142u. Sprawd\u017a, kiedy stosowa\u0107 amenity=* a kiedy landuse=education.",
                "note": "Children RSPO: 11128;42112"
            }
        },
        {
            "id": 11128,
            "type": "Feature",
            "geometry": {
                "type": "Point",
                "coordinates": [
                    20.48451,
                    52.054829999999995
                ]
            },
            "properties": {
                "ref:rspo": 11128,
                "official_name": "Przedszkole w Zespole Szk\u00f3\u0142 Publicznych w Mi\u0119dzyborowie",
                "name": "Przedszkole w Zespole Szk\u00f3\u0142 Publicznych w Mi\u0119dzyborowie",
                "addr:country": "PL",
                "addr:postcode": "96-316",
                "addr:city": "Mi\u0119dzybor\u00f3w",
                "addr:street": "Stanis\u0142awa Staszica",
                "addr:housenumber": "5",
                "addr:teryt:simc": 728569,
                "addr:teryt:sym_ul": 21065,
                "contact:phone": "+48 468552718",
                "contact:email": "przedszkole@szkola.miedzyborow.pl",
                "ref:regon": "146285044",
                "operator": "Gmina Jaktor\u00f3w",
                "operator:type": "government",
                "amenity": "kindergarten",
                "note": "Parent RSPO: 8887"
            }
        },
        {
            "id": 42112,
            "type": "Feature",
            "geometry": {
                "type": "Point",
                "coordinates": [
                    20.48451,
                    52.0548
                ]
            },
            "properties": {
                "isced:level": "1;2",
                "ref:rspo": 42112,
                "official_name": "Szko\u0142a Podstawowa im. J\u00f3zefa Jagielskiego w Mi\u0119dzyborowie",
                "name": "Szko\u0142a Podstawowa",
                "addr:country": "PL",
                "addr:postcode": "96-316",
                "addr:city": "Mi\u0119dzybor\u00f3w",
                "addr:street": "Stanis\u0142awa Staszica",
                "addr:housenumber": "5",
                "addr:teryt:simc": 728569,
                "addr:teryt:sym_ul": 21065,
                "contact:phone": "+48 468552718",
                "contact:email": "zsp@szkola.miedzyborow.pl",
                "ref:regon": "001112528",
                "operator": "Gmina Jaktor\u00f3w",
                "operator:type": "government",
                "amenity": "school",
                "note": "Parent RSPO: 8887"
            }
        },
        {
            "id": 11250,
            "type": "Feature",
            "geometry": {
                "type": "Point",
                "coordinates": [
                    20.48496,
                    52.06267
                ]
            },
            "properties": {
                "ref:rspo": 11250,
                "official_name": "Przedszkole Artystyczno-Sportowe \"Ba\u015bniowy Ogr\u00f3d\"",
                "name": "Przedszkole Artystyczno-Sportowe \"Ba\u015bniowy Ogr\u00f3d\"",
                "addr:country": "PL",
                "addr:postcode": "96-316",
                "addr:city": "Mi\u0119dzybor\u00f3w",
                "addr:street": "Jana Matejki",
                "addr:housenumber": "6b",
                "addr:teryt:simc": 728569,
                "addr:teryt:sym_ul": 12485,
                "contact:phone": "+48 693543433",
                "contact:email": "info@basniowyogrod.edu.pl",
                "contact:website": "http:\/\/www.basniowyogrod.edu.pl",
                "ref:regon": "146288597",
                "operator": "B\u0142a\u017cej Ogrodowski",
                "operator:type": "private",
                "amenity": "kindergarten"
            }
        },
        {
            "id": 270331,
            "type": "Feature",
            "geometry": {
                "type": "Point",
                "coordinates": [
                    20.47605,
                    52.07634
                ]
            },
            "properties": {
                "ref:rspo": 270331,
                "official_name": "Niepubliczne Przedszkole Zielony Ogr\u00f3dek",
                "name": "Niepubliczne Przedszkole Zielony Ogr\u00f3dek",
                "addr:country": "PL",
                "addr:postcode": "96-316",
                "addr:place": "Henryszew",
                "addr:housenumber": "15",
                "addr:teryt:simc": 728517,
                "contact:phone": "+48 535008657",
                "contact:email": "kkzbrzezni1@tlen.pl",
                "contact:website": "http:\/\/www.domoweprzedszkole.info.pl",
                "ref:regon": "382393160",
                "operator": "Katarzyna Zbrze\u017ana",
                "operator:type": "private",
                "amenity": "kindergarten"
            }
        },
        {
            "id": 9035,
            "type": "Feature",
            "geometry": {
                "type": "Point",
                "coordinates": [
                    20.56014,
                    52.08828
                ]
            },
            "properties": {
                "ref:rspo": 9035,
                "official_name": "Zesp\u00f3\u0142 Szkolno-Przedszkolny w Jaktorowie",
                "name": "Zesp\u00f3\u0142 Szkolno-Przedszkolny w Jaktorowie",
                "addr:country": "PL",
                "addr:postcode": "96-313",
                "addr:city": "Jaktor\u00f3w",
                "addr:street": "Warszawska",
                "addr:housenumber": "88",
                "addr:teryt:simc": 728523,
                "addr:teryt:sym_ul": 23682,
                "contact:phone": "+48 468552416",
                "contact:email": "zsp@zspjaktorow.pl",
                "contact:website": "http:\/\/zspjaktorow.pl",
                "ref:regon": "015797308",
                "ref:vatin": "PL5291692004",
                "operator": "Gmina Jaktor\u00f3w",
                "operator:type": "government",
                "landuse": "education",
                "fixme": "amenity=school, amenity=college albo landuse=education w zale\u017cno\u015bci od tego, jakie plac\u00f3wki wchodz\u0105 w sk\u0142ad zespo\u0142u. Sprawd\u017a, kiedy stosowa\u0107 amenity=* a kiedy landuse=education.",
                "note": "Children RSPO: 42111;109028"
            }
        },
        {
            "id": 42111,
            "type": "Feature",
            "geometry": {
                "type": "Point",
                "coordinates": [
                    20.56014,
                    52.088249999999995
                ]
            },
            "properties": {
                "isced:level": "1;2",
                "ref:rspo": 42111,
                "official_name": "Szko\u0142a Podstawowa im. Stefanii Cyga\u0144skiej w Jaktorowie",
                "name": "Szko\u0142a Podstawowa",
                "addr:country": "PL",
                "addr:postcode": "96-313",
                "addr:city": "Jaktor\u00f3w",
                "addr:street": "Warszawska",
                "addr:housenumber": "88",
                "addr:teryt:simc": 728523,
                "addr:teryt:sym_ul": 23682,
                "contact:phone": "+48 468552416",
                "contact:email": "zsp@zspjaktorow.pl",
                "ref:regon": "000268300",
                "operator": "Gmina Jaktor\u00f3w",
                "operator:type": "government",
                "amenity": "school",
                "note": "Parent RSPO: 9035"
            }
        },
        {
            "id": 109028,
            "type": "Feature",
            "geometry": {
                "type": "Point",
                "coordinates": [
                    20.56014,
                    52.08822
                ]
            },
            "properties": {
                "ref:rspo": 109028,
                "official_name": "Przedszkole Gminne im. Radosnych Maluszk\u00f3w w Zespole Szkolno-Przedszkolnym w Jaktorowie",
                "name": "Przedszkole Gminne",
                "addr:country": "PL",
                "addr:postcode": "96-313",
                "addr:city": "Jaktor\u00f3w",
                "addr:street": "Warszawska",
                "addr:housenumber": "88",
                "addr:teryt:simc": 728523,
                "addr:teryt:sym_ul": 23682,
                "contact:phone": "+48 468552416",
                "contact:email": "zsp@zspjaktorow.pl",
                "ref:regon": "141054162",
                "operator": "Gmina Jaktor\u00f3w",
                "operator:type": "government",
                "amenity": "kindergarten",
                "note": "Parent RSPO: 9035"
            }
        },
        {
            "id": 11231,
            "type": "Feature",
            "geometry": {
                "type": "Point",
                "coordinates": [
                    20.54378,
                    52.09414
                ]
            },
            "properties": {
                "ref:rspo": 11231,
                "official_name": "Przedszkole Puchatek",
                "name": "Przedszkole Puchatek",
                "addr:country": "PL",
                "addr:postcode": "96-313",
                "addr:city": "Jaktor\u00f3w",
                "addr:street": "B\u0142otna",
                "addr:housenumber": "87c",
                "addr:teryt:simc": 728523,
                "addr:teryt:sym_ul": 1473,
                "contact:phone": "+48 468565064",
                "contact:email": "kontakt@przedszkole-puchatek.pl",
                "contact:website": "http:\/\/www.przedszkole-puchatek.pl",
                "ref:regon": "146289013",
                "operator": "Tomasz Izbicki",
                "operator:type": "private",
                "amenity": "kindergarten"
            }
        }
    ]
}