{
    "type": "FeatureCollection",
    "features": [
        {
            "id": 84915,
            "type": "Feature",
            "geometry": {
                "type": "Point",
                "coordinates": [
                    15.8477,
                    50.7838
                ]
            },
            "properties": {
                "ref:rspo": 84915,
                "official_name": "Prywatne Przedszkole \"Krokodyl Schnappi\"",
                "name": "Prywatne Przedszkole \"Krokodyl Schnappi\"",
                "addr:country": "PL",
                "addr:postcode": "58-530",
                "addr:city": "Kowary",
                "addr:street": "ul. Wiejska",
                "addr:housenumber": "3",
                "addr:teryt:simc": 24048,
                "addr:teryt:sym_ul": 936078,
                "contact:phone": "+48 757613601",
                "contact:email": "prywatneprzedszkolekowary@op.pl",
                "contact:website": "http:\/\/www.prywatneprzedszkolekowary.pl",
                "ref:regon": "022009685",
                "operator": "Ewa Solarz",
                "operator:type": "private",
                "amenity": "kindergarten"
            }
        },
        {
            "id": 132727,
            "type": "Feature",
            "geometry": {
                "type": "Point",
                "coordinates": [
                    15.83446,
                    50.78998
                ]
            },
            "properties": {
                "ref:rspo": 132727,
                "official_name": "Zesp\u00f3\u0142 Szk\u00f3\u0142 Og\u00f3lnokszta\u0142c\u0105cych w Kowarach",
                "name": "Zesp\u00f3\u0142 Szk\u00f3\u0142 Og\u00f3lnokszta\u0142c\u0105cych w Kowarach",
                "addr:country": "PL",
                "addr:postcode": "58-530",
                "addr:city": "Kowary",
                "addr:street": "ul. Szkolna",
                "addr:housenumber": "1",
                "addr:teryt:simc": 21970,
                "addr:teryt:sym_ul": 936078,
                "contact:phone": "+48 757182111",
                "contact:email": "sekretariat@zso-kowary.pl",
                "contact:website": "http:\/\/www.zso-kowary.pl",
                "ref:regon": "366128529",
                "operator": "Gmina Miejska Kowary",
                "operator:type": "government",
                "landuse": "education",
                "fixme": "amenity=school, amenity=college albo landuse=education w zale\u017cno\u015bci od tego, jakie plac\u00f3wki wchodz\u0105 w sk\u0142ad zespo\u0142u. Sprawd\u017a, kiedy stosowa\u0107 amenity=* a kiedy landuse=education.",
                "note": "Children RSPO: 73067;263259"
            }
        },
        {
            "id": 73067,
            "type": "Feature",
            "geometry": {
                "type": "Point",
                "coordinates": [
                    15.83446,
                    50.78995
                ]
            },
            "properties": {
                "isced:level": "3",
                "ref:rspo": 73067,
                "official_name": "Liceum Og\u00f3lnokszta\u0142c\u0105ce w Kowarach",
                "name": "Liceum Og\u00f3lnokszta\u0142c\u0105ce w Kowarach",
                "addr:country": "PL",
                "addr:postcode": "58-530",
                "addr:city": "Kowary",
                "addr:street": "ul. Szkolna",
                "addr:housenumber": "1",
                "addr:teryt:simc": 21970,
                "addr:teryt:sym_ul": 936078,
                "contact:phone": "+48 757182111",
                "contact:email": "sekretariat@zso-kowary.pl",
                "contact:website": "http:\/\/lem.zso-kowary.pl",
                "ref:regon": "231179721",
                "operator": "Gmina Miejska Kowary",
                "operator:type": "government",
                "amenity": "school",
                "note": "Parent RSPO: 132727"
            }
        },
        {
            "id": 263259,
            "type": "Feature",
            "geometry": {
                "type": "Point",
                "coordinates": [
                    15.83446,
                    50.78992
                ]
            },
            "properties": {
                "isced:level": "3",
                "ref:rspo": 263259,
                "official_name": "Bran\u017cowa Szko\u0142a I Stopnia w Kowarach",
                "name": "Bran\u017cowa Szko\u0142a I Stopnia w Kowarach",
                "addr:country": "PL",
                "addr:postcode": "58-530",
                "addr:city": "Kowary",
                "addr:street": "ul. Szkolna",
                "addr:housenumber": "1",
                "addr:teryt:simc": 21970,
                "addr:teryt:sym_ul": 936078,
                "contact:phone": "+48 757182111",
                "contact:email": "sekretariat@zso-kowary.pl",
                "contact:website": "http:\/\/lem.zso-kowary.pl",
                "ref:regon": "368177992",
                "operator": "Gmina Miejska Kowary",
                "operator:type": "government",
                "amenity": "school",
                "note": "Parent RSPO: 132727"
            }
        },
        {
            "id": 84374,
            "type": "Feature",
            "geometry": {
                "type": "Point",
                "coordinates": [
                    15.83181,
                    50.79317
                ]
            },
            "properties": {
                "ref:rspo": 84374,
                "official_name": "Przedszkole Publiczne Nr 1 w Kowarach",
                "name": "Przedszkole Publiczne Nr 1 w Kowarach",
                "addr:country": "PL",
                "addr:postcode": "58-530",
                "addr:city": "Kowary",
                "addr:street": "ul. Henryka Sienkiewicza",
                "addr:housenumber": "9",
                "addr:teryt:simc": 19834,
                "addr:teryt:sym_ul": 936078,
                "contact:phone": "+48 757182624",
                "contact:email": "sekretariat@przedszkole1-kowary.pl",
                "contact:website": "http:\/\/www.przedszkole1kowary.szkolnastrona.pl",
                "ref:regon": "020899410",
                "operator": "Gmina Miejska Kowary",
                "operator:type": "government",
                "amenity": "kindergarten"
            }
        },
        {
            "id": 84372,
            "type": "Feature",
            "geometry": {
                "type": "Point",
                "coordinates": [
                    15.83513,
                    50.79421
                ]
            },
            "properties": {
                "isced:level": "1;2",
                "ref:rspo": 84372,
                "official_name": "Szko\u0142a Podstawowa Nr 1 w Kowarach",
                "name": "Szko\u0142a Podstawowa Nr 1 w Kowarach",
                "addr:country": "PL",
                "addr:postcode": "58-530",
                "addr:city": "Kowary",
                "addr:street": "ul. Stanis\u0142awa Staszica",
                "addr:housenumber": "16",
                "addr:teryt:simc": 21071,
                "addr:teryt:sym_ul": 936078,
                "contact:phone": "+48 757182391",
                "ref:regon": "000710948",
                "operator": "Gmina Miejska Kowary",
                "operator:type": "government",
                "amenity": "school"
            }
        },
        {
            "id": 84373,
            "type": "Feature",
            "geometry": {
                "type": "Point",
                "coordinates": [
                    15.83098,
                    50.79629
                ]
            },
            "properties": {
                "isced:level": "1;2",
                "ref:rspo": 84373,
                "official_name": "Szko\u0142a Podstawowa Nr 3 im. J\u00f3zefa Gielniaka w Kowarach",
                "name": "Szko\u0142a Podstawowa Nr 3",
                "addr:country": "PL",
                "addr:postcode": "58-530",
                "addr:city": "Kowary",
                "addr:street": "ul. 1 Maja",
                "addr:housenumber": "72",
                "addr:teryt:simc": 11926,
                "addr:teryt:sym_ul": 936078,
                "contact:phone": "+48 757182142",
                "contact:email": "sekretariat@sp3-kowary.pl",
                "contact:website": "http:\/\/www.sp3-kowary.pl",
                "ref:regon": "000710960",
                "operator": "Gmina Miejska Kowary",
                "operator:type": "government",
                "amenity": "school"
            }
        },
        {
            "id": 32061,
            "type": "Feature",
            "geometry": {
                "type": "Point",
                "coordinates": [
                    15.82893,
                    50.80094
                ]
            },
            "properties": {
                "ref:rspo": 32061,
                "official_name": "Publiczna Poradnia Psychologiczno - Pedagogiczna w Kowarach",
                "name": "Publiczna Poradnia Psychologiczno - Pedagogiczna w Kowarach",
                "addr:country": "PL",
                "addr:postcode": "58-530",
                "addr:city": "Kowary",
                "addr:street": "ul. Zamkowa",
                "addr:housenumber": "5",
                "addr:teryt:simc": 25547,
                "addr:teryt:sym_ul": 936078,
                "contact:phone": "+48 757182572",
                "contact:email": "poradniakowary@wp.pl",
                "contact:website": "http:\/\/www.poradnia-kowary.pl",
                "ref:regon": "230919825",
                "ref:vatin": "PL6112331165",
                "operator": "Powiat Karkonoski",
                "operator:type": "government",
                "healthcare": "counselling",
                "counselling_type": "education",
                "fixme": "w zale\u017cno\u015bci od przedmiotu dzia\u0142alno\u015bci (np. healthcare=counselling + counselling_type=education albo healthcare=psychotherapist)"
            }
        }
    ]
}