{
    "type": "FeatureCollection",
    "features": [
        {
            "id": 58157,
            "type": "Feature",
            "geometry": {
                "type": "Point",
                "coordinates": [
                    15.74503,
                    50.77174
                ]
            },
            "properties": {
                "ref:rspo": 58157,
                "official_name": "Dolno\u015bL\u0105ski Zesp\u00f3\u0142 Szk\u00f3\u0142 w Karpaczu",
                "name": "Dolno\u015bL\u0105ski Zesp\u00f3\u0142 Szk\u00f3\u0142 w Karpaczu",
                "addr:country": "PL",
                "addr:postcode": "58-540",
                "addr:city": "Karpacz",
                "addr:street": "ul. Gimnazjalna",
                "addr:housenumber": "7",
                "addr:teryt:simc": 5527,
                "addr:teryt:sym_ul": 936032,
                "contact:phone": "+48 757619816",
                "contact:email": "sekretariat@dzs.karpacz.pl",
                "ref:regon": "000209562",
                "operator": "Wojew\u00f3dztwo Dolno\u015bl\u0105skie",
                "operator:type": "government",
                "landuse": "education",
                "fixme": "amenity=school, amenity=college albo landuse=education w zale\u017cno\u015bci od tego, jakie plac\u00f3wki wchodz\u0105 w sk\u0142ad zespo\u0142u. Sprawd\u017a, kiedy stosowa\u0107 amenity=* a kiedy landuse=education.",
                "note": "Children RSPO: 68318;68319;68320;272767"
            }
        },
        {
            "id": 68318,
            "type": "Feature",
            "geometry": {
                "type": "Point",
                "coordinates": [
                    15.74503,
                    50.77171
                ]
            },
            "properties": {
                "isced:level": "3",
                "ref:rspo": 68318,
                "official_name": "Liceum Og\u00f3lnokszta\u0142c\u0105ce Szko\u0142a Mistrzostwa Sportowego w Karpaczu",
                "name": "Liceum Og\u00f3lnokszta\u0142c\u0105ce Szko\u0142a Mistrzostwa Sportowego w Karpaczu",
                "addr:country": "PL",
                "addr:postcode": "58-540",
                "addr:city": "Karpacz",
                "addr:street": "ul. Gimnazjalna",
                "addr:housenumber": "7",
                "addr:teryt:simc": 5527,
                "addr:teryt:sym_ul": 936032,
                "contact:phone": "+48 757619816",
                "contact:email": "sekretariat@dzs.karpacz.pl",
                "ref:regon": "231180807",
                "operator": "Wojew\u00f3dztwo Dolno\u015bl\u0105skie",
                "operator:type": "government",
                "amenity": "school",
                "note": "Parent RSPO: 58157"
            }
        },
        {
            "id": 68319,
            "type": "Feature",
            "geometry": {
                "type": "Point",
                "coordinates": [
                    15.74503,
                    50.77168
                ]
            },
            "properties": {
                "isced:level": "3",
                "ref:rspo": 68319,
                "official_name": "Technikum-Szko\u0142a Mistrzostwa Sportowego w Karpaczu",
                "name": "Technikum-Szko\u0142a Mistrzostwa Sportowego w Karpaczu",
                "addr:country": "PL",
                "addr:postcode": "58-540",
                "addr:city": "Karpacz",
                "addr:street": "ul. Gimnazjalna",
                "addr:housenumber": "7",
                "addr:teryt:simc": 5527,
                "addr:teryt:sym_ul": 936032,
                "contact:phone": "+48 757619816",
                "contact:email": "sekretariat@dzs.karpacz.pl",
                "ref:regon": "020335015",
                "operator": "Wojew\u00f3dztwo Dolno\u015bl\u0105skie",
                "operator:type": "government",
                "amenity": "school",
                "note": "Parent RSPO: 58157"
            }
        },
        {
            "id": 68320,
            "type": "Feature",
            "geometry": {
                "type": "Point",
                "coordinates": [
                    15.74503,
                    50.77165
                ]
            },
            "properties": {
                "isced:level": "3",
                "ref:rspo": 68320,
                "official_name": "Bran\u017cowa Szko\u0142a I Stopnia w Karpaczu",
                "name": "Bran\u017cowa Szko\u0142a I Stopnia w Karpaczu",
                "addr:country": "PL",
                "addr:postcode": "58-540",
                "addr:city": "Karpacz",
                "addr:street": "ul. Gimnazjalna",
                "addr:housenumber": "7",
                "addr:teryt:simc": 5527,
                "addr:teryt:sym_ul": 936032,
                "contact:phone": "+48 757619816",
                "contact:email": "sekretariat@dzs.karpacz.pl",
                "ref:regon": "021998551",
                "operator": "Wojew\u00f3dztwo Dolno\u015bl\u0105skie",
                "operator:type": "government",
                "amenity": "school",
                "note": "Parent RSPO: 58157"
            }
        },
        {
            "id": 272767,
            "type": "Feature",
            "geometry": {
                "type": "Point",
                "coordinates": [
                    15.74503,
                    50.77162
                ]
            },
            "properties": {
                "isced:level": "4",
                "ref:rspo": 272767,
                "official_name": "Szko\u0142a Policealna w Karpaczu",
                "name": "Szko\u0142a Policealna w Karpaczu",
                "addr:country": "PL",
                "addr:postcode": "58-540",
                "addr:city": "Karpacz",
                "addr:street": "ul. Gimnazjalna",
                "addr:housenumber": "7",
                "addr:teryt:simc": 5527,
                "addr:teryt:sym_ul": 936032,
                "contact:phone": "+48 757619816",
                "contact:email": "sekretariat@zsp.karpacz.pl",
                "ref:regon": "384290374",
                "operator": "Wojew\u00f3dztwo Dolno\u015bl\u0105skie",
                "operator:type": "government",
                "amenity": "college",
                "note": "Parent RSPO: 58157"
            }
        },
        {
            "id": 81110,
            "type": "Feature",
            "geometry": {
                "type": "Point",
                "coordinates": [
                    15.7466,
                    50.77266
                ]
            },
            "properties": {
                "ref:rspo": 81110,
                "official_name": "Przedszkole Niepubliczne w Karpaczu",
                "name": "Przedszkole Niepubliczne w Karpaczu",
                "addr:country": "PL",
                "addr:postcode": "58-540",
                "addr:city": "Karpacz",
                "addr:street": "ul. Stefana Okrzei",
                "addr:housenumber": "3",
                "addr:teryt:simc": 14914,
                "addr:teryt:sym_ul": 936032,
                "contact:phone": "+48 757619871",
                "contact:email": "przedszkole2_karpacz@wp.pl",
                "contact:website": "http:\/\/www.przedszkole.karpacz.pl",
                "ref:regon": "022008562",
                "ref:vatin": "PL6111521751",
                "operator": "Ewa Walczak",
                "operator:type": "private",
                "amenity": "kindergarten"
            }
        },
        {
            "id": 68561,
            "type": "Feature",
            "geometry": {
                "type": "Point",
                "coordinates": [
                    15.7558,
                    50.77562
                ]
            },
            "properties": {
                "isced:level": "1;2",
                "ref:rspo": 68561,
                "official_name": "Szko\u0142a Podstawowa im. Ratownik\u00f3w G\u00f3rskich w Karpaczu",
                "name": "Szko\u0142a Podstawowa",
                "addr:country": "PL",
                "addr:postcode": "58-540",
                "addr:city": "Karpacz",
                "addr:street": "ul. Konstytucji 3 Maja",
                "addr:housenumber": "48a",
                "addr:teryt:simc": 9213,
                "addr:teryt:sym_ul": 936032,
                "contact:phone": "+48 757619430",
                "contact:email": "sekretariat@sp.karpacz.eu",
                "contact:website": "http:\/\/www.sp.karpacz.eu",
                "ref:regon": "000711267",
                "ref:vatin": "PL6112731344",
                "operator": "Gmina Karpacz",
                "operator:type": "government",
                "amenity": "school"
            }
        },
        {
            "id": 68562,
            "type": "Feature",
            "geometry": {
                "type": "Point",
                "coordinates": [
                    15.760250091553,
                    50.776321411133
                ]
            },
            "properties": {
                "ref:rspo": 68562,
                "official_name": "Przedszkole w Karpaczu",
                "name": "Przedszkole w Karpaczu",
                "addr:country": "PL",
                "addr:postcode": "58-540",
                "addr:city": "Karpacz",
                "addr:street": "ul. Skrzat\u00f3w Karkonoskich",
                "addr:housenumber": "1",
                "addr:teryt:simc": 40690,
                "addr:teryt:sym_ul": 936032,
                "contact:phone": "+48 757619411",
                "contact:email": "przedszkole.karpacz@poczta.onet.pl",
                "contact:website": "http:\/\/www.karpacz.pl",
                "ref:regon": "001068796",
                "ref:vatin": "PL6112320983",
                "operator": "Gmina Karpacz",
                "operator:type": "government",
                "amenity": "kindergarten"
            }
        },
        {
            "id": 74100,
            "type": "Feature",
            "geometry": {
                "type": "Point",
                "coordinates": [
                    15.739,
                    50.78009
                ]
            },
            "properties": {
                "isced:level": "1;2",
                "ref:rspo": 74100,
                "official_name": "Niepubliczna Szko\u0142a Podstawowa Specjalna w Centrum Medycznym Karpacz S.a.",
                "name": "Niepubliczna Szko\u0142a Podstawowa Specjalna w Centrum Medycznym Karpacz S.a.",
                "addr:country": "PL",
                "addr:postcode": "58-540",
                "addr:city": "Karpacz",
                "addr:street": "ul. My\u015bliwska",
                "addr:housenumber": "15C",
                "addr:teryt:simc": 13563,
                "addr:teryt:sym_ul": 936032,
                "contact:phone": "+48 883358147",
                "contact:email": "szkola@cmkarpacz.pl",
                "ref:regon": "022007249",
                "ref:vatin": "PL6112426842",
                "operator": "Centrum Medyczne Karpacz Sp\u00f3\u0142ka Akcyjna",
                "operator:type": "private",
                "amenity": "school"
            }
        },
        {
            "id": 68549,
            "type": "Feature",
            "geometry": {
                "type": "Point",
                "coordinates": [
                    15.7378,
                    50.78047
                ]
            },
            "properties": {
                "isced:level": "1;2",
                "ref:rspo": 68549,
                "official_name": "Niepubliczna Szko\u0142a Podstawowa w Karpaczu, Szko\u0142a 707",
                "name": "Niepubliczna Szko\u0142a Podstawowa w Karpaczu, Szko\u0142a 707",
                "addr:country": "PL",
                "addr:postcode": "58-540",
                "addr:city": "Karpacz",
                "addr:street": "ul. My\u015bliwska",
                "addr:housenumber": "15",
                "addr:door": "c",
                "addr:teryt:simc": 13563,
                "addr:teryt:sym_ul": 936032,
                "contact:phone": "+48 883358140",
                "contact:email": "sekretariat@szkola707.pl",
                "contact:website": "http:\/\/www.szkola707.pl",
                "ref:regon": "022003062",
                "ref:vatin": "PL6112426842",
                "operator": "Centrum Medyczne Karpacz Sp\u00f3\u0142ka Akcyjna",
                "operator:type": "private",
                "amenity": "school"
            }
        },
        {
            "id": 127556,
            "type": "Feature",
            "geometry": {
                "type": "Point",
                "coordinates": [
                    15.72477,
                    50.78065
                ]
            },
            "properties": {
                "ref:rspo": 127556,
                "official_name": "Dom Wczas\u00f3w Dzieci\u0119cych Architekton w Karpaczu",
                "name": "Dom Wczas\u00f3w Dzieci\u0119cych Architekton w Karpaczu",
                "addr:country": "PL",
                "addr:postcode": "58-540",
                "addr:city": "Karpacz",
                "addr:street": "ul. Karkonoska",
                "addr:housenumber": "44",
                "addr:teryt:simc": 8042,
                "addr:teryt:sym_ul": 936032,
                "contact:phone": "+48 602497946",
                "contact:email": "dwarchitekton@interia.pl",
                "contact:website": "http:\/\/www.architektonkarpacz.pl",
                "ref:regon": "361701450",
                "operator": "Izabela \u017belasko Architekton",
                "operator:type": "consortium",
                "leisure": "resort"
            }
        },
        {
            "id": 132532,
            "type": "Feature",
            "geometry": {
                "type": "Point",
                "coordinates": [
                    15.75965,
                    50.78288
                ]
            },
            "properties": {
                "ref:rspo": 132532,
                "official_name": "Niepubliczna Plac\u00f3wka O\u015bwiatowo-Wychowawcza Efc Karolina Frankowska",
                "name": "Niepubliczna Plac\u00f3wka O\u015bwiatowo-Wychowawcza Efc Karolina Frankowska",
                "addr:country": "PL",
                "addr:postcode": "58-540",
                "addr:city": "Karpacz",
                "addr:street": "ul. Kolejowa",
                "addr:housenumber": "10",
                "addr:door": "2",
                "addr:teryt:simc": 8828,
                "addr:teryt:sym_ul": 936032,
                "contact:phone": "+48 793608971",
                "ref:regon": "365727423",
                "ref:vatin": "PL6112541974",
                "operator": "Karolina Frankowska",
                "operator:type": "private",
                "fixme": "w zale\u017cno\u015bci od przedmiotu dzia\u0142alno\u015bci (np. amenity=training + training=*, amenity=dancing_school, amenity=language_school, amenity=music_school)"
            }
        }
    ]
}