{
    "type": "FeatureCollection",
    "features": [
        {
            "id": 88998,
            "type": "Feature",
            "geometry": {
                "type": "Point",
                "coordinates": [
                    15.80987,
                    50.81621
                ]
            },
            "properties": {
                "isced:level": "1;2",
                "ref:rspo": 88998,
                "official_name": "Szko\u0142a Podstawowa im. Gen. W\u0142. Sikorskiego w Kostrzycy",
                "name": "Szko\u0142a Podstawowa",
                "addr:postcode": "58-533",
                "addr:city": "Kostrzyca",
                "addr:street": "Jeleniog\u00f3rska",
                "addr:housenumber": "37",
                "addr:teryt:simc": 191419,
                "addr:teryt:sym_ul": 7459,
                "phone": "+48 757183307",
                "email": "dyrekcjaspkostrzyca@wp.pl",
                "ref:regon": "001180033",
                "ref:vatin": "PL6111767506",
                "operator": "Gmina Mys\u0142akowice",
                "operator:type": "government",
                "amenity": "school"
            }
        },
        {
            "id": 123813,
            "type": "Feature",
            "geometry": {
                "type": "Point",
                "coordinates": [
                    15.82242,
                    50.8253
                ]
            },
            "properties": {
                "ref:rspo": 123813,
                "official_name": "Szkolne Schronisko M\u0142odzie\u017cowe \"Skalnik\" w Bukowcu",
                "name": "Szkolne Schronisko M\u0142odzie\u017cowe \"Skalnik\" w Bukowcu",
                "addr:postcode": "58-533",
                "addr:city": "Bukowiec",
                "addr:street": "Szkolna",
                "addr:housenumber": "2",
                "addr:door": "A",
                "addr:teryt:simc": 191365,
                "addr:teryt:sym_ul": 21970,
                "phone": "+48 757182628",
                "email": "schronisko.skalnik@o2.pl",
                "ref:regon": "022464969",
                "operator": "Adam \u017burowski",
                "operator:type": "private",
                "tourism": "hostel"
            }
        },
        {
            "id": 106095,
            "type": "Feature",
            "geometry": {
                "type": "Point",
                "coordinates": [
                    15.78475,
                    50.82573
                ]
            },
            "properties": {
                "ref:rspo": 106095,
                "official_name": "Przedszkole Publiczne w Mys\u0142akowicach",
                "name": "Przedszkole Publiczne w Mys\u0142akowicach",
                "addr:postcode": "58-533",
                "addr:city": "Mys\u0142akowice",
                "addr:street": "Ignacego Daszy\u0144skiego",
                "addr:housenumber": "20",
                "addr:teryt:simc": 191448,
                "addr:teryt:sym_ul": 3639,
                "phone": "+48 757131038",
                "email": "przedszkole@myslakowice.pl",
                "website": "http:\/\/www.przedszkolemyslakowice.pl",
                "ref:regon": "230896797",
                "ref:vatin": "PL6112302991",
                "operator": "Gmina Mys\u0142akowice",
                "operator:type": "government",
                "amenity": "kindergarten"
            }
        },
        {
            "id": 106455,
            "type": "Feature",
            "geometry": {
                "type": "Point",
                "coordinates": [
                    15.81986,
                    50.82591
                ]
            },
            "properties": {
                "ref:rspo": 106455,
                "official_name": "Dom Wczas\u00f3w Dzieci\u0119cych \"Margo\" w Bukowcu",
                "name": "Dom Wczas\u00f3w Dzieci\u0119cych \"Margo\" w Bukowcu",
                "addr:postcode": "58-533",
                "addr:city": "Bukowiec",
                "addr:street": "Robotnicza",
                "addr:housenumber": "27",
                "addr:teryt:simc": 191365,
                "addr:teryt:sym_ul": 18695,
                "phone": "+48 757183094",
                "email": "biuro@dwdbukowiec.pl",
                "website": "http:\/\/www.dwdbukowiec.pl",
                "ref:regon": "022050297",
                "ref:vatin": "PL6110105832",
                "operator": "Margo Sp\u00f3\u0142ka Z Ograniczon\u0105 Odpowiedzialno\u015bci\u0105 O\u015brodek Wczas\u00f3w Dzieci\u0119cych",
                "operator:type": "private",
                "leisure": "resort"
            }
        },
        {
            "id": 110381,
            "type": "Feature",
            "geometry": {
                "type": "Point",
                "coordinates": [
                    15.77963,
                    50.84472
                ]
            },
            "properties": {
                "isced:level": "1;2",
                "ref:rspo": 110381,
                "official_name": "Szko\u0142a Podstawowa w Mys\u0142akowicach",
                "name": "Szko\u0142a Podstawowa w Mys\u0142akowicach",
                "addr:postcode": "58-533",
                "addr:city": "Mys\u0142akowice",
                "addr:street": "Su\u0142kowskiego",
                "addr:housenumber": "1",
                "addr:teryt:simc": 191448,
                "addr:teryt:sym_ul": 21570,
                "phone": "+48 757131303",
                "email": "zsspig@poczta.onet.pl",
                "website": "http:\/\/www.myslakowice.edu.pl",
                "ref:regon": "000268820",
                "ref:vatin": "PL6112454005",
                "operator": "Gmina Mys\u0142akowice",
                "operator:type": "government",
                "amenity": "school"
            }
        },
        {
            "id": 80704,
            "type": "Feature",
            "geometry": {
                "type": "Point",
                "coordinates": [
                    15.79114,
                    50.86159
                ]
            },
            "properties": {
                "ref:rspo": 80704,
                "official_name": "Niepubliczna Plac\u00f3wka O\u015bwiatowa Kszta\u0142cenia Ustawicznego I Praktycznego Spider Agencja Us\u0142ugowa Jan Skoczylas w \u0141omnicy",
                "name": "Niepubliczna Plac\u00f3wka O\u015bwiatowa Kszta\u0142cenia Ustawicznego I Praktycznego Spider Agencja Us\u0142ugowa Jan Skoczylas w \u0141omnicy",
                "addr:postcode": "58-508",
                "addr:city": "\u0141omnica",
                "addr:street": "Karkonoska",
                "addr:housenumber": "108b",
                "addr:teryt:simc": 191431,
                "addr:teryt:sym_ul": 8042,
                "phone": "+48 757522836",
                "email": "pogotowiebhp@ckubhp.pl",
                "website": "https:\/\/e-szkoleniakursybhp.pl",
                "ref:regon": "022008585",
                "operator": "Jan Skoczylas",
                "operator:type": "private",
                "fixme": "w zale\u017cno\u015bci od przedmiotu dzia\u0142alno\u015bci (np. amenity=training + training=*, amenity=dancing_school, amenity=language_school, amenity=music_school)"
            }
        },
        {
            "id": 110382,
            "type": "Feature",
            "geometry": {
                "type": "Point",
                "coordinates": [
                    15.794832,
                    50.9392092
                ]
            },
            "properties": {
                "isced:level": "1;2",
                "ref:rspo": 110382,
                "official_name": "Szko\u0142a Podstawowa Z Oddzia\u0142ami Integracyjnymi w \u0141omnicy",
                "name": "Szko\u0142a Podstawowa Z Oddzia\u0142ami Integracyjnymi w \u0141omnicy",
                "addr:postcode": "58-508",
                "addr:city": "\u0141omnica",
                "addr:street": "Karkonoska",
                "addr:housenumber": "160",
                "addr:teryt:simc": 191431,
                "addr:teryt:sym_ul": 8042,
                "phone": "+48 757130256",
                "email": "spzoi.lomnica@interia.pl",
                "website": "http:\/\/www.szkola-lomnica.pl",
                "ref:regon": "001180010",
                "ref:vatin": "PL6112369914",
                "operator": "Gmina Mys\u0142akowice",
                "operator:type": "government",
                "amenity": "school"
            }
        },
        {
            "id": 88999,
            "type": "Feature",
            "geometry": {
                "type": "Point",
                "coordinates": [
                    15.80548,
                    50.94831
                ]
            },
            "properties": {
                "ref:rspo": 88999,
                "official_name": "Przedszkole Publiczne w \u0141omnicy",
                "name": "Przedszkole Publiczne w \u0141omnicy",
                "addr:postcode": "58-508",
                "addr:city": "\u0141omnica",
                "addr:street": "Karkonoska",
                "addr:housenumber": "115b",
                "addr:teryt:simc": 191431,
                "addr:teryt:sym_ul": 8042,
                "phone": "+48 757131301",
                "email": "przedszkole.lomnica@gmail.com",
                "website": "http:\/\/przedszkole-lomnica.pl",
                "ref:regon": "230897928",
                "ref:vatin": "PL6112301098",
                "operator": "Gmina Mys\u0142akowice",
                "operator:type": "government",
                "amenity": "kindergarten"
            }
        }
    ]
}