{
    "type": "FeatureCollection",
    "features": [
        {
            "id": 106719,
            "type": "Feature",
            "geometry": {
                "type": "Point",
                "coordinates": [
                    15.58431,
                    50.83649
                ]
            },
            "properties": {
                "ref:rspo": 106719,
                "official_name": "Szkolne Schronisko M\u0142odzie\u017cowe \"Z\u0142oty Widok\" w Piechowicach",
                "name": "Szkolne Schronisko M\u0142odzie\u017cowe \"Z\u0142oty Widok\" w Piechowicach",
                "addr:country": "PL",
                "addr:postcode": "58-573",
                "addr:city": "Piechowice",
                "addr:street": "ul. Kolonijna",
                "addr:housenumber": "14",
                "addr:teryt:simc": 8975,
                "addr:teryt:sym_ul": 936285,
                "contact:phone": "+48 696046824",
                "contact:email": "magdalada@poczta.onet.pl",
                "contact:website": "http:\/\/schronisko-zlotywidok.pl",
                "ref:regon": "022052669",
                "operator": "Magdalena Krausiewicz - Fidor",
                "operator:type": "private",
                "tourism": "hostel"
            }
        },
        {
            "id": 132605,
            "type": "Feature",
            "geometry": {
                "type": "Point",
                "coordinates": [
                    15.59098,
                    50.84558
                ]
            },
            "properties": {
                "ref:rspo": 132605,
                "official_name": "Dom Wczas\u00f3w Dzieci\u0119cych \"Uroczysko\" w Piechowicach",
                "name": "Dom Wczas\u00f3w Dzieci\u0119cych \"Uroczysko\" w Piechowicach",
                "addr:country": "PL",
                "addr:postcode": "58-573",
                "addr:city": "Piechowice",
                "addr:street": "ul. Wczasowa",
                "addr:housenumber": "6-8",
                "addr:teryt:simc": 23814,
                "addr:teryt:sym_ul": 936285,
                "contact:phone": "+48 757617331",
                "contact:email": "dwdbiuro@uroczysko-karkonosze.pl",
                "contact:website": "http:\/\/uroczysko-karkonosze.pl",
                "ref:regon": "365893713",
                "ref:vatin": "PL8830008851",
                "operator": "W\u0142adys\u0142aw Leszczy\u0144ski",
                "operator:type": "private",
                "leisure": "resort"
            }
        },
        {
            "id": 123622,
            "type": "Feature",
            "geometry": {
                "type": "Point",
                "coordinates": [
                    15.57089,
                    50.84873
                ]
            },
            "properties": {
                "ref:rspo": 123622,
                "official_name": "Szkolne Schronisko M\u0142odzie\u017cowe \"Plum\" w Piechowicach",
                "name": "Szkolne Schronisko M\u0142odzie\u017cowe \"Plum\" w Piechowicach",
                "addr:country": "PL",
                "addr:postcode": "58-573",
                "addr:city": "Piechowice",
                "addr:street": "ul. Turystyczna",
                "addr:housenumber": "2a",
                "addr:teryt:simc": 23184,
                "addr:teryt:sym_ul": 936285,
                "contact:phone": "+48 696046824",
                "contact:email": "magdalada@poczta.onet.pl",
                "contact:website": "http:\/\/schronisko-plum.pl",
                "ref:regon": "022454882",
                "operator": "Magdalena Krausiewicz - Fidor",
                "operator:type": "private",
                "tourism": "hostel"
            }
        },
        {
            "id": 47733,
            "type": "Feature",
            "geometry": {
                "type": "Point",
                "coordinates": [
                    15.59756,
                    50.84883
                ]
            },
            "properties": {
                "ref:rspo": 47733,
                "official_name": "Przedszkole Samorz\u0105dowe Nr 2 w Piechowicach",
                "name": "Przedszkole Samorz\u0105dowe Nr 2 w Piechowicach",
                "addr:country": "PL",
                "addr:postcode": "58-573",
                "addr:city": "Piechowice",
                "addr:street": "ul. Nadrzeczna",
                "addr:housenumber": "1",
                "addr:teryt:simc": 13902,
                "addr:teryt:sym_ul": 936285,
                "contact:phone": "+48 757612271",
                "contact:email": "ps2.piechowice@wp.pl",
                "contact:website": "http:\/\/www.ps2piechowice.szkolnastrona.pl",
                "ref:regon": "021992175",
                "ref:vatin": "PL6112320977",
                "operator": "Gmina Miejska Piechowice",
                "operator:type": "government",
                "amenity": "kindergarten"
            }
        },
        {
            "id": 272037,
            "type": "Feature",
            "geometry": {
                "type": "Point",
                "coordinates": [
                    15.60675,
                    50.84928
                ]
            },
            "properties": {
                "isced:level": "1;2",
                "ref:rspo": 272037,
                "official_name": "Szko\u0142a Podstawowa Nr 2 im. Jana Paw\u0142a Ii",
                "name": "Szko\u0142a Podstawowa Nr 2",
                "addr:country": "PL",
                "addr:postcode": "58-573",
                "addr:city": "Piechowice",
                "addr:street": "ul. Tysi\u0105clecia",
                "addr:housenumber": "28",
                "addr:teryt:simc": 23270,
                "addr:teryt:sym_ul": 936285,
                "contact:phone": "+48 757612029",
                "contact:email": "sp2piechowice@wp.pl",
                "contact:website": "https:\/\/sp2piechowice.men\/",
                "ref:regon": "383886308",
                "operator": "Gmina Miejska Piechowice",
                "operator:type": "government",
                "amenity": "school"
            }
        },
        {
            "id": 47108,
            "type": "Feature",
            "geometry": {
                "type": "Point",
                "coordinates": [
                    15.59604,
                    50.85062
                ]
            },
            "properties": {
                "isced:level": "1;2",
                "ref:rspo": 47108,
                "official_name": "Szko\u0142a Podstawowa Nr 1 w Piechowicach",
                "name": "Szko\u0142a Podstawowa Nr 1 w Piechowicach",
                "addr:country": "PL",
                "addr:postcode": "58-573",
                "addr:city": "Piechowice",
                "addr:street": "ul. Szkolna",
                "addr:housenumber": "6",
                "addr:teryt:simc": 21970,
                "addr:teryt:sym_ul": 936285,
                "contact:phone": "+48 757612332",
                "contact:email": "sp1sekret@interia.pl",
                "contact:website": "https:\/\/sp1piechowice.ovh\/",
                "ref:regon": "000711327",
                "ref:vatin": "PL6112684981",
                "operator": "Gmina Miejska Piechowice",
                "operator:type": "government",
                "amenity": "school"
            }
        },
        {
            "id": 47734,
            "type": "Feature",
            "geometry": {
                "type": "Point",
                "coordinates": [
                    15.58552,
                    50.85103
                ]
            },
            "properties": {
                "ref:rspo": 47734,
                "official_name": "Przeszkole Samorz\u0105dowe Nr 1 w Piechowicach",
                "name": "Przeszkole Samorz\u0105dowe Nr 1 w Piechowicach",
                "addr:country": "PL",
                "addr:postcode": "58-573",
                "addr:city": "Piechowice",
                "addr:street": "ul. Kryszta\u0142owa",
                "addr:housenumber": "77",
                "addr:teryt:simc": 10081,
                "addr:teryt:sym_ul": 936285,
                "contact:phone": "+48 757612248",
                "contact:email": "kubus-piechowice@o2.pl",
                "ref:regon": "021992169",
                "ref:vatin": "PL6112320954",
                "operator": "Gmina Miejska Piechowice",
                "operator:type": "government",
                "amenity": "kindergarten"
            }
        },
        {
            "id": 31788,
            "type": "Feature",
            "geometry": {
                "type": "Point",
                "coordinates": [
                    15.584839820862,
                    50.852981567383
                ]
            },
            "properties": {
                "ref:rspo": 31788,
                "official_name": "Zesp\u00f3\u0142 Szk\u00f3\u0142 Technicznych I Licealnych w Piechowicach",
                "name": "Zesp\u00f3\u0142 Szk\u00f3\u0142 Technicznych I Licealnych w Piechowicach",
                "addr:country": "PL",
                "addr:postcode": "58-573",
                "addr:city": "Piechowice",
                "addr:street": "ul. Przemys\u0142owa",
                "addr:housenumber": "21",
                "addr:teryt:simc": 17742,
                "addr:teryt:sym_ul": 936285,
                "contact:phone": "+48 757553060",
                "contact:email": "sekretariat@zstil.pl",
                "contact:website": "http:\/\/zstil.pl",
                "ref:regon": "000037730",
                "ref:vatin": "PL6111791309",
                "operator": "Powiat Karkonoski",
                "operator:type": "government",
                "landuse": "education",
                "fixme": "amenity=school, amenity=college albo landuse=education w zale\u017cno\u015bci od tego, jakie plac\u00f3wki wchodz\u0105 w sk\u0142ad zespo\u0142u. Sprawd\u017a, kiedy stosowa\u0107 amenity=* a kiedy landuse=education.",
                "note": "Children RSPO: 73059;73060;73061"
            }
        },
        {
            "id": 123679,
            "type": "Feature",
            "geometry": {
                "type": "Point",
                "coordinates": [
                    15.584839820862,
                    50.852951567382995
                ]
            },
            "properties": {
                "ref:rspo": 123679,
                "official_name": "Centrum Kszta\u0142cenia Zawodowego \"Metalmag\" Teresa Soko\u0142owska w Piechowicach",
                "name": "Centrum Kszta\u0142cenia Zawodowego \"Metalmag\" Teresa Soko\u0142owska w Piechowicach",
                "addr:country": "PL",
                "addr:postcode": "58-573",
                "addr:city": "Piechowice",
                "addr:street": "ul. Ja\u015bminowa",
                "addr:housenumber": "1",
                "addr:teryt:simc": 7380,
                "addr:teryt:sym_ul": 936285,
                "contact:phone": "+48 793495938",
                "contact:email": "szkolenia@metalmag.pl",
                "contact:website": "http:\/\/www.metalmag.pl",
                "ref:regon": "022459282",
                "operator": "Teresa Soko\u0142owska",
                "operator:type": "private",
                "fixme": "w zale\u017cno\u015bci od przedmiotu dzia\u0142alno\u015bci (np. amenity=training + training=*, amenity=dancing_school, amenity=language_school, amenity=music_school) albo amenity=school, amenity=college, albo landuse=education w zale\u017cno\u015bci od tego, jakie plac\u00f3wki wchodz\u0105 w sk\u0142ad zespo\u0142u. Sprawd\u017a, kiedy stosowa\u0107 amenity=* a kiedy landuse=education."
            }
        },
        {
            "id": 73059,
            "type": "Feature",
            "geometry": {
                "type": "Point",
                "coordinates": [
                    15.584839820862,
                    50.852921567383
                ]
            },
            "properties": {
                "isced:level": "3",
                "ref:rspo": 73059,
                "official_name": "Liceum Og\u00f3lnokszta\u0142c\u0105ce w Piechowicach",
                "name": "Liceum Og\u00f3lnokszta\u0142c\u0105ce w Piechowicach",
                "addr:country": "PL",
                "addr:postcode": "58-573",
                "addr:city": "Piechowice",
                "addr:street": "ul. Przemys\u0142owa",
                "addr:housenumber": "21",
                "addr:teryt:simc": 17742,
                "addr:teryt:sym_ul": 936285,
                "contact:phone": "+48 757553060",
                "contact:email": "sekretariat@zstil.pl",
                "contact:website": "http:\/\/www.zstil.pl",
                "ref:regon": "231180664",
                "operator": "Powiat Karkonoski",
                "operator:type": "government",
                "amenity": "school",
                "note": "Parent RSPO: 31788"
            }
        },
        {
            "id": 73060,
            "type": "Feature",
            "geometry": {
                "type": "Point",
                "coordinates": [
                    15.584839820862,
                    50.852891567383
                ]
            },
            "properties": {
                "isced:level": "3",
                "ref:rspo": 73060,
                "official_name": "Bran\u017cowa Szko\u0142a I Stopnia",
                "name": "Bran\u017cowa Szko\u0142a I Stopnia",
                "addr:country": "PL",
                "addr:postcode": "58-573",
                "addr:city": "Piechowice",
                "addr:street": "ul. Przemys\u0142owa",
                "addr:housenumber": "21",
                "addr:teryt:simc": 17742,
                "addr:teryt:sym_ul": 936285,
                "contact:phone": "+48 757553060",
                "contact:email": "sekretariat@zstil.pl",
                "contact:website": "http:\/\/www.zstil.pl",
                "ref:regon": "231180635",
                "operator": "Powiat Karkonoski",
                "operator:type": "government",
                "amenity": "school",
                "note": "Parent RSPO: 31788"
            }
        },
        {
            "id": 73061,
            "type": "Feature",
            "geometry": {
                "type": "Point",
                "coordinates": [
                    15.584839820862,
                    50.852861567382995
                ]
            },
            "properties": {
                "isced:level": "3",
                "ref:rspo": 73061,
                "official_name": "Technikum w Zespole Szk\u00f3\u0142 Technicznych I Licealnych w Piechowicach",
                "name": "Technikum w Zespole Szk\u00f3\u0142 Technicznych I Licealnych w Piechowicach",
                "addr:country": "PL",
                "addr:postcode": "58-573",
                "addr:city": "Piechowice",
                "addr:street": "ul. Przemys\u0142owa",
                "addr:housenumber": "21",
                "addr:teryt:simc": 17742,
                "addr:teryt:sym_ul": 936285,
                "contact:phone": "+48 757553060",
                "contact:email": "sekretariat@zstil.pl",
                "contact:website": "http:\/\/zstil.pl",
                "ref:regon": "231180546",
                "operator": "Powiat Karkonoski",
                "operator:type": "government",
                "amenity": "school",
                "note": "Parent RSPO: 31788"
            }
        }
    ]
}