{
    "type": "FeatureCollection",
    "features": [
        {
            "id": 82340,
            "type": "Feature",
            "geometry": {
                "type": "Point",
                "coordinates": [
                    15.52937,
                    50.82275
                ]
            },
            "properties": {
                "isced:level": "1;2",
                "ref:rspo": 82340,
                "official_name": "Szko\u0142a Podstawowa Nr 1 im. Tadeusza Ko\u015bciuszki",
                "name": "Szko\u0142a Podstawowa Nr 1",
                "addr:postcode": "58-580",
                "addr:city": "Szklarska Por\u0119ba",
                "addr:street": "1 Maja",
                "addr:housenumber": "32",
                "addr:teryt:simc": 936368,
                "addr:teryt:sym_ul": 11926,
                "phone": "+48 757172388",
                "email": "kontakt@sp1szklarskaporeba.pl",
                "website": "http:\/\/www.sp1szklarska.superszkolna.pl",
                "ref:regon": "000711340",
                "ref:vatin": "PL6112292904",
                "operator": "Miasto Szklarska Por\u0119ba",
                "operator:type": "government",
                "amenity": "school"
            }
        },
        {
            "id": 126354,
            "type": "Feature",
            "geometry": {
                "type": "Point",
                "coordinates": [
                    15.52906,
                    50.82465
                ]
            },
            "properties": {
                "ref:rspo": 126354,
                "official_name": "Niepubliczne Przedszkole Integracyjne Balonik",
                "name": "Niepubliczne Przedszkole Integracyjne Balonik",
                "addr:postcode": "58-580",
                "addr:city": "Szklarska Por\u0119ba",
                "addr:street": "Ma\u0142a",
                "addr:housenumber": "1f",
                "addr:teryt:simc": 936368,
                "addr:teryt:sym_ul": 12098,
                "phone": "+48 503050601",
                "email": "przedszkoleniepublicznebalonik@gmail.com",
                "ref:regon": "360249367",
                "operator": "Helena Grze\u015b",
                "operator:type": "private",
                "amenity": "kindergarten"
            }
        },
        {
            "id": 82341,
            "type": "Feature",
            "geometry": {
                "type": "Point",
                "coordinates": [
                    15.5075,
                    50.82522
                ]
            },
            "properties": {
                "ref:rspo": 82341,
                "official_name": "Przedszkole Samorz\u0105dowe Nr 2",
                "name": "Przedszkole Samorz\u0105dowe Nr 2",
                "addr:postcode": "58-580",
                "addr:city": "Szklarska Por\u0119ba",
                "addr:street": "Osiedle Huty",
                "addr:housenumber": "1",
                "addr:door": "-",
                "addr:teryt:simc": 936368,
                "addr:teryt:sym_ul": 15253,
                "phone": "+48 757172716",
                "email": "mzea.sz.przedszkole.nr.2@neostrada.pl",
                "ref:regon": "230176838",
                "ref:vatin": "PL6112292873",
                "operator": "Miasto Szklarska Por\u0119ba",
                "operator:type": "government",
                "amenity": "kindergarten"
            }
        },
        {
            "id": 31789,
            "type": "Feature",
            "geometry": {
                "type": "Point",
                "coordinates": [
                    15.52525,
                    50.82881
                ]
            },
            "properties": {
                "ref:rspo": 31789,
                "official_name": "Zesp\u00f3\u0142 Szk\u00f3\u0142 Og\u00f3lnokszta\u0142c\u0105cych I Mistrzostwa Sportowego w Szklarskiej Por\u0119bie",
                "name": "Zesp\u00f3\u0142 Szk\u00f3\u0142 Og\u00f3lnokszta\u0142c\u0105cych I Mistrzostwa Sportowego w Szklarskiej Por\u0119bie",
                "addr:postcode": "58-580",
                "addr:city": "Szklarska Por\u0119ba",
                "addr:street": "Obro\u0144c\u00f3w Pokoju",
                "addr:housenumber": "17",
                "addr:teryt:simc": 936368,
                "addr:teryt:sym_ul": 14642,
                "phone": "+48 757172206",
                "email": "lo_szklarska@wp.pl",
                "website": "http:\/\/zso-szklarska.com",
                "ref:regon": "230531587",
                "ref:vatin": "PL6111751669",
                "operator": "Powiat Karkonoski",
                "operator:type": "government",
                "landuse": "education",
                "fixme": "amenity=school, amenity=college albo landuse=education w zale\u017cno\u015bci od tego, jakie plac\u00f3wki wchodz\u0105 w sk\u0142ad zespo\u0142u. Sprawd\u017a, kiedy stosowa\u0107 amenity=* a kiedy landuse=education.",
                "note": "Children RSPO: 49836;79292"
            }
        },
        {
            "id": 49836,
            "type": "Feature",
            "geometry": {
                "type": "Point",
                "coordinates": [
                    15.52525,
                    50.828779999999995
                ]
            },
            "properties": {
                "isced:level": "3",
                "ref:rspo": 49836,
                "official_name": "Liceum Og\u00f3lnokszta\u0142c\u0105ce Z Oddzia\u0142ami Mistrzostwa Sportowego im. J. I. Sztaudyngera",
                "name": "Liceum Og\u00f3lnokszta\u0142c\u0105ce Z Oddzia\u0142ami Mistrzostwa Sportowego",
                "addr:postcode": "58-580",
                "addr:city": "Szklarska Por\u0119ba",
                "addr:street": "Obro\u0144c\u00f3w Pokoju",
                "addr:housenumber": "17",
                "addr:teryt:simc": 936368,
                "addr:teryt:sym_ul": 14642,
                "phone": "+48 757172206",
                "email": "lo_szklarska@wp.pl",
                "website": "http:\/\/www.hosting8336314.az.pl\/",
                "ref:regon": "231179224",
                "operator": "Powiat Karkonoski",
                "operator:type": "government",
                "amenity": "school",
                "note": "Parent RSPO: 31789"
            }
        },
        {
            "id": 79292,
            "type": "Feature",
            "geometry": {
                "type": "Point",
                "coordinates": [
                    15.52525,
                    50.82875
                ]
            },
            "properties": {
                "isced:level": "1;2",
                "ref:rspo": 79292,
                "official_name": "Szko\u0142a Podstawowa Nr 5 Z Oddzia\u0142ami Mistrzostwa Sportowego im. Wlastimila Hofmana",
                "name": "Szko\u0142a Podstawowa Nr 5 Z Oddzia\u0142ami Mistrzostwa Sportowego",
                "addr:postcode": "58-580",
                "addr:city": "Szklarska Por\u0119ba",
                "addr:street": "Obro\u0144c\u00f3w Pokoju",
                "addr:housenumber": "17",
                "addr:door": "-",
                "addr:teryt:simc": 936368,
                "addr:teryt:sym_ul": 14642,
                "phone": "+48 757172206",
                "email": "lo_szklarska@wp.pl",
                "website": "http:\/\/www.zso-szklarska.pl",
                "ref:regon": "001098432",
                "ref:vatin": "PL6112292962",
                "operator": "Miasto Szklarska Por\u0119ba",
                "operator:type": "government",
                "amenity": "school",
                "note": "Parent RSPO: 31789"
            }
        },
        {
            "id": 123782,
            "type": "Feature",
            "geometry": {
                "type": "Point",
                "coordinates": [
                    15.54325,
                    50.84324
                ]
            },
            "properties": {
                "ref:rspo": 123782,
                "official_name": "Szkolne Schronisko M\u0142odzie\u017cowe \"Wojtek\" w Szklarskiej Por\u0119bie",
                "name": "Szkolne Schronisko M\u0142odzie\u017cowe \"Wojtek\" w Szklarskiej Por\u0119bie",
                "addr:postcode": "58-580",
                "addr:city": "Szklarska Por\u0119ba",
                "addr:street": "Piastowska",
                "addr:housenumber": "1",
                "addr:teryt:simc": 936368,
                "addr:teryt:sym_ul": 16046,
                "phone": "+48 696046824",
                "email": "magdalada@poczta.onet.pl",
                "website": "http:\/\/schronisko-wojtek.pl",
                "ref:regon": "022463830",
                "operator": "Magdalena Krausiewicz - Fidor",
                "operator:type": "private",
                "tourism": "hostel"
            }
        },
        {
            "id": 77616,
            "type": "Feature",
            "geometry": {
                "type": "Point",
                "coordinates": [
                    15.53722,
                    50.84357
                ]
            },
            "properties": {
                "ref:rspo": 77616,
                "official_name": "Publiczna Poradnia Psychologiczno - Pedagogiczna w Szklarskiej Por\u0119bie",
                "name": "Publiczna Poradnia Psychologiczno - Pedagogiczna w Szklarskiej Por\u0119bie",
                "addr:postcode": "58-580",
                "addr:city": "Szklarska Por\u0119ba",
                "addr:street": "G\u00f3rna",
                "addr:housenumber": "29",
                "addr:teryt:simc": 936368,
                "addr:teryt:sym_ul": 5948,
                "phone": "+48 757172467",
                "email": "sekretariat@poradniaszklarska.pl",
                "website": "http:\/\/poradniaszklarska.pl",
                "ref:regon": "230891848",
                "ref:vatin": "PL6112335714",
                "operator": "Powiat Karkonoski",
                "operator:type": "government",
                "healthcare": "counselling",
                "counselling_type": "education",
                "fixme": "w zale\u017cno\u015bci od przedmiotu dzia\u0142alno\u015bci (np. healthcare=counselling + counselling_type=education albo healthcare=psychotherapist)"
            }
        },
        {
            "id": 80861,
            "type": "Feature",
            "geometry": {
                "type": "Point",
                "coordinates": [
                    15.53722,
                    50.84354
                ]
            },
            "properties": {
                "ref:rspo": 80861,
                "official_name": "M\u0142odzie\u017cowy O\u015brodek Wychowawczy w Szklarskiej Por\u0119bie",
                "name": "M\u0142odzie\u017cowy O\u015brodek Wychowawczy w Szklarskiej Por\u0119bie",
                "addr:postcode": "58-580",
                "addr:city": "Szklarska Por\u0119ba",
                "addr:street": "G\u00f3rna",
                "addr:housenumber": "29",
                "addr:teryt:simc": 936368,
                "addr:teryt:sym_ul": 5948,
                "phone": "+48 757172769",
                "email": "sekretariat@mowszklarska.pl",
                "website": "http:\/\/mowszklarska.pl",
                "ref:regon": "020337534",
                "operator": "Powiat Karkonoski",
                "operator:type": "government",
                "fixme": "amenity=social_facility + social_facility=group_home + social_facility:for=juvenile",
                "note": "Children RSPO: 73028;73029"
            }
        },
        {
            "id": 73028,
            "type": "Feature",
            "geometry": {
                "type": "Point",
                "coordinates": [
                    15.53722,
                    50.84351
                ]
            },
            "properties": {
                "isced:level": "1;2",
                "ref:rspo": 73028,
                "official_name": "Szko\u0142a Podstawowa Specjalna w M\u0142odzie\u017cowym O\u015brodku Wychowawczym w Szklarskiej Por\u0119bie",
                "name": "Szko\u0142a Podstawowa Specjalna w M\u0142odzie\u017cowym O\u015brodku Wychowawczym w Szklarskiej Por\u0119bie",
                "addr:postcode": "58-580",
                "addr:city": "Szklarska Por\u0119ba",
                "addr:street": "G\u00f3rna",
                "addr:housenumber": "29",
                "addr:teryt:simc": 936368,
                "addr:teryt:sym_ul": 5948,
                "phone": "+48 757172769",
                "email": "sekretariat@mowszklarska.pl",
                "website": "http:\/\/mowszklarska.pl",
                "ref:regon": "020337563",
                "operator": "Powiat Karkonoski",
                "operator:type": "government",
                "amenity": "school",
                "note": "Parent RSPO: 80861"
            }
        },
        {
            "id": 73029,
            "type": "Feature",
            "geometry": {
                "type": "Point",
                "coordinates": [
                    15.53722,
                    50.84348
                ]
            },
            "properties": {
                "isced:level": "3",
                "ref:rspo": 73029,
                "official_name": "Bran\u017cowa Szko\u0142a I Stopnia w M\u0142odzie\u017cowym O\u015brodku Wychowawczym w Szklarskiej Por\u0119bie",
                "name": "Bran\u017cowa Szko\u0142a I Stopnia w M\u0142odzie\u017cowym O\u015brodku Wychowawczym w Szklarskiej Por\u0119bie",
                "addr:postcode": "58-580",
                "addr:city": "Szklarska Por\u0119ba",
                "addr:street": "G\u00f3rna",
                "addr:housenumber": "29",
                "addr:teryt:simc": 936368,
                "addr:teryt:sym_ul": 5948,
                "phone": "+48 757172769",
                "email": "sekretariat@mowszklarska.pl",
                "website": "http:\/\/mowszklarska.pl",
                "ref:regon": "021322569",
                "operator": "Powiat Karkonoski",
                "operator:type": "government",
                "amenity": "school",
                "note": "Parent RSPO: 80861"
            }
        }
    ]
}