{
    "type": "FeatureCollection",
    "features": [
        {
            "id": 80817,
            "type": "Feature",
            "geometry": {
                "type": "Point",
                "coordinates": [
                    22.071550369263,
                    49.718353271484
                ]
            },
            "properties": {
                "isced:level": "1;2",
                "ref:rspo": 80817,
                "official_name": "Szko\u0142a Podstawowa w Siedliskach",
                "name": "Szko\u0142a Podstawowa w Siedliskach",
                "addr:postcode": "36-245",
                "addr:place": "Siedliska",
                "addr:housenumber": "36",
                "addr:city:simc": 357972,
                "phone": "+48 134398042",
                "email": "szkola_siedliska@nozdrzec.pl",
                "website": "http:\/\/www.spsiedliska.superszkolna.pl",
                "ref:regon": "001214447",
                "ref:vatin": "PL6861522157",
                "operator": "Gmina Nozdrzec",
                "operator:type": "government",
                "amenity": "school"
            }
        },
        {
            "id": 60175,
            "type": "Feature",
            "geometry": {
                "type": "Point",
                "coordinates": [
                    22.11218,
                    49.75301
                ]
            },
            "properties": {
                "isced:level": "1;2",
                "ref:rspo": 60175,
                "official_name": "Szko\u0142a Podstawowa im.\u015bw. Jadwigi Kr\u00f3lowej Polski z Oddzia\u0142em Przedszkolnym w Izdebkach",
                "name": "Szko\u0142a Podstawowa im.\u015bw. Jadwigi Kr\u00f3lowej Polski z Oddzia\u0142em Przedszkolnym w Izdebkach",
                "addr:postcode": "36-203",
                "addr:place": "Izdebki",
                "addr:housenumber": "362",
                "addr:city:simc": 357713,
                "phone": "+48 134399710",
                "email": "spizdebki@onet.pl",
                "ref:regon": "001214513",
                "ref:vatin": "PL6861471974",
                "operator": "Gmina Nozdrzec",
                "operator:type": "government",
                "amenity": "school"
            }
        },
        {
            "id": 54103,
            "type": "Feature",
            "geometry": {
                "type": "Point",
                "coordinates": [
                    22.20048,
                    49.75451
                ]
            },
            "properties": {
                "isced:level": "1;2",
                "ref:rspo": 54103,
                "official_name": "Szko\u0142a Podstawowa im. \u015awi\u0119tego Jana Paw\u0142a II w Warze",
                "name": "Szko\u0142a Podstawowa",
                "addr:postcode": "36-245",
                "addr:place": "Wara",
                "addr:housenumber": "247",
                "addr:city:simc": 357995,
                "phone": "+48 134398550",
                "email": "szkola_wara@nozdrzec.pl",
                "website": "http:\/\/zswara.szkolna.net",
                "ref:regon": "001214499",
                "ref:vatin": "PL6861555607",
                "operator": "Gmina Nozdrzec",
                "operator:type": "government",
                "amenity": "school"
            }
        },
        {
            "id": 92013,
            "type": "Feature",
            "geometry": {
                "type": "Point",
                "coordinates": [
                    22.2033669,
                    49.7724204
                ]
            },
            "properties": {
                "ref:rspo": 92013,
                "official_name": "Przedszkole Niepubliczne Zgromadzenia Si\u00f3str \u015aw. Dominika w Nozdrzcu",
                "name": "Przedszkole Niepubliczne Zgromadzenia Si\u00f3str \u015aw. Dominika w Nozdrzcu",
                "addr:postcode": "36-245",
                "addr:place": "Nozdrzec",
                "addr:housenumber": "221",
                "addr:city:simc": 357771,
                "phone": "+48 134398053",
                "email": "pr.nozdrzec@wp.pl",
                "ref:regon": "180920880",
                "ref:vatin": "PL6861573551",
                "operator": "Zgromadzenie Si\u00f3str \u015aw. Dominika",
                "operator:type": "religious",
                "amenity": "kindergarten"
            }
        },
        {
            "id": 80823,
            "type": "Feature",
            "geometry": {
                "type": "Point",
                "coordinates": [
                    22.20456,
                    49.77329
                ]
            },
            "properties": {
                "isced:level": "1;2",
                "ref:rspo": 80823,
                "official_name": "Szko\u0142a Podstawowa im. Aleksandra Fredry w Nozdrzcu",
                "name": "Szko\u0142a Podstawowa",
                "addr:postcode": "36-245",
                "addr:place": "Nozdrzec",
                "addr:housenumber": "227A",
                "addr:city:simc": 357771,
                "phone": "+48 134398009",
                "email": "zsnozdrzec@onet.eu",
                "website": "http:\/\/www.spnozdrzec.szkolnastrona.pl",
                "ref:regon": "000629778",
                "ref:vatin": "PL6861505673",
                "operator": "Gmina Nozdrzec",
                "operator:type": "government",
                "amenity": "school"
            }
        },
        {
            "id": 80821,
            "type": "Feature",
            "geometry": {
                "type": "Point",
                "coordinates": [
                    22.13326,
                    49.77834
                ]
            },
            "properties": {
                "isced:level": "1;2",
                "ref:rspo": 80821,
                "official_name": "Szko\u0142a Podstawowa Im Kardyna\u0142a Stefana Wyszy\u0144skiego w H\u0142udnie",
                "name": "Szko\u0142a Podstawowa Im Kardyna\u0142a Stefana Wyszy\u0144skiego w H\u0142udnie",
                "addr:postcode": "36-245",
                "addr:place": "H\u0142udno",
                "addr:housenumber": "89",
                "addr:city:simc": 357363,
                "phone": "+48 134398570",
                "email": "sp_hludno@onet.pl",
                "website": "http:\/\/www.sphludno.edupage.org",
                "ref:regon": "001214536",
                "ref:vatin": "PL6861561832",
                "operator": "Gmina Nozdrzec",
                "operator:type": "government",
                "amenity": "school"
            }
        },
        {
            "id": 80820,
            "type": "Feature",
            "geometry": {
                "type": "Point",
                "coordinates": [
                    22.0905,
                    49.80434
                ]
            },
            "properties": {
                "isced:level": "1;2",
                "ref:rspo": 80820,
                "official_name": "Szko\u0142a Podstawowa nr 1 im. Marsza\u0142ka J\u00f3zefa Pi\u0142sudskiego w Weso\u0142ej",
                "name": "Szko\u0142a Podstawowa nr 1",
                "addr:postcode": "36-233",
                "addr:place": "Weso\u0142a",
                "addr:housenumber": "401",
                "addr:city:simc": 358115,
                "phone": "+48 134398263",
                "email": "szkola_wesola@nozdrzec.pl",
                "website": "http:\/\/www.zswesola.szkolnastrona.pl",
                "ref:regon": "001214482",
                "ref:vatin": "PL6861587062",
                "operator": "Gmina Nozdrzec",
                "operator:type": "government",
                "amenity": "school"
            }
        },
        {
            "id": 278219,
            "type": "Feature",
            "geometry": {
                "type": "Point",
                "coordinates": [
                    22.08968,
                    49.8305
                ]
            },
            "properties": {
                "isced:level": "1;2",
                "ref:rspo": 278219,
                "official_name": "Szko\u0142a Podstawowa nr 2 w Weso\u0142ej",
                "name": "Szko\u0142a Podstawowa nr 2 w Weso\u0142ej",
                "addr:postcode": "36-233",
                "addr:place": "Weso\u0142a",
                "addr:housenumber": "607",
                "addr:city:simc": 358115,
                "phone": "+48 172301406",
                "email": "szkola_wesola2@nozdrzec.pl",
                "ref:regon": "389850961",
                "operator": "Fundacja Akademia Umiej\u0119tno\u015bci",
                "operator:type": "ngo",
                "amenity": "school"
            }
        }
    ]
}