{
    "type": "FeatureCollection",
    "features": [
        {
            "id": 25540,
            "type": "Feature",
            "geometry": {
                "type": "Point",
                "coordinates": [
                    21.9452365,
                    49.7300392
                ]
            },
            "properties": {
                "ref:rspo": 25540,
                "official_name": "Zesp\u00f3\u0142 Szk\u00f3\u0142 w Orzech\u00f3wce",
                "name": "Zesp\u00f3\u0142 Szk\u00f3\u0142 w Orzech\u00f3wce",
                "addr:postcode": "36-220",
                "addr:place": "Orzech\u00f3wka",
                "addr:housenumber": "5",
                "addr:city:simc": 352510,
                "phone": "+48 134306189",
                "email": "zs_orzechowka@poczta.onet.pl",
                "website": "http:\/\/zs.orzechowka.eu",
                "ref:regon": "370475506",
                "ref:vatin": "PL6861575828",
                "operator": "Gmina Jasienica Rosielna",
                "operator:type": "government",
                "landuse": "education",
                "fixme": "amenity=school, amenity=college albo landuse=education w zale\u017cno\u015bci od tego, jakie plac\u00f3wki wchodz\u0105 w sk\u0142ad zespo\u0142u. Sprawd\u017a, kiedy stosowa\u0107 amenity=* a kiedy landuse=education.",
                "note": "Children RSPO: 25621;49148"
            }
        },
        {
            "id": 25621,
            "type": "Feature",
            "geometry": {
                "type": "Point",
                "coordinates": [
                    21.9452365,
                    49.7300092
                ]
            },
            "properties": {
                "ref:rspo": 25621,
                "official_name": "Przedszkole w Orzech\u00f3wce",
                "name": "Przedszkole w Orzech\u00f3wce",
                "addr:postcode": "36-220",
                "addr:place": "Orzech\u00f3wka",
                "addr:housenumber": "5",
                "addr:city:simc": 352510,
                "phone": "+48 134306189",
                "email": "zs_orzechowka@poczta.onet.pl",
                "ref:regon": "371023597",
                "ref:vatin": "PL6861558770",
                "operator": "Gmina Jasienica Rosielna",
                "operator:type": "government",
                "amenity": "kindergarten",
                "note": "Parent RSPO: 25540"
            }
        },
        {
            "id": 49148,
            "type": "Feature",
            "geometry": {
                "type": "Point",
                "coordinates": [
                    21.9452365,
                    49.7299792
                ]
            },
            "properties": {
                "isced:level": "1;2",
                "ref:rspo": 49148,
                "official_name": "Szko\u0142a Podstawowa im. Kr\u00f3la W\u0142adys\u0142awa Jagie\u0142\u0142y I Kr\u00f3lowej Jadwigi",
                "name": "Szko\u0142a Podstawowa",
                "addr:postcode": "36-220",
                "addr:place": "Orzech\u00f3wka",
                "addr:housenumber": "5",
                "addr:city:simc": 352510,
                "phone": "+48 134306189",
                "email": "zs_orzechowka@poczta.onet.pl",
                "website": "http:\/\/www.zs.orzechowka.eu",
                "ref:regon": "371013699",
                "ref:vatin": "PL6861435553",
                "operator": "Gmina Jasienica Rosielna",
                "operator:type": "government",
                "amenity": "school",
                "note": "Parent RSPO: 25540"
            }
        },
        {
            "id": 26345,
            "type": "Feature",
            "geometry": {
                "type": "Point",
                "coordinates": [
                    21.97585,
                    49.73944
                ]
            },
            "properties": {
                "ref:rspo": 26345,
                "official_name": "Przedszkole w Bliznem",
                "name": "Przedszkole w Bliznem",
                "addr:postcode": "36-221",
                "addr:place": "Blizne",
                "addr:housenumber": "123",
                "addr:city:simc": 352213,
                "phone": "+48 134305250",
                "email": "przedszkoleblizne@op.pl",
                "ref:regon": "371023580",
                "ref:vatin": "PL6861558787",
                "operator": "Gmina Jasienica Rosielna",
                "operator:type": "government",
                "amenity": "kindergarten"
            }
        },
        {
            "id": 49644,
            "type": "Feature",
            "geometry": {
                "type": "Point",
                "coordinates": [
                    21.97894,
                    49.75061
                ]
            },
            "properties": {
                "isced:level": "1;2",
                "ref:rspo": 49644,
                "official_name": "Szko\u0142a Podstawowa im. \u015awi\u0119tego Micha\u0142a Archanio\u0142a w Bliznem",
                "name": "Szko\u0142a Podstawowa",
                "addr:postcode": "36-221",
                "addr:place": "Blizne",
                "addr:housenumber": "439a",
                "addr:city:simc": 352213,
                "phone": "+48 134305279",
                "email": "poczta@zsblizne.pl",
                "website": "http:\/\/www.blizne.edupage.org",
                "ref:regon": "001197128",
                "ref:vatin": "PL6861540988",
                "operator": "Gmina Jasienica Rosielna",
                "operator:type": "government",
                "amenity": "school"
            }
        },
        {
            "id": 51301,
            "type": "Feature",
            "geometry": {
                "type": "Point",
                "coordinates": [
                    21.93556,
                    49.75068
                ]
            },
            "properties": {
                "ref:rspo": 51301,
                "official_name": "Zesp\u00f3\u0142 Szk\u00f3\u0142 w Jasienicy Rosielnej",
                "name": "Zesp\u00f3\u0142 Szk\u00f3\u0142 w Jasienicy Rosielnej",
                "addr:postcode": "36-220",
                "addr:place": "Jasienica Rosielna",
                "addr:housenumber": "223",
                "addr:city:simc": 352360,
                "phone": "+48 134306013",
                "email": "rosiel@poczta.onet.pl",
                "website": "http:\/\/zs-jasienicaros.edupage.org",
                "ref:regon": "180866576",
                "ref:vatin": "PL6861685008",
                "operator": "Gmina Jasienica Rosielna",
                "operator:type": "government",
                "landuse": "education",
                "fixme": "amenity=school, amenity=college albo landuse=education w zale\u017cno\u015bci od tego, jakie plac\u00f3wki wchodz\u0105 w sk\u0142ad zespo\u0142u. Sprawd\u017a, kiedy stosowa\u0107 amenity=* a kiedy landuse=education.",
                "note": "Children RSPO: 25551;25943"
            }
        },
        {
            "id": 25551,
            "type": "Feature",
            "geometry": {
                "type": "Point",
                "coordinates": [
                    21.93556,
                    49.75065
                ]
            },
            "properties": {
                "isced:level": "1;2",
                "ref:rspo": 25551,
                "official_name": "Szko\u0142a Podstawowa w Jasienicy Rosielnej im.\u015bw.jana Paw\u0142a Ii",
                "name": "Szko\u0142a Podstawowa w Jasienicy Rosielnej im.\u015bw.jana Paw\u0142a Ii",
                "addr:postcode": "36-220",
                "addr:place": "Jasienica Rosielna",
                "addr:housenumber": "223",
                "addr:city:simc": 352360,
                "phone": "+48 134306013",
                "email": "rosiel@poczta.onet.pl",
                "website": "http:\/\/zs-jasienicaros.edupage.org",
                "ref:regon": "001197111",
                "ref:vatin": "PL6861435530",
                "operator": "Gmina Jasienica Rosielna",
                "operator:type": "government",
                "amenity": "school",
                "note": "Parent RSPO: 51301"
            }
        },
        {
            "id": 25943,
            "type": "Feature",
            "geometry": {
                "type": "Point",
                "coordinates": [
                    21.93556,
                    49.750620000000005
                ]
            },
            "properties": {
                "ref:rspo": 25943,
                "official_name": "Przedszkole w Jasienicy Rosielnej",
                "name": "Przedszkole w Jasienicy Rosielnej",
                "addr:postcode": "36-220",
                "addr:place": "Jasienica Rosielna",
                "addr:housenumber": "223",
                "addr:city:simc": 352360,
                "phone": "+48 134306013",
                "email": "rosiel@poczta.onet.pl",
                "website": "http:\/\/zs-jasienicaros.edupage.org",
                "ref:regon": "000902978",
                "ref:vatin": "PL6861558764",
                "operator": "Gmina Jasienica Rosielna",
                "operator:type": "government",
                "amenity": "kindergarten",
                "note": "Parent RSPO: 51301"
            }
        },
        {
            "id": 26081,
            "type": "Feature",
            "geometry": {
                "type": "Point",
                "coordinates": [
                    21.89652,
                    49.75486
                ]
            },
            "properties": {
                "isced:level": "1;2",
                "ref:rspo": 26081,
                "official_name": "Szko\u0142a Podstawowa im.ks.bpa Jakuba Glazera w Woli Jasienickiej",
                "name": "Szko\u0142a Podstawowa im.ks.bpa Jakuba Glazera w Woli Jasienickiej",
                "addr:postcode": "36-220",
                "addr:place": "Wola Jasienicka",
                "addr:housenumber": "108",
                "addr:city:simc": 352667,
                "phone": "+48 134306025",
                "email": "wolajas2@poczta.onet.pl",
                "website": "http:\/\/www.spwolajas.edupage.org",
                "ref:regon": "001197140",
                "ref:vatin": "PL6861435547",
                "operator": "Gmina Jasienica Rosielna",
                "operator:type": "government",
                "amenity": "school"
            }
        }
    ]
}