{
    "type": "FeatureCollection",
    "features": [
        {
            "id": 83460,
            "type": "Feature",
            "geometry": {
                "type": "Point",
                "coordinates": [
                    22.22515,
                    49.65133
                ]
            },
            "properties": {
                "isced:level": "1;2",
                "ref:rspo": 83460,
                "official_name": "Szko\u0142a Podstawowa im. Ksi\u0119dza Arcybiskupa Ignacego Tokarczuka w Ko\u0144skiem",
                "name": "Szko\u0142a Podstawowa",
                "addr:postcode": "36-204",
                "addr:place": "Ko\u0144skie",
                "addr:housenumber": "35",
                "addr:teryt:simc": 350817,
                "phone": "+48 134303108",
                "email": "szkola_konskie@poczta.onet.pl",
                "ref:regon": "001197358",
                "ref:vatin": "PL6861670768",
                "operator": "Gmina Dydnia",
                "operator:type": "government",
                "amenity": "school"
            }
        },
        {
            "id": 59847,
            "type": "Feature",
            "geometry": {
                "type": "Point",
                "coordinates": [
                    22.13843,
                    49.65484
                ]
            },
            "properties": {
                "isced:level": "1;2",
                "ref:rspo": 59847,
                "official_name": "Szko\u0142a Podstawowa w Grab\u00f3wce",
                "name": "Szko\u0142a Podstawowa w Grab\u00f3wce",
                "addr:postcode": "36-207",
                "addr:place": "Grab\u00f3wka",
                "addr:housenumber": "65a",
                "addr:teryt:simc": 350697,
                "phone": "+48 134395024",
                "email": "spgrab@interia.pl",
                "website": "http:\/\/www.spgrabowka.szkolna.net",
                "ref:regon": "001197387",
                "ref:vatin": "PL6861503993",
                "operator": "Gmina Dydnia",
                "operator:type": "government",
                "amenity": "school"
            }
        },
        {
            "id": 74458,
            "type": "Feature",
            "geometry": {
                "type": "Point",
                "coordinates": [
                    22.11109,
                    49.67579
                ]
            },
            "properties": {
                "ref:rspo": 74458,
                "official_name": "Zesp\u00f3\u0142 Szk\u00f3\u0142 w Niebocku",
                "name": "Zesp\u00f3\u0142 Szk\u00f3\u0142 w Niebocku",
                "addr:postcode": "36-207",
                "addr:place": "Niebocko",
                "addr:housenumber": "1",
                "addr:teryt:simc": 350898,
                "phone": "+48 134395830",
                "email": "gimniebo@poczta.onet.pl",
                "ref:regon": "180085241",
                "ref:vatin": "PL6861589138",
                "operator": "Gmina Dydnia",
                "operator:type": "government",
                "landuse": "education",
                "fixme": "amenity=school, amenity=college albo landuse=education w zale\u017cno\u015bci od tego, jakie plac\u00f3wki wchodz\u0105 w sk\u0142ad zespo\u0142u. Sprawd\u017a, kiedy stosowa\u0107 amenity=* a kiedy landuse=education.",
                "note": "Children RSPO: 81788;84297"
            }
        },
        {
            "id": 81788,
            "type": "Feature",
            "geometry": {
                "type": "Point",
                "coordinates": [
                    22.11109,
                    49.67576
                ]
            },
            "properties": {
                "ref:rspo": 81788,
                "official_name": "Przedszkole Gminne w Niebocku",
                "name": "Przedszkole Gminne w Niebocku",
                "addr:postcode": "36-207",
                "addr:place": "Niebocko",
                "addr:housenumber": "1",
                "addr:teryt:simc": 350898,
                "phone": "+48 134395830",
                "email": "gimniebo@poczta.onet.pl",
                "ref:regon": "180055955",
                "ref:vatin": "PL6861585399",
                "operator": "Gmina Dydnia",
                "operator:type": "government",
                "amenity": "kindergarten",
                "note": "Parent RSPO: 74458"
            }
        },
        {
            "id": 84297,
            "type": "Feature",
            "geometry": {
                "type": "Point",
                "coordinates": [
                    22.11109,
                    49.67573
                ]
            },
            "properties": {
                "isced:level": "1;2",
                "ref:rspo": 84297,
                "official_name": "Szko\u0142a Podstawowa im. W\u0142adys\u0142awa Jagie\u0142\u0142y w Niebocku",
                "name": "Szko\u0142a Podstawowa",
                "addr:postcode": "36-207",
                "addr:place": "Niebocko",
                "addr:housenumber": "1",
                "addr:teryt:simc": 350898,
                "phone": "+48 134395830",
                "email": "gimniebo@poczta.onet.pl",
                "website": "http:\/\/zsniebocko.pl",
                "ref:regon": "001197364",
                "ref:vatin": "PL6861503875",
                "operator": "Gmina Dydnia",
                "operator:type": "government",
                "amenity": "school",
                "note": "Parent RSPO: 74458"
            }
        },
        {
            "id": 84152,
            "type": "Feature",
            "geometry": {
                "type": "Point",
                "coordinates": [
                    22.1823,
                    49.68312
                ]
            },
            "properties": {
                "ref:rspo": 84152,
                "official_name": "Samorz\u0105dowe Przedszkole w Dydni",
                "name": "Samorz\u0105dowe Przedszkole w Dydni",
                "addr:postcode": "36-204",
                "addr:place": "Dydnia",
                "addr:housenumber": "212",
                "addr:teryt:simc": 350668,
                "phone": "+48 134303253",
                "email": "przedszkoledydnia@op.pl",
                "website": "http:\/\/www.przedszkoledydnia.samorzad.pl",
                "ref:regon": "180435860",
                "ref:vatin": "PL6861663283",
                "operator": "Gmina Dydnia",
                "operator:type": "government",
                "amenity": "kindergarten"
            }
        },
        {
            "id": 4394,
            "type": "Feature",
            "geometry": {
                "type": "Point",
                "coordinates": [
                    22.17453,
                    49.68538
                ]
            },
            "properties": {
                "ref:rspo": 4394,
                "official_name": "Szko\u0142a Muzyczna I Stopnia w Dydni",
                "name": "Szko\u0142a Muzyczna I Stopnia w Dydni",
                "addr:postcode": "36-204",
                "addr:place": "Dydnia",
                "addr:housenumber": "221",
                "addr:teryt:simc": 350668,
                "email": "smdydnia@poczta.onet.pl",
                "website": "http:\/\/smdydnia.pl",
                "ref:regon": "180878510",
                "ref:vatin": "PL6861685066",
                "operator": "Gmina Dydnia",
                "operator:type": "government",
                "amenity": "music_school"
            }
        },
        {
            "id": 83996,
            "type": "Feature",
            "geometry": {
                "type": "Point",
                "coordinates": [
                    22.17453,
                    49.68535
                ]
            },
            "properties": {
                "isced:level": "1;2",
                "ref:rspo": 83996,
                "official_name": "Szko\u0142a Podstawowa im. \u015awi\u0119tej Kr\u00f3lowej Jadwigi w Dydni",
                "name": "Szko\u0142a Podstawowa",
                "addr:postcode": "36-204",
                "addr:place": "Dydnia",
                "addr:housenumber": "221",
                "addr:teryt:simc": 350668,
                "phone": "+48 134303530",
                "email": "sp_dydniaz@poczta.onet.pl",
                "website": "http:\/\/www.zsdydnia.eu",
                "ref:regon": "001197335",
                "ref:vatin": "PL6861683771",
                "operator": "Gmina Dydnia",
                "operator:type": "government",
                "amenity": "school"
            }
        },
        {
            "id": 60228,
            "type": "Feature",
            "geometry": {
                "type": "Point",
                "coordinates": [
                    22.10696,
                    49.6932
                ]
            },
            "properties": {
                "isced:level": "1;2",
                "ref:rspo": 60228,
                "official_name": "Szko\u0142a Podstawowa im. Jana Paw\u0142a II w Jab\u0142once",
                "name": "Szko\u0142a Podstawowa",
                "addr:postcode": "36-204",
                "addr:place": "Jab\u0142onka",
                "addr:housenumber": "19",
                "addr:teryt:simc": 350757,
                "phone": "+48 134303412",
                "email": "spjablonka@poczta.onet.pl",
                "website": "http:\/\/www.spjablonka.edupage.org",
                "ref:regon": "001197370",
                "ref:vatin": "PL6861503964",
                "operator": "Gmina Dydnia",
                "operator:type": "government",
                "amenity": "school"
            }
        },
        {
            "id": 5828,
            "type": "Feature",
            "geometry": {
                "type": "Point",
                "coordinates": [
                    22.17852,
                    49.71437
                ]
            },
            "properties": {
                "isced:level": "1;2",
                "ref:rspo": 5828,
                "official_name": "Szko\u0142a Podstawowa w Obarzymie",
                "name": "Szko\u0142a Podstawowa w Obarzymie",
                "addr:postcode": "36-204",
                "addr:place": "Obarzym",
                "addr:housenumber": "36A",
                "addr:teryt:simc": 351030,
                "phone": "+48 134303030",
                "email": "dorotka18@vip.onet.pl",
                "ref:regon": "180879194",
                "operator": "Stowarzyszenie \"Ziemia Dydy\u0144ska Przyjazna Dzieciom\"",
                "operator:type": "ngo",
                "amenity": "school"
            }
        },
        {
            "id": 59973,
            "type": "Feature",
            "geometry": {
                "type": "Point",
                "coordinates": [
                    22.1304,
                    49.71661
                ]
            },
            "properties": {
                "isced:level": "1;2",
                "ref:rspo": 59973,
                "official_name": "Szko\u0142a Podstawowa w Wydrnej",
                "name": "Szko\u0142a Podstawowa w Wydrnej",
                "addr:postcode": "36-204",
                "addr:place": "Wydrna",
                "addr:housenumber": "132",
                "addr:teryt:simc": 351225,
                "phone": "+48 134303220",
                "email": "sp_wydrna@op.pl",
                "ref:regon": "001197341",
                "ref:vatin": "PL6861503817",
                "operator": "Gmina Dydnia",
                "operator:type": "government",
                "amenity": "school"
            }
        },
        {
            "id": 5826,
            "type": "Feature",
            "geometry": {
                "type": "Point",
                "coordinates": [
                    22.21933,
                    49.7281
                ]
            },
            "properties": {
                "isced:level": "1;2",
                "ref:rspo": 5826,
                "official_name": "Szko\u0142a Podstawowa w Niewistce",
                "name": "Szko\u0142a Podstawowa w Niewistce",
                "addr:postcode": "36-204",
                "addr:place": "Niewistka",
                "addr:housenumber": "37",
                "addr:teryt:simc": 350987,
                "phone": "+48 134303150",
                "email": "szkola.niewistka@onet.pl",
                "ref:regon": "180879202",
                "operator": "Stowarzyszenie \"Ziemia Dydy\u0144ska Przyjazna Dzieciom\"",
                "operator:type": "ngo",
                "amenity": "school"
            }
        }
    ]
}