{
    "type": "FeatureCollection",
    "features": [
        {
            "id": 109436,
            "type": "Feature",
            "geometry": {
                "type": "Point",
                "coordinates": [
                    22.04313,
                    49.64551
                ]
            },
            "properties": {
                "isced:level": "1;2",
                "ref:rspo": 109436,
                "official_name": "Szko\u0142a Podstawowa\nIm.w.witosa\nW G\u00f3rkach",
                "name": "Szko\u0142a Podstawowa\nIm.w.witosa\nW G\u00f3rkach",
                "addr:postcode": "36-200",
                "addr:place": "G\u00f3rki",
                "addr:housenumber": "78 A",
                "addr:city:simc": 345495,
                "phone": "+48 134345614",
                "email": "zespolszkolgorki@poczta.onet.pl",
                "website": "http:\/\/spgorki.pl",
                "ref:regon": "001199972",
                "ref:vatin": "PL6861568716",
                "operator": "Gmina Brzoz\u00f3w",
                "operator:type": "government",
                "amenity": "school"
            }
        },
        {
            "id": 109407,
            "type": "Feature",
            "geometry": {
                "type": "Point",
                "coordinates": [
                    22.07874,
                    49.65494
                ]
            },
            "properties": {
                "isced:level": "1;2",
                "ref:rspo": 109407,
                "official_name": "Szko\u0142a Podstawowa \nIm. M.konopnickiej\nW Grabownicy Starze\u0144skiej",
                "name": "Szko\u0142a Podstawowa \nIm. M.konopnickiej\nW Grabownicy Starze\u0144skiej",
                "addr:postcode": "36-207",
                "addr:place": "Grabownica Starze\u0144ska",
                "addr:housenumber": "584",
                "addr:city:simc": 345615,
                "phone": "+48 134395012",
                "email": "szkola@spgrabownica.pl",
                "website": "http:\/\/spgrabownica.pl",
                "ref:regon": "001199989",
                "ref:vatin": "PL6861568739",
                "operator": "Gmina Brzoz\u00f3w",
                "operator:type": "government",
                "amenity": "school"
            }
        },
        {
            "id": 109256,
            "type": "Feature",
            "geometry": {
                "type": "Point",
                "coordinates": [
                    22.08339,
                    49.66557
                ]
            },
            "properties": {
                "ref:rspo": 109256,
                "official_name": "Przedszkole Samorzadowe\nW Grabownicy Starze\u0144skiej",
                "name": "Przedszkole Samorzadowe\nW Grabownicy Starze\u0144skiej",
                "addr:postcode": "36-207",
                "addr:place": "Grabownica Starze\u0144ska",
                "addr:housenumber": "244",
                "addr:city:simc": 345615,
                "phone": "+48 134395148",
                "email": "grabownicaps@gmail.com",
                "website": "http:\/\/www.psgrabownica.brzozow.pl",
                "ref:regon": "370484669",
                "ref:vatin": "PL6861488727",
                "operator": "Gmina Brzoz\u00f3w",
                "operator:type": "government",
                "amenity": "kindergarten"
            }
        },
        {
            "id": 109464,
            "type": "Feature",
            "geometry": {
                "type": "Point",
                "coordinates": [
                    22.00201,
                    49.66649
                ]
            },
            "properties": {
                "isced:level": "1;2",
                "ref:rspo": 109464,
                "official_name": "Szko\u0142a Podstawowa\nIm.prof. W.pa\u0144ki\nW Turzym Polu",
                "name": "Szko\u0142a Podstawowa\nIm.prof. W.pa\u0144ki\nW Turzym Polu",
                "addr:postcode": "36-200",
                "addr:place": "Turze Pole",
                "addr:housenumber": "152",
                "addr:city:simc": 346135,
                "phone": "+48 134341391",
                "email": "spturze@poczta.onet.pl",
                "website": "http:\/\/www.spturzepole.brzozow.pl",
                "ref:regon": "001198228",
                "ref:vatin": "PL6861644972",
                "operator": "Gmina Brzoz\u00f3w",
                "operator:type": "government",
                "amenity": "school"
            }
        },
        {
            "id": 109303,
            "type": "Feature",
            "geometry": {
                "type": "Point",
                "coordinates": [
                    21.96023,
                    49.67143
                ]
            },
            "properties": {
                "isced:level": "1;2",
                "ref:rspo": 109303,
                "official_name": "Szko\u0142a Podstawowa \nW Zmiennicy",
                "name": "Szko\u0142a Podstawowa \nW Zmiennicy",
                "addr:postcode": "36-200",
                "addr:place": "Zmiennica",
                "addr:housenumber": "29",
                "addr:city:simc": 346218,
                "phone": "+48 134393030",
                "email": "spzmiennica@poczta.onet.pl",
                "website": "http:\/\/www.spzmiennica.cba.pl",
                "ref:regon": "001200250",
                "ref:vatin": "PL6861470584",
                "operator": "Gmina Brzoz\u00f3w",
                "operator:type": "government",
                "amenity": "school"
            }
        },
        {
            "id": 109254,
            "type": "Feature",
            "geometry": {
                "type": "Point",
                "coordinates": [
                    22.0536299,
                    49.67514
                ]
            },
            "properties": {
                "ref:rspo": 109254,
                "official_name": "Przedszkole Samorz\u0105dowe nr 1 w Humniskach",
                "name": "Przedszkole Samorz\u0105dowe nr 1 w Humniskach",
                "addr:postcode": "36-206",
                "addr:place": "Humniska",
                "addr:housenumber": "266",
                "addr:city:simc": 345704,
                "phone": "+48 134346323",
                "email": "ps1.humniska@gmail.com",
                "website": "http:\/\/www.przedszkolehumniska.pl",
                "ref:regon": "370484646",
                "ref:vatin": "PL6861488710",
                "operator": "Gmina Brzoz\u00f3w",
                "operator:type": "government",
                "amenity": "kindergarten",
                "note": "Parent RSPO: 277971"
            }
        },
        {
            "id": 277971,
            "type": "Feature",
            "geometry": {
                "type": "Point",
                "coordinates": [
                    22.05322,
                    49.67546
                ]
            },
            "properties": {
                "ref:rspo": 277971,
                "official_name": "Zesp\u00f3\u0142 Szkolno - Przedszkolny w Humniskach",
                "name": "Zesp\u00f3\u0142 Szkolno - Przedszkolny w Humniskach",
                "addr:postcode": "36-206",
                "addr:place": "Humniska",
                "addr:housenumber": "264",
                "addr:city:simc": 345704,
                "phone": "+48 134346322",
                "email": "sphumniska@poczta.fm",
                "website": "http:\/\/sphumniska.pl",
                "ref:regon": "389713000",
                "operator": "Gmina Brzoz\u00f3w",
                "operator:type": "government",
                "landuse": "education",
                "fixme": "amenity=school, amenity=college albo landuse=education w zale\u017cno\u015bci od tego, jakie plac\u00f3wki wchodz\u0105 w sk\u0142ad zespo\u0142u. Sprawd\u017a, kiedy stosowa\u0107 amenity=* a kiedy landuse=education.",
                "note": "Children RSPO: 109254;109446"
            }
        },
        {
            "id": 109460,
            "type": "Feature",
            "geometry": {
                "type": "Point",
                "coordinates": [
                    22.038650512695,
                    49.685199737549
                ]
            },
            "properties": {
                "isced:level": "1;2",
                "ref:rspo": 109460,
                "official_name": "Szko\u0142a Podstawowa nr 2\nIm.I.\u0142ukasiewicza\nW Humniskach",
                "name": "Szko\u0142a Podstawowa nr 2\nIm.I.\u0142ukasiewicza\nW Humniskach",
                "addr:postcode": "36-206",
                "addr:city": "Humniska",
                "addr:street": "Rondo abp. Ignacego Tokarczuka",
                "addr:housenumber": "877",
                "addr:city:simc": 345704,
                "addr:street:sym_ul": 49867,
                "phone": "+48 134341787",
                "email": "zs2humniska@interia.pl",
                "website": "https:\/\/sp2humniska.pl\/",
                "ref:regon": "001197973",
                "ref:vatin": "PL6861644966",
                "operator": "Gmina Brzoz\u00f3w",
                "operator:type": "government",
                "amenity": "school"
            }
        },
        {
            "id": 109446,
            "type": "Feature",
            "geometry": {
                "type": "Point",
                "coordinates": [
                    22.038650512695,
                    49.685169737548996
                ]
            },
            "properties": {
                "isced:level": "1;2",
                "ref:rspo": 109446,
                "official_name": "Szko\u0142a Podstawowa nr 1 im.kr\u00f3lowej Jadwigi w Humniskach",
                "name": "Szko\u0142a Podstawowa nr 1 im.kr\u00f3lowej Jadwigi w Humniskach",
                "addr:postcode": "36-206",
                "addr:city": "Humniska",
                "addr:street": "Rondo abp. Ignacego Tokarczuka",
                "addr:housenumber": "264",
                "addr:city:simc": 345704,
                "addr:street:sym_ul": 49867,
                "phone": "+48 134346322",
                "email": "sphumniska@poczta.fm",
                "website": "http:\/\/www.sphumniska.pl",
                "ref:regon": "001199966",
                "ref:vatin": "PL6861568745",
                "operator": "Gmina Brzoz\u00f3w",
                "operator:type": "government",
                "amenity": "school",
                "note": "Parent RSPO: 277971"
            }
        },
        {
            "id": 109255,
            "type": "Feature",
            "geometry": {
                "type": "Point",
                "coordinates": [
                    22.02993,
                    49.68577
                ]
            },
            "properties": {
                "ref:rspo": 109255,
                "official_name": "Przedszkole Samorz\u0105dowe nr 2\nW Humniskach",
                "name": "Przedszkole Samorz\u0105dowe nr 2\nW Humniskach",
                "addr:postcode": "36-206",
                "addr:place": "Humniska",
                "addr:housenumber": "848",
                "addr:city:simc": 345704,
                "phone": "+48 134341255",
                "email": "ps2humniska@o2.pl",
                "website": "http:\/\/www.humnisie.brzozow.pl",
                "ref:regon": "370484630",
                "ref:vatin": "PL6861488733",
                "operator": "Gmina Brzoz\u00f3w",
                "operator:type": "government",
                "amenity": "kindergarten"
            }
        },
        {
            "id": 128398,
            "type": "Feature",
            "geometry": {
                "type": "Point",
                "coordinates": [
                    22.01237,
                    49.69155
                ]
            },
            "properties": {
                "ref:rspo": 128398,
                "official_name": "Pedagogiczna Biblioteka Wojew\u00f3dzka w Kro\u015bnie Filia w Brzozowie",
                "name": "Pedagogiczna Biblioteka Wojew\u00f3dzka w Kro\u015bnie Filia w Brzozowie",
                "addr:postcode": "36-200",
                "addr:city": "Brzoz\u00f3w",
                "addr:street": "Parkowa",
                "addr:housenumber": "13",
                "addr:city:simc": 952841,
                "addr:street:sym_ul": 15710,
                "phone": "+48 134341808",
                "email": "brzozow@pbw.org.pl",
                "ref:regon": "402045900",
                "operator": "Wojew\u00f3dztwo Podkarpackie",
                "operator:type": "government",
                "amenity": "library",
                "note": "Parent RSPO: 92374"
            }
        },
        {
            "id": 41904,
            "type": "Feature",
            "geometry": {
                "type": "Point",
                "coordinates": [
                    22.02141,
                    49.69177
                ]
            },
            "properties": {
                "ref:rspo": 41904,
                "official_name": "Zesp\u00f3\u0142 Szk\u00f3\u0142 Budowlanych im. Tadeusza Ko\u015bciuszki",
                "name": "Zesp\u00f3\u0142 Szk\u00f3\u0142 Budowlanych",
                "addr:postcode": "36-200",
                "addr:city": "Brzoz\u00f3w",
                "addr:street": "S\u0142oneczna",
                "addr:housenumber": "6",
                "addr:city:simc": 952841,
                "addr:street:sym_ul": 20254,
                "phone": "+48 134341851",
                "email": "zsbbrzozow@wp.pl",
                "website": "http:\/\/zsbbrzozow.pl\/",
                "ref:regon": "000178749",
                "ref:vatin": "PL6861294578",
                "operator": "Powiat Brzozowski",
                "operator:type": "government",
                "landuse": "education",
                "fixme": "amenity=school, amenity=college albo landuse=education w zale\u017cno\u015bci od tego, jakie plac\u00f3wki wchodz\u0105 w sk\u0142ad zespo\u0142u. Sprawd\u017a, kiedy stosowa\u0107 amenity=* a kiedy landuse=education.",
                "note": "Children RSPO: 52369;52371;52374;52378;52382"
            }
        },
        {
            "id": 52369,
            "type": "Feature",
            "geometry": {
                "type": "Point",
                "coordinates": [
                    22.02141,
                    49.691739999999996
                ]
            },
            "properties": {
                "isced:level": "3",
                "ref:rspo": 52369,
                "official_name": "Iii Liceum Og\u00f3lnokszta\u0142c\u0105ce",
                "name": "Iii Liceum Og\u00f3lnokszta\u0142c\u0105ce",
                "addr:postcode": "36-200",
                "addr:city": "Brzoz\u00f3w",
                "addr:street": "S\u0142oneczna",
                "addr:housenumber": "6",
                "addr:city:simc": 952841,
                "addr:street:sym_ul": 20254,
                "phone": "+48 134341851",
                "email": "zsbbrzozow@wp.pl",
                "website": "http:\/\/zsbbrzozow6.republika.pl\/",
                "ref:regon": "371015304",
                "operator": "Powiat Brzozowski",
                "operator:type": "government",
                "amenity": "school",
                "note": "Parent RSPO: 41904"
            }
        },
        {
            "id": 52371,
            "type": "Feature",
            "geometry": {
                "type": "Point",
                "coordinates": [
                    22.02141,
                    49.69171
                ]
            },
            "properties": {
                "isced:level": "3",
                "ref:rspo": 52371,
                "official_name": "Technikum nr 2",
                "name": "Technikum nr 2",
                "addr:postcode": "36-200",
                "addr:city": "Brzoz\u00f3w",
                "addr:street": "S\u0142oneczna",
                "addr:housenumber": "6",
                "addr:city:simc": 952841,
                "addr:street:sym_ul": 20254,
                "phone": "+48 134341851",
                "email": "zsbbrzozow@wp.pl",
                "website": "http:\/\/zsbbrzozow.pl\/",
                "ref:regon": "371015296",
                "operator": "Powiat Brzozowski",
                "operator:type": "government",
                "amenity": "school",
                "note": "Parent RSPO: 41904"
            }
        },
        {
            "id": 52374,
            "type": "Feature",
            "geometry": {
                "type": "Point",
                "coordinates": [
                    22.02141,
                    49.69168
                ]
            },
            "properties": {
                "isced:level": "3",
                "ref:rspo": 52374,
                "official_name": "Bran\u017cowa Szko\u0142a I Stopnia",
                "name": "Bran\u017cowa Szko\u0142a I Stopnia",
                "addr:postcode": "36-200",
                "addr:city": "Brzoz\u00f3w",
                "addr:street": "S\u0142oneczna",
                "addr:housenumber": "6",
                "addr:city:simc": 952841,
                "addr:street:sym_ul": 20254,
                "phone": "+48 134341851",
                "email": "zsbbrzozow@wp.pl",
                "website": "http:\/\/zsbbrzozow.pl\/",
                "ref:regon": "371015333",
                "operator": "Powiat Brzozowski",
                "operator:type": "government",
                "amenity": "school",
                "note": "Parent RSPO: 41904"
            }
        },
        {
            "id": 52378,
            "type": "Feature",
            "geometry": {
                "type": "Point",
                "coordinates": [
                    22.02141,
                    49.691649999999996
                ]
            },
            "properties": {
                "isced:level": "3",
                "ref:rspo": 52378,
                "official_name": "Liceum Og\u00f3lnokszta\u0142c\u0105ce dla Doros\u0142ych",
                "name": "Liceum Og\u00f3lnokszta\u0142c\u0105ce dla Doros\u0142ych",
                "addr:postcode": "36-200",
                "addr:city": "Brzoz\u00f3w",
                "addr:street": "S\u0142oneczna",
                "addr:housenumber": "6",
                "addr:city:simc": 952841,
                "addr:street:sym_ul": 20254,
                "phone": "+48 134341851",
                "email": "zsbbrzozow@wp.pl",
                "website": "http:\/\/zsbbrzozow.pl\/",
                "ref:regon": "180469929",
                "operator": "Powiat Brzozowski",
                "operator:type": "government",
                "amenity": "school",
                "note": "Parent RSPO: 41904"
            }
        },
        {
            "id": 52382,
            "type": "Feature",
            "geometry": {
                "type": "Point",
                "coordinates": [
                    22.02141,
                    49.69162
                ]
            },
            "properties": {
                "isced:level": "4",
                "ref:rspo": 52382,
                "official_name": "Szko\u0142a Policealna",
                "name": "Szko\u0142a Policealna",
                "addr:postcode": "36-200",
                "addr:city": "Brzoz\u00f3w",
                "addr:street": "S\u0142oneczna",
                "addr:housenumber": "6",
                "addr:city:simc": 952841,
                "addr:street:sym_ul": 20254,
                "phone": "+48 134341851",
                "email": "zsbbrzozow@wp.pl",
                "website": "http:\/\/zsbbrzozow.pl\/",
                "ref:regon": "371185897",
                "operator": "Powiat Brzozowski",
                "operator:type": "government",
                "amenity": "college",
                "note": "Parent RSPO: 41904"
            }
        },
        {
            "id": 110158,
            "type": "Feature",
            "geometry": {
                "type": "Point",
                "coordinates": [
                    22.01437,
                    49.69235
                ]
            },
            "properties": {
                "isced:level": "1;2",
                "ref:rspo": 110158,
                "official_name": "Szko\u0142a Podstawowa nr 1\nIm.w\u0142.szafera\nW Brzozowie",
                "name": "Szko\u0142a Podstawowa nr 1\nIm.w\u0142.szafera\nW Brzozowie",
                "addr:postcode": "36-200",
                "addr:city": "Brzoz\u00f3w",
                "addr:street": "Parkowa",
                "addr:housenumber": "5",
                "addr:city:simc": 952841,
                "addr:street:sym_ul": 15710,
                "phone": "+48 134341937",
                "email": "sp@spbrzozow.pl",
                "website": "https:\/\/www.spbrzozow.pl\/",
                "ref:regon": "001199995",
                "ref:vatin": "PL6861470288",
                "operator": "Gmina Brzoz\u00f3w",
                "operator:type": "government",
                "amenity": "school"
            }
        },
        {
            "id": 42013,
            "type": "Feature",
            "geometry": {
                "type": "Point",
                "coordinates": [
                    22.01732,
                    49.69288
                ]
            },
            "properties": {
                "ref:rspo": 42013,
                "official_name": "Poradnia Psychologiczno-Pedagogiczna",
                "name": "Poradnia Psychologiczno-Pedagogiczna",
                "addr:postcode": "36-200",
                "addr:city": "Brzoz\u00f3w",
                "addr:street": "Henryka Sienkiewicza",
                "addr:housenumber": "2",
                "addr:city:simc": 952841,
                "addr:street:sym_ul": 19834,
                "phone": "+48 134341053",
                "email": "poradniapp.brzozow@gmail.com",
                "website": "http:\/\/www.ppp.powiatbrzozow.pl\/",
                "ref:regon": "371000774",
                "ref:vatin": "PL6861465488",
                "operator": "Powiat Brzozowski",
                "operator:type": "government",
                "healthcare": "counselling",
                "counselling_type": "education",
                "fixme": "w zale\u017cno\u015bci od przedmiotu dzia\u0142alno\u015bci (np. healthcare=counselling + counselling_type=education albo healthcare=psychotherapist)"
            }
        },
        {
            "id": 109252,
            "type": "Feature",
            "geometry": {
                "type": "Point",
                "coordinates": [
                    22.01687,
                    49.69363
                ]
            },
            "properties": {
                "ref:rspo": 109252,
                "official_name": "Przedszkole Samorz\u0105dowe nr 1 \nIm. B\u0142. S. C. Faron \nW Brzozowie",
                "name": "Przedszkole Samorz\u0105dowe nr 1 \nIm. B\u0142. S. C. Faron \nW Brzozowie",
                "addr:postcode": "36-200",
                "addr:city": "Brzoz\u00f3w",
                "addr:street": "Armii Krajowej",
                "addr:housenumber": "5",
                "addr:city:simc": 952841,
                "addr:street:sym_ul": 432,
                "phone": "+48 134341254",
                "email": "psnr1b@wp.pl",
                "website": "http:\/\/ps1brzozow.pl",
                "ref:regon": "370484600",
                "ref:vatin": "PL6861488957",
                "operator": "Gmina Brzoz\u00f3w",
                "operator:type": "government",
                "amenity": "kindergarten"
            }
        },
        {
            "id": 109253,
            "type": "Feature",
            "geometry": {
                "type": "Point",
                "coordinates": [
                    22.02374,
                    49.69394
                ]
            },
            "properties": {
                "ref:rspo": 109253,
                "official_name": "Przedszkole Samorz\u0105dowe nr 2 z Oddzia\u0142ami Integracyjnymi im. M. Konopnickiejw Brzozowie",
                "name": "Przedszkole Samorz\u0105dowe nr 2 z Oddzia\u0142ami Integracyjnymi",
                "addr:postcode": "36-200",
                "addr:city": "Brzoz\u00f3w",
                "addr:street": "Ksi\u0119dza J\u00f3zefa Bielawskiego",
                "addr:housenumber": "11",
                "addr:city:simc": 952841,
                "addr:street:sym_ul": 1252,
                "phone": "+48 134341917",
                "email": "przedszkolenr2brzozow@gmail.com",
                "website": "http:\/\/www.ps2.brzozow.pl",
                "ref:regon": "370484623",
                "ref:vatin": "PL6861488934",
                "operator": "Gmina Brzoz\u00f3w",
                "operator:type": "government",
                "amenity": "kindergarten"
            }
        },
        {
            "id": 41905,
            "type": "Feature",
            "geometry": {
                "type": "Point",
                "coordinates": [
                    22.018209457398,
                    49.693969726562
                ]
            },
            "properties": {
                "ref:rspo": 41905,
                "official_name": "Zesp\u00f3\u0142 Szk\u00f3\u0142 Ekonomicznych im. Komisji Edukacji Narodowej",
                "name": "Zesp\u00f3\u0142 Szk\u00f3\u0142 Ekonomicznych",
                "addr:postcode": "36-200",
                "addr:city": "Brzoz\u00f3w",
                "addr:street": "Profesora Waleriana Pa\u0144ki",
                "addr:housenumber": "1",
                "addr:city:simc": 952841,
                "addr:street:sym_ul": 44841,
                "phone": "+48 134341782",
                "email": "zsebrzoz@pro.onet.pl",
                "website": "http:\/\/zsebrzozow.edupage.org",
                "ref:regon": "000879363",
                "ref:vatin": "PL6861294897",
                "operator": "Powiat Brzozowski",
                "operator:type": "government",
                "landuse": "education",
                "fixme": "amenity=school, amenity=college albo landuse=education w zale\u017cno\u015bci od tego, jakie plac\u00f3wki wchodz\u0105 w sk\u0142ad zespo\u0142u. Sprawd\u017a, kiedy stosowa\u0107 amenity=* a kiedy landuse=education.",
                "note": "Children RSPO: 49959;49960"
            }
        },
        {
            "id": 42011,
            "type": "Feature",
            "geometry": {
                "type": "Point",
                "coordinates": [
                    22.018209457398,
                    49.693939726562
                ]
            },
            "properties": {
                "ref:rspo": 42011,
                "official_name": "Specjalny O\u015brodek Szkolno-Wychowawczy im. B\u0142ogos\u0142awionego Ksi\u0119dza Bronis\u0142awa Markiewicza",
                "name": "Specjalny O\u015brodek Szkolno-Wychowawczy",
                "addr:postcode": "36-200",
                "addr:city": "Brzoz\u00f3w",
                "addr:street": "1000-lecia",
                "addr:housenumber": "27",
                "addr:city:simc": 952841,
                "addr:street:sym_ul": 9,
                "phone": "+48 134341776",
                "email": "soswbrz@interia.pl",
                "website": "http:\/\/soswbrzozow.pl\/",
                "ref:regon": "001060429",
                "ref:vatin": "PL6861263508",
                "operator": "Powiat Brzozowski",
                "operator:type": "government",
                "amenity": "school",
                "note": "Children RSPO: 53391;53429;271121"
            }
        },
        {
            "id": 42107,
            "type": "Feature",
            "geometry": {
                "type": "Point",
                "coordinates": [
                    22.018209457398,
                    49.693909726562005
                ]
            },
            "properties": {
                "isced:level": "3",
                "ref:rspo": 42107,
                "official_name": "I Liceum Og\u00f3lnokszta\u0142c\u0105ce im. Kr\u00f3la Kazimierza Wielkiego w Brzozowie",
                "name": "I Liceum Og\u00f3lnokszta\u0142c\u0105ce",
                "addr:postcode": "36-200",
                "addr:city": "Brzoz\u00f3w",
                "addr:street": "Profesora Waleriana Pa\u0144ki",
                "addr:housenumber": "2",
                "addr:city:simc": 952841,
                "addr:street:sym_ul": 44841,
                "phone": "+48 134341774",
                "email": "lobrzozow@gmail.com",
                "website": "http:\/\/lobrzozow.edupage.org\/",
                "ref:regon": "000229228",
                "ref:vatin": "PL6861686611",
                "operator": "Powiat Brzozowski",
                "operator:type": "government",
                "amenity": "school"
            }
        },
        {
            "id": 49959,
            "type": "Feature",
            "geometry": {
                "type": "Point",
                "coordinates": [
                    22.018209457398,
                    49.693879726562
                ]
            },
            "properties": {
                "isced:level": "3",
                "ref:rspo": 49959,
                "official_name": "Ii Liceum Og\u00f3lnokszta\u0142c\u0105ce",
                "name": "Ii Liceum Og\u00f3lnokszta\u0142c\u0105ce",
                "addr:postcode": "36-200",
                "addr:city": "Brzoz\u00f3w",
                "addr:street": "Profesora Waleriana Pa\u0144ki",
                "addr:housenumber": "1",
                "addr:city:simc": 952841,
                "addr:street:sym_ul": 44841,
                "phone": "+48 134341782",
                "email": "zsebrzoz@pro.onet.pl",
                "website": "http:\/\/zsebrzozow.edupage.org\/",
                "ref:regon": "371111982",
                "operator": "Powiat Brzozowski",
                "operator:type": "government",
                "amenity": "school",
                "note": "Parent RSPO: 41905"
            }
        },
        {
            "id": 49960,
            "type": "Feature",
            "geometry": {
                "type": "Point",
                "coordinates": [
                    22.018209457398,
                    49.693849726562
                ]
            },
            "properties": {
                "isced:level": "3",
                "ref:rspo": 49960,
                "official_name": "Technikum nr 1",
                "name": "Technikum nr 1",
                "addr:postcode": "36-200",
                "addr:city": "Brzoz\u00f3w",
                "addr:street": "Profesora Waleriana Pa\u0144ki",
                "addr:housenumber": "1",
                "addr:city:simc": 952841,
                "addr:street:sym_ul": 44841,
                "phone": "+48 134341782",
                "email": "zsebrzoz@pro.onet.pl",
                "website": "http:\/\/zsebrzozow.edupage.org\/",
                "ref:regon": "371111976",
                "operator": "Powiat Brzozowski",
                "operator:type": "government",
                "amenity": "school",
                "note": "Parent RSPO: 41905"
            }
        },
        {
            "id": 53391,
            "type": "Feature",
            "geometry": {
                "type": "Point",
                "coordinates": [
                    22.018209457398,
                    49.693819726562005
                ]
            },
            "properties": {
                "ref:rspo": 53391,
                "official_name": "Szko\u0142a Specjalna Przysposabiaj\u0105ca do Pracy",
                "name": "Szko\u0142a Specjalna Przysposabiaj\u0105ca do Pracy",
                "addr:postcode": "36-200",
                "addr:city": "Brzoz\u00f3w",
                "addr:street": "1000-lecia",
                "addr:housenumber": "27",
                "addr:city:simc": 952841,
                "addr:street:sym_ul": 9,
                "phone": "+48 134341776",
                "email": "soswbrz@interia.pl",
                "website": "http:\/\/www.soswbrzozow.pl",
                "ref:regon": "371182522",
                "operator": "Powiat Brzozowski",
                "operator:type": "government",
                "amenity": "school",
                "note": "Parent RSPO: 42011"
            }
        },
        {
            "id": 53429,
            "type": "Feature",
            "geometry": {
                "type": "Point",
                "coordinates": [
                    22.018209457398,
                    49.693789726562
                ]
            },
            "properties": {
                "isced:level": "1;2",
                "ref:rspo": 53429,
                "official_name": "Szko\u0142a Podstawowa nr 2 Specjalna w Brzozowie Przy Specjalnym O\u015brodku Szkolno-Wychowawczym",
                "name": "Szko\u0142a Podstawowa nr 2 Specjalna w Brzozowie Przy Specjalnym O\u015brodku Szkolno-Wychowawczym",
                "addr:postcode": "36-200",
                "addr:city": "Brzoz\u00f3w",
                "addr:street": "1000-lecia",
                "addr:housenumber": "27",
                "addr:city:simc": 952841,
                "addr:street:sym_ul": 9,
                "phone": "+48 134341776",
                "email": "soswbrz@interia.pl",
                "website": "http:\/\/www.soswbrzozow.pl",
                "ref:regon": "371012872",
                "operator": "Powiat Brzozowski",
                "operator:type": "government",
                "amenity": "school",
                "note": "Parent RSPO: 42011"
            }
        },
        {
            "id": 271121,
            "type": "Feature",
            "geometry": {
                "type": "Point",
                "coordinates": [
                    22.018209457398,
                    49.693759726562
                ]
            },
            "properties": {
                "ref:rspo": 271121,
                "official_name": "Przedszkole Specjalne w Specjalnym O\u015brodku Szkolno-Wychowawczym im. B\u0142. Ks. B. Markiewicza w Brzozowie",
                "name": "Przedszkole Specjalne w Specjalnym O\u015brodku Szkolno-Wychowawczym",
                "addr:postcode": "36-200",
                "addr:city": "Brzoz\u00f3w",
                "addr:street": "1000-lecia",
                "addr:housenumber": "27",
                "addr:city:simc": 952841,
                "addr:street:sym_ul": 9,
                "phone": "+48 134341776",
                "email": "soswbrz@interia.pl",
                "website": "http:\/\/www.soswbrzozow.pl",
                "ref:regon": "383097824",
                "operator": "Powiat Brzozowski",
                "operator:type": "government",
                "amenity": "kindergarten",
                "note": "Parent RSPO: 42011"
            }
        },
        {
            "id": 44530,
            "type": "Feature",
            "geometry": {
                "type": "Point",
                "coordinates": [
                    22.017444610596,
                    49.695224761963
                ]
            },
            "properties": {
                "ref:rspo": 44530,
                "official_name": "Centrum Us\u0142ug Szkoleniowych-Edu Consult",
                "name": "Centrum Us\u0142ug Szkoleniowych-Edu Consult",
                "addr:postcode": "36-200",
                "addr:city": "Brzoz\u00f3w",
                "addr:street": "1000-lecia",
                "addr:housenumber": "18",
                "addr:city:simc": 952841,
                "addr:street:sym_ul": 9,
                "phone": "+48 506181391",
                "email": "edu.consult@op.pl",
                "ref:regon": "180899653",
                "ref:vatin": "PL6871362206",
                "operator": "Zbigniew Pospolitak",
                "operator:type": "private",
                "fixme": "w zale\u017cno\u015bci od przedmiotu dzia\u0142alno\u015bci (np. amenity=training + training=*, amenity=dancing_school, amenity=language_school, amenity=music_school)"
            }
        },
        {
            "id": 49524,
            "type": "Feature",
            "geometry": {
                "type": "Point",
                "coordinates": [
                    22.01444,
                    49.71254
                ]
            },
            "properties": {
                "ref:rspo": 49524,
                "official_name": "Prywatna Szko\u0142a Muzyczna I St. w Starej Wsi",
                "name": "Prywatna Szko\u0142a Muzyczna I St. w Starej Wsi",
                "addr:postcode": "36-200",
                "addr:place": "Stara Wie\u015b",
                "addr:housenumber": "790",
                "addr:city:simc": 346046,
                "phone": "+48 134342525",
                "email": "mazurbarbara@interia.pl",
                "website": "http:\/\/psmstarawies.pl",
                "ref:regon": "180907097",
                "operator": "Barbara Mazur",
                "operator:type": "private",
                "amenity": "music_school"
            }
        },
        {
            "id": 109257,
            "type": "Feature",
            "geometry": {
                "type": "Point",
                "coordinates": [
                    22.01444,
                    49.712509999999995
                ]
            },
            "properties": {
                "ref:rspo": 109257,
                "official_name": "Przedszkole Samorz\u0105dowe\nW Starej Wsi",
                "name": "Przedszkole Samorz\u0105dowe\nW Starej Wsi",
                "addr:postcode": "36-200",
                "addr:place": "Stara Wie\u015b",
                "addr:housenumber": "790A",
                "addr:city:simc": 346046,
                "phone": "+48 134342521",
                "email": "przedszkolesw@wp.pl",
                "website": "http:\/\/przedszkolesw.blox.pl",
                "ref:regon": "370484652",
                "ref:vatin": "PL6861488940",
                "operator": "Gmina Brzoz\u00f3w",
                "operator:type": "government",
                "amenity": "kindergarten"
            }
        },
        {
            "id": 109469,
            "type": "Feature",
            "geometry": {
                "type": "Point",
                "coordinates": [
                    22.01444,
                    49.71248
                ]
            },
            "properties": {
                "isced:level": "1;2",
                "ref:rspo": 109469,
                "official_name": "Szko\u0142a Podstawowa \nIm. Naj\u015bwi\u0119tszego Serca\nJezusa w Starej Wsi",
                "name": "Szko\u0142a Podstawowa \nIm. Naj\u015bwi\u0119tszego Serca\nJezusa w Starej Wsi",
                "addr:postcode": "36-200",
                "addr:place": "Stara Wie\u015b",
                "addr:housenumber": "790",
                "addr:city:simc": 346046,
                "phone": "+48 134342525",
                "email": "sp@szkolastarawies.pl",
                "website": "http:\/\/www.spstarawies.net.pl",
                "ref:regon": "001197944",
                "ref:vatin": "PL6861568722",
                "operator": "Gmina Brzoz\u00f3w",
                "operator:type": "government",
                "amenity": "school"
            }
        },
        {
            "id": 126816,
            "type": "Feature",
            "geometry": {
                "type": "Point",
                "coordinates": [
                    22.01098,
                    49.7186
                ]
            },
            "properties": {
                "ref:rspo": 126816,
                "official_name": "Przedszkole Niepubliczne S\u0142ugi Bo\u017cej Leonii Nasta\u0142 Zgromadzenia Si\u00f3str S\u0142u\u017cebniczek\n w Starej Wsi",
                "name": "Przedszkole Niepubliczne S\u0142ugi Bo\u017cej Leonii Nasta\u0142 Zgromadzenia Si\u00f3str S\u0142u\u017cebniczek\n w Starej Wsi",
                "addr:postcode": "36-200",
                "addr:place": "Stara Wie\u015b",
                "addr:housenumber": "618",
                "addr:city:simc": 346046,
                "phone": "+48 603764264",
                "email": "kasiowka15@wp.pl",
                "ref:regon": "360770957",
                "operator": "Zg.ss.s\u0142u\u017cebniczek Nmp Niepokalanie Pocz\u0119tej, Dom Generalny",
                "operator:type": "religious",
                "amenity": "kindergarten"
            }
        },
        {
            "id": 109262,
            "type": "Feature",
            "geometry": {
                "type": "Point",
                "coordinates": [
                    22.0485,
                    49.7237099
                ]
            },
            "properties": {
                "ref:rspo": 109262,
                "official_name": "Zesp\u00f3\u0142 Szk\u00f3\u0142 nr 1\nW Przysietnicy",
                "name": "Zesp\u00f3\u0142 Szk\u00f3\u0142 nr 1\nW Przysietnicy",
                "addr:postcode": "36-200",
                "addr:place": "Przysietnica",
                "addr:housenumber": "198",
                "addr:city:simc": 345822,
                "phone": "+48 134349013",
                "email": "przysietnica_szkola@o2.pl",
                "website": "http:\/\/www.spp1.brzozow.pl",
                "ref:regon": "180802547",
                "ref:vatin": "PL6861684807",
                "operator": "Gmina Brzoz\u00f3w",
                "operator:type": "government",
                "landuse": "education",
                "fixme": "amenity=school, amenity=college albo landuse=education w zale\u017cno\u015bci od tego, jakie plac\u00f3wki wchodz\u0105 w sk\u0142ad zespo\u0142u. Sprawd\u017a, kiedy stosowa\u0107 amenity=* a kiedy landuse=education.",
                "note": "Children RSPO: 109510;109523"
            }
        },
        {
            "id": 109510,
            "type": "Feature",
            "geometry": {
                "type": "Point",
                "coordinates": [
                    22.0485,
                    49.7236799
                ]
            },
            "properties": {
                "isced:level": "1;2",
                "ref:rspo": 109510,
                "official_name": "Szko\u0142a Podstawowa nr 1\nIm.marii Konopnickiej\nW Przysietnicy",
                "name": "Szko\u0142a Podstawowa nr 1\nIm.marii Konopnickiej\nW Przysietnicy",
                "addr:postcode": "36-200",
                "addr:place": "Przysietnica",
                "addr:housenumber": "198",
                "addr:city:simc": 345822,
                "phone": "+48 134349013",
                "email": "przysietnica_szkola@o2.pl",
                "ref:regon": "001197950",
                "ref:vatin": "PL6861470265",
                "operator": "Gmina Brzoz\u00f3w",
                "operator:type": "government",
                "amenity": "school",
                "note": "Parent RSPO: 109262"
            }
        },
        {
            "id": 109523,
            "type": "Feature",
            "geometry": {
                "type": "Point",
                "coordinates": [
                    22.0485,
                    49.723649900000005
                ]
            },
            "properties": {
                "ref:rspo": 109523,
                "official_name": "Przedszkole Samorz\u0105dowe\nW Przysietnicy",
                "name": "Przedszkole Samorz\u0105dowe\nW Przysietnicy",
                "addr:postcode": "36-200",
                "addr:place": "Przysietnica",
                "addr:housenumber": "198",
                "addr:city:simc": 345822,
                "phone": "+48 134349013",
                "email": "przysietnica_szkola@o2.pl",
                "website": "http:\/\/www.spprzysietnica.brzozow.pl",
                "ref:regon": "180941846",
                "ref:vatin": "PL6861685103",
                "operator": "Gmina Brzoz\u00f3w",
                "operator:type": "government",
                "amenity": "kindergarten",
                "note": "Parent RSPO: 109262"
            }
        },
        {
            "id": 109430,
            "type": "Feature",
            "geometry": {
                "type": "Point",
                "coordinates": [
                    22.07251,
                    49.7341399
                ]
            },
            "properties": {
                "isced:level": "1;2",
                "ref:rspo": 109430,
                "official_name": "Szko\u0142a Podstawowa nr 2 im.ks. Paw\u0142a Komborskiego w Przysietnicy",
                "name": "Szko\u0142a Podstawowa nr 2 im.ks. Paw\u0142a Komborskiego w Przysietnicy",
                "addr:postcode": "36-200",
                "addr:place": "Przysietnica",
                "addr:housenumber": "514",
                "addr:city:simc": 345822,
                "phone": "+48 134349410",
                "email": "gimprzy@poczta.onet.pl",
                "website": "http:\/\/www.zsprzysietnica.edu.pl",
                "ref:regon": "001197967",
                "ref:vatin": "PL6861568691",
                "operator": "Gmina Brzoz\u00f3w",
                "operator:type": "government",
                "amenity": "school"
            }
        }
    ]
}