{
    "type": "FeatureCollection",
    "features": [
        {
            "id": 31078,
            "type": "Feature",
            "geometry": {
                "type": "Point",
                "coordinates": [
                    21.99571,
                    49.63722
                ]
            },
            "properties": {
                "isced:level": "1;2",
                "ref:rspo": 31078,
                "official_name": "Szko\u0142a Podstawowa im. Marii Konopnickiej we Wzdowie",
                "name": "Szko\u0142a Podstawowa",
                "addr:postcode": "36-211",
                "addr:place": "Wzd\u00f3w",
                "addr:housenumber": "121",
                "addr:teryt:simc": 351544,
                "phone": "+48 134393710",
                "email": "swzdow@poczta.wp.pl",
                "ref:regon": "001197306",
                "ref:vatin": "PL6861539318",
                "operator": "Gmina Hacz\u00f3w",
                "operator:type": "government",
                "amenity": "school"
            }
        },
        {
            "id": 31081,
            "type": "Feature",
            "geometry": {
                "type": "Point",
                "coordinates": [
                    21.92198,
                    49.64493
                ]
            },
            "properties": {
                "isced:level": "1;2",
                "ref:rspo": 31081,
                "official_name": "Szko\u0142a Podstawowa im. Gen. B. Prugara-Ketlinga w Trze\u015bniowie",
                "name": "Szko\u0142a Podstawowa",
                "addr:postcode": "36-212",
                "addr:place": "Trze\u015bni\u00f3w",
                "addr:housenumber": "107",
                "addr:teryt:simc": 351515,
                "phone": "+48 134394400",
                "email": "zstrzesniow@poczta.onet.pl",
                "website": "http:\/\/www.zstrzesniow.edupage.org",
                "ref:regon": "001197298",
                "ref:vatin": "PL6861539353",
                "operator": "Gmina Hacz\u00f3w",
                "operator:type": "government",
                "amenity": "school"
            }
        },
        {
            "id": 30149,
            "type": "Feature",
            "geometry": {
                "type": "Point",
                "coordinates": [
                    21.97653,
                    49.65722
                ]
            },
            "properties": {
                "ref:rspo": 30149,
                "official_name": "Przedszkole \u015aw. J\u00f3zefa",
                "name": "Przedszkole \u015aw. J\u00f3zefa",
                "addr:postcode": "36-211",
                "addr:place": "Jasion\u00f3w",
                "addr:housenumber": "27",
                "addr:door": "-",
                "addr:teryt:simc": 351389,
                "phone": "+48 134393004",
                "email": "siostryjasionow27@gmail.com",
                "ref:regon": "180900920",
                "operator": "Zg.ss.s\u0142u\u017cebniczek Nmp Niepokalanie Pocz\u0119tej, Dom Generalny",
                "operator:type": "religious",
                "amenity": "kindergarten"
            }
        },
        {
            "id": 31086,
            "type": "Feature",
            "geometry": {
                "type": "Point",
                "coordinates": [
                    21.9833,
                    49.65807
                ]
            },
            "properties": {
                "isced:level": "1;2",
                "ref:rspo": 31086,
                "official_name": "Szko\u0142a Podstawowa w Jasionowie",
                "name": "Szko\u0142a Podstawowa w Jasionowie",
                "addr:postcode": "36-211",
                "addr:place": "Jasion\u00f3w",
                "addr:housenumber": "195",
                "addr:teryt:simc": 351389,
                "phone": "+48 134393700",
                "email": "zsjasionow@op.pl",
                "website": "https:\/\/zsjasionow.edupage.org\/",
                "ref:regon": "001197275",
                "ref:vatin": "PL6861539301",
                "operator": "Gmina Hacz\u00f3w",
                "operator:type": "government",
                "amenity": "school"
            }
        },
        {
            "id": 29297,
            "type": "Feature",
            "geometry": {
                "type": "Point",
                "coordinates": [
                    21.88937,
                    49.66862
                ]
            },
            "properties": {
                "isced:level": "1;2",
                "ref:rspo": 29297,
                "official_name": "Szko\u0142a Podstawowa w Haczowie im. Doc. Dr In\u017c. Jana Wy\u017cykowskiego",
                "name": "Szko\u0142a Podstawowa w Haczowie",
                "addr:postcode": "36-213",
                "addr:place": "Hacz\u00f3w",
                "addr:housenumber": "593",
                "addr:door": "-",
                "addr:teryt:simc": 351248,
                "phone": "+48 134391009",
                "email": "sphaczow@ks.onet.pl",
                "website": "http:\/\/www.sphaczow.prv.pl",
                "ref:regon": "001197252",
                "ref:vatin": "PL6861518032",
                "operator": "Gmina Hacz\u00f3w",
                "operator:type": "government",
                "amenity": "school"
            }
        },
        {
            "id": 29296,
            "type": "Feature",
            "geometry": {
                "type": "Point",
                "coordinates": [
                    21.88814,
                    49.66866
                ]
            },
            "properties": {
                "ref:rspo": 29296,
                "official_name": "Przedszkole Samorz\u0105dowe w Haczowie Z Fili\u0105 w Trze\u015bniowie",
                "name": "Przedszkole Samorz\u0105dowe w Haczowie Z Fili\u0105 w Trze\u015bniowie",
                "addr:postcode": "36-213",
                "addr:place": "Hacz\u00f3w",
                "addr:housenumber": "598",
                "addr:teryt:simc": 351248,
                "phone": "+48 134391030",
                "email": "przedszkole@haczow.pl",
                "website": "http:\/\/www.przedszkole.haczow.pl",
                "ref:regon": "180640850",
                "ref:vatin": "PL6861678617",
                "operator": "Gmina Hacz\u00f3w",
                "operator:type": "government",
                "amenity": "kindergarten"
            }
        },
        {
            "id": 30150,
            "type": "Feature",
            "geometry": {
                "type": "Point",
                "coordinates": [
                    21.88995,
                    49.6689999
                ]
            },
            "properties": {
                "ref:rspo": 30150,
                "official_name": "Ochronka \u015aw. J\u00f3zefa w Haczowie",
                "name": "Ochronka \u015aw. J\u00f3zefa w Haczowie",
                "addr:postcode": "36-213",
                "addr:place": "Hacz\u00f3w",
                "addr:housenumber": "600",
                "addr:door": "-",
                "addr:teryt:simc": 351248,
                "phone": "+48 134391096",
                "email": "ochronkahaczow@wp.pl",
                "ref:regon": "180899140",
                "ref:vatin": "PL6861417880",
                "operator": "Zg.ss.s\u0142u\u017cebniczek Nmp Niepokalanie Pocz\u0119tej, Dom Generalny",
                "operator:type": "religious",
                "amenity": "kindergarten"
            }
        },
        {
            "id": 31076,
            "type": "Feature",
            "geometry": {
                "type": "Point",
                "coordinates": [
                    21.9239,
                    49.69597
                ]
            },
            "properties": {
                "isced:level": "1;2",
                "ref:rspo": 31076,
                "official_name": "Szko\u0142a Podstawowa w Malin\u00f3wce",
                "name": "Szko\u0142a Podstawowa w Malin\u00f3wce",
                "addr:postcode": "36-213",
                "addr:place": "Malin\u00f3wka",
                "addr:housenumber": "42",
                "addr:teryt:simc": 351449,
                "phone": "+48 134392240",
                "email": "zsmalinowka@gmail.com",
                "website": "http:\/\/zsmalinowka.edupage.org",
                "ref:regon": "001197281",
                "ref:vatin": "PL6861539330",
                "operator": "Gmina Hacz\u00f3w",
                "operator:type": "government",
                "amenity": "school"
            }
        },
        {
            "id": 31083,
            "type": "Feature",
            "geometry": {
                "type": "Point",
                "coordinates": [
                    21.8982,
                    49.6995999
                ]
            },
            "properties": {
                "isced:level": "1;2",
                "ref:rspo": 31083,
                "official_name": "Szko\u0142a Podstawowa w Jab\u0142onicy Polskiej",
                "name": "Szko\u0142a Podstawowa w Jab\u0142onicy Polskiej",
                "addr:postcode": "36-213",
                "addr:place": "Jab\u0142onica Polska",
                "addr:housenumber": "178",
                "addr:teryt:simc": 351320,
                "phone": "+48 134392230",
                "email": "sp.jablonica@haczow.pl",
                "website": "http:\/\/www.spjablonicapolska.edupage.org",
                "ref:regon": "001197269",
                "ref:vatin": "PL6861539382",
                "operator": "Gmina Hacz\u00f3w",
                "operator:type": "government",
                "amenity": "school"
            }
        }
    ]
}