{
    "type": "FeatureCollection",
    "features": [
        {
            "id": 18093,
            "type": "Feature",
            "geometry": {
                "type": "Point",
                "coordinates": [
                    20.13493,
                    54.11527
                ]
            },
            "properties": {
                "isced:level": "1;2",
                "ref:rspo": 18093,
                "official_name": "Szko\u0142a Podstawowa Nr 4 im. Janusza Korczaka w Ornecie",
                "name": "Szko\u0142a Podstawowa Nr 4",
                "addr:postcode": "11-130",
                "addr:city": "Orneta",
                "addr:street": "Miko\u0142aja Kopernika",
                "addr:housenumber": "13",
                "addr:city:simc": 932910,
                "addr:street:sym_ul": 9276,
                "phone": "+48 552421174",
                "email": "ornetasp4@wp.pl",
                "website": "http:\/\/www.sp4orneta.eu",
                "ref:regon": "170190402",
                "ref:vatin": "PL5821030921",
                "operator": "Gmina Orneta",
                "operator:type": "government",
                "amenity": "school"
            }
        },
        {
            "id": 18023,
            "type": "Feature",
            "geometry": {
                "type": "Point",
                "coordinates": [
                    20.12797,
                    54.11548
                ]
            },
            "properties": {
                "isced:level": "1;2",
                "ref:rspo": 18023,
                "official_name": "Szko\u0142a Podstawowa Nr 1 im. Majora Henryka Sucharskiego w Ornecie",
                "name": "Szko\u0142a Podstawowa Nr 1",
                "addr:postcode": "11-130",
                "addr:city": "Orneta",
                "addr:street": "Zamkowa",
                "addr:housenumber": "26",
                "addr:city:simc": 932910,
                "addr:street:sym_ul": 25547,
                "phone": "+48 552421120",
                "email": "sp1orneta@interia.pl",
                "website": "http:\/\/www.sp1orneta.szkolnastrona.pl",
                "ref:regon": "001120953",
                "ref:vatin": "PL5821020325",
                "operator": "Gmina Orneta",
                "operator:type": "government",
                "amenity": "school"
            }
        },
        {
            "id": 129759,
            "type": "Feature",
            "geometry": {
                "type": "Point",
                "coordinates": [
                    20.14539,
                    54.11569
                ]
            },
            "properties": {
                "ref:rspo": 129759,
                "official_name": "Domowa Akademia\"Smyk\"",
                "name": "Domowa Akademia\"Smyk\"",
                "addr:postcode": "11-130",
                "addr:city": "Orneta",
                "addr:street": "Przemys\u0142owa",
                "addr:housenumber": "15a",
                "addr:city:simc": 932910,
                "addr:street:sym_ul": 17742,
                "phone": "+48 516089655",
                "email": "magdalenachrzaszcz@poczta.onet.pl",
                "ref:regon": "362851520",
                "ref:vatin": "PL5821436936",
                "operator": "Magdalena Chrz\u0105szcz",
                "operator:type": "private",
                "amenity": "kindergarten"
            }
        },
        {
            "id": 83920,
            "type": "Feature",
            "geometry": {
                "type": "Point",
                "coordinates": [
                    20.1344,
                    54.11591
                ]
            },
            "properties": {
                "ref:rspo": 83920,
                "official_name": "Przedszkole Nr 1 w Ornecie",
                "name": "Przedszkole Nr 1 w Ornecie",
                "addr:postcode": "11-130",
                "addr:city": "Orneta",
                "addr:street": "Miko\u0142aja Kopernika",
                "addr:housenumber": "4",
                "addr:city:simc": 932910,
                "addr:street:sym_ul": 9276,
                "phone": "+48 552421161",
                "email": "przedszkolenr1.orneta@op.pl",
                "website": "http:\/\/www.przedszkolenr1orneta.com.pl",
                "ref:regon": "170500937",
                "ref:vatin": "PL7431696441",
                "operator": "Gmina Orneta",
                "operator:type": "government",
                "amenity": "kindergarten"
            }
        },
        {
            "id": 4682,
            "type": "Feature",
            "geometry": {
                "type": "Point",
                "coordinates": [
                    20.13905,
                    54.11624
                ]
            },
            "properties": {
                "ref:rspo": 4682,
                "official_name": "Zesp\u00f3\u0142 Szk\u00f3\u0142 Og\u00f3lnokszta\u0142c\u0105cych w Ornecie",
                "name": "Zesp\u00f3\u0142 Szk\u00f3\u0142 Og\u00f3lnokszta\u0142c\u0105cych w Ornecie",
                "addr:postcode": "11-130",
                "addr:city": "Orneta",
                "addr:street": "1 Maja",
                "addr:housenumber": "28",
                "addr:city:simc": 932910,
                "addr:street:sym_ul": 11926,
                "phone": "+48 552421109",
                "email": "zso.orneta@op.pl",
                "website": "http:\/\/zsoorneta.szkolnastrona.pl",
                "ref:regon": "170780397",
                "ref:vatin": "PL5821020348",
                "operator": "Powiat Lidzbarski",
                "operator:type": "government",
                "landuse": "education",
                "fixme": "amenity=school, amenity=college albo landuse=education w zale\u017cno\u015bci od tego, jakie plac\u00f3wki wchodz\u0105 w sk\u0142ad zespo\u0142u. Sprawd\u017a, kiedy stosowa\u0107 amenity=* a kiedy landuse=education.",
                "note": "Children RSPO: 8954;8967"
            }
        },
        {
            "id": 8954,
            "type": "Feature",
            "geometry": {
                "type": "Point",
                "coordinates": [
                    20.13905,
                    54.116209999999995
                ]
            },
            "properties": {
                "isced:level": "3",
                "ref:rspo": 8954,
                "official_name": "Liceum Og\u00f3lnokszta\u0142c\u0105ce im. Bojownik\u00f3w O Polsko\u015b\u0107 Warmii w Ornecie",
                "name": "Liceum Og\u00f3lnokszta\u0142c\u0105ce",
                "addr:postcode": "11-130",
                "addr:city": "Orneta",
                "addr:street": "1 Maja",
                "addr:housenumber": "28",
                "addr:city:simc": 932910,
                "addr:street:sym_ul": 11926,
                "phone": "+48 552421109",
                "email": "zso.orneta@op.pl",
                "website": "http:\/\/zsoorneta.szkolnastrona.pl",
                "ref:regon": "170989921",
                "operator": "Powiat Lidzbarski",
                "operator:type": "government",
                "amenity": "school",
                "note": "Parent RSPO: 4682"
            }
        },
        {
            "id": 8967,
            "type": "Feature",
            "geometry": {
                "type": "Point",
                "coordinates": [
                    20.13905,
                    54.11618
                ]
            },
            "properties": {
                "isced:level": "4",
                "ref:rspo": 8967,
                "official_name": "Szko\u0142a Policealna Nr 2 w Zespole Szk\u00f3\u0142 Og\u00f3lnokszta\u0142c\u0105cych w Ornecie",
                "name": "Szko\u0142a Policealna Nr 2 w Zespole Szk\u00f3\u0142 Og\u00f3lnokszta\u0142c\u0105cych w Ornecie",
                "addr:postcode": "11-130",
                "addr:city": "Orneta",
                "addr:street": "1 Maja",
                "addr:housenumber": "28",
                "addr:city:simc": 932910,
                "addr:street:sym_ul": 11926,
                "phone": "+48 552421109",
                "email": "zso.orneta@op.pl",
                "website": "http:\/\/zsoorneta.szkolnastrona.pl",
                "ref:regon": "280131989",
                "operator": "Powiat Lidzbarski",
                "operator:type": "government",
                "amenity": "college",
                "note": "Parent RSPO: 4682"
            }
        },
        {
            "id": 5238,
            "type": "Feature",
            "geometry": {
                "type": "Point",
                "coordinates": [
                    20.13645,
                    54.11634
                ]
            },
            "properties": {
                "ref:rspo": 5238,
                "official_name": "Zesp\u00f3\u0142 Szk\u00f3\u0142 Zawodowych Centrum Kszta\u0142cenia Ustawicznego im. Stanis\u0142awa Staszica w Ornecie",
                "name": "Zesp\u00f3\u0142 Szk\u00f3\u0142 Zawodowych Centrum Kszta\u0142cenia Ustawicznego",
                "addr:postcode": "11-130",
                "addr:city": "Orneta",
                "addr:street": "1 Maja",
                "addr:housenumber": "20",
                "addr:city:simc": 932910,
                "addr:street:sym_ul": 11926,
                "phone": "+48 552421361",
                "email": "zsz.orneta@wp.pl",
                "website": "http:\/\/www.zsz-orneta.edu.pl",
                "ref:regon": "000239416",
                "ref:vatin": "PL5820005275",
                "operator": "Powiat Lidzbarski",
                "operator:type": "government",
                "landuse": "education",
                "fixme": "amenity=school, amenity=college albo landuse=education w zale\u017cno\u015bci od tego, jakie plac\u00f3wki wchodz\u0105 w sk\u0142ad zespo\u0142u. Sprawd\u017a, kiedy stosowa\u0107 amenity=* a kiedy landuse=education.",
                "note": "Children RSPO: 8648;8656;8666;8717;8736"
            }
        },
        {
            "id": 8648,
            "type": "Feature",
            "geometry": {
                "type": "Point",
                "coordinates": [
                    20.13645,
                    54.11631
                ]
            },
            "properties": {
                "ref:rspo": 8648,
                "official_name": "Centrum Kszta\u0142cenia Ustawicznego w Zespole Szk\u00f3\u0142 Zawodowych w Ornecie",
                "name": "Centrum Kszta\u0142cenia Ustawicznego w Zespole Szk\u00f3\u0142 Zawodowych w Ornecie",
                "addr:postcode": "11-130",
                "addr:city": "Orneta",
                "addr:street": "1 Maja",
                "addr:housenumber": "20",
                "addr:city:simc": 932910,
                "addr:street:sym_ul": 11926,
                "phone": "+48 552421361",
                "ref:regon": "280543143",
                "operator": "Powiat Lidzbarski",
                "operator:type": "government",
                "fixme": "w zale\u017cno\u015bci od przedmiotu dzia\u0142alno\u015bci (np. amenity=training + training=*, amenity=dancing_school, amenity=language_school, amenity=music_school)",
                "note": "Parent RSPO: 5238"
            }
        },
        {
            "id": 8656,
            "type": "Feature",
            "geometry": {
                "type": "Point",
                "coordinates": [
                    20.13645,
                    54.11628
                ]
            },
            "properties": {
                "isced:level": "3",
                "ref:rspo": 8656,
                "official_name": "Liceum Og\u00f3lnokszta\u0142c\u0105ce dla Doros\u0142ych w Zespole Szk\u00f3\u0142 Zawodowych Cku w Ornecie",
                "name": "Liceum Og\u00f3lnokszta\u0142c\u0105ce dla Doros\u0142ych w Zespole Szk\u00f3\u0142 Zawodowych Cku w Ornecie",
                "addr:postcode": "11-130",
                "addr:city": "Orneta",
                "addr:street": "1 Maja",
                "addr:housenumber": "20",
                "addr:city:simc": 932910,
                "addr:street:sym_ul": 11926,
                "phone": "+48 552421361",
                "ref:regon": "280543150",
                "operator": "Powiat Lidzbarski",
                "operator:type": "government",
                "amenity": "school",
                "note": "Parent RSPO: 5238"
            }
        },
        {
            "id": 8666,
            "type": "Feature",
            "geometry": {
                "type": "Point",
                "coordinates": [
                    20.13645,
                    54.11625
                ]
            },
            "properties": {
                "isced:level": "4",
                "ref:rspo": 8666,
                "official_name": "Szko\u0142a Policealna Nr 1 w Zespole Szk\u00f3\u0142 Zawodowych Cku w Ornecie",
                "name": "Szko\u0142a Policealna Nr 1 w Zespole Szk\u00f3\u0142 Zawodowych Cku w Ornecie",
                "addr:postcode": "11-130",
                "addr:city": "Orneta",
                "addr:street": "1 Maja",
                "addr:housenumber": "20",
                "addr:city:simc": 932910,
                "addr:street:sym_ul": 11926,
                "phone": "+48 552421361",
                "ref:regon": "280045250",
                "operator": "Powiat Lidzbarski",
                "operator:type": "government",
                "amenity": "college",
                "note": "Parent RSPO: 5238"
            }
        },
        {
            "id": 8717,
            "type": "Feature",
            "geometry": {
                "type": "Point",
                "coordinates": [
                    20.13645,
                    54.11622
                ]
            },
            "properties": {
                "isced:level": "3",
                "ref:rspo": 8717,
                "official_name": "Technikum w Zespole Szk\u00f3\u0142 Zawodowych Cku w Ornecie",
                "name": "Technikum w Zespole Szk\u00f3\u0142 Zawodowych Cku w Ornecie",
                "addr:postcode": "11-130",
                "addr:city": "Orneta",
                "addr:street": "1 Maja",
                "addr:housenumber": "20",
                "addr:city:simc": 932910,
                "addr:street:sym_ul": 11926,
                "phone": "+48 552421361",
                "email": "zsz.orneta@wp.pl",
                "website": "http:\/\/zsz-orneta.edu.pl",
                "ref:regon": "170990344",
                "operator": "Powiat Lidzbarski",
                "operator:type": "government",
                "amenity": "school",
                "note": "Parent RSPO: 5238"
            }
        },
        {
            "id": 8736,
            "type": "Feature",
            "geometry": {
                "type": "Point",
                "coordinates": [
                    20.13645,
                    54.11619
                ]
            },
            "properties": {
                "isced:level": "3",
                "ref:rspo": 8736,
                "official_name": "Bran\u017cowa Szko\u0142a I Stopnia w Zespole Szk\u00f3\u0142 Zawodowych Cku w Ornecie",
                "name": "Bran\u017cowa Szko\u0142a I Stopnia w Zespole Szk\u00f3\u0142 Zawodowych Cku w Ornecie",
                "addr:postcode": "11-130",
                "addr:city": "Orneta",
                "addr:street": "1 Maja",
                "addr:housenumber": "20",
                "addr:city:simc": 932910,
                "addr:street:sym_ul": 11926,
                "phone": "+48 552421361",
                "email": "zsz.orneta@wp.pl",
                "website": "http:\/\/zsz-orneta.edu.pl",
                "ref:regon": "170990315",
                "operator": "Powiat Lidzbarski",
                "operator:type": "government",
                "amenity": "school",
                "note": "Parent RSPO: 5238"
            }
        },
        {
            "id": 4768,
            "type": "Feature",
            "geometry": {
                "type": "Point",
                "coordinates": [
                    20.14722,
                    54.11641
                ]
            },
            "properties": {
                "ref:rspo": 4768,
                "official_name": "Poradnia Psychologiczno - Pedagogiczna w Ornecie",
                "name": "Poradnia Psychologiczno - Pedagogiczna w Ornecie",
                "addr:postcode": "11-130",
                "addr:city": "Orneta",
                "addr:street": "Dworcowa",
                "addr:housenumber": "8",
                "addr:door": "4",
                "addr:city:simc": 932910,
                "addr:street:sym_ul": 4434,
                "phone": "+48 552421392",
                "email": "ppporneta@tlen.pl",
                "website": "http:\/\/ppporneta.szkolnastrona.pl",
                "ref:regon": "510842939",
                "ref:vatin": "PL7431657027",
                "operator": "Powiat Lidzbarski",
                "operator:type": "government",
                "healthcare": "counselling",
                "counselling_type": "education",
                "fixme": "w zale\u017cno\u015bci od przedmiotu dzia\u0142alno\u015bci (np. healthcare=counselling + counselling_type=education albo healthcare=psychotherapist)"
            }
        },
        {
            "id": 18568,
            "type": "Feature",
            "geometry": {
                "type": "Point",
                "coordinates": [
                    20.14382,
                    54.11671
                ]
            },
            "properties": {
                "ref:rspo": 18568,
                "official_name": "Przedszkole Nr 2",
                "name": "Przedszkole Nr 2",
                "addr:postcode": "11-130",
                "addr:city": "Orneta",
                "addr:street": "1 Maja",
                "addr:housenumber": "54",
                "addr:city:simc": 932910,
                "addr:street:sym_ul": 11926,
                "phone": "+48 552421026",
                "email": "przedszkole2@orneta.pl",
                "website": "http:\/\/www.przedszkolenr2orneta.com.pl",
                "ref:regon": "170244641",
                "ref:vatin": "PL7431694525",
                "operator": "Gmina Orneta",
                "operator:type": "government",
                "amenity": "kindergarten"
            }
        },
        {
            "id": 18166,
            "type": "Feature",
            "geometry": {
                "type": "Point",
                "coordinates": [
                    20.0426667,
                    54.1316793
                ]
            },
            "properties": {
                "isced:level": "1;2",
                "ref:rspo": 18166,
                "official_name": "Szko\u0142a Podstawowa im. Jana Paw\u0142a II w Ba\u017cynach",
                "name": "Szko\u0142a Podstawowa",
                "addr:postcode": "11-130",
                "addr:place": "Ba\u017cyny",
                "addr:housenumber": "17A",
                "addr:city:simc": 153703,
                "phone": "+48 552421524",
                "email": "spbazyny@poczta.onet.pl",
                "website": "http:\/\/www.spbazyny.szkolnastrona.pl",
                "ref:regon": "001122018",
                "ref:vatin": "PL5821022413",
                "operator": "Gmina Orneta",
                "operator:type": "government",
                "amenity": "school"
            }
        }
    ]
}