{
    "type": "FeatureCollection",
    "features": [
        {
            "id": 28007,
            "type": "Feature",
            "geometry": {
                "type": "Point",
                "coordinates": [
                    20.59994,
                    53.25988
                ]
            },
            "properties": {
                "isced:level": "1;2",
                "ref:rspo": 28007,
                "official_name": "Szko\u0142a Podstawowa im. Or\u0142a Bia\u0142ego w Zaborowie",
                "name": "Szko\u0142a Podstawowa",
                "addr:postcode": "13-124",
                "addr:place": "Zaborowo",
                "addr:housenumber": "2",
                "addr:city:simc": 479557,
                "phone": "+48 896267068",
                "email": "spzaborowo2@interia.pl",
                "website": "http:\/\/www.zaborowo.edu.pl",
                "ref:regon": "001206330",
                "ref:vatin": "PL9840154135",
                "operator": "Gmina Koz\u0142owo",
                "operator:type": "government",
                "amenity": "school"
            }
        },
        {
            "id": 28008,
            "type": "Feature",
            "geometry": {
                "type": "Point",
                "coordinates": [
                    20.27937,
                    53.30323
                ]
            },
            "properties": {
                "ref:rspo": 28008,
                "official_name": "Zesp\u00f3\u0142 Szkolno-Przedszkolny w Koz\u0142owie",
                "name": "Zesp\u00f3\u0142 Szkolno-Przedszkolny w Koz\u0142owie",
                "addr:postcode": "13-124",
                "addr:city": "Koz\u0142owo",
                "addr:street": "Szkolna",
                "addr:housenumber": "6",
                "addr:city:simc": 479304,
                "addr:street:sym_ul": 21970,
                "phone": "+48 896267026",
                "email": "szkola@zspkozlowo.pl",
                "ref:regon": "519566719",
                "ref:vatin": "PL9840153650",
                "operator": "Gmina Koz\u0142owo",
                "operator:type": "government",
                "landuse": "education",
                "fixme": "amenity=school, amenity=college albo landuse=education w zale\u017cno\u015bci od tego, jakie plac\u00f3wki wchodz\u0105 w sk\u0142ad zespo\u0142u. Sprawd\u017a, kiedy stosowa\u0107 amenity=* a kiedy landuse=education.",
                "note": "Children RSPO: 31853;34528"
            }
        },
        {
            "id": 31853,
            "type": "Feature",
            "geometry": {
                "type": "Point",
                "coordinates": [
                    20.27937,
                    53.3032
                ]
            },
            "properties": {
                "ref:rspo": 31853,
                "official_name": "Przedszkole w Koz\u0142owie",
                "name": "Przedszkole w Koz\u0142owie",
                "addr:postcode": "13-124",
                "addr:city": "Koz\u0142owo",
                "addr:street": "Szkolna",
                "addr:housenumber": "6",
                "addr:city:simc": 479304,
                "addr:street:sym_ul": 21970,
                "phone": "+48 896267026",
                "ref:regon": "519574015",
                "operator": "Gmina Koz\u0142owo",
                "operator:type": "government",
                "amenity": "kindergarten",
                "note": "Parent RSPO: 28008"
            }
        },
        {
            "id": 34528,
            "type": "Feature",
            "geometry": {
                "type": "Point",
                "coordinates": [
                    20.27937,
                    53.30317
                ]
            },
            "properties": {
                "isced:level": "1;2",
                "ref:rspo": 34528,
                "official_name": "Szko\u0142a Podstawowa im. Marii Zientary-Malewskiej w Koz\u0142owie",
                "name": "Szko\u0142a Podstawowa",
                "addr:postcode": "13-124",
                "addr:city": "Koz\u0142owo",
                "addr:street": "Szkolna",
                "addr:housenumber": "6",
                "addr:city:simc": 479304,
                "addr:street:sym_ul": 21970,
                "phone": "+48 896267026",
                "email": "szkola@zspkozlowo.pl",
                "website": "http:\/\/zspkozlowo.pl",
                "ref:regon": "000568999",
                "operator": "Gmina Koz\u0142owo",
                "operator:type": "government",
                "amenity": "school",
                "note": "Parent RSPO: 28008"
            }
        },
        {
            "id": 31844,
            "type": "Feature",
            "geometry": {
                "type": "Point",
                "coordinates": [
                    20.25627,
                    53.36047
                ]
            },
            "properties": {
                "isced:level": "1;2",
                "ref:rspo": 31844,
                "official_name": "Szko\u0142a Podstawowa im. Kr\u00f3la W\u0142adys\u0142awa Jagie\u0142\u0142y w Rogo\u017cu",
                "name": "Szko\u0142a Podstawowa",
                "addr:postcode": "13-124",
                "addr:place": "Rog\u00f3\u017c",
                "addr:housenumber": "4",
                "addr:city:simc": 479391,
                "phone": "+48 896267084",
                "email": "sprogoz@wp.pl",
                "website": "http:\/\/sprogoz.edupage.org",
                "ref:regon": "001206293",
                "operator": "Gmina Koz\u0142owo",
                "operator:type": "government",
                "amenity": "school"
            }
        },
        {
            "id": 31847,
            "type": "Feature",
            "geometry": {
                "type": "Point",
                "coordinates": [
                    20.28428,
                    53.40006
                ]
            },
            "properties": {
                "isced:level": "1;2",
                "ref:rspo": 31847,
                "official_name": "Szko\u0142a Podstawowa im. Ks. Jana Twardowskiego w Szkotowie",
                "name": "Szko\u0142a Podstawowa",
                "addr:postcode": "13-124",
                "addr:place": "Szkotowo",
                "addr:housenumber": "51",
                "addr:city:simc": 479468,
                "phone": "+48 896268031",
                "email": "sekretariat@spszkotowo.szkolnastrona.pl",
                "website": "http:\/\/spszkotowo.szkolnastrona.pl",
                "ref:regon": "001206318",
                "operator": "Gmina Koz\u0142owo",
                "operator:type": "government",
                "amenity": "school"
            }
        }
    ]
}