{
    "type": "FeatureCollection",
    "features": [
        {
            "id": 29122,
            "type": "Feature",
            "geometry": {
                "type": "Point",
                "coordinates": [
                    20.56605,
                    53.25433
                ]
            },
            "properties": {
                "isced:level": "1;2",
                "ref:rspo": 29122,
                "official_name": "Szko\u0142a Podstawowa im. Zawiszy Czarnego w Wa\u015bniewie-Grabowie",
                "name": "Szko\u0142a Podstawowa",
                "addr:country": "PL",
                "addr:postcode": "13-111",
                "addr:place": "Wa\u015bniewo-Grabowo",
                "addr:housenumber": "4",
                "addr:teryt:sym_ul": 476257,
                "contact:phone": "+48 896261013",
                "contact:email": "wasniewo@o2.pl",
                "contact:website": "http:\/\/www.wasniewo.pl\/",
                "ref:regon": "001206287",
                "ref:vatin": "PL9840071550",
                "operator": "Gmina Janowiec Ko\u015bcielny",
                "operator:type": "government",
                "amenity": "school"
            }
        },
        {
            "id": 34204,
            "type": "Feature",
            "geometry": {
                "type": "Point",
                "coordinates": [
                    20.52408,
                    53.29145
                ]
            },
            "properties": {
                "isced:level": "1;2",
                "ref:rspo": 34204,
                "official_name": "Szko\u0142a Podstawowa im. Jana Paw\u0142a II w Janowcu Ko\u015bcielnym",
                "name": "Szko\u0142a Podstawowa",
                "addr:country": "PL",
                "addr:postcode": "13-111",
                "addr:place": "Janowiec Ko\u015bcielny",
                "addr:housenumber": "61",
                "addr:teryt:sym_ul": 475884,
                "contact:phone": "+48 896262017",
                "contact:email": "zsjanowieckoscielny@wp.pl",
                "contact:website": "http:\/\/janowiec.schoolpage.pl\/",
                "ref:regon": "519454558",
                "ref:vatin": "PL9840145509",
                "operator": "Gmina Janowiec Ko\u015bcielny",
                "operator:type": "government",
                "amenity": "school"
            }
        }
    ]
}