{
    "type": "FeatureCollection",
    "features": [
        {
            "id": 122041,
            "type": "Feature",
            "geometry": {
                "type": "Point",
                "coordinates": [
                    20.40467,
                    53.3442099
                ]
            },
            "properties": {
                "ref:rspo": 122041,
                "official_name": "Niepubliczne Przedszkole Bajka",
                "name": "Niepubliczne Przedszkole Bajka",
                "addr:country": "PL",
                "addr:postcode": "13-100",
                "addr:place": "Pi\u0105tki",
                "addr:housenumber": "19",
                "addr:teryt:sym_ul": 483984,
                "contact:phone": "+48 607865674",
                "contact:email": "k.kaminska-bajka@o2.pl",
                "contact:website": "http:\/\/www.przedszkolebajka.com",
                "ref:regon": "281567950",
                "operator": "Katarzyna Kami\u0144ska-Siepsiak",
                "operator:type": "private",
                "amenity": "kindergarten"
            }
        },
        {
            "id": 107712,
            "type": "Feature",
            "geometry": {
                "type": "Point",
                "coordinates": [
                    20.40978,
                    53.34837
                ]
            },
            "properties": {
                "isced:level": "3",
                "ref:rspo": 107712,
                "official_name": "Zasadnicza Szko\u0142a Zawodowa Awa Mebel",
                "name": "Zasadnicza Szko\u0142a Zawodowa Awa Mebel",
                "addr:country": "PL",
                "addr:postcode": "13-100",
                "addr:place": "Pi\u0105tki",
                "addr:housenumber": "37",
                "addr:teryt:sym_ul": 483984,
                "contact:phone": "+48 895412290",
                "contact:email": "szkolaawamebel@wp.pl",
                "contact:website": "http:\/\/www.zsz-piatki.schoolpage.pl",
                "ref:regon": "281467183",
                "operator": "Dane Do Uzupe\u0142nienia",
                "operator:type": "private",
                "amenity": "school"
            }
        },
        {
            "id": 83836,
            "type": "Feature",
            "geometry": {
                "type": "Point",
                "coordinates": [
                    20.44077,
                    53.35689
                ]
            },
            "properties": {
                "ref:rspo": 83836,
                "official_name": "Specjalny O\u015brodek Szkolno-Wychowawczyim. Ks. Jana Twardowskiego",
                "name": "Specjalny O\u015brodek Szkolno-Wychowawczyim. Ks. Jana Twardowskiego",
                "addr:country": "PL",
                "addr:postcode": "13-100",
                "addr:city": "Nidzica",
                "addr:street": "Wyborska",
                "addr:housenumber": "12",
                "addr:teryt:simc": 26808,
                "addr:teryt:sym_ul": 964904,
                "contact:phone": "+48 896252734",
                "contact:email": "sosw_nidzica@tlen.pl",
                "contact:website": "http:\/\/www.soswnidzica.edupage.org\/",
                "ref:regon": "510893871",
                "ref:vatin": "PL9840125234",
                "operator": "Powiat Nidzicki",
                "operator:type": "government",
                "amenity": "school",
                "note": "Children RSPO: 125924;125926;125927"
            }
        },
        {
            "id": 272587,
            "type": "Feature",
            "geometry": {
                "type": "Point",
                "coordinates": [
                    20.44077,
                    53.35686
                ]
            },
            "properties": {
                "ref:rspo": 272587,
                "official_name": "Powiatowy O\u015brodek Rozwoju Edukacji",
                "name": "Powiatowy O\u015brodek Rozwoju Edukacji",
                "addr:country": "PL",
                "addr:postcode": "13-100",
                "addr:city": "Nidzica",
                "addr:street": "Wyborska",
                "addr:housenumber": "12",
                "addr:teryt:simc": 26808,
                "addr:teryt:sym_ul": 964904,
                "contact:phone": "+48 896253139",
                "contact:email": "pore.nidzica@op.pl",
                "contact:website": "http:\/\/pore-nidzica.pl",
                "ref:regon": "384278396",
                "operator": "Powiat Nidzicki",
                "operator:type": "government",
                "landuse": "education",
                "fixme": "amenity=school, amenity=college albo landuse=education w zale\u017cno\u015bci od tego, jakie plac\u00f3wki wchodz\u0105 w sk\u0142ad zespo\u0142u. Sprawd\u017a, kiedy stosowa\u0107 amenity=* a kiedy landuse=education.",
                "note": "Children RSPO: 83838;273269"
            }
        },
        {
            "id": 125924,
            "type": "Feature",
            "geometry": {
                "type": "Point",
                "coordinates": [
                    20.44077,
                    53.35683
                ]
            },
            "properties": {
                "isced:level": "1;2",
                "ref:rspo": 125924,
                "official_name": "Szko\u0142a Podstawowa Specjalna",
                "name": "Szko\u0142a Podstawowa Specjalna",
                "addr:country": "PL",
                "addr:postcode": "13-100",
                "addr:city": "Nidzica",
                "addr:street": "Wyborska",
                "addr:housenumber": "12",
                "addr:teryt:simc": 26808,
                "addr:teryt:sym_ul": 964904,
                "contact:phone": "+48 896252734",
                "contact:email": "sosw_nidzica@tlen.pl",
                "contact:website": "http:\/\/www.soswnidzica.edupage.org\/",
                "ref:regon": "519457210",
                "operator": "Powiat Nidzicki",
                "operator:type": "government",
                "amenity": "school",
                "note": "Parent RSPO: 83836"
            }
        },
        {
            "id": 125926,
            "type": "Feature",
            "geometry": {
                "type": "Point",
                "coordinates": [
                    20.44077,
                    53.3568
                ]
            },
            "properties": {
                "isced:level": "3",
                "ref:rspo": 125926,
                "official_name": "Bran\u017cowa Szko\u0142a I Stopnia",
                "name": "Bran\u017cowa Szko\u0142a I Stopnia",
                "addr:country": "PL",
                "addr:postcode": "13-100",
                "addr:city": "Nidzica",
                "addr:street": "Wyborska",
                "addr:housenumber": "12",
                "addr:teryt:simc": 26808,
                "addr:teryt:sym_ul": 964904,
                "contact:phone": "+48 896252734",
                "contact:email": "sosw_nidzica@tlen.pl",
                "contact:website": "http:\/\/www.soswnidzica.edupage.org\/",
                "ref:regon": "519480627",
                "operator": "Powiat Nidzicki",
                "operator:type": "government",
                "amenity": "school",
                "note": "Parent RSPO: 83836"
            }
        },
        {
            "id": 125927,
            "type": "Feature",
            "geometry": {
                "type": "Point",
                "coordinates": [
                    20.44077,
                    53.35677
                ]
            },
            "properties": {
                "ref:rspo": 125927,
                "official_name": "Szko\u0142a Przysposabiaj\u0105ca Do Pracy",
                "name": "Szko\u0142a Przysposabiaj\u0105ca Do Pracy",
                "addr:country": "PL",
                "addr:postcode": "13-100",
                "addr:city": "Nidzica",
                "addr:street": "Wyborska",
                "addr:housenumber": "12",
                "addr:teryt:simc": 26808,
                "addr:teryt:sym_ul": 964904,
                "contact:phone": "+48 896252734",
                "contact:email": "sosw_nidzica@tlen.pl",
                "contact:website": "http:\/\/www.soswnidzica.edupage.org\/",
                "ref:regon": "280053539",
                "operator": "Powiat Nidzicki",
                "operator:type": "government",
                "amenity": "school",
                "note": "Parent RSPO: 83836"
            }
        },
        {
            "id": 129054,
            "type": "Feature",
            "geometry": {
                "type": "Point",
                "coordinates": [
                    20.44077,
                    53.35674
                ]
            },
            "properties": {
                "ref:rspo": 129054,
                "official_name": "Szkolne Schronisko M\u0142odzie\u017cowe w Nidzicy",
                "name": "Szkolne Schronisko M\u0142odzie\u017cowe w Nidzicy",
                "addr:country": "PL",
                "addr:postcode": "13-100",
                "addr:city": "Nidzica",
                "addr:street": "Wyborska",
                "addr:housenumber": "12",
                "addr:teryt:simc": 26808,
                "addr:teryt:sym_ul": 964904,
                "contact:phone": "+48 896252465",
                "ref:regon": "362459979",
                "operator": "Powiat Nidzicki",
                "operator:type": "government",
                "tourism": "hostel",
                "note": "Parent RSPO: 84123"
            }
        },
        {
            "id": 273269,
            "type": "Feature",
            "geometry": {
                "type": "Point",
                "coordinates": [
                    20.44077,
                    53.35671
                ]
            },
            "properties": {
                "ref:rspo": 273269,
                "official_name": "O\u015brodek Doskonalenia Nauczycieli",
                "name": "O\u015brodek Doskonalenia Nauczycieli",
                "addr:country": "PL",
                "addr:postcode": "13-100",
                "addr:city": "Nidzica",
                "addr:street": "Wyborska",
                "addr:housenumber": "12",
                "addr:teryt:simc": 26808,
                "addr:teryt:sym_ul": 964904,
                "contact:phone": "+48 896253139",
                "ref:regon": "384425905",
                "operator": "Powiat Nidzicki",
                "operator:type": "government",
                "amenity": "training",
                "note": "Parent RSPO: 272587"
            }
        },
        {
            "id": 83962,
            "type": "Feature",
            "geometry": {
                "type": "Point",
                "coordinates": [
                    20.42017,
                    53.35701
                ]
            },
            "properties": {
                "isced:level": "1;2",
                "ref:rspo": 83962,
                "official_name": "Szko\u0142a Podstawowa Nr 1 im. Miko\u0142aja Kopernika w Nidzicy",
                "name": "Szko\u0142a Podstawowa Nr 1",
                "addr:country": "PL",
                "addr:postcode": "13-100",
                "addr:city": "Nidzica",
                "addr:street": "Miko\u0142aja Kopernika",
                "addr:housenumber": "1",
                "addr:teryt:simc": 9276,
                "addr:teryt:sym_ul": 964904,
                "contact:phone": "+48 896252116",
                "contact:email": "zs1@nidzica.pl",
                "contact:website": "https:\/\/sp1nidzica.pl\/",
                "ref:regon": "519457605",
                "ref:vatin": "PL9840126417",
                "operator": "Gmina Nidzica",
                "operator:type": "government",
                "amenity": "school"
            }
        },
        {
            "id": 83837,
            "type": "Feature",
            "geometry": {
                "type": "Point",
                "coordinates": [
                    20.43938,
                    53.3575
                ]
            },
            "properties": {
                "ref:rspo": 83837,
                "official_name": "Centrum Kszta\u0142cenia Zawodowego",
                "name": "Centrum Kszta\u0142cenia Zawodowego",
                "addr:country": "PL",
                "addr:postcode": "13-100",
                "addr:city": "Nidzica",
                "addr:street": "Wyborska",
                "addr:housenumber": "10",
                "addr:teryt:simc": 26808,
                "addr:teryt:sym_ul": 964904,
                "contact:phone": "+48 896252471",
                "contact:email": "ckznidzica@wp.pl",
                "contact:website": "http:\/\/www.ckznidzica.pro.pl",
                "ref:regon": "519565766",
                "ref:vatin": "PL9840150284",
                "operator": "Powiat Nidzicki",
                "operator:type": "government",
                "fixme": "w zale\u017cno\u015bci od przedmiotu dzia\u0142alno\u015bci (np. amenity=training + training=*, amenity=dancing_school, amenity=language_school, amenity=music_school) albo amenity=school, amenity=college, albo landuse=education w zale\u017cno\u015bci od tego, jakie plac\u00f3wki wchodz\u0105 w sk\u0142ad zespo\u0142u. Sprawd\u017a, kiedy stosowa\u0107 amenity=* a kiedy landuse=education."
            }
        },
        {
            "id": 84123,
            "type": "Feature",
            "geometry": {
                "type": "Point",
                "coordinates": [
                    20.42904,
                    53.35853
                ]
            },
            "properties": {
                "ref:rspo": 84123,
                "official_name": "Zesp\u00f3\u0142 Szk\u00f3\u0142 Zawodowych I Og\u00f3lnokszta\u0142c\u0105cych",
                "name": "Zesp\u00f3\u0142 Szk\u00f3\u0142 Zawodowych I Og\u00f3lnokszta\u0142c\u0105cych",
                "addr:country": "PL",
                "addr:postcode": "13-100",
                "addr:city": "Nidzica",
                "addr:street": "W\u0142adys\u0142awa Jagie\u0142\u0142y",
                "addr:housenumber": "3",
                "addr:teryt:simc": 24494,
                "addr:teryt:sym_ul": 964904,
                "contact:phone": "+48 896252366",
                "contact:email": "zsziownidzicy@interia.pl",
                "ref:regon": "000193720",
                "ref:vatin": "PL7451173597",
                "operator": "Powiat Nidzicki",
                "operator:type": "government",
                "landuse": "education",
                "fixme": "amenity=school, amenity=college albo landuse=education w zale\u017cno\u015bci od tego, jakie plac\u00f3wki wchodz\u0105 w sk\u0142ad zespo\u0142u. Sprawd\u017a, kiedy stosowa\u0107 amenity=* a kiedy landuse=education.",
                "note": "Children RSPO: 110568;122350;125807;128093;129054;130391"
            }
        },
        {
            "id": 110568,
            "type": "Feature",
            "geometry": {
                "type": "Point",
                "coordinates": [
                    20.42904,
                    53.3585
                ]
            },
            "properties": {
                "isced:level": "3",
                "ref:rspo": 110568,
                "official_name": "Bran\u017cowa Szko\u0142a I Stopnia w Zespole Szk\u00f3\u0142 Zawodowych I Og\u00f3lnokszta\u0142cacych w Nidzicy",
                "name": "Bran\u017cowa Szko\u0142a I Stopnia w Zespole Szk\u00f3\u0142 Zawodowych I Og\u00f3lnokszta\u0142cacych w Nidzicy",
                "addr:country": "PL",
                "addr:postcode": "13-100",
                "addr:city": "Nidzica",
                "addr:street": "W\u0142adys\u0142awa Jagie\u0142\u0142y",
                "addr:housenumber": "3",
                "addr:teryt:simc": 24494,
                "addr:teryt:sym_ul": 964904,
                "contact:phone": "+48 896252366",
                "contact:email": "zsziownidzicy@interia.pl",
                "ref:regon": "519455463",
                "operator": "Powiat Nidzicki",
                "operator:type": "government",
                "amenity": "school",
                "note": "Parent RSPO: 84123"
            }
        },
        {
            "id": 122350,
            "type": "Feature",
            "geometry": {
                "type": "Point",
                "coordinates": [
                    20.42904,
                    53.358470000000004
                ]
            },
            "properties": {
                "isced:level": "3",
                "ref:rspo": 122350,
                "official_name": "Liceum Og\u00f3lnokszta\u0142c\u0105ce w Zespole Szk\u00f3\u0142 Zawodowych I Og\u00f3lnokszta\u0142c\u0105cych w Nidzicy",
                "name": "Liceum Og\u00f3lnokszta\u0142c\u0105ce w Zespole Szk\u00f3\u0142 Zawodowych I Og\u00f3lnokszta\u0142c\u0105cych w Nidzicy",
                "addr:country": "PL",
                "addr:postcode": "13-100",
                "addr:city": "Nidzica",
                "addr:street": "W\u0142adys\u0142awa Jagie\u0142\u0142y",
                "addr:housenumber": "3",
                "addr:teryt:simc": 24494,
                "addr:teryt:sym_ul": 964904,
                "contact:phone": "+48 896252366",
                "contact:email": "zsziownidzicy@interia.pl",
                "ref:regon": "519455500",
                "operator": "Powiat Nidzicki",
                "operator:type": "government",
                "amenity": "school",
                "note": "Parent RSPO: 84123"
            }
        },
        {
            "id": 125807,
            "type": "Feature",
            "geometry": {
                "type": "Point",
                "coordinates": [
                    20.42904,
                    53.35844
                ]
            },
            "properties": {
                "isced:level": "3",
                "ref:rspo": 125807,
                "official_name": "Technikum w Zespole Szk\u00f3\u0142 Zawodowych I Og\u00f3lnokszta\u0142c\u0105cych w Nidzicy",
                "name": "Technikum w Zespole Szk\u00f3\u0142 Zawodowych I Og\u00f3lnokszta\u0142c\u0105cych w Nidzicy",
                "addr:country": "PL",
                "addr:postcode": "13-100",
                "addr:city": "Nidzica",
                "addr:street": "W\u0142adys\u0142awa Jagie\u0142\u0142y",
                "addr:housenumber": "3",
                "addr:teryt:simc": 24494,
                "addr:teryt:sym_ul": 964904,
                "contact:phone": "+48 896252366",
                "contact:email": "zsziownidzicy@interia.pl",
                "ref:regon": "519455492",
                "operator": "Powiat Nidzicki",
                "operator:type": "government",
                "amenity": "school",
                "note": "Parent RSPO: 84123"
            }
        },
        {
            "id": 128093,
            "type": "Feature",
            "geometry": {
                "type": "Point",
                "coordinates": [
                    20.42904,
                    53.35841
                ]
            },
            "properties": {
                "isced:level": "4",
                "ref:rspo": 128093,
                "official_name": "Szko\u0142a Policealna",
                "name": "Szko\u0142a Policealna",
                "addr:country": "PL",
                "addr:postcode": "13-100",
                "addr:city": "Nidzica",
                "addr:street": "W\u0142adys\u0142awa Jagie\u0142\u0142y",
                "addr:housenumber": "3",
                "addr:teryt:simc": 24494,
                "addr:teryt:sym_ul": 964904,
                "contact:phone": "+48 896252366",
                "ref:regon": "280147170",
                "operator": "Powiat Nidzicki",
                "operator:type": "government",
                "amenity": "college",
                "note": "Parent RSPO: 84123"
            }
        },
        {
            "id": 130391,
            "type": "Feature",
            "geometry": {
                "type": "Point",
                "coordinates": [
                    20.42904,
                    53.358380000000004
                ]
            },
            "properties": {
                "ref:rspo": 130391,
                "official_name": "O\u015brodek Dokszta\u0142cania I Doskonalenia Zawodowego w Zespole Szk\u00f3\u0142 Zawodowych I Og\u00f3lnokszta\u0142cacych w Nidzicy",
                "name": "O\u015brodek Dokszta\u0142cania I Doskonalenia Zawodowego w Zespole Szk\u00f3\u0142 Zawodowych I Og\u00f3lnokszta\u0142cacych w Nidzicy",
                "addr:country": "PL",
                "addr:postcode": "13-100",
                "addr:city": "Nidzica",
                "addr:street": "W\u0142adys\u0142awa Jagie\u0142\u0142y",
                "addr:housenumber": "3",
                "addr:teryt:simc": 24494,
                "addr:teryt:sym_ul": 964904,
                "contact:phone": "+48 896252366",
                "ref:regon": "363948249",
                "operator": "Powiat Nidzicki",
                "operator:type": "government",
                "fixme": "w zale\u017cno\u015bci od przedmiotu dzia\u0142alno\u015bci (np. amenity=training + training=*, amenity=dancing_school, amenity=language_school, amenity=music_school) albo amenity=school, amenity=college, albo landuse=education w zale\u017cno\u015bci od tego, jakie plac\u00f3wki wchodz\u0105 w sk\u0142ad zespo\u0142u. Sprawd\u017a, kiedy stosowa\u0107 amenity=* a kiedy landuse=education.",
                "note": "Parent RSPO: 84123"
            }
        },
        {
            "id": 83846,
            "type": "Feature",
            "geometry": {
                "type": "Point",
                "coordinates": [
                    20.4274999,
                    53.35865
                ]
            },
            "properties": {
                "isced:level": "3",
                "ref:rspo": 83846,
                "official_name": "Liceum Og\u00f3lnokszta\u0142cace dla Doros\u0142ych",
                "name": "Liceum Og\u00f3lnokszta\u0142cace dla Doros\u0142ych",
                "addr:country": "PL",
                "addr:postcode": "13-100",
                "addr:city": "Nidzica",
                "addr:street": "W\u0142adys\u0142awa Jagie\u0142\u0142y",
                "addr:housenumber": "1",
                "addr:teryt:simc": 24494,
                "addr:teryt:sym_ul": 964904,
                "contact:phone": "+48 896252171",
                "ref:regon": "281448033",
                "operator": "Dane Do Uzupe\u0142nienia",
                "operator:type": "private",
                "amenity": "school"
            }
        },
        {
            "id": 105600,
            "type": "Feature",
            "geometry": {
                "type": "Point",
                "coordinates": [
                    20.4274999,
                    53.358619999999995
                ]
            },
            "properties": {
                "ref:rspo": 105600,
                "official_name": "Zesp\u00f3\u0142 Szk\u00f3\u0142 Og\u00f3lnokszta\u0142cacych w Nidzicy",
                "name": "Zesp\u00f3\u0142 Szk\u00f3\u0142 Og\u00f3lnokszta\u0142cacych w Nidzicy",
                "addr:country": "PL",
                "addr:postcode": "13-100",
                "addr:city": "Nidzica",
                "addr:street": "W\u0142adys\u0142awa Jagie\u0142\u0142y",
                "addr:housenumber": "1",
                "addr:teryt:simc": 24494,
                "addr:teryt:sym_ul": 964904,
                "contact:phone": "+48 896257121",
                "contact:email": "lo_nidzica@poczta.onet.pl",
                "ref:regon": "511343316",
                "operator": "Powiat Nidzicki",
                "operator:type": "government",
                "landuse": "education",
                "fixme": "amenity=school, amenity=college albo landuse=education w zale\u017cno\u015bci od tego, jakie plac\u00f3wki wchodz\u0105 w sk\u0142ad zespo\u0142u. Sprawd\u017a, kiedy stosowa\u0107 amenity=* a kiedy landuse=education.",
                "note": "Children RSPO: 122359"
            }
        },
        {
            "id": 122359,
            "type": "Feature",
            "geometry": {
                "type": "Point",
                "coordinates": [
                    20.4274999,
                    53.35859
                ]
            },
            "properties": {
                "isced:level": "3",
                "ref:rspo": 122359,
                "official_name": "Liceum Og\u00f3lnokszta\u0142c\u0105ce w Zespole Szk\u00f3\u0142 Og\u00f3lnokszta\u0142c\u0105cych w Nidzicy",
                "name": "Liceum Og\u00f3lnokszta\u0142c\u0105ce w Zespole Szk\u00f3\u0142 Og\u00f3lnokszta\u0142c\u0105cych w Nidzicy",
                "addr:country": "PL",
                "addr:postcode": "13-100",
                "addr:city": "Nidzica",
                "addr:street": "W\u0142adys\u0142awa Jagie\u0142\u0142y",
                "addr:housenumber": "1",
                "addr:teryt:simc": 24494,
                "addr:teryt:sym_ul": 964904,
                "contact:phone": "+48 896252171",
                "contact:email": "lo_nidzica@poczta.onet.pl",
                "contact:website": "https:\/\/zsonidzica.edupage.org",
                "ref:regon": "519457568",
                "operator": "Powiat Nidzicki",
                "operator:type": "government",
                "amenity": "school",
                "note": "Parent RSPO: 105600"
            }
        },
        {
            "id": 83839,
            "type": "Feature",
            "geometry": {
                "type": "Point",
                "coordinates": [
                    20.42175,
                    53.35945
                ]
            },
            "properties": {
                "ref:rspo": 83839,
                "official_name": "O\u015brodek Rehabilitacyjno-Edukacyjno-Wychowawczy",
                "name": "O\u015brodek Rehabilitacyjno-Edukacyjno-Wychowawczy",
                "addr:country": "PL",
                "addr:postcode": "13-100",
                "addr:city": "Nidzica",
                "addr:street": "Krzywa",
                "addr:housenumber": "9",
                "addr:teryt:simc": 10157,
                "addr:teryt:sym_ul": 964904,
                "contact:phone": "+48 896252153",
                "contact:email": "psouu_nidzica@poczta.fm",
                "contact:website": "http:\/\/nidzica.psoni.org.pl",
                "ref:regon": "281447996",
                "ref:vatin": "PL7451032187",
                "operator": "Polskie Stowarzyszenie Na Rzecz Os\u00f3b Z Niepe\u0142nosprawno\u015bci\u0105 Intelektualn\u0105 - Ko\u0142o W Nidzicy",
                "operator:type": "ngo",
                "amenity": "school"
            }
        },
        {
            "id": 263634,
            "type": "Feature",
            "geometry": {
                "type": "Point",
                "coordinates": [
                    20.42175,
                    53.35942
                ]
            },
            "properties": {
                "ref:rspo": 263634,
                "official_name": "Niepubliczne Przedszkole Specjalne \"Zaczarowany Ogr\u00f3d\"",
                "name": "Niepubliczne Przedszkole Specjalne \"Zaczarowany Ogr\u00f3d\"",
                "addr:country": "PL",
                "addr:postcode": "13-100",
                "addr:city": "Nidzica",
                "addr:street": "Krzywa",
                "addr:housenumber": "9",
                "addr:teryt:simc": 10157,
                "addr:teryt:sym_ul": 964904,
                "contact:phone": "+48 896252153",
                "contact:email": "psouu_nidzica@poczta.fm",
                "ref:regon": "368209522",
                "operator": "Polskie Stowarzyszenie Na Rzecz Os\u00f3b Z Niepe\u0142nosprawno\u015bci\u0105 Intelektualn\u0105 - Ko\u0142o W Nidzicy",
                "operator:type": "ngo",
                "amenity": "kindergarten"
            }
        },
        {
            "id": 27758,
            "type": "Feature",
            "geometry": {
                "type": "Point",
                "coordinates": [
                    20.42298,
                    53.35947
                ]
            },
            "properties": {
                "ref:rspo": 27758,
                "official_name": "Przedszkole Nr 4 Kraina Odkrywc\u00f3w",
                "name": "Przedszkole Nr 4 Kraina Odkrywc\u00f3w",
                "addr:country": "PL",
                "addr:postcode": "13-100",
                "addr:city": "Nidzica",
                "addr:street": "Krzywa",
                "addr:housenumber": "7",
                "addr:teryt:simc": 10157,
                "addr:teryt:sym_ul": 964904,
                "contact:phone": "+48 896253403",
                "contact:email": "nprzedszkole4@wp.pl",
                "ref:regon": "511347395",
                "ref:vatin": "PL9840126529",
                "operator": "Gmina Nidzica",
                "operator:type": "government",
                "amenity": "kindergarten"
            }
        },
        {
            "id": 73878,
            "type": "Feature",
            "geometry": {
                "type": "Point",
                "coordinates": [
                    20.43002,
                    53.35964
                ]
            },
            "properties": {
                "ref:rspo": 73878,
                "official_name": "Niepubliczna Szko\u0142a Muzyczna I Stopnia Res Facta Musica w Nidzicy",
                "name": "Niepubliczna Szko\u0142a Muzyczna I Stopnia Res Facta Musica w Nidzicy",
                "addr:country": "PL",
                "addr:postcode": "13-100",
                "addr:city": "Nidzica",
                "addr:street": "Zamkowa",
                "addr:housenumber": "2",
                "addr:teryt:simc": 25547,
                "addr:teryt:sym_ul": 964904,
                "contact:email": "resfacta@poczta.onet.pl",
                "contact:website": "http:\/\/www.resfactamusica.republika.pl",
                "ref:regon": "281492880",
                "operator": "Mt Group Sp\u00f3\u0142ka Z Ograniczon\u0105 Odpowiedzialno\u015bci\u0105",
                "operator:type": "private",
                "amenity": "music_school"
            }
        },
        {
            "id": 74063,
            "type": "Feature",
            "geometry": {
                "type": "Point",
                "coordinates": [
                    20.4122,
                    53.36119
                ]
            },
            "properties": {
                "isced:level": "3",
                "ref:rspo": 74063,
                "official_name": "Bran\u017cowa Szko\u0142a I Stopnia",
                "name": "Bran\u017cowa Szko\u0142a I Stopnia",
                "addr:country": "PL",
                "addr:postcode": "13-100",
                "addr:city": "Nidzica",
                "addr:street": "Barke",
                "addr:housenumber": "2",
                "addr:teryt:simc": 39927,
                "addr:teryt:sym_ul": 964904,
                "contact:phone": "+48 896257544",
                "ref:regon": "281444271",
                "operator": "Warmi\u0144sko - Mazurski Zak\u0142ad Doskonalenia Zawodowego W Olsztynie",
                "operator:type": "ngo",
                "amenity": "school"
            }
        },
        {
            "id": 83840,
            "type": "Feature",
            "geometry": {
                "type": "Point",
                "coordinates": [
                    20.4122,
                    53.36116
                ]
            },
            "properties": {
                "isced:level": "3",
                "ref:rspo": 83840,
                "official_name": "Liceum Og\u00f3lnokszta\u0142cace dla Doros\u0142ych w Nidzicy",
                "name": "Liceum Og\u00f3lnokszta\u0142cace dla Doros\u0142ych w Nidzicy",
                "addr:country": "PL",
                "addr:postcode": "13-100",
                "addr:city": "Nidzica",
                "addr:street": "Barke",
                "addr:housenumber": "2",
                "addr:teryt:simc": 39927,
                "addr:teryt:sym_ul": 964904,
                "contact:phone": "+48 896257544",
                "contact:email": "nidzica@wmzdz.pl",
                "ref:regon": "281448010",
                "operator": "Warmi\u0144sko - Mazurski Zak\u0142ad Doskonalenia Zawodowego W Olsztynie",
                "operator:type": "ngo",
                "amenity": "school"
            }
        },
        {
            "id": 83842,
            "type": "Feature",
            "geometry": {
                "type": "Point",
                "coordinates": [
                    20.4122,
                    53.36113
                ]
            },
            "properties": {
                "isced:level": "4",
                "ref:rspo": 83842,
                "official_name": "Szko\u0142a Policealna w Nidzicy",
                "name": "Szko\u0142a Policealna w Nidzicy",
                "addr:country": "PL",
                "addr:postcode": "13-100",
                "addr:city": "Nidzica",
                "addr:street": "Barke",
                "addr:housenumber": "2",
                "addr:teryt:simc": 39927,
                "addr:teryt:sym_ul": 964904,
                "contact:phone": "+48 896257544",
                "ref:regon": "281448027",
                "operator": "Warmi\u0144sko - Mazurski Zak\u0142ad Doskonalenia Zawodowego W Olsztynie",
                "operator:type": "ngo",
                "amenity": "college"
            }
        },
        {
            "id": 263618,
            "type": "Feature",
            "geometry": {
                "type": "Point",
                "coordinates": [
                    20.4122,
                    53.3611
                ]
            },
            "properties": {
                "isced:level": "3",
                "ref:rspo": 263618,
                "official_name": "Technikum w Nidzicy",
                "name": "Technikum w Nidzicy",
                "addr:country": "PL",
                "addr:postcode": "13-100",
                "addr:city": "Nidzica",
                "addr:street": "Barke",
                "addr:housenumber": "2",
                "addr:teryt:simc": 39927,
                "addr:teryt:sym_ul": 964904,
                "contact:phone": "+48 896257544",
                "contact:email": "nidzica@wmzdz.pl",
                "contact:website": "http:\/\/www.wmzdz.pl",
                "ref:regon": "368208534",
                "operator": "Warmi\u0144sko - Mazurski Zak\u0142ad Doskonalenia Zawodowego W Olsztynie",
                "operator:type": "ngo",
                "amenity": "school"
            }
        },
        {
            "id": 272713,
            "type": "Feature",
            "geometry": {
                "type": "Point",
                "coordinates": [
                    20.4122,
                    53.36107
                ]
            },
            "properties": {
                "isced:level": "1;2",
                "ref:rspo": 272713,
                "official_name": "Szko\u0142a Podstawowa Z Oddzia\u0142ami Przysposabiaj\u0105cymi Do Pracy w Nidzicy",
                "name": "Szko\u0142a Podstawowa Z Oddzia\u0142ami Przysposabiaj\u0105cymi Do Pracy w Nidzicy",
                "addr:country": "PL",
                "addr:postcode": "13-100",
                "addr:city": "Nidzica",
                "addr:street": "Barke",
                "addr:housenumber": "2",
                "addr:teryt:simc": 39927,
                "addr:teryt:sym_ul": 964904,
                "contact:phone": "+48 896257544",
                "contact:email": "nidzica@wmzdz.pl",
                "contact:website": "http:\/\/www.szkolanidzica.pl",
                "ref:regon": "384287700",
                "operator": "Warmi\u0144sko - Mazurski Zak\u0142ad Doskonalenia Zawodowego W Olsztynie",
                "operator:type": "ngo",
                "amenity": "school"
            }
        },
        {
            "id": 278417,
            "type": "Feature",
            "geometry": {
                "type": "Point",
                "coordinates": [
                    20.4122,
                    53.36104
                ]
            },
            "properties": {
                "isced:level": "3",
                "ref:rspo": 278417,
                "official_name": "Bran\u017cowa Szko\u0142a II Stopnia w Nidzicy",
                "name": "Bran\u017cowa Szko\u0142a II Stopnia w Nidzicy",
                "addr:country": "PL",
                "addr:postcode": "13-100",
                "addr:city": "Nidzica",
                "addr:street": "Barke",
                "addr:housenumber": "2",
                "addr:teryt:simc": 39927,
                "addr:teryt:sym_ul": 964904,
                "contact:phone": "+48 896257544",
                "contact:email": "nidzica@wmzdz.pl",
                "contact:website": "http:\/\/www.szkolanidzica.pl",
                "ref:regon": "389882435",
                "operator": "Warmi\u0144sko - Mazurski Zak\u0142ad Doskonalenia Zawodowego W Olsztynie",
                "operator:type": "ngo",
                "amenity": "school"
            }
        },
        {
            "id": 83838,
            "type": "Feature",
            "geometry": {
                "type": "Point",
                "coordinates": [
                    20.42169,
                    53.36134
                ]
            },
            "properties": {
                "ref:rspo": 83838,
                "official_name": "Poradnia Psychologiczno-Pedagogiczna",
                "name": "Poradnia Psychologiczno-Pedagogiczna",
                "addr:country": "PL",
                "addr:postcode": "13-100",
                "addr:city": "Nidzica",
                "addr:street": "Romualda Traugutta",
                "addr:housenumber": "13",
                "addr:teryt:simc": 22961,
                "addr:teryt:sym_ul": 964904,
                "contact:phone": "+48 896253139",
                "contact:email": "poradnianidzica@op.pl",
                "contact:website": "http:\/\/poradnia.powiatnidzicki.pl",
                "ref:regon": "000707426",
                "ref:vatin": "PL9840125228",
                "operator": "Powiat Nidzicki",
                "operator:type": "government",
                "healthcare": "counselling",
                "counselling_type": "education",
                "fixme": "w zale\u017cno\u015bci od przedmiotu dzia\u0142alno\u015bci (np. healthcare=counselling + counselling_type=education albo healthcare=psychotherapist)",
                "note": "Parent RSPO: 272587"
            }
        },
        {
            "id": 265653,
            "type": "Feature",
            "geometry": {
                "type": "Point",
                "coordinates": [
                    20.42584,
                    53.36178
                ]
            },
            "properties": {
                "ref:rspo": 265653,
                "official_name": "Przedszkole Niepubliczne \"Przedszkole Mistrz\u00f3w\"",
                "name": "Przedszkole Niepubliczne \"Przedszkole Mistrz\u00f3w\"",
                "addr:country": "PL",
                "addr:postcode": "13-100",
                "addr:city": "Nidzica",
                "addr:street": "1 Maja",
                "addr:housenumber": "9C",
                "addr:teryt:simc": 11926,
                "addr:teryt:sym_ul": 964904,
                "contact:phone": "+48 500207601",
                "contact:email": "jaworekmagdalena@gmail.com",
                "contact:website": "http:\/\/www.przedszkolemistrz\u00f3w.pl",
                "ref:regon": "368827680",
                "operator": "Magdalena Jaworek",
                "operator:type": "private",
                "amenity": "kindergarten"
            }
        },
        {
            "id": 84660,
            "type": "Feature",
            "geometry": {
                "type": "Point",
                "coordinates": [
                    20.4115,
                    53.36199
                ]
            },
            "properties": {
                "isced:level": "1;2",
                "ref:rspo": 84660,
                "official_name": "Szko\u0142a Podstawowa Nr 2 im. Micha\u0142a Kajki w Nidzicy",
                "name": "Szko\u0142a Podstawowa Nr 2",
                "addr:country": "PL",
                "addr:postcode": "13-100",
                "addr:city": "Nidzica",
                "addr:street": "Barke",
                "addr:housenumber": "3",
                "addr:teryt:simc": 39927,
                "addr:teryt:sym_ul": 964904,
                "contact:phone": "+48 896252230",
                "contact:email": "zs2@nidzica.pl",
                "ref:regon": "519457580",
                "ref:vatin": "PL9840126423",
                "operator": "Gmina Nidzica",
                "operator:type": "government",
                "amenity": "school"
            }
        },
        {
            "id": 27901,
            "type": "Feature",
            "geometry": {
                "type": "Point",
                "coordinates": [
                    20.42929,
                    53.3659899
                ]
            },
            "properties": {
                "ref:rspo": 27901,
                "official_name": "Przedszkole Nr 2",
                "name": "Przedszkole Nr 2",
                "addr:country": "PL",
                "addr:postcode": "13-100",
                "addr:city": "Nidzica",
                "addr:street": "1 Maja",
                "addr:housenumber": "36",
                "addr:teryt:simc": 11926,
                "addr:teryt:sym_ul": 964904,
                "contact:phone": "+48 896252126",
                "contact:email": "przedszkole2@nidzica.pl",
                "ref:regon": "511347366",
                "ref:vatin": "PL9840126506",
                "operator": "Gmina Nidzica",
                "operator:type": "government",
                "amenity": "kindergarten"
            }
        },
        {
            "id": 84972,
            "type": "Feature",
            "geometry": {
                "type": "Point",
                "coordinates": [
                    20.4301,
                    53.36696
                ]
            },
            "properties": {
                "isced:level": "1;2",
                "ref:rspo": 84972,
                "official_name": "Szko\u0142a Podstawowa Nr 3 im. Janusza Korczaka w Nidzicy",
                "name": "Szko\u0142a Podstawowa Nr 3",
                "addr:country": "PL",
                "addr:postcode": "13-100",
                "addr:city": "Nidzica",
                "addr:street": "1 Maja",
                "addr:housenumber": "42",
                "addr:teryt:simc": 11926,
                "addr:teryt:sym_ul": 964904,
                "contact:phone": "+48 896253254",
                "contact:email": "zs3@nidzica.pl",
                "ref:regon": "519457551",
                "ref:vatin": "PL9840126446",
                "operator": "Gmina Nidzica",
                "operator:type": "government",
                "amenity": "school"
            }
        },
        {
            "id": 27823,
            "type": "Feature",
            "geometry": {
                "type": "Point",
                "coordinates": [
                    20.48194,
                    53.40828
                ]
            },
            "properties": {
                "isced:level": "1;2",
                "ref:rspo": 27823,
                "official_name": "Szko\u0142a Podstawowa im. Jana Paw\u0142a II w Napiwodzie",
                "name": "Szko\u0142a Podstawowa",
                "addr:country": "PL",
                "addr:postcode": "13-100",
                "addr:place": "Napiwoda",
                "addr:housenumber": "25A",
                "addr:teryt:sym_ul": 483850,
                "contact:phone": "+48 896259010",
                "contact:email": "spnapiwoda@nidzica.pl",
                "ref:regon": "001209682",
                "ref:vatin": "PL9840126475",
                "operator": "Gmina Nidzica",
                "operator:type": "government",
                "amenity": "school"
            }
        },
        {
            "id": 27793,
            "type": "Feature",
            "geometry": {
                "type": "Point",
                "coordinates": [
                    20.32869,
                    53.41006
                ]
            },
            "properties": {
                "isced:level": "1;2",
                "ref:rspo": 27793,
                "official_name": "Szko\u0142a Podstawowa im. Stanis\u0142awa Miko\u0142ajczyka w R\u0105czkach",
                "name": "Szko\u0142a Podstawowa",
                "addr:country": "PL",
                "addr:postcode": "13-100",
                "addr:place": "R\u0105czki",
                "addr:housenumber": "30",
                "addr:teryt:sym_ul": 484015,
                "contact:phone": "+48 896268015",
                "contact:email": "szkolaraczki15@poczta.onet.pl",
                "contact:website": "http:\/\/spraczki.nidzica1.beep.pl\/",
                "ref:regon": "001208599",
                "ref:vatin": "PL9840126481",
                "operator": "Gmina Nidzica",
                "operator:type": "government",
                "amenity": "school"
            }
        },
        {
            "id": 4658,
            "type": "Feature",
            "geometry": {
                "type": "Point",
                "coordinates": [
                    20.40657,
                    53.43853
                ]
            },
            "properties": {
                "isced:level": "1;2",
                "ref:rspo": 4658,
                "official_name": "Szko\u0142a Podstawowa im.prof. Romana Kobendzy w \u0141ynie",
                "name": "Szko\u0142a Podstawowa im.prof. Romana Kobendzy w \u0141ynie",
                "addr:country": "PL",
                "addr:postcode": "13-100",
                "addr:place": "\u0141yna",
                "addr:housenumber": "26",
                "addr:teryt:sym_ul": 483783,
                "contact:phone": "+48 896257554",
                "contact:email": "splyna@nidzica.pl",
                "ref:regon": "001249552",
                "ref:vatin": "PL9840126469",
                "operator": "Gmina Nidzica",
                "operator:type": "government",
                "amenity": "school"
            }
        }
    ]
}