{"type":"FeatureCollection","features":[{"id":59129,"type":"Feature","geometry":{"type":"Point","coordinates":[19.131116,54.276585]},"properties":{"isced:level":"1;2","ref:rspo":59129,"official_name":"Szko\u0142a Podstawowa w Tujsku","name":"Szko\u0142a Podstawowa w Tujsku","addr:country":"PL","addr:postcode":"82-103","addr:place":"Tujsk","addr:housenumber":"55","addr:teryt:sym_ul":157902,"contact:phone":"+48 552478695","contact:email":"gimtujsk1@wp.pl","contact:website":"http:\/\/www.zstujsk.republika.pl","ref:regon":"220445743","ref:vatin":"PL5791840695","operator":"Gmina Stegna","operator:type":"government","amenity":"school"}},{"id":27468,"type":"Feature","geometry":{"type":"Point","coordinates":[18.96306,54.28928]},"properties":{"ref:rspo":27468,"official_name":"Zesp\u00f3\u0142 Szkolno-Przedszkolny w Drewnicy","name":"Zesp\u00f3\u0142 Szkolno-Przedszkolny w Drewnicy","addr:country":"PL","addr:postcode":"82-103","addr:city":"Drewnica","addr:street":"ul. Wierzbowa","addr:housenumber":"7","addr:teryt:simc":24170,"addr:teryt:sym_ul":157701,"contact:phone":"+48 552471720","contact:email":"zsp_drewnica@op.pl","contact:website":"http:\/\/www.zspdrewnica.edupage.org","ref:regon":"192760242","ref:vatin":"PL5791977939","operator":"Gmina Stegna","operator:type":"government","landuse":"education","fixme":"amenity=school, amenity=college albo landuse=education w zale\u017cno\u015bci od tego, jakie plac\u00f3wki wchodz\u0105 w sk\u0142ad zespo\u0142u. Sprawd\u017a, kiedy stosowa\u0107 amenity=* a kiedy landuse=education.","note":"Children RSPO: 59131;59132"}},{"id":59131,"type":"Feature","geometry":{"type":"Point","coordinates":[18.96306,54.289249999999996]},"properties":{"isced:level":"1;2","ref:rspo":59131,"official_name":"Zesp\u00f3\u0142 Szkolno-Przedszkolny w Drewnicy - Szko\u0142a Podstawowa w Drewnicy","name":"Zesp\u00f3\u0142 Szkolno-Przedszkolny w Drewnicy - Szko\u0142a Podstawowa w Drewnicy","addr:country":"PL","addr:postcode":"82-103","addr:city":"Drewnica","addr:street":"ul. Wierzbowa","addr:housenumber":"7","addr:teryt:simc":24170,"addr:teryt:sym_ul":157701,"contact:phone":"+48 552471720","contact:email":"zsp_drewnica@op.pl","contact:website":"http:\/\/www.zspdrewnica.eu","ref:regon":"001216707","ref:vatin":"PL5791977939","operator":"Gmina Stegna","operator:type":"government","amenity":"school","note":"Parent RSPO: 27468"}},{"id":59132,"type":"Feature","geometry":{"type":"Point","coordinates":[18.96306,54.28922]},"properties":{"ref:rspo":59132,"official_name":"Zesp\u00f3\u0142 Szkolno-Przedszkolny w Drewnicy - Publiczne Przedszkole w Drewnicy","name":"Zesp\u00f3\u0142 Szkolno-Przedszkolny w Drewnicy - Publiczne Przedszkole w Drewnicy","addr:country":"PL","addr:postcode":"82-103","addr:city":"Drewnica","addr:street":"ul. Wierzbowa","addr:housenumber":"7","addr:teryt:simc":24170,"addr:teryt:sym_ul":157701,"contact:phone":"+48 552471720","contact:email":"zsp_drewnica@op.pl","contact:website":"http:\/\/www.zspdrewnica.eu","ref:regon":"192781333","ref:vatin":"PL5791977939","operator":"Gmina Stegna","operator:type":"government","amenity":"kindergarten","note":"Parent RSPO: 27468"}},{"id":59133,"type":"Feature","geometry":{"type":"Point","coordinates":[19.07999,54.32696]},"properties":{"ref:rspo":59133,"official_name":"Zesp\u00f3\u0142 Szk\u00f3\u0142 w Stegnie - Publiczne Przedszkole w Stegnie","name":"Zesp\u00f3\u0142 Szk\u00f3\u0142 w Stegnie - Publiczne Przedszkole w Stegnie","addr:country":"PL","addr:postcode":"82-103","addr:city":"Stegna","addr:street":"ul. Bursztynowa","addr:housenumber":"1","addr:teryt:simc":2462,"addr:teryt:sym_ul":157871,"contact:phone":"+48 552478456","contact:email":"szkola_stegna@op.pl","ref:regon":"170008610","ref:vatin":"PL5791978850","operator":"Gmina Stegna","operator:type":"government","amenity":"kindergarten","note":"Parent RSPO: 27193"}},{"id":27193,"type":"Feature","geometry":{"type":"Point","coordinates":[19.12226,54.32863]},"properties":{"ref:rspo":27193,"official_name":"Zesp\u00f3\u0142 Szk\u00f3\u0142 w Stegnie","name":"Zesp\u00f3\u0142 Szk\u00f3\u0142 w Stegnie","addr:country":"PL","addr:postcode":"82-103","addr:city":"Stegna","addr:street":"ul. Powsta\u0144c\u00f3w Warszawy","addr:housenumber":"2","addr:teryt:simc":17372,"addr:teryt:sym_ul":157871,"contact:phone":"+48 552478250","contact:email":"szkola_stegna@op.pl","contact:website":"http:\/\/www.zsstegna.edupage.org","ref:regon":"192770335","ref:vatin":"PL5791978850","operator":"Gmina Stegna","operator:type":"government","landuse":"education","fixme":"amenity=school, amenity=college albo landuse=education w zale\u017cno\u015bci od tego, jakie plac\u00f3wki wchodz\u0105 w sk\u0142ad zespo\u0142u. Sprawd\u017a, kiedy stosowa\u0107 amenity=* a kiedy landuse=education.","note":"Children RSPO: 59130;59133"}},{"id":59130,"type":"Feature","geometry":{"type":"Point","coordinates":[19.12226,54.328599999999994]},"properties":{"isced:level":"1;2","ref:rspo":59130,"official_name":"Zesp\u00f3\u0142 Szk\u00f3\u0142 w Stegnie - Szko\u0142a Podstawowa w Stegnie im. I Brygady Pancernej im. Bohater\u00f3w Westerplatte","name":"Zesp\u00f3\u0142 Szk\u00f3\u0142 w Stegnie - Szko\u0142a Podstawowa w Stegnie","addr:country":"PL","addr:postcode":"82-103","addr:city":"Stegna","addr:street":"ul. Powsta\u0144c\u00f3w Warszawy","addr:housenumber":"2","addr:teryt:simc":17372,"addr:teryt:sym_ul":157871,"contact:phone":"+48 552478250","contact:email":"szkola_stegna@op.pl","contact:website":"http:\/\/www.zsstegna.edupage.org","ref:regon":"000270142","ref:vatin":"PL5791978850","operator":"Gmina Stegna","operator:type":"government","amenity":"school","note":"Parent RSPO: 27193"}},{"id":262774,"type":"Feature","geometry":{"type":"Point","coordinates":[18.96172,54.33369]},"properties":{"isced:level":"1;2","ref:rspo":262774,"official_name":"Szko\u0142a Podstawowa im. Na Bursztynowym Szlaku w Mikoszewie","name":"Szko\u0142a Podstawowa","addr:country":"PL","addr:postcode":"82-103","addr:city":"Mikoszewo","addr:street":"ul. Gda\u0144ska","addr:housenumber":"29","addr:teryt:simc":5431,"addr:teryt:sym_ul":157799,"contact:phone":"+48 552478816","contact:email":"gimmik.sekretariat@wp.pl","contact:website":"http:\/\/www.gimmik.eu","ref:regon":"368058075","operator":"Gmina Stegna","operator:type":"government","amenity":"school"}},{"id":59128,"type":"Feature","geometry":{"type":"Point","coordinates":[19.01622,54.33568]},"properties":{"isced:level":"1;2","ref:rspo":59128,"official_name":"Szko\u0142a Podstawowa im. Morskiego Oddzia\u0142u Stra\u017cy Granicznej w Jantarze","name":"Szko\u0142a Podstawowa","addr:country":"PL","addr:postcode":"82-103","addr:city":"Jantar","addr:street":"ul. Rybacka","addr:housenumber":"66b","addr:teryt:simc":19142,"addr:teryt:sym_ul":157760,"contact:phone":"+48 552477904","contact:email":"spjantar@wp.pl","contact:website":"http:\/\/www.spjantar.edupage.org","ref:regon":"170008640","ref:vatin":"PL5781046702","operator":"Gmina Stegna","operator:type":"government","amenity":"school"}}]}