{
    "type": "FeatureCollection",
    "features": [
        {
            "id": 55292,
            "type": "Feature",
            "geometry": {
                "type": "Point",
                "coordinates": [
                    19.09115,
                    54.16059
                ]
            },
            "properties": {
                "ref:rspo": 55292,
                "official_name": "Punkt Przedszkolny Lubieszewo",
                "name": "Punkt Przedszkolny Lubieszewo",
                "addr:postcode": "82-100",
                "addr:city": "Marynowy",
                "addr:street": "Nowodworska",
                "addr:housenumber": "42",
                "addr:teryt:simc": 153212,
                "addr:teryt:sym_ul": 14418,
                "phone": "+48 552474858",
                "email": "splubieszewo@miastonowydwor.pl",
                "website": "http:\/\/www.splubieszewo.boo.pl",
                "ref:regon": "221766366",
                "operator": "Gmina Nowy Dw\u00f3r Gda\u0144ski",
                "operator:type": "government",
                "amenity": "kindergarten"
            }
        },
        {
            "id": 13759,
            "type": "Feature",
            "geometry": {
                "type": "Point",
                "coordinates": [
                    19.039372,
                    54.186823
                ]
            },
            "properties": {
                "isced:level": "1;2",
                "ref:rspo": 13759,
                "official_name": "Szko\u0142a Podstawowa w Lubieszewie",
                "name": "Szko\u0142a Podstawowa w Lubieszewie",
                "addr:postcode": "82-100",
                "addr:place": "Lubieszewo",
                "addr:housenumber": "63",
                "addr:teryt:simc": 153175,
                "phone": "+48 552474858",
                "email": "splubieszewo@miastonowydwor.pl",
                "website": "http:\/\/www.splubieszewo.boo.pl",
                "ref:regon": "001123070",
                "ref:vatin": "PL5791851960",
                "operator": "Gmina Nowy Dw\u00f3r Gda\u0144ski",
                "operator:type": "government",
                "amenity": "school"
            }
        },
        {
            "id": 13943,
            "type": "Feature",
            "geometry": {
                "type": "Point",
                "coordinates": [
                    19.15983,
                    54.18959
                ]
            },
            "properties": {
                "ref:rspo": 13943,
                "official_name": "Zesp\u00f3\u0142 Szkolno-Przedszkolny w Kmiecinie",
                "name": "Zesp\u00f3\u0142 Szkolno-Przedszkolny w Kmiecinie",
                "addr:postcode": "82-100",
                "addr:city": "Kmiecin",
                "addr:street": "\u017bu\u0142awska",
                "addr:housenumber": "6",
                "addr:teryt:simc": 153146,
                "addr:teryt:sym_ul": 26567,
                "phone": "+48 552471076",
                "email": "zspkmiecin@miastonowydwor.pl",
                "website": "http:\/\/www.zspkmiecin.szkolnastrona.pl",
                "ref:regon": "170339726",
                "ref:vatin": "PL5791852161",
                "operator": "Gmina Nowy Dw\u00f3r Gda\u0144ski",
                "operator:type": "government",
                "landuse": "education",
                "fixme": "amenity=school, amenity=college albo landuse=education w zale\u017cno\u015bci od tego, jakie plac\u00f3wki wchodz\u0105 w sk\u0142ad zespo\u0142u. Sprawd\u017a, kiedy stosowa\u0107 amenity=* a kiedy landuse=education.",
                "note": "Children RSPO: 31107;54311"
            }
        },
        {
            "id": 31107,
            "type": "Feature",
            "geometry": {
                "type": "Point",
                "coordinates": [
                    19.15983,
                    54.18956
                ]
            },
            "properties": {
                "isced:level": "1;2",
                "ref:rspo": 31107,
                "official_name": "Szko\u0142a Podstawowa w Kmiecinie",
                "name": "Szko\u0142a Podstawowa w Kmiecinie",
                "addr:postcode": "82-100",
                "addr:city": "Kmiecin",
                "addr:street": "\u017bu\u0142awska",
                "addr:housenumber": "6",
                "addr:teryt:simc": 153146,
                "addr:teryt:sym_ul": 26567,
                "phone": "+48 552471076",
                "email": "zspkmiecin@miastonowydwor.pl",
                "website": "http:\/\/www.zspkmiecin.szkolnastrona.pl",
                "ref:regon": "192945830",
                "operator": "Gmina Nowy Dw\u00f3r Gda\u0144ski",
                "operator:type": "government",
                "amenity": "school",
                "note": "Parent RSPO: 13943"
            }
        },
        {
            "id": 54311,
            "type": "Feature",
            "geometry": {
                "type": "Point",
                "coordinates": [
                    19.15983,
                    54.189530000000005
                ]
            },
            "properties": {
                "ref:rspo": 54311,
                "official_name": "Przedszkole Gminne Imienia \"Przyjaci\u00f3\u0142 Misia\" w Kmiecinie",
                "name": "Przedszkole Gminne Imienia \"Przyjaci\u00f3\u0142 Misia\" w Kmiecinie",
                "addr:postcode": "82-100",
                "addr:city": "Kmiecin",
                "addr:street": "\u017bu\u0142awska",
                "addr:housenumber": "6A",
                "addr:teryt:simc": 153146,
                "addr:teryt:sym_ul": 26567,
                "phone": "+48 552471070",
                "email": "zspkmiecin@miastonowydwor.pl",
                "website": "http:\/\/www.zspkmiecin.szkolnastrona.pl",
                "ref:regon": "192945869",
                "operator": "Gmina Nowy Dw\u00f3r Gda\u0144ski",
                "operator:type": "government",
                "amenity": "kindergarten",
                "note": "Parent RSPO: 13943"
            }
        },
        {
            "id": 13614,
            "type": "Feature",
            "geometry": {
                "type": "Point",
                "coordinates": [
                    19.1168,
                    54.20636
                ]
            },
            "properties": {
                "ref:rspo": 13614,
                "official_name": "Miejskie Przedszkole Nr 4",
                "name": "Miejskie Przedszkole Nr 4",
                "addr:postcode": "82-100",
                "addr:city": "Nowy Dw\u00f3r Gda\u0144ski",
                "addr:street": "Tczewska",
                "addr:housenumber": "6",
                "addr:teryt:simc": 932880,
                "addr:teryt:sym_ul": 22722,
                "phone": "+48 552474520",
                "email": "mp4@miastonowydwor.pl",
                "website": "http:\/\/ndg.schoolpage.eu",
                "ref:regon": "170019803",
                "ref:vatin": "PL5791852072",
                "operator": "Gmina Nowy Dw\u00f3r Gda\u0144ski",
                "operator:type": "government",
                "amenity": "kindergarten"
            }
        },
        {
            "id": 35212,
            "type": "Feature",
            "geometry": {
                "type": "Point",
                "coordinates": [
                    19.13558,
                    54.20718
                ]
            },
            "properties": {
                "ref:rspo": 35212,
                "official_name": "Zesp\u00f3\u0142 Szk\u00f3\u0142",
                "name": "Zesp\u00f3\u0142 Szk\u00f3\u0142",
                "addr:postcode": "82-100",
                "addr:city": "Nowy Dw\u00f3r Gda\u0144ski",
                "addr:street": "Warszawska",
                "addr:housenumber": "54",
                "addr:teryt:simc": 932880,
                "addr:teryt:sym_ul": 23682,
                "phone": "+48 552472491",
                "email": "sekretariat@zsndg.edu.pl",
                "website": "http:\/\/www.zs2ndg.szkolnastrona.pl",
                "ref:regon": "000197161",
                "ref:vatin": "PL5781068655",
                "operator": "Powiat Nowodworski",
                "operator:type": "government",
                "landuse": "education",
                "fixme": "amenity=school, amenity=college albo landuse=education w zale\u017cno\u015bci od tego, jakie plac\u00f3wki wchodz\u0105 w sk\u0142ad zespo\u0142u. Sprawd\u017a, kiedy stosowa\u0107 amenity=* a kiedy landuse=education.",
                "note": "Children RSPO: 42200;42204"
            }
        },
        {
            "id": 42200,
            "type": "Feature",
            "geometry": {
                "type": "Point",
                "coordinates": [
                    19.13558,
                    54.20715
                ]
            },
            "properties": {
                "isced:level": "3",
                "ref:rspo": 42200,
                "official_name": "Bran\u017cowa Szko\u0142a I Stopnia",
                "name": "Bran\u017cowa Szko\u0142a I Stopnia",
                "addr:postcode": "82-100",
                "addr:city": "Nowy Dw\u00f3r Gda\u0144ski",
                "addr:street": "Warszawska",
                "addr:housenumber": "54",
                "addr:teryt:simc": 932880,
                "addr:teryt:sym_ul": 23682,
                "phone": "+48 552472491",
                "email": "sekretariat@zsndg.edu.pl",
                "website": "http:\/\/www.zs2ndg.szkolnastrona.pl",
                "ref:regon": "192797647",
                "operator": "Powiat Nowodworski",
                "operator:type": "government",
                "amenity": "school",
                "note": "Parent RSPO: 35212"
            }
        },
        {
            "id": 42204,
            "type": "Feature",
            "geometry": {
                "type": "Point",
                "coordinates": [
                    19.13558,
                    54.20712
                ]
            },
            "properties": {
                "isced:level": "3",
                "ref:rspo": 42204,
                "official_name": "Technikum",
                "name": "Technikum",
                "addr:postcode": "82-100",
                "addr:city": "Nowy Dw\u00f3r Gda\u0144ski",
                "addr:street": "Warszawska",
                "addr:housenumber": "54",
                "addr:teryt:simc": 932880,
                "addr:teryt:sym_ul": 23682,
                "phone": "+48 552472491",
                "email": "sekretariat@zsndg.edu.pl",
                "website": "http:\/\/www.zs2ndg.szkolnastrona.pl",
                "ref:regon": "192797660",
                "operator": "Powiat Nowodworski",
                "operator:type": "government",
                "amenity": "school",
                "note": "Parent RSPO: 35212"
            }
        },
        {
            "id": 40559,
            "type": "Feature",
            "geometry": {
                "type": "Point",
                "coordinates": [
                    19.13503,
                    54.20804
                ]
            },
            "properties": {
                "ref:rspo": 40559,
                "official_name": "Specjalny O\u015brodek Szkolno-Wychowawczy im. Ireny Sendlerowej",
                "name": "Specjalny O\u015brodek Szkolno-Wychowawczy",
                "addr:postcode": "82-100",
                "addr:city": "Nowy Dw\u00f3r Gda\u0144ski",
                "addr:street": "Warszawska",
                "addr:housenumber": "52",
                "addr:teryt:simc": 932880,
                "addr:teryt:sym_ul": 23682,
                "phone": "+48 552472321",
                "email": "sosw@soswndg.pl",
                "website": "http:\/\/www.soswndg.pl",
                "ref:regon": "170241022",
                "ref:vatin": "PL5781068313",
                "operator": "Powiat Nowodworski",
                "operator:type": "government",
                "amenity": "school",
                "note": "Children RSPO: 60740;60743;60746;120112"
            }
        },
        {
            "id": 60740,
            "type": "Feature",
            "geometry": {
                "type": "Point",
                "coordinates": [
                    19.13503,
                    54.208009999999994
                ]
            },
            "properties": {
                "isced:level": "1;2",
                "ref:rspo": 60740,
                "official_name": "Szko\u0142a Podstawowa im. Ireny Sendlerowej",
                "name": "Szko\u0142a Podstawowa",
                "addr:postcode": "82-100",
                "addr:city": "Nowy Dw\u00f3r Gda\u0144ski",
                "addr:street": "Warszawska",
                "addr:housenumber": "52",
                "addr:teryt:simc": 932880,
                "addr:teryt:sym_ul": 23682,
                "phone": "+48 552472321",
                "email": "sosw@soswndg.pl",
                "website": "http:\/\/www.soswndg.pl",
                "ref:regon": "221768827",
                "operator": "Powiat Nowodworski",
                "operator:type": "government",
                "amenity": "school",
                "note": "Parent RSPO: 40559"
            }
        },
        {
            "id": 60743,
            "type": "Feature",
            "geometry": {
                "type": "Point",
                "coordinates": [
                    19.13503,
                    54.20798
                ]
            },
            "properties": {
                "isced:level": "3",
                "ref:rspo": 60743,
                "official_name": "Bran\u017cowa Szko\u0142a I Stopnia im. Ireny Sendlerowej",
                "name": "Bran\u017cowa Szko\u0142a I Stopnia",
                "addr:postcode": "82-100",
                "addr:city": "Nowy Dw\u00f3r Gda\u0144ski",
                "addr:street": "Warszawska",
                "addr:housenumber": "52",
                "addr:teryt:simc": 932880,
                "addr:teryt:sym_ul": 23682,
                "phone": "+48 552472321",
                "email": "sosw@soswndg.pl",
                "website": "http:\/\/www.soswndg.pl",
                "ref:regon": "221768885",
                "operator": "Powiat Nowodworski",
                "operator:type": "government",
                "amenity": "school",
                "note": "Parent RSPO: 40559"
            }
        },
        {
            "id": 60746,
            "type": "Feature",
            "geometry": {
                "type": "Point",
                "coordinates": [
                    19.13503,
                    54.20795
                ]
            },
            "properties": {
                "ref:rspo": 60746,
                "official_name": "Szko\u0142a Przysposabiaj\u0105ca Do Pracy im. Ireny Sendlerowej",
                "name": "Szko\u0142a Przysposabiaj\u0105ca Do Pracy",
                "addr:postcode": "82-100",
                "addr:city": "Nowy Dw\u00f3r Gda\u0144ski",
                "addr:street": "Warszawska",
                "addr:housenumber": "52",
                "addr:teryt:simc": 932880,
                "addr:teryt:sym_ul": 23682,
                "phone": "+48 552472321",
                "email": "sosw@soswndg.pl",
                "website": "http:\/\/www.soswndg.pl",
                "ref:regon": "221768900",
                "operator": "Powiat Nowodworski",
                "operator:type": "government",
                "amenity": "school",
                "note": "Parent RSPO: 40559"
            }
        },
        {
            "id": 120112,
            "type": "Feature",
            "geometry": {
                "type": "Point",
                "coordinates": [
                    19.13503,
                    54.207919999999994
                ]
            },
            "properties": {
                "ref:rspo": 120112,
                "official_name": "Przedszkole Specjalne im. Ireny Sendlerowej",
                "name": "Przedszkole Specjalne",
                "addr:postcode": "82-100",
                "addr:city": "Nowy Dw\u00f3r Gda\u0144ski",
                "addr:street": "Warszawska",
                "addr:housenumber": "52",
                "addr:teryt:simc": 932880,
                "addr:teryt:sym_ul": 23682,
                "phone": "+48 552472321",
                "email": "sosw@soswndg.pl",
                "website": "http:\/\/sosw.wp.pl",
                "ref:regon": "221958960",
                "operator": "Powiat Nowodworski",
                "operator:type": "government",
                "amenity": "kindergarten",
                "note": "Parent RSPO: 40559"
            }
        },
        {
            "id": 31861,
            "type": "Feature",
            "geometry": {
                "type": "Point",
                "coordinates": [
                    19.1172,
                    54.20999
                ]
            },
            "properties": {
                "isced:level": "3",
                "ref:rspo": 31861,
                "official_name": "Liceum Og\u00f3lnokszta\u0142c\u0105ce im. Ziemi \u017bu\u0142awskiej",
                "name": "Liceum Og\u00f3lnokszta\u0142c\u0105ce",
                "addr:postcode": "82-100",
                "addr:city": "Nowy Dw\u00f3r Gda\u0144ski",
                "addr:street": "3 Maja",
                "addr:housenumber": "3",
                "addr:teryt:simc": 932880,
                "addr:teryt:sym_ul": 29830,
                "phone": "+48 552472021",
                "email": "liceum@nowydworgdanski.pl",
                "website": "http:\/\/www.zs1ndg.edu.pl",
                "ref:regon": "192778839",
                "ref:vatin": "PL5782489235",
                "operator": "Powiat Nowodworski",
                "operator:type": "government",
                "amenity": "school"
            }
        },
        {
            "id": 13701,
            "type": "Feature",
            "geometry": {
                "type": "Point",
                "coordinates": [
                    19.1215699,
                    54.2107
                ]
            },
            "properties": {
                "ref:rspo": 13701,
                "official_name": "Przedszkole Niepubliczne \"Weso\u0142e Smerfiki\"",
                "name": "Przedszkole Niepubliczne \"Weso\u0142e Smerfiki\"",
                "addr:postcode": "82-100",
                "addr:city": "Nowy Dw\u00f3r Gda\u0144ski",
                "addr:street": "Henryka D\u0105browskiego",
                "addr:housenumber": "5",
                "addr:teryt:simc": 932880,
                "addr:teryt:sym_ul": 3678,
                "phone": "+48 552472322",
                "email": "bozena.lukawska@wp.pl",
                "website": "http:\/\/www.wesolesmerfiki.com",
                "ref:regon": "221740823",
                "ref:vatin": "PL5791177191",
                "operator": "Bo\u017cena \u0141ukawska",
                "operator:type": "private",
                "amenity": "kindergarten"
            }
        },
        {
            "id": 40563,
            "type": "Feature",
            "geometry": {
                "type": "Point",
                "coordinates": [
                    19.11673,
                    54.21078
                ]
            },
            "properties": {
                "ref:rspo": 40563,
                "official_name": "Poradnia Psychologiczno-Pedagogiczna",
                "name": "Poradnia Psychologiczno-Pedagogiczna",
                "addr:postcode": "82-100",
                "addr:city": "Nowy Dw\u00f3r Gda\u0144ski",
                "addr:street": "3 Maja",
                "addr:housenumber": "6",
                "addr:teryt:simc": 932880,
                "addr:teryt:sym_ul": 29830,
                "phone": "+48 552472282",
                "email": "poradnia@nowydworgdanski.pl",
                "website": "http:\/\/pppndg.pl",
                "ref:regon": "001011684",
                "ref:vatin": "PL5791792602",
                "operator": "Powiat Nowodworski",
                "operator:type": "government",
                "healthcare": "counselling",
                "counselling_type": "education",
                "fixme": "w zale\u017cno\u015bci od przedmiotu dzia\u0142alno\u015bci (np. healthcare=counselling + counselling_type=education albo healthcare=psychotherapist)"
            }
        },
        {
            "id": 13677,
            "type": "Feature",
            "geometry": {
                "type": "Point",
                "coordinates": [
                    19.1208199,
                    54.21406
                ]
            },
            "properties": {
                "ref:rspo": 13677,
                "official_name": "Przedszkole Niepubliczne Nr 1",
                "name": "Przedszkole Niepubliczne Nr 1",
                "addr:postcode": "82-100",
                "addr:city": "Nowy Dw\u00f3r Gda\u0144ski",
                "addr:street": "Genera\u0142a Tadeusza Ko\u015bciuszki",
                "addr:housenumber": "15",
                "addr:teryt:simc": 932880,
                "addr:teryt:sym_ul": 9574,
                "phone": "+48 552472617",
                "email": "violkazal@wp.pl",
                "website": "http:\/\/www.przedszkole1.com",
                "ref:regon": "221740792",
                "ref:vatin": "PL5781968577",
                "operator": "Wioletta Zalewska-Rozbicka",
                "operator:type": "private",
                "amenity": "kindergarten"
            }
        },
        {
            "id": 13587,
            "type": "Feature",
            "geometry": {
                "type": "Point",
                "coordinates": [
                    19.1223,
                    54.21408
                ]
            },
            "properties": {
                "isced:level": "1;2",
                "ref:rspo": 13587,
                "official_name": "Szko\u0142a Podstawowa Nr 2",
                "name": "Szko\u0142a Podstawowa Nr 2",
                "addr:postcode": "82-100",
                "addr:city": "Nowy Dw\u00f3r Gda\u0144ski",
                "addr:street": "Adama Mickiewicza",
                "addr:housenumber": "10",
                "addr:teryt:simc": 932880,
                "addr:teryt:sym_ul": 12740,
                "phone": "+48 552472621",
                "email": "sp2@miastonowydwor.pl",
                "website": "http:\/\/www.sp2ndg.neostrada.pl",
                "ref:regon": "001120864",
                "ref:vatin": "PL5791852037",
                "operator": "Gmina Nowy Dw\u00f3r Gda\u0144ski",
                "operator:type": "government",
                "amenity": "school"
            }
        },
        {
            "id": 111375,
            "type": "Feature",
            "geometry": {
                "type": "Point",
                "coordinates": [
                    19.1223,
                    54.21405
                ]
            },
            "properties": {
                "ref:rspo": 111375,
                "official_name": "Pedagogiczna Biblioteka Wojew\u00f3dzka w Gda\u0144sku Filia w Nowym Dworze Gda\u0144skim",
                "name": "Pedagogiczna Biblioteka Wojew\u00f3dzka w Gda\u0144sku Filia w Nowym Dworze Gda\u0144skim",
                "addr:postcode": "82-100",
                "addr:city": "Nowy Dw\u00f3r Gda\u0144ski",
                "addr:street": "Adama Mickiewicza",
                "addr:housenumber": "10",
                "addr:teryt:simc": 932880,
                "addr:teryt:sym_ul": 12740,
                "phone": "+48 552475749",
                "email": "pbwndg@pbw.it.pl",
                "ref:regon": "191688264",
                "operator": "Wojew\u00f3dztwo Pomorskie",
                "operator:type": "government",
                "amenity": "library",
                "note": "Parent RSPO: 9619"
            }
        },
        {
            "id": 276251,
            "type": "Feature",
            "geometry": {
                "type": "Point",
                "coordinates": [
                    19.111839294434,
                    54.214698791504
                ]
            },
            "properties": {
                "ref:rspo": 276251,
                "official_name": "Niepubliczne Przedszkole Bajkowa Akademia",
                "name": "Niepubliczne Przedszkole Bajkowa Akademia",
                "addr:postcode": "82-100",
                "addr:city": "Nowy Dw\u00f3r Gda\u0144ski",
                "addr:street": "Jana Brzechwy",
                "addr:housenumber": "4",
                "addr:teryt:simc": 932880,
                "addr:teryt:sym_ul": 2225,
                "phone": "+48 500807652",
                "email": "bajkowaakademiakontakt@gmail.com",
                "ref:regon": "387056390",
                "operator": "Emilia Fierek",
                "operator:type": "private",
                "amenity": "kindergarten"
            }
        },
        {
            "id": 120447,
            "type": "Feature",
            "geometry": {
                "type": "Point",
                "coordinates": [
                    19.12231,
                    54.21579
                ]
            },
            "properties": {
                "ref:rspo": 120447,
                "official_name": "Niepubliczne Przedszkole J\u0119zykowo-Muzyczne \"Calineczka\"",
                "name": "Niepubliczne Przedszkole J\u0119zykowo-Muzyczne \"Calineczka\"",
                "addr:postcode": "82-100",
                "addr:city": "Nowy Dw\u00f3r Gda\u0144ski",
                "addr:street": "Genera\u0142a Tadeusza Ko\u015bciuszki",
                "addr:housenumber": "25",
                "addr:teryt:simc": 932880,
                "addr:teryt:sym_ul": 9574,
                "phone": "+48 535555080",
                "email": "calineczka@jezykowo-muzyczne.pl",
                "website": "http:\/\/www.jezykowo-muzyczne.pl",
                "ref:regon": "221967188",
                "operator": "Magdalena St\u0119pniewska",
                "operator:type": "private",
                "amenity": "kindergarten"
            }
        },
        {
            "id": 13556,
            "type": "Feature",
            "geometry": {
                "type": "Point",
                "coordinates": [
                    19.11498,
                    54.21817
                ]
            },
            "properties": {
                "isced:level": "1;2",
                "ref:rspo": 13556,
                "official_name": "Szko\u0142a Podstawowa Nr 1 im.janusza Korczaka",
                "name": "Szko\u0142a Podstawowa Nr 1 im.janusza Korczaka",
                "addr:postcode": "82-100",
                "addr:city": "Nowy Dw\u00f3r Gda\u0144ski",
                "addr:street": "Szkolna",
                "addr:housenumber": "2",
                "addr:teryt:simc": 932880,
                "addr:teryt:sym_ul": 21970,
                "phone": "+48 556482623",
                "email": "sp1@miastonowydwor.pl",
                "website": "http:\/\/www.sp1.ndworgd.pl",
                "ref:regon": "001120858",
                "ref:vatin": "PL5791852103",
                "operator": "Gmina Nowy Dw\u00f3r Gda\u0144ski",
                "operator:type": "government",
                "amenity": "school"
            }
        },
        {
            "id": 13975,
            "type": "Feature",
            "geometry": {
                "type": "Point",
                "coordinates": [
                    19.22995,
                    54.23523
                ]
            },
            "properties": {
                "ref:rspo": 13975,
                "official_name": "Zesp\u00f3\u0142 Szkolno-Przedszkolny w Marz\u0119cinie",
                "name": "Zesp\u00f3\u0142 Szkolno-Przedszkolny w Marz\u0119cinie",
                "addr:postcode": "82-100",
                "addr:city": "Marz\u0119cino",
                "addr:street": "Polna",
                "addr:housenumber": "5A",
                "addr:teryt:simc": 153235,
                "addr:teryt:sym_ul": 17011,
                "phone": "+48 552471281",
                "email": "zspmarzecino@miastonowydwor.pl",
                "website": "http:\/\/www.zspmarzecino.szkolnastrona.pl",
                "ref:regon": "001123058",
                "ref:vatin": "PL5791910763",
                "operator": "Gmina Nowy Dw\u00f3r Gda\u0144ski",
                "operator:type": "government",
                "landuse": "education",
                "fixme": "amenity=school, amenity=college albo landuse=education w zale\u017cno\u015bci od tego, jakie plac\u00f3wki wchodz\u0105 w sk\u0142ad zespo\u0142u. Sprawd\u017a, kiedy stosowa\u0107 amenity=* a kiedy landuse=education.",
                "note": "Children RSPO: 31203;40045"
            }
        },
        {
            "id": 31203,
            "type": "Feature",
            "geometry": {
                "type": "Point",
                "coordinates": [
                    19.22995,
                    54.2352
                ]
            },
            "properties": {
                "isced:level": "1;2",
                "ref:rspo": 31203,
                "official_name": "Szko\u0142a Podstawowa w Marz\u0119cinie",
                "name": "Szko\u0142a Podstawowa w Marz\u0119cinie",
                "addr:postcode": "82-100",
                "addr:city": "Marz\u0119cino",
                "addr:street": "Polna",
                "addr:housenumber": "5A",
                "addr:teryt:simc": 153235,
                "addr:teryt:sym_ul": 17011,
                "phone": "+48 552471281",
                "email": "zspmarzecino@miastonowydwor.pl",
                "website": "http:\/\/www.zspmarzecino.szkolnastrona.pl",
                "ref:regon": "192975824",
                "operator": "Gmina Nowy Dw\u00f3r Gda\u0144ski",
                "operator:type": "government",
                "amenity": "school",
                "note": "Parent RSPO: 13975"
            }
        },
        {
            "id": 40045,
            "type": "Feature",
            "geometry": {
                "type": "Point",
                "coordinates": [
                    19.22995,
                    54.235170000000004
                ]
            },
            "properties": {
                "ref:rspo": 40045,
                "official_name": "Przedszkole Gminne w Marz\u0119cinie",
                "name": "Przedszkole Gminne w Marz\u0119cinie",
                "addr:postcode": "82-100",
                "addr:city": "Marz\u0119cino",
                "addr:street": "Polna",
                "addr:housenumber": "5A",
                "addr:teryt:simc": 153235,
                "addr:teryt:sym_ul": 17011,
                "phone": "+48 552471281",
                "email": "zspmarzecino@miastonowydwor.pl",
                "website": "http:\/\/www.zspmarzecino.pl",
                "ref:regon": "192975830",
                "operator": "Gmina Nowy Dw\u00f3r Gda\u0144ski",
                "operator:type": "government",
                "amenity": "kindergarten",
                "note": "Parent RSPO: 13975"
            }
        }
    ]
}