{
    "type": "FeatureCollection",
    "features": [
        {
            "id": 58577,
            "type": "Feature",
            "geometry": {
                "type": "Point",
                "coordinates": [
                    14.8148798,
                    52.9097676
                ]
            },
            "properties": {
                "isced:level": "1;2",
                "ref:rspo": 58577,
                "official_name": "Szko\u0142a Podstawowa im. Jana Brzechwy w Nawrocku",
                "name": "Szko\u0142a Podstawowa",
                "addr:country": "PL",
                "addr:postcode": "74-300",
                "addr:place": "Nawrocko",
                "addr:housenumber": "11",
                "addr:teryt:sym_ul": 184721,
                "contact:phone": "+48 957473232",
                "contact:email": "spnawrocko@wp.pl",
                "contact:website": "http:\/\/spnawrocko.edupage.org",
                "ref:regon": "210310235",
                "ref:vatin": "PL5971689923",
                "operator": "Gmina My\u015blib\u00f3rz",
                "operator:type": "government",
                "amenity": "school"
            }
        },
        {
            "id": 48946,
            "type": "Feature",
            "geometry": {
                "type": "Point",
                "coordinates": [
                    14.8569833,
                    52.9144493
                ]
            },
            "properties": {
                "isced:level": "1;2",
                "ref:rspo": 48946,
                "official_name": "Szko\u0142a Podstawowa Nr 2 im. Janusza Kusoci\u0144skiego w My\u015bliborzu",
                "name": "Szko\u0142a Podstawowa Nr 2",
                "addr:country": "PL",
                "addr:postcode": "74-300",
                "addr:city": "My\u015blib\u00f3rz",
                "addr:street": "ul. J\u00f3zefa Pi\u0142sudskiego",
                "addr:housenumber": "18",
                "addr:teryt:simc": 16264,
                "addr:teryt:sym_ul": 935558,
                "contact:phone": "+48 957472606",
                "contact:email": "sekretariat@sp2mysliborz.pl",
                "contact:website": "http:\/\/www.sp2mysliborz.pl",
                "ref:regon": "210310175",
                "ref:vatin": "PL5971033714",
                "operator": "Gmina My\u015blib\u00f3rz",
                "operator:type": "government",
                "amenity": "school"
            }
        },
        {
            "id": 104189,
            "type": "Feature",
            "geometry": {
                "type": "Point",
                "coordinates": [
                    14.84752,
                    52.9197
                ]
            },
            "properties": {
                "ref:rspo": 104189,
                "official_name": "Niepubliczna Poradnia Psychologiczno-Pedagogiczna",
                "name": "Niepubliczna Poradnia Psychologiczno-Pedagogiczna",
                "addr:country": "PL",
                "addr:postcode": "74-300",
                "addr:city": "My\u015blib\u00f3rz",
                "addr:street": "ul. Kr\u00f3lewiecka",
                "addr:housenumber": "45",
                "addr:teryt:simc": 9983,
                "addr:teryt:sym_ul": 935558,
                "contact:phone": "+48 957473905",
                "contact:email": "cksowa@wp.pl",
                "ref:regon": "321313845",
                "ref:vatin": "PL5971078154",
                "operator": "Jaros\u0142aw R\u0119biasz",
                "operator:type": "private",
                "healthcare": "counselling",
                "counselling_type": "education",
                "fixme": "w zale\u017cno\u015bci od przedmiotu dzia\u0142alno\u015bci (np. healthcare=counselling + counselling_type=education albo healthcare=psychotherapist)"
            }
        },
        {
            "id": 106132,
            "type": "Feature",
            "geometry": {
                "type": "Point",
                "coordinates": [
                    14.86887,
                    52.92242
                ]
            },
            "properties": {
                "ref:rspo": 106132,
                "official_name": "Niepubliczne Przedszkole im. \u017bwirka I Muchomorka",
                "name": "Niepubliczne Przedszkole",
                "addr:country": "PL",
                "addr:postcode": "74-300",
                "addr:city": "My\u015blib\u00f3rz",
                "addr:street": "ul. Armii Polskiej",
                "addr:housenumber": "13",
                "addr:teryt:simc": 437,
                "addr:teryt:sym_ul": 935558,
                "contact:phone": "+48 957473905",
                "contact:email": "cksowa@wp.pl",
                "contact:website": "http:\/\/www.cksowa.edu.pl",
                "ref:regon": "321323795",
                "ref:vatin": "PL5971078154",
                "operator": "Jaros\u0142aw R\u0119biasz",
                "operator:type": "private",
                "amenity": "kindergarten"
            }
        },
        {
            "id": 119725,
            "type": "Feature",
            "geometry": {
                "type": "Point",
                "coordinates": [
                    14.86887,
                    52.92239
                ]
            },
            "properties": {
                "isced:level": "1;2",
                "ref:rspo": 119725,
                "official_name": "Niepubliczna Szko\u0142a Podstawowa",
                "name": "Niepubliczna Szko\u0142a Podstawowa",
                "addr:country": "PL",
                "addr:postcode": "74-300",
                "addr:city": "My\u015blib\u00f3rz",
                "addr:street": "ul. Armii Polskiej",
                "addr:housenumber": "13",
                "addr:teryt:simc": 437,
                "addr:teryt:sym_ul": 935558,
                "contact:phone": "+48 957473905",
                "contact:email": "fundacja.rie@gmail.com",
                "ref:regon": "321423516",
                "operator": "Dane Do Uzupe\u0142nienia",
                "operator:type": "private",
                "amenity": "school"
            }
        },
        {
            "id": 103886,
            "type": "Feature",
            "geometry": {
                "type": "Point",
                "coordinates": [
                    14.88803,
                    52.92242
                ]
            },
            "properties": {
                "ref:rspo": 103886,
                "official_name": "Centrum Kszta\u0142cenia \"Wiedza dla Wszystkich\" w My\u015bliborzu",
                "name": "Centrum Kszta\u0142cenia \"Wiedza dla Wszystkich\" w My\u015bliborzu",
                "addr:country": "PL",
                "addr:postcode": "74-300",
                "addr:city": "My\u015blib\u00f3rz",
                "addr:street": "ul. Broniewskiego",
                "addr:housenumber": "16",
                "addr:teryt:simc": 2120,
                "addr:teryt:sym_ul": 935558,
                "contact:phone": "+48 957473905",
                "contact:email": "jarekmys@interia.pl",
                "contact:website": "http:\/\/www.cksowa.edu.pl",
                "ref:regon": "321313118",
                "operator": "Jaros\u0142aw R\u0119biasz",
                "operator:type": "private"
            }
        },
        {
            "id": 72596,
            "type": "Feature",
            "geometry": {
                "type": "Point",
                "coordinates": [
                    14.85974,
                    52.9239
                ]
            },
            "properties": {
                "ref:rspo": 72596,
                "official_name": "Dom Wczas\u00f3w Dzieci\u0119cych w My\u015bliborzu",
                "name": "Dom Wczas\u00f3w Dzieci\u0119cych w My\u015bliborzu",
                "addr:country": "PL",
                "addr:postcode": "74-300",
                "addr:city": "My\u015blib\u00f3rz",
                "addr:street": "ul. Marcinkowskiego",
                "addr:housenumber": "10",
                "addr:teryt:simc": 12294,
                "addr:teryt:sym_ul": 935558,
                "contact:phone": "+48 957472267",
                "contact:email": "sekretariat@dwdzmysliborz.pl",
                "contact:website": "http:\/\/www.dwdzmysliborz.pl",
                "ref:regon": "000826415",
                "ref:vatin": "PL5971733185",
                "operator": "Powiat My\u015bliborski",
                "operator:type": "government",
                "leisure": "resort"
            }
        },
        {
            "id": 103726,
            "type": "Feature",
            "geometry": {
                "type": "Point",
                "coordinates": [
                    14.867540359497,
                    52.923969268799
                ]
            },
            "properties": {
                "ref:rspo": 103726,
                "official_name": "Specjalny O\u015brodek Szkolno-Wychowawczy Tpd w My\u015bliborzu",
                "name": "Specjalny O\u015brodek Szkolno-Wychowawczy Tpd w My\u015bliborzu",
                "addr:country": "PL",
                "addr:postcode": "74-300",
                "addr:city": "My\u015blib\u00f3rz",
                "addr:street": "ul. Witolda Pileckiego",
                "addr:housenumber": "27",
                "addr:teryt:simc": 37198,
                "addr:teryt:sym_ul": 935558,
                "contact:phone": "+48 957472894",
                "contact:email": "soswtpd@soswtpd.pl",
                "contact:website": "http:\/\/www.soswtpd.pl",
                "ref:regon": "321312604",
                "operator": "Towarzystwo Przyjaci\u00f3\u0142 Dzieci Zachodniopomorski Oddzia\u0142 Regionalny W Szczecinie",
                "operator:type": "ngo",
                "amenity": "school",
                "note": "Children RSPO: 103728;104231"
            }
        },
        {
            "id": 103728,
            "type": "Feature",
            "geometry": {
                "type": "Point",
                "coordinates": [
                    14.867540359497,
                    52.923939268798996
                ]
            },
            "properties": {
                "isced:level": "1;2",
                "ref:rspo": 103728,
                "official_name": "Szko\u0142a Podstawowa Specjalna Przy Specjalym O\u015brodku Szkolno-Wychowawczym Tpd w My\u015bliborzu",
                "name": "Szko\u0142a Podstawowa Specjalna Przy Specjalym O\u015brodku Szkolno-Wychowawczym Tpd w My\u015bliborzu",
                "addr:country": "PL",
                "addr:postcode": "74-300",
                "addr:city": "My\u015blib\u00f3rz",
                "addr:street": "ul. Witolda Pileckiego",
                "addr:housenumber": "27",
                "addr:teryt:simc": 37198,
                "addr:teryt:sym_ul": 935558,
                "contact:phone": "+48 957472894",
                "contact:email": "soswtpd@soswtpd.pl",
                "contact:website": "http:\/\/www.soswtpd.pl",
                "ref:regon": "321312633",
                "operator": "Towarzystwo Przyjaci\u00f3\u0142 Dzieci Zachodniopomorski Oddzia\u0142 Regionalny W Szczecinie",
                "operator:type": "ngo",
                "amenity": "school",
                "note": "Parent RSPO: 103726"
            }
        },
        {
            "id": 104231,
            "type": "Feature",
            "geometry": {
                "type": "Point",
                "coordinates": [
                    14.867540359497,
                    52.923909268799
                ]
            },
            "properties": {
                "ref:rspo": 104231,
                "official_name": "Szko\u0142a Specjalna Przyspasabiaj\u0105ca Do Pracy dla Uczni\u00f3w Z Upo\u015bledzeniem Umys\u0142owym w Stopniu Umiarkowanym Lub Znacznym Oraz dla Uczni\u00f3w Z Niepe\u0142nosprawno\u015bciami Sp\u017c\u0119\u017conymi w Sosw Tpd w My\u015bliborzu",
                "name": "Szko\u0142a Specjalna Przyspasabiaj\u0105ca Do Pracy dla Uczni\u00f3w Z Upo\u015bledzeniem Umys\u0142owym w Stopniu Umiarkowanym Lub Znacznym Oraz dla Uczni\u00f3w Z Niepe\u0142nosprawno\u015bciami Sp\u017c\u0119\u017conymi w Sosw Tpd w My\u015bliborzu",
                "addr:country": "PL",
                "addr:postcode": "74-300",
                "addr:city": "My\u015blib\u00f3rz",
                "addr:street": "ul. Witolda Pileckiego",
                "addr:housenumber": "27",
                "addr:teryt:simc": 37198,
                "addr:teryt:sym_ul": 935558,
                "contact:phone": "+48 957472894",
                "contact:email": "soswtpd@soswtpd.pl",
                "contact:website": "http:\/\/www.sosw.tpd.pl",
                "ref:regon": "321313880",
                "operator": "Towarzystwo Przyjaci\u00f3\u0142 Dzieci Zachodniopomorski Oddzia\u0142 Regionalny W Szczecinie",
                "operator:type": "ngo",
                "amenity": "school",
                "note": "Parent RSPO: 103726"
            }
        },
        {
            "id": 268226,
            "type": "Feature",
            "geometry": {
                "type": "Point",
                "coordinates": [
                    14.87297,
                    52.92414
                ]
            },
            "properties": {
                "ref:rspo": 268226,
                "official_name": "Zesp\u00f3\u0142 Szk\u00f3\u0142 I Plac\u00f3wek O\u015bwiatowych im. S.dariusa I S.girenasa w My\u015bliborzu",
                "name": "Zesp\u00f3\u0142 Szk\u00f3\u0142 I Plac\u00f3wek O\u015bwiatowych",
                "addr:country": "PL",
                "addr:postcode": "74-300",
                "addr:city": "My\u015blib\u00f3rz",
                "addr:street": "ul. Strzelecka",
                "addr:housenumber": "51",
                "addr:teryt:simc": 21381,
                "addr:teryt:sym_ul": 935558,
                "contact:phone": "+48 957472202",
                "contact:email": "sekretariat@zsipomysliborz.pl",
                "contact:website": "http:\/\/zsipomysliborz.pl",
                "ref:regon": "381031100",
                "ref:vatin": "PL5971746087",
                "operator": "Powiat My\u015bliborski",
                "operator:type": "government",
                "landuse": "education",
                "fixme": "amenity=school, amenity=college albo landuse=education w zale\u017cno\u015bci od tego, jakie plac\u00f3wki wchodz\u0105 w sk\u0142ad zespo\u0142u. Sprawd\u017a, kiedy stosowa\u0107 amenity=* a kiedy landuse=education.",
                "note": "Children RSPO: 91225;91226;268221;268224"
            }
        },
        {
            "id": 91225,
            "type": "Feature",
            "geometry": {
                "type": "Point",
                "coordinates": [
                    14.87297,
                    52.92411
                ]
            },
            "properties": {
                "isced:level": "3",
                "ref:rspo": 91225,
                "official_name": "Technikum Nr 1 w My\u015bliborzu",
                "name": "Technikum Nr 1 w My\u015bliborzu",
                "addr:country": "PL",
                "addr:postcode": "74-300",
                "addr:city": "My\u015blib\u00f3rz",
                "addr:street": "ul. Strzelecka",
                "addr:housenumber": "51",
                "addr:teryt:simc": 21381,
                "addr:teryt:sym_ul": 935558,
                "contact:phone": "+48 957472202",
                "contact:email": "sekretariat@zsipomysliborz.pl",
                "contact:website": "https:\/\/zsipomysliborz.pl",
                "ref:regon": "812529321",
                "ref:vatin": "PL5971746087",
                "operator": "Powiat My\u015bliborski",
                "operator:type": "government",
                "amenity": "school",
                "note": "Parent RSPO: 268226"
            }
        },
        {
            "id": 91226,
            "type": "Feature",
            "geometry": {
                "type": "Point",
                "coordinates": [
                    14.87297,
                    52.924080000000004
                ]
            },
            "properties": {
                "isced:level": "3",
                "ref:rspo": 91226,
                "official_name": "Bran\u017cowa Szko\u0142a I Stopnia Nr 2 w My\u015bliborzu",
                "name": "Bran\u017cowa Szko\u0142a I Stopnia Nr 2 w My\u015bliborzu",
                "addr:country": "PL",
                "addr:postcode": "74-300",
                "addr:city": "My\u015blib\u00f3rz",
                "addr:street": "ul. Strzelecka",
                "addr:housenumber": "51",
                "addr:teryt:simc": 21381,
                "addr:teryt:sym_ul": 935558,
                "contact:phone": "+48 957472202",
                "contact:email": "sekretariat@zsipomysliborz.pl",
                "contact:website": "https:\/\/zsipomysliborz.pl",
                "ref:regon": "812529278",
                "ref:vatin": "PL5971746087",
                "operator": "Powiat My\u015bliborski",
                "operator:type": "government",
                "amenity": "school",
                "note": "Parent RSPO: 268226"
            }
        },
        {
            "id": 268221,
            "type": "Feature",
            "geometry": {
                "type": "Point",
                "coordinates": [
                    14.87297,
                    52.92405
                ]
            },
            "properties": {
                "isced:level": "4",
                "ref:rspo": 268221,
                "official_name": "Szko\u0142a Policealna w My\u015bliborzu",
                "name": "Szko\u0142a Policealna w My\u015bliborzu",
                "addr:country": "PL",
                "addr:postcode": "74-300",
                "addr:city": "My\u015blib\u00f3rz",
                "addr:street": "ul. Strzelecka",
                "addr:housenumber": "51",
                "addr:teryt:simc": 21381,
                "addr:teryt:sym_ul": 935558,
                "contact:phone": "+48 957472202",
                "contact:email": "zsp3mys@wp.pl",
                "contact:website": "https:\/\/zsipomysliborz.pl",
                "ref:regon": "381031146",
                "operator": "Powiat My\u015bliborski",
                "operator:type": "government",
                "amenity": "college",
                "note": "Parent RSPO: 268226"
            }
        },
        {
            "id": 268224,
            "type": "Feature",
            "geometry": {
                "type": "Point",
                "coordinates": [
                    14.87297,
                    52.92402
                ]
            },
            "properties": {
                "ref:rspo": 268224,
                "official_name": "Centrum Kszta\u0142cenia Zawodowego w My\u015bliborzu",
                "name": "Centrum Kszta\u0142cenia Zawodowego w My\u015bliborzu",
                "addr:country": "PL",
                "addr:postcode": "74-300",
                "addr:city": "My\u015blib\u00f3rz",
                "addr:street": "ul. Strzelecka",
                "addr:housenumber": "51",
                "addr:teryt:simc": 21381,
                "addr:teryt:sym_ul": 935558,
                "contact:phone": "+48 957472202",
                "contact:email": "sekretariat@zsipomysliborz.pl",
                "contact:website": "https:\/\/zsipomysliborz.pl",
                "ref:regon": "381031123",
                "ref:vatin": "PL5971746087",
                "operator": "Powiat My\u015bliborski",
                "operator:type": "government",
                "fixme": "w zale\u017cno\u015bci od przedmiotu dzia\u0142alno\u015bci (np. amenity=training + training=*, amenity=dancing_school, amenity=language_school, amenity=music_school) albo amenity=school, amenity=college, albo landuse=education w zale\u017cno\u015bci od tego, jakie plac\u00f3wki wchodz\u0105 w sk\u0142ad zespo\u0142u. Sprawd\u017a, kiedy stosowa\u0107 amenity=* a kiedy landuse=education.",
                "note": "Parent RSPO: 268226"
            }
        },
        {
            "id": 276314,
            "type": "Feature",
            "geometry": {
                "type": "Point",
                "coordinates": [
                    14.86679,
                    52.92526
                ]
            },
            "properties": {
                "ref:rspo": 276314,
                "official_name": "Centrum Kszta\u0142cenia Zawodowego Grand",
                "name": "Centrum Kszta\u0142cenia Zawodowego Grand",
                "addr:country": "PL",
                "addr:postcode": "74-300",
                "addr:city": "My\u015blib\u00f3rz",
                "addr:street": "ul. Rynek im. Jana Paw\u0142a II",
                "addr:housenumber": "12",
                "addr:teryt:simc": 36596,
                "addr:teryt:sym_ul": 935558,
                "contact:phone": "+48 957473946",
                "contact:email": "biuro@grand-spolka.pl",
                "contact:website": "http:\/\/grand-spolka.pl",
                "ref:regon": "387084675",
                "operator": "Grand Sp\u00f3\u0142ka Z Ograniczon\u0105 Odpowiedzialno\u015bci\u0105",
                "operator:type": "consortium",
                "fixme": "w zale\u017cno\u015bci od przedmiotu dzia\u0142alno\u015bci (np. amenity=training + training=*, amenity=dancing_school, amenity=language_school, amenity=music_school)"
            }
        },
        {
            "id": 26079,
            "type": "Feature",
            "geometry": {
                "type": "Point",
                "coordinates": [
                    14.86856,
                    52.92641
                ]
            },
            "properties": {
                "ref:rspo": 26079,
                "official_name": "Pa\u0144stwowa Szko\u0142a Muzyczna I St. w My\u015bliborzu",
                "name": "Pa\u0144stwowa Szko\u0142a Muzyczna I St. w My\u015bliborzu",
                "addr:country": "PL",
                "addr:postcode": "74-300",
                "addr:city": "My\u015blib\u00f3rz",
                "addr:street": "ul. Felczaka",
                "addr:housenumber": "15a",
                "addr:teryt:simc": 4932,
                "addr:teryt:sym_ul": 935558,
                "contact:phone": "+48 957474281",
                "contact:email": "pszm.mysliborz@gazeta.pl",
                "contact:website": "http:\/\/psmmysliborz.pl",
                "ref:regon": "210029277",
                "operator": "Ministerstwo Kultury I Dziedzictwa Narodowego",
                "operator:type": "public",
                "amenity": "music_school"
            }
        },
        {
            "id": 83278,
            "type": "Feature",
            "geometry": {
                "type": "Point",
                "coordinates": [
                    14.86213,
                    52.92675
                ]
            },
            "properties": {
                "ref:rspo": 83278,
                "official_name": "Zesp\u00f3\u0142 Szk\u00f3\u0142 im. Noblist\u00f3w Polskich w My\u015bliborzu",
                "name": "Zesp\u00f3\u0142 Szk\u00f3\u0142",
                "addr:country": "PL",
                "addr:postcode": "74-300",
                "addr:city": "My\u015blib\u00f3rz",
                "addr:street": "ul. Za Bramk\u0105",
                "addr:housenumber": "8",
                "addr:teryt:simc": 25204,
                "addr:teryt:sym_ul": 935558,
                "contact:phone": "+48 957472571",
                "contact:email": "zsp2_mysliborz@poczta.onet.pl",
                "contact:website": "http:\/\/zsmysliborz.edupage.org",
                "ref:regon": "000788650",
                "ref:vatin": "PL5971017945",
                "operator": "Powiat My\u015bliborski",
                "operator:type": "government",
                "landuse": "education",
                "fixme": "amenity=school, amenity=college albo landuse=education w zale\u017cno\u015bci od tego, jakie plac\u00f3wki wchodz\u0105 w sk\u0142ad zespo\u0142u. Sprawd\u017a, kiedy stosowa\u0107 amenity=* a kiedy landuse=education.",
                "note": "Children RSPO: 87639;88091;88111"
            }
        },
        {
            "id": 87639,
            "type": "Feature",
            "geometry": {
                "type": "Point",
                "coordinates": [
                    14.86213,
                    52.926719999999996
                ]
            },
            "properties": {
                "isced:level": "3",
                "ref:rspo": 87639,
                "official_name": "Ii Liceum Og\u00f3lnokszta\u0142cace w Zespole Szk\u00f3\u0142 w My\u015bliborzu",
                "name": "Ii Liceum Og\u00f3lnokszta\u0142cace w Zespole Szk\u00f3\u0142 w My\u015bliborzu",
                "addr:country": "PL",
                "addr:postcode": "74-300",
                "addr:city": "My\u015blib\u00f3rz",
                "addr:street": "ul. Za Bramk\u0105",
                "addr:housenumber": "8",
                "addr:teryt:simc": 25204,
                "addr:teryt:sym_ul": 935558,
                "contact:phone": "+48 957472571",
                "contact:email": "zsp2_mysliborz@poczta.onet.pl",
                "contact:website": "http:\/\/zsmysliborz.edupage.org",
                "ref:regon": "812530293",
                "operator": "Powiat My\u015bliborski",
                "operator:type": "government",
                "amenity": "school",
                "note": "Parent RSPO: 83278"
            }
        },
        {
            "id": 88091,
            "type": "Feature",
            "geometry": {
                "type": "Point",
                "coordinates": [
                    14.86213,
                    52.92669
                ]
            },
            "properties": {
                "isced:level": "3",
                "ref:rspo": 88091,
                "official_name": "Liceum Og\u00f3lnokszta\u0142c\u0105ce dla Doros\u0142ych",
                "name": "Liceum Og\u00f3lnokszta\u0142c\u0105ce dla Doros\u0142ych",
                "addr:country": "PL",
                "addr:postcode": "74-300",
                "addr:city": "My\u015blib\u00f3rz",
                "addr:street": "ul. Za Bramk\u0105",
                "addr:housenumber": "8",
                "addr:teryt:simc": 25204,
                "addr:teryt:sym_ul": 935558,
                "contact:phone": "+48 957472571",
                "contact:email": "zsp2_mysliborz@poczta.onet.pl",
                "contact:website": "http:\/\/zsmysliborz.edupage.org",
                "ref:regon": "812721165",
                "operator": "Powiat My\u015bliborski",
                "operator:type": "government",
                "amenity": "school",
                "note": "Parent RSPO: 83278"
            }
        },
        {
            "id": 88111,
            "type": "Feature",
            "geometry": {
                "type": "Point",
                "coordinates": [
                    14.86213,
                    52.92666
                ]
            },
            "properties": {
                "isced:level": "3",
                "ref:rspo": 88111,
                "official_name": "Technikum Nr 2 w Zespole Szk\u00f3\u0142 w My\u015bliborzu",
                "name": "Technikum Nr 2 w Zespole Szk\u00f3\u0142 w My\u015bliborzu",
                "addr:country": "PL",
                "addr:postcode": "74-300",
                "addr:city": "My\u015blib\u00f3rz",
                "addr:street": "ul. Za Bramk\u0105",
                "addr:housenumber": "8",
                "addr:teryt:simc": 25204,
                "addr:teryt:sym_ul": 935558,
                "contact:phone": "+48 957472571",
                "contact:email": "zsp2_mysliborz@poczta.onet.pl",
                "contact:website": "http:\/\/zsmysliborz.edupage.org",
                "ref:regon": "320085997",
                "operator": "Powiat My\u015bliborski",
                "operator:type": "government",
                "amenity": "school",
                "note": "Parent RSPO: 83278"
            }
        },
        {
            "id": 49266,
            "type": "Feature",
            "geometry": {
                "type": "Point",
                "coordinates": [
                    14.88119,
                    52.92734
                ]
            },
            "properties": {
                "isced:level": "1;2",
                "ref:rspo": 49266,
                "official_name": "Szko\u0142a Podstawowa Nr 3 im. Leonida Teligi w My\u015bliborzu",
                "name": "Szko\u0142a Podstawowa Nr 3",
                "addr:country": "PL",
                "addr:postcode": "74-300",
                "addr:city": "My\u015blib\u00f3rz",
                "addr:street": "ul. Lipowa",
                "addr:housenumber": "18",
                "addr:door": "a",
                "addr:teryt:simc": 11139,
                "addr:teryt:sym_ul": 935558,
                "contact:phone": "+48 957475736",
                "contact:email": "sp3mysliborz@wp.pl",
                "contact:website": "https:\/\/sp3mysliborz.edupage.org\/",
                "ref:regon": "210310198",
                "ref:vatin": "PL5971022159",
                "operator": "Gmina My\u015blib\u00f3rz",
                "operator:type": "government",
                "amenity": "school"
            }
        },
        {
            "id": 83281,
            "type": "Feature",
            "geometry": {
                "type": "Point",
                "coordinates": [
                    14.87083,
                    52.92816
                ]
            },
            "properties": {
                "ref:rspo": 83281,
                "official_name": "Poradnia Psychologiczno-Pedagogiczna w My\u015bliborzu",
                "name": "Poradnia Psychologiczno-Pedagogiczna w My\u015bliborzu",
                "addr:country": "PL",
                "addr:postcode": "74-300",
                "addr:city": "My\u015blib\u00f3rz",
                "addr:street": "ul. Spokojna",
                "addr:housenumber": "13",
                "addr:teryt:simc": 20677,
                "addr:teryt:sym_ul": 935558,
                "contact:phone": "+48 957473070",
                "contact:email": "ppp_mysliborz@poczta.onet.pl",
                "ref:regon": "000711907",
                "ref:vatin": "PL5971021875",
                "operator": "Powiat My\u015bliborski",
                "operator:type": "government",
                "healthcare": "counselling",
                "counselling_type": "education",
                "fixme": "w zale\u017cno\u015bci od przedmiotu dzia\u0142alno\u015bci (np. healthcare=counselling + counselling_type=education albo healthcare=psychotherapist)"
            }
        },
        {
            "id": 58580,
            "type": "Feature",
            "geometry": {
                "type": "Point",
                "coordinates": [
                    14.87156,
                    52.9282899
                ]
            },
            "properties": {
                "ref:rspo": 58580,
                "official_name": "Przedszkole Publiczne Nr 2 im. Misia Uszatka",
                "name": "Przedszkole Publiczne Nr 2",
                "addr:country": "PL",
                "addr:postcode": "74-300",
                "addr:city": "My\u015blib\u00f3rz",
                "addr:street": "ul. Spokojna",
                "addr:housenumber": "12",
                "addr:teryt:simc": 20677,
                "addr:teryt:sym_ul": 935558,
                "contact:phone": "+48 957472557",
                "contact:email": "pp2.mysliborz@o2.pl",
                "contact:website": "http:\/\/www.pp2mysliborz.szkolnastrona.pl",
                "ref:regon": "320931268",
                "ref:vatin": "PL5971722112",
                "operator": "Gmina My\u015blib\u00f3rz",
                "operator:type": "government",
                "amenity": "kindergarten"
            }
        },
        {
            "id": 58579,
            "type": "Feature",
            "geometry": {
                "type": "Point",
                "coordinates": [
                    14.88023,
                    52.92842
                ]
            },
            "properties": {
                "ref:rspo": 58579,
                "official_name": "Przedszkole Publiczne Nr 1 Zielona Dolinka",
                "name": "Przedszkole Publiczne Nr 1 Zielona Dolinka",
                "addr:country": "PL",
                "addr:postcode": "74-300",
                "addr:city": "My\u015blib\u00f3rz",
                "addr:street": "ul. Lipowa",
                "addr:housenumber": "18b",
                "addr:teryt:simc": 11139,
                "addr:teryt:sym_ul": 935558,
                "contact:phone": "+48 957472277",
                "contact:email": "pp1.zieldol@wp.pl",
                "contact:website": "http:\/\/www.zielonadolinka.pl",
                "ref:regon": "320928036",
                "ref:vatin": "PL5971722170",
                "operator": "Gmina My\u015blib\u00f3rz",
                "operator:type": "government",
                "amenity": "kindergarten"
            }
        },
        {
            "id": 114666,
            "type": "Feature",
            "geometry": {
                "type": "Point",
                "coordinates": [
                    14.940179,
                    52.930343
                ]
            },
            "properties": {
                "ref:rspo": 114666,
                "official_name": "M\u0142odzie\u017cowy O\u015brodek Wychowawczy w Renicach",
                "name": "M\u0142odzie\u017cowy O\u015brodek Wychowawczy w Renicach",
                "addr:country": "PL",
                "addr:postcode": "74-300",
                "addr:place": "Renice",
                "addr:housenumber": "9",
                "addr:teryt:sym_ul": 184827,
                "contact:phone": "+48 957472243",
                "contact:email": "sekretariat@mowrenice.pl",
                "contact:website": "http:\/\/www.mowrenice.pl\/",
                "ref:regon": "000183360",
                "ref:vatin": "PL5971021740",
                "operator": "Powiat My\u015bliborski",
                "operator:type": "government",
                "fixme": "amenity=social_facility + social_facility=group_home + social_facility:for=juvenile",
                "note": "Children RSPO: 103736;263206"
            }
        },
        {
            "id": 103736,
            "type": "Feature",
            "geometry": {
                "type": "Point",
                "coordinates": [
                    14.940179,
                    52.930313
                ]
            },
            "properties": {
                "isced:level": "1;2",
                "ref:rspo": 103736,
                "official_name": "Szko\u0142a Podstawowa Specjalna w M\u0142odzie\u017cowym O\u015brodku Wychowawczym w Renicach",
                "name": "Szko\u0142a Podstawowa Specjalna w M\u0142odzie\u017cowym O\u015brodku Wychowawczym w Renicach",
                "addr:country": "PL",
                "addr:postcode": "74-300",
                "addr:place": "Renice",
                "addr:housenumber": "9",
                "addr:teryt:sym_ul": 184827,
                "contact:phone": "+48 957472243",
                "contact:email": "sekretariat@mowrenice.pl",
                "contact:website": "http:\/\/www.mowrenice.pl",
                "ref:regon": "812621392",
                "ref:vatin": "PL5971021740",
                "operator": "Powiat My\u015bliborski",
                "operator:type": "government",
                "amenity": "school",
                "note": "Parent RSPO: 114666"
            }
        },
        {
            "id": 263206,
            "type": "Feature",
            "geometry": {
                "type": "Point",
                "coordinates": [
                    14.940179,
                    52.930283
                ]
            },
            "properties": {
                "isced:level": "3",
                "ref:rspo": 263206,
                "official_name": "Bran\u017cowa Szko\u0142a I Stopnia Specjalna w Mow w Renicach",
                "name": "Bran\u017cowa Szko\u0142a I Stopnia Specjalna w Mow w Renicach",
                "addr:country": "PL",
                "addr:postcode": "74-300",
                "addr:place": "Renice",
                "addr:housenumber": "9",
                "addr:teryt:sym_ul": 184827,
                "contact:phone": "+48 957472243",
                "contact:email": "sekretariat@mowrenice.pl",
                "contact:website": "http:\/\/www.mowrenice.pl",
                "ref:regon": "368120390",
                "ref:vatin": "PL5971021740",
                "operator": "Powiat My\u015bliborski",
                "operator:type": "government",
                "amenity": "school",
                "note": "Parent RSPO: 114666"
            }
        },
        {
            "id": 58578,
            "type": "Feature",
            "geometry": {
                "type": "Point",
                "coordinates": [
                    14.79219,
                    52.9475399
                ]
            },
            "properties": {
                "isced:level": "1;2",
                "ref:rspo": 58578,
                "official_name": "Szko\u0142a Podstawowa im. Adama Mickiewicza w Golenicach",
                "name": "Szko\u0142a Podstawowa",
                "addr:country": "PL",
                "addr:postcode": "74-300",
                "addr:place": "Golenice",
                "addr:housenumber": "1a",
                "addr:teryt:sym_ul": 184508,
                "contact:phone": "+48 957476126",
                "contact:email": "szkolagolenice@wp.pl",
                "contact:website": "http:\/\/www.spgolenice.szkolnastrona.pl",
                "ref:regon": "210310212",
                "ref:vatin": "PL5971022082",
                "operator": "Gmina My\u015blib\u00f3rz",
                "operator:type": "government",
                "amenity": "school"
            }
        },
        {
            "id": 53103,
            "type": "Feature",
            "geometry": {
                "type": "Point",
                "coordinates": [
                    14.775471,
                    52.989149
                ]
            },
            "properties": {
                "isced:level": "1;2",
                "ref:rspo": 53103,
                "official_name": "Szko\u0142a Podstawowa im. Janusza Korczaka w Kierzkowie",
                "name": "Szko\u0142a Podstawowa",
                "addr:country": "PL",
                "addr:postcode": "74-300",
                "addr:place": "Kierzk\u00f3w",
                "addr:housenumber": "69",
                "addr:teryt:sym_ul": 184566,
                "contact:email": "szkolakierzkow@gmail.com",
                "contact:website": "http:\/\/www.spkierzkow.kylos.pl",
                "ref:regon": "210310258",
                "ref:vatin": "PL5971022113",
                "operator": "Gmina My\u015blib\u00f3rz",
                "operator:type": "government",
                "amenity": "school"
            }
        }
    ]
}