{
    "type": "FeatureCollection",
    "features": [
        {
            "id": 44262,
            "type": "Feature",
            "geometry": {
                "type": "Point",
                "coordinates": [
                    15.1218727,
                    52.9600357
                ]
            },
            "properties": {
                "ref:rspo": 44262,
                "official_name": "\"Ma\u0142e Przedszkole\" w Rychnowie",
                "name": "\"Ma\u0142e Przedszkole\" w Rychnowie",
                "addr:country": "PL",
                "addr:postcode": "74-320",
                "addr:place": "Rychn\u00f3w",
                "addr:housenumber": "57",
                "addr:teryt:simc": 177968,
                "contact:phone": "+48 601570516",
                "contact:email": "aga_wita@interia.pl",
                "ref:regon": "321287823",
                "ref:vatin": "PL5971687930",
                "operator": "\"W R\u0119kach M\u0142odych Przysz\u0142o\u015b\u0107 Rychnowa\"",
                "operator:type": "ngo",
                "amenity": "kindergarten"
            }
        },
        {
            "id": 73277,
            "type": "Feature",
            "geometry": {
                "type": "Point",
                "coordinates": [
                    15.21666,
                    52.9893
                ]
            },
            "properties": {
                "isced:level": "1;2",
                "ref:rspo": 73277,
                "official_name": "Szko\u0142a Podstawowa Nr 1 im. Tadeusza Ko\u015bciuszki",
                "name": "Szko\u0142a Podstawowa Nr 1",
                "addr:country": "PL",
                "addr:postcode": "74-320",
                "addr:city": "Barlinek",
                "addr:street": "Jeziorna",
                "addr:housenumber": "12",
                "addr:teryt:simc": 935268,
                "addr:teryt:sym_ul": 7535,
                "contact:phone": "+48 957461730",
                "contact:email": "sp1barli@interia.pl",
                "contact:website": "http:\/\/www.sp1barlinek.edupage.org",
                "ref:regon": "210331740",
                "ref:vatin": "PL5971022194",
                "operator": "Gmina Barlinek",
                "operator:type": "government",
                "amenity": "school"
            }
        },
        {
            "id": 80638,
            "type": "Feature",
            "geometry": {
                "type": "Point",
                "coordinates": [
                    15.2099,
                    52.98935
                ]
            },
            "properties": {
                "ref:rspo": 80638,
                "official_name": "Niepubliczne Przedszkole J\u0119zykowe w Wi\u015bniowym Sadzie",
                "name": "Niepubliczne Przedszkole J\u0119zykowe w Wi\u015bniowym Sadzie",
                "addr:country": "PL",
                "addr:postcode": "74-320",
                "addr:city": "Barlinek",
                "addr:street": "Stodolna",
                "addr:housenumber": "8",
                "addr:teryt:simc": 935268,
                "addr:teryt:sym_ul": 21193,
                "contact:phone": "+48 883974758",
                "contact:email": "jola.rybarczyk@wp.pl",
                "ref:regon": "321300452",
                "ref:vatin": "PL5631582681",
                "operator": "Jolanta Rybarczyk",
                "operator:type": "private",
                "amenity": "kindergarten"
            }
        },
        {
            "id": 72631,
            "type": "Feature",
            "geometry": {
                "type": "Point",
                "coordinates": [
                    15.2070248,
                    52.9924903
                ]
            },
            "properties": {
                "ref:rspo": 72631,
                "official_name": "Poradnia Psychologiczno-Pedagogiczna w Barlinku",
                "name": "Poradnia Psychologiczno-Pedagogiczna w Barlinku",
                "addr:country": "PL",
                "addr:postcode": "74-320",
                "addr:city": "Barlinek",
                "addr:street": "Szosowa",
                "addr:housenumber": "2B",
                "addr:teryt:simc": 935268,
                "addr:teryt:sym_ul": 22050,
                "contact:phone": "+48 957462207",
                "contact:email": "pp-pbarlinek@o2.pl",
                "contact:website": "http:\/\/pppbarlinek.bip.gov.pl",
                "ref:regon": "001096516",
                "ref:vatin": "PL5971005155",
                "operator": "Powiat My\u015bliborski",
                "operator:type": "government",
                "healthcare": "counselling",
                "counselling_type": "education",
                "fixme": "w zale\u017cno\u015bci od przedmiotu dzia\u0142alno\u015bci (np. healthcare=counselling + counselling_type=education albo healthcare=psychotherapist)"
            }
        },
        {
            "id": 130841,
            "type": "Feature",
            "geometry": {
                "type": "Point",
                "coordinates": [
                    15.2070248,
                    52.9924603
                ]
            },
            "properties": {
                "isced:level": "1;2",
                "ref:rspo": 130841,
                "official_name": "Montessori School Barlinek",
                "name": "Montessori School Barlinek",
                "addr:country": "PL",
                "addr:postcode": "74-320",
                "addr:city": "Barlinek",
                "addr:street": "Szosowa",
                "addr:housenumber": "2",
                "addr:teryt:simc": 935268,
                "addr:teryt:sym_ul": 22050,
                "contact:phone": "+48 883874758",
                "contact:email": "biuro@montessori-barlinek.pl",
                "ref:regon": "364593446",
                "operator": "Jolanta Rybarczyk",
                "operator:type": "private",
                "amenity": "school"
            }
        },
        {
            "id": 268225,
            "type": "Feature",
            "geometry": {
                "type": "Point",
                "coordinates": [
                    15.2070248,
                    52.9924303
                ]
            },
            "properties": {
                "ref:rspo": 268225,
                "official_name": "Zesp\u00f3\u0142 Szk\u00f3\u0142 I Plac\u00f3wek O\u015bwiatowych im. Kpt. Hm. Andrzeja Romockiego \"Morro\" w Barlinku",
                "name": "Zesp\u00f3\u0142 Szk\u00f3\u0142 I Plac\u00f3wek O\u015bwiatowych",
                "addr:country": "PL",
                "addr:postcode": "74-320",
                "addr:city": "Barlinek",
                "addr:street": "Szosowa",
                "addr:housenumber": "2",
                "addr:teryt:simc": 935268,
                "addr:teryt:sym_ul": 22050,
                "contact:phone": "+48 957461064",
                "contact:email": "zspnr1barlinek@wp.pl",
                "contact:website": "http:\/\/www.zsipo.eu\/",
                "ref:regon": "381031117",
                "ref:vatin": "PL5971746093",
                "operator": "Powiat My\u015bliborski",
                "operator:type": "government",
                "landuse": "education",
                "fixme": "amenity=school, amenity=college albo landuse=education w zale\u017cno\u015bci od tego, jakie plac\u00f3wki wchodz\u0105 w sk\u0142ad zespo\u0142u. Sprawd\u017a, kiedy stosowa\u0107 amenity=* a kiedy landuse=education.",
                "note": "Children RSPO: 87008;87009;87010;268215;268217"
            }
        },
        {
            "id": 87008,
            "type": "Feature",
            "geometry": {
                "type": "Point",
                "coordinates": [
                    15.2070248,
                    52.9924003
                ]
            },
            "properties": {
                "isced:level": "3",
                "ref:rspo": 87008,
                "official_name": "Technikum Nr 1",
                "name": "Technikum Nr 1",
                "addr:country": "PL",
                "addr:postcode": "74-320",
                "addr:city": "Barlinek",
                "addr:street": "Szosowa",
                "addr:housenumber": "2",
                "addr:teryt:simc": 935268,
                "addr:teryt:sym_ul": 22050,
                "contact:phone": "+48 957461064",
                "contact:email": "zspnr1barlinek@wp.pl",
                "contact:website": "http:\/\/www.zsipo.eu\/",
                "ref:regon": "812532553",
                "ref:vatin": "PL5971746093",
                "operator": "Powiat My\u015bliborski",
                "operator:type": "government",
                "amenity": "school",
                "note": "Parent RSPO: 268225"
            }
        },
        {
            "id": 87009,
            "type": "Feature",
            "geometry": {
                "type": "Point",
                "coordinates": [
                    15.2070248,
                    52.9923703
                ]
            },
            "properties": {
                "isced:level": "3",
                "ref:rspo": 87009,
                "official_name": "Bran\u017cowa Szko\u0142a I Stopnia Nr 1",
                "name": "Bran\u017cowa Szko\u0142a I Stopnia Nr 1",
                "addr:country": "PL",
                "addr:postcode": "74-320",
                "addr:city": "Barlinek",
                "addr:street": "Szosowa",
                "addr:housenumber": "2",
                "addr:teryt:simc": 935268,
                "addr:teryt:sym_ul": 22050,
                "contact:phone": "+48 957461064",
                "contact:email": "zspnr1barlinek@wp.pl",
                "contact:website": "http:\/\/www.zsipo.eu\/",
                "ref:regon": "812532560",
                "ref:vatin": "PL5971746093",
                "operator": "Powiat My\u015bliborski",
                "operator:type": "government",
                "amenity": "school",
                "note": "Parent RSPO: 268225"
            }
        },
        {
            "id": 87010,
            "type": "Feature",
            "geometry": {
                "type": "Point",
                "coordinates": [
                    15.2070248,
                    52.9923403
                ]
            },
            "properties": {
                "isced:level": "3",
                "ref:rspo": 87010,
                "official_name": "I Liceum Og\u00f3lnokszta\u0142c\u0105ce",
                "name": "I Liceum Og\u00f3lnokszta\u0142c\u0105ce",
                "addr:country": "PL",
                "addr:postcode": "74-320",
                "addr:city": "Barlinek",
                "addr:street": "Szosowa",
                "addr:housenumber": "2",
                "addr:teryt:simc": 935268,
                "addr:teryt:sym_ul": 22050,
                "contact:phone": "+48 957461064",
                "contact:email": "zspnr1barlinek@wp.pl",
                "contact:website": "http:\/\/www.zsipo.eu\/",
                "ref:regon": "812532582",
                "ref:vatin": "PL5971746093",
                "operator": "Powiat My\u015bliborski",
                "operator:type": "government",
                "amenity": "school",
                "note": "Parent RSPO: 268225"
            }
        },
        {
            "id": 268215,
            "type": "Feature",
            "geometry": {
                "type": "Point",
                "coordinates": [
                    15.2070248,
                    52.9923103
                ]
            },
            "properties": {
                "isced:level": "4",
                "ref:rspo": 268215,
                "official_name": "Szko\u0142a Policealna w Zespole Szk\u00f3\u0142 I Plac\u00f3wek O\u015bwiatowych im. Kpt. Hm. Andrzeja Romockiego \"Morro\" w Barlinku",
                "name": "Szko\u0142a Policealna w Zespole Szk\u00f3\u0142 I Plac\u00f3wek O\u015bwiatowych",
                "addr:country": "PL",
                "addr:postcode": "74-320",
                "addr:city": "Barlinek",
                "addr:street": "Szosowa",
                "addr:housenumber": "2",
                "addr:teryt:simc": 935268,
                "addr:teryt:sym_ul": 22050,
                "contact:phone": "+48 957461064",
                "contact:email": "zspnr1barlinek@wp.pl",
                "contact:website": "http:\/\/www.zsipo.eu\/",
                "ref:regon": "381028813",
                "ref:vatin": "PL5971746093",
                "operator": "Powiat My\u015bliborski",
                "operator:type": "government",
                "amenity": "college",
                "note": "Parent RSPO: 268225"
            }
        },
        {
            "id": 268217,
            "type": "Feature",
            "geometry": {
                "type": "Point",
                "coordinates": [
                    15.2070248,
                    52.9922803
                ]
            },
            "properties": {
                "ref:rspo": 268217,
                "official_name": "Centrum Kszta\u0142cenia Zawodowego w Barlinku",
                "name": "Centrum Kszta\u0142cenia Zawodowego w Barlinku",
                "addr:country": "PL",
                "addr:postcode": "74-320",
                "addr:city": "Barlinek",
                "addr:street": "Szosowa",
                "addr:housenumber": "2",
                "addr:teryt:simc": 935268,
                "addr:teryt:sym_ul": 22050,
                "contact:phone": "+48 957461064",
                "contact:email": "zspnr1barlinek@wp.pl",
                "contact:website": "http:\/\/www.zsipo.eu\/",
                "ref:regon": "381028718",
                "ref:vatin": "PL5971746093",
                "operator": "Powiat My\u015bliborski",
                "operator:type": "government",
                "fixme": "w zale\u017cno\u015bci od przedmiotu dzia\u0142alno\u015bci (np. amenity=training + training=*, amenity=dancing_school, amenity=language_school, amenity=music_school) albo amenity=school, amenity=college, albo landuse=education w zale\u017cno\u015bci od tego, jakie plac\u00f3wki wchodz\u0105 w sk\u0142ad zespo\u0142u. Sprawd\u017a, kiedy stosowa\u0107 amenity=* a kiedy landuse=education.",
                "note": "Parent RSPO: 268225"
            }
        },
        {
            "id": 44254,
            "type": "Feature",
            "geometry": {
                "type": "Point",
                "coordinates": [
                    15.21275,
                    52.99254
                ]
            },
            "properties": {
                "ref:rspo": 44254,
                "official_name": "Przedszkole Miejskie Nr 2 \"Pod Topol\u0105\"",
                "name": "Przedszkole Miejskie Nr 2 \"Pod Topol\u0105\"",
                "addr:country": "PL",
                "addr:postcode": "74-320",
                "addr:city": "Barlinek",
                "addr:street": "Podwale",
                "addr:housenumber": "11",
                "addr:teryt:simc": 935268,
                "addr:teryt:sym_ul": 16874,
                "contact:phone": "+48 957461869",
                "contact:email": "pm2@barlinek.stronyzklasa.pl",
                "contact:website": "http:\/\/wwwpodtopola.stronyzklasa",
                "ref:regon": "320785200",
                "ref:vatin": "PL5971712266",
                "operator": "Gmina Barlinek",
                "operator:type": "government",
                "amenity": "kindergarten"
            }
        },
        {
            "id": 44256,
            "type": "Feature",
            "geometry": {
                "type": "Point",
                "coordinates": [
                    15.061236,
                    52.9941139
                ]
            },
            "properties": {
                "isced:level": "1;2",
                "ref:rspo": 44256,
                "official_name": "Szko\u0142a Podstawowa im. Jana Paw\u0142a II w Mostkowie",
                "name": "Szko\u0142a Podstawowa",
                "addr:country": "PL",
                "addr:postcode": "74-322",
                "addr:place": "Mostkowo",
                "addr:housenumber": "37d",
                "addr:teryt:simc": 177796,
                "contact:phone": "+48 957468122",
                "contact:email": "sekrspmostkowo@interia.pl",
                "contact:website": "http:\/\/www-spmostkowo.pl",
                "ref:regon": "210331817",
                "ref:vatin": "PL5971688154",
                "operator": "Gmina Barlinek",
                "operator:type": "government",
                "amenity": "school"
            }
        },
        {
            "id": 131405,
            "type": "Feature",
            "geometry": {
                "type": "Point",
                "coordinates": [
                    15.2045,
                    52.99517
                ]
            },
            "properties": {
                "isced:level": "1;2",
                "ref:rspo": 131405,
                "official_name": "Niepubliczna Szko\u0142a Podstawowa \"Radosna\"",
                "name": "Niepubliczna Szko\u0142a Podstawowa \"Radosna\"",
                "addr:country": "PL",
                "addr:postcode": "74-320",
                "addr:city": "Barlinek",
                "addr:street": "Szosowa",
                "addr:housenumber": "3",
                "addr:teryt:simc": 935268,
                "addr:teryt:sym_ul": 22050,
                "contact:phone": "+48 721678100",
                "contact:email": "barlineckie.towarzystwo.edu@gmail.com",
                "ref:regon": "365164397",
                "operator": "Barlineckie Towarzystwo Edukacyjne",
                "operator:type": "ngo",
                "amenity": "school"
            }
        },
        {
            "id": 132859,
            "type": "Feature",
            "geometry": {
                "type": "Point",
                "coordinates": [
                    15.21914,
                    52.99822
                ]
            },
            "properties": {
                "ref:rspo": 132859,
                "official_name": "Niepubliczne Przedszkole Akademia Malucha Filokubino",
                "name": "Niepubliczne Przedszkole Akademia Malucha Filokubino",
                "addr:country": "PL",
                "addr:postcode": "74-320",
                "addr:city": "Barlinek",
                "addr:street": "Dworcowa",
                "addr:housenumber": "5",
                "addr:teryt:simc": 935268,
                "addr:teryt:sym_ul": 4434,
                "contact:phone": "+48 605514875",
                "contact:email": "filokubino@gmail.com",
                "ref:regon": "366277100",
                "operator": "Centrum Edukacji I Terapii Filokubino  Sp\u00f3\u0142ka Z Ograniczon\u0105 Odpowiedzialno\u015bci\u0105",
                "operator:type": "consortium",
                "amenity": "kindergarten"
            }
        },
        {
            "id": 80637,
            "type": "Feature",
            "geometry": {
                "type": "Point",
                "coordinates": [
                    15.22374,
                    52.99895
                ]
            },
            "properties": {
                "ref:rspo": 80637,
                "official_name": "Niepubliczne Przedszkole \"Bratek\"",
                "name": "Niepubliczne Przedszkole \"Bratek\"",
                "addr:country": "PL",
                "addr:postcode": "74-320",
                "addr:city": "Barlinek",
                "addr:street": "Henryka Sienkiewicza",
                "addr:housenumber": "15",
                "addr:teryt:simc": 935268,
                "addr:teryt:sym_ul": 19834,
                "contact:phone": "+48 957462447",
                "contact:email": "bratekbarlinek@gmail.com",
                "contact:website": "http:\/\/www.bratek-barlinek.pl",
                "ref:regon": "321300370",
                "ref:vatin": "PL5971611648",
                "operator": "Stowarzyszenie Pomocy Niepe\u0142nosprawnym \"Bratek\"",
                "operator:type": "ngo",
                "amenity": "kindergarten"
            }
        },
        {
            "id": 103885,
            "type": "Feature",
            "geometry": {
                "type": "Point",
                "coordinates": [
                    15.22374,
                    52.99892
                ]
            },
            "properties": {
                "ref:rspo": 103885,
                "official_name": "O\u015brodek Rewalidacyjno-Wychowawczy",
                "name": "O\u015brodek Rewalidacyjno-Wychowawczy",
                "addr:country": "PL",
                "addr:postcode": "74-320",
                "addr:city": "Barlinek",
                "addr:street": "Henryka Sienkiewicza",
                "addr:housenumber": "15",
                "addr:teryt:simc": 935268,
                "addr:teryt:sym_ul": 19834,
                "contact:phone": "+48 957462447",
                "contact:email": "orw@bratek-barlinek.pl",
                "contact:website": "http:\/\/www.bratek-barlinek.pl",
                "ref:regon": "321313093",
                "operator": "Stowarzyszenie Pomocy Niepe\u0142nosprawnym \"Bratek\"",
                "operator:type": "ngo",
                "amenity": "school"
            }
        },
        {
            "id": 111316,
            "type": "Feature",
            "geometry": {
                "type": "Point",
                "coordinates": [
                    15.22374,
                    52.99889
                ]
            },
            "properties": {
                "ref:rspo": 111316,
                "official_name": "Szko\u0142a Specjalna Przysposabiaj\u0105ca Do Pracy w Barlinku",
                "name": "Szko\u0142a Specjalna Przysposabiaj\u0105ca Do Pracy w Barlinku",
                "addr:country": "PL",
                "addr:postcode": "74-320",
                "addr:city": "Barlinek",
                "addr:street": "Henryka Sienkiewicza",
                "addr:housenumber": "15",
                "addr:teryt:simc": 935268,
                "addr:teryt:sym_ul": 19834,
                "contact:phone": "+48 957462447",
                "contact:email": "spdpbarlinek@gmail.com",
                "contact:website": "http:\/\/www.bratek-bratek.pl",
                "ref:regon": "321347695",
                "operator": "Stowarzyszenie Pomocy Niepe\u0142nosprawnym \"Bratek\"",
                "operator:type": "ngo",
                "amenity": "school"
            }
        },
        {
            "id": 44192,
            "type": "Feature",
            "geometry": {
                "type": "Point",
                "coordinates": [
                    15.20714,
                    53.00151
                ]
            },
            "properties": {
                "ref:rspo": 44192,
                "official_name": "Przedszkole Miejskie Nr 1 im. Janiny Porazi\u0144skiej",
                "name": "Przedszkole Miejskie Nr 1",
                "addr:country": "PL",
                "addr:postcode": "74-320",
                "addr:city": "Barlinek",
                "addr:street": "Kombatant\u00f3w",
                "addr:housenumber": "3",
                "addr:teryt:simc": 935268,
                "addr:teryt:sym_ul": 9043,
                "contact:phone": "+48 957463822",
                "contact:email": "sekretariat@przedszkole1-barlinek.pl",
                "contact:website": "http:\/\/www.przedszkole1-barlinek.pl",
                "ref:regon": "320767573",
                "ref:vatin": "PL5971711485",
                "operator": "Gmina Barlinek",
                "operator:type": "government",
                "amenity": "kindergarten"
            }
        },
        {
            "id": 44255,
            "type": "Feature",
            "geometry": {
                "type": "Point",
                "coordinates": [
                    15.20714,
                    53.00148
                ]
            },
            "properties": {
                "isced:level": "1;2",
                "ref:rspo": 44255,
                "official_name": "Szko\u0142a Podstawowa Nr 4 im. Henryka Sienkiewicza",
                "name": "Szko\u0142a Podstawowa Nr 4",
                "addr:country": "PL",
                "addr:postcode": "74-320",
                "addr:city": "Barlinek",
                "addr:street": "Kombatant\u00f3w",
                "addr:housenumber": "3",
                "addr:teryt:simc": 935268,
                "addr:teryt:sym_ul": 9043,
                "contact:phone": "+48 957461022",
                "contact:email": "sp4barlinek@gmail.com",
                "contact:website": "https:\/\/sp4barlinek.edupage.org\/",
                "ref:regon": "210331763",
                "ref:vatin": "PL5971022099",
                "operator": "Gmina Barlinek",
                "operator:type": "government",
                "amenity": "school"
            }
        },
        {
            "id": 262330,
            "type": "Feature",
            "geometry": {
                "type": "Point",
                "coordinates": [
                    15.2223492,
                    53.0020538
                ]
            },
            "properties": {
                "isced:level": "1;2",
                "ref:rspo": 262330,
                "official_name": "Szko\u0142a Podstawowa dla Doros\u0142ych w Barlinku",
                "name": "Szko\u0142a Podstawowa dla Doros\u0142ych w Barlinku",
                "addr:country": "PL",
                "addr:postcode": "74-320",
                "addr:city": "Barlinek",
                "addr:street": "\u015awi\u0119tego Bonifacego",
                "addr:housenumber": "36",
                "addr:teryt:simc": 935268,
                "addr:teryt:sym_ul": 1796,
                "contact:phone": "+48 957463543",
                "contact:email": "gdd2008@wp.pl",
                "contact:website": "http:\/\/www.spddbarlinek.edupage.org",
                "ref:regon": "367993235",
                "ref:vatin": "PL5971740127",
                "operator": "Gmina Barlinek",
                "operator:type": "government",
                "amenity": "school"
            }
        },
        {
            "id": 80639,
            "type": "Feature",
            "geometry": {
                "type": "Point",
                "coordinates": [
                    15.077103,
                    53.0231949
                ]
            },
            "properties": {
                "ref:rspo": 80639,
                "official_name": "Niepubliczne Przedszkole Akademia Przedszkolaka",
                "name": "Niepubliczne Przedszkole Akademia Przedszkolaka",
                "addr:country": "PL",
                "addr:postcode": "74-322",
                "addr:place": "Dziedzice",
                "addr:housenumber": "45",
                "addr:teryt:simc": 177566,
                "contact:phone": "+48 693900890",
                "contact:email": "afrankowska@mailplus.pl",
                "contact:website": "http:\/\/www.przedszkolaczek.edu.pl",
                "ref:regon": "321300417",
                "ref:vatin": "PL5971657403",
                "operator": "Anna Frankowska",
                "operator:type": "private",
                "amenity": "kindergarten"
            }
        }
    ]
}