{
    "type": "FeatureCollection",
    "features": [
        {
            "id": 22133,
            "type": "Feature",
            "geometry": {
                "type": "Point",
                "coordinates": [
                    22.243600845337,
                    52.94421005249
                ]
            },
            "properties": {
                "ref:rspo": 22133,
                "official_name": "Specjalny O\u015brodek Szkolno - Wychowawczy im. \u015awi\u0119tego Jana Paw\u0142a II w D\u0142ugoborzu",
                "name": "Specjalny O\u015brodek Szkolno - Wychowawczy",
                "addr:postcode": "18-300",
                "addr:city": "D\u0142ugob\u00f3rz",
                "addr:street": "Szkolna",
                "addr:housenumber": "7",
                "addr:teryt:simc": 1067360,
                "addr:teryt:sym_ul": 21970,
                "phone": "+48 862718416",
                "email": "sosw11@poczta.onet.pl",
                "website": "http:\/\/www.sosw.zambrow.org",
                "ref:regon": "450151868",
                "ref:vatin": "PL7231140147",
                "operator": "Powiat Zambrowski",
                "operator:type": "government",
                "amenity": "school",
                "note": "Children RSPO: 67821;72531;72532"
            }
        },
        {
            "id": 67821,
            "type": "Feature",
            "geometry": {
                "type": "Point",
                "coordinates": [
                    22.243600845337,
                    52.94418005249
                ]
            },
            "properties": {
                "isced:level": "3",
                "ref:rspo": 67821,
                "official_name": "Bran\u017cowa Szko\u0142a I Stopnia Specjalna w D\u0142ugoborzu",
                "name": "Bran\u017cowa Szko\u0142a I Stopnia Specjalna w D\u0142ugoborzu",
                "addr:postcode": "18-300",
                "addr:city": "D\u0142ugob\u00f3rz",
                "addr:street": "Szkolna",
                "addr:housenumber": "7",
                "addr:teryt:simc": 1067360,
                "addr:teryt:sym_ul": 21970,
                "phone": "+48 862718416",
                "email": "sosw11@poczta.onet.pl",
                "website": "http:\/\/www.sosw.zambrow.org",
                "ref:regon": "451180719",
                "ref:vatin": "PL7231140147",
                "operator": "Powiat Zambrowski",
                "operator:type": "government",
                "amenity": "school",
                "note": "Parent RSPO: 22133"
            }
        },
        {
            "id": 72531,
            "type": "Feature",
            "geometry": {
                "type": "Point",
                "coordinates": [
                    22.243600845337,
                    52.94415005249
                ]
            },
            "properties": {
                "isced:level": "1;2",
                "ref:rspo": 72531,
                "official_name": "Szko\u0142a Podstawowa Specjalna w D\u0142ugoborzu",
                "name": "Szko\u0142a Podstawowa Specjalna w D\u0142ugoborzu",
                "addr:postcode": "18-300",
                "addr:city": "D\u0142ugob\u00f3rz",
                "addr:street": "Szkolna",
                "addr:housenumber": "7",
                "addr:teryt:simc": 1067360,
                "addr:teryt:sym_ul": 21970,
                "phone": "+48 862718416",
                "email": "sosw11@poczta.onet.pl",
                "website": "http:\/\/www.sosw.zambrow.org",
                "ref:regon": "451180702",
                "ref:vatin": "PL7231140147",
                "operator": "Powiat Zambrowski",
                "operator:type": "government",
                "amenity": "school",
                "note": "Parent RSPO: 22133"
            }
        },
        {
            "id": 72532,
            "type": "Feature",
            "geometry": {
                "type": "Point",
                "coordinates": [
                    22.243600845337,
                    52.94412005249
                ]
            },
            "properties": {
                "ref:rspo": 72532,
                "official_name": "Szko\u0142a Specjalna Przysposabiaj\u0105ca Do Pracy w D\u0142ugoborzu",
                "name": "Szko\u0142a Specjalna Przysposabiaj\u0105ca Do Pracy w D\u0142ugoborzu",
                "addr:postcode": "18-300",
                "addr:city": "D\u0142ugob\u00f3rz",
                "addr:street": "Szkolna",
                "addr:housenumber": "7",
                "addr:teryt:simc": 1067360,
                "addr:teryt:sym_ul": 21970,
                "phone": "+48 862718416",
                "email": "sosw11@poczta.onet.pl",
                "website": "http:\/\/www.sosw.zambrow.org",
                "ref:regon": "200020210",
                "ref:vatin": "PL7231140147",
                "operator": "Powiat Zambrowski",
                "operator:type": "government",
                "amenity": "school",
                "note": "Parent RSPO: 22133"
            }
        },
        {
            "id": 31494,
            "type": "Feature",
            "geometry": {
                "type": "Point",
                "coordinates": [
                    22.26068687439,
                    53.007179260254
                ]
            },
            "properties": {
                "isced:level": "1;2",
                "ref:rspo": 31494,
                "official_name": "Szko\u0142a Podstawowa w Wi\u015bniewie",
                "name": "Szko\u0142a Podstawowa w Wi\u015bniewie",
                "addr:postcode": "18-300",
                "addr:place": "Wi\u015bniewo",
                "addr:housenumber": "10",
                "addr:teryt:simc": 411370,
                "phone": "+48 862705274",
                "email": "sp.wisniewo@ugzambrow.pl",
                "website": "http:\/\/spwisniewo.superszkolna.pl",
                "ref:regon": "000719725",
                "ref:vatin": "PL7231485107",
                "operator": "Gmina Zambr\u00f3w",
                "operator:type": "government",
                "amenity": "school"
            }
        },
        {
            "id": 34262,
            "type": "Feature",
            "geometry": {
                "type": "Point",
                "coordinates": [
                    22.26068687439,
                    53.007149260253996
                ]
            },
            "properties": {
                "isced:level": "1;2",
                "ref:rspo": 34262,
                "official_name": "Szko\u0142a Podstawowa im. Or\u0142a Bia\u0142ego w Porytem - Jab\u0142oni",
                "name": "Szko\u0142a Podstawowa",
                "addr:postcode": "18-300",
                "addr:place": "Poryte-Jab\u0142o\u0144",
                "addr:housenumber": "103",
                "addr:teryt:simc": 411157,
                "phone": "+48 862705121",
                "email": "spporyte@op.pl",
                "website": "http:\/\/spporytejablon.superszkolna.pl",
                "ref:regon": "000719731",
                "ref:vatin": "PL7231485136",
                "operator": "Gmina Zambr\u00f3w",
                "operator:type": "government",
                "amenity": "school"
            }
        },
        {
            "id": 34425,
            "type": "Feature",
            "geometry": {
                "type": "Point",
                "coordinates": [
                    22.26068687439,
                    53.007119260254
                ]
            },
            "properties": {
                "isced:level": "1;2",
                "ref:rspo": 34425,
                "official_name": "Szko\u0142a Podstawowa w Starym Laskowcu",
                "name": "Szko\u0142a Podstawowa w Starym Laskowcu",
                "addr:postcode": "18-300",
                "addr:place": "Stary Laskowiec",
                "addr:housenumber": "14",
                "addr:teryt:simc": 411252,
                "phone": "+48 862713123",
                "email": "splaskowiec@wp.pl",
                "ref:regon": "001129316",
                "ref:vatin": "PL7231485320",
                "operator": "Gmina Zambr\u00f3w",
                "operator:type": "government",
                "amenity": "school"
            }
        },
        {
            "id": 34428,
            "type": "Feature",
            "geometry": {
                "type": "Point",
                "coordinates": [
                    22.26068687439,
                    53.007089260254
                ]
            },
            "properties": {
                "isced:level": "1;2",
                "ref:rspo": 34428,
                "official_name": "Szko\u0142a Podstawowa im. Marii Konopnickiej w Starym Zakrzewie",
                "name": "Szko\u0142a Podstawowa",
                "addr:postcode": "18-300",
                "addr:place": "Stare Zakrzewo",
                "addr:housenumber": "15",
                "addr:teryt:simc": 411246,
                "phone": "+48 862705971",
                "email": "sp.zakrzewo@op.pl",
                "website": "http:\/\/spzakrzewo.pl",
                "ref:regon": "000719790",
                "ref:vatin": "PL7231485082",
                "operator": "Gmina Zambr\u00f3w",
                "operator:type": "government",
                "amenity": "school"
            }
        },
        {
            "id": 35164,
            "type": "Feature",
            "geometry": {
                "type": "Point",
                "coordinates": [
                    22.26068687439,
                    53.007059260253996
                ]
            },
            "properties": {
                "isced:level": "1;2",
                "ref:rspo": 35164,
                "official_name": "Szko\u0142a Podstawowa im. Papie\u017ca Jana Paw\u0142a II w Osowcu",
                "name": "Szko\u0142a Podstawowa",
                "addr:postcode": "18-300",
                "addr:place": "Osowiec",
                "addr:housenumber": "22",
                "addr:teryt:simc": 411128,
                "phone": "+48 862714265",
                "email": "dk_o@poczta.onet.pl",
                "website": "http:\/\/sposowiec.edu.pl",
                "ref:regon": "001129291",
                "ref:vatin": "PL7231484993",
                "operator": "Gmina Zambr\u00f3w",
                "operator:type": "government",
                "amenity": "school"
            }
        },
        {
            "id": 58619,
            "type": "Feature",
            "geometry": {
                "type": "Point",
                "coordinates": [
                    22.26068687439,
                    53.007029260254
                ]
            },
            "properties": {
                "isced:level": "1;2",
                "ref:rspo": 58619,
                "official_name": "Szko\u0142a Podstawowa w Starym Skar\u017cynie",
                "name": "Szko\u0142a Podstawowa w Starym Skar\u017cynie",
                "addr:postcode": "18-300",
                "addr:place": "Stary Skar\u017cyn",
                "addr:housenumber": "44",
                "addr:teryt:simc": 411269,
                "phone": "+48 862717502",
                "email": "sp-skarzyn@oswiata.org.pl",
                "ref:regon": "000719719",
                "ref:vatin": "PL7231485053",
                "operator": "Gmina Zambr\u00f3w",
                "operator:type": "government",
                "amenity": "school"
            }
        },
        {
            "id": 60161,
            "type": "Feature",
            "geometry": {
                "type": "Point",
                "coordinates": [
                    22.26068687439,
                    53.006999260254
                ]
            },
            "properties": {
                "ref:rspo": 60161,
                "official_name": "Punkt Przedszkolny \"Akademia Przedszkolaka\"",
                "name": "Punkt Przedszkolny \"Akademia Przedszkolaka\"",
                "addr:postcode": "18-400",
                "addr:place": "Czerwony B\u00f3r",
                "addr:housenumber": "24",
                "addr:door": "1",
                "addr:teryt:simc": 410821,
                "phone": "+48 862153534",
                "email": "biuro@mentoring.pl",
                "website": "http:\/\/fundacjadialog.pl",
                "ref:regon": "200737036",
                "operator": "Fundacja Dialog",
                "operator:type": "ngo",
                "amenity": "kindergarten"
            }
        },
        {
            "id": 66355,
            "type": "Feature",
            "geometry": {
                "type": "Point",
                "coordinates": [
                    22.26068687439,
                    53.006969260253996
                ]
            },
            "properties": {
                "ref:rspo": 66355,
                "official_name": "O\u015brodek Szkolenia w Koszalinie Pomorskiej Instytucji Gospodarki Bud\u017cetowej \"Pomerania\" w Koszalinie Oddzia\u0142 w Czerwonym Borze",
                "name": "O\u015brodek Szkolenia w Koszalinie Pomorskiej Instytucji Gospodarki Bud\u017cetowej \"Pomerania\" w Koszalinie Oddzia\u0142 w Czerwonym Borze",
                "addr:postcode": "18-400",
                "addr:place": "Czerwony B\u00f3r",
                "addr:housenumber": "23",
                "addr:teryt:simc": 410821,
                "phone": "+48 862153595",
                "email": "sekretariat@pigb-pomerania.pl",
                "website": "http:\/\/www.pigb-pomerania.pl",
                "ref:regon": "200742741",
                "ref:vatin": "PL2030000313",
                "operator": "Pomorska Instytucja Gospodarki Bud\u017cetowej \"Pomerania\"",
                "operator:type": "private",
                "fixme": "w zale\u017cno\u015bci od przedmiotu dzia\u0142alno\u015bci (np. amenity=training + training=*, amenity=dancing_school, amenity=language_school, amenity=music_school)"
            }
        }
    ]
}