{"type":"FeatureCollection","features":[{"id":90282,"type":"Feature","geometry":{"type":"Point","coordinates":[22.13879,52.8622]},"properties":{"isced:level":"1;2","ref:rspo":90282,"official_name":"Publiczna Szko\u0142a Podstawowa w Paproci Du\u017cej","name":"Publiczna Szko\u0142a Podstawowa w Paproci Du\u017cej","addr:country":"PL","addr:postcode":"18-305","addr:place":"Papro\u0107 Du\u017ca","addr:housenumber":"53","addr:teryt:sym_ul":407919,"contact:phone":"+48 574097302","contact:email":"lemanska1000@wp.pl","ref:regon":"200744705","ref:vatin":"PL7181729859","operator":"Spo\u0142eczno - O\u015bwiatowe Stowarzyszenie Pomocy Pokrzywdzonym I Niepe\u0142nosprawnym \"Edukator\"","operator:type":"ngo","amenity":"school"}},{"id":22161,"type":"Feature","geometry":{"type":"Point","coordinates":[22.1401499,52.88814]},"properties":{"isced:level":"1;2","ref:rspo":22161,"official_name":"Szko\u0142a Podstawowa w Srebrnej","name":"Szko\u0142a Podstawowa w Srebrnej","addr:country":"PL","addr:postcode":"18-305","addr:place":"Srebrna","addr:housenumber":"81","addr:teryt:sym_ul":407983,"contact:phone":"+48 864768544","contact:email":"sp.srebrna@wp.pl","contact:website":"http:\/\/www.spsrebrna.szkolna.net","ref:regon":"001128989","ref:vatin":"PL7231483893","operator":"Gmina Szumowo","operator:type":"government","amenity":"school"}},{"id":47077,"type":"Feature","geometry":{"type":"Point","coordinates":[22.1401499,52.88811]},"properties":{"ref:rspo":47077,"official_name":"Zesp\u00f3\u0142 Wychowania Przedszkolnego w Srebrnej","name":"Zesp\u00f3\u0142 Wychowania Przedszkolnego w Srebrnej","addr:country":"PL","addr:postcode":"18-305","addr:place":"Srebrna","addr:housenumber":"81","addr:teryt:sym_ul":407983,"contact:phone":"+48 864768544","contact:email":"sp.srebrna@wp.pl","ref:regon":"200735818","operator":"Gmina Szumowo","operator:type":"government","amenity":"kindergarten"}},{"id":267602,"type":"Feature","geometry":{"type":"Point","coordinates":[22.09756,52.91348]},"properties":{"ref:rspo":267602,"official_name":"Zesp\u00f3\u0142 Szk\u00f3\u0142 w Szumowie","name":"Zesp\u00f3\u0142 Szk\u00f3\u0142 w Szumowie","addr:country":"PL","addr:postcode":"18-305","addr:city":"Szumowo","addr:street":"ul. Szkolna","addr:housenumber":"14","addr:teryt:simc":21970,"addr:teryt:sym_ul":408037,"contact:phone":"+48 864768018","contact:email":"zsszumowo@wp.pl","contact:website":"http:\/\/www.szkolaszumowo.pl","ref:regon":"380380726","operator":"Gmina Szumowo","operator:type":"government","landuse":"education","fixme":"amenity=school, amenity=college albo landuse=education w zale\u017cno\u015bci od tego, jakie plac\u00f3wki wchodz\u0105 w sk\u0142ad zespo\u0142u. Sprawd\u017a, kiedy stosowa\u0107 amenity=* a kiedy landuse=education.","note":"Children RSPO: 17156;23598"}},{"id":17156,"type":"Feature","geometry":{"type":"Point","coordinates":[22.09756,52.91345]},"properties":{"ref:rspo":17156,"official_name":"Gminne Przedszkole w Szumowie","name":"Gminne Przedszkole w Szumowie","addr:country":"PL","addr:postcode":"18-305","addr:city":"Szumowo","addr:street":"ul. Szkolna","addr:housenumber":"14","addr:teryt:simc":21970,"addr:teryt:sym_ul":408037,"contact:phone":"+48 864768018","contact:email":"zsszumowo@wp.pl","contact:website":"http:\/\/www.szkolaszumowo.pl","ref:regon":"451185906","ref:vatin":"PL7231611090","operator":"Gmina Szumowo","operator:type":"government","amenity":"kindergarten","note":"Parent RSPO: 267602"}},{"id":23598,"type":"Feature","geometry":{"type":"Point","coordinates":[22.09756,52.91342]},"properties":{"isced:level":"1;2","ref:rspo":23598,"official_name":"Szko\u0142a Podstawowa w Szumowie","name":"Szko\u0142a Podstawowa w Szumowie","addr:country":"PL","addr:postcode":"18-305","addr:city":"Szumowo","addr:street":"ul. Szkolna","addr:housenumber":"14","addr:teryt:simc":21970,"addr:teryt:sym_ul":408037,"contact:phone":"+48 864768018","contact:email":"zsszumowo@wp.pl","contact:website":"http:\/\/www.szkolaszumowo.pl","ref:regon":"000268889","ref:vatin":"PL7231540326","operator":"Gmina Szumowo","operator:type":"government","amenity":"school","note":"Parent RSPO: 267602"}}]}