{
    "type": "FeatureCollection",
    "features": [
        {
            "id": 13747,
            "type": "Feature",
            "geometry": {
                "type": "Point",
                "coordinates": [
                    16.68186,
                    53.68512
                ]
            },
            "properties": {
                "ref:rspo": 13747,
                "official_name": "Zesp\u00f3\u0142 Szk\u00f3\u0142 Nr 6 im. St. Staszica w Szczecinku",
                "name": "Zesp\u00f3\u0142 Szk\u00f3\u0142 Nr 6",
                "addr:country": "PL",
                "addr:postcode": "78-400",
                "addr:city": "Szczecinek",
                "addr:street": "ul. Stanis\u0142awa Staszica",
                "addr:housenumber": "15",
                "addr:teryt:simc": 21071,
                "addr:teryt:sym_ul": 950262,
                "contact:phone": "+48 943731089",
                "contact:email": "swiatki@wp.pl",
                "contact:website": "http:\/\/www.zsswiatki.pl",
                "ref:regon": "331083060",
                "ref:vatin": "PL6731053362",
                "operator": "Powiat Szczecinecki",
                "operator:type": "government",
                "landuse": "education",
                "fixme": "amenity=school, amenity=college albo landuse=education w zale\u017cno\u015bci od tego, jakie plac\u00f3wki wchodz\u0105 w sk\u0142ad zespo\u0142u. Sprawd\u017a, kiedy stosowa\u0107 amenity=* a kiedy landuse=education.",
                "note": "Children RSPO: 70154;70155;70156;70157"
            }
        },
        {
            "id": 70154,
            "type": "Feature",
            "geometry": {
                "type": "Point",
                "coordinates": [
                    16.68186,
                    53.685089999999995
                ]
            },
            "properties": {
                "isced:level": "3",
                "ref:rspo": 70154,
                "official_name": "Technikum Zawodowe Nr 5 w Zespole Szk\u00f3\u0142 Nr 6 im. St. Staszica w Szczecinku",
                "name": "Technikum Zawodowe Nr 5 w Zespole Szk\u00f3\u0142 Nr 6",
                "addr:country": "PL",
                "addr:postcode": "78-400",
                "addr:city": "Szczecinek",
                "addr:street": "ul. Stanis\u0142awa Staszica",
                "addr:housenumber": "15",
                "addr:teryt:simc": 21071,
                "addr:teryt:sym_ul": 950262,
                "contact:phone": "+48 943731089",
                "contact:email": "swiatki@wp.pl",
                "ref:regon": "331356025",
                "operator": "Powiat Szczecinecki",
                "operator:type": "government",
                "amenity": "school",
                "note": "Parent RSPO: 13747"
            }
        },
        {
            "id": 70155,
            "type": "Feature",
            "geometry": {
                "type": "Point",
                "coordinates": [
                    16.68186,
                    53.68506
                ]
            },
            "properties": {
                "isced:level": "4",
                "ref:rspo": 70155,
                "official_name": "Szko\u0142a Policealna Nr 5 w Zespole Szk\u00f3\u0142 Nr 6 im. St. Staszica w Szczecinku",
                "name": "Szko\u0142a Policealna Nr 5 w Zespole Szk\u00f3\u0142 Nr 6",
                "addr:country": "PL",
                "addr:postcode": "78-400",
                "addr:city": "Szczecinek",
                "addr:street": "ul. Stanis\u0142awa Staszica",
                "addr:housenumber": "15",
                "addr:teryt:simc": 21071,
                "addr:teryt:sym_ul": 950262,
                "contact:phone": "+48 943731089",
                "contact:email": "swiatki@wp.pl",
                "ref:regon": "320084940",
                "operator": "Powiat Szczecinecki",
                "operator:type": "government",
                "amenity": "college",
                "note": "Parent RSPO: 13747"
            }
        },
        {
            "id": 70156,
            "type": "Feature",
            "geometry": {
                "type": "Point",
                "coordinates": [
                    16.68186,
                    53.68503
                ]
            },
            "properties": {
                "isced:level": "3",
                "ref:rspo": 70156,
                "official_name": "Bran\u017cowa Szko\u0142a I Stopnia Nr 4 w Zespole Szk\u00f3\u0142 Nr 6 im. St. Staszica w Szczecinku",
                "name": "Bran\u017cowa Szko\u0142a I Stopnia Nr 4 w Zespole Szk\u00f3\u0142 Nr 6",
                "addr:country": "PL",
                "addr:postcode": "78-400",
                "addr:city": "Szczecinek",
                "addr:street": "ul. Stanis\u0142awa Staszica",
                "addr:housenumber": "15",
                "addr:teryt:simc": 21071,
                "addr:teryt:sym_ul": 950262,
                "contact:phone": "+48 943731089",
                "contact:email": "swiatki@wp.pl",
                "ref:regon": "321295857",
                "operator": "Powiat Szczecinecki",
                "operator:type": "government",
                "amenity": "school",
                "note": "Parent RSPO: 13747"
            }
        },
        {
            "id": 70157,
            "type": "Feature",
            "geometry": {
                "type": "Point",
                "coordinates": [
                    16.68186,
                    53.684999999999995
                ]
            },
            "properties": {
                "isced:level": "3",
                "ref:rspo": 70157,
                "official_name": "V Liceum Og\u00f3lnokszta\u0142c\u0105ce w Zespole Szk\u00f3\u0142 Nr 6 im. St. Staszica w Szczecinku",
                "name": "V Liceum Og\u00f3lnokszta\u0142c\u0105ce w Zespole Szk\u00f3\u0142 Nr 6",
                "addr:country": "PL",
                "addr:postcode": "78-400",
                "addr:city": "Szczecinek",
                "addr:street": "ul. Stanis\u0142awa Staszica",
                "addr:housenumber": "15",
                "addr:teryt:simc": 21071,
                "addr:teryt:sym_ul": 950262,
                "contact:phone": "+48 943731089",
                "contact:email": "swiatki@wp.pl",
                "contact:website": "http:\/\/www.zsswiatki.pl",
                "ref:regon": "320700244",
                "operator": "Powiat Szczecinecki",
                "operator:type": "government",
                "amenity": "school",
                "note": "Parent RSPO: 13747"
            }
        },
        {
            "id": 27910,
            "type": "Feature",
            "geometry": {
                "type": "Point",
                "coordinates": [
                    16.67873,
                    53.6858099
                ]
            },
            "properties": {
                "ref:rspo": 27910,
                "official_name": "Specjalny O\u015brodek Szkolno-Wychowawczy im. Jana Brzechwy w Szczecinku",
                "name": "Specjalny O\u015brodek Szkolno-Wychowawczy",
                "addr:country": "PL",
                "addr:postcode": "78-400",
                "addr:city": "Szczecinek",
                "addr:street": "ul. Stanis\u0142awa Staszica",
                "addr:housenumber": "18",
                "addr:teryt:simc": 21071,
                "addr:teryt:sym_ul": 950262,
                "contact:phone": "+48 943731057",
                "contact:email": "sekretariat_sosw@op.pl",
                "contact:website": "http:\/\/www.sosw-swiatki.pl",
                "ref:regon": "331083225",
                "ref:vatin": "PL6731396323",
                "operator": "Powiat Szczecinecki",
                "operator:type": "government",
                "amenity": "school",
                "note": "Children RSPO: 70705;70708"
            }
        },
        {
            "id": 70705,
            "type": "Feature",
            "geometry": {
                "type": "Point",
                "coordinates": [
                    16.67873,
                    53.6857799
                ]
            },
            "properties": {
                "isced:level": "1;2",
                "ref:rspo": 70705,
                "official_name": "Szko\u0142a Podstawowa Specjalna Nr 8 w Specjalnym O\u015brodku Szkolno-Wychowawczym im. Jana Brzechwy w Szczecinku",
                "name": "Szko\u0142a Podstawowa Specjalna Nr 8 w Specjalnym O\u015brodku Szkolno-Wychowawczym",
                "addr:country": "PL",
                "addr:postcode": "78-400",
                "addr:city": "Szczecinek",
                "addr:street": "ul. Stanis\u0142awa Staszica",
                "addr:housenumber": "18",
                "addr:teryt:simc": 21071,
                "addr:teryt:sym_ul": 950262,
                "contact:phone": "+48 943731057",
                "contact:email": "sekreatriat_sosw@op.pl",
                "contact:website": "http:\/\/www.sosw-swiatki.pl",
                "ref:regon": "331414892",
                "operator": "Powiat Szczecinecki",
                "operator:type": "government",
                "amenity": "school",
                "note": "Parent RSPO: 27910"
            }
        },
        {
            "id": 70708,
            "type": "Feature",
            "geometry": {
                "type": "Point",
                "coordinates": [
                    16.67873,
                    53.685749900000005
                ]
            },
            "properties": {
                "ref:rspo": 70708,
                "official_name": "Szko\u0142a Specjalna Przysposabiaj\u0105ca Do Pracy w Specjalnym O\u015brodku Szkolno-Wychowawczym im. Jana Brzechwy w Szczecinku",
                "name": "Szko\u0142a Specjalna Przysposabiaj\u0105ca Do Pracy w Specjalnym O\u015brodku Szkolno-Wychowawczym",
                "addr:country": "PL",
                "addr:postcode": "78-400",
                "addr:city": "Szczecinek",
                "addr:street": "ul. Stanis\u0142awa Staszica",
                "addr:housenumber": "18",
                "addr:teryt:simc": 21071,
                "addr:teryt:sym_ul": 950262,
                "contact:phone": "+48 943731057",
                "contact:email": "sekretariat_sosw@op.pl",
                "ref:regon": "331427883",
                "operator": "Powiat Szczecinecki",
                "operator:type": "government",
                "amenity": "school",
                "note": "Parent RSPO: 27910"
            }
        },
        {
            "id": 13466,
            "type": "Feature",
            "geometry": {
                "type": "Point",
                "coordinates": [
                    16.69418,
                    53.68939
                ]
            },
            "properties": {
                "ref:rspo": 13466,
                "official_name": "Zesp\u00f3\u0142 Szk\u00f3\u0142 Nr 1 im. Komisji Edukacji Narodowej w Szczecinku",
                "name": "Zesp\u00f3\u0142 Szk\u00f3\u0142 Nr 1",
                "addr:country": "PL",
                "addr:postcode": "78-400",
                "addr:city": "Szczecinek",
                "addr:street": "ul. Szczeci\u0144ska",
                "addr:housenumber": "47",
                "addr:teryt:simc": 21805,
                "addr:teryt:sym_ul": 950262,
                "contact:phone": "+48 943743122",
                "contact:email": "sekretariat@zs1ken.szczecinek.gawex.pl",
                "contact:website": "http:\/\/www.zs1ken.pl",
                "ref:regon": "331096200",
                "ref:vatin": "PL6731021801",
                "operator": "Powiat Szczecinecki",
                "operator:type": "government",
                "landuse": "education",
                "fixme": "amenity=school, amenity=college albo landuse=education w zale\u017cno\u015bci od tego, jakie plac\u00f3wki wchodz\u0105 w sk\u0142ad zespo\u0142u. Sprawd\u017a, kiedy stosowa\u0107 amenity=* a kiedy landuse=education.",
                "note": "Children RSPO: 62089;62091;62094"
            }
        },
        {
            "id": 62089,
            "type": "Feature",
            "geometry": {
                "type": "Point",
                "coordinates": [
                    16.69418,
                    53.68936
                ]
            },
            "properties": {
                "isced:level": "3",
                "ref:rspo": 62089,
                "official_name": "Ii Liceum Og\u00f3lnokszta\u0142c\u0105ce w Zespole Szk\u00f3\u0142 Nr 1 im. Komisji Edukacji Narodowej w Szczecinku",
                "name": "Ii Liceum Og\u00f3lnokszta\u0142c\u0105ce w Zespole Szk\u00f3\u0142 Nr 1",
                "addr:country": "PL",
                "addr:postcode": "78-400",
                "addr:city": "Szczecinek",
                "addr:street": "ul. Szczeci\u0144ska",
                "addr:housenumber": "47",
                "addr:teryt:simc": 21805,
                "addr:teryt:sym_ul": 950262,
                "contact:phone": "+48 943743122",
                "contact:email": "sekretariat@zs1ken.szczecinek.gawex.pl",
                "ref:regon": "331354546",
                "operator": "Powiat Szczecinecki",
                "operator:type": "government",
                "amenity": "school",
                "note": "Parent RSPO: 13466"
            }
        },
        {
            "id": 62091,
            "type": "Feature",
            "geometry": {
                "type": "Point",
                "coordinates": [
                    16.69418,
                    53.689330000000005
                ]
            },
            "properties": {
                "isced:level": "3",
                "ref:rspo": 62091,
                "official_name": "Technikum Zawodowe Nr 1 w Zespole Szk\u00f3\u0142 Nr 1 im. Komisji Edukacji Narodowej w Szczecinku",
                "name": "Technikum Zawodowe Nr 1 w Zespole Szk\u00f3\u0142 Nr 1",
                "addr:country": "PL",
                "addr:postcode": "78-400",
                "addr:city": "Szczecinek",
                "addr:street": "ul. Szczeci\u0144ska",
                "addr:housenumber": "47",
                "addr:teryt:simc": 21805,
                "addr:teryt:sym_ul": 950262,
                "contact:phone": "+48 943743122",
                "contact:email": "sekretariat@zs1ken.szczecinek.gawex.pl",
                "contact:website": "http:\/\/www.zs1ken.szczecinek.gawex.pl",
                "ref:regon": "331354575",
                "operator": "Powiat Szczecinecki",
                "operator:type": "government",
                "amenity": "school",
                "note": "Parent RSPO: 13466"
            }
        },
        {
            "id": 62094,
            "type": "Feature",
            "geometry": {
                "type": "Point",
                "coordinates": [
                    16.69418,
                    53.6893
                ]
            },
            "properties": {
                "isced:level": "4",
                "ref:rspo": 62094,
                "official_name": "Szko\u0142a Policealna Nr 1 w Zespole Szk\u00f3\u0142 Nr 1 im. Komisji Edukacji Narodowej w Szczecinku",
                "name": "Szko\u0142a Policealna Nr 1 w Zespole Szk\u00f3\u0142 Nr 1",
                "addr:country": "PL",
                "addr:postcode": "78-400",
                "addr:city": "Szczecinek",
                "addr:street": "ul. Szczeci\u0144ska",
                "addr:housenumber": "47",
                "addr:teryt:simc": 21805,
                "addr:teryt:sym_ul": 950262,
                "contact:phone": "+48 943743122",
                "contact:email": "sekretariat@zs1ken.szczecinek.gawex.pl",
                "contact:website": "http:\/\/www.zs1ken.szczecinek.gawex.pl",
                "ref:regon": "320414426",
                "operator": "Powiat Szczecinecki",
                "operator:type": "government",
                "amenity": "college",
                "note": "Parent RSPO: 13466"
            }
        },
        {
            "id": 38474,
            "type": "Feature",
            "geometry": {
                "type": "Point",
                "coordinates": [
                    16.70032,
                    53.69502
                ]
            },
            "properties": {
                "ref:rspo": 38474,
                "official_name": "Przedszkole Niepubliczne \"Mi\u015b\" B.kawczy\u0144ska, M. Wi\u00f3rek S.c.",
                "name": "Przedszkole Niepubliczne \"Mi\u015b\" B.kawczy\u0144ska, M. Wi\u00f3rek S.c.",
                "addr:country": "PL",
                "addr:postcode": "78-400",
                "addr:city": "Szczecinek",
                "addr:street": "ul. Grudzi\u0105dzka",
                "addr:housenumber": "2",
                "addr:teryt:simc": 6236,
                "addr:teryt:sym_ul": 950262,
                "contact:phone": "+48 943743231",
                "contact:email": "przedszkolemis.szczecinek@wp.pl",
                "ref:regon": "321287480",
                "ref:vatin": "PL6731847978",
                "operator": "Bo\u017cena Kawczy\u0144ska",
                "operator:type": "private",
                "amenity": "kindergarten"
            }
        },
        {
            "id": 75252,
            "type": "Feature",
            "geometry": {
                "type": "Point",
                "coordinates": [
                    16.70166,
                    53.69687
                ]
            },
            "properties": {
                "isced:level": "3",
                "ref:rspo": 75252,
                "official_name": "Prywatne Centrum Edukacyjne \u201eSzko\u0142y Sukces\u201d Liceum Og\u00f3lnokszta\u0142c\u0105ce dla Doros\u0142ych",
                "name": "Prywatne Centrum Edukacyjne \u201eSzko\u0142y Sukces\u201d Liceum Og\u00f3lnokszta\u0142c\u0105ce dla Doros\u0142ych",
                "addr:country": "PL",
                "addr:postcode": "78-400",
                "addr:city": "Szczecinek",
                "addr:street": "pl. Plac Zes\u0142a\u0144c\u00f3w Sybiru",
                "addr:housenumber": "1",
                "addr:teryt:simc": 41588,
                "addr:teryt:sym_ul": 950262,
                "contact:phone": "+48 943722648",
                "contact:email": "sekretariat@szkolaprywatna-szczecinek.pl",
                "contact:website": "http:\/\/www.szkolaprywatna-bialogard.pl",
                "ref:regon": "321297129",
                "operator": "Prywatne Centrum Edukacyjne \"Szko\u0142y Sukces\" Sp\u00f3\u0142ka Z Ograniczon\u0105 Odpowiedzialno\u015bci\u0105",
                "operator:type": "private",
                "amenity": "school"
            }
        },
        {
            "id": 75254,
            "type": "Feature",
            "geometry": {
                "type": "Point",
                "coordinates": [
                    16.70166,
                    53.696839999999995
                ]
            },
            "properties": {
                "isced:level": "4",
                "ref:rspo": 75254,
                "official_name": "Prywatne Centrum Edukacyjne \u201eSzko\u0142y Sukces\u201d I Szko\u0142a Policealna w Szczecinku",
                "name": "Prywatne Centrum Edukacyjne \u201eSzko\u0142y Sukces\u201d I Szko\u0142a Policealna w Szczecinku",
                "addr:country": "PL",
                "addr:postcode": "78-400",
                "addr:city": "Szczecinek",
                "addr:street": "pl. Plac Zes\u0142a\u0144c\u00f3w Sybiru",
                "addr:housenumber": "1",
                "addr:teryt:simc": 41588,
                "addr:teryt:sym_ul": 950262,
                "contact:phone": "+48 943722648",
                "contact:email": "sekretariat@szkolaprywatna-szczecinek.pl",
                "contact:website": "http:\/\/www.szkolaprywatna-bialogard.pl",
                "ref:regon": "321297135",
                "operator": "Prywatne Centrum Edukacyjne \"Szko\u0142y Sukces\" Sp\u00f3\u0142ka Z Ograniczon\u0105 Odpowiedzialno\u015bci\u0105",
                "operator:type": "private",
                "amenity": "college"
            }
        },
        {
            "id": 16642,
            "type": "Feature",
            "geometry": {
                "type": "Point",
                "coordinates": [
                    16.69908,
                    53.69828
                ]
            },
            "properties": {
                "isced:level": "1;2",
                "ref:rspo": 16642,
                "official_name": "Szko\u0142a Podstawowa Nr 1 im. Adama Mickiewicza",
                "name": "Szko\u0142a Podstawowa Nr 1",
                "addr:country": "PL",
                "addr:postcode": "78-400",
                "addr:city": "Szczecinek",
                "addr:street": "pl. Waz\u00f3w",
                "addr:housenumber": "1",
                "addr:teryt:simc": 23774,
                "addr:teryt:sym_ul": 950262,
                "contact:phone": "+48 943743368",
                "contact:email": "sp1szczecinek@interia.pl",
                "contact:website": "http:\/\/sp1szczecinek.edupage.org",
                "ref:regon": "320939703",
                "ref:vatin": "PL6731886725",
                "operator": "Miasto Szczecinek",
                "operator:type": "government",
                "amenity": "school"
            }
        },
        {
            "id": 38478,
            "type": "Feature",
            "geometry": {
                "type": "Point",
                "coordinates": [
                    16.70465,
                    53.69861
                ]
            },
            "properties": {
                "ref:rspo": 38478,
                "official_name": "Przedszkole Niepubliczne \"Krasnoludek\" E. Kwak, M. Smukowska S.c.",
                "name": "Przedszkole Niepubliczne \"Krasnoludek\" E. Kwak, M. Smukowska S.c.",
                "addr:country": "PL",
                "addr:postcode": "78-400",
                "addr:city": "Szczecinek",
                "addr:street": "ul. Przemys\u0142owa",
                "addr:housenumber": "5",
                "addr:teryt:simc": 17742,
                "addr:teryt:sym_ul": 950262,
                "contact:phone": "+48 943741126",
                "contact:email": "pn.krasnoludek@gmail.com",
                "ref:regon": "321287734",
                "ref:vatin": "PL6731712422",
                "operator": "Edyta Kwak",
                "operator:type": "private",
                "amenity": "kindergarten"
            }
        },
        {
            "id": 70710,
            "type": "Feature",
            "geometry": {
                "type": "Point",
                "coordinates": [
                    16.6988,
                    53.69917
                ]
            },
            "properties": {
                "isced:level": "3",
                "ref:rspo": 70710,
                "official_name": "Prywatne Liceum Og\u00f3lnokszta\u0142c\u0105ce w Szczecinku",
                "name": "Prywatne Liceum Og\u00f3lnokszta\u0142c\u0105ce w Szczecinku",
                "addr:country": "PL",
                "addr:postcode": "78-400",
                "addr:city": "Szczecinek",
                "addr:street": "ul. Klasztorna",
                "addr:housenumber": "16",
                "addr:teryt:simc": 8485,
                "addr:teryt:sym_ul": 950262,
                "contact:phone": "+48 943731160",
                "contact:email": "plo@szkola.fnp.pl",
                "contact:website": "http:\/\/www.szkola.fnp.pl",
                "ref:regon": "321296012",
                "operator": "Fundacja \"Nasza Przysz\u0142o\u015b\u0107\"",
                "operator:type": "ngo",
                "amenity": "school"
            }
        },
        {
            "id": 132335,
            "type": "Feature",
            "geometry": {
                "type": "Point",
                "coordinates": [
                    16.6988,
                    53.69914
                ]
            },
            "properties": {
                "isced:level": "1;2",
                "ref:rspo": 132335,
                "official_name": "Szko\u0142a Podstawowa Przy Prywatnym Liceum Og\u00f3lnokszta\u0142c\u0105cym w Szczecinku",
                "name": "Szko\u0142a Podstawowa Przy Prywatnym Liceum Og\u00f3lnokszta\u0142c\u0105cym w Szczecinku",
                "addr:country": "PL",
                "addr:postcode": "78-400",
                "addr:city": "Szczecinek",
                "addr:street": "ul. Klasztorna",
                "addr:housenumber": "16",
                "addr:teryt:simc": 8485,
                "addr:teryt:sym_ul": 950262,
                "contact:phone": "+48 943731160",
                "contact:email": "sp@szkola.fnp.pl",
                "contact:website": "https:\/\/szkola.fnp.pl",
                "ref:regon": "365552484",
                "operator": "Fundacja \"Nasza Przysz\u0142o\u015b\u0107\"",
                "operator:type": "ngo",
                "amenity": "school"
            }
        },
        {
            "id": 70711,
            "type": "Feature",
            "geometry": {
                "type": "Point",
                "coordinates": [
                    16.70369,
                    53.69989
                ]
            },
            "properties": {
                "isced:level": "3",
                "ref:rspo": 70711,
                "official_name": "Instytut Edukacji Spo\u0142ecznej Liceum Og\u00f3lnokszta\u0142c\u0105ce dla Doros\u0142ych w Szczecinku",
                "name": "Instytut Edukacji Spo\u0142ecznej Liceum Og\u00f3lnokszta\u0142c\u0105ce dla Doros\u0142ych w Szczecinku",
                "addr:country": "PL",
                "addr:postcode": "78-400",
                "addr:city": "Szczecinek",
                "addr:street": "ul. Boh. Warszawy",
                "addr:housenumber": "31-35",
                "addr:door": "206",
                "addr:teryt:simc": 39566,
                "addr:teryt:sym_ul": 950262,
                "contact:phone": "+48 531740007",
                "contact:email": "biuro@fikk.pl",
                "ref:regon": "321296176",
                "operator": "\"Ja\u015b I Ma\u0142gosia\" Szko\u0142y I Plac\u00f3wki Terapeutyczne",
                "operator:type": "ngo",
                "amenity": "school"
            }
        },
        {
            "id": 121889,
            "type": "Feature",
            "geometry": {
                "type": "Point",
                "coordinates": [
                    16.70369,
                    53.69986
                ]
            },
            "properties": {
                "ref:rspo": 121889,
                "official_name": "Zesp\u00f3\u0142 Szk\u00f3\u0142 \"Ja\u015b I Ma\u0142gosia\" Szko\u0142y I Plac\u00f3wki Terapeutyczne",
                "name": "Zesp\u00f3\u0142 Szk\u00f3\u0142 \"Ja\u015b I Ma\u0142gosia\" Szko\u0142y I Plac\u00f3wki Terapeutyczne",
                "addr:country": "PL",
                "addr:postcode": "78-400",
                "addr:city": "Szczecinek",
                "addr:street": "ul. Boh. Warszawy",
                "addr:housenumber": "31-35",
                "addr:teryt:simc": 39566,
                "addr:teryt:sym_ul": 950262,
                "contact:phone": "+48 531740007",
                "contact:email": "biuro@fikk.pl",
                "contact:website": "http:\/\/www.fikk.pl",
                "ref:regon": "321481258",
                "operator": "\"Ja\u015b I Ma\u0142gosia\" Szko\u0142y I Plac\u00f3wki Terapeutyczne",
                "operator:type": "ngo",
                "landuse": "education",
                "fixme": "amenity=school, amenity=college albo landuse=education w zale\u017cno\u015bci od tego, jakie plac\u00f3wki wchodz\u0105 w sk\u0142ad zespo\u0142u. Sprawd\u017a, kiedy stosowa\u0107 amenity=* a kiedy landuse=education.",
                "note": "Children RSPO: 73084;73085;73086;119385;124510;126717;128706;132102"
            }
        },
        {
            "id": 126969,
            "type": "Feature",
            "geometry": {
                "type": "Point",
                "coordinates": [
                    16.70369,
                    53.699830000000006
                ]
            },
            "properties": {
                "ref:rspo": 126969,
                "official_name": "Centrum Kszta\u0142cenia Terapeut\u00f3w Clinicus",
                "name": "Centrum Kszta\u0142cenia Terapeut\u00f3w Clinicus",
                "addr:country": "PL",
                "addr:postcode": "78-400",
                "addr:city": "Szczecinek",
                "addr:street": "ul. Boh. Warszawy",
                "addr:housenumber": "31-35",
                "addr:teryt:simc": 39566,
                "addr:teryt:sym_ul": 950262,
                "contact:phone": "+48 531740007",
                "contact:email": "biuro@fikk.pl",
                "ref:regon": "360988840",
                "ref:vatin": "PL6731788371",
                "operator": "\"Ja\u015b I Ma\u0142gosia\" Szko\u0142y I Plac\u00f3wki Terapeutyczne",
                "operator:type": "ngo",
                "fixme": "w zale\u017cno\u015bci od przedmiotu dzia\u0142alno\u015bci (np. amenity=training + training=*, amenity=dancing_school, amenity=language_school, amenity=music_school)"
            }
        },
        {
            "id": 73084,
            "type": "Feature",
            "geometry": {
                "type": "Point",
                "coordinates": [
                    16.70369,
                    53.6998
                ]
            },
            "properties": {
                "isced:level": "4",
                "ref:rspo": 73084,
                "official_name": "Policealne Studium Zawodowe Instytut Ekonomii w Szczecinku",
                "name": "Policealne Studium Zawodowe Instytut Ekonomii w Szczecinku",
                "addr:country": "PL",
                "addr:postcode": "78-400",
                "addr:city": "Szczecinek",
                "addr:street": "ul. Boh. Warszawy",
                "addr:housenumber": "31-35",
                "addr:door": "406",
                "addr:teryt:simc": 39566,
                "addr:teryt:sym_ul": 950262,
                "contact:phone": "+48 531740007",
                "contact:email": "biuro@fikk.pl",
                "contact:website": "http:\/\/www.fikk.pl",
                "ref:regon": "321296101",
                "operator": "\"Ja\u015b I Ma\u0142gosia\" Szko\u0142y I Plac\u00f3wki Terapeutyczne",
                "operator:type": "ngo",
                "amenity": "college",
                "note": "Parent RSPO: 121889"
            }
        },
        {
            "id": 73085,
            "type": "Feature",
            "geometry": {
                "type": "Point",
                "coordinates": [
                    16.70369,
                    53.69977
                ]
            },
            "properties": {
                "isced:level": "4",
                "ref:rspo": 73085,
                "official_name": "Policealne Studium Zawodowe Instytut Informatyczny w Szczecinku",
                "name": "Policealne Studium Zawodowe Instytut Informatyczny w Szczecinku",
                "addr:country": "PL",
                "addr:postcode": "78-400",
                "addr:city": "Szczecinek",
                "addr:street": "ul. Boh. Warszawy",
                "addr:housenumber": "31-35",
                "addr:door": "406",
                "addr:teryt:simc": 39566,
                "addr:teryt:sym_ul": 950262,
                "contact:phone": "+48 531740007",
                "contact:email": "biuro@fikk.pl",
                "contact:website": "http:\/\/www.fikk.pl",
                "ref:regon": "321296087",
                "operator": "\"Ja\u015b I Ma\u0142gosia\" Szko\u0142y I Plac\u00f3wki Terapeutyczne",
                "operator:type": "ngo",
                "amenity": "college",
                "note": "Parent RSPO: 121889"
            }
        },
        {
            "id": 73086,
            "type": "Feature",
            "geometry": {
                "type": "Point",
                "coordinates": [
                    16.70369,
                    53.699740000000006
                ]
            },
            "properties": {
                "isced:level": "4",
                "ref:rspo": 73086,
                "official_name": "Policealne Studium Zawodowe Instytut Administracji w Szczecinku",
                "name": "Policealne Studium Zawodowe Instytut Administracji w Szczecinku",
                "addr:country": "PL",
                "addr:postcode": "78-400",
                "addr:city": "Szczecinek",
                "addr:street": "ul. Boh. Warszawy",
                "addr:housenumber": "31-35",
                "addr:door": "406",
                "addr:teryt:simc": 39566,
                "addr:teryt:sym_ul": 950262,
                "contact:phone": "+48 531740007",
                "contact:email": "biuro@fikk.pl",
                "contact:website": "http:\/\/www.fikk.pl",
                "ref:regon": "321296124",
                "operator": "\"Ja\u015b I Ma\u0142gosia\" Szko\u0142y I Plac\u00f3wki Terapeutyczne",
                "operator:type": "ngo",
                "amenity": "college",
                "note": "Parent RSPO: 121889"
            }
        },
        {
            "id": 119385,
            "type": "Feature",
            "geometry": {
                "type": "Point",
                "coordinates": [
                    16.70369,
                    53.69971
                ]
            },
            "properties": {
                "ref:rspo": 119385,
                "official_name": "Niepubliczna Poradnia Psychologiczno-Pedagogiczna \"Ja\u015b I Ma\u0142gosia\"",
                "name": "Niepubliczna Poradnia Psychologiczno-Pedagogiczna \"Ja\u015b I Ma\u0142gosia\"",
                "addr:country": "PL",
                "addr:postcode": "78-400",
                "addr:city": "Szczecinek",
                "addr:street": "ul. Boh. Warszawy",
                "addr:housenumber": "31-35",
                "addr:door": "406",
                "addr:teryt:simc": 39566,
                "addr:teryt:sym_ul": 950262,
                "contact:phone": "+48 943070124",
                "contact:email": "biuro@fikk.pl",
                "contact:website": "http:\/\/www.fikk.pl",
                "ref:regon": "321420920",
                "operator": "\"Ja\u015b I Ma\u0142gosia\" Szko\u0142y I Plac\u00f3wki Terapeutyczne",
                "operator:type": "ngo",
                "healthcare": "counselling",
                "counselling_type": "education",
                "fixme": "w zale\u017cno\u015bci od przedmiotu dzia\u0142alno\u015bci (np. healthcare=counselling + counselling_type=education albo healthcare=psychotherapist)",
                "note": "Parent RSPO: 121889"
            }
        },
        {
            "id": 128706,
            "type": "Feature",
            "geometry": {
                "type": "Point",
                "coordinates": [
                    16.70369,
                    53.69968
                ]
            },
            "properties": {
                "isced:level": "1;2",
                "ref:rspo": 128706,
                "official_name": "Terapeutyczna Szko\u0142a Podstawowa",
                "name": "Terapeutyczna Szko\u0142a Podstawowa",
                "addr:country": "PL",
                "addr:postcode": "78-400",
                "addr:city": "Szczecinek",
                "addr:street": "ul. Boh. Warszawy",
                "addr:housenumber": "31-35",
                "addr:teryt:simc": 39566,
                "addr:teryt:sym_ul": 950262,
                "contact:phone": "+48 531740007",
                "contact:website": "http:\/\/www.fikk.pl",
                "ref:regon": "362364150",
                "operator": "\"Ja\u015b I Ma\u0142gosia\" Szko\u0142y I Plac\u00f3wki Terapeutyczne",
                "operator:type": "ngo",
                "amenity": "school",
                "note": "Parent RSPO: 121889"
            }
        },
        {
            "id": 128603,
            "type": "Feature",
            "geometry": {
                "type": "Point",
                "coordinates": [
                    16.69828,
                    53.70063
                ]
            },
            "properties": {
                "ref:rspo": 128603,
                "official_name": "Terapeutyczny Punkt Przedszkolny \"Ja\u015b I Ma\u0142gosia\"",
                "name": "Terapeutyczny Punkt Przedszkolny \"Ja\u015b I Ma\u0142gosia\"",
                "addr:country": "PL",
                "addr:postcode": "78-400",
                "addr:city": "Szczecinek",
                "addr:street": "ul. Klasztorna",
                "addr:housenumber": "11",
                "addr:teryt:simc": 8485,
                "addr:teryt:sym_ul": 950262,
                "contact:phone": "+48 943070124",
                "contact:email": "biuro@fikk.pl",
                "contact:website": "https:\/\/www.ja\u015bima\u0142gosia.pl",
                "ref:regon": "362334781",
                "operator": "\"Ja\u015b I Ma\u0142gosia\" Szko\u0142y I Plac\u00f3wki Terapeutyczne",
                "operator:type": "ngo",
                "amenity": "kindergarten"
            }
        },
        {
            "id": 124510,
            "type": "Feature",
            "geometry": {
                "type": "Point",
                "coordinates": [
                    16.69828,
                    53.700599999999994
                ]
            },
            "properties": {
                "ref:rspo": 124510,
                "official_name": "O\u015brodek Rehabilitacyjno-Edukacyjno-Wychowawczy w Szczecinku",
                "name": "O\u015brodek Rehabilitacyjno-Edukacyjno-Wychowawczy w Szczecinku",
                "addr:country": "PL",
                "addr:postcode": "78-400",
                "addr:city": "Szczecinek",
                "addr:street": "ul. Klasztorna",
                "addr:housenumber": "11",
                "addr:teryt:simc": 8485,
                "addr:teryt:sym_ul": 950262,
                "contact:phone": "+48 531740007",
                "contact:email": "biuro@fikk.pl",
                "contact:website": "http:\/\/www.fikk.pl",
                "ref:regon": "321566523",
                "operator": "\"Ja\u015b I Ma\u0142gosia\" Szko\u0142y I Plac\u00f3wki Terapeutyczne",
                "operator:type": "ngo",
                "amenity": "school",
                "note": "Parent RSPO: 121889"
            }
        },
        {
            "id": 126717,
            "type": "Feature",
            "geometry": {
                "type": "Point",
                "coordinates": [
                    16.69828,
                    53.70057
                ]
            },
            "properties": {
                "ref:rspo": 126717,
                "official_name": "Niepubliczna Specjalistyczna Poradnia Psychologiczno-Pedagogiczna \"Centrum Wspierania Rozwoju Cz\u0142owieka\"",
                "name": "Niepubliczna Specjalistyczna Poradnia Psychologiczno-Pedagogiczna \"Centrum Wspierania Rozwoju Cz\u0142owieka\"",
                "addr:country": "PL",
                "addr:postcode": "78-400",
                "addr:city": "Szczecinek",
                "addr:street": "ul. Klasztorna",
                "addr:housenumber": "11",
                "addr:teryt:simc": 8485,
                "addr:teryt:sym_ul": 950262,
                "contact:phone": "+48 531740007",
                "contact:email": "biuro@fikk.pl",
                "ref:regon": "360655720",
                "ref:vatin": "PL6731788371",
                "operator": "\"Ja\u015b I Ma\u0142gosia\" Szko\u0142y I Plac\u00f3wki Terapeutyczne",
                "operator:type": "ngo",
                "fixme": "w zale\u017cno\u015bci od przedmiotu dzia\u0142alno\u015bci (np. healthcare=counselling + counselling_type=education albo healthcare=psychotherapist)",
                "note": "Parent RSPO: 121889"
            }
        },
        {
            "id": 132102,
            "type": "Feature",
            "geometry": {
                "type": "Point",
                "coordinates": [
                    16.69828,
                    53.70054
                ]
            },
            "properties": {
                "ref:rspo": 132102,
                "official_name": "O\u015brodek Rehabilitacyjno-Edukacyjno-Wychowawczy \"Ja\u015b I Ma\u0142gosia\"",
                "name": "O\u015brodek Rehabilitacyjno-Edukacyjno-Wychowawczy \"Ja\u015b I Ma\u0142gosia\"",
                "addr:country": "PL",
                "addr:postcode": "78-400",
                "addr:city": "Szczecinek",
                "addr:street": "ul. Klasztorna",
                "addr:housenumber": "11",
                "addr:teryt:simc": 8485,
                "addr:teryt:sym_ul": 950262,
                "contact:phone": "+48 531740007",
                "contact:email": "biuro@fikk.pl",
                "ref:regon": "365460233",
                "operator": "\"Ja\u015b I Ma\u0142gosia\" Szko\u0142y I Plac\u00f3wki Terapeutyczne",
                "operator:type": "ngo",
                "amenity": "school",
                "note": "Parent RSPO: 121889"
            }
        },
        {
            "id": 124829,
            "type": "Feature",
            "geometry": {
                "type": "Point",
                "coordinates": [
                    16.69961,
                    53.70123
                ]
            },
            "properties": {
                "ref:rspo": 124829,
                "official_name": "Niepubliczne Przedszkole \"Kredka\" D. Rumi\u0144ski, A. Wo\u0142y\u0144ska S.c.",
                "name": "Niepubliczne Przedszkole \"Kredka\" D. Rumi\u0144ski, A. Wo\u0142y\u0144ska S.c.",
                "addr:country": "PL",
                "addr:postcode": "78-400",
                "addr:city": "Szczecinek",
                "addr:street": "ul. Warcis\u0142awa IV",
                "addr:housenumber": "3b",
                "addr:teryt:simc": 52295,
                "addr:teryt:sym_ul": 950262,
                "contact:phone": "+48 600341924",
                "contact:email": "przedszkolekredka@o2.pl",
                "ref:regon": "321569438",
                "operator": "Damian Rumi\u0144ski",
                "operator:type": "private",
                "amenity": "kindergarten"
            }
        },
        {
            "id": 129672,
            "type": "Feature",
            "geometry": {
                "type": "Point",
                "coordinates": [
                    16.70839,
                    53.70191
                ]
            },
            "properties": {
                "ref:rspo": 129672,
                "official_name": "Zesp\u00f3\u0142 Szk\u00f3\u0142 Spo\u0142ecznych Spo\u0142ecznego Towarzystwa O\u015bwiatowego",
                "name": "Zesp\u00f3\u0142 Szk\u00f3\u0142 Spo\u0142ecznych Spo\u0142ecznego Towarzystwa O\u015bwiatowego",
                "addr:country": "PL",
                "addr:postcode": "78-400",
                "addr:city": "Szczecinek",
                "addr:street": "ul. S\u0142owia\u0144ska",
                "addr:housenumber": "2",
                "addr:teryt:simc": 20294,
                "addr:teryt:sym_ul": 950262,
                "contact:phone": "+48 943740660",
                "contact:email": "sekretariatsto@op.pl",
                "contact:website": "http:\/\/www.spoleczna.info",
                "ref:regon": "362741204",
                "ref:vatin": "PL6731021497",
                "operator": "Spo\u0142eczne Towarzystwo O\u015bwiatowe Samodzielne Ko\u0142o Terenowe Nr 47",
                "operator:type": "ngo",
                "landuse": "education",
                "fixme": "amenity=school, amenity=college albo landuse=education w zale\u017cno\u015bci od tego, jakie plac\u00f3wki wchodz\u0105 w sk\u0142ad zespo\u0142u. Sprawd\u017a, kiedy stosowa\u0107 amenity=* a kiedy landuse=education.",
                "note": "Children RSPO: 38480;70709"
            }
        },
        {
            "id": 38480,
            "type": "Feature",
            "geometry": {
                "type": "Point",
                "coordinates": [
                    16.70839,
                    53.701879999999996
                ]
            },
            "properties": {
                "isced:level": "1;2",
                "ref:rspo": 38480,
                "official_name": "Spo\u0142eczna Szko\u0142a Podstawowa Sto",
                "name": "Spo\u0142eczna Szko\u0142a Podstawowa Sto",
                "addr:country": "PL",
                "addr:postcode": "78-400",
                "addr:city": "Szczecinek",
                "addr:street": "ul. S\u0142owia\u0144ska",
                "addr:housenumber": "2",
                "addr:teryt:simc": 20294,
                "addr:teryt:sym_ul": 950262,
                "contact:phone": "+48 943740660",
                "contact:email": "sgsto@op.pl",
                "contact:website": "http:\/\/www.spoleczna.info",
                "ref:regon": "321288194",
                "operator": "Spo\u0142eczne Towarzystwo O\u015bwiatowe Samodzielne Ko\u0142o Terenowe Nr 47",
                "operator:type": "ngo",
                "amenity": "school",
                "note": "Parent RSPO: 129672"
            }
        },
        {
            "id": 70709,
            "type": "Feature",
            "geometry": {
                "type": "Point",
                "coordinates": [
                    16.70839,
                    53.70185
                ]
            },
            "properties": {
                "isced:level": "3",
                "ref:rspo": 70709,
                "official_name": "Spo\u0142eczne Liceum Og\u00f3lnokszta\u0142c\u0105ce Spo\u0142ecznego Towarzystwa O\u015bwiatowego w Szczecinku",
                "name": "Spo\u0142eczne Liceum Og\u00f3lnokszta\u0142c\u0105ce Spo\u0142ecznego Towarzystwa O\u015bwiatowego w Szczecinku",
                "addr:country": "PL",
                "addr:postcode": "78-400",
                "addr:city": "Szczecinek",
                "addr:street": "ul. S\u0142owia\u0144ska",
                "addr:housenumber": "2",
                "addr:teryt:simc": 20294,
                "addr:teryt:sym_ul": 950262,
                "contact:phone": "+48 943740660",
                "contact:email": "sgsto@op.pl",
                "contact:website": "http:\/\/www.spoleczna.info",
                "ref:regon": "321297098",
                "ref:vatin": "PL6731021497",
                "operator": "Spo\u0142eczne Towarzystwo O\u015bwiatowe Samodzielne Ko\u0142o Terenowe Nr 47",
                "operator:type": "ngo",
                "amenity": "school",
                "note": "Parent RSPO: 129672"
            }
        },
        {
            "id": 276444,
            "type": "Feature",
            "geometry": {
                "type": "Point",
                "coordinates": [
                    16.6983,
                    53.70242
                ]
            },
            "properties": {
                "ref:rspo": 276444,
                "official_name": "O\u015brodek Rehabilitacyjno-Edukacyjno-Wychowawczy Nr 2",
                "name": "O\u015brodek Rehabilitacyjno-Edukacyjno-Wychowawczy Nr 2",
                "addr:country": "PL",
                "addr:postcode": "78-400",
                "addr:city": "Szczecinek",
                "addr:street": "ul. Klasztorna",
                "addr:housenumber": "1",
                "addr:teryt:simc": 8485,
                "addr:teryt:sym_ul": 950262,
                "contact:phone": "+48 531740007",
                "contact:email": "biuro@fikk.pl",
                "contact:website": "http:\/\/www.jasimalgosia.pl",
                "ref:regon": "387138738",
                "ref:vatin": "PL6731898622",
                "operator": "\"Ja\u015b I Ma\u0142gosia\" Szko\u0142y I Plac\u00f3wki Terapeutyczne",
                "operator:type": "ngo",
                "amenity": "school"
            }
        },
        {
            "id": 276508,
            "type": "Feature",
            "geometry": {
                "type": "Point",
                "coordinates": [
                    16.69831,
                    53.70336
                ]
            },
            "properties": {
                "ref:rspo": 276508,
                "official_name": "Niepubliczne J\u0119zykowe Przedszkole Montessori Szczecinek",
                "name": "Niepubliczne J\u0119zykowe Przedszkole Montessori Szczecinek",
                "addr:country": "PL",
                "addr:postcode": "78-400",
                "addr:city": "Szczecinek",
                "addr:street": "ul. Kardyna\u0142a Stefana Wyszy\u0144skiego",
                "addr:housenumber": "71",
                "addr:teryt:simc": 35421,
                "addr:teryt:sym_ul": 950262,
                "contact:phone": "+48 577300109",
                "contact:email": "montessori.szczecinek@gmail.com",
                "ref:regon": "387168395",
                "operator": "Katarzyna Dwulit",
                "operator:type": "private",
                "amenity": "kindergarten"
            }
        },
        {
            "id": 124083,
            "type": "Feature",
            "geometry": {
                "type": "Point",
                "coordinates": [
                    16.70287,
                    53.70563
                ]
            },
            "properties": {
                "isced:level": "1;2",
                "ref:rspo": 124083,
                "official_name": "Niepubliczna Szko\u0142a Podstawowa Specjalna im. Ivara Lovaasa w Szczecinku",
                "name": "Niepubliczna Szko\u0142a Podstawowa Specjalna",
                "addr:country": "PL",
                "addr:postcode": "78-400",
                "addr:city": "Szczecinek",
                "addr:street": "ul. Sp\u00f3\u0142dzielcza",
                "addr:housenumber": "3A",
                "addr:door": "1",
                "addr:teryt:simc": 20696,
                "addr:teryt:sym_ul": 950262,
                "contact:phone": "+48 792274240",
                "contact:email": "jarekpi@poczta.fm",
                "ref:regon": "321559380",
                "operator": "Jaros\u0142aw Pietrzyk",
                "operator:type": "private",
                "amenity": "school"
            }
        },
        {
            "id": 38475,
            "type": "Feature",
            "geometry": {
                "type": "Point",
                "coordinates": [
                    16.70251,
                    53.70635
                ]
            },
            "properties": {
                "ref:rspo": 38475,
                "official_name": "Przedszkole Niepubliczne \"S\u0142oneczko\" Jolanta Janczurewicz, Krzysztof Janczurewicz S.c.",
                "name": "Przedszkole Niepubliczne \"S\u0142oneczko\" Jolanta Janczurewicz, Krzysztof Janczurewicz S.c.",
                "addr:country": "PL",
                "addr:postcode": "78-400",
                "addr:city": "Szczecinek",
                "addr:street": "ul. Kopernika",
                "addr:housenumber": "16",
                "addr:teryt:simc": 9276,
                "addr:teryt:sym_ul": 950262,
                "contact:phone": "+48 943742310",
                "contact:email": "przedszkole@sloneczko.org",
                "ref:regon": "321287674",
                "ref:vatin": "PL6731847866",
                "operator": "Jolanta Janczurewicz",
                "operator:type": "private",
                "amenity": "kindergarten"
            }
        },
        {
            "id": 16644,
            "type": "Feature",
            "geometry": {
                "type": "Point",
                "coordinates": [
                    16.7049,
                    53.70655
                ]
            },
            "properties": {
                "isced:level": "1;2",
                "ref:rspo": 16644,
                "official_name": "Szko\u0142a Podstawowa Nr 6 im. Zdobywc\u00f3w Wa\u0142u Pomorskiego",
                "name": "Szko\u0142a Podstawowa Nr 6",
                "addr:country": "PL",
                "addr:postcode": "78-400",
                "addr:city": "Szczecinek",
                "addr:street": "ul. Kopernika",
                "addr:housenumber": "18",
                "addr:teryt:simc": 9276,
                "addr:teryt:sym_ul": 950262,
                "contact:phone": "+48 943742706",
                "contact:email": "sekretariat@sp6.szczecinek.pl",
                "contact:website": "http:\/\/www.sp6.szczecinek.pl",
                "ref:regon": "320939749",
                "ref:vatin": "PL6731886748",
                "operator": "Miasto Szczecinek",
                "operator:type": "government",
                "amenity": "school"
            }
        },
        {
            "id": 196320,
            "type": "Feature",
            "geometry": {
                "type": "Point",
                "coordinates": [
                    16.69362,
                    53.70659
                ]
            },
            "properties": {
                "ref:rspo": 196320,
                "official_name": "Centrum Edukacji Ekologicznej I Rewitalizacji Jezior - Zesp\u00f3\u0142 Plac\u00f3wek O\u015bwiatowych",
                "name": "Centrum Edukacji Ekologicznej I Rewitalizacji Jezior - Zesp\u00f3\u0142 Plac\u00f3wek O\u015bwiatowych",
                "addr:country": "PL",
                "addr:postcode": "78-400",
                "addr:city": "Szczecinek",
                "addr:street": "ul. Mickiewicza",
                "addr:housenumber": "2",
                "addr:teryt:simc": 12734,
                "addr:teryt:sym_ul": 950262,
                "contact:phone": "+48 947128800",
                "contact:email": "sekretariat@eco.szczecinek.pl",
                "ref:regon": "367991584",
                "operator": "Powiat Szczecinecki",
                "operator:type": "government",
                "landuse": "education",
                "fixme": "amenity=school, amenity=college albo landuse=education w zale\u017cno\u015bci od tego, jakie plac\u00f3wki wchodz\u0105 w sk\u0142ad zespo\u0142u. Sprawd\u017a, kiedy stosowa\u0107 amenity=* a kiedy landuse=education.",
                "note": "Children RSPO: 130491;262380"
            }
        },
        {
            "id": 130491,
            "type": "Feature",
            "geometry": {
                "type": "Point",
                "coordinates": [
                    16.69362,
                    53.706559999999996
                ]
            },
            "properties": {
                "ref:rspo": 130491,
                "official_name": "Pozaszkolna Plac\u00f3wka Specjalistyczna Centrum Edukacji Ekologicznej I Rewitalizacji Jezior w Szczecinku",
                "name": "Pozaszkolna Plac\u00f3wka Specjalistyczna Centrum Edukacji Ekologicznej I Rewitalizacji Jezior w Szczecinku",
                "addr:country": "PL",
                "addr:postcode": "78-400",
                "addr:city": "Szczecinek",
                "addr:street": "ul. Mickiewicza",
                "addr:housenumber": "2",
                "addr:teryt:simc": 12734,
                "addr:teryt:sym_ul": 950262,
                "contact:phone": "+48 947128800",
                "contact:email": "sekretariat@eco.szczecinek.pl",
                "contact:website": "http:\/\/www.eco.szczecinek.pl",
                "ref:regon": "364091058",
                "operator": "Powiat Szczecinecki",
                "operator:type": "government",
                "fixme": "w zale\u017cno\u015bci od przedmiotu dzia\u0142alno\u015bci (np. amenity=training + training=*, amenity=dancing_school, amenity=language_school, amenity=music_school)",
                "note": "Parent RSPO: 196320"
            }
        },
        {
            "id": 262380,
            "type": "Feature",
            "geometry": {
                "type": "Point",
                "coordinates": [
                    16.69362,
                    53.70653
                ]
            },
            "properties": {
                "ref:rspo": 262380,
                "official_name": "Bursa Szkolna Nr 2 w Szczecinku",
                "name": "Bursa Szkolna Nr 2 w Szczecinku",
                "addr:country": "PL",
                "addr:postcode": "78-400",
                "addr:city": "Szczecinek",
                "addr:street": "ul. Mickiewicza",
                "addr:housenumber": "2",
                "addr:teryt:simc": 12734,
                "addr:teryt:sym_ul": 950262,
                "contact:phone": "+48 947128800",
                "contact:email": "sekretariat@eco.szczecinek.pl",
                "contact:website": "http:\/\/www.eco.szczecinek.pl\/",
                "ref:regon": "367995560",
                "operator": "Powiat Szczecinecki",
                "operator:type": "government",
                "building": "dormitory",
                "note": "Parent RSPO: 196320"
            }
        },
        {
            "id": 38472,
            "type": "Feature",
            "geometry": {
                "type": "Point",
                "coordinates": [
                    16.69626,
                    53.70708
                ]
            },
            "properties": {
                "ref:rspo": 38472,
                "official_name": "Przedszkole Niepubliczne I \u017b\u0142obek \"Bajka\" D. Wi\u015bniewska, D. W\u0119drychowicz S.c.",
                "name": "Przedszkole Niepubliczne I \u017b\u0142obek \"Bajka\" D. Wi\u015bniewska, D. W\u0119drychowicz S.c.",
                "addr:country": "PL",
                "addr:postcode": "78-400",
                "addr:city": "Szczecinek",
                "addr:street": "ul. Wojska Polskiego",
                "addr:housenumber": "5",
                "addr:teryt:simc": 24628,
                "addr:teryt:sym_ul": 950262,
                "contact:phone": "+48 943743377",
                "contact:email": "przedszkolebajka7@wp.pl",
                "ref:regon": "321287310",
                "ref:vatin": "PL6731847961",
                "operator": "Danuta Wi\u015bniewska",
                "operator:type": "private",
                "amenity": "kindergarten"
            }
        },
        {
            "id": 13745,
            "type": "Feature",
            "geometry": {
                "type": "Point",
                "coordinates": [
                    16.6911099,
                    53.7078
                ]
            },
            "properties": {
                "isced:level": "3",
                "ref:rspo": 13745,
                "official_name": "I Liceum Og\u00f3lnokszta\u0142c\u0105ce im. Ks. El\u017cbiety w Szczecinku",
                "name": "I Liceum Og\u00f3lnokszta\u0142c\u0105ce",
                "addr:country": "PL",
                "addr:postcode": "78-400",
                "addr:city": "Szczecinek",
                "addr:street": "ul. Ksi\u0119\u017cnej El\u017cbiety",
                "addr:housenumber": "1",
                "addr:teryt:simc": 10251,
                "addr:teryt:sym_ul": 950262,
                "contact:phone": "+48 943740032",
                "contact:email": "loela@poczta.onet.pl",
                "contact:website": "http:\/\/www.lo.szczecinek.pl",
                "ref:regon": "320420154",
                "ref:vatin": "PL6731295303",
                "operator": "Powiat Szczecinecki",
                "operator:type": "government",
                "amenity": "school"
            }
        },
        {
            "id": 34251,
            "type": "Feature",
            "geometry": {
                "type": "Point",
                "coordinates": [
                    16.69162,
                    53.70868
                ]
            },
            "properties": {
                "ref:rspo": 34251,
                "official_name": "Przedszkole Publiczne im. Kornela Makuszy\u0144skiego",
                "name": "Przedszkole Publiczne",
                "addr:country": "PL",
                "addr:postcode": "78-400",
                "addr:city": "Szczecinek",
                "addr:street": "ul. Ksi\u0119\u017cnej El\u017cbiety",
                "addr:housenumber": "2",
                "addr:teryt:simc": 10251,
                "addr:teryt:sym_ul": 950262,
                "contact:phone": "+48 943723552",
                "contact:email": "kmprzedszkole@wp.pl",
                "ref:regon": "320938520",
                "ref:vatin": "PL6731886754",
                "operator": "Miasto Szczecinek",
                "operator:type": "government",
                "amenity": "kindergarten"
            }
        },
        {
            "id": 129644,
            "type": "Feature",
            "geometry": {
                "type": "Point",
                "coordinates": [
                    16.69176,
                    53.70887
                ]
            },
            "properties": {
                "ref:rspo": 129644,
                "official_name": "Centrum Szkole\u0144 \"Ergon Plus\" w Szczecinku",
                "name": "Centrum Szkole\u0144 \"Ergon Plus\" w Szczecinku",
                "addr:country": "PL",
                "addr:postcode": "78-400",
                "addr:city": "Szczecinek",
                "addr:street": "ul. P. Skargi",
                "addr:housenumber": "5",
                "addr:teryt:simc": 33913,
                "addr:teryt:sym_ul": 950262,
                "contact:phone": "+48 668561429",
                "contact:email": "kontakt@bhp-szczecinek.pl",
                "contact:website": "http:\/\/www.bhp-szczecinek.pl",
                "ref:regon": "362701110",
                "operator": "Centrum Szkole\u0144 \"Ergon Plus\" S.c. Beata Bednarska - Ewa Macieszyn",
                "operator:type": "consortium",
                "fixme": "w zale\u017cno\u015bci od przedmiotu dzia\u0142alno\u015bci (np. amenity=training + training=*, amenity=dancing_school, amenity=language_school, amenity=music_school)"
            }
        },
        {
            "id": 82699,
            "type": "Feature",
            "geometry": {
                "type": "Point",
                "coordinates": [
                    16.69293,
                    53.70923
                ]
            },
            "properties": {
                "ref:rspo": 82699,
                "official_name": "Blue House",
                "name": "Blue House",
                "addr:country": "PL",
                "addr:postcode": "78-400",
                "addr:city": "Szczecinek",
                "addr:street": "pl. Wolno\u015bci",
                "addr:housenumber": "6",
                "addr:teryt:simc": 24685,
                "addr:teryt:sym_ul": 950262,
                "contact:phone": "+48 943721413",
                "contact:email": "szczecinek@bluehouse.pl",
                "contact:website": "http:\/\/www.bluehouse.pl",
                "ref:regon": "321299460",
                "operator": "Blue House S.c.  Anna \u0141\u0105gwa, S\u0142awomir Krakowski",
                "operator:type": "private",
                "fixme": "w zale\u017cno\u015bci od przedmiotu dzia\u0142alno\u015bci (np. amenity=training + training=*, amenity=dancing_school, amenity=language_school, amenity=music_school)"
            }
        },
        {
            "id": 276153,
            "type": "Feature",
            "geometry": {
                "type": "Point",
                "coordinates": [
                    16.68984,
                    53.70995
                ]
            },
            "properties": {
                "ref:rspo": 276153,
                "official_name": "Przedszkole Niepubliczne Edukoland Aleksandra Krawczyk",
                "name": "Przedszkole Niepubliczne Edukoland Aleksandra Krawczyk",
                "addr:country": "PL",
                "addr:postcode": "78-400",
                "addr:city": "Szczecinek",
                "addr:street": "ul. Podwale",
                "addr:housenumber": "1",
                "addr:teryt:simc": 16874,
                "addr:teryt:sym_ul": 950262,
                "contact:phone": "+48 604497506",
                "contact:email": "edukoland@edukoland.pl",
                "contact:website": "http:\/\/www.edukoland.pl",
                "ref:regon": "387004883",
                "operator": "Aleksandra Krawczyk",
                "operator:type": "private",
                "amenity": "kindergarten"
            }
        },
        {
            "id": 15499,
            "type": "Feature",
            "geometry": {
                "type": "Point",
                "coordinates": [
                    16.69286,
                    53.71004
                ]
            },
            "properties": {
                "ref:rspo": 15499,
                "official_name": "Pa\u0144stwowa Szko\u0142a Muzyczna I I II St. im. Oskara Kolberga w Szczecinku",
                "name": "Pa\u0144stwowa Szko\u0142a Muzyczna I I II St.",
                "addr:country": "PL",
                "addr:postcode": "78-400",
                "addr:city": "Szczecinek",
                "addr:street": "ul. 3 Maja",
                "addr:housenumber": "2",
                "addr:teryt:simc": 11937,
                "addr:teryt:sym_ul": 950262,
                "contact:phone": "+48 943743002",
                "contact:email": "szkolamuzycznaszczecinek@gmail.com",
                "contact:website": "http:\/\/www.muzycznaszczecinek.pl",
                "ref:regon": "000281950",
                "operator": "Ministerstwo Kultury I Dziedzictwa Narodowego",
                "operator:type": "public",
                "landuse": "education",
                "fixme": "amenity=school, amenity=college albo landuse=education w zale\u017cno\u015bci od tego, jakie plac\u00f3wki wchodz\u0105 w sk\u0142ad zespo\u0142u. Sprawd\u017a, kiedy stosowa\u0107 amenity=* a kiedy landuse=education.",
                "note": "Children RSPO: 104065;104066"
            }
        },
        {
            "id": 104065,
            "type": "Feature",
            "geometry": {
                "type": "Point",
                "coordinates": [
                    16.69286,
                    53.71001
                ]
            },
            "properties": {
                "ref:rspo": 104065,
                "official_name": "Szko\u0142a Muzyczna I St. w Szczecinku",
                "name": "Szko\u0142a Muzyczna I St. w Szczecinku",
                "addr:country": "PL",
                "addr:postcode": "78-400",
                "addr:city": "Szczecinek",
                "addr:street": "ul. 3 Maja",
                "addr:housenumber": "2",
                "addr:teryt:simc": 11937,
                "addr:teryt:sym_ul": 950262,
                "contact:phone": "+48 943743002",
                "contact:email": "szkolamuzycznaszczecinek@gmail.com",
                "contact:website": "http:\/\/www.muzycznaszczecinek.pl",
                "ref:regon": "321313153",
                "operator": "Ministerstwo Kultury I Dziedzictwa Narodowego",
                "operator:type": "public",
                "amenity": "music_school",
                "note": "Parent RSPO: 15499"
            }
        },
        {
            "id": 104066,
            "type": "Feature",
            "geometry": {
                "type": "Point",
                "coordinates": [
                    16.69286,
                    53.70998
                ]
            },
            "properties": {
                "ref:rspo": 104066,
                "official_name": "Szko\u0142a Muzyczna II St. w Szczecinku",
                "name": "Szko\u0142a Muzyczna II St. w Szczecinku",
                "addr:country": "PL",
                "addr:postcode": "78-400",
                "addr:city": "Szczecinek",
                "addr:street": "ul. 3 Maja",
                "addr:housenumber": "2",
                "addr:teryt:simc": 11937,
                "addr:teryt:sym_ul": 950262,
                "contact:phone": "+48 943743002",
                "contact:email": "szkolamuzycznaszczecinek@gmail.com",
                "contact:website": "http:\/\/www.muzycznaszczecinek.pl",
                "ref:regon": "321313182",
                "operator": "Ministerstwo Kultury I Dziedzictwa Narodowego",
                "operator:type": "public",
                "amenity": "music_school",
                "note": "Parent RSPO: 15499"
            }
        },
        {
            "id": 82698,
            "type": "Feature",
            "geometry": {
                "type": "Point",
                "coordinates": [
                    16.69272,
                    53.71069
                ]
            },
            "properties": {
                "ref:rspo": 82698,
                "official_name": "Zak\u0142ad Doskonalenia Zawodowego w S\u0142upsku O\u015brodek Kszta\u0142cenia Zawodowego w Szczecinku",
                "name": "Zak\u0142ad Doskonalenia Zawodowego w S\u0142upsku O\u015brodek Kszta\u0142cenia Zawodowego w Szczecinku",
                "addr:country": "PL",
                "addr:postcode": "78-400",
                "addr:city": "Szczecinek",
                "addr:street": "ul. 1-go Maja",
                "addr:housenumber": "14",
                "addr:teryt:simc": 30090,
                "addr:teryt:sym_ul": 950262,
                "contact:phone": "+48 943740692",
                "contact:email": "szczecinek@zdz.slupsk.pl",
                "contact:website": "http:\/\/www.zdz.slupsk.pl\/pl\/osrodki\/szczecinek.html",
                "ref:regon": "321299453",
                "operator": "Zak\u0142ad Doskonalenia Zawodowego W S\u0142upsku",
                "operator:type": "ngo",
                "fixme": "w zale\u017cno\u015bci od przedmiotu dzia\u0142alno\u015bci (np. amenity=training + training=*, amenity=dancing_school, amenity=language_school, amenity=music_school)"
            }
        },
        {
            "id": 16643,
            "type": "Feature",
            "geometry": {
                "type": "Point",
                "coordinates": [
                    16.68207,
                    53.71156
                ]
            },
            "properties": {
                "isced:level": "1;2",
                "ref:rspo": 16643,
                "official_name": "Szko\u0142a Podstawowa Nr 4 im. Armii Krajowej",
                "name": "Szko\u0142a Podstawowa Nr 4",
                "addr:country": "PL",
                "addr:postcode": "78-400",
                "addr:city": "Szczecinek",
                "addr:street": "ul. Jasna",
                "addr:housenumber": "2",
                "addr:teryt:simc": 7335,
                "addr:teryt:sym_ul": 950262,
                "contact:phone": "+48 943723589",
                "contact:email": "sp4szek@poczta.onet.pl",
                "contact:website": "http:\/\/sp4szczecinek.pl\/",
                "ref:regon": "320939732",
                "ref:vatin": "PL6731886731",
                "operator": "Miasto Szczecinek",
                "operator:type": "government",
                "amenity": "school"
            }
        },
        {
            "id": 13320,
            "type": "Feature",
            "geometry": {
                "type": "Point",
                "coordinates": [
                    16.69266,
                    53.71157
                ]
            },
            "properties": {
                "ref:rspo": 13320,
                "official_name": "Zesp\u00f3\u0142 Szk\u00f3\u0142 Nr 2 im. Ks. Warcis\u0142awa IV w Szczecinku",
                "name": "Zesp\u00f3\u0142 Szk\u00f3\u0142 Nr 2",
                "addr:country": "PL",
                "addr:postcode": "78-400",
                "addr:city": "Szczecinek",
                "addr:street": "ul. 1-go Maja",
                "addr:housenumber": "22",
                "addr:teryt:simc": 30090,
                "addr:teryt:sym_ul": 950262,
                "contact:phone": "+48 943740246",
                "contact:email": "sekretariat@zs2warcislaw.eu",
                "contact:website": "http:\/\/www.zs2warcislaw.eu",
                "ref:regon": "331096245",
                "ref:vatin": "PL6731021853",
                "operator": "Powiat Szczecinecki",
                "operator:type": "government",
                "landuse": "education",
                "fixme": "amenity=school, amenity=college albo landuse=education w zale\u017cno\u015bci od tego, jakie plac\u00f3wki wchodz\u0105 w sk\u0142ad zespo\u0142u. Sprawd\u017a, kiedy stosowa\u0107 amenity=* a kiedy landuse=education.",
                "note": "Children RSPO: 16885;69083;69085;70440;129006;274982"
            }
        },
        {
            "id": 16885,
            "type": "Feature",
            "geometry": {
                "type": "Point",
                "coordinates": [
                    16.69266,
                    53.71154
                ]
            },
            "properties": {
                "isced:level": "3",
                "ref:rspo": 16885,
                "official_name": "I Liceum Og\u00f3lnokszta\u0142c\u0105ce dla Doros\u0142ych w Zespole Szk\u00f3\u0142 Nr 2 im. Ks. Warcis\u0142awa IV w Szczecinku",
                "name": "I Liceum Og\u00f3lnokszta\u0142c\u0105ce dla Doros\u0142ych w Zespole Szk\u00f3\u0142 Nr 2",
                "addr:country": "PL",
                "addr:postcode": "78-400",
                "addr:city": "Szczecinek",
                "addr:street": "ul. 1-go Maja",
                "addr:housenumber": "22",
                "addr:teryt:simc": 30090,
                "addr:teryt:sym_ul": 950262,
                "contact:phone": "+48 943740246",
                "contact:email": "sekretariat@zs2warcislaw.eu",
                "contact:website": "http:\/\/www.zs2warcislaw.eu",
                "ref:regon": "321277167",
                "operator": "Powiat Szczecinecki",
                "operator:type": "government",
                "amenity": "school",
                "note": "Parent RSPO: 13320"
            }
        },
        {
            "id": 69083,
            "type": "Feature",
            "geometry": {
                "type": "Point",
                "coordinates": [
                    16.69266,
                    53.711510000000004
                ]
            },
            "properties": {
                "isced:level": "3",
                "ref:rspo": 69083,
                "official_name": "Technikum Zawodowe Nr 2 w Zespole Szk\u00f3\u0142 Nr 2 im. Ks. Warcis\u0142awa IV w Szczecinku",
                "name": "Technikum Zawodowe Nr 2 w Zespole Szk\u00f3\u0142 Nr 2",
                "addr:country": "PL",
                "addr:postcode": "78-400",
                "addr:city": "Szczecinek",
                "addr:street": "ul. 1-go Maja",
                "addr:housenumber": "22",
                "addr:teryt:simc": 30090,
                "addr:teryt:sym_ul": 950262,
                "contact:phone": "+48 943740246",
                "contact:email": "sekretariat@zs2warcislaw.eu",
                "contact:website": "http:\/\/www.zs2warcislaw.eu",
                "ref:regon": "331354925",
                "operator": "Powiat Szczecinecki",
                "operator:type": "government",
                "amenity": "school",
                "note": "Parent RSPO: 13320"
            }
        },
        {
            "id": 69085,
            "type": "Feature",
            "geometry": {
                "type": "Point",
                "coordinates": [
                    16.69266,
                    53.71148
                ]
            },
            "properties": {
                "isced:level": "3",
                "ref:rspo": 69085,
                "official_name": "Bran\u017cowa Szko\u0142a I Stopnia Nr 2 Z Oddzia\u0142ami Integracyjnymi w Zespole Szk\u00f3\u0142 Nr 2 im. Ks. Warcis\u0142awa IV w Szczecinku",
                "name": "Bran\u017cowa Szko\u0142a I Stopnia Nr 2 Z Oddzia\u0142ami Integracyjnymi w Zespole Szk\u00f3\u0142 Nr 2",
                "addr:country": "PL",
                "addr:postcode": "78-400",
                "addr:city": "Szczecinek",
                "addr:street": "ul. 1-go Maja",
                "addr:housenumber": "22",
                "addr:teryt:simc": 30090,
                "addr:teryt:sym_ul": 950262,
                "contact:phone": "+48 943740246",
                "contact:email": "sekretariat@zs2warcislaw.eu",
                "contact:website": "http:\/\/www.zs2warcislaw.eu",
                "ref:regon": "331354894",
                "operator": "Powiat Szczecinecki",
                "operator:type": "government",
                "amenity": "school",
                "note": "Parent RSPO: 13320"
            }
        },
        {
            "id": 70440,
            "type": "Feature",
            "geometry": {
                "type": "Point",
                "coordinates": [
                    16.69266,
                    53.71145
                ]
            },
            "properties": {
                "isced:level": "4",
                "ref:rspo": 70440,
                "official_name": "Szko\u0142a Policealna Nr 2 w Zespole Szk\u00f3\u0142 Nr 2 im. Ks. Warcis\u0142awa IV w Szczecinku",
                "name": "Szko\u0142a Policealna Nr 2 w Zespole Szk\u00f3\u0142 Nr 2",
                "addr:country": "PL",
                "addr:postcode": "78-400",
                "addr:city": "Szczecinek",
                "addr:street": "ul. 1-go Maja",
                "addr:housenumber": "22",
                "addr:teryt:simc": 30090,
                "addr:teryt:sym_ul": 950262,
                "contact:phone": "+48 943740246",
                "contact:email": "sekretariat@zs2warcislaw.eu",
                "contact:website": "http:\/\/www.zs2warcislaw.eu",
                "ref:regon": "320411669",
                "operator": "Powiat Szczecinecki",
                "operator:type": "government",
                "amenity": "college",
                "note": "Parent RSPO: 13320"
            }
        },
        {
            "id": 129006,
            "type": "Feature",
            "geometry": {
                "type": "Point",
                "coordinates": [
                    16.69266,
                    53.711420000000004
                ]
            },
            "properties": {
                "ref:rspo": 129006,
                "official_name": "Centrum Kszta\u0142cenia Zawodowego w Zespole Szk\u00f3\u0142 Nr 2 im. Ks. Warcis\u0142awa IV w Szczecinku",
                "name": "Centrum Kszta\u0142cenia Zawodowego w Zespole Szk\u00f3\u0142 Nr 2",
                "addr:country": "PL",
                "addr:postcode": "78-400",
                "addr:city": "Szczecinek",
                "addr:street": "ul. 1-go Maja",
                "addr:housenumber": "22",
                "addr:teryt:simc": 30090,
                "addr:teryt:sym_ul": 950262,
                "contact:phone": "+48 943740246",
                "contact:email": "sekretariat@zs2warcislaw.eu",
                "contact:website": "http:\/\/www.zs2warcislaw.eu",
                "ref:regon": "362444328",
                "operator": "Powiat Szczecinecki",
                "operator:type": "government",
                "fixme": "w zale\u017cno\u015bci od przedmiotu dzia\u0142alno\u015bci (np. amenity=training + training=*, amenity=dancing_school, amenity=language_school, amenity=music_school) albo amenity=school, amenity=college, albo landuse=education w zale\u017cno\u015bci od tego, jakie plac\u00f3wki wchodz\u0105 w sk\u0142ad zespo\u0142u. Sprawd\u017a, kiedy stosowa\u0107 amenity=* a kiedy landuse=education.",
                "note": "Parent RSPO: 13320"
            }
        },
        {
            "id": 274982,
            "type": "Feature",
            "geometry": {
                "type": "Point",
                "coordinates": [
                    16.69266,
                    53.71139
                ]
            },
            "properties": {
                "isced:level": "3",
                "ref:rspo": 274982,
                "official_name": "Bran\u017cowa Szko\u0142a II Stopnia Nr 2 w Zespole Szk\u00f3\u0142 Nr 2 im. Ks. Warcis\u0142awa IV w Szczecinku",
                "name": "Bran\u017cowa Szko\u0142a II Stopnia Nr 2 w Zespole Szk\u00f3\u0142 Nr 2",
                "addr:country": "PL",
                "addr:postcode": "78-400",
                "addr:city": "Szczecinek",
                "addr:street": "ul. 1-go Maja",
                "addr:housenumber": "22",
                "addr:teryt:simc": 30090,
                "addr:teryt:sym_ul": 950262,
                "contact:phone": "+48 943740246",
                "contact:email": "sekretariat@zs2warcislaw.eu",
                "contact:website": "http:\/\/zs2warcislaw.eu",
                "ref:regon": "386464750",
                "operator": "Powiat Szczecinecki",
                "operator:type": "government",
                "amenity": "school",
                "note": "Parent RSPO: 13320"
            }
        },
        {
            "id": 38476,
            "type": "Feature",
            "geometry": {
                "type": "Point",
                "coordinates": [
                    16.68386,
                    53.7123
                ]
            },
            "properties": {
                "ref:rspo": 38476,
                "official_name": "Przedszkole Niepubliczne \"Nutka\" Alina Zag\u00f3rska",
                "name": "Przedszkole Niepubliczne \"Nutka\" Alina Zag\u00f3rska",
                "addr:country": "PL",
                "addr:postcode": "78-400",
                "addr:city": "Szczecinek",
                "addr:street": "ul. Ko\u015bciuszki",
                "addr:housenumber": "23d",
                "addr:teryt:simc": 9572,
                "addr:teryt:sym_ul": 950262,
                "contact:phone": "+48 943723513",
                "contact:email": "przedszkole@nutka.com.pl",
                "contact:website": "http:\/\/www.nutka.com.pl",
                "ref:regon": "321287770",
                "ref:vatin": "PL6731847872",
                "operator": "Alina Zag\u00f3rska",
                "operator:type": "private",
                "amenity": "kindergarten"
            }
        },
        {
            "id": 38477,
            "type": "Feature",
            "geometry": {
                "type": "Point",
                "coordinates": [
                    16.68055,
                    53.71442
                ]
            },
            "properties": {
                "ref:rspo": 38477,
                "official_name": "Przedszkole I \u017b\u0142obek Niepubliczne \"T\u0119cza\" M.berna\u015b, P.m\u0119czykowska S.c.",
                "name": "Przedszkole I \u017b\u0142obek Niepubliczne \"T\u0119cza\" M.berna\u015b, P.m\u0119czykowska S.c.",
                "addr:country": "PL",
                "addr:postcode": "78-400",
                "addr:city": "Szczecinek",
                "addr:street": "ul. Nowa",
                "addr:housenumber": "2",
                "addr:teryt:simc": 14330,
                "addr:teryt:sym_ul": 950262,
                "contact:phone": "+48 943740540",
                "contact:email": "nowatecza@interia.pl",
                "contact:website": "http:\/\/www.przedszkoletecza.info",
                "ref:regon": "321287757",
                "ref:vatin": "PL6731847889",
                "operator": "Ma\u0142gorzata Berna\u015b",
                "operator:type": "private",
                "amenity": "kindergarten"
            }
        },
        {
            "id": 275451,
            "type": "Feature",
            "geometry": {
                "type": "Point",
                "coordinates": [
                    16.70428,
                    53.71519
                ]
            },
            "properties": {
                "ref:rspo": 275451,
                "official_name": "Przedszkole Angloj\u0119zyczne 4Kids",
                "name": "Przedszkole Angloj\u0119zyczne 4Kids",
                "addr:country": "PL",
                "addr:postcode": "78-400",
                "addr:city": "Szczecinek",
                "addr:street": "ul. Wodoci\u0105gowa",
                "addr:housenumber": "6c",
                "addr:teryt:simc": 24557,
                "addr:teryt:sym_ul": 950262,
                "contact:phone": "+48 695741450",
                "contact:email": "4kids.szczecinek@gmail.com",
                "contact:website": "http:\/\/4kids-szczecinek.pl",
                "ref:regon": "386921637",
                "operator": "Justyna Korytkowska",
                "operator:type": "private",
                "amenity": "kindergarten"
            }
        },
        {
            "id": 69075,
            "type": "Feature",
            "geometry": {
                "type": "Point",
                "coordinates": [
                    16.68718,
                    53.71665
                ]
            },
            "properties": {
                "ref:rspo": 69075,
                "official_name": "Poradnia Psychologiczno-Pedagogiczna w Szczecinku",
                "name": "Poradnia Psychologiczno-Pedagogiczna w Szczecinku",
                "addr:country": "PL",
                "addr:postcode": "78-400",
                "addr:city": "Szczecinek",
                "addr:street": "ul. Wiatraczna",
                "addr:housenumber": "1",
                "addr:teryt:simc": 23972,
                "addr:teryt:sym_ul": 950262,
                "contact:phone": "+48 943743722",
                "contact:email": "sekretariat@poradnia.szczecinek.pl",
                "contact:website": "http:\/\/www.poradnia.szczecinek.pl",
                "ref:regon": "331096570",
                "operator": "Powiat Szczecinecki",
                "operator:type": "government",
                "healthcare": "counselling",
                "counselling_type": "education",
                "fixme": "w zale\u017cno\u015bci od przedmiotu dzia\u0142alno\u015bci (np. healthcare=counselling + counselling_type=education albo healthcare=psychotherapist)"
            }
        },
        {
            "id": 79040,
            "type": "Feature",
            "geometry": {
                "type": "Point",
                "coordinates": [
                    16.66366,
                    53.71695
                ]
            },
            "properties": {
                "ref:rspo": 79040,
                "official_name": "Bursa im. \u015aw. Stanis\u0142awa Kostki",
                "name": "Bursa",
                "addr:country": "PL",
                "addr:postcode": "78-400",
                "addr:city": "Szczecinek",
                "addr:street": "ul. Ko\u015bciuszki",
                "addr:housenumber": "91",
                "addr:teryt:simc": 9572,
                "addr:teryt:sym_ul": 950262,
                "contact:phone": "+48 943745900",
                "contact:email": "bursa-szczecinek@caritas.pl",
                "contact:website": "http:\/\/www.bursa.szczecinek.caritas.pl",
                "ref:regon": "321300305",
                "operator": "Caritas Diecezji Koszali\u0144sko-Ko\u0142obrzeskiej",
                "operator:type": "religious",
                "building": "dormitory"
            }
        },
        {
            "id": 89924,
            "type": "Feature",
            "geometry": {
                "type": "Point",
                "coordinates": [
                    16.68409,
                    53.71723
                ]
            },
            "properties": {
                "isced:level": "1;2",
                "ref:rspo": 89924,
                "official_name": "Szko\u0142a Podstawowa Nr 5 im. Jana III Sobieskiego",
                "name": "Szko\u0142a Podstawowa Nr 5",
                "addr:country": "PL",
                "addr:postcode": "78-400",
                "addr:city": "Szczecinek",
                "addr:street": "ul. Wiatraczna",
                "addr:housenumber": "5",
                "addr:teryt:simc": 23972,
                "addr:teryt:sym_ul": 950262,
                "contact:phone": "+48 943740707",
                "contact:email": "sp5szczecinek@interia.eu",
                "ref:regon": "320938595",
                "ref:vatin": "PL6731886777",
                "operator": "Miasto Szczecinek",
                "operator:type": "government",
                "amenity": "school"
            }
        },
        {
            "id": 92060,
            "type": "Feature",
            "geometry": {
                "type": "Point",
                "coordinates": [
                    16.68409,
                    53.7172
                ]
            },
            "properties": {
                "ref:rspo": 92060,
                "official_name": "Prywatne Centrum Edukacyjne",
                "name": "Prywatne Centrum Edukacyjne",
                "addr:country": "PL",
                "addr:postcode": "78-400",
                "addr:city": "Szczecinek",
                "addr:street": "ul. Wiatraczna",
                "addr:housenumber": "5",
                "addr:teryt:simc": 23972,
                "addr:teryt:sym_ul": 950262,
                "contact:phone": "+48 943722648",
                "contact:email": "sekretariat@szkolaprywatna-szczecinek.pl",
                "ref:regon": "321308235",
                "operator": "Alicja Wojciechowska",
                "operator:type": "private",
                "fixme": "w zale\u017cno\u015bci od przedmiotu dzia\u0142alno\u015bci (np. amenity=training + training=*, amenity=dancing_school, amenity=language_school, amenity=music_school)"
            }
        },
        {
            "id": 13321,
            "type": "Feature",
            "geometry": {
                "type": "Point",
                "coordinates": [
                    16.68237,
                    53.71831
                ]
            },
            "properties": {
                "ref:rspo": 13321,
                "official_name": "Zesp\u00f3\u0142 Szk\u00f3\u0142 Technicznych w Szczecinku",
                "name": "Zesp\u00f3\u0142 Szk\u00f3\u0142 Technicznych w Szczecinku",
                "addr:country": "PL",
                "addr:postcode": "78-400",
                "addr:city": "Szczecinek",
                "addr:street": "ul. Koszali\u0144ska",
                "addr:housenumber": "81",
                "addr:teryt:simc": 9509,
                "addr:teryt:sym_ul": 950262,
                "contact:phone": "+48 943740441",
                "contact:email": "zst.szczecinek@interia.pl",
                "contact:website": "https:\/\/zstszczecinek.edupage.org",
                "ref:regon": "331096185",
                "ref:vatin": "PL6731262947",
                "operator": "Powiat Szczecinecki",
                "operator:type": "government",
                "landuse": "education",
                "fixme": "amenity=school, amenity=college albo landuse=education w zale\u017cno\u015bci od tego, jakie plac\u00f3wki wchodz\u0105 w sk\u0142ad zespo\u0142u. Sprawd\u017a, kiedy stosowa\u0107 amenity=* a kiedy landuse=education.",
                "note": "Children RSPO: 16886;69198;69201;69203;275013"
            }
        },
        {
            "id": 16886,
            "type": "Feature",
            "geometry": {
                "type": "Point",
                "coordinates": [
                    16.68237,
                    53.71828
                ]
            },
            "properties": {
                "isced:level": "3",
                "ref:rspo": 16886,
                "official_name": "Ii Liceum Og\u00f3lnokszta\u0142c\u0105ce dla Doros\u0142ych w Zespole Szk\u00f3\u0142 Technicznych w Szczecinku",
                "name": "Ii Liceum Og\u00f3lnokszta\u0142c\u0105ce dla Doros\u0142ych w Zespole Szk\u00f3\u0142 Technicznych w Szczecinku",
                "addr:country": "PL",
                "addr:postcode": "78-400",
                "addr:city": "Szczecinek",
                "addr:street": "ul. Koszali\u0144ska",
                "addr:housenumber": "81",
                "addr:teryt:simc": 9509,
                "addr:teryt:sym_ul": 950262,
                "contact:phone": "+48 943740441",
                "contact:email": "zst.szczecinek@interia.pl",
                "contact:website": "https:\/\/zstszczecinek.edupage.org",
                "ref:regon": "321277233",
                "operator": "Powiat Szczecinecki",
                "operator:type": "government",
                "amenity": "school",
                "note": "Parent RSPO: 13321"
            }
        },
        {
            "id": 69198,
            "type": "Feature",
            "geometry": {
                "type": "Point",
                "coordinates": [
                    16.68237,
                    53.718250000000005
                ]
            },
            "properties": {
                "isced:level": "3",
                "ref:rspo": 69198,
                "official_name": "Technikum Zawodowe Nr 4 w Zespole Szk\u00f3\u0142 Technicznych w Szczecinku",
                "name": "Technikum Zawodowe Nr 4 w Zespole Szk\u00f3\u0142 Technicznych w Szczecinku",
                "addr:country": "PL",
                "addr:postcode": "78-400",
                "addr:city": "Szczecinek",
                "addr:street": "ul. Koszali\u0144ska",
                "addr:housenumber": "81",
                "addr:teryt:simc": 9509,
                "addr:teryt:sym_ul": 950262,
                "contact:phone": "+48 943740441",
                "contact:email": "zst.szczecinek@interia.pl",
                "contact:website": "https:\/\/zstszczecinek.edupage.org",
                "ref:regon": "331358515",
                "operator": "Powiat Szczecinecki",
                "operator:type": "government",
                "amenity": "school",
                "note": "Parent RSPO: 13321"
            }
        },
        {
            "id": 69201,
            "type": "Feature",
            "geometry": {
                "type": "Point",
                "coordinates": [
                    16.68237,
                    53.71822
                ]
            },
            "properties": {
                "isced:level": "3",
                "ref:rspo": 69201,
                "official_name": "Bran\u017cowa Szko\u0142a I Stopnia Nr 1 w Zespole Szk\u00f3\u0142 Technicznych w Szczecinku",
                "name": "Bran\u017cowa Szko\u0142a I Stopnia Nr 1 w Zespole Szk\u00f3\u0142 Technicznych w Szczecinku",
                "addr:country": "PL",
                "addr:postcode": "78-400",
                "addr:city": "Szczecinek",
                "addr:street": "ul. Koszali\u0144ska",
                "addr:housenumber": "81",
                "addr:teryt:simc": 9509,
                "addr:teryt:sym_ul": 950262,
                "contact:phone": "+48 943740441",
                "contact:email": "zst.szczecinek@interia.pl",
                "contact:website": "https:\/\/zstszczecinek.edupage.org",
                "ref:regon": "331358490",
                "operator": "Powiat Szczecinecki",
                "operator:type": "government",
                "amenity": "school",
                "note": "Parent RSPO: 13321"
            }
        },
        {
            "id": 69203,
            "type": "Feature",
            "geometry": {
                "type": "Point",
                "coordinates": [
                    16.68237,
                    53.71819
                ]
            },
            "properties": {
                "isced:level": "4",
                "ref:rspo": 69203,
                "official_name": "Szko\u0142a Policealna Nr 4 w Zespole Szk\u00f3\u0142 Technicznych w Szczecinku",
                "name": "Szko\u0142a Policealna Nr 4 w Zespole Szk\u00f3\u0142 Technicznych w Szczecinku",
                "addr:country": "PL",
                "addr:postcode": "78-400",
                "addr:city": "Szczecinek",
                "addr:street": "ul. Koszali\u0144ska",
                "addr:housenumber": "81",
                "addr:teryt:simc": 9509,
                "addr:teryt:sym_ul": 950262,
                "contact:phone": "+48 943740441",
                "contact:email": "zst.szczecinek@interia.pl",
                "contact:website": "https:\/\/zstszczecinek.edupage.org",
                "ref:regon": "320417867",
                "operator": "Powiat Szczecinecki",
                "operator:type": "government",
                "amenity": "college",
                "note": "Parent RSPO: 13321"
            }
        },
        {
            "id": 275013,
            "type": "Feature",
            "geometry": {
                "type": "Point",
                "coordinates": [
                    16.68237,
                    53.718160000000005
                ]
            },
            "properties": {
                "isced:level": "3",
                "ref:rspo": 275013,
                "official_name": "Bran\u017cowa Szko\u0142a II Stopnia Nr 1 w Zespole Szk\u00f3\u0142 Technicznych w Szczecinku",
                "name": "Bran\u017cowa Szko\u0142a II Stopnia Nr 1 w Zespole Szk\u00f3\u0142 Technicznych w Szczecinku",
                "addr:country": "PL",
                "addr:postcode": "78-400",
                "addr:city": "Szczecinek",
                "addr:street": "ul. Koszali\u0144ska",
                "addr:housenumber": "81",
                "addr:teryt:simc": 9509,
                "addr:teryt:sym_ul": 950262,
                "contact:phone": "+48 943740441",
                "contact:email": "zst.szczecinek@interia.pl",
                "contact:website": "http:\/\/zstszczecinek.edupage.org\/",
                "ref:regon": "386499428",
                "operator": "Powiat Szczecinecki",
                "operator:type": "government",
                "amenity": "school",
                "note": "Parent RSPO: 13321"
            }
        },
        {
            "id": 38479,
            "type": "Feature",
            "geometry": {
                "type": "Point",
                "coordinates": [
                    16.68072,
                    53.71916
                ]
            },
            "properties": {
                "ref:rspo": 38479,
                "official_name": "Niepubliczny Punkt Przedszkolny \"Smerf\"",
                "name": "Niepubliczny Punkt Przedszkolny \"Smerf\"",
                "addr:country": "PL",
                "addr:postcode": "78-400",
                "addr:city": "Szczecinek",
                "addr:street": "ul. Koszali\u0144ska",
                "addr:housenumber": "64",
                "addr:teryt:simc": 9509,
                "addr:teryt:sym_ul": 950262,
                "contact:phone": "+48 601759689",
                "contact:email": "przedszkolesmerf@wp.pl",
                "ref:regon": "321288053",
                "ref:vatin": "PL6731438607",
                "operator": "Krystyna Bartosik",
                "operator:type": "private",
                "amenity": "kindergarten"
            }
        },
        {
            "id": 16645,
            "type": "Feature",
            "geometry": {
                "type": "Point",
                "coordinates": [
                    16.6696,
                    53.71964
                ]
            },
            "properties": {
                "isced:level": "1;2",
                "ref:rspo": 16645,
                "official_name": "Szko\u0142a Podstawowa Nr 7 im. Noblist\u00f3w Polskich",
                "name": "Szko\u0142a Podstawowa Nr 7",
                "addr:country": "PL",
                "addr:postcode": "78-400",
                "addr:city": "Szczecinek",
                "addr:street": "ul. Krakowska",
                "addr:housenumber": "1",
                "addr:teryt:simc": 9796,
                "addr:teryt:sym_ul": 950262,
                "contact:phone": "+48 943745711",
                "contact:email": "sp7szczecinek@wp.pl",
                "contact:website": "http:\/\/www.sp7szczecinek.eu",
                "ref:regon": "320939761",
                "ref:vatin": "PL6731886702",
                "operator": "Miasto Szczecinek",
                "operator:type": "government",
                "amenity": "school"
            }
        },
        {
            "id": 73087,
            "type": "Feature",
            "geometry": {
                "type": "Point",
                "coordinates": [
                    16.6696,
                    53.719609999999996
                ]
            },
            "properties": {
                "isced:level": "3",
                "ref:rspo": 73087,
                "official_name": "Prywatne Liceum Og\u00f3lnokszta\u0142c\u0105ce Zaoczne dla Doros\u0142ych w Szczecinku",
                "name": "Prywatne Liceum Og\u00f3lnokszta\u0142c\u0105ce Zaoczne dla Doros\u0142ych w Szczecinku",
                "addr:country": "PL",
                "addr:postcode": "78-400",
                "addr:city": "Szczecinek",
                "addr:street": "ul. Krakowska",
                "addr:housenumber": "1",
                "addr:teryt:simc": 9796,
                "addr:teryt:sym_ul": 950262,
                "contact:phone": "+48 943745043",
                "contact:email": "kontakt@szkolaszczecinek.pl",
                "contact:website": "http:\/\/www.szkolaszczecinek.pl",
                "ref:regon": "321296064",
                "ref:vatin": "PL6731598587",
                "operator": "Stanis\u0142awa Balcerzak",
                "operator:type": "private",
                "amenity": "school"
            }
        },
        {
            "id": 73090,
            "type": "Feature",
            "geometry": {
                "type": "Point",
                "coordinates": [
                    16.6696,
                    53.71958
                ]
            },
            "properties": {
                "isced:level": "4",
                "ref:rspo": 73090,
                "official_name": "Prywatna Szko\u0142a Policealna w Szczecinku",
                "name": "Prywatna Szko\u0142a Policealna w Szczecinku",
                "addr:country": "PL",
                "addr:postcode": "78-400",
                "addr:city": "Szczecinek",
                "addr:street": "ul. Krakowska",
                "addr:housenumber": "1",
                "addr:teryt:simc": 9796,
                "addr:teryt:sym_ul": 950262,
                "contact:phone": "+48 943745043",
                "contact:email": "kontakt@szkolaszczecinek.pl",
                "contact:website": "http:\/\/www.szkolaszczecinek.pl",
                "ref:regon": "321296213",
                "operator": "Stanis\u0142awa Balcerzak",
                "operator:type": "private",
                "amenity": "college"
            }
        },
        {
            "id": 130718,
            "type": "Feature",
            "geometry": {
                "type": "Point",
                "coordinates": [
                    16.6696,
                    53.71955
                ]
            },
            "properties": {
                "ref:rspo": 130718,
                "official_name": "Niepubliczna Poradnia Psychologiczno-Pedagogiczna Centrum Wspierania Rozwoju I Rehabilitacji",
                "name": "Niepubliczna Poradnia Psychologiczno-Pedagogiczna Centrum Wspierania Rozwoju I Rehabilitacji",
                "addr:country": "PL",
                "addr:postcode": "78-400",
                "addr:city": "Szczecinek",
                "addr:street": "ul. Krakowska",
                "addr:housenumber": "1",
                "addr:teryt:simc": 9796,
                "addr:teryt:sym_ul": 950262,
                "contact:phone": "+48 943745043",
                "contact:email": "kontakt@szkolaszczecinek.pl",
                "ref:regon": "364411557",
                "operator": "Stanis\u0142awa Balcerzak",
                "operator:type": "private",
                "healthcare": "counselling",
                "counselling_type": "education",
                "fixme": "w zale\u017cno\u015bci od przedmiotu dzia\u0142alno\u015bci (np. healthcare=counselling + counselling_type=education albo healthcare=psychotherapist)"
            }
        },
        {
            "id": 263239,
            "type": "Feature",
            "geometry": {
                "type": "Point",
                "coordinates": [
                    16.6696,
                    53.719519999999996
                ]
            },
            "properties": {
                "isced:level": "1;2",
                "ref:rspo": 263239,
                "official_name": "Prywatna Szko\u0142a Podstawowa dla Doros\u0142ych w Szczecinku",
                "name": "Prywatna Szko\u0142a Podstawowa dla Doros\u0142ych w Szczecinku",
                "addr:country": "PL",
                "addr:postcode": "78-400",
                "addr:city": "Szczecinek",
                "addr:street": "ul. Krakowska",
                "addr:housenumber": "1E",
                "addr:teryt:simc": 9796,
                "addr:teryt:sym_ul": 950262,
                "contact:phone": "+48 943745043",
                "contact:email": "kontakt@szkolaszczecinek.pl",
                "contact:website": "http:\/\/www.szkolaszczecinek.pl",
                "ref:regon": "368175310",
                "operator": "Dorota Kolasi\u0144ski",
                "operator:type": "private",
                "amenity": "school"
            }
        },
        {
            "id": 275143,
            "type": "Feature",
            "geometry": {
                "type": "Point",
                "coordinates": [
                    16.6696,
                    53.71949
                ]
            },
            "properties": {
                "ref:rspo": 275143,
                "official_name": "Niepubliczne Centrum Kszta\u0142cenia Ustawicznego w Szczecinku",
                "name": "Niepubliczne Centrum Kszta\u0142cenia Ustawicznego w Szczecinku",
                "addr:country": "PL",
                "addr:postcode": "78-400",
                "addr:city": "Szczecinek",
                "addr:street": "ul. Krakowska",
                "addr:housenumber": "1",
                "addr:teryt:simc": 9796,
                "addr:teryt:sym_ul": 950262,
                "contact:phone": "+48 943745043",
                "contact:email": "kontakt@szkolaszczecinek.pl",
                "ref:regon": "386614622",
                "operator": "Stanis\u0142awa Balcerzak",
                "operator:type": "private",
                "fixme": "w zale\u017cno\u015bci od przedmiotu dzia\u0142alno\u015bci (np. amenity=training + training=*, amenity=dancing_school, amenity=language_school, amenity=music_school)"
            }
        },
        {
            "id": 278716,
            "type": "Feature",
            "geometry": {
                "type": "Point",
                "coordinates": [
                    16.6696,
                    53.71946
                ]
            },
            "properties": {
                "isced:level": "1;2",
                "ref:rspo": 278716,
                "official_name": "Prywatna Szko\u0142a Podstawowa w Szczecinku",
                "name": "Prywatna Szko\u0142a Podstawowa w Szczecinku",
                "addr:country": "PL",
                "addr:postcode": "78-400",
                "addr:city": "Szczecinek",
                "addr:street": "ul. Krakowska",
                "addr:housenumber": "1E",
                "addr:teryt:simc": 9796,
                "addr:teryt:sym_ul": 950262,
                "contact:phone": "+48 943745043",
                "contact:email": "kontakt@szkolaszczecinek.pl",
                "contact:website": "http:\/\/www.szkolaszczecinek.pl",
                "ref:regon": "520044911",
                "operator": "Dorota Kolasi\u0144ski",
                "operator:type": "private",
                "amenity": "school"
            }
        },
        {
            "id": 38473,
            "type": "Feature",
            "geometry": {
                "type": "Point",
                "coordinates": [
                    16.66349,
                    53.71993
                ]
            },
            "properties": {
                "ref:rspo": 38473,
                "official_name": "Przedszkole Niepubliczne \"U Cioci Gosi\" M.kozakiewicz, B.kwiatkowska S.c.",
                "name": "Przedszkole Niepubliczne \"U Cioci Gosi\" M.kozakiewicz, B.kwiatkowska S.c.",
                "addr:country": "PL",
                "addr:postcode": "78-400",
                "addr:city": "Szczecinek",
                "addr:street": "ul. Bia\u0142ogardzka",
                "addr:housenumber": "6",
                "addr:teryt:simc": 1176,
                "addr:teryt:sym_ul": 950262,
                "contact:phone": "+48 943745592",
                "contact:email": "ciocia.gosia@vp.pl",
                "ref:regon": "321287355",
                "ref:vatin": "PL6731901494",
                "operator": "Ma\u0142gorzata Kozakiewicz",
                "operator:type": "private",
                "amenity": "kindergarten"
            }
        },
        {
            "id": 278931,
            "type": "Feature",
            "geometry": {
                "type": "Point",
                "coordinates": [
                    16.65876,
                    53.72133
                ]
            },
            "properties": {
                "ref:rspo": 278931,
                "official_name": "Niepubliczne Przedszkole J\u0119zykowo-Artystyczne \"Bajkowa Kraina\"",
                "name": "Niepubliczne Przedszkole J\u0119zykowo-Artystyczne \"Bajkowa Kraina\"",
                "addr:country": "PL",
                "addr:postcode": "78-400",
                "addr:city": "Szczecinek",
                "addr:street": "ul. gen. S. Grota-Roweckiego",
                "addr:housenumber": "47a",
                "addr:teryt:simc": 34242,
                "addr:teryt:sym_ul": 950262,
                "contact:phone": "+48 728428021",
                "contact:email": "kontakt@zlobekszczecinek.pl",
                "contact:website": "http:\/\/www.zlobekszczecinek.pl",
                "ref:regon": "520223430",
                "operator": "\"Bajkowa Kraina\" Joanna Dr\u0105\u017cewska",
                "operator:type": "consortium",
                "amenity": "kindergarten"
            }
        }
    ]
}