{"type":"FeatureCollection","features":[{"id":9250,"type":"Feature","geometry":{"type":"Point","coordinates":[16.7255551,53.6522482]},"properties":{"isced:level":"1;2","ref:rspo":9250,"official_name":"Szko\u0142a Podstawowa im.tadeusza Ko\u015bciuszki w Turowie","name":"Szko\u0142a Podstawowa im.tadeusza Ko\u015bciuszki w Turowie","addr:country":"PL","addr:postcode":"78-400","addr:place":"Turowo","addr:housenumber":"78","addr:teryt:sym_ul":312550,"contact:phone":"+48 947137472","contact:email":"zespol.szkolturowo@op.pl","contact:website":"http:\/\/www.zsturowo.pl","ref:regon":"001177172","ref:vatin":"PL6731901152","operator":"Gmina Szczecinek","operator:type":"government","amenity":"school"}},{"id":9456,"type":"Feature","geometry":{"type":"Point","coordinates":[16.81037,53.67535]},"properties":{"isced:level":"1;2","ref:rspo":9456,"official_name":"Szko\u0142a Podstawowa w \u017b\u00f3\u0142tnicy","name":"Szko\u0142a Podstawowa w \u017b\u00f3\u0142tnicy","addr:country":"PL","addr:postcode":"78-400","addr:city":"\u017b\u00f3\u0142tnica","addr:street":"ul. Szkolna","addr:housenumber":"13","addr:teryt:simc":21970,"addr:teryt:sym_ul":312656,"contact:phone":"+48 943741079","contact:email":"sp_zoltnica@op.pl","contact:website":"http:\/\/www.spzoltnica.szkolna.net","ref:regon":"001177189","ref:vatin":"PL6731665065","operator":"Gmina Szczecinek","operator:type":"government","amenity":"school"}},{"id":9518,"type":"Feature","geometry":{"type":"Point","coordinates":[16.58449,53.7276141]},"properties":{"isced:level":"1;2","ref:rspo":9518,"official_name":"Szko\u0142a Podstawowa w Pars\u0119cku","name":"Szko\u0142a Podstawowa w Pars\u0119cku","addr:country":"PL","addr:postcode":"78-400","addr:place":"Pars\u0119cko","addr:housenumber":"69","addr:teryt:sym_ul":312403,"contact:phone":"+48 943757624","contact:email":"szkolaparsecko@poczta.onet.pl","ref:regon":"001177166","ref:vatin":"PL6731665013","operator":"Gmina Szczecinek","operator:type":"government","amenity":"school"}},{"id":277715,"type":"Feature","geometry":{"type":"Point","coordinates":[16.79955,53.73513]},"properties":{"isced:level":"1;2","ref:rspo":277715,"official_name":"Szko\u0142a Podstawowa w Gwdzie Wielkiej","name":"Szko\u0142a Podstawowa w Gwdzie Wielkiej","addr:country":"PL","addr:postcode":"78-422","addr:city":"Gwda Wielka","addr:street":"ul. Polna","addr:housenumber":"21","addr:teryt:simc":17011,"addr:teryt:sym_ul":312194,"contact:phone":"+48 943757125","contact:email":"szkolagwdawielka@interia.pl","contact:website":"http:\/\/www.gwdawielka.szkolna.net","ref:regon":"389392027","operator":"Stowarzyszenie \"Szko\u0142a Z Pasj\u0105\"","operator:type":"ngo","amenity":"school"}},{"id":9433,"type":"Feature","geometry":{"type":"Point","coordinates":[16.608197,53.8586017]},"properties":{"isced:level":"1;2","ref:rspo":9433,"official_name":"Szko\u0142a Podstawowa w Wierzchowie","name":"Szko\u0142a Podstawowa w Wierzchowie","addr:country":"PL","addr:postcode":"78-411","addr:place":"Wierzchowo","addr:housenumber":"40","addr:teryt:sym_ul":312580,"contact:phone":"+48 943757796","contact:email":"eduwierzchowo@wp.pl","ref:regon":"001177195","operator":"Gmina Szczecinek","operator:type":"government","amenity":"school"}}]}