{
    "type": "FeatureCollection",
    "features": [
        {
            "id": 5951,
            "type": "Feature",
            "geometry": {
                "type": "Point",
                "coordinates": [
                    16.54728,
                    53.5834
                ]
            },
            "properties": {
                "isced:level": "1;2",
                "ref:rspo": 5951,
                "official_name": "Szko\u0142a Podstawowa im.jana Nowaka Jeziora\u0144skiego",
                "name": "Szko\u0142a Podstawowa im.jana Nowaka Jeziora\u0144skiego",
                "addr:country": "PL",
                "addr:postcode": "78-449",
                "addr:city": "Borne Sulinowo",
                "addr:street": "Boles\u0142awa Chrobrego",
                "addr:housenumber": "25",
                "addr:teryt:simc": 988715,
                "addr:teryt:sym_ul": 1742,
                "contact:phone": "+48 943733196",
                "contact:email": "spborne@bornesulinowo.pl",
                "contact:website": "http:\/\/sp.bornesulinowo.pl",
                "ref:regon": "330272711",
                "ref:vatin": "PL6731021936",
                "operator": "Gmina Borne Sulinowo",
                "operator:type": "government",
                "amenity": "school"
            }
        },
        {
            "id": 8397,
            "type": "Feature",
            "geometry": {
                "type": "Point",
                "coordinates": [
                    16.53596,
                    53.58527
                ]
            },
            "properties": {
                "ref:rspo": 8397,
                "official_name": "Przedszkole Niepubliczne Jedyneczka",
                "name": "Przedszkole Niepubliczne Jedyneczka",
                "addr:country": "PL",
                "addr:postcode": "78-449",
                "addr:city": "Borne Sulinowo",
                "addr:street": "Szpitalna",
                "addr:housenumber": "1",
                "addr:teryt:simc": 988715,
                "addr:teryt:sym_ul": 22073,
                "contact:phone": "+48 795252660",
                "contact:email": "przedszkolejedyneczka@onet.pl",
                "contact:website": "http:\/\/www.jedyneczka.bornesulinowo.pl",
                "ref:regon": "321269423",
                "ref:vatin": "PL6731072218",
                "operator": "Anna \u015aliwicka",
                "operator:type": "private",
                "amenity": "kindergarten"
            }
        },
        {
            "id": 48189,
            "type": "Feature",
            "geometry": {
                "type": "Point",
                "coordinates": [
                    16.52986,
                    53.58658
                ]
            },
            "properties": {
                "isced:level": "3",
                "ref:rspo": 48189,
                "official_name": "Liceum Og\u00f3lnokszta\u0142c\u0105ce im.bohater\u00f3w Oflagu Iid",
                "name": "Liceum Og\u00f3lnokszta\u0142c\u0105ce im.bohater\u00f3w Oflagu Iid",
                "addr:country": "PL",
                "addr:postcode": "78-449",
                "addr:city": "Borne Sulinowo",
                "addr:street": "Aleja Niepodleg\u0142o\u015bci",
                "addr:housenumber": "24",
                "addr:teryt:simc": 988715,
                "addr:teryt:sym_ul": 30816,
                "contact:phone": "+48 943733964",
                "contact:email": "zsbornesulinowo@wp.pl",
                "contact:website": "https:\/\/zsbornesulinowo.edupage.org",
                "ref:regon": "331351520",
                "ref:vatin": "PL6731729285",
                "operator": "Gmina Borne Sulinowo",
                "operator:type": "government",
                "amenity": "school"
            }
        },
        {
            "id": 8398,
            "type": "Feature",
            "geometry": {
                "type": "Point",
                "coordinates": [
                    16.39111,
                    53.58761
                ]
            },
            "properties": {
                "ref:rspo": 8398,
                "official_name": "Niepubliczne Przedszkole \"Ma\u0142e Przedszkole\"",
                "name": "Niepubliczne Przedszkole \"Ma\u0142e Przedszkole\"",
                "addr:country": "PL",
                "addr:postcode": "78-445",
                "addr:city": "\u0141ubowo",
                "addr:street": "Zak\u0105tna",
                "addr:housenumber": "10",
                "addr:teryt:simc": 311585,
                "addr:teryt:sym_ul": 25441,
                "contact:phone": "+48 943757313",
                "ref:regon": "321269446",
                "ref:vatin": "PL6731819060",
                "operator": "Stowarzyszenie Rozwoju Wsi \u0141ubowo",
                "operator:type": "ngo",
                "amenity": "kindergarten"
            }
        },
        {
            "id": 58109,
            "type": "Feature",
            "geometry": {
                "type": "Point",
                "coordinates": [
                    16.39111,
                    53.587579999999996
                ]
            },
            "properties": {
                "isced:level": "1;2",
                "ref:rspo": 58109,
                "official_name": "Szko\u0142a Podstawowa im.pierwszych Osadnik\u00f3w",
                "name": "Szko\u0142a Podstawowa im.pierwszych Osadnik\u00f3w",
                "addr:country": "PL",
                "addr:postcode": "78-445",
                "addr:city": "\u0141ubowo",
                "addr:street": "Zak\u0105tna",
                "addr:housenumber": "10",
                "addr:teryt:simc": 311585,
                "addr:teryt:sym_ul": 25441,
                "contact:phone": "+48 943757313",
                "contact:email": "splubowo@interia.pl",
                "contact:website": "http:\/\/zslubowo.w.interia.pl",
                "ref:regon": "000742753",
                "ref:vatin": "PL6731746906",
                "operator": "Gmina Borne Sulinowo",
                "operator:type": "government",
                "amenity": "school"
            }
        },
        {
            "id": 8393,
            "type": "Feature",
            "geometry": {
                "type": "Point",
                "coordinates": [
                    16.5991639,
                    53.6217309
                ]
            },
            "properties": {
                "isced:level": "1;2",
                "ref:rspo": 8393,
                "official_name": "Szko\u0142a Podstawowa im.kawaler\u00f3w Orderu U\u015bmiechu",
                "name": "Szko\u0142a Podstawowa im.kawaler\u00f3w Orderu U\u015bmiechu",
                "addr:country": "PL",
                "addr:postcode": "78-446",
                "addr:place": "Jele\u0144",
                "addr:housenumber": "2",
                "addr:teryt:simc": 311409,
                "contact:phone": "+48 943757423",
                "contact:email": "jelen.szkola@gmail.com",
                "contact:website": "http:\/\/www.spjelen.szkolnastrona.pl",
                "ref:regon": "001177284",
                "ref:vatin": "PL6731154413",
                "operator": "Gmina Borne Sulinowo",
                "operator:type": "government",
                "amenity": "school"
            }
        },
        {
            "id": 8392,
            "type": "Feature",
            "geometry": {
                "type": "Point",
                "coordinates": [
                    16.4917115,
                    53.6723405
                ]
            },
            "properties": {
                "isced:level": "1;2",
                "ref:rspo": 8392,
                "official_name": "Szko\u0142a Podstawowa im. Marii Konopnickiej",
                "name": "Szko\u0142a Podstawowa",
                "addr:country": "PL",
                "addr:postcode": "78-446",
                "addr:place": "Juchowo",
                "addr:housenumber": "28",
                "addr:teryt:simc": 311473,
                "contact:phone": "+48 943757565",
                "contact:email": "szkolajuchowo@wp.pl",
                "contact:website": "http:\/\/sp.juchowo.ibip.pl\/public",
                "ref:regon": "001177290",
                "ref:vatin": "PL6731135752",
                "operator": "Gmina Borne Sulinowo",
                "operator:type": "government",
                "amenity": "school"
            }
        }
    ]
}