{
    "type": "FeatureCollection",
    "features": [
        {
            "id": 268378,
            "type": "Feature",
            "geometry": {
                "type": "Point",
                "coordinates": [
                    16.844548,
                    53.814659
                ]
            },
            "properties": {
                "isced:level": "1;2",
                "ref:rspo": 268378,
                "official_name": "Szko\u0142a Podstawowa im. Juliana Tuwima w Drzonowie",
                "name": "Szko\u0142a Podstawowa",
                "addr:postcode": "78-421",
                "addr:place": "Drzonowo",
                "addr:housenumber": "48a",
                "addr:city:simc": 303344,
                "phone": "+48 943757211",
                "email": "szkoladrzonowo@op.pl",
                "website": "http:\/\/szkoladrzonowo.eu\/",
                "ref:regon": "381123894",
                "ref:vatin": "PL6731905316",
                "operator": "Gmina Bia\u0142y B\u00f3r",
                "operator:type": "government",
                "amenity": "school"
            }
        },
        {
            "id": 266102,
            "type": "Feature",
            "geometry": {
                "type": "Point",
                "coordinates": [
                    16.83063,
                    53.89024
                ]
            },
            "properties": {
                "isced:level": "1;2",
                "ref:rspo": 266102,
                "official_name": "Szko\u0142a Podstawowa nr 2 im.tarasa Szewczenki w Bia\u0142ym Borze",
                "name": "Szko\u0142a Podstawowa nr 2 im.tarasa Szewczenki w Bia\u0142ym Borze",
                "addr:postcode": "78-425",
                "addr:city": "Bia\u0142y B\u00f3r",
                "addr:street": "S\u0142upska",
                "addr:housenumber": "27",
                "addr:city:simc": 949767,
                "addr:street:sym_ul": 20316,
                "phone": "+48 943739026",
                "email": "sp2bbor@gmail.com",
                "website": "http:\/\/www.liceum-bialybor.eu\/",
                "ref:regon": "369262955",
                "operator": "Fundacja Rozwoju Demokracji, Edukacji, Kultury I Aktywizacji \"Deka\"",
                "operator:type": "ngo",
                "amenity": "school"
            }
        },
        {
            "id": 13748,
            "type": "Feature",
            "geometry": {
                "type": "Point",
                "coordinates": [
                    16.84143,
                    53.89581
                ]
            },
            "properties": {
                "ref:rspo": 13748,
                "official_name": "Zesp\u00f3\u0142 Szk\u00f3\u0142 nr 7 w Bia\u0142ym Borze",
                "name": "Zesp\u00f3\u0142 Szk\u00f3\u0142 nr 7 w Bia\u0142ym Borze",
                "addr:postcode": "78-425",
                "addr:city": "Bia\u0142y B\u00f3r",
                "addr:street": "Brze\u017anicka",
                "addr:housenumber": "10",
                "addr:city:simc": 949767,
                "addr:street:sym_ul": 2254,
                "phone": "+48 943739019",
                "email": "zserbial@poczta.onet.pl",
                "website": "http:\/\/www.zsbialybor.pl",
                "ref:regon": "331096558",
                "ref:vatin": "PL6731136065",
                "operator": "Powiat Szczecinecki",
                "operator:type": "government",
                "landuse": "education",
                "fixme": "amenity=school, amenity=college albo landuse=education w zale\u017cno\u015bci od tego, jakie plac\u00f3wki wchodz\u0105 w sk\u0142ad zespo\u0142u. Sprawd\u017a, kiedy stosowa\u0107 amenity=* a kiedy landuse=education.",
                "note": "Children RSPO: 16884;69205;69206;119784;128925"
            }
        },
        {
            "id": 16884,
            "type": "Feature",
            "geometry": {
                "type": "Point",
                "coordinates": [
                    16.84143,
                    53.895779999999995
                ]
            },
            "properties": {
                "isced:level": "3",
                "ref:rspo": 16884,
                "official_name": "Liceum Og\u00f3lnokszta\u0142c\u0105ce dla Doros\u0142ych w Zespole Szk\u00f3\u0142 nr 7 w Bia\u0142ym Borze",
                "name": "Liceum Og\u00f3lnokszta\u0142c\u0105ce dla Doros\u0142ych w Zespole Szk\u00f3\u0142 nr 7 w Bia\u0142ym Borze",
                "addr:postcode": "78-425",
                "addr:city": "Bia\u0142y B\u00f3r",
                "addr:street": "Brze\u017anicka",
                "addr:housenumber": "10",
                "addr:city:simc": 949767,
                "addr:street:sym_ul": 2254,
                "phone": "+48 943739019",
                "email": "zserbial@poczta.onet.pl",
                "website": "http:\/\/www.zsbialybor.pl",
                "ref:regon": "321277115",
                "operator": "Powiat Szczecinecki",
                "operator:type": "government",
                "amenity": "school",
                "note": "Parent RSPO: 13748"
            }
        },
        {
            "id": 69205,
            "type": "Feature",
            "geometry": {
                "type": "Point",
                "coordinates": [
                    16.84143,
                    53.89575
                ]
            },
            "properties": {
                "isced:level": "3",
                "ref:rspo": 69205,
                "official_name": "Ii Liceum Og\u00f3lnokszta\u0142c\u0105ce w Zespole Szk\u00f3\u0142 nr 7 w Bia\u0142ym Borze",
                "name": "Ii Liceum Og\u00f3lnokszta\u0142c\u0105ce w Zespole Szk\u00f3\u0142 nr 7 w Bia\u0142ym Borze",
                "addr:postcode": "78-425",
                "addr:city": "Bia\u0142y B\u00f3r",
                "addr:street": "Brze\u017anicka",
                "addr:housenumber": "10",
                "addr:city:simc": 949767,
                "addr:street:sym_ul": 2254,
                "phone": "+48 943739019",
                "email": "zserbial@poczta.onet.pl",
                "website": "http:\/\/www.zsbialybor.pl",
                "ref:regon": "331358194",
                "operator": "Powiat Szczecinecki",
                "operator:type": "government",
                "amenity": "school",
                "note": "Parent RSPO: 13748"
            }
        },
        {
            "id": 69206,
            "type": "Feature",
            "geometry": {
                "type": "Point",
                "coordinates": [
                    16.84143,
                    53.89572
                ]
            },
            "properties": {
                "isced:level": "3",
                "ref:rspo": 69206,
                "official_name": "Technikum Zawodowe w Zespole Szk\u00f3\u0142 nr 7 w Bia\u0142ym Borze",
                "name": "Technikum Zawodowe w Zespole Szk\u00f3\u0142 nr 7 w Bia\u0142ym Borze",
                "addr:postcode": "78-425",
                "addr:city": "Bia\u0142y B\u00f3r",
                "addr:street": "Brze\u017anicka",
                "addr:housenumber": "10",
                "addr:city:simc": 949767,
                "addr:street:sym_ul": 2254,
                "phone": "+48 943739019",
                "email": "zserbial@poczta.onet.pl",
                "website": "http:\/\/www.zsbialybor.pl",
                "ref:regon": "331412730",
                "operator": "Powiat Szczecinecki",
                "operator:type": "government",
                "amenity": "school",
                "note": "Parent RSPO: 13748"
            }
        },
        {
            "id": 119784,
            "type": "Feature",
            "geometry": {
                "type": "Point",
                "coordinates": [
                    16.84143,
                    53.895689999999995
                ]
            },
            "properties": {
                "isced:level": "3",
                "ref:rspo": 119784,
                "official_name": "Bran\u017cowa Szko\u0142a I Stopnia w Zespole Szk\u00f3\u0142 nr 7 w Bia\u0142ym Borze",
                "name": "Bran\u017cowa Szko\u0142a I Stopnia w Zespole Szk\u00f3\u0142 nr 7 w Bia\u0142ym Borze",
                "addr:postcode": "78-425",
                "addr:city": "Bia\u0142y B\u00f3r",
                "addr:street": "Brze\u017anicka",
                "addr:housenumber": "10",
                "addr:city:simc": 949767,
                "addr:street:sym_ul": 2254,
                "phone": "+48 943739019",
                "email": "zserbial@poczta.onet.pl",
                "website": "http:\/\/www.zsbialybor.pl",
                "ref:regon": "320407863",
                "operator": "Powiat Szczecinecki",
                "operator:type": "government",
                "amenity": "school",
                "note": "Parent RSPO: 13748"
            }
        },
        {
            "id": 128925,
            "type": "Feature",
            "geometry": {
                "type": "Point",
                "coordinates": [
                    16.84143,
                    53.89566
                ]
            },
            "properties": {
                "ref:rspo": 128925,
                "official_name": "Szkolne Schronisko M\u0142odzie\u017cowe \"Oskar\"",
                "name": "Szkolne Schronisko M\u0142odzie\u017cowe \"Oskar\"",
                "addr:postcode": "78-425",
                "addr:city": "Bia\u0142y B\u00f3r",
                "addr:street": "Brze\u017anicka",
                "addr:housenumber": "10",
                "addr:city:simc": 949767,
                "addr:street:sym_ul": 2254,
                "phone": "+48 943739019",
                "email": "zserbial@poczta.onet.pl",
                "website": "http:\/\/zsbialybor.pl",
                "ref:regon": "362436671",
                "operator": "Powiat Szczecinecki",
                "operator:type": "government",
                "tourism": "hostel",
                "note": "Parent RSPO: 13748"
            }
        },
        {
            "id": 27500,
            "type": "Feature",
            "geometry": {
                "type": "Point",
                "coordinates": [
                    16.8436999,
                    53.8979
                ]
            },
            "properties": {
                "isced:level": "3",
                "ref:rspo": 27500,
                "official_name": "I Liceum Og\u00f3lnokszta\u0142c\u0105ce im. Tarasa Szewczenki w Bia\u0142ym Borze",
                "name": "I Liceum Og\u00f3lnokszta\u0142c\u0105ce",
                "addr:postcode": "78-425",
                "addr:city": "Bia\u0142y B\u00f3r",
                "addr:street": "Dworcowa",
                "addr:housenumber": "25",
                "addr:city:simc": 949767,
                "addr:street:sym_ul": 4434,
                "phone": "+48 943670162",
                "email": "zs2bb@op.pl",
                "website": "http:\/\/www.liceum_bialybor.pl",
                "ref:regon": "331097859",
                "ref:vatin": "PL6731053327",
                "operator": "Wojew\u00f3dztwo Zachodniopomorskie",
                "operator:type": "government",
                "amenity": "school"
            }
        },
        {
            "id": 40553,
            "type": "Feature",
            "geometry": {
                "type": "Point",
                "coordinates": [
                    16.84415,
                    53.89864
                ]
            },
            "properties": {
                "ref:rspo": 40553,
                "official_name": "Zesp\u00f3\u0142 Szk\u00f3\u0142 nr 1 im. Henryka Sienkiewisza w Bia\u0142ym Borze",
                "name": "Zesp\u00f3\u0142 Szk\u00f3\u0142 nr 1",
                "addr:postcode": "78-425",
                "addr:city": "Bia\u0142y B\u00f3r",
                "addr:street": "Dworcowa",
                "addr:housenumber": "19",
                "addr:city:simc": 949767,
                "addr:street:sym_ul": 4434,
                "phone": "+48 943739048",
                "email": "szkola@zs1bb.pl",
                "ref:regon": "331348920",
                "ref:vatin": "PL6731737014",
                "operator": "Gmina Bia\u0142y B\u00f3r",
                "operator:type": "government",
                "landuse": "education",
                "fixme": "amenity=school, amenity=college albo landuse=education w zale\u017cno\u015bci od tego, jakie plac\u00f3wki wchodz\u0105 w sk\u0142ad zespo\u0142u. Sprawd\u017a, kiedy stosowa\u0107 amenity=* a kiedy landuse=education.",
                "note": "Children RSPO: 53291;53293"
            }
        },
        {
            "id": 53291,
            "type": "Feature",
            "geometry": {
                "type": "Point",
                "coordinates": [
                    16.84415,
                    53.89861
                ]
            },
            "properties": {
                "isced:level": "1;2",
                "ref:rspo": 53291,
                "official_name": "Szko\u0142a Podstawowa nr 1 w Bia\u0142ym Borze",
                "name": "Szko\u0142a Podstawowa nr 1 w Bia\u0142ym Borze",
                "addr:postcode": "78-425",
                "addr:city": "Bia\u0142y B\u00f3r",
                "addr:street": "Dworcowa",
                "addr:housenumber": "19",
                "addr:city:simc": 949767,
                "addr:street:sym_ul": 4434,
                "phone": "+48 943739048",
                "email": "szkola@zs1bb.pl",
                "website": "http:\/\/www.zs1bb.edupage.pl",
                "ref:regon": "000261574",
                "ref:vatin": "PL6731135746",
                "operator": "Gmina Bia\u0142y B\u00f3r",
                "operator:type": "government",
                "amenity": "school",
                "note": "Children RSPO: 125767Parent RSPO: 40553"
            }
        },
        {
            "id": 53293,
            "type": "Feature",
            "geometry": {
                "type": "Point",
                "coordinates": [
                    16.83425,
                    53.90047
                ]
            },
            "properties": {
                "ref:rspo": 53293,
                "official_name": "Przedszkole Miejskie",
                "name": "Przedszkole Miejskie",
                "addr:postcode": "78-425",
                "addr:city": "Bia\u0142y B\u00f3r",
                "addr:street": "S\u0142upska",
                "addr:housenumber": "3",
                "addr:city:simc": 949767,
                "addr:street:sym_ul": 20316,
                "phone": "+48 943739004",
                "email": "zs1bb@poczta.onet.pl",
                "ref:regon": "330014920",
                "ref:vatin": "PL6731099619",
                "operator": "Gmina Bia\u0142y B\u00f3r",
                "operator:type": "government",
                "amenity": "kindergarten",
                "note": "Parent RSPO: 40553"
            }
        },
        {
            "id": 125767,
            "type": "Feature",
            "geometry": {
                "type": "Point",
                "coordinates": [
                    16.7788219,
                    53.949866
                ]
            },
            "properties": {
                "isced:level": "1;2",
                "ref:rspo": 125767,
                "official_name": "Szko\u0142a Podstawowa w S\u0119polnie Wielkim Fila Szko\u0142y Podstawowej nr 1 im. H. Sienkiewicza w Bia\u0142ym Borze",
                "name": "Szko\u0142a Podstawowa w S\u0119polnie Wielkim Fila Szko\u0142y Podstawowej nr 1",
                "addr:postcode": "78-425",
                "addr:place": "S\u0119polno Wielkie",
                "addr:housenumber": "13",
                "addr:city:simc": 303580,
                "email": "sepwiel@poczta.onet.pl",
                "ref:regon": "261574000",
                "operator": "Gmina Bia\u0142y B\u00f3r",
                "operator:type": "government",
                "amenity": "school",
                "note": "Parent RSPO: 53291"
            }
        }
    ]
}