{
    "type": "FeatureCollection",
    "features": [
        {
            "id": 67790,
            "type": "Feature",
            "geometry": {
                "type": "Point",
                "coordinates": [
                    16.35092,
                    53.74517
                ]
            },
            "properties": {
                "ref:rspo": 67790,
                "official_name": "Przedszkole Niepubliczne \"Bajkowa Kraina\" Karbowiak, Kurzejewska, Radziejewska, Zommer Sp\u00f3\u0142ka Jawna",
                "name": "Przedszkole Niepubliczne \"Bajkowa Kraina\" Karbowiak, Kurzejewska, Radziejewska, Zommer Sp\u00f3\u0142ka Jawna",
                "addr:postcode": "78-460",
                "addr:city": "Barwice",
                "addr:street": "Zwyci\u0119zc\u00f3w",
                "addr:housenumber": "20",
                "addr:teryt:simc": 949649,
                "addr:teryt:sym_ul": 26330,
                "phone": "+48 943736361",
                "email": "przedszkoleniepublicznebajkowa@gmail.com",
                "website": "http:\/\/bajkowakraina.przedszkolowo.pl",
                "ref:regon": "321295260",
                "ref:vatin": "PL6731749678",
                "operator": "Przedszkole Niepubliczne \"Bajkowa Kraina\" Karbowiak,Kurzejewska,Radziejewska,Zommer Sp\u00f3\u0142ka Jawna",
                "operator:type": "private",
                "amenity": "kindergarten"
            }
        },
        {
            "id": 64530,
            "type": "Feature",
            "geometry": {
                "type": "Point",
                "coordinates": [
                    16.35289,
                    53.74639
                ]
            },
            "properties": {
                "isced:level": "1;2",
                "ref:rspo": 64530,
                "official_name": "Szko\u0142a Podstawowa im. Prof. W\u0142adys\u0142awa Szafera",
                "name": "Szko\u0142a Podstawowa",
                "addr:postcode": "78-460",
                "addr:city": "Barwice",
                "addr:street": "Pomorska",
                "addr:housenumber": "3",
                "addr:teryt:simc": 949649,
                "addr:teryt:sym_ul": 17088,
                "phone": "+48 943736332",
                "email": "sp.barwice@poczta.fm",
                "website": "http:\/\/www.spbarwice.superszkolna.pl",
                "ref:regon": "000261580",
                "ref:vatin": "PL6731907640",
                "operator": "Gmina Barwice",
                "operator:type": "government",
                "amenity": "school"
            }
        },
        {
            "id": 275033,
            "type": "Feature",
            "geometry": {
                "type": "Point",
                "coordinates": [
                    16.35521,
                    53.74643
                ]
            },
            "properties": {
                "ref:rspo": 275033,
                "official_name": "Niepubliczne Przedszkole Angielsko-Polskie \"Happy Land\"",
                "name": "Niepubliczne Przedszkole Angielsko-Polskie \"Happy Land\"",
                "addr:postcode": "78-460",
                "addr:city": "Barwice",
                "addr:street": "Tadeusza Ko\u015bciuszki",
                "addr:housenumber": "3",
                "addr:teryt:simc": 949649,
                "addr:teryt:sym_ul": 9572,
                "email": "harabin.katarzyna@gmail.com",
                "ref:regon": "386513312",
                "operator": "Katarzyna Harabin",
                "operator:type": "private",
                "amenity": "kindergarten"
            }
        },
        {
            "id": 86833,
            "type": "Feature",
            "geometry": {
                "type": "Point",
                "coordinates": [
                    16.409288,
                    53.775542
                ]
            },
            "properties": {
                "isced:level": "1;2",
                "ref:rspo": 86833,
                "official_name": "Szko\u0142a Podstawowa w Starym Chwalimiu",
                "name": "Szko\u0142a Podstawowa w Starym Chwalimiu",
                "addr:postcode": "78-460",
                "addr:place": "Stary Chwalim",
                "addr:housenumber": "39",
                "addr:teryt:simc": 302050,
                "phone": "+48 943736726",
                "email": "stchwalimszkola@interia.pl",
                "ref:regon": "001174682",
                "ref:vatin": "PL6731907634",
                "operator": "Gmina Barwice",
                "operator:type": "government",
                "amenity": "school"
            }
        }
    ]
}