{
    "type": "FeatureCollection",
    "features": [
        {
            "id": 263149,
            "type": "Feature",
            "geometry": {
                "type": "Point",
                "coordinates": [
                    22.44004,
                    51.63727
                ]
            },
            "properties": {
                "ref:rspo": 263149,
                "official_name": "Niepubliczne Przedszkole \"Martynka\"",
                "name": "Niepubliczne Przedszkole \"Martynka\"",
                "addr:postcode": "21-150",
                "addr:city": "Kock",
                "addr:street": "Ogrodowa",
                "addr:housenumber": "5",
                "addr:city:simc": 956069,
                "addr:street:sym_ul": 14834,
                "email": "msz.osowno@wp.pl",
                "ref:regon": "368110427",
                "operator": "Ma\u0142gorzata Mocarz",
                "operator:type": "private",
                "amenity": "kindergarten"
            }
        },
        {
            "id": 3487,
            "type": "Feature",
            "geometry": {
                "type": "Point",
                "coordinates": [
                    22.4366772,
                    51.6411157
                ]
            },
            "properties": {
                "ref:rspo": 3487,
                "official_name": "Niepubliczne Przedszkole w Kocku",
                "name": "Niepubliczne Przedszkole w Kocku",
                "addr:postcode": "21-150",
                "addr:city": "Kock",
                "addr:street": "Marcina St\u0119pnia",
                "addr:housenumber": "6",
                "addr:city:simc": 956069,
                "addr:street:sym_ul": 21171,
                "phone": "+48 728343284",
                "email": "przedszkole-kock@wp.pl",
                "ref:regon": "061446381",
                "ref:vatin": "PL7141220374",
                "operator": "Danuta Rola",
                "operator:type": "private",
                "amenity": "kindergarten"
            }
        },
        {
            "id": 6345,
            "type": "Feature",
            "geometry": {
                "type": "Point",
                "coordinates": [
                    22.4376,
                    51.6428
                ]
            },
            "properties": {
                "isced:level": "1;2",
                "ref:rspo": 6345,
                "official_name": "Szko\u0142a Podstawowa im. Gen. Fr. Kleeberga",
                "name": "Szko\u0142a Podstawowa",
                "addr:postcode": "21-150",
                "addr:city": "Kock",
                "addr:street": "Przechodnia",
                "addr:housenumber": "11",
                "addr:city:simc": 956069,
                "addr:street:sym_ul": 17635,
                "phone": "+48 818591065",
                "email": "gim_kock@wp.pl",
                "ref:regon": "000559285",
                "ref:vatin": "PL7141747561",
                "operator": "Gmina Kock",
                "operator:type": "government",
                "amenity": "school"
            }
        },
        {
            "id": 3430,
            "type": "Feature",
            "geometry": {
                "type": "Point",
                "coordinates": [
                    22.43755,
                    51.64342
                ]
            },
            "properties": {
                "ref:rspo": 3430,
                "official_name": "Zesp\u00f3\u0142 Szk\u00f3\u0142 w Kocku",
                "name": "Zesp\u00f3\u0142 Szk\u00f3\u0142 w Kocku",
                "addr:postcode": "21-150",
                "addr:city": "Kock",
                "addr:street": "Warszawska",
                "addr:housenumber": "41",
                "addr:city:simc": 956069,
                "addr:street:sym_ul": 23682,
                "phone": "+48 818591033",
                "email": "zskock@o2.pl",
                "website": "http:\/\/www.zskock.com.pl",
                "ref:regon": "000860079",
                "ref:vatin": "PL7141051411",
                "operator": "Powiat Lubartowski",
                "operator:type": "government",
                "landuse": "education",
                "fixme": "amenity=school, amenity=college albo landuse=education w zale\u017cno\u015bci od tego, jakie plac\u00f3wki wchodz\u0105 w sk\u0142ad zespo\u0142u. Sprawd\u017a, kiedy stosowa\u0107 amenity=* a kiedy landuse=education.",
                "note": "Children RSPO: 13912;14087"
            }
        },
        {
            "id": 13912,
            "type": "Feature",
            "geometry": {
                "type": "Point",
                "coordinates": [
                    22.43755,
                    51.64339
                ]
            },
            "properties": {
                "isced:level": "3",
                "ref:rspo": 13912,
                "official_name": "Liceum Og\u00f3lnokszta\u0142c\u0105ce w Zespole Szk\u00f3\u0142 w Kocku",
                "name": "Liceum Og\u00f3lnokszta\u0142c\u0105ce w Zespole Szk\u00f3\u0142 w Kocku",
                "addr:postcode": "21-150",
                "addr:city": "Kock",
                "addr:street": "Warszawska",
                "addr:housenumber": "41",
                "addr:city:simc": 956069,
                "addr:street:sym_ul": 23682,
                "phone": "+48 818591033",
                "email": "zskock@o2.pl",
                "website": "http:\/\/zskock.com.pl",
                "ref:regon": "430583572",
                "operator": "Powiat Lubartowski",
                "operator:type": "government",
                "amenity": "school",
                "note": "Parent RSPO: 3430"
            }
        },
        {
            "id": 14087,
            "type": "Feature",
            "geometry": {
                "type": "Point",
                "coordinates": [
                    22.43755,
                    51.64336
                ]
            },
            "properties": {
                "isced:level": "3",
                "ref:rspo": 14087,
                "official_name": "Bran\u017cowa Szko\u0142a I Stopnia Nr 1 w Zespole Szk\u00f3\u0142 w Kocku",
                "name": "Bran\u017cowa Szko\u0142a I Stopnia Nr 1 w Zespole Szk\u00f3\u0142 w Kocku",
                "addr:postcode": "21-150",
                "addr:city": "Kock",
                "addr:street": "Warszawska",
                "addr:housenumber": "41",
                "addr:city:simc": 956069,
                "addr:street:sym_ul": 23682,
                "phone": "+48 818591033",
                "email": "zskock@o2.pl",
                "website": "http:\/\/zskock.com.pl",
                "ref:regon": "061458734",
                "operator": "Powiat Lubartowski",
                "operator:type": "government",
                "amenity": "school",
                "note": "Parent RSPO: 3430"
            }
        },
        {
            "id": 7866,
            "type": "Feature",
            "geometry": {
                "type": "Point",
                "coordinates": [
                    22.37742,
                    51.64927
                ]
            },
            "properties": {
                "ref:rspo": 7866,
                "official_name": "Zesp\u00f3\u0142 Szk\u00f3\u0142 im. Jana Paw\u0142a II w Poizdowie",
                "name": "Zesp\u00f3\u0142 Szk\u00f3\u0142",
                "addr:postcode": "21-150",
                "addr:place": "Poizd\u00f3w",
                "addr:housenumber": "1A",
                "addr:city:simc": 383290,
                "phone": "+48 818578163",
                "email": "zspoizdow@vp.pl",
                "ref:regon": "001152404",
                "ref:vatin": "PL7141751775",
                "operator": "Gmina Kock",
                "operator:type": "government",
                "landuse": "education",
                "fixme": "amenity=school, amenity=college albo landuse=education w zale\u017cno\u015bci od tego, jakie plac\u00f3wki wchodz\u0105 w sk\u0142ad zespo\u0142u. Sprawd\u017a, kiedy stosowa\u0107 amenity=* a kiedy landuse=education.",
                "note": "Children RSPO: 55895;131915"
            }
        },
        {
            "id": 55895,
            "type": "Feature",
            "geometry": {
                "type": "Point",
                "coordinates": [
                    22.37742,
                    51.64924
                ]
            },
            "properties": {
                "isced:level": "1;2",
                "ref:rspo": 55895,
                "official_name": "Zesp\u00f3\u0142 Szk\u00f3\u0142 im.jana Paw\u0142a II w Poizdowie - Szko\u0142a Podstawowa",
                "name": "Zesp\u00f3\u0142 Szk\u00f3\u0142 im.jana Paw\u0142a II w Poizdowie - Szko\u0142a Podstawowa",
                "addr:postcode": "21-150",
                "addr:place": "Poizd\u00f3w",
                "addr:housenumber": "1A",
                "addr:city:simc": 383290,
                "phone": "+48 818578163",
                "email": "zspoizdow@vp.pl",
                "ref:regon": "431261617",
                "ref:vatin": "PL7141751775",
                "operator": "Gmina Kock",
                "operator:type": "government",
                "amenity": "school",
                "note": "Parent RSPO: 7866"
            }
        },
        {
            "id": 131915,
            "type": "Feature",
            "geometry": {
                "type": "Point",
                "coordinates": [
                    22.37742,
                    51.649210000000004
                ]
            },
            "properties": {
                "ref:rspo": 131915,
                "official_name": "Zesp\u00f3\u0142 Szk\u00f3\u0142 im. Jana Paw\u0142a II w Poizdowie - Publiczne Przedszkole w Poizdowie",
                "name": "Zesp\u00f3\u0142 Szk\u00f3\u0142",
                "addr:postcode": "21-150",
                "addr:place": "Poizd\u00f3w",
                "addr:housenumber": "1A",
                "addr:city:simc": 383290,
                "phone": "+48 818578163",
                "email": "zspoizdow@vp.pl",
                "ref:regon": "365376662",
                "ref:vatin": "PL7141751775",
                "operator": "Gmina Kock",
                "operator:type": "government",
                "amenity": "kindergarten",
                "note": "Parent RSPO: 7866"
            }
        },
        {
            "id": 5688,
            "type": "Feature",
            "geometry": {
                "type": "Point",
                "coordinates": [
                    22.4188,
                    51.69088
                ]
            },
            "properties": {
                "isced:level": "1;2",
                "ref:rspo": 5688,
                "official_name": "Szko\u0142a Podstawowa im.h.sienkiewicza w Talczynie",
                "name": "Szko\u0142a Podstawowa im.h.sienkiewicza w Talczynie",
                "addr:postcode": "21-150",
                "addr:place": "Talczyn",
                "addr:housenumber": "160",
                "addr:city:simc": 383350,
                "email": "szkolatalczyn@interia.eu",
                "ref:regon": "061451399",
                "ref:vatin": "PL7141989413",
                "operator": "Stowarzyszenie \"Przyjazna Szko\u0142a\"",
                "operator:type": "ngo",
                "amenity": "school"
            }
        }
    ]
}