{
    "type": "FeatureCollection",
    "features": [
        {
            "id": 275863,
            "type": "Feature",
            "geometry": {
                "type": "Point",
                "coordinates": [
                    22.61597,
                    51.44903
                ]
            },
            "properties": {
                "ref:rspo": 275863,
                "official_name": "Niepubliczne \"Bajkowe Przedszkole\" w Lubartowie",
                "name": "Niepubliczne \"Bajkowe Przedszkole\" w Lubartowie",
                "addr:country": "PL",
                "addr:postcode": "21-100",
                "addr:city": "Lubart\u00f3w",
                "addr:street": "Ksi\u0119dza Jerzego Popie\u0142uszki",
                "addr:housenumber": "34",
                "addr:teryt:simc": 39974,
                "addr:teryt:sym_ul": 956313,
                "contact:phone": "+48 510058831",
                "contact:email": "bajkoweprzedszkole1@wp.pl",
                "contact:website": "http:\/\/www.bajkoweprzedszkole.com.pl",
                "ref:regon": "386944360",
                "operator": "Miros\u0142aw Jedut",
                "operator:type": "private",
                "amenity": "kindergarten"
            }
        },
        {
            "id": 77963,
            "type": "Feature",
            "geometry": {
                "type": "Point",
                "coordinates": [
                    22.61385,
                    51.44984
                ]
            },
            "properties": {
                "ref:rspo": 77963,
                "official_name": "\"Akademia Przedszkolaka\" Przedszkole Prywatne Beata Matuszak",
                "name": "\"Akademia Przedszkolaka\" Przedszkole Prywatne Beata Matuszak",
                "addr:country": "PL",
                "addr:postcode": "21-100",
                "addr:city": "Lubart\u00f3w",
                "addr:street": "1 Maja",
                "addr:housenumber": "35",
                "addr:teryt:simc": 11926,
                "addr:teryt:sym_ul": 956313,
                "contact:phone": "+48 505005027",
                "contact:email": "kontakt@a-przedszkolaka.pl",
                "ref:regon": "061483979",
                "ref:vatin": "PL7141318908",
                "operator": "Beata Matuszak",
                "operator:type": "private",
                "amenity": "kindergarten"
            }
        },
        {
            "id": 66134,
            "type": "Feature",
            "geometry": {
                "type": "Point",
                "coordinates": [
                    22.61039,
                    51.45186
                ]
            },
            "properties": {
                "isced:level": "3",
                "ref:rspo": 66134,
                "official_name": "Ii Liceum Og\u00f3lnokszta\u0142c\u0105ce im. Piotra Firleja w Lubartowie",
                "name": "Ii Liceum Og\u00f3lnokszta\u0142c\u0105ce",
                "addr:country": "PL",
                "addr:postcode": "21-100",
                "addr:city": "Lubart\u00f3w",
                "addr:street": "Lubelska",
                "addr:housenumber": "68",
                "addr:teryt:simc": 11307,
                "addr:teryt:sym_ul": 956313,
                "contact:phone": "+48 818543716",
                "contact:email": "2lo@umlubartow.pl",
                "contact:website": "http:\/\/www.lo2lubartow.pl",
                "ref:regon": "430433447",
                "ref:vatin": "PL7141698727",
                "operator": "Gmina Miasto Lubart\u00f3w",
                "operator:type": "government",
                "amenity": "school"
            }
        },
        {
            "id": 106484,
            "type": "Feature",
            "geometry": {
                "type": "Point",
                "coordinates": [
                    22.61039,
                    51.45183
                ]
            },
            "properties": {
                "ref:rspo": 106484,
                "official_name": "Spo\u0142eczna Szko\u0142a Muzyczna I I II Stopnia im. Fryderyka Chopina w Lubartowie",
                "name": "Spo\u0142eczna Szko\u0142a Muzyczna I I II Stopnia",
                "addr:country": "PL",
                "addr:postcode": "21-100",
                "addr:city": "Lubart\u00f3w",
                "addr:street": "Lubelska",
                "addr:housenumber": "68",
                "addr:teryt:simc": 11307,
                "addr:teryt:sym_ul": 956313,
                "contact:phone": "+48 818543838",
                "contact:email": "s.muzyczna@wp.pl",
                "contact:website": "http:\/\/szkolamuzyczna.lubartow.pl",
                "ref:regon": "061508426",
                "operator": "Lubartowskie Towarzystwo Muzyczne",
                "operator:type": "ngo",
                "landuse": "education",
                "fixme": "amenity=school, amenity=college albo landuse=education w zale\u017cno\u015bci od tego, jakie plac\u00f3wki wchodz\u0105 w sk\u0142ad zespo\u0142u. Sprawd\u017a, kiedy stosowa\u0107 amenity=* a kiedy landuse=education.",
                "note": "Children RSPO: 114163;114164"
            }
        },
        {
            "id": 114163,
            "type": "Feature",
            "geometry": {
                "type": "Point",
                "coordinates": [
                    22.61039,
                    51.451800000000006
                ]
            },
            "properties": {
                "ref:rspo": 114163,
                "official_name": "Spo\u0142eczna Szko\u0142a Muzyczna I St. im. Fryderyka Chopina w Lubartowie",
                "name": "Spo\u0142eczna Szko\u0142a Muzyczna I St.",
                "addr:country": "PL",
                "addr:postcode": "21-100",
                "addr:city": "Lubart\u00f3w",
                "addr:street": "Lubelska",
                "addr:housenumber": "68",
                "addr:teryt:simc": 11307,
                "addr:teryt:sym_ul": 956313,
                "contact:phone": "+48 818543838",
                "contact:email": "s.muzyczna@wp.pl",
                "contact:website": "http:\/\/www.szkolamuzyczna.lubartow.pl",
                "ref:regon": "061547580",
                "operator": "Lubartowskie Towarzystwo Muzyczne",
                "operator:type": "ngo",
                "amenity": "music_school",
                "note": "Parent RSPO: 106484"
            }
        },
        {
            "id": 114164,
            "type": "Feature",
            "geometry": {
                "type": "Point",
                "coordinates": [
                    22.61039,
                    51.45177
                ]
            },
            "properties": {
                "ref:rspo": 114164,
                "official_name": "Spo\u0142eczna Szko\u0142a Muzyczna II St. im. Fryderyka Chopina w Lubartowie",
                "name": "Spo\u0142eczna Szko\u0142a Muzyczna II St.",
                "addr:country": "PL",
                "addr:postcode": "21-100",
                "addr:city": "Lubart\u00f3w",
                "addr:street": "Lubelska",
                "addr:housenumber": "68",
                "addr:teryt:simc": 11307,
                "addr:teryt:sym_ul": 956313,
                "contact:phone": "+48 818543838",
                "ref:regon": "061547610",
                "operator": "Lubartowskie Towarzystwo Muzyczne",
                "operator:type": "ngo",
                "amenity": "music_school",
                "note": "Parent RSPO: 106484"
            }
        },
        {
            "id": 66117,
            "type": "Feature",
            "geometry": {
                "type": "Point",
                "coordinates": [
                    22.61429,
                    51.45321
                ]
            },
            "properties": {
                "isced:level": "1;2",
                "ref:rspo": 66117,
                "official_name": "Szko\u0142a Podstawowa Nr 3 im.piotra Firleja w Lubartowie",
                "name": "Szko\u0142a Podstawowa Nr 3 im.piotra Firleja w Lubartowie",
                "addr:country": "PL",
                "addr:postcode": "21-100",
                "addr:city": "Lubart\u00f3w",
                "addr:street": "1 Maja",
                "addr:housenumber": "66\/74",
                "addr:teryt:simc": 11926,
                "addr:teryt:sym_ul": 956313,
                "contact:phone": "+48 818553055",
                "contact:email": "sp3@umlubartow.pl",
                "ref:regon": "431158368",
                "ref:vatin": "PL7141698710",
                "operator": "Gmina Miasto Lubart\u00f3w",
                "operator:type": "government",
                "amenity": "school"
            }
        },
        {
            "id": 66121,
            "type": "Feature",
            "geometry": {
                "type": "Point",
                "coordinates": [
                    22.60786,
                    51.45341
                ]
            },
            "properties": {
                "ref:rspo": 66121,
                "official_name": "Przedszkole Miejskie Nr 5 w Lubartowie",
                "name": "Przedszkole Miejskie Nr 5 w Lubartowie",
                "addr:country": "PL",
                "addr:postcode": "21-100",
                "addr:city": "Lubart\u00f3w",
                "addr:street": "Powsta\u0144c\u00f3w Warszawy",
                "addr:housenumber": "39",
                "addr:teryt:simc": 17372,
                "addr:teryt:sym_ul": 956313,
                "contact:phone": "+48 818553760",
                "contact:email": "pm5@umlubartow.pl",
                "contact:website": "http:\/\/przedszkole5.com.pl",
                "ref:regon": "430614172",
                "ref:vatin": "PL7141021456",
                "operator": "Gmina Miasto Lubart\u00f3w",
                "operator:type": "government",
                "amenity": "kindergarten"
            }
        },
        {
            "id": 118770,
            "type": "Feature",
            "geometry": {
                "type": "Point",
                "coordinates": [
                    22.61055,
                    51.45374
                ]
            },
            "properties": {
                "ref:rspo": 118770,
                "official_name": "Niepubliczna Poradnia Psychologiczno - Pedagogiczna im. Jolanty Lizer w Lubartowie",
                "name": "Niepubliczna Poradnia Psychologiczno - Pedagogiczna",
                "addr:country": "PL",
                "addr:postcode": "21-100",
                "addr:city": "Lubart\u00f3w",
                "addr:street": "Lubelska",
                "addr:housenumber": "79",
                "addr:teryt:simc": 11307,
                "addr:teryt:sym_ul": 956313,
                "contact:phone": "+48 731877888",
                "contact:email": "alicjabonat@gmail.com",
                "ref:regon": "061589459",
                "operator": "Alicja Lizer-Bonat",
                "operator:type": "private",
                "healthcare": "counselling",
                "counselling_type": "education",
                "fixme": "w zale\u017cno\u015bci od przedmiotu dzia\u0142alno\u015bci (np. healthcare=counselling + counselling_type=education albo healthcare=psychotherapist)"
            }
        },
        {
            "id": 264695,
            "type": "Feature",
            "geometry": {
                "type": "Point",
                "coordinates": [
                    22.61055,
                    51.45371
                ]
            },
            "properties": {
                "ref:rspo": 264695,
                "official_name": "Niepubliczne Przedszkole Terapeutyczne \"Okruszek\" w Lubartowie",
                "name": "Niepubliczne Przedszkole Terapeutyczne \"Okruszek\" w Lubartowie",
                "addr:country": "PL",
                "addr:postcode": "21-100",
                "addr:city": "Lubart\u00f3w",
                "addr:street": "Lubelska",
                "addr:housenumber": "79",
                "addr:teryt:simc": 11307,
                "addr:teryt:sym_ul": 956313,
                "contact:phone": "+48 731877888",
                "contact:email": "alicjabonat@gmail.com",
                "ref:regon": "368421890",
                "operator": "Alicja Lizer-Bonat",
                "operator:type": "private",
                "amenity": "kindergarten"
            }
        },
        {
            "id": 13870,
            "type": "Feature",
            "geometry": {
                "type": "Point",
                "coordinates": [
                    22.61327,
                    51.45418
                ]
            },
            "properties": {
                "ref:rspo": 13870,
                "official_name": "Regionalne Centrum Edukacji Zawodowej w Lubartowie",
                "name": "Regionalne Centrum Edukacji Zawodowej w Lubartowie",
                "addr:country": "PL",
                "addr:postcode": "21-100",
                "addr:city": "Lubart\u00f3w",
                "addr:street": "1 Maja",
                "addr:housenumber": "82",
                "addr:teryt:simc": 11926,
                "addr:teryt:sym_ul": 956313,
                "contact:phone": "+48 818552214",
                "contact:email": "rcez@rcez.lubartow.pl",
                "contact:website": "http:\/\/www.rcez.lubartow.pl",
                "ref:regon": "000187292",
                "operator": "Powiat Lubartowski",
                "operator:type": "government",
                "landuse": "education",
                "fixme": "amenity=school, amenity=college albo landuse=education w zale\u017cno\u015bci od tego, jakie plac\u00f3wki wchodz\u0105 w sk\u0142ad zespo\u0142u. Sprawd\u017a, kiedy stosowa\u0107 amenity=* a kiedy landuse=education.",
                "note": "Children RSPO: 15215;21793;21958;21959;21960;275708"
            }
        },
        {
            "id": 15215,
            "type": "Feature",
            "geometry": {
                "type": "Point",
                "coordinates": [
                    22.61327,
                    51.45415
                ]
            },
            "properties": {
                "ref:rspo": 15215,
                "official_name": "Bursa Szkolna w Lubartowie",
                "name": "Bursa Szkolna w Lubartowie",
                "addr:country": "PL",
                "addr:postcode": "21-100",
                "addr:city": "Lubart\u00f3w",
                "addr:street": "1 Maja",
                "addr:housenumber": "82",
                "addr:teryt:simc": 11926,
                "addr:teryt:sym_ul": 956313,
                "contact:phone": "+48 818552214",
                "contact:email": "bursalubartow@interia.pl",
                "contact:website": "http:\/\/www.bursa.lubartow.pl",
                "ref:regon": "431190981",
                "ref:vatin": "PL7141713355",
                "operator": "Powiat Lubartowski",
                "operator:type": "government",
                "building": "dormitory",
                "note": "Parent RSPO: 13870"
            }
        },
        {
            "id": 21793,
            "type": "Feature",
            "geometry": {
                "type": "Point",
                "coordinates": [
                    22.61327,
                    51.45412
                ]
            },
            "properties": {
                "isced:level": "3",
                "ref:rspo": 21793,
                "official_name": "Technikum Zawodowe w Rcez w Lubartowie",
                "name": "Technikum Zawodowe w Rcez w Lubartowie",
                "addr:country": "PL",
                "addr:postcode": "21-100",
                "addr:city": "Lubart\u00f3w",
                "addr:street": "1 Maja",
                "addr:housenumber": "82",
                "addr:teryt:simc": 11926,
                "addr:teryt:sym_ul": 956313,
                "contact:phone": "+48 818552214",
                "contact:email": "rcez@rcez.lubartow.pl",
                "contact:website": "http:\/\/rcez.lubartow.pl",
                "ref:regon": "431261178",
                "operator": "Powiat Lubartowski",
                "operator:type": "government",
                "amenity": "school",
                "note": "Parent RSPO: 13870"
            }
        },
        {
            "id": 21958,
            "type": "Feature",
            "geometry": {
                "type": "Point",
                "coordinates": [
                    22.61327,
                    51.45409
                ]
            },
            "properties": {
                "ref:rspo": 21958,
                "official_name": "Centrum Kszta\u0142cenia Zawodowego w Lubartowie",
                "name": "Centrum Kszta\u0142cenia Zawodowego w Lubartowie",
                "addr:country": "PL",
                "addr:postcode": "21-100",
                "addr:city": "Lubart\u00f3w",
                "addr:street": "1 Maja",
                "addr:housenumber": "82",
                "addr:teryt:simc": 11926,
                "addr:teryt:sym_ul": 956313,
                "contact:phone": "+48 818552214",
                "contact:email": "rcez@rcez.lubartow.pl",
                "contact:website": "http:\/\/rcez.lubartow.pl",
                "ref:regon": "060455900",
                "operator": "Powiat Lubartowski",
                "operator:type": "government",
                "fixme": "w zale\u017cno\u015bci od przedmiotu dzia\u0142alno\u015bci (np. amenity=training + training=*, amenity=dancing_school, amenity=language_school, amenity=music_school) albo amenity=school, amenity=college, albo landuse=education w zale\u017cno\u015bci od tego, jakie plac\u00f3wki wchodz\u0105 w sk\u0142ad zespo\u0142u. Sprawd\u017a, kiedy stosowa\u0107 amenity=* a kiedy landuse=education.",
                "note": "Parent RSPO: 13870"
            }
        },
        {
            "id": 21959,
            "type": "Feature",
            "geometry": {
                "type": "Point",
                "coordinates": [
                    22.61327,
                    51.45406
                ]
            },
            "properties": {
                "isced:level": "3",
                "ref:rspo": 21959,
                "official_name": "Bran\u017cowa Szko\u0142a I Stopnia Nr 1 w Rcez w Lubartowie",
                "name": "Bran\u017cowa Szko\u0142a I Stopnia Nr 1 w Rcez w Lubartowie",
                "addr:country": "PL",
                "addr:postcode": "21-100",
                "addr:city": "Lubart\u00f3w",
                "addr:street": "1 Maja",
                "addr:housenumber": "82",
                "addr:teryt:simc": 11926,
                "addr:teryt:sym_ul": 956313,
                "contact:phone": "+48 818552214",
                "contact:email": "rcez@rcez.lubartow.pl",
                "contact:website": "http:\/\/www.rcez.lubartow.pl",
                "ref:regon": "061465361",
                "operator": "Powiat Lubartowski",
                "operator:type": "government",
                "amenity": "school",
                "note": "Parent RSPO: 13870"
            }
        },
        {
            "id": 21960,
            "type": "Feature",
            "geometry": {
                "type": "Point",
                "coordinates": [
                    22.61327,
                    51.45403
                ]
            },
            "properties": {
                "isced:level": "3",
                "ref:rspo": 21960,
                "official_name": "I Liceum Og\u00f3lnokszta\u0142c\u0105ce dla Doros\u0142ych w Rcez w Lubartowie",
                "name": "I Liceum Og\u00f3lnokszta\u0142c\u0105ce dla Doros\u0142ych w Rcez w Lubartowie",
                "addr:country": "PL",
                "addr:postcode": "21-100",
                "addr:city": "Lubart\u00f3w",
                "addr:street": "1 Maja",
                "addr:housenumber": "82",
                "addr:teryt:simc": 11926,
                "addr:teryt:sym_ul": 956313,
                "contact:phone": "+48 818552214",
                "contact:email": "rcez@rcez.lubartow.pl",
                "contact:website": "http:\/\/rcez.lubartow.pl",
                "ref:regon": "061465390",
                "operator": "Powiat Lubartowski",
                "operator:type": "government",
                "amenity": "school",
                "note": "Parent RSPO: 13870"
            }
        },
        {
            "id": 275708,
            "type": "Feature",
            "geometry": {
                "type": "Point",
                "coordinates": [
                    22.61327,
                    51.454
                ]
            },
            "properties": {
                "isced:level": "3",
                "ref:rspo": 275708,
                "official_name": "Bran\u017cowa Szko\u0142a II Stopnia w Lubartowie",
                "name": "Bran\u017cowa Szko\u0142a II Stopnia w Lubartowie",
                "addr:country": "PL",
                "addr:postcode": "21-100",
                "addr:city": "Lubart\u00f3w",
                "addr:street": "1 Maja",
                "addr:housenumber": "82",
                "addr:teryt:simc": 11926,
                "addr:teryt:sym_ul": 956313,
                "contact:phone": "+48 818552214",
                "contact:email": "rcez@rcez.lubartow.pl",
                "contact:website": "http:\/\/www.rcez.lubartow.pl",
                "ref:regon": "386933913",
                "operator": "Powiat Lubartowski",
                "operator:type": "government",
                "amenity": "school",
                "note": "Parent RSPO: 13870"
            }
        },
        {
            "id": 77962,
            "type": "Feature",
            "geometry": {
                "type": "Point",
                "coordinates": [
                    22.61093,
                    51.45605
                ]
            },
            "properties": {
                "ref:rspo": 77962,
                "official_name": "Przedszkole Prywatne Casper Kamila Skrzypczy\u0144ska",
                "name": "Przedszkole Prywatne Casper Kamila Skrzypczy\u0144ska",
                "addr:country": "PL",
                "addr:postcode": "21-100",
                "addr:city": "Lubart\u00f3w",
                "addr:street": "Cicha",
                "addr:housenumber": "6",
                "addr:teryt:simc": 2974,
                "addr:teryt:sym_ul": 956313,
                "contact:phone": "+48 513727291",
                "contact:email": "kamila.przedszkole@wp.pl",
                "ref:regon": "061483732",
                "ref:vatin": "PL7122807322",
                "operator": "Kamila Skrzypczy\u0144ska",
                "operator:type": "private",
                "amenity": "kindergarten"
            }
        },
        {
            "id": 66122,
            "type": "Feature",
            "geometry": {
                "type": "Point",
                "coordinates": [
                    22.61267,
                    51.45857
                ]
            },
            "properties": {
                "ref:rspo": 66122,
                "official_name": "Przedszkole Miejskie Nr 4 w Lubartowie",
                "name": "Przedszkole Miejskie Nr 4 w Lubartowie",
                "addr:country": "PL",
                "addr:postcode": "21-100",
                "addr:city": "Lubart\u00f3w",
                "addr:street": "Krzywe Ko\u0142o",
                "addr:housenumber": "28",
                "addr:teryt:simc": 10163,
                "addr:teryt:sym_ul": 956313,
                "contact:phone": "+48 818552215",
                "contact:email": "pm4@umlubartow.pl",
                "ref:regon": "430614166",
                "ref:vatin": "PL7141021427",
                "operator": "Gmina Miasto Lubart\u00f3w",
                "operator:type": "government",
                "amenity": "kindergarten"
            }
        },
        {
            "id": 66123,
            "type": "Feature",
            "geometry": {
                "type": "Point",
                "coordinates": [
                    22.60772,
                    51.45876
                ]
            },
            "properties": {
                "isced:level": "1;2",
                "ref:rspo": 66123,
                "official_name": "Szko\u0142a Podstawowa Nr 1 im. Ks. Jana Twardowskiego w Lubartowie",
                "name": "Szko\u0142a Podstawowa Nr 1",
                "addr:country": "PL",
                "addr:postcode": "21-100",
                "addr:city": "Lubart\u00f3w",
                "addr:street": "Legion\u00f3w",
                "addr:housenumber": "3",
                "addr:teryt:simc": 10769,
                "addr:teryt:sym_ul": 956313,
                "contact:phone": "+48 818553021",
                "contact:email": "sp1@umlubartow.pl",
                "contact:website": "http:\/\/www.sp1.lubartow.pl",
                "ref:regon": "000270455",
                "ref:vatin": "PL7141106141",
                "operator": "Gmina Miasto Lubart\u00f3w",
                "operator:type": "government",
                "amenity": "school"
            }
        },
        {
            "id": 77964,
            "type": "Feature",
            "geometry": {
                "type": "Point",
                "coordinates": [
                    22.607530593872,
                    51.460929870605
                ]
            },
            "properties": {
                "ref:rspo": 77964,
                "official_name": "Niepubliczne Przedszkole Dwuj\u0119zyczne \"Motylek\" w Lubartowie",
                "name": "Niepubliczne Przedszkole Dwuj\u0119zyczne \"Motylek\" w Lubartowie",
                "addr:country": "PL",
                "addr:postcode": "21-100",
                "addr:city": "Lubart\u00f3w",
                "addr:street": "Ksi\u0119dza Walentego Ligaja",
                "addr:housenumber": "6",
                "addr:teryt:simc": 52338,
                "addr:teryt:sym_ul": 956313,
                "contact:phone": "+48 609517809",
                "contact:email": "justynakanadys@gmail.com",
                "ref:regon": "061483985",
                "ref:vatin": "PL7142001651",
                "operator": "Justyna Kanadys",
                "operator:type": "private",
                "amenity": "kindergarten"
            }
        },
        {
            "id": 66115,
            "type": "Feature",
            "geometry": {
                "type": "Point",
                "coordinates": [
                    22.60951,
                    51.46414
                ]
            },
            "properties": {
                "ref:rspo": 66115,
                "official_name": "Przedszkole Miejskie Nr 2 w Lubartowie",
                "name": "Przedszkole Miejskie Nr 2 w Lubartowie",
                "addr:country": "PL",
                "addr:postcode": "21-100",
                "addr:city": "Lubart\u00f3w",
                "addr:street": "Tadeusza Ko\u015bciuszki",
                "addr:housenumber": "1",
                "addr:teryt:simc": 9582,
                "addr:teryt:sym_ul": 956313,
                "contact:phone": "+48 818552536",
                "contact:email": "pm2@umlubartow.pl",
                "ref:regon": "430614189",
                "ref:vatin": "PL7141021367",
                "operator": "Gmina Miasto Lubart\u00f3w",
                "operator:type": "government",
                "amenity": "kindergarten"
            }
        },
        {
            "id": 13872,
            "type": "Feature",
            "geometry": {
                "type": "Point",
                "coordinates": [
                    22.60712,
                    51.46584
                ]
            },
            "properties": {
                "ref:rspo": 13872,
                "official_name": "Powiatowy M\u0142odzie\u017cowy Dom Kultury w Lubartowie",
                "name": "Powiatowy M\u0142odzie\u017cowy Dom Kultury w Lubartowie",
                "addr:country": "PL",
                "addr:postcode": "21-100",
                "addr:city": "Lubart\u00f3w",
                "addr:street": "Juliusza S\u0142owackiego",
                "addr:housenumber": "7",
                "addr:teryt:simc": 20286,
                "addr:teryt:sym_ul": 956313,
                "contact:phone": "+48 818553786",
                "contact:email": "mdklubartow@op.pl",
                "contact:website": "http:\/\/www.mdk.lubartow.pl",
                "ref:regon": "000860659",
                "ref:vatin": "PL7141393962",
                "operator": "Powiat Lubartowski",
                "operator:type": "government",
                "amenity": "community_centre",
                "community_centre:for": "juvenile"
            }
        },
        {
            "id": 13873,
            "type": "Feature",
            "geometry": {
                "type": "Point",
                "coordinates": [
                    22.60712,
                    51.46581
                ]
            },
            "properties": {
                "ref:rspo": 13873,
                "official_name": "Poradnia Psychologiczno - Pedagogiczna w Lubartowie",
                "name": "Poradnia Psychologiczno - Pedagogiczna w Lubartowie",
                "addr:country": "PL",
                "addr:postcode": "21-100",
                "addr:city": "Lubart\u00f3w",
                "addr:street": "Juliusza S\u0142owackiego",
                "addr:housenumber": "7",
                "addr:teryt:simc": 20286,
                "addr:teryt:sym_ul": 956313,
                "contact:phone": "+48 818552268",
                "contact:email": "poradnialubartow@op.pl",
                "contact:website": "http:\/\/www.poradnialubartow.pl",
                "ref:regon": "000714538",
                "ref:vatin": "PL7141393956",
                "operator": "Powiat Lubartowski",
                "operator:type": "government",
                "healthcare": "counselling",
                "counselling_type": "education",
                "fixme": "w zale\u017cno\u015bci od przedmiotu dzia\u0142alno\u015bci (np. healthcare=counselling + counselling_type=education albo healthcare=psychotherapist)"
            }
        },
        {
            "id": 13871,
            "type": "Feature",
            "geometry": {
                "type": "Point",
                "coordinates": [
                    22.6038,
                    51.46688
                ]
            },
            "properties": {
                "ref:rspo": 13871,
                "official_name": "Zesp\u00f3\u0142 Szk\u00f3\u0142 Nr 2 im. Ksi\u0119cia Paw\u0142a Karola Sanguszki w Lubartowie",
                "name": "Zesp\u00f3\u0142 Szk\u00f3\u0142 Nr 2",
                "addr:country": "PL",
                "addr:postcode": "21-100",
                "addr:city": "Lubart\u00f3w",
                "addr:street": "Fryderyka Chopina",
                "addr:housenumber": "6",
                "addr:teryt:simc": 2849,
                "addr:teryt:sym_ul": 956313,
                "contact:phone": "+48 818550110",
                "contact:email": "sekretariat@zs2.lubartow.pl",
                "contact:website": "http:\/\/www.zs2.lubartow.pl",
                "ref:regon": "000714521",
                "ref:vatin": "PL7141073789",
                "operator": "Powiat Lubartowski",
                "operator:type": "government",
                "landuse": "education",
                "fixme": "amenity=school, amenity=college albo landuse=education w zale\u017cno\u015bci od tego, jakie plac\u00f3wki wchodz\u0105 w sk\u0142ad zespo\u0142u. Sprawd\u017a, kiedy stosowa\u0107 amenity=* a kiedy landuse=education.",
                "note": "Children RSPO: 16830;16831"
            }
        },
        {
            "id": 16830,
            "type": "Feature",
            "geometry": {
                "type": "Point",
                "coordinates": [
                    22.6038,
                    51.46685
                ]
            },
            "properties": {
                "isced:level": "3",
                "ref:rspo": 16830,
                "official_name": "Technikum Zawodowe Nr 2 w Zespole Szk\u00f3\u0142 Nr 2 w Lubartowie",
                "name": "Technikum Zawodowe Nr 2 w Zespole Szk\u00f3\u0142 Nr 2 w Lubartowie",
                "addr:country": "PL",
                "addr:postcode": "21-100",
                "addr:city": "Lubart\u00f3w",
                "addr:street": "Fryderyka Chopina",
                "addr:housenumber": "6",
                "addr:teryt:simc": 2849,
                "addr:teryt:sym_ul": 956313,
                "contact:phone": "+48 818550110",
                "contact:email": "sekretariat@zs2.lubartow.pl",
                "contact:website": "http:\/\/www.zs2.lubartow.pl",
                "ref:regon": "060456319",
                "operator": "Powiat Lubartowski",
                "operator:type": "government",
                "amenity": "school",
                "note": "Parent RSPO: 13871"
            }
        },
        {
            "id": 16831,
            "type": "Feature",
            "geometry": {
                "type": "Point",
                "coordinates": [
                    22.6038,
                    51.466820000000006
                ]
            },
            "properties": {
                "isced:level": "3",
                "ref:rspo": 16831,
                "official_name": "I Liceum Og\u00f3lnokszta\u0142c\u0105ce w Zespole Szk\u00f3\u0142 Nr 2 w Lubartowie",
                "name": "I Liceum Og\u00f3lnokszta\u0142c\u0105ce w Zespole Szk\u00f3\u0142 Nr 2 w Lubartowie",
                "addr:country": "PL",
                "addr:postcode": "21-100",
                "addr:city": "Lubart\u00f3w",
                "addr:street": "Fryderyka Chopina",
                "addr:housenumber": "6",
                "addr:teryt:simc": 2849,
                "addr:teryt:sym_ul": 956313,
                "contact:phone": "+48 818550110",
                "contact:email": "sekretariat@zs2.lubartow.pl",
                "contact:website": "http:\/\/www.zs2.lubartow.pl",
                "ref:regon": "431231183",
                "operator": "Powiat Lubartowski",
                "operator:type": "government",
                "amenity": "school",
                "note": "Parent RSPO: 13871"
            }
        },
        {
            "id": 66125,
            "type": "Feature",
            "geometry": {
                "type": "Point",
                "coordinates": [
                    22.60313,
                    51.4695899
                ]
            },
            "properties": {
                "ref:rspo": 66125,
                "official_name": "Przedszkole Miejskie Nr 1 w Lubartowie",
                "name": "Przedszkole Miejskie Nr 1 w Lubartowie",
                "addr:country": "PL",
                "addr:postcode": "21-100",
                "addr:city": "Lubart\u00f3w",
                "addr:street": "3 Maja",
                "addr:housenumber": "24B",
                "addr:teryt:simc": 11937,
                "addr:teryt:sym_ul": 956313,
                "contact:phone": "+48 818553608",
                "contact:email": "pm1@umlubartow.pl",
                "contact:website": "http:\/\/www.przedszkole1-lubartow.pl",
                "ref:regon": "430614137",
                "ref:vatin": "PL7141021315",
                "operator": "Gmina Miasto Lubart\u00f3w",
                "operator:type": "government",
                "amenity": "kindergarten"
            }
        },
        {
            "id": 90318,
            "type": "Feature",
            "geometry": {
                "type": "Point",
                "coordinates": [
                    22.61315,
                    51.47255
                ]
            },
            "properties": {
                "ref:rspo": 90318,
                "official_name": "Niepubliczne Przedszkole Fantazja Beata Kozyra",
                "name": "Niepubliczne Przedszkole Fantazja Beata Kozyra",
                "addr:country": "PL",
                "addr:postcode": "21-100",
                "addr:city": "Lubart\u00f3w",
                "addr:street": "Wierzbowa",
                "addr:housenumber": "34",
                "addr:teryt:simc": 24170,
                "addr:teryt:sym_ul": 956313,
                "contact:phone": "+48 504773617",
                "contact:email": "przedszkolaki.fantazja@gmail.com",
                "contact:website": "http:\/\/www.przedszkole-fantazja.pl",
                "ref:regon": "061497042",
                "ref:vatin": "PL7141890927",
                "operator": "Beata Kozyra",
                "operator:type": "private",
                "amenity": "kindergarten"
            }
        },
        {
            "id": 66132,
            "type": "Feature",
            "geometry": {
                "type": "Point",
                "coordinates": [
                    22.59828,
                    51.4795299
                ]
            },
            "properties": {
                "isced:level": "1;2",
                "ref:rspo": 66132,
                "official_name": "Szko\u0142a Podstawowa Nr 4 im.jana Paw\u0142a II w Lubartowie",
                "name": "Szko\u0142a Podstawowa Nr 4 im.jana Paw\u0142a II w Lubartowie",
                "addr:country": "PL",
                "addr:postcode": "21-100",
                "addr:city": "Lubart\u00f3w",
                "addr:street": "Kosmonaut\u00f3w",
                "addr:housenumber": "11",
                "addr:teryt:simc": 9440,
                "addr:teryt:sym_ul": 956313,
                "contact:phone": "+48 818551057",
                "contact:email": "sp4@umlubartow.pl",
                "contact:website": "http:\/\/sp4lubartow.pl",
                "ref:regon": "431256438",
                "ref:vatin": "PL7141146011",
                "operator": "Gmina Miasto Lubart\u00f3w",
                "operator:type": "government",
                "amenity": "school"
            }
        }
    ]
}