{"type":"FeatureCollection","features":[{"id":72745,"type":"Feature","geometry":{"type":"Point","coordinates":[22.30681,51.52166]},"properties":{"ref:rspo":72745,"official_name":"Zesp\u00f3\u0142 Szk\u00f3\u0142 Og\u00f3lnokszta\u0142cacych w Michowie","name":"Zesp\u00f3\u0142 Szk\u00f3\u0142 Og\u00f3lnokszta\u0142cacych w Michowie","addr:country":"PL","addr:postcode":"21-140","addr:city":"Mich\u00f3w","addr:street":"ul. Szkolna II","addr:housenumber":"2B","addr:teryt:simc":31207,"addr:teryt:sym_ul":386181,"contact:phone":"+48 818566039","contact:email":"zso.michow@vp.pl","contact:website":"http:\/\/www.zsomichow.pl","ref:regon":"000593081","ref:vatin":"PL7141051842","operator":"Gmina Mich\u00f3w","operator:type":"government","landuse":"education","fixme":"amenity=school, amenity=college albo landuse=education w zale\u017cno\u015bci od tego, jakie plac\u00f3wki wchodz\u0105 w sk\u0142ad zespo\u0142u. Sprawd\u017a, kiedy stosowa\u0107 amenity=* a kiedy landuse=education.","note":"Children RSPO: 90035;90066"}},{"id":90035,"type":"Feature","geometry":{"type":"Point","coordinates":[22.30681,51.521629999999995]},"properties":{"isced:level":"1;2","ref:rspo":90035,"official_name":"Szko\u0142a Podstawowa im. Bohater\u00f3w Westerplatte w Michowie","name":"Szko\u0142a Podstawowa","addr:country":"PL","addr:postcode":"21-140","addr:city":"Mich\u00f3w","addr:street":"ul. Szkolna II","addr:housenumber":"2B","addr:teryt:simc":31207,"addr:teryt:sym_ul":386181,"contact:phone":"+48 818566039","contact:email":"zso.michow@vp.pl","contact:website":"http:\/\/www.zsomichow.pl","ref:regon":"430583649","ref:vatin":"PL7141774919","operator":"Gmina Mich\u00f3w","operator:type":"government","amenity":"school","note":"Parent RSPO: 72745"}},{"id":90066,"type":"Feature","geometry":{"type":"Point","coordinates":[22.30681,51.5216]},"properties":{"isced:level":"3","ref:rspo":90066,"official_name":"Liceum Og\u00f3lnokszta\u0142c\u0105ce im. Bohater\u00f3w Westerplatte w Michowie","name":"Liceum Og\u00f3lnokszta\u0142c\u0105ce","addr:country":"PL","addr:postcode":"21-140","addr:city":"Mich\u00f3w","addr:street":"ul. Szkolna II","addr:housenumber":"2B","addr:teryt:simc":31207,"addr:teryt:sym_ul":386181,"contact:phone":"+48 818566039","contact:email":"zso.michow@vp.pl","contact:website":"http:\/\/www.zsomichow.pl","ref:regon":"000899408","ref:vatin":"PL7141774925","operator":"Gmina Mich\u00f3w","operator:type":"government","amenity":"school","note":"Parent RSPO: 72745"}},{"id":74302,"type":"Feature","geometry":{"type":"Point","coordinates":[22.31228,51.52301]},"properties":{"ref:rspo":74302,"official_name":"Przedszkole w Michowie","name":"Przedszkole w Michowie","addr:country":"PL","addr:postcode":"21-140","addr:city":"Mich\u00f3w","addr:street":"ul. Stra\u017cacka","addr:housenumber":"3","addr:teryt:simc":21271,"addr:teryt:sym_ul":386181,"contact:phone":"+48 818566004","contact:email":"przedszkole_michow@wp.pl","contact:website":"http:\/\/www.pmichow.szkolnastrona.pl","ref:regon":"060715637","ref:vatin":"PL7142034567","operator":"Gmina Mich\u00f3w","operator:type":"government","amenity":"kindergarten"}},{"id":90074,"type":"Feature","geometry":{"type":"Point","coordinates":[22.37023,51.52802]},"properties":{"isced:level":"1;2","ref:rspo":90074,"official_name":"Szko\u0142a Podstawowa im. J\u00f3zefa Nie\u0107ko w Rudnie","name":"Szko\u0142a Podstawowa","addr:country":"PL","addr:postcode":"21-140","addr:city":"Rudno","addr:street":"ul. Spacerowa","addr:housenumber":"110","addr:teryt:simc":20641,"addr:teryt:sym_ul":386241,"contact:phone":"+48 818568204","contact:email":"zsrudno@op.pl","contact:website":"http:\/\/www.zsrudno.avx.pl","ref:regon":"001151534","ref:vatin":"PL7141052646","operator":"Gmina Mich\u00f3w","operator:type":"government","amenity":"school"}},{"id":72595,"type":"Feature","geometry":{"type":"Point","coordinates":[22.29887,51.55961]},"properties":{"isced:level":"1;2","ref:rspo":72595,"official_name":"Szko\u0142a Podstawowa w Katarzynie","name":"Szko\u0142a Podstawowa w Katarzynie","addr:country":"PL","addr:postcode":"21-140","addr:place":"Katarzyn","addr:housenumber":"114","addr:teryt:sym_ul":386063,"contact:phone":"+48 818594480","contact:email":"spkatarzyn@wp.pl","contact:website":"http:\/\/www.szkolakatarzyn.pl","ref:regon":"001151540","ref:vatin":"PL7141744953","operator":"Gmina Mich\u00f3w","operator:type":"government","amenity":"school"}}]}