{
    "type": "FeatureCollection",
    "features": [
        {
            "id": 35088,
            "type": "Feature",
            "geometry": {
                "type": "Point",
                "coordinates": [
                    22.94268,
                    51.47145
                ]
            },
            "properties": {
                "isced:level": "1;2",
                "ref:rspo": 35088,
                "official_name": "Szko\u0142a Podstawowa w Starym U\u015bcimowie im. Marsza\u0142ka J\u00f3zefa Pi\u0142sudskiego",
                "name": "Szko\u0142a Podstawowa w Starym U\u015bcimowie",
                "addr:country": "PL",
                "addr:postcode": "21-109",
                "addr:place": "Stary U\u015bcim\u00f3w",
                "addr:housenumber": "43",
                "addr:teryt:simc": 392968,
                "contact:phone": "+48 818523014",
                "contact:email": "szkola.podstawowa@uscimow.org.pl",
                "contact:website": "http:\/\/www.spuscimow.pl",
                "ref:regon": "000636034",
                "ref:vatin": "PL7142048782",
                "operator": "Gmina U\u015bcim\u00f3w",
                "operator:type": "government",
                "amenity": "school"
            }
        },
        {
            "id": 126573,
            "type": "Feature",
            "geometry": {
                "type": "Point",
                "coordinates": [
                    22.92716,
                    51.50604
                ]
            },
            "properties": {
                "isced:level": "1;2",
                "ref:rspo": 126573,
                "official_name": "Szko\u0142a Podstawowa w Nowej Jedlance",
                "name": "Szko\u0142a Podstawowa w Nowej Jedlance",
                "addr:country": "PL",
                "addr:postcode": "21-109",
                "addr:place": "Nowa Jedlanka",
                "addr:housenumber": "1",
                "addr:teryt:simc": 392862,
                "contact:phone": "+48 797615217",
                "contact:email": "szkola.nowa.jedlanka@gmail.com",
                "ref:regon": "360508544",
                "ref:vatin": "PL7141746544",
                "operator": "Fundacja Akademia Umiej\u0119tno\u015bci",
                "operator:type": "ngo",
                "amenity": "school"
            }
        }
    ]
}