{
    "type": "FeatureCollection",
    "features": [
        {
            "id": 68339,
            "type": "Feature",
            "geometry": {
                "type": "Point",
                "coordinates": [
                    22.5661999,
                    51.5411
                ]
            },
            "properties": {
                "isced:level": "1;2",
                "ref:rspo": 68339,
                "official_name": "Publiczna Szko\u0142a Podstawowa w Przypis\u00f3wce",
                "name": "Publiczna Szko\u0142a Podstawowa w Przypis\u00f3wce",
                "addr:postcode": "21-136",
                "addr:place": "Przypis\u00f3wka",
                "addr:housenumber": "18",
                "addr:city:simc": 380600,
                "phone": "+48 818575234",
                "email": "szkolaprzypisowka@interia.pl",
                "ref:regon": "061481160",
                "ref:vatin": "PL7141044434",
                "operator": "Halina Bystrzycka",
                "operator:type": "private",
                "amenity": "school"
            }
        },
        {
            "id": 13875,
            "type": "Feature",
            "geometry": {
                "type": "Point",
                "coordinates": [
                    22.52672,
                    51.5557299
                ]
            },
            "properties": {
                "ref:rspo": 13875,
                "official_name": "Specjalny O\u015brodek Szkolno - Wychowawczy w Firleju",
                "name": "Specjalny O\u015brodek Szkolno - Wychowawczy w Firleju",
                "addr:postcode": "21-136",
                "addr:city": "Firlej",
                "addr:street": "Choiny",
                "addr:housenumber": "7",
                "addr:city:simc": 380540,
                "addr:street:sym_ul": 2819,
                "phone": "+48 818575053",
                "email": "oswfirlej@o2.pl",
                "website": "http:\/\/www.soswfirlej.szkolnastrona.pl",
                "ref:regon": "001231109",
                "operator": "Powiat Lubartowski",
                "operator:type": "government",
                "amenity": "school",
                "note": "Children RSPO: 22135;22138;22139"
            }
        },
        {
            "id": 22135,
            "type": "Feature",
            "geometry": {
                "type": "Point",
                "coordinates": [
                    22.52672,
                    51.5556999
                ]
            },
            "properties": {
                "isced:level": "1;2",
                "ref:rspo": 22135,
                "official_name": "Szko\u0142a Podstawowa Specjalna w Sosw w Firleju",
                "name": "Szko\u0142a Podstawowa Specjalna w Sosw w Firleju",
                "addr:postcode": "21-136",
                "addr:city": "Firlej",
                "addr:street": "Choiny",
                "addr:housenumber": "7",
                "addr:city:simc": 380540,
                "addr:street:sym_ul": 2819,
                "phone": "+48 818575053",
                "email": "oswfirlej@o2.pl",
                "website": "http:\/\/www.soswfirlej.szkolnastrona.pl",
                "ref:regon": "431510109",
                "operator": "Powiat Lubartowski",
                "operator:type": "government",
                "amenity": "school",
                "note": "Parent RSPO: 13875"
            }
        },
        {
            "id": 22138,
            "type": "Feature",
            "geometry": {
                "type": "Point",
                "coordinates": [
                    22.52672,
                    51.555669900000005
                ]
            },
            "properties": {
                "ref:rspo": 22138,
                "official_name": "Szko\u0142a Specjalna Przysposabiaj\u0105ca do Pracy w Sosw w Firleju",
                "name": "Szko\u0142a Specjalna Przysposabiaj\u0105ca do Pracy w Sosw w Firleju",
                "addr:postcode": "21-136",
                "addr:city": "Firlej",
                "addr:street": "Choiny",
                "addr:housenumber": "7",
                "addr:city:simc": 380540,
                "addr:street:sym_ul": 2819,
                "phone": "+48 818575053",
                "email": "oswfirlej@o2.pl",
                "website": "http:\/\/www.soswfirlej.szkolnastrona.pl",
                "ref:regon": "432722204",
                "operator": "Powiat Lubartowski",
                "operator:type": "government",
                "amenity": "school",
                "note": "Parent RSPO: 13875"
            }
        },
        {
            "id": 22139,
            "type": "Feature",
            "geometry": {
                "type": "Point",
                "coordinates": [
                    22.52672,
                    51.5556399
                ]
            },
            "properties": {
                "isced:level": "3",
                "ref:rspo": 22139,
                "official_name": "Bran\u017cowa Szko\u0142a Specjalna I Stopnia nr 1 w Sosw w Firleju",
                "name": "Bran\u017cowa Szko\u0142a Specjalna I Stopnia nr 1 w Sosw w Firleju",
                "addr:postcode": "21-136",
                "addr:city": "Firlej",
                "addr:street": "Choiny",
                "addr:housenumber": "7",
                "addr:city:simc": 380540,
                "addr:street:sym_ul": 2819,
                "phone": "+48 818575053",
                "email": "oswfirlej@o2.pl",
                "website": "http:\/\/www.soswfirlej.szkolnastrona.pl",
                "ref:regon": "061465697",
                "operator": "Powiat Lubartowski",
                "operator:type": "government",
                "amenity": "school",
                "note": "Parent RSPO: 13875"
            }
        },
        {
            "id": 131497,
            "type": "Feature",
            "geometry": {
                "type": "Point",
                "coordinates": [
                    22.51045,
                    51.55786
                ]
            },
            "properties": {
                "ref:rspo": 131497,
                "official_name": "Przedszkole Prywatne \"Casper\"",
                "name": "Przedszkole Prywatne \"Casper\"",
                "addr:postcode": "21-136",
                "addr:city": "Firlej",
                "addr:street": "Rynek",
                "addr:housenumber": "1A",
                "addr:city:simc": 380540,
                "addr:street:sym_ul": 19253,
                "phone": "+48 513727291",
                "email": "kamila.przedszkole@wp.pl",
                "ref:regon": "365205771",
                "operator": "Kamila Skrzypczy\u0144ska",
                "operator:type": "private",
                "amenity": "kindergarten"
            }
        },
        {
            "id": 69736,
            "type": "Feature",
            "geometry": {
                "type": "Point",
                "coordinates": [
                    22.50307,
                    51.55879
                ]
            },
            "properties": {
                "isced:level": "1;2",
                "ref:rspo": 69736,
                "official_name": "Szko\u0142a Podstawowa im. Janusza Korczaka w Firleju",
                "name": "Szko\u0142a Podstawowa",
                "addr:postcode": "21-136",
                "addr:city": "Firlej",
                "addr:street": "Partyzancka",
                "addr:housenumber": "23",
                "addr:city:simc": 380540,
                "addr:street:sym_ul": 15729,
                "phone": "+48 818575015",
                "email": "sekretariat@spfirlej.szkolnastrona.wp.pl",
                "website": "http:\/\/spfirlej.szkolnastrona.pl",
                "ref:regon": "000266666",
                "ref:vatin": "PL7142050514",
                "operator": "Gmina Firlej",
                "operator:type": "government",
                "amenity": "school"
            }
        },
        {
            "id": 68343,
            "type": "Feature",
            "geometry": {
                "type": "Point",
                "coordinates": [
                    22.43335,
                    51.57667
                ]
            },
            "properties": {
                "isced:level": "1;2",
                "ref:rspo": 68343,
                "official_name": "Publiczna Szko\u0142a Podstawowa w Nowym Antoninie",
                "name": "Publiczna Szko\u0142a Podstawowa w Nowym Antoninie",
                "addr:postcode": "21-136",
                "addr:place": "Nowy Antonin",
                "addr:housenumber": "72",
                "addr:city:simc": 380586,
                "email": "pspantonin@wp.pl",
                "ref:regon": "061489976",
                "ref:vatin": "PL7141915449",
                "operator": "Stowarzyszenie O\u015bwiatowo-Kulturalne Na Rzecz Rozwoju Wsi Nowy I Stary Antonin",
                "operator:type": "ngo",
                "amenity": "school"
            }
        },
        {
            "id": 277775,
            "type": "Feature",
            "geometry": {
                "type": "Point",
                "coordinates": [
                    22.45756,
                    51.61641
                ]
            },
            "properties": {
                "ref:rspo": 277775,
                "official_name": "Zesp\u00f3\u0142 Szkolno - Przedszkolny w Woli Skromowskiej",
                "name": "Zesp\u00f3\u0142 Szkolno - Przedszkolny w Woli Skromowskiej",
                "addr:postcode": "21-150",
                "addr:place": "Wola Skromowska",
                "addr:housenumber": "55",
                "addr:city:simc": 380741,
                "phone": "+48 818591503",
                "email": "szpwolaskrom@wp.pl",
                "website": "http:\/\/www.wolaszkola.pl\/",
                "ref:regon": "389477108",
                "operator": "Gmina Firlej",
                "operator:type": "government",
                "landuse": "education",
                "fixme": "amenity=school, amenity=college albo landuse=education w zale\u017cno\u015bci od tego, jakie plac\u00f3wki wchodz\u0105 w sk\u0142ad zespo\u0142u. Sprawd\u017a, kiedy stosowa\u0107 amenity=* a kiedy landuse=education.",
                "note": "Children RSPO: 69738;277773"
            }
        },
        {
            "id": 69738,
            "type": "Feature",
            "geometry": {
                "type": "Point",
                "coordinates": [
                    22.45756,
                    51.61638
                ]
            },
            "properties": {
                "isced:level": "1;2",
                "ref:rspo": 69738,
                "official_name": "Szko\u0142a Podstawowa im. Marii Konopnickiej w Woli Skromowskiej",
                "name": "Szko\u0142a Podstawowa",
                "addr:postcode": "21-150",
                "addr:place": "Wola Skromowska",
                "addr:housenumber": "55",
                "addr:city:simc": 380741,
                "phone": "+48 818591503",
                "email": "szpwolaskrom@wp.pl",
                "ref:regon": "001177025",
                "ref:vatin": "PL7141142504",
                "operator": "Gmina Firlej",
                "operator:type": "government",
                "amenity": "school",
                "note": "Parent RSPO: 277775"
            }
        },
        {
            "id": 277773,
            "type": "Feature",
            "geometry": {
                "type": "Point",
                "coordinates": [
                    22.45756,
                    51.616350000000004
                ]
            },
            "properties": {
                "ref:rspo": 277773,
                "official_name": "Przedszkole Samorz\u0105dowe w Woli Skromowskiej",
                "name": "Przedszkole Samorz\u0105dowe w Woli Skromowskiej",
                "addr:postcode": "21-150",
                "addr:place": "Wola Skromowska",
                "addr:housenumber": "55",
                "addr:city:simc": 380741,
                "phone": "+48 818591503",
                "email": "szpwolaskrom@wp.pl",
                "website": "http:\/\/www.wolaszkola.pl\/",
                "ref:regon": "389477120",
                "operator": "Gmina Firlej",
                "operator:type": "government",
                "amenity": "kindergarten",
                "note": "Parent RSPO: 277775"
            }
        }
    ]
}