{"type":"FeatureCollection","features":[{"id":19346,"type":"Feature","geometry":{"type":"Point","coordinates":[22.6818199,51.40352]},"properties":{"isced:level":"1;2","ref:rspo":19346,"official_name":"Szko\u0142a Podstawowa im. Boles\u0142awa Prusa w W\u00f3lce Rokickiej","name":"Szko\u0142a Podstawowa","addr:country":"PL","addr:postcode":"21-100","addr:place":"W\u00f3lka Rokicka","addr:housenumber":"90","addr:teryt:sym_ul":384791,"contact:phone":"+48 818518003","contact:email":"spwr@poczta.onet.pl","contact:website":"http:\/\/www.spwr.pl\/","ref:regon":"001180688","ref:vatin":"PL7141051925","operator":"Gmina Lubart\u00f3w","operator:type":"government","amenity":"school"}},{"id":56440,"type":"Feature","geometry":{"type":"Point","coordinates":[22.60737,51.40657]},"properties":{"isced:level":"1;2","ref:rspo":56440,"official_name":"Szko\u0142a Podstawowa w Wandzinie","name":"Szko\u0142a Podstawowa w Wandzinie","addr:country":"PL","addr:postcode":"21-100","addr:place":"Wandzin","addr:housenumber":"15","addr:teryt:sym_ul":384756,"contact:phone":"+48 818555240","contact:email":"spwandzin@wp.pl","contact:website":"http:\/\/spwandzin.edupage.org","ref:regon":"061480811","ref:vatin":"PL7141785254","operator":"Stowarzyszenie Rozwoju Wsi Ma\u0142k\u00f3w,Kolonia Ma\u0142k\u00f3w,G\u00f3rka,Kolonia Kry\u0142\u00f3w","operator:type":"ngo","amenity":"school"}},{"id":19338,"type":"Feature","geometry":{"type":"Point","coordinates":[22.63537,51.42639]},"properties":{"isced:level":"1;2","ref:rspo":19338,"official_name":"Szko\u0142a Podstawowa im. Ziemi Lubartowskiej w \u0141ucce","name":"Szko\u0142a Podstawowa","addr:country":"PL","addr:postcode":"21-100","addr:place":"\u0141ucka-Kolonia","addr:housenumber":"125","addr:teryt:sym_ul":384621,"contact:phone":"+48 818555681","contact:email":"splucka@poczta.onet.pl","contact:website":"http:\/\/splucka.edupage.org\/","ref:regon":"001180636","ref:vatin":"PL7141051776","operator":"Gmina Lubart\u00f3w","operator:type":"government","amenity":"school"}},{"id":19339,"type":"Feature","geometry":{"type":"Point","coordinates":[22.54452,51.44397]},"properties":{"isced:level":"1;2","ref:rspo":19339,"official_name":"Szko\u0142a Podstawowa im. Kard.st.wyszy\u0144skiego w Nowodworze","name":"Szko\u0142a Podstawowa","addr:country":"PL","addr:postcode":"21-100","addr:place":"Nowodw\u00f3r","addr:housenumber":"60","addr:teryt:sym_ul":384667,"contact:phone":"+48 818552632","contact:email":"szkolanowodwor@poczta.onet.pl","contact:website":"http:\/\/www.spnowodwor.edupage.org","ref:regon":"001180659","ref:vatin":"PL7141051807","operator":"Gmina Lubart\u00f3w","operator:type":"government","amenity":"school"}},{"id":268471,"type":"Feature","geometry":{"type":"Point","coordinates":[22.54944,51.46804]},"properties":{"ref:rspo":268471,"official_name":"Zesp\u00f3\u0142 Szkolno - Przedszkolny w Skrobowie","name":"Zesp\u00f3\u0142 Szkolno - Przedszkolny w Skrobowie","addr:country":"PL","addr:postcode":"21-100","addr:place":"Skrob\u00f3w-Kolonia","addr:housenumber":"106","addr:teryt:sym_ul":384710,"contact:phone":"+48 818554403","contact:email":"zsps@spskrobow.ehost.pl","ref:regon":"381173981","ref:vatin":"PL7142050508","operator":"Gmina Lubart\u00f3w","operator:type":"government","landuse":"education","fixme":"amenity=school, amenity=college albo landuse=education w zale\u017cno\u015bci od tego, jakie plac\u00f3wki wchodz\u0105 w sk\u0142ad zespo\u0142u. Sprawd\u017a, kiedy stosowa\u0107 amenity=* a kiedy landuse=education.","note":"Children RSPO: 19340;268467"}},{"id":19340,"type":"Feature","geometry":{"type":"Point","coordinates":[22.54944,51.46801]},"properties":{"isced:level":"1;2","ref:rspo":19340,"official_name":"Szko\u0142a Podstawowa im. 27 Wdp Ak w Skrobowie","name":"Szko\u0142a Podstawowa","addr:country":"PL","addr:postcode":"21-100","addr:place":"Skrob\u00f3w-Kolonia","addr:housenumber":"106","addr:teryt:sym_ul":384710,"contact:phone":"+48 818554403","contact:email":"zsps@spskrobow.ehost.pl","contact:website":"http:\/\/spskrobow.ehost.pl\/2011\/","ref:regon":"001180665","ref:vatin":"PL7141051865","operator":"Gmina Lubart\u00f3w","operator:type":"government","amenity":"school","note":"Parent RSPO: 268471"}},{"id":268467,"type":"Feature","geometry":{"type":"Point","coordinates":[22.54944,51.467980000000004]},"properties":{"ref:rspo":268467,"official_name":"Przedszkole w Skrobowie","name":"Przedszkole w Skrobowie","addr:country":"PL","addr:postcode":"21-100","addr:place":"Skrob\u00f3w-Kolonia","addr:housenumber":"106A","addr:teryt:sym_ul":384710,"contact:phone":"+48 818554403","contact:email":"zsps@spskrobow.ehost.pl","ref:regon":"381173076","operator":"Gmina Lubart\u00f3w","operator:type":"government","amenity":"kindergarten","note":"Parent RSPO: 268471"}},{"id":22325,"type":"Feature","geometry":{"type":"Point","coordinates":[22.60304,51.4791]},"properties":{"ref:rspo":22325,"official_name":"Szko\u0142a Umiej\u0119tno\u015bci","name":"Szko\u0142a Umiej\u0119tno\u015bci","addr:country":"PL","addr:postcode":"21-100","addr:place":"Lis\u00f3w","addr:housenumber":"155A","addr:teryt:sym_ul":384609,"contact:phone":"+48 818544100","contact:email":"su12@poczta.fm","ref:regon":"061465881","operator":"Krzysztof Wo\u017aniak","operator:type":"private","landuse":"education","fixme":"amenity=school, amenity=college albo landuse=education w zale\u017cno\u015bci od tego, jakie plac\u00f3wki wchodz\u0105 w sk\u0142ad zespo\u0142u. Sprawd\u017a, kiedy stosowa\u0107 amenity=* a kiedy landuse=education.","note":"Children RSPO: 28559;276165"}},{"id":28559,"type":"Feature","geometry":{"type":"Point","coordinates":[22.60304,51.47907]},"properties":{"isced:level":"3","ref:rspo":28559,"official_name":"Szko\u0142a Umiej\u0119tno\u015bci w Lubartowie - Bran\u017cowa Szko\u0142a I Stopnia","name":"Szko\u0142a Umiej\u0119tno\u015bci w Lubartowie - Bran\u017cowa Szko\u0142a I Stopnia","addr:country":"PL","addr:postcode":"21-100","addr:place":"Lis\u00f3w","addr:housenumber":"155A","addr:teryt:sym_ul":384609,"contact:phone":"+48 818544100","contact:email":"su12@poczta.fm","ref:regon":"061473113","ref:vatin":"PL7140002505","operator":"Krzysztof Wo\u017aniak","operator:type":"private","amenity":"school","note":"Parent RSPO: 22325"}},{"id":276165,"type":"Feature","geometry":{"type":"Point","coordinates":[22.60304,51.479040000000005]},"properties":{"isced:level":"3","ref:rspo":276165,"official_name":"Szko\u0142a Umiej\u0119tno\u015bci w Lubartowie - Bran\u017cowa Szko\u0142a II Stopnia","name":"Szko\u0142a Umiej\u0119tno\u015bci w Lubartowie - Bran\u017cowa Szko\u0142a II Stopnia","addr:country":"PL","addr:postcode":"21-100","addr:place":"Lis\u00f3w","addr:housenumber":"155A","addr:teryt:sym_ul":384609,"contact:phone":"+48 818544100","contact:email":"su12@poczta.fm","contact:website":"http:\/\/www.szkolaumiejetnosci.pl","ref:regon":"387008065","operator":"Krzysztof Wo\u017aniak","operator:type":"private","amenity":"school","note":"Parent RSPO: 22325"}},{"id":268446,"type":"Feature","geometry":{"type":"Point","coordinates":[22.60138,51.47975]},"properties":{"ref:rspo":268446,"official_name":"Niepubliczne Przedszkole Integracyjne Ma\u0142ego Karola","name":"Niepubliczne Przedszkole Integracyjne Ma\u0142ego Karola","addr:country":"PL","addr:postcode":"21-100","addr:place":"Lis\u00f3w","addr:housenumber":"2D","addr:teryt:sym_ul":384609,"contact:phone":"+48 818542801","contact:email":"s.rzasa@diecezja.lublin.pl","ref:regon":"381172846","operator":"Parafia Rzymskokatolicka Wniebowst\u0105pienia Pa\u0144skiego","operator:type":"religious","amenity":"kindergarten"}},{"id":19344,"type":"Feature","geometry":{"type":"Point","coordinates":[22.614715019886,51.483594987179]},"properties":{"isced:level":"1;2","ref:rspo":19344,"official_name":"Szko\u0142a Podstawowa w Szczekarkowie","name":"Szko\u0142a Podstawowa w Szczekarkowie","addr:country":"PL","addr:postcode":"21-100","addr:place":"Szczekark\u00f3w","addr:housenumber":"124","addr:teryt:sym_ul":384727,"contact:phone":"+48 818552645","contact:email":"spszczekarkow@op.pl","contact:website":"http:\/\/www.spszczekarkow.pl\/","ref:regon":"001180671","ref:vatin":"PL7141051894","operator":"Gmina Lubart\u00f3w","operator:type":"government","amenity":"school"}},{"id":19341,"type":"Feature","geometry":{"type":"Point","coordinates":[22.560802459717,51.514274597168]},"properties":{"isced:level":"1;2","ref:rspo":19341,"official_name":"Szko\u0142a Podstawowa w Annoborze","name":"Szko\u0142a Podstawowa w Annoborze","addr:country":"PL","addr:postcode":"21-100","addr:place":"Annob\u00f3r","addr:housenumber":"69","addr:teryt:sym_ul":384555,"contact:email":"spannobor@wp.pl","contact:website":"http:\/\/spannobor.edupage.org\/","ref:regon":"001180613","ref:vatin":"PL7141051641","operator":"Gmina Lubart\u00f3w","operator:type":"government","amenity":"school"}},{"id":19342,"type":"Feature","geometry":{"type":"Point","coordinates":[22.61064,51.51819]},"properties":{"isced:level":"1;2","ref:rspo":19342,"official_name":"Szko\u0142a Podstawowa im. B\u0142 Karoliny K\u00f3zk\u00f3wny w Brzezinach","name":"Szko\u0142a Podstawowa","addr:country":"PL","addr:postcode":"21-100","addr:place":"Brzeziny","addr:housenumber":"168","addr:teryt:sym_ul":384584,"contact:phone":"+48 818552779","contact:email":"spbrzeziny@op.pl","contact:website":"http:\/\/www.spbrzeziny.szkolnastrona.pl\/","ref:regon":"001180620","ref:vatin":"PL7141051724","operator":"Gmina Lubart\u00f3w","operator:type":"government","amenity":"school"}},{"id":276770,"type":"Feature","geometry":{"type":"Point","coordinates":[22.61064,51.518159999999995]},"properties":{"ref:rspo":276770,"official_name":"Parew Niepubliczne Centrum Kszta\u0142cenia Ustawicznego","name":"Parew Niepubliczne Centrum Kszta\u0142cenia Ustawicznego","addr:country":"PL","addr:postcode":"21-100","addr:place":"Brzeziny","addr:housenumber":"168","addr:teryt:sym_ul":384584,"contact:email":"parew@parew.pl","contact:website":"http:\/\/www.parew.pl","ref:regon":"387553510","ref:vatin":"PL7141893630","operator":"Pawe\u0142 Wilczy\u0144ski","operator:type":"private","fixme":"w zale\u017cno\u015bci od przedmiotu dzia\u0142alno\u015bci (np. amenity=training + training=*, amenity=dancing_school, amenity=language_school, amenity=music_school)"}}]}