{"type":"FeatureCollection","features":[{"id":38960,"type":"Feature","geometry":{"type":"Point","coordinates":[22.61001,51.55094]},"properties":{"isced:level":"1;2","ref:rspo":38960,"official_name":"Szko\u0142a Podstawowa im. Dywizjonu 301 w Leszkowicach","name":"Szko\u0142a Podstawowa","addr:country":"PL","addr:postcode":"21-102","addr:place":"Leszkowice","addr:housenumber":"12A","addr:teryt:sym_ul":388777,"contact:phone":"+48 818563104","contact:email":"spleszkowice@wp.pl","contact:website":"http:\/\/www.spl.ostrowek.pl","ref:regon":"001151630","ref:vatin":"PL7142046085","operator":"Gmina Ostr\u00f3wek","operator:type":"government","amenity":"school"}},{"id":73642,"type":"Feature","geometry":{"type":"Point","coordinates":[22.59585,51.58384]},"properties":{"isced:level":"1;2","ref:rspo":73642,"official_name":"Szko\u0142a Podstawowa im. Bohater\u00f3w Monte Cassino w Ostr\u00f3wku","name":"Szko\u0142a Podstawowa","addr:country":"PL","addr:postcode":"21-102","addr:place":"Ostr\u00f3wek","addr:housenumber":"3","addr:teryt:sym_ul":388808,"contact:phone":"+48 818562241","contact:email":"sposekretariat@vp.pl","contact:website":"http:\/\/www.sp.ostrowek.szkolnastrona.pl","ref:regon":"000577343","operator":"Gmina Ostr\u00f3wek","operator:type":"government","amenity":"school"}},{"id":132660,"type":"Feature","geometry":{"type":"Point","coordinates":[22.62205,51.5903]},"properties":{"ref:rspo":132660,"official_name":"Niepubliczne Przedszkole Motylek Justyna Kanadys","name":"Niepubliczne Przedszkole Motylek Justyna Kanadys","addr:country":"PL","addr:postcode":"21-102","addr:place":"Ostr\u00f3wek-Kolonia","addr:housenumber":"3","addr:teryt:sym_ul":388814,"contact:phone":"+48 609517809","contact:email":"justynakanadys@gmail.com","ref:regon":"365984723","ref:vatin":"PL7141889864","operator":"Justyna Kanadys","operator:type":"private","amenity":"kindergarten"}},{"id":73638,"type":"Feature","geometry":{"type":"Point","coordinates":[22.57158,51.63519]},"properties":{"isced:level":"1;2","ref:rspo":73638,"official_name":"Szko\u0142a Podstawowa w D\u0119bicy","name":"Szko\u0142a Podstawowa w D\u0119bicy","addr:country":"PL","addr:postcode":"21-102","addr:place":"D\u0119bica","addr:housenumber":"25","addr:teryt:sym_ul":388731,"contact:phone":"+48 818564245","contact:email":"sp.debica@wp.pl","contact:website":"http:\/\/spd.ostrowek.pl","ref:regon":"001151646","ref:vatin":"PL7142046079","operator":"Gmina Ostr\u00f3wek","operator:type":"government","amenity":"school"}}]}