{
    "type": "FeatureCollection",
    "features": [
        {
            "id": 58976,
            "type": "Feature",
            "geometry": {
                "type": "Point",
                "coordinates": [
                    22.6737,
                    51.48118
                ]
            },
            "properties": {
                "isced:level": "1;2",
                "ref:rspo": 58976,
                "official_name": "Szko\u0142a Podstawowa im. Kardyna\u0142a Stefana Wyszy\u0144skiego w Pa\u0142ecznicy",
                "name": "Szko\u0142a Podstawowa",
                "addr:country": "PL",
                "addr:postcode": "21-104",
                "addr:place": "Pa\u0142ecznica",
                "addr:housenumber": "81",
                "addr:teryt:simc": 387335,
                "contact:phone": "+48 818512184",
                "contact:email": "palecznica@poczta.fm",
                "contact:website": "https:\/\/sppalecznica.pl\/",
                "ref:regon": "001151729",
                "ref:vatin": "PL7141367203",
                "operator": "Gmina Nied\u017awiada",
                "operator:type": "government",
                "amenity": "school"
            }
        },
        {
            "id": 58972,
            "type": "Feature",
            "geometry": {
                "type": "Point",
                "coordinates": [
                    22.70189,
                    51.5061
                ]
            },
            "properties": {
                "isced:level": "1;2",
                "ref:rspo": 58972,
                "official_name": "Szko\u0142a Podstawowa im. Marii Konopnickiej w Tarle",
                "name": "Szko\u0142a Podstawowa",
                "addr:country": "PL",
                "addr:postcode": "21-104",
                "addr:place": "Tar\u0142o",
                "addr:housenumber": "103",
                "addr:teryt:simc": 387358,
                "contact:phone": "+48 818514295",
                "contact:email": "sptarlo@niedzwiada.pl",
                "contact:website": "http:\/\/www.sptarlo.niedzwiada.pl",
                "ref:regon": "000632409",
                "ref:vatin": "PL7141138715",
                "operator": "Gmina Nied\u017awiada",
                "operator:type": "government",
                "amenity": "school"
            }
        },
        {
            "id": 82817,
            "type": "Feature",
            "geometry": {
                "type": "Point",
                "coordinates": [
                    22.560802459717,
                    51.514274597168
                ]
            },
            "properties": {
                "isced:level": "1;2",
                "ref:rspo": 82817,
                "official_name": "Publiczna Szko\u0142a Podstawowa w G\u00f3rce Lubartowskiej",
                "name": "Publiczna Szko\u0142a Podstawowa w G\u00f3rce Lubartowskiej",
                "addr:country": "PL",
                "addr:postcode": "21-104",
                "addr:place": "G\u00f3rka Lubartowska",
                "addr:housenumber": "66",
                "addr:teryt:simc": 387275,
                "contact:phone": "+48 818514211",
                "contact:email": "pspgorkalubartowska@o2.pl",
                "contact:website": "http:\/\/spg.niedzwiada.pl",
                "ref:regon": "061492429",
                "ref:vatin": "PL7131356422",
                "operator": "Renata Iwaniak",
                "operator:type": "private",
                "amenity": "school"
            }
        },
        {
            "id": 58973,
            "type": "Feature",
            "geometry": {
                "type": "Point",
                "coordinates": [
                    22.74327,
                    51.52119
                ]
            },
            "properties": {
                "isced:level": "1;2",
                "ref:rspo": 58973,
                "official_name": "Szko\u0142a Podstawowa im. Bohater\u00f3w Powstania Warszawskiego w Brze\u017anicy Bychawskiej",
                "name": "Szko\u0142a Podstawowa",
                "addr:country": "PL",
                "addr:postcode": "21-104",
                "addr:place": "Brze\u017anica Bychawska",
                "addr:housenumber": "123",
                "addr:teryt:simc": 387217,
                "contact:phone": "+48 818512504",
                "contact:email": "spbb@niedzwiada.pl",
                "contact:website": "http:\/\/spbb.niedzwiada.pl",
                "ref:regon": "001151497",
                "ref:vatin": "PL7141148613",
                "operator": "Gmina Nied\u017awiada",
                "operator:type": "government",
                "amenity": "school"
            }
        },
        {
            "id": 58977,
            "type": "Feature",
            "geometry": {
                "type": "Point",
                "coordinates": [
                    22.6918599,
                    51.54178
                ]
            },
            "properties": {
                "isced:level": "1;2",
                "ref:rspo": 58977,
                "official_name": "Szko\u0142a Podstawowa im. Or\u0142a Bia\u0142ego w Nied\u017awiadzie",
                "name": "Szko\u0142a Podstawowa",
                "addr:country": "PL",
                "addr:postcode": "21-104",
                "addr:place": "Nied\u017awiada",
                "addr:housenumber": "42",
                "addr:teryt:simc": 387298,
                "contact:phone": "+48 818512529",
                "contact:email": "sp.niedzwiada@poczta.fm",
                "contact:website": "http:\/\/www.spniedzwiada.szkolnastrona.pl\/",
                "ref:regon": "001151712",
                "ref:vatin": "PL7141165882",
                "operator": "Gmina Nied\u017awiada",
                "operator:type": "government",
                "amenity": "school"
            }
        },
        {
            "id": 60752,
            "type": "Feature",
            "geometry": {
                "type": "Point",
                "coordinates": [
                    22.75044,
                    51.55118
                ]
            },
            "properties": {
                "isced:level": "1;2",
                "ref:rspo": 60752,
                "official_name": "Szko\u0142a Podstawowa w Brze\u017anicy Ksi\u0105\u017c\u0119cej",
                "name": "Szko\u0142a Podstawowa w Brze\u017anicy Ksi\u0105\u017c\u0119cej",
                "addr:country": "PL",
                "addr:postcode": "21-104",
                "addr:place": "Brze\u017anica Ksi\u0105\u017c\u0119ca",
                "addr:housenumber": "24",
                "addr:teryt:simc": 387246,
                "contact:phone": "+48 818513402",
                "contact:email": "brzeznica.ksiazeca@poczta.fm",
                "contact:website": "http:\/\/spbk.niedzwiada.pl",
                "ref:regon": "001151706",
                "ref:vatin": "PL7141138721",
                "operator": "Gmina Nied\u017awiada",
                "operator:type": "government",
                "amenity": "school"
            }
        }
    ]
}