{
    "type": "FeatureCollection",
    "features": [
        {
            "id": 12357,
            "type": "Feature",
            "geometry": {
                "type": "Point",
                "coordinates": [
                    22.85399,
                    51.41387
                ]
            },
            "properties": {
                "isced:level": "1;2",
                "ref:rspo": 12357,
                "official_name": "Szko\u0142a Podstawowa im. \u015aw. Jana Paw\u0142a II w Rozkopaczewie",
                "name": "Szko\u0142a Podstawowa",
                "addr:postcode": "21-110",
                "addr:place": "Rozkopaczew",
                "addr:housenumber": "34",
                "addr:city:simc": 388984,
                "phone": "+48 818522042",
                "email": "sprozkopaczew@gmail.com",
                "website": "http:\/\/www.rozkopaczew.szkolna.net",
                "ref:regon": "001152574",
                "ref:vatin": "PL7141747673",
                "operator": "Gmina Ostr\u00f3w Lubelski",
                "operator:type": "government",
                "amenity": "school"
            }
        },
        {
            "id": 12391,
            "type": "Feature",
            "geometry": {
                "type": "Point",
                "coordinates": [
                    22.84796,
                    51.46515
                ]
            },
            "properties": {
                "isced:level": "1;2",
                "ref:rspo": 12391,
                "official_name": "Szko\u0142a Podstawowa im. Ks. Jerzego Popie\u0142uszki w Kolechowicach",
                "name": "Szko\u0142a Podstawowa",
                "addr:postcode": "21-110",
                "addr:place": "Kolechowice",
                "addr:housenumber": "125",
                "addr:city:simc": 994348,
                "phone": "+48 818520046",
                "email": "szkolapodstawowakolechowice@poczta.onet.pl",
                "website": "http:\/\/www.spkolechowice.szkolna.net",
                "ref:regon": "001159228",
                "ref:vatin": "PL7141743646",
                "operator": "Gmina Ostr\u00f3w Lubelski",
                "operator:type": "government",
                "amenity": "school"
            }
        },
        {
            "id": 12359,
            "type": "Feature",
            "geometry": {
                "type": "Point",
                "coordinates": [
                    22.7731299,
                    51.49219
                ]
            },
            "properties": {
                "isced:level": "1;2",
                "ref:rspo": 12359,
                "official_name": "Szko\u0142a Podstawowa im. Ks. Jana Twardowskiego w Kaznowie",
                "name": "Szko\u0142a Podstawowa",
                "addr:postcode": "21-110",
                "addr:place": "Kazn\u00f3w-Kolonia",
                "addr:housenumber": "26",
                "addr:city:simc": 388910,
                "phone": "+48 818520038",
                "email": "spkaznow@wp.pl",
                "website": "http:\/\/www.spkaznow.szkolna.net",
                "ref:regon": "001152580",
                "ref:vatin": "PL7141746604",
                "operator": "Gmina Ostr\u00f3w Lubelski",
                "operator:type": "government",
                "amenity": "school"
            }
        },
        {
            "id": 12446,
            "type": "Feature",
            "geometry": {
                "type": "Point",
                "coordinates": [
                    22.85527,
                    51.49686
                ]
            },
            "properties": {
                "isced:level": "1;2",
                "ref:rspo": 12446,
                "official_name": "Szko\u0142a Podstawowa im. Jana Paw\u0142a II w Ostrowie Lubelskim",
                "name": "Szko\u0142a Podstawowa",
                "addr:postcode": "21-110",
                "addr:city": "Ostr\u00f3w Lubelski",
                "addr:street": "Partyzant\u00f3w",
                "addr:housenumber": "26",
                "addr:city:simc": 956690,
                "addr:street:sym_ul": 15733,
                "phone": "+48 818520006",
                "email": "szkolapodstawowa@ostrowlubelski.pl",
                "website": "http:\/\/spostrowlubelski.org.pl",
                "ref:regon": "000636880",
                "ref:vatin": "PL7141745071",
                "operator": "Gmina Ostr\u00f3w Lubelski",
                "operator:type": "government",
                "amenity": "school"
            }
        },
        {
            "id": 12358,
            "type": "Feature",
            "geometry": {
                "type": "Point",
                "coordinates": [
                    22.85723,
                    51.49736
                ]
            },
            "properties": {
                "ref:rspo": 12358,
                "official_name": "Przedszkole Samorz\u0105dowe",
                "name": "Przedszkole Samorz\u0105dowe",
                "addr:postcode": "21-110",
                "addr:city": "Ostr\u00f3w Lubelski",
                "addr:street": "Batorego",
                "addr:housenumber": "4",
                "addr:city:simc": 956690,
                "addr:street:sym_ul": 886,
                "phone": "+48 818520023",
                "email": "przedszkoleostrow@wp.pl",
                "ref:regon": "431238340",
                "ref:vatin": "PL7141748193",
                "operator": "Gmina Ostr\u00f3w Lubelski",
                "operator:type": "government",
                "amenity": "kindergarten"
            }
        },
        {
            "id": 13876,
            "type": "Feature",
            "geometry": {
                "type": "Point",
                "coordinates": [
                    22.85695,
                    51.5025
                ]
            },
            "properties": {
                "ref:rspo": 13876,
                "official_name": "Zesp\u00f3\u0142 Szk\u00f3\u0142 w Ostrowie Lubelskim",
                "name": "Zesp\u00f3\u0142 Szk\u00f3\u0142 w Ostrowie Lubelskim",
                "addr:postcode": "21-110",
                "addr:city": "Ostr\u00f3w Lubelski",
                "addr:street": "Unicka",
                "addr:housenumber": "5",
                "addr:city:simc": 956690,
                "addr:street:sym_ul": 23356,
                "phone": "+48 818520040",
                "email": "zsostrow@o2.pl",
                "website": "http:\/\/www.zs.ostrowlubelski.edu.pl",
                "ref:regon": "000590562",
                "ref:vatin": "PL7141052801",
                "operator": "Powiat Lubartowski",
                "operator:type": "government",
                "landuse": "education",
                "fixme": "amenity=school, amenity=college albo landuse=education w zale\u017cno\u015bci od tego, jakie plac\u00f3wki wchodz\u0105 w sk\u0142ad zespo\u0142u. Sprawd\u017a, kiedy stosowa\u0107 amenity=* a kiedy landuse=education.",
                "note": "Children RSPO: 22752;22758;22759;75720"
            }
        },
        {
            "id": 22752,
            "type": "Feature",
            "geometry": {
                "type": "Point",
                "coordinates": [
                    22.85695,
                    51.502469999999995
                ]
            },
            "properties": {
                "isced:level": "3",
                "ref:rspo": 22752,
                "official_name": "Technikum Zawodowe w Zespole Szk\u00f3\u0142 w Ostrowie Lubelskim",
                "name": "Technikum Zawodowe w Zespole Szk\u00f3\u0142 w Ostrowie Lubelskim",
                "addr:postcode": "21-110",
                "addr:city": "Ostr\u00f3w Lubelski",
                "addr:street": "Unicka",
                "addr:housenumber": "5",
                "addr:city:simc": 956690,
                "addr:street:sym_ul": 23356,
                "phone": "+48 818520040",
                "email": "sekretariat@zs.ostrowlubelski.edu.pl",
                "website": "http:\/\/www.zs.ostrowlubelski.edu.pl",
                "ref:regon": "060056710",
                "operator": "Powiat Lubartowski",
                "operator:type": "government",
                "amenity": "school",
                "note": "Parent RSPO: 13876"
            }
        },
        {
            "id": 22758,
            "type": "Feature",
            "geometry": {
                "type": "Point",
                "coordinates": [
                    22.85695,
                    51.50244
                ]
            },
            "properties": {
                "ref:rspo": 22758,
                "official_name": "Centrum Kszta\u0142cenia Zawodowego w Ostrowie Lubelskim",
                "name": "Centrum Kszta\u0142cenia Zawodowego w Ostrowie Lubelskim",
                "addr:postcode": "21-110",
                "addr:city": "Ostr\u00f3w Lubelski",
                "addr:street": "Unicka",
                "addr:housenumber": "5",
                "addr:city:simc": 956690,
                "addr:street:sym_ul": 23356,
                "phone": "+48 818520040",
                "email": "sekretariat@ostrowlubelski.edu.pl",
                "ref:regon": "060490782",
                "operator": "Powiat Lubartowski",
                "operator:type": "government",
                "fixme": "w zale\u017cno\u015bci od przedmiotu dzia\u0142alno\u015bci (np. amenity=training + training=*, amenity=dancing_school, amenity=language_school, amenity=music_school) albo amenity=school, amenity=college, albo landuse=education w zale\u017cno\u015bci od tego, jakie plac\u00f3wki wchodz\u0105 w sk\u0142ad zespo\u0142u. Sprawd\u017a, kiedy stosowa\u0107 amenity=* a kiedy landuse=education.",
                "note": "Parent RSPO: 13876"
            }
        },
        {
            "id": 22759,
            "type": "Feature",
            "geometry": {
                "type": "Point",
                "coordinates": [
                    22.85695,
                    51.50241
                ]
            },
            "properties": {
                "isced:level": "3",
                "ref:rspo": 22759,
                "official_name": "Bran\u017cowa Szko\u0142a I Stopnia Nr 1 w Zespole Szk\u00f3\u0142 w Ostrowie Lubelskim",
                "name": "Bran\u017cowa Szko\u0142a I Stopnia Nr 1 w Zespole Szk\u00f3\u0142 w Ostrowie Lubelskim",
                "addr:postcode": "21-110",
                "addr:city": "Ostr\u00f3w Lubelski",
                "addr:street": "Unicka",
                "addr:housenumber": "5",
                "addr:city:simc": 956690,
                "addr:street:sym_ul": 23356,
                "phone": "+48 818520040",
                "email": "sekretariat@zs.ostrowlubelski.edu.pl",
                "website": "http:\/\/www.zs.ostrowlubelski.edu.pl",
                "ref:regon": "061466248",
                "operator": "Powiat Lubartowski",
                "operator:type": "government",
                "amenity": "school",
                "note": "Parent RSPO: 13876"
            }
        },
        {
            "id": 75720,
            "type": "Feature",
            "geometry": {
                "type": "Point",
                "coordinates": [
                    22.85695,
                    51.502379999999995
                ]
            },
            "properties": {
                "ref:rspo": 75720,
                "official_name": "Centrum Kszta\u0142cenia Ustawicznego w Zespole Szk\u00f3\u0142 w Ostrowie Lubelskim",
                "name": "Centrum Kszta\u0142cenia Ustawicznego w Zespole Szk\u00f3\u0142 w Ostrowie Lubelskim",
                "addr:postcode": "21-110",
                "addr:city": "Ostr\u00f3w Lubelski",
                "addr:street": "Unicka",
                "addr:housenumber": "5",
                "addr:city:simc": 956690,
                "addr:street:sym_ul": 23356,
                "phone": "+48 818520040",
                "email": "sekretariat@ostrowlubelski.edu.pl",
                "ref:regon": "060584661",
                "operator": "Powiat Lubartowski",
                "operator:type": "government",
                "amenity": "school",
                "fixme": "amenity=school lub amenity=college",
                "note": "Parent RSPO: 13876"
            }
        }
    ]
}