{
    "type": "FeatureCollection",
    "features": [
        {
            "id": 86266,
            "type": "Feature",
            "geometry": {
                "type": "Point",
                "coordinates": [
                    19.01955,
                    50.29222
                ]
            },
            "properties": {
                "ref:rspo": 86266,
                "official_name": "Przedszkole Nr 19 w Siemianowicach \u015aL\u0105skich",
                "name": "Przedszkole Nr 19 w Siemianowicach \u015aL\u0105skich",
                "addr:country": "PL",
                "addr:postcode": "41-100",
                "addr:city": "Siemianowice \u015al\u0105skie",
                "addr:street": "Grabowa",
                "addr:housenumber": "2",
                "addr:teryt:simc": 6029,
                "addr:teryt:sym_ul": 943150,
                "contact:phone": "+48 322282730",
                "contact:email": "sekretariat@przedszkole19siemianowice.pl",
                "contact:website": "https:\/\/p19siemianowice.edupage.org\/",
                "ref:regon": "271509073",
                "ref:vatin": "PL6431585646",
                "operator": "Gmina Siemianowice \u015al\u0105skie",
                "operator:type": "government",
                "amenity": "kindergarten"
            }
        },
        {
            "id": 86437,
            "type": "Feature",
            "geometry": {
                "type": "Point",
                "coordinates": [
                    19.0149,
                    50.2935
                ]
            },
            "properties": {
                "isced:level": "3",
                "ref:rspo": 86437,
                "official_name": "Ii Liceum Og\u00f3lnokszta\u0142c\u0105ce im. Jana Matejki w Siemianowicach \u015aL\u0105skich",
                "name": "Ii Liceum Og\u00f3lnokszta\u0142c\u0105ce",
                "addr:country": "PL",
                "addr:postcode": "41-100",
                "addr:city": "Siemianowice \u015al\u0105skie",
                "addr:street": "Le\u015bna",
                "addr:housenumber": "1",
                "addr:teryt:simc": 10898,
                "addr:teryt:sym_ul": 943150,
                "contact:phone": "+48 322200236",
                "contact:email": "sekretariat@mateja.edu.pl",
                "contact:website": "https:\/\/mateja.edu.pl",
                "ref:regon": "000726613",
                "ref:vatin": "PL6431767301",
                "operator": "Gmina Siemianowice \u015al\u0105skie",
                "operator:type": "government",
                "amenity": "school"
            }
        },
        {
            "id": 87549,
            "type": "Feature",
            "geometry": {
                "type": "Point",
                "coordinates": [
                    19.0219099,
                    50.29509
                ]
            },
            "properties": {
                "isced:level": "1;2",
                "ref:rspo": 87549,
                "official_name": "Szko\u0142a Podstawowa Nr 20 Z Oddzia\u0142ami Integracyjnymi im. W\u0142. Broniewskiego w Siemianowicach \u015aL\u0105skich",
                "name": "Szko\u0142a Podstawowa Nr 20 Z Oddzia\u0142ami Integracyjnymi",
                "addr:country": "PL",
                "addr:postcode": "41-100",
                "addr:city": "Siemianowice \u015al\u0105skie",
                "addr:street": "Lipowa",
                "addr:housenumber": "3",
                "addr:teryt:simc": 11139,
                "addr:teryt:sym_ul": 943150,
                "contact:phone": "+48 322200223",
                "contact:email": "sekretariat@sp-20.pl",
                "contact:website": "http:\/\/www.sp20.siemianowice.pl\/",
                "ref:regon": "000726582",
                "ref:vatin": "PL6431433273",
                "operator": "Gmina Siemianowice \u015al\u0105skie",
                "operator:type": "government",
                "amenity": "school"
            }
        },
        {
            "id": 86256,
            "type": "Feature",
            "geometry": {
                "type": "Point",
                "coordinates": [
                    19.02158,
                    50.2965
                ]
            },
            "properties": {
                "ref:rspo": 86256,
                "official_name": "Przedszkole Nr 9 w Siemianowicach \u015aL\u0105skich",
                "name": "Przedszkole Nr 9 w Siemianowicach \u015aL\u0105skich",
                "addr:country": "PL",
                "addr:postcode": "41-100",
                "addr:city": "Siemianowice \u015al\u0105skie",
                "addr:street": "Okr\u0119\u017cna",
                "addr:housenumber": "17",
                "addr:teryt:simc": 14907,
                "addr:teryt:sym_ul": 943150,
                "contact:phone": "+48 322283939",
                "contact:email": "przedszkole9@siemianowice.pl",
                "contact:website": "http:\/\/www.p9siemianowice.pl",
                "ref:regon": "271508990",
                "ref:vatin": "PL6431433540",
                "operator": "Gmina Siemianowice \u015al\u0105skie",
                "operator:type": "government",
                "amenity": "kindergarten"
            }
        },
        {
            "id": 83897,
            "type": "Feature",
            "geometry": {
                "type": "Point",
                "coordinates": [
                    19.02647,
                    50.29657
                ]
            },
            "properties": {
                "ref:rspo": 83897,
                "official_name": "Zesp\u00f3\u0142 Szk\u00f3\u0142 Technicznych I Og\u00f3lnokszta\u0142c\u0105cych \"Meritum\" im. Piotra Ko\u0142odzieja w Siemianowicach \u015aL\u0105skich",
                "name": "Zesp\u00f3\u0142 Szk\u00f3\u0142 Technicznych I Og\u00f3lnokszta\u0142c\u0105cych \"Meritum\"",
                "addr:country": "PL",
                "addr:postcode": "41-100",
                "addr:city": "Siemianowice \u015al\u0105skie",
                "addr:street": "Katowicka",
                "addr:housenumber": "1",
                "addr:teryt:simc": 8206,
                "addr:teryt:sym_ul": 943150,
                "contact:phone": "+48 322290914",
                "contact:email": "meritum@zstiomeritum.edu.pl",
                "contact:website": "http:\/\/www.zstiomeritum.edu.pl",
                "ref:regon": "000026092",
                "ref:vatin": "PL6431433534",
                "operator": "Gmina Siemianowice \u015al\u0105skie",
                "operator:type": "government",
                "landuse": "education",
                "fixme": "amenity=school, amenity=college albo landuse=education w zale\u017cno\u015bci od tego, jakie plac\u00f3wki wchodz\u0105 w sk\u0142ad zespo\u0142u. Sprawd\u017a, kiedy stosowa\u0107 amenity=* a kiedy landuse=education.",
                "note": "Children RSPO: 88774;88775"
            }
        },
        {
            "id": 88774,
            "type": "Feature",
            "geometry": {
                "type": "Point",
                "coordinates": [
                    19.02647,
                    50.29654
                ]
            },
            "properties": {
                "isced:level": "3",
                "ref:rspo": 88774,
                "official_name": "Technikum Nr 2 w Siemianowicach \u015aL\u0105skich",
                "name": "Technikum Nr 2 w Siemianowicach \u015aL\u0105skich",
                "addr:country": "PL",
                "addr:postcode": "41-100",
                "addr:city": "Siemianowice \u015al\u0105skie",
                "addr:street": "Katowicka",
                "addr:housenumber": "1",
                "addr:teryt:simc": 8206,
                "addr:teryt:sym_ul": 943150,
                "contact:phone": "+48 322290914",
                "contact:email": "meritum@zstiomeritum.edu.pl",
                "contact:website": "http:\/\/www.zstiomeritum.edu.pl",
                "ref:regon": "272218107",
                "operator": "Gmina Siemianowice \u015al\u0105skie",
                "operator:type": "government",
                "amenity": "school",
                "note": "Parent RSPO: 83897"
            }
        },
        {
            "id": 88775,
            "type": "Feature",
            "geometry": {
                "type": "Point",
                "coordinates": [
                    19.02647,
                    50.296510000000005
                ]
            },
            "properties": {
                "isced:level": "3",
                "ref:rspo": 88775,
                "official_name": "Iii Liceum Og\u00f3lnokszta\u0142c\u0105ce w Siemianowicach \u015aL\u0105skich",
                "name": "Iii Liceum Og\u00f3lnokszta\u0142c\u0105ce w Siemianowicach \u015aL\u0105skich",
                "addr:country": "PL",
                "addr:postcode": "41-100",
                "addr:city": "Siemianowice \u015al\u0105skie",
                "addr:street": "Katowicka",
                "addr:housenumber": "1",
                "addr:teryt:simc": 8206,
                "addr:teryt:sym_ul": 943150,
                "contact:phone": "+48 322290914",
                "contact:email": "meritum@zstiomeritum.edu.pl",
                "contact:website": "http:\/\/www.zstiomeritum.edu.pl",
                "ref:regon": "277881276",
                "operator": "Gmina Siemianowice \u015al\u0105skie",
                "operator:type": "government",
                "amenity": "school",
                "note": "Parent RSPO: 83897"
            }
        },
        {
            "id": 83901,
            "type": "Feature",
            "geometry": {
                "type": "Point",
                "coordinates": [
                    19.03397,
                    50.29711
                ]
            },
            "properties": {
                "ref:rspo": 83901,
                "official_name": "Zesp\u00f3\u0142 Szk\u00f3\u0142 Cogito w Siemianowicach \u015aL\u0105skich",
                "name": "Zesp\u00f3\u0142 Szk\u00f3\u0142 Cogito w Siemianowicach \u015aL\u0105skich",
                "addr:country": "PL",
                "addr:postcode": "41-100",
                "addr:city": "Siemianowice \u015al\u0105skie",
                "addr:street": "Jana Matejki",
                "addr:housenumber": "5",
                "addr:teryt:simc": 12489,
                "addr:teryt:sym_ul": 943150,
                "contact:phone": "+48 322200691",
                "contact:email": "cogito@zs-cogito.pl",
                "contact:website": "http:\/\/www.zs-cogito.pl",
                "ref:regon": "000199846",
                "ref:vatin": "PL6431433474",
                "operator": "Gmina Siemianowice \u015al\u0105skie",
                "operator:type": "government",
                "landuse": "education",
                "fixme": "amenity=school, amenity=college albo landuse=education w zale\u017cno\u015bci od tego, jakie plac\u00f3wki wchodz\u0105 w sk\u0142ad zespo\u0142u. Sprawd\u017a, kiedy stosowa\u0107 amenity=* a kiedy landuse=education.",
                "note": "Children RSPO: 88786;88787"
            }
        },
        {
            "id": 88786,
            "type": "Feature",
            "geometry": {
                "type": "Point",
                "coordinates": [
                    19.03397,
                    50.29708
                ]
            },
            "properties": {
                "isced:level": "3",
                "ref:rspo": 88786,
                "official_name": "Technikum Nr 1 im. Zbigniewa Herberta w Siemianowicach \u015aL\u0105skich",
                "name": "Technikum Nr 1",
                "addr:country": "PL",
                "addr:postcode": "41-100",
                "addr:city": "Siemianowice \u015al\u0105skie",
                "addr:street": "Jana Matejki",
                "addr:housenumber": "5",
                "addr:teryt:simc": 12489,
                "addr:teryt:sym_ul": 943150,
                "contact:phone": "+48 322200691",
                "contact:email": "cogito@zs-cogito.pl",
                "contact:website": "http:\/\/www.zs-cogito.pl",
                "ref:regon": "278149910",
                "ref:vatin": "PL6431433474",
                "operator": "Gmina Siemianowice \u015al\u0105skie",
                "operator:type": "government",
                "amenity": "school",
                "note": "Parent RSPO: 83901"
            }
        },
        {
            "id": 88787,
            "type": "Feature",
            "geometry": {
                "type": "Point",
                "coordinates": [
                    19.03397,
                    50.297050000000006
                ]
            },
            "properties": {
                "isced:level": "3",
                "ref:rspo": 88787,
                "official_name": "Bran\u017cowa Szko\u0142a I Stopnia Nr 1 w Siemianowicach \u015aL\u0105skich",
                "name": "Bran\u017cowa Szko\u0142a I Stopnia Nr 1 w Siemianowicach \u015aL\u0105skich",
                "addr:country": "PL",
                "addr:postcode": "41-100",
                "addr:city": "Siemianowice \u015al\u0105skie",
                "addr:street": "Jana Matejki",
                "addr:housenumber": "5",
                "addr:teryt:simc": 12489,
                "addr:teryt:sym_ul": 943150,
                "contact:phone": "+48 322200691",
                "contact:email": "cogito@zs-cogito.pl",
                "contact:website": "http:\/\/www.zs-cogito.pl",
                "ref:regon": "243102666",
                "ref:vatin": "PL6431433474",
                "operator": "Gmina Siemianowice \u015al\u0105skie",
                "operator:type": "government",
                "amenity": "school",
                "note": "Parent RSPO: 83901"
            }
        },
        {
            "id": 86259,
            "type": "Feature",
            "geometry": {
                "type": "Point",
                "coordinates": [
                    19.04453,
                    50.29748
                ]
            },
            "properties": {
                "ref:rspo": 86259,
                "official_name": "Przedszkole Nr 11 w Siemianowicach \u015aL\u0105skich",
                "name": "Przedszkole Nr 11 w Siemianowicach \u015aL\u0105skich",
                "addr:country": "PL",
                "addr:postcode": "41-100",
                "addr:city": "Siemianowice \u015al\u0105skie",
                "addr:street": "Juliusza S\u0142owackiego",
                "addr:housenumber": "5",
                "addr:teryt:simc": 20291,
                "addr:teryt:sym_ul": 943150,
                "contact:phone": "+48 322048723",
                "contact:email": "przedsz11@poczta.fm",
                "contact:website": "http:\/\/siemianowice11.eprzedszkole.com",
                "ref:regon": "271509015",
                "ref:vatin": "PL6431433698",
                "operator": "Gmina Siemianowice \u015al\u0105skie",
                "operator:type": "government",
                "amenity": "kindergarten"
            }
        },
        {
            "id": 86423,
            "type": "Feature",
            "geometry": {
                "type": "Point",
                "coordinates": [
                    19.04453,
                    50.29745
                ]
            },
            "properties": {
                "isced:level": "1;2",
                "ref:rspo": 86423,
                "official_name": "Szko\u0142a Podstawowa Nr 11 im. Juliusza S\u0142owackiego w Siemianowicach \u015aL\u0105skich",
                "name": "Szko\u0142a Podstawowa Nr 11",
                "addr:country": "PL",
                "addr:postcode": "41-100",
                "addr:city": "Siemianowice \u015al\u0105skie",
                "addr:street": "Juliusza S\u0142owackiego",
                "addr:housenumber": "5",
                "addr:teryt:simc": 20291,
                "addr:teryt:sym_ul": 943150,
                "contact:phone": "+48 322200568",
                "contact:email": "sekretariat@sp11siemianowice.pl",
                "contact:website": "http:\/\/www.sp11.siemianowice.pl",
                "ref:regon": "000726702",
                "ref:vatin": "PL6431433244",
                "operator": "Gmina Siemianowice \u015al\u0105skie",
                "operator:type": "government",
                "amenity": "school"
            }
        },
        {
            "id": 86411,
            "type": "Feature",
            "geometry": {
                "type": "Point",
                "coordinates": [
                    19.02271,
                    50.2984
                ]
            },
            "properties": {
                "isced:level": "1;2",
                "ref:rspo": 86411,
                "official_name": "Szko\u0142a Podstawowa Nr 3 im. Tadeusza Ko\u015bciuszki w Siemianowicach \u015aL\u0105skich",
                "name": "Szko\u0142a Podstawowa Nr 3",
                "addr:country": "PL",
                "addr:postcode": "41-100",
                "addr:city": "Siemianowice \u015al\u0105skie",
                "addr:street": "Szkolna",
                "addr:housenumber": "15",
                "addr:teryt:simc": 21970,
                "addr:teryt:sym_ul": 943150,
                "contact:phone": "+48 322282176",
                "contact:email": "sp3@sp3siemianowice.pl",
                "contact:website": "http:\/\/www.sp3siemianowice.pl",
                "ref:regon": "000726636",
                "ref:vatin": "PL6431433184",
                "operator": "Gmina Siemianowice \u015al\u0105skie",
                "operator:type": "government",
                "amenity": "school"
            }
        },
        {
            "id": 86262,
            "type": "Feature",
            "geometry": {
                "type": "Point",
                "coordinates": [
                    18.99943,
                    50.29897
                ]
            },
            "properties": {
                "ref:rspo": 86262,
                "official_name": "Przedszkole Nr 15 w Siemianowicach \u015aL\u0105skich",
                "name": "Przedszkole Nr 15 w Siemianowicach \u015aL\u0105skich",
                "addr:country": "PL",
                "addr:postcode": "41-106",
                "addr:city": "Siemianowice \u015al\u0105skie",
                "addr:street": "Grunwaldzka",
                "addr:housenumber": "10",
                "addr:teryt:simc": 6260,
                "addr:teryt:sym_ul": 943150,
                "contact:phone": "+48 322283950",
                "contact:email": "zp1@siemianowice.pl",
                "contact:website": "http:\/\/www.p15siemianowice.edupage.org",
                "ref:regon": "271509038",
                "ref:vatin": "PL6431433681",
                "operator": "Gmina Siemianowice \u015al\u0105skie",
                "operator:type": "government",
                "amenity": "kindergarten",
                "note": "Parent RSPO: 126359"
            }
        },
        {
            "id": 126359,
            "type": "Feature",
            "geometry": {
                "type": "Point",
                "coordinates": [
                    19.00829,
                    50.30064
                ]
            },
            "properties": {
                "ref:rspo": 126359,
                "official_name": "Zesp\u00f3\u0142 Przedszkolny Nr 1 w Siemianowicach \u015aL\u0105skich",
                "name": "Zesp\u00f3\u0142 Przedszkolny Nr 1 w Siemianowicach \u015aL\u0105skich",
                "addr:country": "PL",
                "addr:postcode": "41-106",
                "addr:city": "Siemianowice \u015al\u0105skie",
                "addr:street": "Niepodleg\u0142o\u015bci",
                "addr:housenumber": "49",
                "addr:teryt:simc": 14203,
                "addr:teryt:sym_ul": 943150,
                "contact:phone": "+48 322285036",
                "contact:email": "zp1@siemianowice.pl",
                "ref:regon": "360262592",
                "ref:vatin": "PL6431765242",
                "operator": "Gmina Siemianowice \u015al\u0105skie",
                "operator:type": "government",
                "landuse": "education",
                "fixme": "amenity=school, amenity=college albo landuse=education w zale\u017cno\u015bci od tego, jakie plac\u00f3wki wchodz\u0105 w sk\u0142ad zespo\u0142u. Sprawd\u017a, kiedy stosowa\u0107 amenity=* a kiedy landuse=education.",
                "note": "Children RSPO: 86255;86262"
            }
        },
        {
            "id": 86255,
            "type": "Feature",
            "geometry": {
                "type": "Point",
                "coordinates": [
                    19.00829,
                    50.30061
                ]
            },
            "properties": {
                "ref:rspo": 86255,
                "official_name": "Przedszkole Nr 7 w Siemianowicach \u015aL\u0105skich",
                "name": "Przedszkole Nr 7 w Siemianowicach \u015aL\u0105skich",
                "addr:country": "PL",
                "addr:postcode": "41-106",
                "addr:city": "Siemianowice \u015al\u0105skie",
                "addr:street": "Niepodleg\u0142o\u015bci",
                "addr:housenumber": "49",
                "addr:teryt:simc": 14203,
                "addr:teryt:sym_ul": 943150,
                "contact:phone": "+48 322285036",
                "contact:email": "zp1@siemianowice.pl",
                "contact:website": "http:\/\/www.naszep07.pl",
                "ref:regon": "271508978",
                "ref:vatin": "PL6431433669",
                "operator": "Gmina Siemianowice \u015al\u0105skie",
                "operator:type": "government",
                "amenity": "kindergarten",
                "note": "Parent RSPO: 126359"
            }
        },
        {
            "id": 268803,
            "type": "Feature",
            "geometry": {
                "type": "Point",
                "coordinates": [
                    18.9964589,
                    50.3009031
                ]
            },
            "properties": {
                "ref:rspo": 268803,
                "official_name": "Prywatne Przedszkole \"\u0141okietkowo\"",
                "name": "Prywatne Przedszkole \"\u0141okietkowo\"",
                "addr:country": "PL",
                "addr:postcode": "41-106",
                "addr:city": "Siemianowice \u015al\u0105skie",
                "addr:street": "W\u0142adys\u0142awa \u0141okietka",
                "addr:housenumber": "12",
                "addr:teryt:simc": 11653,
                "addr:teryt:sym_ul": 943150,
                "contact:email": "lokietkowo@stow.com.pl",
                "ref:regon": "381252150",
                "operator": "Beata Kaszubowska",
                "operator:type": "private",
                "amenity": "kindergarten"
            }
        },
        {
            "id": 86405,
            "type": "Feature",
            "geometry": {
                "type": "Point",
                "coordinates": [
                    19.00766,
                    50.30126
                ]
            },
            "properties": {
                "isced:level": "1;2",
                "ref:rspo": 86405,
                "official_name": "Szko\u0142a Podstawowa Nr 1 im. Miko\u0142aja Kopernika",
                "name": "Szko\u0142a Podstawowa Nr 1",
                "addr:country": "PL",
                "addr:postcode": "41-106",
                "addr:city": "Siemianowice \u015al\u0105skie",
                "addr:street": "Niepodleg\u0142o\u015bci",
                "addr:housenumber": "47",
                "addr:teryt:simc": 14203,
                "addr:teryt:sym_ul": 943150,
                "contact:phone": "+48 322201484",
                "contact:email": "sekretariat@sp1.siemce.pl",
                "contact:website": "http:\/\/sp1.siemce.pl",
                "ref:regon": "000726620",
                "ref:vatin": "PL6431433416",
                "operator": "Gmina Siemianowice \u015al\u0105skie",
                "operator:type": "government",
                "amenity": "school"
            }
        },
        {
            "id": 89418,
            "type": "Feature",
            "geometry": {
                "type": "Point",
                "coordinates": [
                    19.02431,
                    50.30138
                ]
            },
            "properties": {
                "ref:rspo": 89418,
                "official_name": "Gumisiowe Przedszkole",
                "name": "Gumisiowe Przedszkole",
                "addr:country": "PL",
                "addr:postcode": "41-100",
                "addr:city": "Siemianowice \u015al\u0105skie",
                "addr:street": "Ksi\u0119dza Jana Kapicy",
                "addr:housenumber": "2",
                "addr:teryt:simc": 7977,
                "addr:teryt:sym_ul": 943150,
                "contact:phone": "+48 323531286",
                "contact:email": "dyrekcja@gumisioweprzedszkole.pl",
                "contact:website": "http:\/\/www.gumisioweprzedszkole.pl",
                "ref:regon": "243103884",
                "ref:vatin": "PL5771221747",
                "operator": "Edyta Ziomek-Mazur",
                "operator:type": "private",
                "amenity": "kindergarten"
            }
        },
        {
            "id": 83752,
            "type": "Feature",
            "geometry": {
                "type": "Point",
                "coordinates": [
                    19.04103,
                    50.3016999
                ]
            },
            "properties": {
                "ref:rspo": 83752,
                "official_name": "Zesp\u00f3\u0142 Szk\u00f3\u0142 Specjalnych w Siemianowicach \u015aL\u0105skich",
                "name": "Zesp\u00f3\u0142 Szk\u00f3\u0142 Specjalnych w Siemianowicach \u015aL\u0105skich",
                "addr:country": "PL",
                "addr:postcode": "41-100",
                "addr:city": "Siemianowice \u015al\u0105skie",
                "addr:street": "My\u015bliwiecka",
                "addr:housenumber": "6",
                "addr:teryt:simc": 13562,
                "addr:teryt:sym_ul": 943150,
                "contact:phone": "+48 322201542",
                "contact:email": "zsspec.siem@gmail.com",
                "contact:website": "http:\/\/www.zsspe.mmj.pl",
                "ref:regon": "277896390",
                "ref:vatin": "PL6431638561",
                "operator": "Gmina Siemianowice \u015al\u0105skie",
                "operator:type": "government",
                "landuse": "education",
                "fixme": "amenity=school, amenity=college albo landuse=education w zale\u017cno\u015bci od tego, jakie plac\u00f3wki wchodz\u0105 w sk\u0142ad zespo\u0142u. Sprawd\u017a, kiedy stosowa\u0107 amenity=* a kiedy landuse=education.",
                "note": "Children RSPO: 88776;88778;88779"
            }
        },
        {
            "id": 88776,
            "type": "Feature",
            "geometry": {
                "type": "Point",
                "coordinates": [
                    19.04103,
                    50.3016699
                ]
            },
            "properties": {
                "isced:level": "1;2",
                "ref:rspo": 88776,
                "official_name": "Szko\u0142a Podstawowa Nr 9 im. Juliusza Ligonia w Siemianowicach \u015aL\u0105skich",
                "name": "Szko\u0142a Podstawowa Nr 9",
                "addr:country": "PL",
                "addr:postcode": "41-100",
                "addr:city": "Siemianowice \u015al\u0105skie",
                "addr:street": "My\u015bliwiecka",
                "addr:housenumber": "6",
                "addr:teryt:simc": 13562,
                "addr:teryt:sym_ul": 943150,
                "contact:phone": "+48 322201542",
                "contact:email": "zsspec.siem@gmail.com",
                "contact:website": "http:\/\/www.zsspe.mmj.pl",
                "ref:regon": "000726688",
                "ref:vatin": "PL6431433451",
                "operator": "Gmina Siemianowice \u015al\u0105skie",
                "operator:type": "government",
                "amenity": "school",
                "note": "Parent RSPO: 83752"
            }
        },
        {
            "id": 88778,
            "type": "Feature",
            "geometry": {
                "type": "Point",
                "coordinates": [
                    19.04103,
                    50.301639900000005
                ]
            },
            "properties": {
                "isced:level": "3",
                "ref:rspo": 88778,
                "official_name": "Bran\u017cowa Szko\u0142a I Stopnia Nr 3 w Siemianowicach \u015aL\u0105skich",
                "name": "Bran\u017cowa Szko\u0142a I Stopnia Nr 3 w Siemianowicach \u015aL\u0105skich",
                "addr:country": "PL",
                "addr:postcode": "41-100",
                "addr:city": "Siemianowice \u015al\u0105skie",
                "addr:street": "My\u015bliwiecka",
                "addr:housenumber": "6",
                "addr:teryt:simc": 13562,
                "addr:teryt:sym_ul": 943150,
                "contact:phone": "+48 322201542",
                "contact:email": "zsspec.siem@gmail.com",
                "contact:website": "http:\/\/www.zsspe.mmj.pl",
                "ref:regon": "277896421",
                "ref:vatin": "PL6431638928",
                "operator": "Gmina Siemianowice \u015al\u0105skie",
                "operator:type": "government",
                "amenity": "school",
                "note": "Parent RSPO: 83752"
            }
        },
        {
            "id": 88779,
            "type": "Feature",
            "geometry": {
                "type": "Point",
                "coordinates": [
                    19.04103,
                    50.3016099
                ]
            },
            "properties": {
                "ref:rspo": 88779,
                "official_name": "Szko\u0142a Przysposabiaj\u0105ca Do Pracy w Siemianowicach \u015aL\u0105skich",
                "name": "Szko\u0142a Przysposabiaj\u0105ca Do Pracy w Siemianowicach \u015aL\u0105skich",
                "addr:country": "PL",
                "addr:postcode": "41-100",
                "addr:city": "Siemianowice \u015al\u0105skie",
                "addr:street": "My\u015bliwiecka",
                "addr:housenumber": "6",
                "addr:teryt:simc": 13562,
                "addr:teryt:sym_ul": 943150,
                "contact:phone": "+48 322201542",
                "contact:email": "zsspec.siem@gmail.com",
                "contact:website": "http:\/\/www.zsspe.mmj.pl",
                "ref:regon": "240690102",
                "ref:vatin": "PL6431714090",
                "operator": "Gmina Siemianowice \u015al\u0105skie",
                "operator:type": "government",
                "amenity": "school",
                "note": "Parent RSPO: 83752"
            }
        },
        {
            "id": 86407,
            "type": "Feature",
            "geometry": {
                "type": "Point",
                "coordinates": [
                    19.02007,
                    50.30193
                ]
            },
            "properties": {
                "ref:rspo": 86407,
                "official_name": "Poradnia Psychologiczno-Pedagogiczna w Siemianowicach \u015aL\u0105skich",
                "name": "Poradnia Psychologiczno-Pedagogiczna w Siemianowicach \u015aL\u0105skich",
                "addr:country": "PL",
                "addr:postcode": "41-100",
                "addr:city": "Siemianowice \u015al\u0105skie",
                "addr:street": "Olimpijska",
                "addr:housenumber": "2a",
                "addr:teryt:simc": 14989,
                "addr:teryt:sym_ul": 943150,
                "contact:phone": "+48 326086565",
                "contact:email": "poradniasiemianowice@onet.pl",
                "contact:website": "http:\/\/www.ppp.siemianowice.pl",
                "ref:regon": "000817681",
                "ref:vatin": "PL6431601351",
                "operator": "Gmina Siemianowice \u015al\u0105skie",
                "operator:type": "government",
                "healthcare": "counselling",
                "counselling_type": "education",
                "fixme": "w zale\u017cno\u015bci od przedmiotu dzia\u0142alno\u015bci (np. healthcare=counselling + counselling_type=education albo healthcare=psychotherapist)"
            }
        },
        {
            "id": 196396,
            "type": "Feature",
            "geometry": {
                "type": "Point",
                "coordinates": [
                    19.01932,
                    50.30269
                ]
            },
            "properties": {
                "ref:rspo": 196396,
                "official_name": "Ejbisi Przedszkole Lingwistyczne Z Oddzia\u0142ami Integracyjnymi I Specjalnymi",
                "name": "Ejbisi Przedszkole Lingwistyczne Z Oddzia\u0142ami Integracyjnymi I Specjalnymi",
                "addr:country": "PL",
                "addr:postcode": "41-100",
                "addr:city": "Siemianowice \u015al\u0105skie",
                "addr:street": "Olimpijska",
                "addr:housenumber": "3",
                "addr:teryt:simc": 14989,
                "addr:teryt:sym_ul": 943150,
                "contact:email": "olimpijskie@ejbisi.pl",
                "contact:website": "http:\/\/www.ejbisi.pl",
                "ref:regon": "367997032",
                "operator": "Fundacja Ejbisi",
                "operator:type": "ngo",
                "amenity": "kindergarten"
            }
        },
        {
            "id": 89423,
            "type": "Feature",
            "geometry": {
                "type": "Point",
                "coordinates": [
                    19.03318,
                    50.30294
                ]
            },
            "properties": {
                "isced:level": "3",
                "ref:rspo": 89423,
                "official_name": "Katolickie Liceum Og\u00f3lnokszta\u0142c\u0105ce w Siemianowicach \u015aL\u0105skich",
                "name": "Katolickie Liceum Og\u00f3lnokszta\u0142c\u0105ce w Siemianowicach \u015aL\u0105skich",
                "addr:country": "PL",
                "addr:postcode": "41-100",
                "addr:city": "Siemianowice \u015al\u0105skie",
                "addr:street": "1 Maja",
                "addr:housenumber": "1",
                "addr:teryt:simc": 11926,
                "addr:teryt:sym_ul": 943150,
                "contact:phone": "+48 322282293",
                "contact:email": "klo.siem@op.pl",
                "contact:website": "http:\/\/www.katolik.siemianowice.pl",
                "ref:regon": "243108172",
                "ref:vatin": "PL6431433528",
                "operator": "Stowarzyszenie Rodzin Katolickich Archidiecezji Katowickiej",
                "operator:type": "ngo",
                "amenity": "school"
            }
        },
        {
            "id": 89439,
            "type": "Feature",
            "geometry": {
                "type": "Point",
                "coordinates": [
                    19.03318,
                    50.30291
                ]
            },
            "properties": {
                "isced:level": "3",
                "ref:rspo": 89439,
                "official_name": "Prywatne Liceum Og\u00f3lnokszta\u0142c\u0105ce dla Doros\u0142ych",
                "name": "Prywatne Liceum Og\u00f3lnokszta\u0142c\u0105ce dla Doros\u0142ych",
                "addr:country": "PL",
                "addr:postcode": "41-100",
                "addr:city": "Siemianowice \u015al\u0105skie",
                "addr:street": "1 Maja",
                "addr:housenumber": "1",
                "addr:teryt:simc": 11926,
                "addr:teryt:sym_ul": 943150,
                "contact:email": "siemianowice@twoja-szkola.pl",
                "contact:website": "http:\/\/www.twoja-szkola.pl",
                "ref:regon": "243108054",
                "operator": "Twoja Szko\u0142a Sp\u00f3\u0142ka Z Ograniczon\u0105 Odpowiedzialno\u015bci\u0105",
                "operator:type": "private",
                "amenity": "school"
            }
        },
        {
            "id": 89441,
            "type": "Feature",
            "geometry": {
                "type": "Point",
                "coordinates": [
                    19.03318,
                    50.30288
                ]
            },
            "properties": {
                "isced:level": "4",
                "ref:rspo": 89441,
                "official_name": "Prywatna Szko\u0142a Policealna \"Twoja-Szko\u0142a\" w Siemianowicach \u015aL\u0105skich",
                "name": "Prywatna Szko\u0142a Policealna \"Twoja-Szko\u0142a\" w Siemianowicach \u015aL\u0105skich",
                "addr:country": "PL",
                "addr:postcode": "41-100",
                "addr:city": "Siemianowice \u015al\u0105skie",
                "addr:street": "1 Maja",
                "addr:housenumber": "1",
                "addr:teryt:simc": 11926,
                "addr:teryt:sym_ul": 943150,
                "contact:email": "siemianowice@twoja-szkola.pl",
                "contact:website": "http:\/\/www.twoja-szkola.pl",
                "ref:regon": "243108048",
                "operator": "Twoja Szko\u0142a Sp\u00f3\u0142ka Z Ograniczon\u0105 Odpowiedzialno\u015bci\u0105",
                "operator:type": "private",
                "amenity": "college"
            }
        },
        {
            "id": 263483,
            "type": "Feature",
            "geometry": {
                "type": "Point",
                "coordinates": [
                    19.03318,
                    50.30285
                ]
            },
            "properties": {
                "isced:level": "1;2",
                "ref:rspo": 263483,
                "official_name": "Publiczna Szko\u0142a Podstawowa Stowarzyszenia Rodzin Katolickich Archidiecezji Katowickiej",
                "name": "Publiczna Szko\u0142a Podstawowa Stowarzyszenia Rodzin Katolickich Archidiecezji Katowickiej",
                "addr:country": "PL",
                "addr:postcode": "41-100",
                "addr:city": "Siemianowice \u015al\u0105skie",
                "addr:street": "1 Maja",
                "addr:housenumber": "1",
                "addr:teryt:simc": 11926,
                "addr:teryt:sym_ul": 943150,
                "contact:phone": "+48 322282293",
                "contact:email": "klo.siem@op.pl",
                "ref:regon": "368194826",
                "operator": "Stowarzyszenie Rodzin Katolickich Archidiecezji Katowickiej",
                "operator:type": "ngo",
                "amenity": "school"
            }
        },
        {
            "id": 268996,
            "type": "Feature",
            "geometry": {
                "type": "Point",
                "coordinates": [
                    19.03318,
                    50.30282
                ]
            },
            "properties": {
                "ref:rspo": 268996,
                "official_name": "Eduka Center",
                "name": "Eduka Center",
                "addr:country": "PL",
                "addr:postcode": "41-100",
                "addr:city": "Siemianowice \u015al\u0105skie",
                "addr:street": "1 Maja",
                "addr:housenumber": "1",
                "addr:teryt:simc": 11926,
                "addr:teryt:sym_ul": 943150,
                "contact:phone": "+48 505227864",
                "contact:email": "biuro@edukacenter.pl",
                "ref:regon": "381328308",
                "operator": "Katarzyna Yuce",
                "operator:type": "private",
                "fixme": "w zale\u017cno\u015bci od przedmiotu dzia\u0142alno\u015bci (np. amenity=training + training=*, amenity=dancing_school, amenity=language_school, amenity=music_school)"
            }
        },
        {
            "id": 86436,
            "type": "Feature",
            "geometry": {
                "type": "Point",
                "coordinates": [
                    19.02855,
                    50.30295
                ]
            },
            "properties": {
                "isced:level": "3",
                "ref:rspo": 86436,
                "official_name": "I Liceum Og\u00f3lnokszta\u0142c\u0105ce im. Jana \u015aniadeckiego w Siemianowicach \u015aL\u0105skich",
                "name": "I Liceum Og\u00f3lnokszta\u0142c\u0105ce",
                "addr:country": "PL",
                "addr:postcode": "41-100",
                "addr:city": "Siemianowice \u015al\u0105skie",
                "addr:street": "Stanis\u0142awa Wyspia\u0144skiego",
                "addr:housenumber": "5",
                "addr:teryt:simc": 25084,
                "addr:teryt:sym_ul": 943150,
                "contact:phone": "+48 322282147",
                "contact:email": "sekretariat@sniadek.com",
                "contact:website": "http:\/\/www.sniadek.com",
                "ref:regon": "272041962",
                "ref:vatin": "PL6431767318",
                "operator": "Gmina Siemianowice \u015al\u0105skie",
                "operator:type": "government",
                "amenity": "school"
            }
        },
        {
            "id": 86265,
            "type": "Feature",
            "geometry": {
                "type": "Point",
                "coordinates": [
                    19.03347,
                    50.30391
                ]
            },
            "properties": {
                "ref:rspo": 86265,
                "official_name": "Przedszkole Nr 18 w Siemianowicach \u015aL\u0105skich",
                "name": "Przedszkole Nr 18 w Siemianowicach \u015aL\u0105skich",
                "addr:country": "PL",
                "addr:postcode": "41-100",
                "addr:city": "Siemianowice \u015al\u0105skie",
                "addr:street": "1 Maja",
                "addr:housenumber": "3a",
                "addr:teryt:simc": 11926,
                "addr:teryt:sym_ul": 943150,
                "contact:phone": "+48 322283662",
                "contact:email": "przedszkole@p18siemianowice.pl",
                "contact:website": "http:\/\/www.p18siemianowice.pl",
                "ref:regon": "271509067",
                "ref:vatin": "PL6431433652",
                "operator": "Gmina Siemianowice \u015al\u0105skie",
                "operator:type": "government",
                "amenity": "kindergarten"
            }
        },
        {
            "id": 129491,
            "type": "Feature",
            "geometry": {
                "type": "Point",
                "coordinates": [
                    19.00377,
                    50.30519
                ]
            },
            "properties": {
                "ref:rspo": 129491,
                "official_name": "Niepubliczne Przedszkole Sportowe Weso\u0142a Rodzinka",
                "name": "Niepubliczne Przedszkole Sportowe Weso\u0142a Rodzinka",
                "addr:country": "PL",
                "addr:postcode": "41-106",
                "addr:city": "Siemianowice \u015al\u0105skie",
                "addr:street": "Niepodleg\u0142o\u015bci",
                "addr:housenumber": "20",
                "addr:teryt:simc": 14203,
                "addr:teryt:sym_ul": 943150,
                "contact:phone": "+48 505099330",
                "contact:email": "poczta@cps.info.pl",
                "ref:regon": "362633609",
                "operator": "Centrum Projektowo-Szkoleniowe Sp\u00f3\u0142ka Z Ograniczon\u0105 Odpowiedzialno\u015bci\u0105",
                "operator:type": "private",
                "amenity": "kindergarten"
            }
        },
        {
            "id": 89419,
            "type": "Feature",
            "geometry": {
                "type": "Point",
                "coordinates": [
                    19.02445,
                    50.30539
                ]
            },
            "properties": {
                "ref:rspo": 89419,
                "official_name": "Bajkowe Przedszkole",
                "name": "Bajkowe Przedszkole",
                "addr:country": "PL",
                "addr:postcode": "41-100",
                "addr:city": "Siemianowice \u015al\u0105skie",
                "addr:street": "Kazimierza Pu\u0142askiego",
                "addr:housenumber": "3",
                "addr:teryt:simc": 18099,
                "addr:teryt:sym_ul": 943150,
                "contact:email": "przedszkole.siemianowice@gmail.com",
                "contact:website": "http:\/\/www.bajkoweprzedszkole.edu.pl",
                "ref:regon": "243110737",
                "ref:vatin": "PL6252163070",
                "operator": "Pitas Piotr Pol-Lex",
                "operator:type": "consortium",
                "amenity": "kindergarten"
            }
        },
        {
            "id": 83756,
            "type": "Feature",
            "geometry": {
                "type": "Point",
                "coordinates": [
                    19.00637,
                    50.3055499
                ]
            },
            "properties": {
                "ref:rspo": 83756,
                "official_name": "Zesp\u00f3\u0142 Szk\u00f3\u0142 Sportowych w Siemianowicach \u015aL\u0105skich",
                "name": "Zesp\u00f3\u0142 Szk\u00f3\u0142 Sportowych w Siemianowicach \u015aL\u0105skich",
                "addr:country": "PL",
                "addr:postcode": "41-106",
                "addr:city": "Siemianowice \u015al\u0105skie",
                "addr:street": "Miko\u0142aja",
                "addr:housenumber": "3",
                "addr:teryt:simc": 12883,
                "addr:teryt:sym_ul": 943150,
                "contact:phone": "+48 322200800",
                "contact:email": "sekretariat@zss-siemianowice.pl",
                "contact:website": "http:\/\/zss-siemianowice.pl",
                "ref:regon": "277881075",
                "ref:vatin": "PL6431637053",
                "operator": "Gmina Siemianowice \u015al\u0105skie",
                "operator:type": "government",
                "landuse": "education",
                "fixme": "amenity=school, amenity=college albo landuse=education w zale\u017cno\u015bci od tego, jakie plac\u00f3wki wchodz\u0105 w sk\u0142ad zespo\u0142u. Sprawd\u017a, kiedy stosowa\u0107 amenity=* a kiedy landuse=education.",
                "note": "Children RSPO: 87560;87569"
            }
        },
        {
            "id": 87569,
            "type": "Feature",
            "geometry": {
                "type": "Point",
                "coordinates": [
                    19.00637,
                    50.3055199
                ]
            },
            "properties": {
                "isced:level": "3",
                "ref:rspo": 87569,
                "official_name": "V Liceum Og\u00f3lnokszta\u0142c\u0105ce w Siemianowicach \u015aL\u0105skich",
                "name": "V Liceum Og\u00f3lnokszta\u0142c\u0105ce w Siemianowicach \u015aL\u0105skich",
                "addr:country": "PL",
                "addr:postcode": "41-106",
                "addr:city": "Siemianowice \u015al\u0105skie",
                "addr:street": "Miko\u0142aja",
                "addr:housenumber": "3",
                "addr:teryt:simc": 12883,
                "addr:teryt:sym_ul": 943150,
                "contact:phone": "+48 322200800",
                "contact:email": "sekretariat@zss-siemianowice.pl",
                "contact:website": "http:\/\/zss-siemianowice.pl",
                "ref:regon": "277881098",
                "ref:vatin": "PL6431637076",
                "operator": "Gmina Siemianowice \u015al\u0105skie",
                "operator:type": "government",
                "amenity": "school",
                "note": "Parent RSPO: 83756"
            }
        },
        {
            "id": 86258,
            "type": "Feature",
            "geometry": {
                "type": "Point",
                "coordinates": [
                    19.02884,
                    50.30584
                ]
            },
            "properties": {
                "ref:rspo": 86258,
                "official_name": "Przedszkole Nr 10 w Siemianowicach \u015aL\u0105skich",
                "name": "Przedszkole Nr 10 w Siemianowicach \u015aL\u0105skich",
                "addr:country": "PL",
                "addr:postcode": "41-100",
                "addr:city": "Siemianowice \u015al\u0105skie",
                "addr:street": "Jana Paw\u0142a II",
                "addr:housenumber": "8",
                "addr:teryt:simc": 7123,
                "addr:teryt:sym_ul": 943150,
                "contact:phone": "+48 322286583",
                "contact:email": "przedszkole10@siemianowice.pl",
                "ref:regon": "271509009",
                "ref:vatin": "PL6431433646",
                "operator": "Gmina Siemianowice \u015al\u0105skie",
                "operator:type": "government",
                "amenity": "kindergarten"
            }
        },
        {
            "id": 86253,
            "type": "Feature",
            "geometry": {
                "type": "Point",
                "coordinates": [
                    19.00772,
                    50.30616
                ]
            },
            "properties": {
                "ref:rspo": 86253,
                "official_name": "Przedszkole Nr 2 \"T\u0119czowa Dw\u00f3jeczka\" w Siemianowicach \u015aL\u0105skich",
                "name": "Przedszkole Nr 2 \"T\u0119czowa Dw\u00f3jeczka\" w Siemianowicach \u015aL\u0105skich",
                "addr:country": "PL",
                "addr:postcode": "41-106",
                "addr:city": "Siemianowice \u015al\u0105skie",
                "addr:street": "Zwi\u0105zku Harcerstwa Polskiego",
                "addr:housenumber": "8",
                "addr:teryt:simc": 26291,
                "addr:teryt:sym_ul": 943150,
                "contact:phone": "+48 322283835",
                "contact:email": "przedszkole2@siemianowice.pl",
                "contact:website": "http:\/\/www.teczowadwojeczka.pl",
                "ref:regon": "271508932",
                "ref:vatin": "PL6431433617",
                "operator": "Gmina Siemianowice \u015al\u0105skie",
                "operator:type": "government",
                "amenity": "kindergarten"
            }
        },
        {
            "id": 87560,
            "type": "Feature",
            "geometry": {
                "type": "Point",
                "coordinates": [
                    19.00498,
                    50.30657
                ]
            },
            "properties": {
                "isced:level": "1;2",
                "ref:rspo": 87560,
                "official_name": "Szko\u0142a Podstawowa Nr 8 im. J\u00f3zefa Skrzeka I Paw\u0142a W\u00f3jcika w Siemianowicach \u015aL\u0105skich",
                "name": "Szko\u0142a Podstawowa Nr 8",
                "addr:country": "PL",
                "addr:postcode": "41-106",
                "addr:city": "Siemianowice \u015al\u0105skie",
                "addr:street": "Plac Skrzeka i W\u00f3jcika",
                "addr:housenumber": "4",
                "addr:teryt:simc": 20150,
                "addr:teryt:sym_ul": 943150,
                "contact:phone": "+48 322200800",
                "contact:email": "sekretariat@zss-siemianowice.pl",
                "contact:website": "http:\/\/zss-siemianowice.pl",
                "ref:regon": "001016658",
                "ref:vatin": "PL6431433379",
                "operator": "Gmina Siemianowice \u015al\u0105skie",
                "operator:type": "government",
                "amenity": "school",
                "note": "Parent RSPO: 83756"
            }
        },
        {
            "id": 86268,
            "type": "Feature",
            "geometry": {
                "type": "Point",
                "coordinates": [
                    19.019050598144,
                    50.307441711426
                ]
            },
            "properties": {
                "ref:rspo": 86268,
                "official_name": "Przedszkole Nr 20 \"Zielona Kraina\" w Siemianowicach \u015aL\u0105skich",
                "name": "Przedszkole Nr 20 \"Zielona Kraina\" w Siemianowicach \u015aL\u0105skich",
                "addr:country": "PL",
                "addr:postcode": "41-100",
                "addr:city": "Siemianowice \u015al\u0105skie",
                "addr:street": "Hermana Wr\u00f3bla",
                "addr:housenumber": "11",
                "addr:teryt:simc": 24825,
                "addr:teryt:sym_ul": 943150,
                "contact:phone": "+48 322281453",
                "contact:email": "przedszkole20@siemianowice.pl",
                "contact:website": "http:\/\/przedszkolezielonakraina.cba.pl",
                "ref:regon": "271509080",
                "ref:vatin": "PL6431433557",
                "operator": "Gmina Siemianowice \u015al\u0105skie",
                "operator:type": "government",
                "amenity": "kindergarten"
            }
        },
        {
            "id": 132687,
            "type": "Feature",
            "geometry": {
                "type": "Point",
                "coordinates": [
                    19.019050598144,
                    50.307411711426
                ]
            },
            "properties": {
                "ref:rspo": 132687,
                "official_name": "Niepubliczna Poradnia Psychologiczno-Pedagogiczna Poradnia Rodzinna Modus Vivendi",
                "name": "Niepubliczna Poradnia Psychologiczno-Pedagogiczna Poradnia Rodzinna Modus Vivendi",
                "addr:country": "PL",
                "addr:postcode": "41-103",
                "addr:city": "Siemianowice \u015al\u0105skie",
                "addr:street": "Walentego Fojkisa",
                "addr:housenumber": "8a",
                "addr:teryt:simc": 5103,
                "addr:teryt:sym_ul": 943150,
                "contact:phone": "+48 604708025",
                "contact:email": "info@centrumpomocyrodzinie.pl",
                "ref:regon": "366037956",
                "operator": "Barbara \u0141\u0119\u017cak",
                "operator:type": "private",
                "healthcare": "counselling",
                "counselling_type": "education",
                "fixme": "w zale\u017cno\u015bci od przedmiotu dzia\u0142alno\u015bci (np. healthcare=counselling + counselling_type=education albo healthcare=psychotherapist)"
            }
        },
        {
            "id": 86413,
            "type": "Feature",
            "geometry": {
                "type": "Point",
                "coordinates": [
                    19.02249,
                    50.30822
                ]
            },
            "properties": {
                "isced:level": "1;2",
                "ref:rspo": 86413,
                "official_name": "Szko\u0142a Podstawowa Nr 5 im. Adama Mickiewicza w Siemianowicach \u015aL\u0105skich",
                "name": "Szko\u0142a Podstawowa Nr 5",
                "addr:country": "PL",
                "addr:postcode": "41-100",
                "addr:city": "Siemianowice \u015al\u0105skie",
                "addr:street": "Micha\u0142kowicka",
                "addr:housenumber": "15",
                "addr:teryt:simc": 12702,
                "addr:teryt:sym_ul": 943150,
                "contact:phone": "+48 322200701",
                "contact:email": "sekretariat@sp5siemianowice.pl",
                "contact:website": "http:\/\/www.sp5siemianowice.pl",
                "ref:regon": "000726659",
                "ref:vatin": "PL6431433327",
                "operator": "Gmina Siemianowice \u015al\u0105skie",
                "operator:type": "government",
                "amenity": "school"
            }
        },
        {
            "id": 86409,
            "type": "Feature",
            "geometry": {
                "type": "Point",
                "coordinates": [
                    19.03222,
                    50.3084599
                ]
            },
            "properties": {
                "ref:rspo": 86409,
                "official_name": "M\u0142odzie\u017cowy Dom Kultury im. Dr. H. Jordana w Siemianowicach \u015aL\u0105skich",
                "name": "M\u0142odzie\u017cowy Dom Kultury",
                "addr:country": "PL",
                "addr:postcode": "41-100",
                "addr:city": "Siemianowice \u015al\u0105skie",
                "addr:street": "Fryderyka Chopina",
                "addr:housenumber": "2",
                "addr:teryt:simc": 2849,
                "addr:teryt:sym_ul": 943150,
                "contact:phone": "+48 322281337",
                "contact:email": "mdkjordan@siemianowice.pl",
                "contact:website": "http:\/\/www.mdk.siemianowice.pl",
                "ref:regon": "000726731",
                "ref:vatin": "PL6431441195",
                "operator": "Gmina Siemianowice \u015al\u0105skie",
                "operator:type": "government",
                "amenity": "community_centre",
                "community_centre:for": "juvenile"
            }
        },
        {
            "id": 86417,
            "type": "Feature",
            "geometry": {
                "type": "Point",
                "coordinates": [
                    19.0319499,
                    50.31
                ]
            },
            "properties": {
                "isced:level": "1;2",
                "ref:rspo": 86417,
                "official_name": "Szko\u0142a Podstawowa Nr 6 im. Fryderyka Chopina w Siemianowicach \u015aL\u0105skich",
                "name": "Szko\u0142a Podstawowa Nr 6",
                "addr:country": "PL",
                "addr:postcode": "41-100",
                "addr:city": "Siemianowice \u015al\u0105skie",
                "addr:street": "Fryderyka Chopina",
                "addr:housenumber": "4a",
                "addr:teryt:simc": 2849,
                "addr:teryt:sym_ul": 943150,
                "contact:phone": "+48 322200616",
                "contact:email": "sp6siem@siemianowice.pl",
                "contact:website": "http:\/\/www.sp6.siemianowice.pl",
                "ref:regon": "000726665",
                "ref:vatin": "PL6431433304",
                "operator": "Gmina Siemianowice \u015al\u0105skie",
                "operator:type": "government",
                "amenity": "school"
            }
        },
        {
            "id": 125679,
            "type": "Feature",
            "geometry": {
                "type": "Point",
                "coordinates": [
                    19.03769,
                    50.31232
                ]
            },
            "properties": {
                "ref:rspo": 125679,
                "official_name": "Dwuj\u0119zyczne Przedszkole \"Strefa Malucha\"",
                "name": "Dwuj\u0119zyczne Przedszkole \"Strefa Malucha\"",
                "addr:country": "PL",
                "addr:postcode": "41-100",
                "addr:city": "Siemianowice \u015al\u0105skie",
                "addr:street": "\u017burawia",
                "addr:housenumber": "1",
                "addr:teryt:simc": 26579,
                "addr:teryt:sym_ul": 943150,
                "contact:phone": "+48 604752218",
                "contact:email": "anna.augustyn@strefamalucha.com",
                "contact:website": "http:\/\/www.strefamalucha.com",
                "ref:regon": "243693549",
                "operator": "Fundacja Strefa Malucha Dzieciom",
                "operator:type": "ngo",
                "amenity": "kindergarten"
            }
        },
        {
            "id": 264752,
            "type": "Feature",
            "geometry": {
                "type": "Point",
                "coordinates": [
                    19.03854,
                    50.31351
                ]
            },
            "properties": {
                "ref:rspo": 264752,
                "official_name": "Niepubliczne Przedszkole Sowia 5 Z Oddzia\u0142ami Integracyjnymi",
                "name": "Niepubliczne Przedszkole Sowia 5 Z Oddzia\u0142ami Integracyjnymi",
                "addr:country": "PL",
                "addr:postcode": "41-100",
                "addr:city": "Siemianowice \u015al\u0105skie",
                "addr:street": "Sowia",
                "addr:housenumber": "5",
                "addr:teryt:simc": 20615,
                "addr:teryt:sym_ul": 943150,
                "contact:email": "przedszkole.sowia5@gmail.com",
                "contact:website": "http:\/\/przedszkole.sowia5.pl\/",
                "ref:regon": "368444269",
                "operator": "Beata Mazur-Micha\u0142owska",
                "operator:type": "private",
                "amenity": "kindergarten"
            }
        },
        {
            "id": 87417,
            "type": "Feature",
            "geometry": {
                "type": "Point",
                "coordinates": [
                    18.99787,
                    50.31609
                ]
            },
            "properties": {
                "isced:level": "1;2",
                "ref:rspo": 87417,
                "official_name": "Szko\u0142a Podstawowa Nr 4 im. Witolda Budryka w Siemianowicach \u015aL\u0105skich",
                "name": "Szko\u0142a Podstawowa Nr 4",
                "addr:country": "PL",
                "addr:postcode": "41-103",
                "addr:city": "Siemianowice \u015al\u0105skie",
                "addr:street": "Marii D\u0105browskiej",
                "addr:housenumber": "10",
                "addr:teryt:simc": 3691,
                "addr:teryt:sym_ul": 943150,
                "contact:phone": "+48 322201378",
                "contact:email": "sp4@mmj.pl",
                "contact:website": "http:\/\/www.sp4siemianowice.szkolnastrona.pl",
                "ref:regon": "000726642",
                "ref:vatin": "PL6431433362",
                "operator": "Gmina Siemianowice \u015al\u0105skie",
                "operator:type": "government",
                "amenity": "school"
            }
        },
        {
            "id": 131800,
            "type": "Feature",
            "geometry": {
                "type": "Point",
                "coordinates": [
                    19.00179,
                    50.31615
                ]
            },
            "properties": {
                "ref:rspo": 131800,
                "official_name": "Terapeutyczny Punkt Przedszkolny \"Przyjazny Zak\u0105tek\"",
                "name": "Terapeutyczny Punkt Przedszkolny \"Przyjazny Zak\u0105tek\"",
                "addr:country": "PL",
                "addr:postcode": "41-103",
                "addr:city": "Siemianowice \u015al\u0105skie",
                "addr:street": "Marii D\u0105browskiej",
                "addr:housenumber": "4",
                "addr:teryt:simc": 3691,
                "addr:teryt:sym_ul": 943150,
                "contact:email": "joannawiklik@wp.pl",
                "ref:regon": "365350295",
                "operator": "Terapeutyczny Punkt Przedszkolny Przyjazny Zak\u0105tek Sp\u00f3\u0142ka Z Ograniczon\u0105 Odpowiedzialno\u015bci\u0105",
                "operator:type": "private",
                "amenity": "kindergarten"
            }
        },
        {
            "id": 132616,
            "type": "Feature",
            "geometry": {
                "type": "Point",
                "coordinates": [
                    19.00179,
                    50.31612
                ]
            },
            "properties": {
                "ref:rspo": 132616,
                "official_name": "Specjalistyczna Niepubliczna Poradnia Psychologiczno-Pedagogiczna \"Persona\"",
                "name": "Specjalistyczna Niepubliczna Poradnia Psychologiczno-Pedagogiczna \"Persona\"",
                "addr:country": "PL",
                "addr:postcode": "41-103",
                "addr:city": "Siemianowice \u015al\u0105skie",
                "addr:street": "Marii D\u0105browskiej",
                "addr:housenumber": "4",
                "addr:teryt:simc": 3691,
                "addr:teryt:sym_ul": 943150,
                "contact:email": "joannawiklik@wp.pl",
                "ref:regon": "365925146",
                "operator": "Terapeutyczny Punkt Przedszkolny Przyjazny Zak\u0105tek Sp\u00f3\u0142ka Z Ograniczon\u0105 Odpowiedzialno\u015bci\u0105",
                "operator:type": "private",
                "fixme": "w zale\u017cno\u015bci od przedmiotu dzia\u0142alno\u015bci (np. healthcare=counselling + counselling_type=education albo healthcare=psychotherapist)"
            }
        },
        {
            "id": 86261,
            "type": "Feature",
            "geometry": {
                "type": "Point",
                "coordinates": [
                    19.00409,
                    50.31678
                ]
            },
            "properties": {
                "ref:rspo": 86261,
                "official_name": "Przedszkole Nr 12 w Siemianowicach \u015aL\u0105skich",
                "name": "Przedszkole Nr 12 w Siemianowicach \u015aL\u0105skich",
                "addr:country": "PL",
                "addr:postcode": "41-103",
                "addr:city": "Siemianowice \u015al\u0105skie",
                "addr:street": "O\u015bwi\u0119cimska",
                "addr:housenumber": "3",
                "addr:teryt:simc": 15440,
                "addr:teryt:sym_ul": 943150,
                "contact:phone": "+48 322294023",
                "contact:email": "sekretariat@przedszkole12siemianowice.pl",
                "contact:website": "http:\/\/p12siemianowice.edupage.org",
                "ref:regon": "271513590",
                "ref:vatin": "PL6431433586",
                "operator": "Gmina Siemianowice \u015al\u0105skie",
                "operator:type": "government",
                "amenity": "kindergarten"
            }
        },
        {
            "id": 128202,
            "type": "Feature",
            "geometry": {
                "type": "Point",
                "coordinates": [
                    19.01217,
                    50.32148
                ]
            },
            "properties": {
                "ref:rspo": 128202,
                "official_name": "Centrum Kszta\u0142cenia Ustawicznego Supreme w Siemianowicach \u015aL\u0105skich",
                "name": "Centrum Kszta\u0142cenia Ustawicznego Supreme w Siemianowicach \u015aL\u0105skich",
                "addr:country": "PL",
                "addr:postcode": "41-103",
                "addr:city": "Siemianowice \u015al\u0105skie",
                "addr:street": "Wyzwolenia",
                "addr:housenumber": "4",
                "addr:teryt:simc": 25133,
                "addr:teryt:sym_ul": 943150,
                "contact:phone": "+48 504503578",
                "contact:email": "supreme.cosmetic@gmail.com",
                "ref:regon": "362174917",
                "operator": "Marta Nowakowska",
                "operator:type": "private",
                "fixme": "w zale\u017cno\u015bci od przedmiotu dzia\u0142alno\u015bci (np. amenity=training + training=*, amenity=dancing_school, amenity=language_school, amenity=music_school)"
            }
        },
        {
            "id": 83900,
            "type": "Feature",
            "geometry": {
                "type": "Point",
                "coordinates": [
                    18.99684,
                    50.32208
                ]
            },
            "properties": {
                "ref:rspo": 83900,
                "official_name": "Zesp\u00f3\u0142 Szk\u00f3\u0142 Og\u00f3lnokszta\u0142c\u0105cych I Zawodowych w Siemianowicach \u015aL\u0105skich",
                "name": "Zesp\u00f3\u0142 Szk\u00f3\u0142 Og\u00f3lnokszta\u0142c\u0105cych I Zawodowych w Siemianowicach \u015aL\u0105skich",
                "addr:country": "PL",
                "addr:postcode": "41-103",
                "addr:city": "Siemianowice \u015al\u0105skie",
                "addr:street": "Witolda Budryka",
                "addr:housenumber": "2",
                "addr:teryt:simc": 2342,
                "addr:teryt:sym_ul": 943150,
                "contact:phone": "+48 322282833",
                "contact:email": "sekretariat@zsoiz.pl",
                "contact:website": "http:\/\/www.zsoiz.szkolnastrona.pl",
                "ref:regon": "000024199",
                "ref:vatin": "PL6431433468",
                "operator": "Gmina Siemianowice \u015al\u0105skie",
                "operator:type": "government",
                "landuse": "education",
                "fixme": "amenity=school, amenity=college albo landuse=education w zale\u017cno\u015bci od tego, jakie plac\u00f3wki wchodz\u0105 w sk\u0142ad zespo\u0142u. Sprawd\u017a, kiedy stosowa\u0107 amenity=* a kiedy landuse=education.",
                "note": "Children RSPO: 88782;88784;263414"
            }
        },
        {
            "id": 88782,
            "type": "Feature",
            "geometry": {
                "type": "Point",
                "coordinates": [
                    18.99684,
                    50.32205
                ]
            },
            "properties": {
                "isced:level": "3",
                "ref:rspo": 88782,
                "official_name": "Bran\u017cowa Szko\u0142a I Stopnia Nr 2 im. \u015aw. Jana Paw\u0142a II w Siemianowicach \u015aL\u0105skich",
                "name": "Bran\u017cowa Szko\u0142a I Stopnia Nr 2",
                "addr:country": "PL",
                "addr:postcode": "41-103",
                "addr:city": "Siemianowice \u015al\u0105skie",
                "addr:street": "Witolda Budryka",
                "addr:housenumber": "2",
                "addr:teryt:simc": 2342,
                "addr:teryt:sym_ul": 943150,
                "contact:phone": "+48 322282833",
                "contact:email": "sekretariat@zsoiz.pl",
                "contact:website": "http:\/\/www.zsoiz.szkolnastrona.pl",
                "ref:regon": "272041933",
                "ref:vatin": "PL6431433468",
                "operator": "Gmina Siemianowice \u015al\u0105skie",
                "operator:type": "government",
                "amenity": "school",
                "note": "Parent RSPO: 83900"
            }
        },
        {
            "id": 88784,
            "type": "Feature",
            "geometry": {
                "type": "Point",
                "coordinates": [
                    18.99684,
                    50.32202
                ]
            },
            "properties": {
                "isced:level": "3",
                "ref:rspo": 88784,
                "official_name": "Liceum Og\u00f3lnokszta\u0142c\u0105ce dla Doros\u0142ych w Siemianowicach \u015aL\u0105skich",
                "name": "Liceum Og\u00f3lnokszta\u0142c\u0105ce dla Doros\u0142ych w Siemianowicach \u015aL\u0105skich",
                "addr:country": "PL",
                "addr:postcode": "41-103",
                "addr:city": "Siemianowice \u015al\u0105skie",
                "addr:street": "Witolda Budryka",
                "addr:housenumber": "2",
                "addr:teryt:simc": 2342,
                "addr:teryt:sym_ul": 943150,
                "contact:phone": "+48 322282833",
                "contact:email": "sekretariat@zsoiz.pl",
                "contact:website": "http:\/\/www.zsoiz.szkolnastrona.pl",
                "ref:regon": "278292234",
                "ref:vatin": "PL6431433468",
                "operator": "Gmina Siemianowice \u015al\u0105skie",
                "operator:type": "government",
                "amenity": "school",
                "note": "Parent RSPO: 83900"
            }
        },
        {
            "id": 263414,
            "type": "Feature",
            "geometry": {
                "type": "Point",
                "coordinates": [
                    18.99684,
                    50.32199
                ]
            },
            "properties": {
                "isced:level": "1;2",
                "ref:rspo": 263414,
                "official_name": "Szko\u0142a Podstawowa dla Doros\u0142ych",
                "name": "Szko\u0142a Podstawowa dla Doros\u0142ych",
                "addr:country": "PL",
                "addr:postcode": "41-103",
                "addr:city": "Siemianowice \u015al\u0105skie",
                "addr:street": "Witolda Budryka",
                "addr:housenumber": "2",
                "addr:teryt:simc": 2342,
                "addr:teryt:sym_ul": 943150,
                "contact:phone": "+48 322282833",
                "contact:email": "sekretariat@zsoiz.pl",
                "contact:website": "http:\/\/www.zsoiz.szkolnastrona.pl",
                "ref:regon": "368188100",
                "operator": "Gmina Siemianowice \u015al\u0105skie",
                "operator:type": "government",
                "amenity": "school",
                "note": "Parent RSPO: 83900"
            }
        },
        {
            "id": 86254,
            "type": "Feature",
            "geometry": {
                "type": "Point",
                "coordinates": [
                    19.00182,
                    50.32261
                ]
            },
            "properties": {
                "ref:rspo": 86254,
                "official_name": "Przedszkole Nr 6 w Siemianowicach \u015aL\u0105skich",
                "name": "Przedszkole Nr 6 w Siemianowicach \u015aL\u0105skich",
                "addr:country": "PL",
                "addr:postcode": "41-103",
                "addr:city": "Siemianowice \u015al\u0105skie",
                "addr:street": "Ko\u015bcielna",
                "addr:housenumber": "39",
                "addr:teryt:simc": 9546,
                "addr:teryt:sym_ul": 943150,
                "contact:phone": "+48 322281815",
                "contact:email": "sekretariat@przedszkole6siemianowice.pl",
                "contact:website": "http:\/\/www.p6siemianowice.2ap.pl",
                "ref:regon": "271508961",
                "ref:vatin": "PL6431433712",
                "operator": "Gmina Siemianowice \u015al\u0105skie",
                "operator:type": "government",
                "amenity": "kindergarten"
            }
        },
        {
            "id": 279083,
            "type": "Feature",
            "geometry": {
                "type": "Point",
                "coordinates": [
                    19.00182,
                    50.322579999999995
                ]
            },
            "properties": {
                "ref:rspo": 279083,
                "official_name": "Niepubliczna Poradnia Psychologiczno-Pedagogiczna \" Szansa\"",
                "name": "Niepubliczna Poradnia Psychologiczno-Pedagogiczna \" Szansa\"",
                "addr:country": "PL",
                "addr:postcode": "41-103",
                "addr:city": "Siemianowice \u015al\u0105skie",
                "addr:street": "Ko\u015bcielna",
                "addr:housenumber": "39",
                "addr:teryt:simc": 9546,
                "addr:teryt:sym_ul": 943150,
                "contact:phone": "+48 516470960",
                "contact:email": "szansasiemianowice@gmail.pl",
                "ref:regon": "520584837",
                "operator": "Martyna Pawlak-Madej",
                "operator:type": "private",
                "healthcare": "counselling",
                "counselling_type": "education",
                "fixme": "w zale\u017cno\u015bci od przedmiotu dzia\u0142alno\u015bci (np. healthcare=counselling + counselling_type=education albo healthcare=psychotherapist)"
            }
        },
        {
            "id": 86263,
            "type": "Feature",
            "geometry": {
                "type": "Point",
                "coordinates": [
                    19.00996,
                    50.32412
                ]
            },
            "properties": {
                "ref:rspo": 86263,
                "official_name": "Przedszkole Nr 16 w Siemianowicach \u015aL\u0105skich",
                "name": "Przedszkole Nr 16 w Siemianowicach \u015aL\u0105skich",
                "addr:country": "PL",
                "addr:postcode": "41-103",
                "addr:city": "Siemianowice \u015al\u0105skie",
                "addr:street": "Stawowa",
                "addr:housenumber": "22",
                "addr:teryt:simc": 21101,
                "addr:teryt:sym_ul": 943150,
                "contact:phone": "+48 322283994",
                "contact:email": "przedszkole16@siemianowice.pl",
                "contact:website": "http:\/\/p16siemianowice.edupage.org",
                "ref:regon": "271509044",
                "ref:vatin": "PL6431433600",
                "operator": "Gmina Siemianowice \u015al\u0105skie",
                "operator:type": "government",
                "amenity": "kindergarten"
            }
        },
        {
            "id": 86426,
            "type": "Feature",
            "geometry": {
                "type": "Point",
                "coordinates": [
                    19.00482,
                    50.32586
                ]
            },
            "properties": {
                "isced:level": "1;2",
                "ref:rspo": 86426,
                "official_name": "Szko\u0142a Podstawowa Nr 13 im. J\u00f3zefa Skrzeka w Siemianowicach \u015aL\u0105skich",
                "name": "Szko\u0142a Podstawowa Nr 13",
                "addr:country": "PL",
                "addr:postcode": "41-103",
                "addr:city": "Siemianowice \u015al\u0105skie",
                "addr:street": "Norberta Barlickiego",
                "addr:housenumber": "2",
                "addr:teryt:simc": 763,
                "addr:teryt:sym_ul": 943150,
                "contact:phone": "+48 322282053",
                "contact:email": "sp13@mmj.pl",
                "contact:website": "http:\/\/sp13.mmj.pl",
                "ref:regon": "000726524",
                "ref:vatin": "PL6431433385",
                "operator": "Gmina Siemianowice \u015al\u0105skie",
                "operator:type": "government",
                "amenity": "school"
            }
        },
        {
            "id": 269402,
            "type": "Feature",
            "geometry": {
                "type": "Point",
                "coordinates": [
                    19.03442,
                    50.32624
                ]
            },
            "properties": {
                "ref:rspo": 269402,
                "official_name": "Niepubliczne Przedszkole Logopedyczne \"Logu\u015b\" Z Oddzia\u0142ami Integracyjnymi",
                "name": "Niepubliczne Przedszkole Logopedyczne \"Logu\u015b\" Z Oddzia\u0142ami Integracyjnymi",
                "addr:country": "PL",
                "addr:postcode": "41-103",
                "addr:city": "Siemianowice \u015al\u0105skie",
                "addr:street": "Zachodnia",
                "addr:housenumber": "1",
                "addr:teryt:simc": 25305,
                "addr:teryt:sym_ul": 943150,
                "contact:email": "karolina.kaarlik@gmail.com",
                "ref:regon": "381472063",
                "operator": "Karolina Karlik",
                "operator:type": "private",
                "amenity": "kindergarten"
            }
        },
        {
            "id": 120471,
            "type": "Feature",
            "geometry": {
                "type": "Point",
                "coordinates": [
                    19.0039087,
                    50.3269336
                ]
            },
            "properties": {
                "ref:rspo": 120471,
                "official_name": "Niepubliczne Weso\u0142e Przedszkole",
                "name": "Niepubliczne Weso\u0142e Przedszkole",
                "addr:country": "PL",
                "addr:postcode": "41-103",
                "addr:city": "Siemianowice \u015al\u0105skie",
                "addr:street": "Norberta Barlickiego",
                "addr:housenumber": "3",
                "addr:teryt:simc": 763,
                "addr:teryt:sym_ul": 943150,
                "contact:phone": "+48 513425154",
                "contact:email": "sekretariat@wesole-przedszkole.com.pl",
                "contact:website": "http:\/\/www.wesole-przedszkole.com.pl",
                "ref:regon": "243387887",
                "ref:vatin": "PL6431763639",
                "operator": "Maria Bilewicz",
                "operator:type": "private",
                "amenity": "kindergarten"
            }
        },
        {
            "id": 87415,
            "type": "Feature",
            "geometry": {
                "type": "Point",
                "coordinates": [
                    19.0433,
                    50.32793
                ]
            },
            "properties": {
                "isced:level": "1;2",
                "ref:rspo": 87415,
                "official_name": "Szko\u0142a Podstawowa Nr 16 im. Boles\u0142awa Prusa w Siemianowicach \u015aL\u0105skich",
                "name": "Szko\u0142a Podstawowa Nr 16",
                "addr:country": "PL",
                "addr:postcode": "41-103",
                "addr:city": "Siemianowice \u015al\u0105skie",
                "addr:street": "Karola Szymanowskiego",
                "addr:housenumber": "11",
                "addr:teryt:simc": 22238,
                "addr:teryt:sym_ul": 943150,
                "contact:phone": "+48 322201480",
                "contact:email": "sp16@sp16.siemianowice.pl",
                "contact:website": "http:\/\/www.sp16.siemianowice.pl",
                "ref:regon": "271503604",
                "ref:vatin": "PL6431433391",
                "operator": "Gmina Siemianowice \u015al\u0105skie",
                "operator:type": "government",
                "amenity": "school"
            }
        },
        {
            "id": 89425,
            "type": "Feature",
            "geometry": {
                "type": "Point",
                "coordinates": [
                    19.02696,
                    50.32881
                ]
            },
            "properties": {
                "isced:level": "1;2",
                "ref:rspo": 89425,
                "official_name": "Prywatna Szko\u0142a Podstawowa \"Arkona\" w Siemianowicach \u015aL\u0105skich",
                "name": "Prywatna Szko\u0142a Podstawowa \"Arkona\" w Siemianowicach \u015aL\u0105skich",
                "addr:country": "PL",
                "addr:postcode": "41-103",
                "addr:city": "Siemianowice \u015al\u0105skie",
                "addr:street": "Stefana Okrzei",
                "addr:housenumber": "2",
                "addr:teryt:simc": 14914,
                "addr:teryt:sym_ul": 943150,
                "contact:phone": "+48 730474747",
                "contact:email": "arkona.sp@interia.pl",
                "contact:website": "http:\/\/www.arkona.edu.pl",
                "ref:regon": "243103915",
                "operator": "Aleksander Chlebek",
                "operator:type": "private",
                "amenity": "school"
            }
        },
        {
            "id": 126111,
            "type": "Feature",
            "geometry": {
                "type": "Point",
                "coordinates": [
                    19.04277,
                    50.32947
                ]
            },
            "properties": {
                "ref:rspo": 126111,
                "official_name": "Niepubliczny Katolicki Klub Dzieci\u0119cy I Punkt Przedszkolny \"Anio\u0142\u00f3w Str\u00f3\u017c\u00f3w\"",
                "name": "Niepubliczny Katolicki Klub Dzieci\u0119cy I Punkt Przedszkolny \"Anio\u0142\u00f3w Str\u00f3\u017c\u00f3w\"",
                "addr:country": "PL",
                "addr:postcode": "41-103",
                "addr:city": "Siemianowice \u015al\u0105skie",
                "addr:street": "Ba\u0144gowska",
                "addr:housenumber": "25",
                "addr:teryt:simc": 698,
                "addr:teryt:sym_ul": 943150,
                "contact:phone": "+48 323088890",
                "contact:email": "info@przedszkoleaniolow.pl",
                "contact:website": "http:\/\/www.przedszkoleaniolow.pl",
                "ref:regon": "360149460",
                "operator": "Zofia Szyd\u0142owska",
                "operator:type": "private",
                "amenity": "kindergarten"
            }
        }
    ]
}