{
    "type": "FeatureCollection",
    "features": [
        {
            "id": 86747,
            "type": "Feature",
            "geometry": {
                "type": "Point",
                "coordinates": [
                    20.5220991,
                    53.0776459
                ]
            },
            "properties": {
                "isced:level": "1;2",
                "ref:rspo": 86747,
                "official_name": "Szko\u0142a Podstawowa Im Wojciecha Piechowskiego w Nosarzewie Borowym",
                "name": "Szko\u0142a Podstawowa Im Wojciecha Piechowskiego w Nosarzewie Borowym",
                "addr:postcode": "06-516",
                "addr:place": "Nosarzewo Borowe",
                "addr:housenumber": "38a",
                "addr:teryt:simc": 128131,
                "phone": "+48 236554103",
                "email": "spnosarzewo@o2.pl",
                "ref:regon": "001156951",
                "ref:vatin": "PL5691639605",
                "operator": "Gmina Szyd\u0142owo",
                "operator:type": "government",
                "amenity": "school"
            }
        },
        {
            "id": 80377,
            "type": "Feature",
            "geometry": {
                "type": "Point",
                "coordinates": [
                    20.4534999,
                    53.07968
                ]
            },
            "properties": {
                "isced:level": "1;2",
                "ref:rspo": 80377,
                "official_name": "Szko\u0142a Podstawowa Im 49Pp w Szyd\u0142owie",
                "name": "Szko\u0142a Podstawowa Im 49Pp w Szyd\u0142owie",
                "addr:postcode": "06-516",
                "addr:city": "Szyd\u0142owo",
                "addr:street": "Szkolna",
                "addr:housenumber": "2",
                "addr:teryt:simc": 128243,
                "addr:teryt:sym_ul": 21970,
                "phone": "+48 236554067",
                "email": "sp.szydlowo@gmail.com",
                "website": "https:\/\/spszydlowo.edupage.org\/",
                "ref:regon": "000820625",
                "ref:vatin": "PL5691639574",
                "operator": "Gmina Szyd\u0142owo",
                "operator:type": "government",
                "amenity": "school"
            }
        },
        {
            "id": 86749,
            "type": "Feature",
            "geometry": {
                "type": "Point",
                "coordinates": [
                    20.4946249,
                    53.1125259
                ]
            },
            "properties": {
                "isced:level": "1;2",
                "ref:rspo": 86749,
                "official_name": "Szko\u0142a Podstawowa w D\u0119bsku",
                "name": "Szko\u0142a Podstawowa w D\u0119bsku",
                "addr:postcode": "06-516",
                "addr:place": "D\u0119bsk",
                "addr:housenumber": "104",
                "addr:teryt:simc": 128013,
                "phone": "+48 236554304",
                "email": "spdebsk@tlen.pl",
                "website": "http:\/\/www.spdebsk.edupage.org",
                "ref:regon": "001157146",
                "ref:vatin": "PL5691639597",
                "operator": "Gmina Szyd\u0142owo",
                "operator:type": "government",
                "amenity": "school"
            }
        }
    ]
}