{
    "type": "FeatureCollection",
    "features": [
        {
            "id": 14957,
            "type": "Feature",
            "geometry": {
                "type": "Point",
                "coordinates": [
                    20.39284,
                    53.1064999
                ]
            },
            "properties": {
                "ref:rspo": 14957,
                "official_name": "Zesp\u00f3\u0142 Plac\u00f3wek O\u015bwiatowych nr 1 w M\u0142awie",
                "name": "Zesp\u00f3\u0142 Plac\u00f3wek O\u015bwiatowych nr 1 w M\u0142awie",
                "addr:postcode": "06-500",
                "addr:city": "M\u0142awa",
                "addr:street": "Warszawska",
                "addr:housenumber": "52",
                "addr:city:simc": 930696,
                "addr:street:sym_ul": 23682,
                "phone": "+48 236543723",
                "email": "mlawasp1@poczta.onet.pl",
                "ref:regon": "140203157",
                "ref:vatin": "PL5691771150",
                "operator": "Miasto M\u0142awa",
                "operator:type": "government",
                "landuse": "education",
                "fixme": "amenity=school, amenity=college albo landuse=education w zale\u017cno\u015bci od tego, jakie plac\u00f3wki wchodz\u0105 w sk\u0142ad zespo\u0142u. Sprawd\u017a, kiedy stosowa\u0107 amenity=* a kiedy landuse=education.",
                "note": "Children RSPO: 18090;18137"
            }
        },
        {
            "id": 17858,
            "type": "Feature",
            "geometry": {
                "type": "Point",
                "coordinates": [
                    20.39284,
                    53.1064699
                ]
            },
            "properties": {
                "isced:level": "3",
                "ref:rspo": 17858,
                "official_name": "Liceum Og\u00f3lnokszta\u0142c\u0105ce Akademickiego Centrum Kszta\u0142cenia Przy Puz im. Ignacego Mo\u015bcickiego",
                "name": "Liceum Og\u00f3lnokszta\u0142c\u0105ce Akademickiego Centrum Kszta\u0142cenia Przy Puz",
                "addr:postcode": "06-500",
                "addr:city": "M\u0142awa",
                "addr:street": "Warszawska",
                "addr:housenumber": "52",
                "addr:city:simc": 930696,
                "addr:street:sym_ul": 23682,
                "phone": "+48 236549834",
                "email": "sekretariat@ack.puzim.edu.pl",
                "website": "http:\/\/ack.puzim.edu.pl",
                "ref:regon": "146313540",
                "operator": "Pa\u0144stwowa Uczelnia Zawodowa Im. Ignacego Mo\u015bcickiego W Ciechanowie",
                "operator:type": "private",
                "amenity": "school"
            }
        },
        {
            "id": 17861,
            "type": "Feature",
            "geometry": {
                "type": "Point",
                "coordinates": [
                    20.39284,
                    53.106439900000005
                ]
            },
            "properties": {
                "isced:level": "4",
                "ref:rspo": 17861,
                "official_name": "Szko\u0142a Policealna Zawodowa Akademickiego Centrum Kszta\u0142cenia Przy Puz im. Ignacego Mo\u015bcickiego",
                "name": "Szko\u0142a Policealna Zawodowa Akademickiego Centrum Kszta\u0142cenia Przy Puz",
                "addr:postcode": "06-500",
                "addr:city": "M\u0142awa",
                "addr:street": "Warszawska",
                "addr:housenumber": "52",
                "addr:city:simc": 930696,
                "addr:street:sym_ul": 23682,
                "phone": "+48 236549834",
                "email": "sekretariat@ack.puzim.edu.pl",
                "website": "http:\/\/ack.puzim.edu.pl",
                "ref:regon": "146313600",
                "operator": "Pa\u0144stwowa Uczelnia Zawodowa Im. Ignacego Mo\u015bcickiego W Ciechanowie",
                "operator:type": "private",
                "amenity": "college"
            }
        },
        {
            "id": 91893,
            "type": "Feature",
            "geometry": {
                "type": "Point",
                "coordinates": [
                    20.39284,
                    53.1064099
                ]
            },
            "properties": {
                "isced:level": "4",
                "ref:rspo": 91893,
                "official_name": "Szko\u0142a Policealna Medyczna Akademickiego Centrum Kszta\u0142cenia Przy Puz im. Ignacego Mo\u015bcickiego",
                "name": "Szko\u0142a Policealna Medyczna Akademickiego Centrum Kszta\u0142cenia Przy Puz",
                "addr:postcode": "06-500",
                "addr:city": "M\u0142awa",
                "addr:street": "Warszawska",
                "addr:housenumber": "52",
                "addr:city:simc": 930696,
                "addr:street:sym_ul": 23682,
                "phone": "+48 236549834",
                "email": "sekretariat@ack.puzim.edu.pl",
                "website": "http:\/\/ack.puzim.edu.pl",
                "ref:regon": "146313875",
                "operator": "Pa\u0144stwowa Uczelnia Zawodowa Im. Ignacego Mo\u015bcickiego W Ciechanowie",
                "operator:type": "private",
                "amenity": "college"
            }
        },
        {
            "id": 118862,
            "type": "Feature",
            "geometry": {
                "type": "Point",
                "coordinates": [
                    20.39284,
                    53.1063799
                ]
            },
            "properties": {
                "ref:rspo": 118862,
                "official_name": "Niepubliczne Przedszkole \"Ma\u0142y \u017baczek\" Akademickiego Centrum Kszta\u0142cenia Przy Puz im. Ignacego Mo\u015bcickiego",
                "name": "Niepubliczne Przedszkole \"Ma\u0142y \u017baczek\" Akademickiego Centrum Kszta\u0142cenia Przy Puz",
                "addr:postcode": "06-500",
                "addr:city": "M\u0142awa",
                "addr:street": "Warszawska",
                "addr:housenumber": "52",
                "addr:city:simc": 930696,
                "addr:street:sym_ul": 23682,
                "phone": "+48 236549834",
                "email": "sekretariat@ack.puzim.edu.pl",
                "ref:regon": "146824564",
                "operator": "Pa\u0144stwowa Uczelnia Zawodowa Im. Ignacego Mo\u015bcickiego W Ciechanowie",
                "operator:type": "private",
                "amenity": "kindergarten"
            }
        },
        {
            "id": 265749,
            "type": "Feature",
            "geometry": {
                "type": "Point",
                "coordinates": [
                    20.39284,
                    53.106349900000005
                ]
            },
            "properties": {
                "isced:level": "1;2",
                "ref:rspo": 265749,
                "official_name": "Szko\u0142a Podstawowa Akademickiego Centrum Kszta\u0142cenia Przy Puz im. Ignacego Mo\u015bcickiego",
                "name": "Szko\u0142a Podstawowa Akademickiego Centrum Kszta\u0142cenia Przy Puz",
                "addr:postcode": "06-500",
                "addr:city": "M\u0142awa",
                "addr:street": "Warszawska",
                "addr:housenumber": "52",
                "addr:city:simc": 930696,
                "addr:street:sym_ul": 23682,
                "phone": "+48 236549834",
                "email": "sekretariat@ack.puzim.edu.pl",
                "website": "https:\/\/ack.puzim.edu.pl\/",
                "ref:regon": "368880674",
                "operator": "Pa\u0144stwowa Uczelnia Zawodowa Im. Ignacego Mo\u015bcickiego W Ciechanowie",
                "operator:type": "private",
                "amenity": "school"
            }
        },
        {
            "id": 18090,
            "type": "Feature",
            "geometry": {
                "type": "Point",
                "coordinates": [
                    20.39284,
                    53.1063199
                ]
            },
            "properties": {
                "isced:level": "1;2",
                "ref:rspo": 18090,
                "official_name": "Szko\u0142a Podstawowa nr 1 im. Hugona Ko\u0142\u0142\u0105taja w M\u0142awie",
                "name": "Szko\u0142a Podstawowa nr 1",
                "addr:postcode": "06-500",
                "addr:city": "M\u0142awa",
                "addr:street": "Warszawska",
                "addr:housenumber": "52",
                "addr:city:simc": 930696,
                "addr:street:sym_ul": 23682,
                "phone": "+48 236543723",
                "email": "mlawasp1@poczta.onet.pl",
                "website": "http:\/\/www.zpo1.mlawa.pl",
                "ref:regon": "001137592",
                "ref:vatin": "PL5691771150",
                "operator": "Miasto M\u0142awa",
                "operator:type": "government",
                "amenity": "school",
                "note": "Parent RSPO: 14957"
            }
        },
        {
            "id": 18137,
            "type": "Feature",
            "geometry": {
                "type": "Point",
                "coordinates": [
                    20.39284,
                    53.1062899
                ]
            },
            "properties": {
                "ref:rspo": 18137,
                "official_name": "Miejskie Przedszkole Samorz\u0105dowe nr 1 im. Marii Konopnickiej w M\u0142awie",
                "name": "Miejskie Przedszkole Samorz\u0105dowe nr 1",
                "addr:postcode": "06-500",
                "addr:city": "M\u0142awa",
                "addr:street": "Warszawska",
                "addr:housenumber": "52",
                "addr:city:simc": 930696,
                "addr:street:sym_ul": 23682,
                "phone": "+48 236543632",
                "ref:regon": "130005235",
                "ref:vatin": "PL5691771150",
                "operator": "Miasto M\u0142awa",
                "operator:type": "government",
                "amenity": "kindergarten",
                "note": "Parent RSPO: 14957"
            }
        },
        {
            "id": 16054,
            "type": "Feature",
            "geometry": {
                "type": "Point",
                "coordinates": [
                    20.38581,
                    53.10736
                ]
            },
            "properties": {
                "ref:rspo": 16054,
                "official_name": "Zesp\u00f3\u0142 Szk\u00f3\u0142 Nr4 im. Obro\u0144c\u00f3w M\u0142awy z Wrze\u015bnia 1939R w M\u0142awie",
                "name": "Zesp\u00f3\u0142 Szk\u00f3\u0142 Nr4",
                "addr:postcode": "06-500",
                "addr:city": "M\u0142awa",
                "addr:street": "Warszawska",
                "addr:housenumber": "44 a",
                "addr:city:simc": 930696,
                "addr:street:sym_ul": 23682,
                "phone": "+48 236543727",
                "email": "zs4_mlawa@wp.pl",
                "website": "http:\/\/zs4mlawa.edupage.org",
                "ref:regon": "000333233",
                "ref:vatin": "PL5691550182",
                "operator": "Powiat M\u0142awski",
                "operator:type": "government",
                "landuse": "education",
                "fixme": "amenity=school, amenity=college albo landuse=education w zale\u017cno\u015bci od tego, jakie plac\u00f3wki wchodz\u0105 w sk\u0142ad zespo\u0142u. Sprawd\u017a, kiedy stosowa\u0107 amenity=* a kiedy landuse=education.",
                "note": "Children RSPO: 28101;31368"
            }
        },
        {
            "id": 28101,
            "type": "Feature",
            "geometry": {
                "type": "Point",
                "coordinates": [
                    20.38581,
                    53.10733
                ]
            },
            "properties": {
                "isced:level": "3",
                "ref:rspo": 28101,
                "official_name": "Ii Liceum Og\u00f3lnokszta\u0142c\u0105ce w M\u0142awie",
                "name": "Ii Liceum Og\u00f3lnokszta\u0142c\u0105ce w M\u0142awie",
                "addr:postcode": "06-500",
                "addr:city": "M\u0142awa",
                "addr:street": "Warszawska",
                "addr:housenumber": "44a",
                "addr:city:simc": 930696,
                "addr:street:sym_ul": 23682,
                "phone": "+48 236543727",
                "email": "zs4_mlawa@wp.pl",
                "website": "http:\/\/zs4mlawa.edupage.org",
                "ref:regon": "130949812",
                "operator": "Powiat M\u0142awski",
                "operator:type": "government",
                "amenity": "school",
                "note": "Parent RSPO: 16054"
            }
        },
        {
            "id": 31368,
            "type": "Feature",
            "geometry": {
                "type": "Point",
                "coordinates": [
                    20.38581,
                    53.1073
                ]
            },
            "properties": {
                "isced:level": "3",
                "ref:rspo": 31368,
                "official_name": "Technikum Nr4 w M\u0142awie",
                "name": "Technikum Nr4 w M\u0142awie",
                "addr:postcode": "06-500",
                "addr:city": "M\u0142awa",
                "addr:street": "Warszawska",
                "addr:housenumber": "44a",
                "addr:city:simc": 930696,
                "addr:street:sym_ul": 23682,
                "phone": "+48 236543727",
                "email": "zs4_mlawa@wp.pl",
                "website": "http:\/\/zs4mlawa.edupage.org",
                "ref:regon": "140609008",
                "operator": "Powiat M\u0142awski",
                "operator:type": "government",
                "amenity": "school",
                "note": "Parent RSPO: 16054"
            }
        },
        {
            "id": 18420,
            "type": "Feature",
            "geometry": {
                "type": "Point",
                "coordinates": [
                    20.37087,
                    53.10762
                ]
            },
            "properties": {
                "ref:rspo": 18420,
                "official_name": "Miejskie Przedszkole Samorz\u0105dowe nr 3 im. Jana Brzechwy w M\u0142awie",
                "name": "Miejskie Przedszkole Samorz\u0105dowe nr 3",
                "addr:postcode": "06-500",
                "addr:city": "M\u0142awa",
                "addr:street": "Ho\u017ca",
                "addr:housenumber": "6",
                "addr:city:simc": 930696,
                "addr:street:sym_ul": 6756,
                "phone": "+48 236543633",
                "ref:regon": "130005258",
                "ref:vatin": "PL5691874134",
                "operator": "Miasto M\u0142awa",
                "operator:type": "government",
                "amenity": "kindergarten",
                "note": "Parent RSPO: 4051"
            }
        },
        {
            "id": 262917,
            "type": "Feature",
            "geometry": {
                "type": "Point",
                "coordinates": [
                    20.37785,
                    53.1101
                ]
            },
            "properties": {
                "isced:level": "1;2",
                "ref:rspo": 262917,
                "official_name": "Szko\u0142a Podstawowa nr 2 im. Miko\u0142aja Kopernika w M\u0142awie",
                "name": "Szko\u0142a Podstawowa nr 2",
                "addr:postcode": "06-500",
                "addr:city": "M\u0142awa",
                "addr:street": "Sportowa",
                "addr:housenumber": "1",
                "addr:city:simc": 930696,
                "addr:street:sym_ul": 20683,
                "phone": "+48 236543724",
                "email": "sekretariat@sp2.mlawa.pl",
                "website": "http:\/\/www.sp2.mlawa.pl",
                "ref:regon": "368075375",
                "operator": "Miasto M\u0142awa",
                "operator:type": "government",
                "amenity": "school"
            }
        },
        {
            "id": 14316,
            "type": "Feature",
            "geometry": {
                "type": "Point",
                "coordinates": [
                    20.37336,
                    53.11071
                ]
            },
            "properties": {
                "ref:rspo": 14316,
                "official_name": "Pa\u0144stwowa Szko\u0142a Muzyczna I I II St. im. Andrzeja Krzanowskiego w M\u0142awie",
                "name": "Pa\u0144stwowa Szko\u0142a Muzyczna I I II St.",
                "addr:postcode": "06-500",
                "addr:city": "M\u0142awa",
                "addr:street": "Henryka Sienkiewicza",
                "addr:housenumber": "24",
                "addr:city:simc": 930696,
                "addr:street:sym_ul": 19834,
                "phone": "+48 236543005",
                "email": "mlawapsm@poczta.onet.pl",
                "website": "http:\/\/psm.mlawa.pl",
                "ref:regon": "000692860",
                "operator": "Ministerstwo Kultury I Dziedzictwa Narodowego",
                "operator:type": "public",
                "landuse": "education",
                "fixme": "amenity=school, amenity=college albo landuse=education w zale\u017cno\u015bci od tego, jakie plac\u00f3wki wchodz\u0105 w sk\u0142ad zespo\u0142u. Sprawd\u017a, kiedy stosowa\u0107 amenity=* a kiedy landuse=education.",
                "note": "Children RSPO: 103574;103575"
            }
        },
        {
            "id": 103574,
            "type": "Feature",
            "geometry": {
                "type": "Point",
                "coordinates": [
                    20.37336,
                    53.110679999999995
                ]
            },
            "properties": {
                "ref:rspo": 103574,
                "official_name": "Pa\u0144stwowa Szko\u0142a Muzyczna I St. w M\u0142awie",
                "name": "Pa\u0144stwowa Szko\u0142a Muzyczna I St. w M\u0142awie",
                "addr:postcode": "06-500",
                "addr:city": "M\u0142awa",
                "addr:street": "Henryka Sienkiewicza",
                "addr:housenumber": "24",
                "addr:city:simc": 930696,
                "addr:street:sym_ul": 19834,
                "phone": "+48 236543005",
                "ref:regon": "146461305",
                "operator": "Ministerstwo Kultury I Dziedzictwa Narodowego",
                "operator:type": "public",
                "amenity": "music_school",
                "note": "Parent RSPO: 14316"
            }
        },
        {
            "id": 103575,
            "type": "Feature",
            "geometry": {
                "type": "Point",
                "coordinates": [
                    20.37336,
                    53.11065
                ]
            },
            "properties": {
                "ref:rspo": 103575,
                "official_name": "Pa\u0144stwowa Szko\u0142a Muzyczna II St. w M\u0142awie",
                "name": "Pa\u0144stwowa Szko\u0142a Muzyczna II St. w M\u0142awie",
                "addr:postcode": "06-500",
                "addr:city": "M\u0142awa",
                "addr:street": "Henryka Sienkiewicza",
                "addr:housenumber": "24",
                "addr:city:simc": 930696,
                "addr:street:sym_ul": 19834,
                "phone": "+48 236543005",
                "ref:regon": "146461328",
                "operator": "Ministerstwo Kultury I Dziedzictwa Narodowego",
                "operator:type": "public",
                "amenity": "music_school",
                "note": "Parent RSPO: 14316"
            }
        },
        {
            "id": 106267,
            "type": "Feature",
            "geometry": {
                "type": "Point",
                "coordinates": [
                    20.36998,
                    53.1113799
                ]
            },
            "properties": {
                "isced:level": "3",
                "ref:rspo": 106267,
                "official_name": "Zasadnicza Szko\u0142a Zawodowa Awa Mebel",
                "name": "Zasadnicza Szko\u0142a Zawodowa Awa Mebel",
                "addr:postcode": "06-500",
                "addr:city": "M\u0142awa",
                "addr:street": "os. Ksi\u0105\u017c\u0105t Mazowieckich",
                "addr:housenumber": "10\/34",
                "addr:city:simc": 930696,
                "addr:street:sym_ul": 10213,
                "phone": "+48 896255828",
                "ref:regon": "146470623",
                "operator": "Dane Do Uzupe\u0142nienia",
                "operator:type": "private",
                "amenity": "school"
            }
        },
        {
            "id": 15476,
            "type": "Feature",
            "geometry": {
                "type": "Point",
                "coordinates": [
                    20.37809,
                    53.11144
                ]
            },
            "properties": {
                "isced:level": "3",
                "ref:rspo": 15476,
                "official_name": "I Liceum Og\u00f3lnokszta\u0142c\u0105ce im.stanis\u0142awa Wyspia\u0144skiego w M\u0142awie",
                "name": "I Liceum Og\u00f3lnokszta\u0142c\u0105ce im.stanis\u0142awa Wyspia\u0144skiego w M\u0142awie",
                "addr:postcode": "06-500",
                "addr:city": "M\u0142awa",
                "addr:street": "Stanis\u0142awa Wyspia\u0144skiego",
                "addr:housenumber": "1",
                "addr:city:simc": 930696,
                "addr:street:sym_ul": 25084,
                "phone": "+48 236543715",
                "email": "lo1mlawa@poczta.fm",
                "website": "http:\/\/www.lo1mlawa.edupage.org",
                "ref:regon": "000255970",
                "ref:vatin": "PL5691476161",
                "operator": "Powiat M\u0142awski",
                "operator:type": "government",
                "amenity": "school"
            }
        },
        {
            "id": 262954,
            "type": "Feature",
            "geometry": {
                "type": "Point",
                "coordinates": [
                    20.37684,
                    53.11156
                ]
            },
            "properties": {
                "isced:level": "1;2",
                "ref:rspo": 262954,
                "official_name": "Spo\u0142eczna Szko\u0142a Podstawowa \"Wyspianum\" w M\u0142awie",
                "name": "Spo\u0142eczna Szko\u0142a Podstawowa \"Wyspianum\" w M\u0142awie",
                "addr:postcode": "06-500",
                "addr:city": "M\u0142awa",
                "addr:street": "Stanis\u0142awa Wyspia\u0144skiego",
                "addr:housenumber": "3",
                "addr:city:simc": 930696,
                "addr:street:sym_ul": 25084,
                "phone": "+48 236552768",
                "email": "wyspianum@o2.pl",
                "website": "http:\/\/wyspianum.edupage.org",
                "ref:regon": "368078474",
                "operator": "Stowarzyszenie Absolwent\u00f3w I Wychowank\u00f3w Liceum I Gimnazjum Im.stanis\u0142awa Wyspia\u0144skiego W M\u0142awie - \"Wyspianum\"",
                "operator:type": "cooperative",
                "amenity": "school"
            }
        },
        {
            "id": 16059,
            "type": "Feature",
            "geometry": {
                "type": "Point",
                "coordinates": [
                    20.37522,
                    53.11166
                ]
            },
            "properties": {
                "ref:rspo": 16059,
                "official_name": "Poradnia Psychologiczno-Pedagogiczna w M\u0142awie",
                "name": "Poradnia Psychologiczno-Pedagogiczna w M\u0142awie",
                "addr:postcode": "06-500",
                "addr:city": "M\u0142awa",
                "addr:street": "Stanis\u0142awa Wyspia\u0144skiego",
                "addr:housenumber": "9",
                "addr:city:simc": 930696,
                "addr:street:sym_ul": 25084,
                "phone": "+48 236543329",
                "email": "ppp_mlawa@poczta.onet.pl",
                "website": "http:\/\/pppmlawa.pl",
                "ref:regon": "000947461",
                "ref:vatin": "PL5691464293",
                "operator": "Powiat M\u0142awski",
                "operator:type": "government",
                "healthcare": "counselling",
                "counselling_type": "education",
                "fixme": "w zale\u017cno\u015bci od przedmiotu dzia\u0142alno\u015bci (np. healthcare=counselling + counselling_type=education albo healthcare=psychotherapist)"
            }
        },
        {
            "id": 4051,
            "type": "Feature",
            "geometry": {
                "type": "Point",
                "coordinates": [
                    20.37147,
                    53.11231
                ]
            },
            "properties": {
                "ref:rspo": 4051,
                "official_name": "Zesp\u00f3\u0142 Plac\u00f3wek O\u015bwiatowych nr 3 w M\u0142awie",
                "name": "Zesp\u00f3\u0142 Plac\u00f3wek O\u015bwiatowych nr 3 w M\u0142awie",
                "addr:postcode": "06-500",
                "addr:city": "M\u0142awa",
                "addr:street": "Ordona",
                "addr:housenumber": "14",
                "addr:city:simc": 930696,
                "addr:street:sym_ul": 15124,
                "phone": "+48 236543876",
                "email": "sp7@zpo3.mlawa.pl",
                "website": "http:\/\/zpo3.mlawa.pl",
                "ref:regon": "146258544",
                "operator": "Miasto M\u0142awa",
                "operator:type": "government",
                "landuse": "education",
                "fixme": "amenity=school, amenity=college albo landuse=education w zale\u017cno\u015bci od tego, jakie plac\u00f3wki wchodz\u0105 w sk\u0142ad zespo\u0142u. Sprawd\u017a, kiedy stosowa\u0107 amenity=* a kiedy landuse=education.",
                "note": "Children RSPO: 17853;18397;18420"
            }
        },
        {
            "id": 18397,
            "type": "Feature",
            "geometry": {
                "type": "Point",
                "coordinates": [
                    20.37147,
                    53.11228
                ]
            },
            "properties": {
                "isced:level": "1;2",
                "ref:rspo": 18397,
                "official_name": "Szko\u0142a Podstawowa nr 7 im. Zuzanny Morawskiej w M\u0142awie",
                "name": "Szko\u0142a Podstawowa nr 7",
                "addr:postcode": "06-500",
                "addr:city": "M\u0142awa",
                "addr:street": "Ordona",
                "addr:housenumber": "14",
                "addr:city:simc": 930696,
                "addr:street:sym_ul": 15124,
                "phone": "+48 236543876",
                "email": "sp7@zpo3.mlawa.pl",
                "website": "http:\/\/zpo3.mlawa.pl",
                "ref:regon": "002717133",
                "ref:vatin": "PL5691874134",
                "operator": "Miasto M\u0142awa",
                "operator:type": "government",
                "amenity": "school",
                "note": "Parent RSPO: 4051"
            }
        },
        {
            "id": 41959,
            "type": "Feature",
            "geometry": {
                "type": "Point",
                "coordinates": [
                    20.37423,
                    53.11297
                ]
            },
            "properties": {
                "isced:level": "3",
                "ref:rspo": 41959,
                "official_name": "Liceum Og\u00f3lnokszta\u0142c\u0105ce \"\u017bak\" dla Doros\u0142ych w M\u0142awie",
                "name": "Liceum Og\u00f3lnokszta\u0142c\u0105ce \"\u017bak\" dla Doros\u0142ych w M\u0142awie",
                "addr:postcode": "06-500",
                "addr:city": "M\u0142awa",
                "addr:street": "Henryka Sienkiewicza",
                "addr:housenumber": "4",
                "addr:city:simc": 930696,
                "addr:street:sym_ul": 19834,
                "phone": "+48 236552641",
                "email": "mlawa@zak.edu.pl",
                "website": "http:\/\/zak.edu.pl",
                "ref:regon": "146368155",
                "operator": "Centrum Nauki I Biznesu \"\u017bak\" Sp\u00f3\u0142ka Z Ograniczon\u0105 Odpowiedzialno\u015bci\u0105",
                "operator:type": "private",
                "amenity": "school"
            }
        },
        {
            "id": 47668,
            "type": "Feature",
            "geometry": {
                "type": "Point",
                "coordinates": [
                    20.37423,
                    53.112939999999995
                ]
            },
            "properties": {
                "ref:rspo": 47668,
                "official_name": "O\u015brodek Szkoleniowy Centrum Nauki I Biznesu \"\u017bak\" w M\u0142awie",
                "name": "O\u015brodek Szkoleniowy Centrum Nauki I Biznesu \"\u017bak\" w M\u0142awie",
                "addr:postcode": "06-500",
                "addr:city": "M\u0142awa",
                "addr:street": "Henryka Sienkiewicza",
                "addr:housenumber": "4",
                "addr:city:simc": 930696,
                "addr:street:sym_ul": 19834,
                "phone": "+48 236552641",
                "email": "mlawa@zak.edu.pl",
                "website": "http:\/\/zak.edu.pl",
                "ref:regon": "146393928",
                "operator": "Centrum Nauki I Biznesu \"\u017bak\" Sp\u00f3\u0142ka Z Ograniczon\u0105 Odpowiedzialno\u015bci\u0105",
                "operator:type": "private",
                "fixme": "w zale\u017cno\u015bci od przedmiotu dzia\u0142alno\u015bci (np. amenity=training + training=*, amenity=dancing_school, amenity=language_school, amenity=music_school)"
            }
        },
        {
            "id": 48982,
            "type": "Feature",
            "geometry": {
                "type": "Point",
                "coordinates": [
                    20.37423,
                    53.11291
                ]
            },
            "properties": {
                "isced:level": "4",
                "ref:rspo": 48982,
                "official_name": "Szko\u0142a Policealna Kosmetyczna \"\u017bak\" w M\u0142awie",
                "name": "Szko\u0142a Policealna Kosmetyczna \"\u017bak\" w M\u0142awie",
                "addr:postcode": "06-500",
                "addr:city": "M\u0142awa",
                "addr:street": "Henryka Sienkiewicza",
                "addr:housenumber": "4",
                "addr:city:simc": 930696,
                "addr:street:sym_ul": 19834,
                "phone": "+48 236552641",
                "email": "mlawa@zak.edu.pl",
                "website": "http:\/\/zak.edu.pl",
                "ref:regon": "146368043",
                "operator": "Centrum Nauki I Biznesu \"\u017bak\" Sp\u00f3\u0142ka Z Ograniczon\u0105 Odpowiedzialno\u015bci\u0105",
                "operator:type": "private",
                "amenity": "college"
            }
        },
        {
            "id": 48987,
            "type": "Feature",
            "geometry": {
                "type": "Point",
                "coordinates": [
                    20.37423,
                    53.11288
                ]
            },
            "properties": {
                "isced:level": "4",
                "ref:rspo": 48987,
                "official_name": "Szko\u0142a Policealna Centrum Nauki I Biznesu \"\u017bak\" w M\u0142awie",
                "name": "Szko\u0142a Policealna Centrum Nauki I Biznesu \"\u017bak\" w M\u0142awie",
                "addr:postcode": "06-500",
                "addr:city": "M\u0142awa",
                "addr:street": "Henryka Sienkiewicza",
                "addr:housenumber": "4",
                "addr:city:simc": 930696,
                "addr:street:sym_ul": 19834,
                "phone": "+48 236552641",
                "email": "mlawa@zak.edu.pl",
                "website": "http:\/\/zak.edu.pl",
                "ref:regon": "146368020",
                "operator": "Centrum Nauki I Biznesu \"\u017bak\" Sp\u00f3\u0142ka Z Ograniczon\u0105 Odpowiedzialno\u015bci\u0105",
                "operator:type": "private",
                "amenity": "college"
            }
        },
        {
            "id": 126207,
            "type": "Feature",
            "geometry": {
                "type": "Point",
                "coordinates": [
                    20.37423,
                    53.112849999999995
                ]
            },
            "properties": {
                "isced:level": "4",
                "ref:rspo": 126207,
                "official_name": "Publiczna Szko\u0142a Policealna Bezpieczenstwa I Higieny Pracy \"\u017bak\" w M\u0142awie",
                "name": "Publiczna Szko\u0142a Policealna Bezpieczenstwa I Higieny Pracy \"\u017bak\" w M\u0142awie",
                "addr:postcode": "06-500",
                "addr:city": "M\u0142awa",
                "addr:street": "Henryka Sienkiewicza",
                "addr:housenumber": "4",
                "addr:city:simc": 930696,
                "addr:street:sym_ul": 19834,
                "phone": "+48 236552641",
                "email": "mlawa@zak.edu.pl",
                "website": "http:\/\/www.zak.edu.pl",
                "ref:regon": "360172357",
                "operator": "Centrum Nauki I Biznesu \"\u017bak\" Sp\u00f3\u0142ka Z Ograniczon\u0105 Odpowiedzialno\u015bci\u0105",
                "operator:type": "private",
                "amenity": "college"
            }
        },
        {
            "id": 126208,
            "type": "Feature",
            "geometry": {
                "type": "Point",
                "coordinates": [
                    20.37423,
                    53.11282
                ]
            },
            "properties": {
                "isced:level": "4",
                "ref:rspo": 126208,
                "official_name": "Publiczna Szko\u0142a Policealna Administracji \"\u017bak\" w M\u0142awie",
                "name": "Publiczna Szko\u0142a Policealna Administracji \"\u017bak\" w M\u0142awie",
                "addr:postcode": "06-500",
                "addr:city": "M\u0142awa",
                "addr:street": "Henryka Sienkiewicza",
                "addr:housenumber": "4",
                "addr:city:simc": 930696,
                "addr:street:sym_ul": 19834,
                "phone": "+48 236552641",
                "email": "mlawa@zak.edu.pl",
                "website": "http:\/\/www.zak.edu.pl",
                "ref:regon": "360172618",
                "operator": "Centrum Nauki I Biznesu \"\u017bak\" Sp\u00f3\u0142ka Z Ograniczon\u0105 Odpowiedzialno\u015bci\u0105",
                "operator:type": "private",
                "amenity": "college"
            }
        },
        {
            "id": 126737,
            "type": "Feature",
            "geometry": {
                "type": "Point",
                "coordinates": [
                    20.37423,
                    53.11279
                ]
            },
            "properties": {
                "isced:level": "4",
                "ref:rspo": 126737,
                "official_name": "Szko\u0142a Policealna Medyczna \"\u017bak\" w M\u0142awie",
                "name": "Szko\u0142a Policealna Medyczna \"\u017bak\" w M\u0142awie",
                "addr:postcode": "06-500",
                "addr:city": "M\u0142awa",
                "addr:street": "Henryka Sienkiewicza",
                "addr:housenumber": "4",
                "addr:city:simc": 930696,
                "addr:street:sym_ul": 19834,
                "phone": "+48 236552641",
                "email": "mlawa@zak.edu.pl",
                "website": "http:\/\/www.zak.edu.pl",
                "ref:regon": "360678513",
                "operator": "Centrum Nauki I Biznesu \"\u017bak\" Sp\u00f3\u0142ka Z Ograniczon\u0105 Odpowiedzialno\u015bci\u0105",
                "operator:type": "private",
                "amenity": "college"
            }
        },
        {
            "id": 269768,
            "type": "Feature",
            "geometry": {
                "type": "Point",
                "coordinates": [
                    20.37423,
                    53.112759999999994
                ]
            },
            "properties": {
                "isced:level": "4",
                "ref:rspo": 269768,
                "official_name": "Publiczna Szko\u0142a Policealna Opieki Medycznej \"\u017bak\" w M\u0142awie",
                "name": "Publiczna Szko\u0142a Policealna Opieki Medycznej \"\u017bak\" w M\u0142awie",
                "addr:postcode": "06-500",
                "addr:city": "M\u0142awa",
                "addr:street": "Henryka Sienkiewicza",
                "addr:housenumber": "4",
                "addr:city:simc": 930696,
                "addr:street:sym_ul": 19834,
                "phone": "+48 236552641",
                "email": "mlawa@zak.edu.pl",
                "ref:regon": "381767255",
                "operator": "Centrum Nauki I Biznesu \"\u017bak\" Sp\u00f3\u0142ka Z Ograniczon\u0105 Odpowiedzialno\u015bci\u0105",
                "operator:type": "private",
                "amenity": "college"
            }
        },
        {
            "id": 16061,
            "type": "Feature",
            "geometry": {
                "type": "Point",
                "coordinates": [
                    20.3772986,
                    53.1132648
                ]
            },
            "properties": {
                "ref:rspo": 16061,
                "official_name": "Powiatowy O\u015brodek Doskonalenia Nauczycieli",
                "name": "Powiatowy O\u015brodek Doskonalenia Nauczycieli",
                "addr:postcode": "06-500",
                "addr:city": "M\u0142awa",
                "addr:street": "W\u0142adys\u0142awa Stanis\u0142awa Reymonta",
                "addr:housenumber": "4",
                "addr:city:simc": 930696,
                "addr:street:sym_ul": 18652,
                "phone": "+48 236543247",
                "email": "odnmlawa@wp.pl",
                "website": "http:\/\/podnmlawa.pl",
                "ref:regon": "130867959",
                "ref:vatin": "PL5691697956",
                "operator": "Powiat M\u0142awski",
                "operator:type": "government",
                "amenity": "training"
            }
        },
        {
            "id": 104393,
            "type": "Feature",
            "geometry": {
                "type": "Point",
                "coordinates": [
                    20.37745,
                    53.11398
                ]
            },
            "properties": {
                "ref:rspo": 104393,
                "official_name": "Biblioteka Pedagogiczna w Ciechanowie Filia w M\u0142awie",
                "name": "Biblioteka Pedagogiczna w Ciechanowie Filia w M\u0142awie",
                "addr:postcode": "06-500",
                "addr:city": "M\u0142awa",
                "addr:street": "S\u0105dowa",
                "addr:housenumber": "3a",
                "addr:city:simc": 930696,
                "addr:street:sym_ul": 19581,
                "phone": "+48 236543282",
                "email": "wypozyczalnia@bpmlawa.edu.pl",
                "website": "http:\/\/www.bpmlawa.edu.pl",
                "ref:regon": "130944743",
                "ref:vatin": "PL5661888864",
                "operator": "Wojew\u00f3dztwo Mazowieckie",
                "operator:type": "government",
                "amenity": "library",
                "note": "Parent RSPO: 26343"
            }
        },
        {
            "id": 41954,
            "type": "Feature",
            "geometry": {
                "type": "Point",
                "coordinates": [
                    20.37123,
                    53.11443
                ]
            },
            "properties": {
                "isced:level": "3",
                "ref:rspo": 41954,
                "official_name": "Katolickie Liceum Og\u00f3lnokszta\u0142c\u0105ce",
                "name": "Katolickie Liceum Og\u00f3lnokszta\u0142c\u0105ce",
                "addr:postcode": "06-500",
                "addr:city": "M\u0142awa",
                "addr:street": "Tadeusza Ko\u015bciuszki",
                "addr:housenumber": "12",
                "addr:city:simc": 930696,
                "addr:street:sym_ul": 9582,
                "phone": "+48 236544050",
                "email": "klo@katolik-mlawa.com",
                "website": "http:\/\/klo.mlawa.pl",
                "ref:regon": "146367813",
                "operator": "\"Akademia Rozwoju Wiedzy I Umiej\u0119tno\u015bci\" Sp\u00f3\u0142ka Z Ograniczon\u0105 Odpowiedzialno\u015bci\u0105",
                "operator:type": "private",
                "amenity": "school"
            }
        },
        {
            "id": 20018,
            "type": "Feature",
            "geometry": {
                "type": "Point",
                "coordinates": [
                    20.36803,
                    53.11525
                ]
            },
            "properties": {
                "ref:rspo": 20018,
                "official_name": "Przedszkole Niepubliczne Bajkowy Dworek Jadwiga Arent I Irena Rutecka Sp\u00f3\u0142ka Cywilna",
                "name": "Przedszkole Niepubliczne Bajkowy Dworek Jadwiga Arent I Irena Rutecka Sp\u00f3\u0142ka Cywilna",
                "addr:postcode": "06-500",
                "addr:city": "M\u0142awa",
                "addr:street": "Tadeusza Ko\u015bciuszki",
                "addr:housenumber": "26",
                "addr:city:simc": 930696,
                "addr:street:sym_ul": 9582,
                "phone": "+48 236546475",
                "email": "e.kaczan@bajkowydworek.com",
                "website": "http:\/\/www.bajkowydworek.com",
                "ref:regon": "146324264",
                "ref:vatin": "PL5691834235",
                "operator": "Bajkowy Dworek Jadwiga Arent I Irena Rutecka Sp\u00f3\u0142ka Cywilna",
                "operator:type": "consortium",
                "amenity": "kindergarten"
            }
        },
        {
            "id": 20070,
            "type": "Feature",
            "geometry": {
                "type": "Point",
                "coordinates": [
                    20.37179,
                    53.11527
                ]
            },
            "properties": {
                "isced:level": "1;2",
                "ref:rspo": 20070,
                "official_name": "Katolicka Szko\u0142a Podstawowa im. Ks. Macieja Kazimierza Sarbiewskiego Si w M\u0142awie",
                "name": "Katolicka Szko\u0142a Podstawowa",
                "addr:postcode": "06-500",
                "addr:city": "M\u0142awa",
                "addr:street": "Zygmunta Krasi\u0144skiego",
                "addr:housenumber": "5",
                "addr:city:simc": 930696,
                "addr:street:sym_ul": 9848,
                "phone": "+48 236546574",
                "email": "ksp@katolik-mlawa.com",
                "website": "http:\/\/www.ksp.mlawa.pl",
                "ref:regon": "146324287",
                "ref:vatin": "PL5691698329",
                "operator": "\"Akademia Rozwoju Wiedzy I Umiej\u0119tno\u015bci\" Sp\u00f3\u0142ka Z Ograniczon\u0105 Odpowiedzialno\u015bci\u0105",
                "operator:type": "private",
                "amenity": "school"
            }
        },
        {
            "id": 16057,
            "type": "Feature",
            "geometry": {
                "type": "Point",
                "coordinates": [
                    20.376489639282,
                    53.115310668945
                ]
            },
            "properties": {
                "ref:rspo": 16057,
                "official_name": "Bursa Szkolna w M\u0142awie",
                "name": "Bursa Szkolna w M\u0142awie",
                "addr:postcode": "06-500",
                "addr:city": "M\u0142awa",
                "addr:street": "Joachima Lelewela",
                "addr:housenumber": "5",
                "addr:city:simc": 930696,
                "addr:street:sym_ul": 10793,
                "phone": "+48 236543012",
                "email": "bursaszkolna@wp.pl",
                "ref:regon": "130948244",
                "ref:vatin": "PL5691733669",
                "operator": "Powiat M\u0142awski",
                "operator:type": "government",
                "building": "dormitory"
            }
        },
        {
            "id": 17853,
            "type": "Feature",
            "geometry": {
                "type": "Point",
                "coordinates": [
                    20.37294,
                    53.1154
                ]
            },
            "properties": {
                "ref:rspo": 17853,
                "official_name": "Miejskie Przedszkole Samorz\u0105dowe nr 4 z Oddzia\u0142ami Integracyjnymi im. Ewy Szelburg-Zarembiny w M\u0142awie",
                "name": "Miejskie Przedszkole Samorz\u0105dowe nr 4 z Oddzia\u0142ami Integracyjnymi",
                "addr:postcode": "06-500",
                "addr:city": "M\u0142awa",
                "addr:street": "Zygmunta Krasi\u0144skiego",
                "addr:housenumber": "7",
                "addr:city:simc": 930696,
                "addr:street:sym_ul": 9848,
                "phone": "+48 236543675",
                "email": "sp7@zpo3.mlawa.pl",
                "website": "http:\/\/www.mps4mlawa.pl",
                "ref:regon": "130005264",
                "ref:vatin": "PL5691633034",
                "operator": "Miasto M\u0142awa",
                "operator:type": "government",
                "amenity": "kindergarten",
                "note": "Parent RSPO: 4051"
            }
        },
        {
            "id": 26955,
            "type": "Feature",
            "geometry": {
                "type": "Point",
                "coordinates": [
                    20.36976,
                    53.11574
                ]
            },
            "properties": {
                "ref:rspo": 26955,
                "official_name": "Specjalny O\u015brodek Szkolno-Wychowawczy im.janusza Korczaka w M\u0142awie",
                "name": "Specjalny O\u015brodek Szkolno-Wychowawczy im.janusza Korczaka w M\u0142awie",
                "addr:postcode": "06-500",
                "addr:city": "M\u0142awa",
                "addr:street": "Juliusza S\u0142owackiego",
                "addr:housenumber": "16",
                "addr:city:simc": 930696,
                "addr:street:sym_ul": 20291,
                "phone": "+48 236543411",
                "email": "osw_mlawa@op.pl",
                "website": "http:\/\/oswmlawa.pl",
                "ref:regon": "000189204",
                "ref:vatin": "PL5691460958",
                "operator": "Powiat M\u0142awski",
                "operator:type": "government",
                "amenity": "school",
                "note": "Children RSPO: 31360;31363;31366;31615"
            }
        },
        {
            "id": 31360,
            "type": "Feature",
            "geometry": {
                "type": "Point",
                "coordinates": [
                    20.36976,
                    53.11571
                ]
            },
            "properties": {
                "isced:level": "1;2",
                "ref:rspo": 31360,
                "official_name": "Szko\u0142a Podstawowa Specjalna w M\u0142awie",
                "name": "Szko\u0142a Podstawowa Specjalna w M\u0142awie",
                "addr:postcode": "06-500",
                "addr:city": "M\u0142awa",
                "addr:street": "Juliusza S\u0142owackiego",
                "addr:housenumber": "16",
                "addr:city:simc": 930696,
                "addr:street:sym_ul": 20291,
                "phone": "+48 236543411",
                "email": "osw_mlawa@op.pl",
                "website": "http:\/\/oswmlawa.pl",
                "ref:regon": "000947389",
                "operator": "Powiat M\u0142awski",
                "operator:type": "government",
                "amenity": "school",
                "note": "Parent RSPO: 26955"
            }
        },
        {
            "id": 31363,
            "type": "Feature",
            "geometry": {
                "type": "Point",
                "coordinates": [
                    20.36976,
                    53.115680000000005
                ]
            },
            "properties": {
                "ref:rspo": 31363,
                "official_name": "Przedszkole Specjalne w M\u0142awie",
                "name": "Przedszkole Specjalne w M\u0142awie",
                "addr:postcode": "06-500",
                "addr:city": "M\u0142awa",
                "addr:street": "Juliusza S\u0142owackiego",
                "addr:housenumber": "16",
                "addr:city:simc": 930696,
                "addr:street:sym_ul": 20291,
                "phone": "+48 236543411",
                "email": "osw_mlawa@op.pl",
                "website": "http:\/\/oswmlawa.pl\/",
                "ref:regon": "141554189",
                "operator": "Powiat M\u0142awski",
                "operator:type": "government",
                "amenity": "kindergarten",
                "note": "Parent RSPO: 26955"
            }
        },
        {
            "id": 31366,
            "type": "Feature",
            "geometry": {
                "type": "Point",
                "coordinates": [
                    20.36976,
                    53.11565
                ]
            },
            "properties": {
                "isced:level": "3",
                "ref:rspo": 31366,
                "official_name": "Bran\u017cowa Szko\u0142a I Stopnia Specjalna w M\u0142awie",
                "name": "Bran\u017cowa Szko\u0142a I Stopnia Specjalna w M\u0142awie",
                "addr:postcode": "06-500",
                "addr:city": "M\u0142awa",
                "addr:street": "Juliusza S\u0142owackiego",
                "addr:housenumber": "16",
                "addr:city:simc": 930696,
                "addr:street:sym_ul": 20291,
                "phone": "+48 236543411",
                "email": "osw_mlawa@op.pl",
                "website": "http:\/\/oswmlawa.pl",
                "ref:regon": "130921966",
                "operator": "Powiat M\u0142awski",
                "operator:type": "government",
                "amenity": "school",
                "note": "Parent RSPO: 26955"
            }
        },
        {
            "id": 31615,
            "type": "Feature",
            "geometry": {
                "type": "Point",
                "coordinates": [
                    20.36976,
                    53.11562
                ]
            },
            "properties": {
                "ref:rspo": 31615,
                "official_name": "Szko\u0142a Specjalna Przysposabiaj\u0105ca do Pracy w M\u0142awie",
                "name": "Szko\u0142a Specjalna Przysposabiaj\u0105ca do Pracy w M\u0142awie",
                "addr:postcode": "06-500",
                "addr:city": "M\u0142awa",
                "addr:street": "Juliusza S\u0142owackiego",
                "addr:housenumber": "16",
                "addr:city:simc": 930696,
                "addr:street:sym_ul": 20291,
                "phone": "+48 236543411",
                "email": "osw_mlawa@op.pl",
                "website": "http:\/\/oswmlawa.pl",
                "ref:regon": "140263640",
                "operator": "Powiat M\u0142awski",
                "operator:type": "government",
                "amenity": "school",
                "note": "Parent RSPO: 26955"
            }
        },
        {
            "id": 15475,
            "type": "Feature",
            "geometry": {
                "type": "Point",
                "coordinates": [
                    20.36825,
                    53.1160799
                ]
            },
            "properties": {
                "ref:rspo": 15475,
                "official_name": "Zesp\u00f3\u0142 Szk\u00f3\u0142 nr 2 w M\u0142awie",
                "name": "Zesp\u00f3\u0142 Szk\u00f3\u0142 nr 2 w M\u0142awie",
                "addr:postcode": "06-500",
                "addr:city": "M\u0142awa",
                "addr:street": "Zuzanny Morawskiej",
                "addr:housenumber": "29b",
                "addr:city:simc": 930696,
                "addr:street:sym_ul": 13276,
                "phone": "+48 236543733",
                "email": "sekretariatzs2mlawa@wp.pl",
                "website": "http:\/\/zs2mlawa.com",
                "ref:regon": "000188340",
                "ref:vatin": "PL5691425382",
                "operator": "Powiat M\u0142awski",
                "operator:type": "government",
                "landuse": "education",
                "fixme": "amenity=school, amenity=college albo landuse=education w zale\u017cno\u015bci od tego, jakie plac\u00f3wki wchodz\u0105 w sk\u0142ad zespo\u0142u. Sprawd\u017a, kiedy stosowa\u0107 amenity=* a kiedy landuse=education.",
                "note": "Children RSPO: 23147;23148;27076"
            }
        },
        {
            "id": 23147,
            "type": "Feature",
            "geometry": {
                "type": "Point",
                "coordinates": [
                    20.36825,
                    53.1160499
                ]
            },
            "properties": {
                "isced:level": "3",
                "ref:rspo": 23147,
                "official_name": "Bran\u017cowa Szko\u0142a I Stopnia Nr2 im.antoniny Mrozowskiej w M\u0142awie",
                "name": "Bran\u017cowa Szko\u0142a I Stopnia Nr2 im.antoniny Mrozowskiej w M\u0142awie",
                "addr:postcode": "06-500",
                "addr:city": "M\u0142awa",
                "addr:street": "Zuzanny Morawskiej",
                "addr:housenumber": "29b",
                "addr:city:simc": 930696,
                "addr:street:sym_ul": 13276,
                "phone": "+48 236543733",
                "email": "sekretariatzs2mlawa@wp.pl",
                "website": "http:\/\/zs2mlawa.szkolnastrona.pl",
                "ref:regon": "130950815",
                "operator": "Powiat M\u0142awski",
                "operator:type": "government",
                "amenity": "school",
                "note": "Parent RSPO: 15475"
            }
        },
        {
            "id": 23148,
            "type": "Feature",
            "geometry": {
                "type": "Point",
                "coordinates": [
                    20.36825,
                    53.116019900000005
                ]
            },
            "properties": {
                "isced:level": "3",
                "ref:rspo": 23148,
                "official_name": "Liceum Og\u00f3lnokszta\u0142c\u0105ce dla Doros\u0142ych w M\u0142awie",
                "name": "Liceum Og\u00f3lnokszta\u0142c\u0105ce dla Doros\u0142ych w M\u0142awie",
                "addr:postcode": "06-500",
                "addr:city": "M\u0142awa",
                "addr:street": "Zuzanny Morawskiej",
                "addr:housenumber": "29b",
                "addr:city:simc": 930696,
                "addr:street:sym_ul": 13276,
                "phone": "+48 236543733",
                "email": "dyrektor@zs2mlawa.onmicrosoft.com",
                "website": "http:\/\/zs2mlawa.szkolnastrona.pl",
                "ref:regon": "146328598",
                "operator": "Powiat M\u0142awski",
                "operator:type": "government",
                "amenity": "school",
                "note": "Parent RSPO: 15475"
            }
        },
        {
            "id": 27076,
            "type": "Feature",
            "geometry": {
                "type": "Point",
                "coordinates": [
                    20.36825,
                    53.1159899
                ]
            },
            "properties": {
                "isced:level": "3",
                "ref:rspo": 27076,
                "official_name": "Technikum Nr2 im.antoniny Mrozowskiej w M\u0142awie",
                "name": "Technikum Nr2 im.antoniny Mrozowskiej w M\u0142awie",
                "addr:postcode": "06-500",
                "addr:city": "M\u0142awa",
                "addr:street": "Zuzanny Morawskiej",
                "addr:housenumber": "29b",
                "addr:city:simc": 930696,
                "addr:street:sym_ul": 13276,
                "phone": "+48 236543733",
                "email": "dyrektor@zs2mlawa.onmicrosoft.com",
                "website": "http:\/\/zs2mlawa.szkolnastrona.pl",
                "ref:regon": "130950809",
                "operator": "Powiat M\u0142awski",
                "operator:type": "government",
                "amenity": "school",
                "note": "Parent RSPO: 15475"
            }
        },
        {
            "id": 131079,
            "type": "Feature",
            "geometry": {
                "type": "Point",
                "coordinates": [
                    20.38841,
                    53.11639
                ]
            },
            "properties": {
                "ref:rspo": 131079,
                "official_name": "Niepubliczne Przedszkole Terapeutyczne \"Dobre Miejsce\"",
                "name": "Niepubliczne Przedszkole Terapeutyczne \"Dobre Miejsce\"",
                "addr:postcode": "06-500",
                "addr:city": "M\u0142awa",
                "addr:street": "Polna",
                "addr:housenumber": "8a",
                "addr:city:simc": 930696,
                "addr:street:sym_ul": 17011,
                "phone": "+48 575690918",
                "email": "przedszkole@dobre-miejsce.edu.pl",
                "website": "http:\/\/www.dobre-miejsce.edu.pl",
                "ref:regon": "364932380",
                "operator": "Anna Nachtygal",
                "operator:type": "private",
                "amenity": "kindergarten"
            }
        },
        {
            "id": 15474,
            "type": "Feature",
            "geometry": {
                "type": "Point",
                "coordinates": [
                    20.368,
                    53.1173
                ]
            },
            "properties": {
                "ref:rspo": 15474,
                "official_name": "Zesp\u00f3\u0142 Szk\u00f3\u0142 Nr1 w M\u0142awie",
                "name": "Zesp\u00f3\u0142 Szk\u00f3\u0142 Nr1 w M\u0142awie",
                "addr:postcode": "06-500",
                "addr:city": "M\u0142awa",
                "addr:street": "Zuzanny Morawskiej",
                "addr:housenumber": "29",
                "addr:city:simc": 930696,
                "addr:street:sym_ul": 13276,
                "phone": "+48 236543207",
                "email": "zs1_mlawa@interia.pl",
                "website": "http:\/\/zs1mlawa.pl",
                "ref:regon": "000188860",
                "ref:vatin": "PL5690001645",
                "operator": "Powiat M\u0142awski",
                "operator:type": "government",
                "landuse": "education",
                "fixme": "amenity=school, amenity=college albo landuse=education w zale\u017cno\u015bci od tego, jakie plac\u00f3wki wchodz\u0105 w sk\u0142ad zespo\u0142u. Sprawd\u017a, kiedy stosowa\u0107 amenity=* a kiedy landuse=education.",
                "note": "Children RSPO: 26963;26965"
            }
        },
        {
            "id": 26963,
            "type": "Feature",
            "geometry": {
                "type": "Point",
                "coordinates": [
                    20.368,
                    53.11727
                ]
            },
            "properties": {
                "isced:level": "3",
                "ref:rspo": 26963,
                "official_name": "Technikum Nr1 im.jerzego Ciesielskiego w M\u0142awie",
                "name": "Technikum Nr1 im.jerzego Ciesielskiego w M\u0142awie",
                "addr:postcode": "06-500",
                "addr:city": "M\u0142awa",
                "addr:street": "Zuzanny Morawskiej",
                "addr:housenumber": "29",
                "addr:city:simc": 930696,
                "addr:street:sym_ul": 13276,
                "phone": "+48 236543207",
                "email": "zs1_mlawa@interia.pl",
                "website": "http:\/\/zs1mlawa.pl",
                "ref:regon": "130950784",
                "operator": "Powiat M\u0142awski",
                "operator:type": "government",
                "amenity": "school",
                "note": "Parent RSPO: 15474"
            }
        },
        {
            "id": 26965,
            "type": "Feature",
            "geometry": {
                "type": "Point",
                "coordinates": [
                    20.368,
                    53.11724
                ]
            },
            "properties": {
                "isced:level": "3",
                "ref:rspo": 26965,
                "official_name": "Bran\u017cowa Szko\u0142a I Stopnia Nr1 im.jerzego Ciesielskiego w M\u0142awie",
                "name": "Bran\u017cowa Szko\u0142a I Stopnia Nr1 im.jerzego Ciesielskiego w M\u0142awie",
                "addr:postcode": "06-500",
                "addr:city": "M\u0142awa",
                "addr:street": "Zuzanny Morawskiej",
                "addr:housenumber": "29",
                "addr:city:simc": 930696,
                "addr:street:sym_ul": 13276,
                "phone": "+48 236543207",
                "email": "zs1_mlawa@interia.pl",
                "website": "http:\/\/zs1mlawa.pl",
                "ref:regon": "130950790",
                "operator": "Powiat M\u0142awski",
                "operator:type": "government",
                "amenity": "school",
                "note": "Parent RSPO: 15474"
            }
        },
        {
            "id": 15255,
            "type": "Feature",
            "geometry": {
                "type": "Point",
                "coordinates": [
                    20.38534,
                    53.11789
                ]
            },
            "properties": {
                "isced:level": "1;2",
                "ref:rspo": 15255,
                "official_name": "Szko\u0142a Podstawowa nr 6 z Oddzia\u0142ami Integracyjnymi im. Kornela Makuszy\u0144skiego w M\u0142awie",
                "name": "Szko\u0142a Podstawowa nr 6 z Oddzia\u0142ami Integracyjnymi",
                "addr:postcode": "06-500",
                "addr:city": "M\u0142awa",
                "addr:street": "\u017bo\u0142nierzy 80 Pu\u0142ku Piechoty",
                "addr:housenumber": "5",
                "addr:city:simc": 930696,
                "addr:street:sym_ul": 26507,
                "phone": "+48 236543737",
                "email": "sp6@mlawa.pl",
                "website": "http:\/\/www.sp6.mlawa.pl",
                "ref:regon": "001137557",
                "ref:vatin": "PL5691632856",
                "operator": "Miasto M\u0142awa",
                "operator:type": "government",
                "amenity": "school"
            }
        },
        {
            "id": 262929,
            "type": "Feature",
            "geometry": {
                "type": "Point",
                "coordinates": [
                    20.36596,
                    53.11812
                ]
            },
            "properties": {
                "isced:level": "1;2",
                "ref:rspo": 262929,
                "official_name": "Szko\u0142a Podstawowa nr 3 im. Dra J\u00f3zefa Ostaszewskiego w M\u0142awie",
                "name": "Szko\u0142a Podstawowa nr 3",
                "addr:postcode": "06-500",
                "addr:city": "M\u0142awa",
                "addr:street": "Henryka Pogorzelskiego",
                "addr:housenumber": "4",
                "addr:city:simc": 930696,
                "addr:street:sym_ul": 16910,
                "phone": "+48 236544910",
                "email": "sekretariat@sp3.mlawa.pl",
                "website": "http:\/\/www.sp3.mlawa.pl",
                "ref:regon": "368075435",
                "operator": "Miasto M\u0142awa",
                "operator:type": "government",
                "amenity": "school"
            }
        },
        {
            "id": 15484,
            "type": "Feature",
            "geometry": {
                "type": "Point",
                "coordinates": [
                    20.36655,
                    53.12006
                ]
            },
            "properties": {
                "ref:rspo": 15484,
                "official_name": "Zesp\u00f3\u0142 Szk\u00f3\u0142 nr 3 im. Marsza\u0142ka J\u00f3zefa Pi\u0142sudskiego w M\u0142awie",
                "name": "Zesp\u00f3\u0142 Szk\u00f3\u0142 nr 3",
                "addr:postcode": "06-500",
                "addr:city": "M\u0142awa",
                "addr:street": "Aleja J\u00f3zefa Pi\u0142sudskiego",
                "addr:housenumber": "33",
                "addr:city:simc": 930696,
                "addr:street:sym_ul": 43602,
                "phone": "+48 236543937",
                "email": "zs3mlawa@op.pl",
                "website": "http:\/\/zs3mlawa.pl",
                "ref:regon": "000861713",
                "ref:vatin": "PL5691423992",
                "operator": "Powiat M\u0142awski",
                "operator:type": "government",
                "landuse": "education",
                "fixme": "amenity=school, amenity=college albo landuse=education w zale\u017cno\u015bci od tego, jakie plac\u00f3wki wchodz\u0105 w sk\u0142ad zespo\u0142u. Sprawd\u017a, kiedy stosowa\u0107 amenity=* a kiedy landuse=education.",
                "note": "Children RSPO: 28044;28046;28047;275906"
            }
        },
        {
            "id": 28044,
            "type": "Feature",
            "geometry": {
                "type": "Point",
                "coordinates": [
                    20.36655,
                    53.12003
                ]
            },
            "properties": {
                "isced:level": "3",
                "ref:rspo": 28044,
                "official_name": "Iii Liceum Og\u00f3lnokszta\u0142c\u0105ce w M\u0142awie",
                "name": "Iii Liceum Og\u00f3lnokszta\u0142c\u0105ce w M\u0142awie",
                "addr:postcode": "06-500",
                "addr:city": "M\u0142awa",
                "addr:street": "Aleja J\u00f3zefa Pi\u0142sudskiego",
                "addr:housenumber": "33",
                "addr:city:simc": 930696,
                "addr:street:sym_ul": 43602,
                "phone": "+48 236543937",
                "email": "zs3mlawa@op.pl",
                "website": "http:\/\/zs3mlawa.pl",
                "ref:regon": "130965998",
                "operator": "Powiat M\u0142awski",
                "operator:type": "government",
                "amenity": "school",
                "note": "Parent RSPO: 15484"
            }
        },
        {
            "id": 28046,
            "type": "Feature",
            "geometry": {
                "type": "Point",
                "coordinates": [
                    20.36655,
                    53.120000000000005
                ]
            },
            "properties": {
                "isced:level": "3",
                "ref:rspo": 28046,
                "official_name": "Technikum Nr3 w M\u0142awie",
                "name": "Technikum Nr3 w M\u0142awie",
                "addr:postcode": "06-500",
                "addr:city": "M\u0142awa",
                "addr:street": "Aleja J\u00f3zefa Pi\u0142sudskiego",
                "addr:housenumber": "33",
                "addr:city:simc": 930696,
                "addr:street:sym_ul": 43602,
                "phone": "+48 236543937",
                "email": "zs3mlawa@op.pl",
                "website": "http:\/\/zs3mlawa.pl",
                "ref:regon": "130966006",
                "operator": "Powiat M\u0142awski",
                "operator:type": "government",
                "amenity": "school",
                "note": "Parent RSPO: 15484"
            }
        },
        {
            "id": 28047,
            "type": "Feature",
            "geometry": {
                "type": "Point",
                "coordinates": [
                    20.36655,
                    53.11997
                ]
            },
            "properties": {
                "isced:level": "3",
                "ref:rspo": 28047,
                "official_name": "Bran\u017cowa Szko\u0142a I Stopnia Nr3 w M\u0142awie",
                "name": "Bran\u017cowa Szko\u0142a I Stopnia Nr3 w M\u0142awie",
                "addr:postcode": "06-500",
                "addr:city": "M\u0142awa",
                "addr:street": "Aleja J\u00f3zefa Pi\u0142sudskiego",
                "addr:housenumber": "33",
                "addr:city:simc": 930696,
                "addr:street:sym_ul": 43602,
                "phone": "+48 236543937",
                "email": "zs3mlawa@op.pl",
                "website": "http:\/\/zs3.pl",
                "ref:regon": "130966029",
                "operator": "Powiat M\u0142awski",
                "operator:type": "government",
                "amenity": "school",
                "note": "Parent RSPO: 15484"
            }
        },
        {
            "id": 275906,
            "type": "Feature",
            "geometry": {
                "type": "Point",
                "coordinates": [
                    20.36655,
                    53.11994
                ]
            },
            "properties": {
                "isced:level": "3",
                "ref:rspo": 275906,
                "official_name": "Bran\u017cowa Szko\u0142a II Stopnia w M\u0142awie",
                "name": "Bran\u017cowa Szko\u0142a II Stopnia w M\u0142awie",
                "addr:postcode": "06-500",
                "addr:city": "M\u0142awa",
                "addr:street": "Aleja J\u00f3zefa Pi\u0142sudskiego",
                "addr:housenumber": "33",
                "addr:city:simc": 930696,
                "addr:street:sym_ul": 43602,
                "phone": "+48 236543937",
                "email": "zs3mlawa@op.pl",
                "website": "http:\/\/zs3mlawa.pl",
                "ref:regon": "386952218",
                "operator": "Powiat M\u0142awski",
                "operator:type": "government",
                "amenity": "school",
                "note": "Parent RSPO: 15484"
            }
        },
        {
            "id": 11791,
            "type": "Feature",
            "geometry": {
                "type": "Point",
                "coordinates": [
                    20.37849,
                    53.12008
                ]
            },
            "properties": {
                "ref:rspo": 11791,
                "official_name": "Publiczne Przedszkole \"Dzieci\u0105tka Jezus\" Parafii \u015awi\u0119tej Rodziny w M\u0142awie",
                "name": "Publiczne Przedszkole \"Dzieci\u0105tka Jezus\" Parafii \u015awi\u0119tej Rodziny w M\u0142awie",
                "addr:postcode": "06-500",
                "addr:city": "M\u0142awa",
                "addr:street": "Kardyna\u0142a Stefana Wyszy\u0144skiego",
                "addr:housenumber": "2",
                "addr:city:simc": 930696,
                "addr:street:sym_ul": 35421,
                "phone": "+48 236543448",
                "email": "przedszkolerodziny@onet.pl",
                "ref:regon": "146301257",
                "operator": "Parafia P.w.\u015bwi\u0119tej Rodziny",
                "operator:type": "religious",
                "amenity": "kindergarten"
            }
        },
        {
            "id": 18248,
            "type": "Feature",
            "geometry": {
                "type": "Point",
                "coordinates": [
                    20.35397,
                    53.1265
                ]
            },
            "properties": {
                "ref:rspo": 18248,
                "official_name": "Miejskie Przedszkole Samorz\u0105dowe nr 2 w M\u0142awie",
                "name": "Miejskie Przedszkole Samorz\u0105dowe nr 2 w M\u0142awie",
                "addr:postcode": "06-500",
                "addr:city": "M\u0142awa",
                "addr:street": "Przyrynek",
                "addr:housenumber": "5",
                "addr:city:simc": 930696,
                "addr:street:sym_ul": 17978,
                "phone": "+48 236544825",
                "email": "zpo2@zpo2.mlawa.pl",
                "website": "http:\/\/www.zpo2.mlawa.pl",
                "ref:regon": "130005241",
                "ref:vatin": "PL5691752750",
                "operator": "Miasto M\u0142awa",
                "operator:type": "government",
                "amenity": "kindergarten",
                "note": "Parent RSPO: 14986"
            }
        },
        {
            "id": 14986,
            "type": "Feature",
            "geometry": {
                "type": "Point",
                "coordinates": [
                    20.35403,
                    53.12765
                ]
            },
            "properties": {
                "ref:rspo": 14986,
                "official_name": "Zesp\u00f3\u0142 Plac\u00f3wek O\u015bwiatowych nr 2 w M\u0142awie",
                "name": "Zesp\u00f3\u0142 Plac\u00f3wek O\u015bwiatowych nr 2 w M\u0142awie",
                "addr:postcode": "06-500",
                "addr:city": "M\u0142awa",
                "addr:street": "Graniczna",
                "addr:housenumber": "39",
                "addr:city:simc": 930696,
                "addr:street:sym_ul": 6075,
                "phone": "+48 236544825",
                "email": "zpo2@zpo2.mlawa.pl",
                "website": "http:\/\/www.zpo2.mlawa.pl",
                "ref:regon": "130964214",
                "ref:vatin": "PL5691752750",
                "operator": "Miasto M\u0142awa",
                "operator:type": "government",
                "landuse": "education",
                "fixme": "amenity=school, amenity=college albo landuse=education w zale\u017cno\u015bci od tego, jakie plac\u00f3wki wchodz\u0105 w sk\u0142ad zespo\u0142u. Sprawd\u017a, kiedy stosowa\u0107 amenity=* a kiedy landuse=education.",
                "note": "Children RSPO: 18227;18248"
            }
        },
        {
            "id": 18227,
            "type": "Feature",
            "geometry": {
                "type": "Point",
                "coordinates": [
                    20.35403,
                    53.12762
                ]
            },
            "properties": {
                "isced:level": "1;2",
                "ref:rspo": 18227,
                "official_name": "Szko\u0142a Podstawowa nr 4 im. Haliny Rudnickiej w M\u0142awie",
                "name": "Szko\u0142a Podstawowa nr 4",
                "addr:postcode": "06-500",
                "addr:city": "M\u0142awa",
                "addr:street": "Graniczna",
                "addr:housenumber": "39",
                "addr:city:simc": 930696,
                "addr:street:sym_ul": 6075,
                "phone": "+48 236544825",
                "email": "zpo2@zpo2.mlawa.pl",
                "website": "http:\/\/www.zpo2.mlawa.pl",
                "ref:regon": "001137563",
                "ref:vatin": "PL5691752750",
                "operator": "Miasto M\u0142awa",
                "operator:type": "government",
                "amenity": "school",
                "note": "Parent RSPO: 14986"
            }
        }
    ]
}