{
    "type": "FeatureCollection",
    "features": [
        {
            "id": 274254,
            "type": "Feature",
            "geometry": {
                "type": "Point",
                "coordinates": [
                    19.59358,
                    53.41556
                ]
            },
            "properties": {
                "ref:rspo": 274254,
                "official_name": "Niepubliczna Plac\u00f3wka Kszta\u0142cenia Ustawicznego",
                "name": "Niepubliczna Plac\u00f3wka Kszta\u0142cenia Ustawicznego",
                "addr:postcode": "13-300",
                "addr:city": "Nowe Miasto Lubawskie",
                "addr:street": "Jagiello\u0144ska",
                "addr:housenumber": "38",
                "addr:teryt:simc": 983563,
                "addr:teryt:sym_ul": 7029,
                "phone": "+48 564743768",
                "email": "kontakt@orion-ochrona.pl",
                "ref:regon": "385490974",
                "ref:vatin": "PL8771154283",
                "operator": "Leszek Kijora",
                "operator:type": "private",
                "fixme": "w zale\u017cno\u015bci od przedmiotu dzia\u0142alno\u015bci (np. amenity=training + training=*, amenity=dancing_school, amenity=language_school, amenity=music_school)"
            }
        },
        {
            "id": 11430,
            "type": "Feature",
            "geometry": {
                "type": "Point",
                "coordinates": [
                    19.59372,
                    53.42047
                ]
            },
            "properties": {
                "ref:rspo": 11430,
                "official_name": "Zesp\u00f3\u0142 Szkolno-Przedszkolny w Nowym Mie\u015bcie Lubawskim",
                "name": "Zesp\u00f3\u0142 Szkolno-Przedszkolny w Nowym Mie\u015bcie Lubawskim",
                "addr:postcode": "13-300",
                "addr:city": "Nowe Miasto Lubawskie",
                "addr:street": "Jagiello\u0144ska",
                "addr:housenumber": "3",
                "addr:teryt:simc": 983563,
                "addr:teryt:sym_ul": 7029,
                "phone": "+48 564742184",
                "email": "sp1@sp1nml.pl",
                "website": "http:\/\/www.sp1nml.edupage.org",
                "ref:regon": "281091387",
                "ref:vatin": "PL8771474510",
                "operator": "Gmina Miejska Nowe Miasto Lubawskie",
                "operator:type": "government",
                "landuse": "education",
                "fixme": "amenity=school, amenity=college albo landuse=education w zale\u017cno\u015bci od tego, jakie plac\u00f3wki wchodz\u0105 w sk\u0142ad zespo\u0142u. Sprawd\u017a, kiedy stosowa\u0107 amenity=* a kiedy landuse=education.",
                "note": "Children RSPO: 16477;16478"
            }
        },
        {
            "id": 68624,
            "type": "Feature",
            "geometry": {
                "type": "Point",
                "coordinates": [
                    19.59372,
                    53.42044
                ]
            },
            "properties": {
                "ref:rspo": 68624,
                "official_name": "Szko\u0142a Muzyczna I St. w Nowym Mie\u015bcie Lubawskim",
                "name": "Szko\u0142a Muzyczna I St. w Nowym Mie\u015bcie Lubawskim",
                "addr:postcode": "13-300",
                "addr:city": "Nowe Miasto Lubawskie",
                "addr:street": "Jagiello\u0144ska",
                "addr:housenumber": "3",
                "addr:teryt:simc": 983563,
                "addr:teryt:sym_ul": 7029,
                "ref:regon": "281486938",
                "operator": "Mt Group Sp\u00f3\u0142ka Z Ograniczon\u0105 Odpowiedzialno\u015bci\u0105",
                "operator:type": "private",
                "amenity": "music_school"
            }
        },
        {
            "id": 16477,
            "type": "Feature",
            "geometry": {
                "type": "Point",
                "coordinates": [
                    19.59372,
                    53.420410000000004
                ]
            },
            "properties": {
                "isced:level": "1;2",
                "ref:rspo": 16477,
                "official_name": "Szko\u0142a Podstawowa Nr 1 im. Jana Paw\u0142a II w Nowym Mie\u015bcie Lubawskim",
                "name": "Szko\u0142a Podstawowa Nr 1",
                "addr:postcode": "13-300",
                "addr:city": "Nowe Miasto Lubawskie",
                "addr:street": "Jagiello\u0144ska",
                "addr:housenumber": "3",
                "addr:teryt:simc": 983563,
                "addr:teryt:sym_ul": 7029,
                "phone": "+48 564742184",
                "email": "sp1@sp1nml.pl",
                "website": "http:\/\/www.sp1nml.edupage.org",
                "ref:regon": "001223890",
                "ref:vatin": "PL8771032367",
                "operator": "Gmina Miejska Nowe Miasto Lubawskie",
                "operator:type": "government",
                "amenity": "school",
                "note": "Parent RSPO: 11430"
            }
        },
        {
            "id": 48615,
            "type": "Feature",
            "geometry": {
                "type": "Point",
                "coordinates": [
                    19.60832,
                    53.42047
                ]
            },
            "properties": {
                "ref:rspo": 48615,
                "official_name": "Niepubliczne Przedszkole \"Pod Wierzb\u0105\"",
                "name": "Niepubliczne Przedszkole \"Pod Wierzb\u0105\"",
                "addr:postcode": "13-300",
                "addr:city": "Nowe Miasto Lubawskie",
                "addr:street": "Wojska Polskiego",
                "addr:housenumber": "45a",
                "addr:teryt:simc": 983563,
                "addr:teryt:sym_ul": 24628,
                "phone": "+48 500800102",
                "ref:regon": "281438030",
                "ref:vatin": "PL8771448470",
                "operator": "Dane Do Uzupe\u0142nienia",
                "operator:type": "private",
                "amenity": "kindergarten"
            }
        },
        {
            "id": 8070,
            "type": "Feature",
            "geometry": {
                "type": "Point",
                "coordinates": [
                    19.58742,
                    53.42463
                ]
            },
            "properties": {
                "ref:rspo": 8070,
                "official_name": "O\u015brodek Kszta\u0142cenia Zawodowego \"Edukacja\"",
                "name": "O\u015brodek Kszta\u0142cenia Zawodowego \"Edukacja\"",
                "addr:postcode": "13-300",
                "addr:city": "Nowe Miasto Lubawskie",
                "addr:street": "Adama Mickiewicza",
                "addr:housenumber": "11B",
                "addr:door": "9",
                "addr:teryt:simc": 983563,
                "addr:teryt:sym_ul": 12734,
                "phone": "+48 564742364",
                "email": "grabowski10@tlen.pl",
                "ref:regon": "281424481",
                "ref:vatin": "PL7393260002",
                "operator": "Bartosz Grabowski",
                "operator:type": "private",
                "fixme": "w zale\u017cno\u015bci od przedmiotu dzia\u0142alno\u015bci (np. amenity=training + training=*, amenity=dancing_school, amenity=language_school, amenity=music_school)"
            }
        },
        {
            "id": 111747,
            "type": "Feature",
            "geometry": {
                "type": "Point",
                "coordinates": [
                    19.58723,
                    53.42549
                ]
            },
            "properties": {
                "ref:rspo": 111747,
                "official_name": "Powiatowe Centrum Rozwoju Edukacji w Nowym Mie\u015bcie Lubawskim",
                "name": "Powiatowe Centrum Rozwoju Edukacji w Nowym Mie\u015bcie Lubawskim",
                "addr:postcode": "13-300",
                "addr:city": "Nowe Miasto Lubawskie",
                "addr:street": "3 Maja",
                "addr:housenumber": "25",
                "addr:teryt:simc": 983563,
                "addr:teryt:sym_ul": 11937,
                "phone": "+48 564726038",
                "email": "ppp.nml@wp.pl",
                "website": "http:\/\/www.ppp-nml.pl",
                "ref:regon": "281478502",
                "operator": "Powiat Nowomiejski",
                "operator:type": "government",
                "landuse": "education",
                "fixme": "amenity=school, amenity=college albo landuse=education w zale\u017cno\u015bci od tego, jakie plac\u00f3wki wchodz\u0105 w sk\u0142ad zespo\u0142u. Sprawd\u017a, kiedy stosowa\u0107 amenity=* a kiedy landuse=education.",
                "note": "Children RSPO: 10019;111295"
            }
        },
        {
            "id": 10019,
            "type": "Feature",
            "geometry": {
                "type": "Point",
                "coordinates": [
                    19.58723,
                    53.42546
                ]
            },
            "properties": {
                "ref:rspo": 10019,
                "official_name": "Poradnia Psychologiczno-Pedagogiczna",
                "name": "Poradnia Psychologiczno-Pedagogiczna",
                "addr:postcode": "13-300",
                "addr:city": "Nowe Miasto Lubawskie",
                "addr:street": "3 Maja",
                "addr:housenumber": "25",
                "addr:teryt:simc": 983563,
                "addr:teryt:sym_ul": 11937,
                "phone": "+48 564726038",
                "email": "ppp.nml@wp.pl",
                "website": "http:\/\/www.ppp-nml.pl",
                "ref:regon": "001082253",
                "operator": "Powiat Nowomiejski",
                "operator:type": "government",
                "healthcare": "counselling",
                "counselling_type": "education",
                "fixme": "w zale\u017cno\u015bci od przedmiotu dzia\u0142alno\u015bci (np. healthcare=counselling + counselling_type=education albo healthcare=psychotherapist)",
                "note": "Parent RSPO: 111747"
            }
        },
        {
            "id": 111295,
            "type": "Feature",
            "geometry": {
                "type": "Point",
                "coordinates": [
                    19.58723,
                    53.425430000000006
                ]
            },
            "properties": {
                "ref:rspo": 111295,
                "official_name": "Powiatowa Biblioteka Pedagogiczna w Nowym Mie\u015bcie Lubawskim",
                "name": "Powiatowa Biblioteka Pedagogiczna w Nowym Mie\u015bcie Lubawskim",
                "addr:postcode": "13-300",
                "addr:city": "Nowe Miasto Lubawskie",
                "addr:street": "3 Maja",
                "addr:housenumber": "25",
                "addr:teryt:simc": 983563,
                "addr:teryt:sym_ul": 11937,
                "phone": "+48 564742496",
                "ref:regon": "281411389",
                "ref:vatin": "PL8771476377",
                "operator": "Powiat Nowomiejski",
                "operator:type": "government",
                "amenity": "library",
                "note": "Parent RSPO: 111747"
            }
        },
        {
            "id": 8069,
            "type": "Feature",
            "geometry": {
                "type": "Point",
                "coordinates": [
                    19.5861899,
                    53.42554
                ]
            },
            "properties": {
                "ref:rspo": 8069,
                "official_name": "Zesp\u00f3\u0142 Szk\u00f3\u0142 Imienia Cypriana Kamila Norwida",
                "name": "Zesp\u00f3\u0142 Szk\u00f3\u0142 Imienia Cypriana Kamila Norwida",
                "addr:postcode": "13-300",
                "addr:city": "Nowe Miasto Lubawskie",
                "addr:street": "3 Maja",
                "addr:housenumber": "24",
                "addr:teryt:simc": 983563,
                "addr:teryt:sym_ul": 11937,
                "phone": "+48 564726020",
                "email": "zsimc.k.norwida@wp.pl",
                "website": "http:\/\/www.norwid.eu",
                "ref:regon": "000680911",
                "ref:vatin": "PL8771001958",
                "operator": "Powiat Nowomiejski",
                "operator:type": "government",
                "landuse": "education",
                "fixme": "amenity=school, amenity=college albo landuse=education w zale\u017cno\u015bci od tego, jakie plac\u00f3wki wchodz\u0105 w sk\u0142ad zespo\u0142u. Sprawd\u017a, kiedy stosowa\u0107 amenity=* a kiedy landuse=education.",
                "note": "Children RSPO: 10291;10293;115337"
            }
        },
        {
            "id": 10291,
            "type": "Feature",
            "geometry": {
                "type": "Point",
                "coordinates": [
                    19.5861899,
                    53.425509999999996
                ]
            },
            "properties": {
                "isced:level": "3",
                "ref:rspo": 10291,
                "official_name": "Liceum Og\u00f3lnokszta\u0142c\u0105ce",
                "name": "Liceum Og\u00f3lnokszta\u0142c\u0105ce",
                "addr:postcode": "13-300",
                "addr:city": "Nowe Miasto Lubawskie",
                "addr:street": "3 Maja",
                "addr:housenumber": "24",
                "addr:teryt:simc": 983563,
                "addr:teryt:sym_ul": 11937,
                "phone": "+48 564726020",
                "email": "zsimc.k.norwida@wp.pl",
                "website": "http:\/\/www.norwid.eu",
                "ref:regon": "519565602",
                "operator": "Powiat Nowomiejski",
                "operator:type": "government",
                "amenity": "school",
                "note": "Parent RSPO: 8069"
            }
        },
        {
            "id": 10293,
            "type": "Feature",
            "geometry": {
                "type": "Point",
                "coordinates": [
                    19.5861899,
                    53.42548
                ]
            },
            "properties": {
                "isced:level": "4",
                "ref:rspo": 10293,
                "official_name": "Szko\u0142a Policealna",
                "name": "Szko\u0142a Policealna",
                "addr:postcode": "13-300",
                "addr:city": "Nowe Miasto Lubawskie",
                "addr:street": "3 Maja",
                "addr:housenumber": "24",
                "addr:teryt:simc": 983563,
                "addr:teryt:sym_ul": 11937,
                "phone": "+48 564726020",
                "email": "zsimc.k.norwida@wp.pl",
                "website": "http:\/\/www.norwid.eu",
                "ref:regon": "519565714",
                "operator": "Powiat Nowomiejski",
                "operator:type": "government",
                "amenity": "college",
                "note": "Parent RSPO: 8069"
            }
        },
        {
            "id": 115337,
            "type": "Feature",
            "geometry": {
                "type": "Point",
                "coordinates": [
                    19.5861899,
                    53.42545
                ]
            },
            "properties": {
                "isced:level": "3",
                "ref:rspo": 115337,
                "official_name": "Liceum Og\u00f3lnokszta\u0142c\u0105ce dla Doros\u0142ych",
                "name": "Liceum Og\u00f3lnokszta\u0142c\u0105ce dla Doros\u0142ych",
                "addr:postcode": "13-300",
                "addr:city": "Nowe Miasto Lubawskie",
                "addr:street": "3 Maja",
                "addr:housenumber": "24",
                "addr:teryt:simc": 983563,
                "addr:teryt:sym_ul": 11937,
                "phone": "+48 564726020",
                "email": "zsimc.k.norwida@wp.pl",
                "ref:regon": "281511369",
                "operator": "Powiat Nowomiejski",
                "operator:type": "government",
                "amenity": "school",
                "note": "Parent RSPO: 8069"
            }
        },
        {
            "id": 115339,
            "type": "Feature",
            "geometry": {
                "type": "Point",
                "coordinates": [
                    19.59233,
                    53.42602
                ]
            },
            "properties": {
                "isced:level": "3",
                "ref:rspo": 115339,
                "official_name": "Zaoczne Liceum Og\u00f3lnokszta\u0142c\u0105ce dla Doros\u0142ych w Nowym Mie\u015bcie Lubawskim",
                "name": "Zaoczne Liceum Og\u00f3lnokszta\u0142c\u0105ce dla Doros\u0142ych w Nowym Mie\u015bcie Lubawskim",
                "addr:postcode": "13-300",
                "addr:city": "Nowe Miasto Lubawskie",
                "addr:street": "Dzia\u0142y\u0144skich",
                "addr:housenumber": "14",
                "addr:teryt:simc": 983563,
                "addr:teryt:sym_ul": 4587,
                "phone": "+48 603773208",
                "email": "poczta@cez.net.pl",
                "website": "http:\/\/www.cez.net.pl",
                "ref:regon": "281511375",
                "ref:vatin": "PL7441043798",
                "operator": "Anna Bitowt",
                "operator:type": "private",
                "amenity": "school"
            }
        },
        {
            "id": 196348,
            "type": "Feature",
            "geometry": {
                "type": "Point",
                "coordinates": [
                    19.59233,
                    53.42599
                ]
            },
            "properties": {
                "isced:level": "1;2",
                "ref:rspo": 196348,
                "official_name": "Szko\u0142a Podstawowa Nr 3 w Nowym Mie\u015bcie Lubawskim",
                "name": "Szko\u0142a Podstawowa Nr 3 w Nowym Mie\u015bcie Lubawskim",
                "addr:postcode": "13-300",
                "addr:city": "Nowe Miasto Lubawskie",
                "addr:street": "Dzia\u0142y\u0144skich",
                "addr:housenumber": "14",
                "addr:teryt:simc": 983563,
                "addr:teryt:sym_ul": 4587,
                "phone": "+48 564742271",
                "email": "sekretariat-sp3nml@wp.pl",
                "website": "https:\/\/www.sp3nml.pl\/",
                "ref:regon": "367992075",
                "operator": "Gmina Miejska Nowe Miasto Lubawskie",
                "operator:type": "government",
                "amenity": "school"
            }
        },
        {
            "id": 44481,
            "type": "Feature",
            "geometry": {
                "type": "Point",
                "coordinates": [
                    19.59057,
                    53.42732
                ]
            },
            "properties": {
                "ref:rspo": 44481,
                "official_name": "Plac\u00f3wka Kszta\u0142cenia Ustawicznego Logos",
                "name": "Plac\u00f3wka Kszta\u0142cenia Ustawicznego Logos",
                "addr:postcode": "13-300",
                "addr:city": "Nowe Miasto Lubawskie",
                "addr:street": "Tysi\u0105clecia",
                "addr:housenumber": "1",
                "addr:teryt:simc": 983563,
                "addr:teryt:sym_ul": 23270,
                "phone": "+48 564725948",
                "ref:regon": "281437851",
                "operator": "\"Euro Consulting Sp\u00f3\u0142ka Z Ograniczon\u0105 Odpowiedzialno\u015bci\u0105\"",
                "operator:type": "private",
                "fixme": "w zale\u017cno\u015bci od przedmiotu dzia\u0142alno\u015bci (np. amenity=training + training=*, amenity=dancing_school, amenity=language_school, amenity=music_school)"
            }
        },
        {
            "id": 16478,
            "type": "Feature",
            "geometry": {
                "type": "Point",
                "coordinates": [
                    19.59054,
                    53.42798
                ]
            },
            "properties": {
                "ref:rspo": 16478,
                "official_name": "Przedszkole Miejskie w Nowym Mie\u015bcie Lubawskim",
                "name": "Przedszkole Miejskie w Nowym Mie\u015bcie Lubawskim",
                "addr:postcode": "13-300",
                "addr:city": "Nowe Miasto Lubawskie",
                "addr:street": "Tysi\u0105clecia",
                "addr:housenumber": "3",
                "addr:teryt:simc": 983563,
                "addr:teryt:sym_ul": 23270,
                "phone": "+48 564742478",
                "email": "przedszkole.nml@wp.pl",
                "ref:regon": "511353020",
                "ref:vatin": "PL8771474510",
                "operator": "Gmina Miejska Nowe Miasto Lubawskie",
                "operator:type": "government",
                "amenity": "kindergarten",
                "note": "Parent RSPO: 11430"
            }
        },
        {
            "id": 12439,
            "type": "Feature",
            "geometry": {
                "type": "Point",
                "coordinates": [
                    19.58987,
                    53.43177
                ]
            },
            "properties": {
                "ref:rspo": 12439,
                "official_name": "Centrum Edukacyjne Wiedza",
                "name": "Centrum Edukacyjne Wiedza",
                "addr:postcode": "13-300",
                "addr:city": "Nowe Miasto Lubawskie",
                "addr:street": "Grunwaldzka",
                "addr:housenumber": "27",
                "addr:door": "1",
                "addr:teryt:simc": 983563,
                "addr:teryt:sym_ul": 6260,
                "phone": "+48 608512749",
                "ref:regon": "281427108",
                "operator": "Katarzyna Ochocka",
                "operator:type": "private",
                "fixme": "w zale\u017cno\u015bci od przedmiotu dzia\u0142alno\u015bci (np. amenity=training + training=*, amenity=dancing_school, amenity=language_school, amenity=music_school)"
            }
        },
        {
            "id": 122687,
            "type": "Feature",
            "geometry": {
                "type": "Point",
                "coordinates": [
                    19.59141,
                    53.4341099
                ]
            },
            "properties": {
                "ref:rspo": 122687,
                "official_name": "War-Motor B\u0142a\u017cej Chojnowski",
                "name": "War-Motor B\u0142a\u017cej Chojnowski",
                "addr:postcode": "13-300",
                "addr:city": "Nowe Miasto Lubawskie",
                "addr:street": "Grunwaldzka",
                "addr:housenumber": "52",
                "addr:teryt:simc": 983563,
                "addr:teryt:sym_ul": 6260,
                "phone": "+48 512140157",
                "email": "biuro@war-motor.pl",
                "ref:regon": "281578540",
                "ref:vatin": "PL8771380795",
                "operator": "B\u0142a\u017cej Chojnowski",
                "operator:type": "private",
                "fixme": "w zale\u017cno\u015bci od przedmiotu dzia\u0142alno\u015bci (np. amenity=training + training=*, amenity=dancing_school, amenity=language_school, amenity=music_school)"
            }
        },
        {
            "id": 11431,
            "type": "Feature",
            "geometry": {
                "type": "Point",
                "coordinates": [
                    19.59356,
                    53.4341099
                ]
            },
            "properties": {
                "ref:rspo": 11431,
                "official_name": "Zesp\u00f3\u0142 Szk\u00f3\u0142 Podstawowej I Muzycznej w Nowym Mie\u015bcie Lubawskim",
                "name": "Zesp\u00f3\u0142 Szk\u00f3\u0142 Podstawowej I Muzycznej w Nowym Mie\u015bcie Lubawskim",
                "addr:postcode": "13-300",
                "addr:city": "Nowe Miasto Lubawskie",
                "addr:street": "Tysi\u0105clecia",
                "addr:housenumber": "33",
                "addr:teryt:simc": 983563,
                "addr:teryt:sym_ul": 23270,
                "phone": "+48 564742693",
                "email": "sp2nml@wp.pl",
                "website": "http:\/\/www.sp2nml.pl",
                "ref:regon": "281091045",
                "ref:vatin": "PL8771474504",
                "operator": "Gmina Miejska Nowe Miasto Lubawskie",
                "operator:type": "government",
                "landuse": "education",
                "fixme": "amenity=school, amenity=college albo landuse=education w zale\u017cno\u015bci od tego, jakie plac\u00f3wki wchodz\u0105 w sk\u0142ad zespo\u0142u. Sprawd\u017a, kiedy stosowa\u0107 amenity=* a kiedy landuse=education.",
                "note": "Children RSPO: 16475;107105"
            }
        },
        {
            "id": 16475,
            "type": "Feature",
            "geometry": {
                "type": "Point",
                "coordinates": [
                    19.59356,
                    53.4340799
                ]
            },
            "properties": {
                "isced:level": "1;2",
                "ref:rspo": 16475,
                "official_name": "Szko\u0142a Podstawowa Nr 2 im. Janusza Korczaka w Nowym Mie\u015bcie Lubawskim",
                "name": "Szko\u0142a Podstawowa Nr 2",
                "addr:postcode": "13-300",
                "addr:city": "Nowe Miasto Lubawskie",
                "addr:street": "Tysi\u0105clecia",
                "addr:housenumber": "33",
                "addr:teryt:simc": 983563,
                "addr:teryt:sym_ul": 23270,
                "phone": "+48 564742693",
                "email": "sp2nml@wp.pl",
                "website": "http:\/\/www.sp2nml.pl",
                "ref:regon": "280224403",
                "ref:vatin": "PL8771445833",
                "operator": "Gmina Miejska Nowe Miasto Lubawskie",
                "operator:type": "government",
                "amenity": "school",
                "note": "Parent RSPO: 11431"
            }
        },
        {
            "id": 107105,
            "type": "Feature",
            "geometry": {
                "type": "Point",
                "coordinates": [
                    19.59356,
                    53.434049900000005
                ]
            },
            "properties": {
                "ref:rspo": 107105,
                "official_name": "Szko\u0142a Muzyczna I Stopnia w Nowym Mie\u015bcie Lubawskim",
                "name": "Szko\u0142a Muzyczna I Stopnia w Nowym Mie\u015bcie Lubawskim",
                "addr:postcode": "13-300",
                "addr:city": "Nowe Miasto Lubawskie",
                "addr:street": "Tysi\u0105clecia",
                "addr:housenumber": "33",
                "addr:teryt:simc": 983563,
                "addr:teryt:sym_ul": 23270,
                "phone": "+48 564742693",
                "ref:regon": "280489343",
                "ref:vatin": "PL8771465385",
                "operator": "Gmina Miejska Nowe Miasto Lubawskie",
                "operator:type": "government",
                "amenity": "music_school",
                "note": "Parent RSPO: 11431"
            }
        },
        {
            "id": 124817,
            "type": "Feature",
            "geometry": {
                "type": "Point",
                "coordinates": [
                    19.59316,
                    53.43668
                ]
            },
            "properties": {
                "isced:level": "1;2",
                "ref:rspo": 124817,
                "official_name": "Niepubliczna Szko\u0142a Podstawowa Specjalna",
                "name": "Niepubliczna Szko\u0142a Podstawowa Specjalna",
                "addr:postcode": "13-300",
                "addr:city": "Nowe Miasto Lubawskie",
                "addr:street": "Grunwaldzka",
                "addr:housenumber": "60",
                "addr:teryt:simc": 983563,
                "addr:teryt:sym_ul": 6260,
                "phone": "+48 697086512",
                "email": "beatamachujska@wp.pl",
                "ref:regon": "281622695",
                "operator": "Beata Machujska",
                "operator:type": "private",
                "amenity": "school"
            }
        }
    ]
}