{
    "type": "FeatureCollection",
    "features": [
        {
            "id": 30478,
            "type": "Feature",
            "geometry": {
                "type": "Point",
                "coordinates": [
                    19.65281,
                    53.39518
                ]
            },
            "properties": {
                "isced:level": "1;2",
                "ref:rspo": 30478,
                "official_name": "Szko\u0142a Podstawowa im. Ks. Kazimierza Wr\u00f3blewskiego w Gwi\u017adzinach",
                "name": "Szko\u0142a Podstawowa",
                "addr:country": "PL",
                "addr:postcode": "13-300",
                "addr:place": "Gwi\u017adziny",
                "addr:housenumber": "58",
                "addr:teryt:sym_ul": 847127,
                "contact:phone": "+48 564728839",
                "contact:email": "spgwizdziny@gminanml.pl",
                "contact:website": "http:\/\/www.spgwizdziny.edupage.org",
                "ref:regon": "001212968",
                "ref:vatin": "PL8771456989",
                "operator": "Gmina Nowe Miasto Lubawskie",
                "operator:type": "government",
                "amenity": "school"
            }
        },
        {
            "id": 264401,
            "type": "Feature",
            "geometry": {
                "type": "Point",
                "coordinates": [
                    19.65281,
                    53.39515
                ]
            },
            "properties": {
                "ref:rspo": 264401,
                "official_name": "Zesp\u00f3\u0142 Wychowania Przedszkolnego w Gwi\u017adzinach",
                "name": "Zesp\u00f3\u0142 Wychowania Przedszkolnego w Gwi\u017adzinach",
                "addr:country": "PL",
                "addr:postcode": "13-300",
                "addr:place": "Gwi\u017adziny",
                "addr:housenumber": "58",
                "addr:teryt:sym_ul": 847127,
                "contact:phone": "+48 564728839",
                "ref:regon": "368334523",
                "operator": "Gmina Nowe Miasto Lubawskie",
                "operator:type": "government",
                "amenity": "kindergarten"
            }
        },
        {
            "id": 123636,
            "type": "Feature",
            "geometry": {
                "type": "Point",
                "coordinates": [
                    19.66148,
                    53.42419
                ]
            },
            "properties": {
                "isced:level": "1;2",
                "ref:rspo": 123636,
                "official_name": "Spo\u0142eczna Szko\u0142a Podstawowa im. Janusza Korczaka w Tylicach",
                "name": "Spo\u0142eczna Szko\u0142a Podstawowa",
                "addr:country": "PL",
                "addr:postcode": "13-300",
                "addr:place": "Tylice",
                "addr:housenumber": "39",
                "addr:teryt:sym_ul": 847311,
                "contact:phone": "+48 502392313",
                "contact:email": "ssptylice@wp.pl",
                "contact:website": "https:\/\/sptylice.edupage.org\/",
                "ref:regon": "281609849",
                "operator": "Tylickie Stowarzyszenie Rozwoju",
                "operator:type": "ngo",
                "amenity": "school"
            }
        },
        {
            "id": 123915,
            "type": "Feature",
            "geometry": {
                "type": "Point",
                "coordinates": [
                    19.66148,
                    53.42416
                ]
            },
            "properties": {
                "ref:rspo": 123915,
                "official_name": "Zesp\u00f3\u0142 Wychowania Przedszkolnego w Spo\u0142ecznej Szkole Podstawowej im. Janusza Korczaka w Tylicach",
                "name": "Zesp\u00f3\u0142 Wychowania Przedszkolnego w Spo\u0142ecznej Szkole Podstawowej",
                "addr:country": "PL",
                "addr:postcode": "13-300",
                "addr:place": "Tylice",
                "addr:housenumber": "39",
                "addr:teryt:sym_ul": 847311,
                "contact:phone": "+48 518649056",
                "contact:email": "ssptylice@wp.pl",
                "ref:regon": "281614098",
                "operator": "Tylickie Stowarzyszenie Rozwoju",
                "operator:type": "ngo",
                "amenity": "kindergarten"
            }
        },
        {
            "id": 55526,
            "type": "Feature",
            "geometry": {
                "type": "Point",
                "coordinates": [
                    19.58233,
                    53.46579
                ]
            },
            "properties": {
                "ref:rspo": 55526,
                "official_name": "Zesp\u00f3\u0142 Szk\u00f3\u0142 im. Rodu Dzia\u0142y\u0144skich w Bratianie",
                "name": "Zesp\u00f3\u0142 Szk\u00f3\u0142",
                "addr:country": "PL",
                "addr:postcode": "13-300",
                "addr:city": "Bratian",
                "addr:street": "ul. Szkolna",
                "addr:housenumber": "2",
                "addr:teryt:simc": 21970,
                "addr:teryt:sym_ul": 847073,
                "contact:phone": "+48 564721925",
                "contact:email": "zsbratian@gminanml.pl",
                "contact:website": "http:\/\/www.zsbratian.edupage.org",
                "ref:regon": "519488126",
                "ref:vatin": "PL8771456920",
                "operator": "Gmina Nowe Miasto Lubawskie",
                "operator:type": "government",
                "landuse": "education",
                "fixme": "amenity=school, amenity=college albo landuse=education w zale\u017cno\u015bci od tego, jakie plac\u00f3wki wchodz\u0105 w sk\u0142ad zespo\u0142u. Sprawd\u017a, kiedy stosowa\u0107 amenity=* a kiedy landuse=education.",
                "note": "Children RSPO: 71011;119427;119472"
            }
        },
        {
            "id": 71011,
            "type": "Feature",
            "geometry": {
                "type": "Point",
                "coordinates": [
                    19.58233,
                    53.465759999999996
                ]
            },
            "properties": {
                "isced:level": "1;2",
                "ref:rspo": 71011,
                "official_name": "Szko\u0142a Podstawowa w Zespole Szk\u00f3\u0142 im. Rodu Dzia\u0142y\u0144skich w Bratianie",
                "name": "Szko\u0142a Podstawowa w Zespole Szk\u00f3\u0142",
                "addr:country": "PL",
                "addr:postcode": "13-300",
                "addr:city": "Bratian",
                "addr:street": "ul. Szkolna",
                "addr:housenumber": "2",
                "addr:teryt:simc": 21970,
                "addr:teryt:sym_ul": 847073,
                "contact:phone": "+48 564721925",
                "contact:email": "zsbratian@gminanml.pl",
                "contact:website": "http:\/\/zsbratian.edupage.org.pl",
                "ref:regon": "000598291",
                "operator": "Gmina Nowe Miasto Lubawskie",
                "operator:type": "government",
                "amenity": "school",
                "note": "Parent RSPO: 55526"
            }
        },
        {
            "id": 119427,
            "type": "Feature",
            "geometry": {
                "type": "Point",
                "coordinates": [
                    19.58233,
                    53.46573
                ]
            },
            "properties": {
                "ref:rspo": 119427,
                "official_name": "Publiczne Przedszkole w Bratianie",
                "name": "Publiczne Przedszkole w Bratianie",
                "addr:country": "PL",
                "addr:postcode": "13-300",
                "addr:city": "Bratian",
                "addr:street": "ul. Szkolna",
                "addr:housenumber": "2",
                "addr:teryt:simc": 21970,
                "addr:teryt:sym_ul": 847073,
                "contact:phone": "+48 564721925",
                "contact:email": "zsbratian@gminanml.pl",
                "contact:website": "http:\/\/zsbratian.edupage.org.pl",
                "ref:regon": "281527821",
                "operator": "Gmina Nowe Miasto Lubawskie",
                "operator:type": "government",
                "amenity": "kindergarten",
                "note": "Parent RSPO: 55526"
            }
        },
        {
            "id": 119472,
            "type": "Feature",
            "geometry": {
                "type": "Point",
                "coordinates": [
                    19.58233,
                    53.4657
                ]
            },
            "properties": {
                "ref:rspo": 119472,
                "official_name": "Zesp\u00f3\u0142 Wychowania Przedszkolnego w Bratianie",
                "name": "Zesp\u00f3\u0142 Wychowania Przedszkolnego w Bratianie",
                "addr:country": "PL",
                "addr:postcode": "13-300",
                "addr:city": "Bratian",
                "addr:street": "ul. Szkolna",
                "addr:housenumber": "2",
                "addr:teryt:simc": 21970,
                "addr:teryt:sym_ul": 847073,
                "contact:phone": "+48 564721925",
                "contact:email": "zsbratian@gminanml.pl",
                "contact:website": "http:\/\/zsbratian.edupage.org.pl",
                "ref:regon": "281527873",
                "operator": "Gmina Nowe Miasto Lubawskie",
                "operator:type": "government",
                "amenity": "kindergarten",
                "note": "Parent RSPO: 55526"
            }
        },
        {
            "id": 30480,
            "type": "Feature",
            "geometry": {
                "type": "Point",
                "coordinates": [
                    19.4762,
                    53.46605
                ]
            },
            "properties": {
                "isced:level": "1;2",
                "ref:rspo": 30480,
                "official_name": "Szko\u0142a Podstawowa w Skarlinie",
                "name": "Szko\u0142a Podstawowa w Skarlinie",
                "addr:country": "PL",
                "addr:postcode": "13-300",
                "addr:place": "Skarlin",
                "addr:housenumber": "72",
                "addr:teryt:sym_ul": 847305,
                "contact:phone": "+48 564745508",
                "contact:email": "spskarlin@gminanml.pl",
                "contact:website": "http:\/\/wwww.spskarlin.edupage.org",
                "ref:regon": "001212945",
                "ref:vatin": "PL8771456966",
                "operator": "Gmina Nowe Miasto Lubawskie",
                "operator:type": "government",
                "amenity": "school"
            }
        },
        {
            "id": 30367,
            "type": "Feature",
            "geometry": {
                "type": "Point",
                "coordinates": [
                    19.57,
                    53.50944
                ]
            },
            "properties": {
                "ref:rspo": 30367,
                "official_name": "Niepubliczne Przedszkole \"Magiczna Akademia\"",
                "name": "Niepubliczne Przedszkole \"Magiczna Akademia\"",
                "addr:country": "PL",
                "addr:postcode": "13-304",
                "addr:place": "Radomno",
                "addr:housenumber": "17",
                "addr:teryt:sym_ul": 847280,
                "contact:phone": "+48 785986568",
                "contact:email": "biankopo.biuro@gmail.com",
                "contact:website": "http:\/\/www.bajkowe-przedszkole.ilawa.pl",
                "ref:regon": "281435970",
                "ref:vatin": "PL8771181736",
                "operator": "Marian Pokojski",
                "operator:type": "private",
                "amenity": "kindergarten"
            }
        },
        {
            "id": 30479,
            "type": "Feature",
            "geometry": {
                "type": "Point",
                "coordinates": [
                    19.57,
                    53.509409999999995
                ]
            },
            "properties": {
                "isced:level": "1;2",
                "ref:rspo": 30479,
                "official_name": "Szko\u0142a Podstawowa w Radomnie",
                "name": "Szko\u0142a Podstawowa w Radomnie",
                "addr:country": "PL",
                "addr:postcode": "13-304",
                "addr:place": "Radomno",
                "addr:housenumber": "17",
                "addr:teryt:sym_ul": 847280,
                "contact:phone": "+48 564721625",
                "contact:email": "spradomno@gminanml.pl",
                "contact:website": "http:\/\/www.spradomno.edupage.org",
                "ref:regon": "001212951",
                "ref:vatin": "PL8771456937",
                "operator": "Gmina Nowe Miasto Lubawskie",
                "operator:type": "government",
                "amenity": "school"
            }
        },
        {
            "id": 57636,
            "type": "Feature",
            "geometry": {
                "type": "Point",
                "coordinates": [
                    19.5084899,
                    53.52624
                ]
            },
            "properties": {
                "isced:level": "1;2",
                "ref:rspo": 57636,
                "official_name": "Szko\u0142a Podstawowa im. Jana Paw\u0142a II w Jamielniku",
                "name": "Szko\u0142a Podstawowa",
                "addr:country": "PL",
                "addr:postcode": "13-332",
                "addr:city": "Jamielnik",
                "addr:street": "ul. Szkolna",
                "addr:housenumber": "10",
                "addr:teryt:simc": 21970,
                "addr:teryt:sym_ul": 847140,
                "contact:phone": "+48 564721726",
                "contact:email": "zsjamielnik@gminanml.pl",
                "contact:website": "http:\/\/www.spjamielnik.edupage.org",
                "ref:regon": "001212939",
                "ref:vatin": "PL8771456943",
                "operator": "Gmina Nowe Miasto Lubawskie",
                "operator:type": "government",
                "amenity": "school"
            }
        },
        {
            "id": 119473,
            "type": "Feature",
            "geometry": {
                "type": "Point",
                "coordinates": [
                    19.5084899,
                    53.52621
                ]
            },
            "properties": {
                "ref:rspo": 119473,
                "official_name": "Zesp\u00f3\u0142 Wychowania Przedszkolnego w Jamielniku",
                "name": "Zesp\u00f3\u0142 Wychowania Przedszkolnego w Jamielniku",
                "addr:country": "PL",
                "addr:postcode": "13-332",
                "addr:city": "Jamielnik",
                "addr:street": "ul. Szkolna",
                "addr:housenumber": "10",
                "addr:teryt:simc": 21970,
                "addr:teryt:sym_ul": 847140,
                "contact:phone": "+48 564721726",
                "ref:regon": "281527880",
                "operator": "Gmina Nowe Miasto Lubawskie",
                "operator:type": "government",
                "amenity": "kindergarten"
            }
        }
    ]
}