{"type":"FeatureCollection","features":[{"id":24999,"type":"Feature","geometry":{"type":"Point","coordinates":[19.56684,53.34251]},"properties":{"isced:level":"1;2","ref:rspo":24999,"official_name":"Szko\u0142a Podstawowa im. Or\u0142a Bia\u0142ego w Brzoziu Lubawskim","name":"Szko\u0142a Podstawowa","addr:country":"PL","addr:postcode":"13-306","addr:place":"Brzozie Lubawskie","addr:housenumber":"43a","addr:teryt:sym_ul":845571,"contact:phone":"+48 564728244","contact:email":"spbrzozielubawskie@wp.pl","contact:website":"https:\/\/spbrzozielub.edupage.org\/","ref:regon":"001212320","ref:vatin":"PL8771457078","operator":"Gmina Kurz\u0119tnik","operator:type":"government","amenity":"school"}},{"id":25001,"type":"Feature","geometry":{"type":"Point","coordinates":[19.47031,53.38587]},"properties":{"isced:level":"1;2","ref:rspo":25001,"official_name":"Szko\u0142a Podstawowa im. Kawaler\u00f3w Orderu U\u015bmiechu w Tereszewie","name":"Szko\u0142a Podstawowa","addr:country":"PL","addr:postcode":"13-306","addr:place":"Tereszewo","addr:housenumber":"9a","addr:teryt:sym_ul":845884,"contact:phone":"+48 564740398","contact:email":"sptereszewo@wp.pl","contact:website":"http:\/\/sptereszewo.pl","ref:regon":"001212342","ref:vatin":"PL8771456848","operator":"Gmina Kurz\u0119tnik","operator:type":"government","amenity":"school"}},{"id":267653,"type":"Feature","geometry":{"type":"Point","coordinates":[19.5731,53.39744]},"properties":{"ref:rspo":267653,"official_name":"Przedszkole ,,Kogucik\"","name":"Przedszkole ,,Kogucik\"","addr:country":"PL","addr:postcode":"13-306","addr:city":"Kurz\u0119tnik","addr:street":"ul. Tadeusza Ko\u015bciuszki","addr:housenumber":"36","addr:teryt:simc":9582,"addr:teryt:sym_ul":845654,"contact:phone":"+48 566498723","contact:email":"dyrekcja@zlobek-kurzetnik.pl","contact:website":"http:\/\/www.zlobek-kurzetnik.pl","ref:regon":"380469930","operator":"Gmina Kurz\u0119tnik","operator:type":"government","amenity":"kindergarten"}},{"id":8067,"type":"Feature","geometry":{"type":"Point","coordinates":[19.58104,53.39955]},"properties":{"ref:rspo":8067,"official_name":"Zesp\u00f3\u0142 Szk\u00f3\u0142 Zawodowych w Kurz\u0119tniku","name":"Zesp\u00f3\u0142 Szk\u00f3\u0142 Zawodowych w Kurz\u0119tniku","addr:country":"PL","addr:postcode":"13-306","addr:city":"Kurz\u0119tnik","addr:street":"ul. Grunwaldzka","addr:housenumber":"49","addr:teryt:simc":6260,"addr:teryt:sym_ul":845654,"contact:phone":"+48 564742887","contact:email":"sekretariat@zszkurzetnik.pl","contact:website":"http:\/\/www.zszkurzetnik.pl","ref:regon":"519457404","ref:vatin":"PL8771002076","operator":"Powiat Nowomiejski","operator:type":"government","landuse":"education","fixme":"amenity=school, amenity=college albo landuse=education w zale\u017cno\u015bci od tego, jakie plac\u00f3wki wchodz\u0105 w sk\u0142ad zespo\u0142u. Sprawd\u017a, kiedy stosowa\u0107 amenity=* a kiedy landuse=education.","note":"Children RSPO: 10409;10410;10421"}},{"id":10409,"type":"Feature","geometry":{"type":"Point","coordinates":[19.58104,53.399519999999995]},"properties":{"isced:level":"4","ref:rspo":10409,"official_name":"Szko\u0142a Policealna im. Noblist\u00f3w Polskich","name":"Szko\u0142a Policealna","addr:country":"PL","addr:postcode":"13-306","addr:city":"Kurz\u0119tnik","addr:street":"ul. Grunwaldzka","addr:housenumber":"49","addr:teryt:simc":6260,"addr:teryt:sym_ul":845654,"contact:phone":"+48 564742887","contact:email":"sekretariat@zszkurzetnik.pl","contact:website":"http:\/\/www.zszkurzetnik.pl","ref:regon":"519559139","operator":"Powiat Nowomiejski","operator:type":"government","amenity":"college","note":"Parent RSPO: 8067"}},{"id":10410,"type":"Feature","geometry":{"type":"Point","coordinates":[19.58104,53.39949]},"properties":{"isced:level":"3","ref:rspo":10410,"official_name":"Bran\u017cowa Szko\u0142a I Stopnia im. Noblist\u00f3w Polskich w Kurz\u0119tniku","name":"Bran\u017cowa Szko\u0142a I Stopnia","addr:country":"PL","addr:postcode":"13-306","addr:city":"Kurz\u0119tnik","addr:street":"ul. Grunwaldzka","addr:housenumber":"49","addr:teryt:simc":6260,"addr:teryt:sym_ul":845654,"contact:phone":"+48 564742887","contact:email":"sekretariat@zszkurzetnik.pl","contact:website":"http:\/\/www.zszkurzetnik.pl","ref:regon":"519576340","operator":"Powiat Nowomiejski","operator:type":"government","amenity":"school","note":"Parent RSPO: 8067"}},{"id":10421,"type":"Feature","geometry":{"type":"Point","coordinates":[19.58104,53.39946]},"properties":{"isced:level":"3","ref:rspo":10421,"official_name":"Technikum im. Noblist\u00f3w Polskich","name":"Technikum","addr:country":"PL","addr:postcode":"13-306","addr:city":"Kurz\u0119tnik","addr:street":"ul. Grunwaldzka","addr:housenumber":"49","addr:teryt:simc":6260,"addr:teryt:sym_ul":845654,"contact:phone":"+48 564742887","contact:email":"sekretariat@zszkurzetnik.pl","contact:website":"http:\/\/www.zszkurzetnik.pl","ref:regon":"519637365","operator":"Powiat Nowomiejski","operator:type":"government","amenity":"school","note":"Parent RSPO: 8067"}},{"id":25002,"type":"Feature","geometry":{"type":"Point","coordinates":[19.58256,53.40075]},"properties":{"ref:rspo":25002,"official_name":"Zesp\u00f3\u0142 Szk\u00f3\u0142 im. W\u0142adys\u0142awa Jagie\u0142\u0142y w Kurz\u0119tniku","name":"Zesp\u00f3\u0142 Szk\u00f3\u0142","addr:country":"PL","addr:postcode":"13-306","addr:city":"Kurz\u0119tnik","addr:street":"ul. Grunwaldzka","addr:housenumber":"37","addr:teryt:simc":6260,"addr:teryt:sym_ul":845654,"contact:phone":"+48 564740985","contact:email":"zskurzetnik@wp.pl","contact:website":"http:\/\/zskurzetnik.pl","ref:regon":"870497550","ref:vatin":"PL8771456831","operator":"Gmina Kurz\u0119tnik","operator:type":"government","landuse":"education","fixme":"amenity=school, amenity=college albo landuse=education w zale\u017cno\u015bci od tego, jakie plac\u00f3wki wchodz\u0105 w sk\u0142ad zespo\u0142u. Sprawd\u017a, kiedy stosowa\u0107 amenity=* a kiedy landuse=education.","note":"Children RSPO: 72225;72226"}},{"id":72225,"type":"Feature","geometry":{"type":"Point","coordinates":[19.58256,53.40072]},"properties":{"ref:rspo":72225,"official_name":"Przedszkole w Zespole Szk\u00f3\u0142 im. W\u0142adys\u0142awa Jagie\u0142\u0142y w Kurz\u0119tniku","name":"Przedszkole w Zespole Szk\u00f3\u0142","addr:country":"PL","addr:postcode":"13-306","addr:city":"Kurz\u0119tnik","addr:street":"ul. Grunwaldzka","addr:housenumber":"37","addr:teryt:simc":6260,"addr:teryt:sym_ul":845654,"contact:phone":"+48 564740985","contact:email":"zskurzetnik@wp.pl","contact:website":"http:\/\/zskurzetnik.pl","ref:regon":"519591580","ref:vatin":"PL8771456831","operator":"Gmina Kurz\u0119tnik","operator:type":"government","amenity":"kindergarten","note":"Parent RSPO: 25002"}},{"id":72226,"type":"Feature","geometry":{"type":"Point","coordinates":[19.58256,53.400690000000004]},"properties":{"isced:level":"1;2","ref:rspo":72226,"official_name":"Szko\u0142a Podstawowa w Zespole Szk\u00f3\u0142 im. W\u0142adys\u0142awa Jagie\u0142\u0142y w Kurz\u0119tniku","name":"Szko\u0142a Podstawowa w Zespole Szk\u00f3\u0142","addr:country":"PL","addr:postcode":"13-306","addr:city":"Kurz\u0119tnik","addr:street":"ul. Grunwaldzka","addr:housenumber":"37","addr:teryt:simc":6260,"addr:teryt:sym_ul":845654,"contact:phone":"+48 564740985","contact:email":"zskurzetnik@wp.pl","contact:website":"http:\/\/zskurzetnik.pl","ref:regon":"519591597","ref:vatin":"PL8771456831","operator":"Gmina Kurz\u0119tnik","operator:type":"government","amenity":"school","note":"Parent RSPO: 25002"}},{"id":59104,"type":"Feature","geometry":{"type":"Point","coordinates":[19.53756,53.43009]},"properties":{"isced:level":"1;2","ref:rspo":59104,"official_name":"Szko\u0142a Podstawowa im. Przyjaci\u00f3\u0142 Ziemi w Marz\u0119cicach","name":"Szko\u0142a Podstawowa","addr:country":"PL","addr:postcode":"13-306","addr:city":"Marz\u0119cice","addr:street":"ul. Szkolna","addr:housenumber":"21","addr:teryt:simc":21970,"addr:teryt:sym_ul":845766,"contact:phone":"+48 564740497","contact:email":"szkolamarzecice@wp.pl","contact:website":"http:\/\/spmarzecice.pl","ref:regon":"001271787","ref:vatin":"PL8771456765","operator":"Gmina Kurz\u0119tnik","operator:type":"government","amenity":"school"}}]}