{
    "type": "FeatureCollection",
    "features": [
        {
            "id": 112025,
            "type": "Feature",
            "geometry": {
                "type": "Point",
                "coordinates": [
                    22.40505,
                    49.46187
                ]
            },
            "properties": {
                "ref:rspo": 112025,
                "official_name": "Zesp\u00f3\u0142 Szk\u00f3\u0142 Publicznych w Uhercach Mineralnych",
                "name": "Zesp\u00f3\u0142 Szk\u00f3\u0142 Publicznych w Uhercach Mineralnych",
                "addr:postcode": "38-623",
                "addr:place": "Uherce Mineralne",
                "addr:housenumber": "150",
                "addr:teryt:simc": 358440,
                "phone": "+48 134911392",
                "email": "zspuherce@wp.pl",
                "website": "http:\/\/zspuherce.szkolna.net\/",
                "ref:regon": "371102078",
                "ref:vatin": "PL6881236555",
                "operator": "Gmina Olszanica",
                "operator:type": "government",
                "landuse": "education",
                "fixme": "amenity=school, amenity=college albo landuse=education w zale\u017cno\u015bci od tego, jakie plac\u00f3wki wchodz\u0105 w sk\u0142ad zespo\u0142u. Sprawd\u017a, kiedy stosowa\u0107 amenity=* a kiedy landuse=education.",
                "note": "Children RSPO: 118740;118742"
            }
        },
        {
            "id": 118740,
            "type": "Feature",
            "geometry": {
                "type": "Point",
                "coordinates": [
                    22.40505,
                    49.461839999999995
                ]
            },
            "properties": {
                "isced:level": "1;2",
                "ref:rspo": 118740,
                "official_name": "Szko\u0142a Podstawowa im. Or\u0142a Bia\u0142ego w Uhercach Mineralnych",
                "name": "Szko\u0142a Podstawowa",
                "addr:postcode": "38-623",
                "addr:place": "Uherce Mineralne",
                "addr:housenumber": "150",
                "addr:teryt:simc": 358440,
                "phone": "+48 134911392",
                "email": "zspuherce@wp.pl",
                "website": "http:\/\/zspuherce.szkolna.net",
                "ref:regon": "001214430",
                "operator": "Gmina Olszanica",
                "operator:type": "government",
                "amenity": "school",
                "note": "Parent RSPO: 112025"
            }
        },
        {
            "id": 118742,
            "type": "Feature",
            "geometry": {
                "type": "Point",
                "coordinates": [
                    22.40505,
                    49.46181
                ]
            },
            "properties": {
                "ref:rspo": 118742,
                "official_name": "Publiczne Przedszkole w Uhercach Mineralnych",
                "name": "Publiczne Przedszkole w Uhercach Mineralnych",
                "addr:postcode": "38-623",
                "addr:place": "Uherce Mineralne",
                "addr:housenumber": "150",
                "addr:teryt:simc": 358440,
                "phone": "+48 134618026",
                "email": "zspuherce@wp.pl",
                "ref:regon": "181007013",
                "operator": "Gmina Olszanica",
                "operator:type": "government",
                "amenity": "kindergarten",
                "note": "Parent RSPO: 112025"
            }
        },
        {
            "id": 268352,
            "type": "Feature",
            "geometry": {
                "type": "Point",
                "coordinates": [
                    22.43755,
                    49.4764
                ]
            },
            "properties": {
                "ref:rspo": 268352,
                "official_name": "Zesp\u00f3\u0142 Szkolno-Przedszkolny w Olszanicy",
                "name": "Zesp\u00f3\u0142 Szkolno-Przedszkolny w Olszanicy",
                "addr:postcode": "38-722",
                "addr:place": "Olszanica",
                "addr:housenumber": "20",
                "addr:teryt:simc": 358262,
                "phone": "+48 134617011",
                "email": "zspolszanica@wp.pl",
                "ref:regon": "381107889",
                "operator": "Gmina Olszanica",
                "operator:type": "government",
                "landuse": "education",
                "fixme": "amenity=school, amenity=college albo landuse=education w zale\u017cno\u015bci od tego, jakie plac\u00f3wki wchodz\u0105 w sk\u0142ad zespo\u0142u. Sprawd\u017a, kiedy stosowa\u0107 amenity=* a kiedy landuse=education.",
                "note": "Children RSPO: 118737;268449"
            }
        },
        {
            "id": 118737,
            "type": "Feature",
            "geometry": {
                "type": "Point",
                "coordinates": [
                    22.43755,
                    49.476369999999996
                ]
            },
            "properties": {
                "isced:level": "1;2",
                "ref:rspo": 118737,
                "official_name": "Szko\u0142a Podstawowa w Olszanicy",
                "name": "Szko\u0142a Podstawowa w Olszanicy",
                "addr:postcode": "38-722",
                "addr:place": "Olszanica",
                "addr:housenumber": "20",
                "addr:teryt:simc": 358262,
                "phone": "+48 134617011",
                "email": "zspolszanica@wp.pl",
                "website": "http:\/\/www.zspolszanica.szkolnastrona.pl",
                "ref:regon": "000629784",
                "operator": "Gmina Olszanica",
                "operator:type": "government",
                "amenity": "school",
                "note": "Parent RSPO: 268352"
            }
        },
        {
            "id": 268449,
            "type": "Feature",
            "geometry": {
                "type": "Point",
                "coordinates": [
                    22.43755,
                    49.47634
                ]
            },
            "properties": {
                "ref:rspo": 268449,
                "official_name": "Publiczne Przedszkole w Olszanicy",
                "name": "Publiczne Przedszkole w Olszanicy",
                "addr:postcode": "38-722",
                "addr:place": "Olszanica",
                "addr:housenumber": "20",
                "addr:teryt:simc": 358262,
                "phone": "+48 134617011",
                "email": "zspolszanica@wp.pl",
                "ref:regon": "381166716",
                "operator": "Gmina Olszanica",
                "operator:type": "government",
                "amenity": "kindergarten",
                "note": "Parent RSPO: 268352"
            }
        },
        {
            "id": 113500,
            "type": "Feature",
            "geometry": {
                "type": "Point",
                "coordinates": [
                    22.4082,
                    49.48557
                ]
            },
            "properties": {
                "ref:rspo": 113500,
                "official_name": "Niepubliczne Szkolne Schronisko M\u0142odzie\u017cowe w Rudence Zielony Cie\u0144",
                "name": "Niepubliczne Szkolne Schronisko M\u0142odzie\u017cowe w Rudence Zielony Cie\u0144",
                "addr:postcode": "38-722",
                "addr:place": "Rudenka",
                "addr:housenumber": "25",
                "addr:teryt:simc": 358374,
                "email": "schronisko.rudenka@onet.pl",
                "ref:regon": "180961518",
                "ref:vatin": "PL6881299432",
                "operator": "Stowarzyszenie \"Na Rzecz Rozwoju Szko\u0142y W Rudence\"",
                "operator:type": "ngo",
                "tourism": "hostel"
            }
        }
    ]
}