{
    "type": "FeatureCollection",
    "features": [
        {
            "id": 113538,
            "type": "Feature",
            "geometry": {
                "type": "Point",
                "coordinates": [
                    22.28746,
                    49.27241
                ]
            },
            "properties": {
                "ref:rspo": 113538,
                "official_name": "Szkolne Schronisko M\u0142odzie\u017cowe w Jab\u0142onkach Akademia Bieszczadzka",
                "name": "Szkolne Schronisko M\u0142odzie\u017cowe w Jab\u0142onkach Akademia Bieszczadzka",
                "addr:country": "PL",
                "addr:postcode": "38-606",
                "addr:place": "Jab\u0142onki",
                "addr:housenumber": "1",
                "addr:teryt:sym_ul": 344449,
                "contact:email": "jablonki1@gmail.com",
                "ref:regon": "180961642",
                "operator": "Maciej Grzegorzek",
                "operator:type": "private",
                "tourism": "hostel"
            }
        },
        {
            "id": 57589,
            "type": "Feature",
            "geometry": {
                "type": "Point",
                "coordinates": [
                    22.28912,
                    49.3373
                ]
            },
            "properties": {
                "isced:level": "1;2",
                "ref:rspo": 57589,
                "official_name": "Szko\u0142a Podstawowa im. \u015aw. Jana Paw\u0142a II w Baligrodzie",
                "name": "Szko\u0142a Podstawowa",
                "addr:country": "PL",
                "addr:postcode": "38-606",
                "addr:city": "Baligr\u00f3d",
                "addr:street": "ul. Adama Mickiewicza",
                "addr:housenumber": "1",
                "addr:teryt:simc": 12740,
                "addr:teryt:sym_ul": 344403,
                "contact:phone": "+48 134684103",
                "contact:email": "spbaligrod@op.pl",
                "ref:regon": "001200876",
                "ref:vatin": "PL6881129687",
                "operator": "Gmina Baligr\u00f3d",
                "operator:type": "government",
                "amenity": "school"
            }
        },
        {
            "id": 274290,
            "type": "Feature",
            "geometry": {
                "type": "Point",
                "coordinates": [
                    22.28742,
                    49.34427
                ]
            },
            "properties": {
                "ref:rspo": 274290,
                "official_name": "Niepubliczna Plac\u00f3wka Doskonalenia Nauczycieli Puzzle - Dopasowane Szkolenia",
                "name": "Niepubliczna Plac\u00f3wka Doskonalenia Nauczycieli Puzzle - Dopasowane Szkolenia",
                "addr:country": "PL",
                "addr:postcode": "38-606",
                "addr:city": "Baligr\u00f3d",
                "addr:street": "ul. Kazimierza Wielkiego",
                "addr:housenumber": "45",
                "addr:door": "3",
                "addr:teryt:simc": 8265,
                "addr:teryt:sym_ul": 344403,
                "contact:email": "katarzyna0507@gmail.com",
                "ref:regon": "385530426",
                "operator": "Katarzyna Kusi\u0144ska",
                "operator:type": "private",
                "amenity": "training"
            }
        },
        {
            "id": 57592,
            "type": "Feature",
            "geometry": {
                "type": "Point",
                "coordinates": [
                    22.28034,
                    49.35637
                ]
            },
            "properties": {
                "isced:level": "1;2",
                "ref:rspo": 57592,
                "official_name": "Niepubliczna Szko\u0142a Podstawowa w Mchawie im. B\u0142. Edmunda Bojanowskiego",
                "name": "Niepubliczna Szko\u0142a Podstawowa w Mchawie",
                "addr:country": "PL",
                "addr:postcode": "38-606",
                "addr:place": "Mchawa",
                "addr:housenumber": "37",
                "addr:teryt:sym_ul": 344461,
                "contact:phone": "+48 134684029",
                "contact:email": "szkola.mchawa@vp.pl",
                "ref:regon": "180907588",
                "ref:vatin": "PL6881258284",
                "operator": "Stowarzyszenie \"Nasza Szko\u0142a\" W Mchawie",
                "operator:type": "ngo",
                "amenity": "school"
            }
        },
        {
            "id": 268179,
            "type": "Feature",
            "geometry": {
                "type": "Point",
                "coordinates": [
                    22.28034,
                    49.356339999999996
                ]
            },
            "properties": {
                "ref:rspo": 268179,
                "official_name": "Szkolne Schronisko M\u0142odzie\u017cowe w Mchawie",
                "name": "Szkolne Schronisko M\u0142odzie\u017cowe w Mchawie",
                "addr:country": "PL",
                "addr:postcode": "38-606",
                "addr:place": "Mchawa",
                "addr:housenumber": "37",
                "addr:teryt:sym_ul": 344461,
                "contact:phone": "+48 134684029",
                "contact:email": "kontakt@stowarzyszeniemchawa.pl",
                "ref:regon": "381004913",
                "ref:vatin": "PL6881302281",
                "operator": "Stowarzyszenie \"Nasza Szko\u0142a\" W Mchawie",
                "operator:type": "ngo",
                "tourism": "hostel"
            }
        },
        {
            "id": 5389,
            "type": "Feature",
            "geometry": {
                "type": "Point",
                "coordinates": [
                    22.2878864,
                    49.387908
                ]
            },
            "properties": {
                "isced:level": "1;2",
                "ref:rspo": 5389,
                "official_name": "Niepubliczna Szko\u0142a Podstawowa w Nowosi\u00f3\u0142kach",
                "name": "Niepubliczna Szko\u0142a Podstawowa w Nowosi\u00f3\u0142kach",
                "addr:country": "PL",
                "addr:postcode": "38-604",
                "addr:place": "Nowosi\u00f3\u0142ki",
                "addr:housenumber": "3",
                "addr:teryt:sym_ul": 344490,
                "contact:phone": "+48 134694228",
                "contact:email": "nspnowo@wp.pl",
                "ref:regon": "180880180",
                "ref:vatin": "PL6881299202",
                "operator": "\"Stowarzyszenie Nasze Dzieci\"",
                "operator:type": "ngo",
                "amenity": "school"
            }
        }
    ]
}