{
    "type": "FeatureCollection",
    "features": [
        {
            "id": 115042,
            "type": "Feature",
            "geometry": {
                "type": "Point",
                "coordinates": [
                    22.38374,
                    49.32849
                ]
            },
            "properties": {
                "ref:rspo": 115042,
                "official_name": "Szkolne Schronisko M\u0142odzie\u017cowe w G\u00f3rzance",
                "name": "Szkolne Schronisko M\u0142odzie\u017cowe w G\u00f3rzance",
                "addr:postcode": "38-610",
                "addr:place": "G\u00f3rzanka",
                "addr:housenumber": "39",
                "addr:teryt:simc": 360543,
                "phone": "+48 601313386",
                "ref:regon": "370389250",
                "operator": "Gmina Solina",
                "operator:type": "government",
                "tourism": "hostel",
                "note": "Parent RSPO: 272049"
            }
        },
        {
            "id": 272049,
            "type": "Feature",
            "geometry": {
                "type": "Point",
                "coordinates": [
                    22.40533,
                    49.33372
                ]
            },
            "properties": {
                "ref:rspo": 272049,
                "official_name": "Zesp\u00f3\u0142 Szk\u00f3\u0142 I Plac\u00f3wek w Wo\u0142kowyi",
                "name": "Zesp\u00f3\u0142 Szk\u00f3\u0142 I Plac\u00f3wek w Wo\u0142kowyi",
                "addr:postcode": "38-610",
                "addr:city": "Wo\u0142kowyja",
                "addr:street": "Szkolna",
                "addr:housenumber": "7",
                "addr:teryt:simc": 360690,
                "addr:teryt:sym_ul": 21970,
                "phone": "+48 134692532",
                "email": "zs.wolkowyja@gmail.com",
                "website": "http:\/\/zswolkowyja.pl",
                "ref:regon": "383894897",
                "ref:vatin": "PL6881303174",
                "operator": "Gmina Solina",
                "operator:type": "government",
                "landuse": "education",
                "fixme": "amenity=school, amenity=college albo landuse=education w zale\u017cno\u015bci od tego, jakie plac\u00f3wki wchodz\u0105 w sk\u0142ad zespo\u0142u. Sprawd\u017a, kiedy stosowa\u0107 amenity=* a kiedy landuse=education.",
                "note": "Children RSPO: 115038;115042"
            }
        },
        {
            "id": 115038,
            "type": "Feature",
            "geometry": {
                "type": "Point",
                "coordinates": [
                    22.40533,
                    49.33369
                ]
            },
            "properties": {
                "isced:level": "1;2",
                "ref:rspo": 115038,
                "official_name": "Szko\u0142a Podstawowa w Wo\u0142kowyi",
                "name": "Szko\u0142a Podstawowa w Wo\u0142kowyi",
                "addr:postcode": "38-610",
                "addr:city": "Wo\u0142kowyja",
                "addr:street": "Szkolna",
                "addr:housenumber": "7",
                "addr:teryt:simc": 360690,
                "addr:teryt:sym_ul": 21970,
                "phone": "+48 134692532",
                "email": "zs.wolkowyja@gmail.com",
                "website": "http:\/\/zswolkowyja.pl\/",
                "ref:regon": "000741297",
                "operator": "Gmina Solina",
                "operator:type": "government",
                "amenity": "school",
                "note": "Parent RSPO: 272049"
            }
        },
        {
            "id": 114949,
            "type": "Feature",
            "geometry": {
                "type": "Point",
                "coordinates": [
                    22.44284,
                    49.33553
                ]
            },
            "properties": {
                "isced:level": "1;2",
                "ref:rspo": 114949,
                "official_name": "Szko\u0142a Podstawowa w Zawozie",
                "name": "Szko\u0142a Podstawowa w Zawozie",
                "addr:postcode": "38-610",
                "addr:place": "Zaw\u00f3z",
                "addr:housenumber": "65",
                "addr:teryt:simc": 360721,
                "phone": "+48 134692502",
                "email": "spzawoz@wp.pl",
                "ref:regon": "001231581",
                "ref:vatin": "PL6881224486",
                "operator": "Gmina Solina",
                "operator:type": "government",
                "amenity": "school"
            }
        },
        {
            "id": 277921,
            "type": "Feature",
            "geometry": {
                "type": "Point",
                "coordinates": [
                    22.4172,
                    49.37363
                ]
            },
            "properties": {
                "ref:rspo": 277921,
                "official_name": "Zesp\u00f3\u0142 Szkolno-Przedszkolny w Myczkowie",
                "name": "Zesp\u00f3\u0142 Szkolno-Przedszkolny w Myczkowie",
                "addr:postcode": "38-610",
                "addr:place": "Myczk\u00f3w",
                "addr:housenumber": "109",
                "addr:teryt:simc": 360572,
                "phone": "+48 134692005",
                "email": "zsmyczkow@op.pl",
                "website": "http:\/\/zsmyczkow.edupage.org",
                "ref:regon": "389663220",
                "operator": "Gmina Solina",
                "operator:type": "government",
                "landuse": "education",
                "fixme": "amenity=school, amenity=college albo landuse=education w zale\u017cno\u015bci od tego, jakie plac\u00f3wki wchodz\u0105 w sk\u0142ad zespo\u0142u. Sprawd\u017a, kiedy stosowa\u0107 amenity=* a kiedy landuse=education.",
                "note": "Children RSPO: 115031;277652"
            }
        },
        {
            "id": 115031,
            "type": "Feature",
            "geometry": {
                "type": "Point",
                "coordinates": [
                    22.4172,
                    49.373599999999996
                ]
            },
            "properties": {
                "isced:level": "1;2",
                "ref:rspo": 115031,
                "official_name": "Szko\u0142a Podstawowa w Myczkowie",
                "name": "Szko\u0142a Podstawowa w Myczkowie",
                "addr:postcode": "38-610",
                "addr:place": "Myczk\u00f3w",
                "addr:housenumber": "109",
                "addr:teryt:simc": 360572,
                "phone": "+48 134692005",
                "ref:regon": "001214105",
                "operator": "Gmina Solina",
                "operator:type": "government",
                "amenity": "school",
                "note": "Parent RSPO: 277921"
            }
        },
        {
            "id": 269060,
            "type": "Feature",
            "geometry": {
                "type": "Point",
                "coordinates": [
                    22.41327,
                    49.37829
                ]
            },
            "properties": {
                "ref:rspo": 269060,
                "official_name": "Edumed Podkarpackie Centrum Us\u0142ug Edukacyjnych I Medycznych Kulawiuk Rodzo\u0144 Sp. Jawna",
                "name": "Edumed Podkarpackie Centrum Us\u0142ug Edukacyjnych I Medycznych Kulawiuk Rodzo\u0144 Sp. Jawna",
                "addr:postcode": "38-610",
                "addr:place": "Myczk\u00f3w",
                "addr:housenumber": "51",
                "addr:teryt:simc": 360572,
                "email": "biuro@pcuedumed.pl",
                "ref:regon": "381348765",
                "operator": "Edumed Podkarpackie Centrum Us\u0142ug Edukacyjnych I Medycznych Kulawiuk, Rodzon Sp\u00f3\u0142ka Jawna",
                "operator:type": "private",
                "healthcare": "counselling",
                "counselling_type": "education",
                "fixme": "w zale\u017cno\u015bci od przedmiotu dzia\u0142alno\u015bci (np. healthcare=counselling + counselling_type=education albo healthcare=psychotherapist)"
            }
        },
        {
            "id": 277652,
            "type": "Feature",
            "geometry": {
                "type": "Point",
                "coordinates": [
                    22.40973,
                    49.3815
                ]
            },
            "properties": {
                "ref:rspo": 277652,
                "official_name": "Publiczne Przedszkole w Myczkowie",
                "name": "Publiczne Przedszkole w Myczkowie",
                "addr:postcode": "38-610",
                "addr:place": "Myczk\u00f3w",
                "addr:housenumber": "29",
                "addr:teryt:simc": 360572,
                "phone": "+48 134692005",
                "email": "zsmyczkow@op.pl",
                "ref:regon": "389255738",
                "operator": "Gmina Solina",
                "operator:type": "government",
                "amenity": "kindergarten",
                "note": "Parent RSPO: 277921"
            }
        },
        {
            "id": 114947,
            "type": "Feature",
            "geometry": {
                "type": "Point",
                "coordinates": [
                    22.38672,
                    49.39072
                ]
            },
            "properties": {
                "isced:level": "1;2",
                "ref:rspo": 114947,
                "official_name": "Szko\u0142a Podstawowa w Berezce",
                "name": "Szko\u0142a Podstawowa w Berezce",
                "addr:postcode": "38-610",
                "addr:place": "Berezka",
                "addr:housenumber": "18",
                "addr:teryt:simc": 360483,
                "phone": "+48 134692053",
                "email": "spberezka@poczta.onet.pl",
                "website": "http:\/\/www.spberezka.edupage.org",
                "ref:regon": "001214128",
                "ref:vatin": "PL6881224546",
                "operator": "Gmina Solina",
                "operator:type": "government",
                "amenity": "school"
            }
        },
        {
            "id": 115043,
            "type": "Feature",
            "geometry": {
                "type": "Point",
                "coordinates": [
                    22.44915,
                    49.41551
                ]
            },
            "properties": {
                "isced:level": "1;2",
                "ref:rspo": 115043,
                "official_name": "Szko\u0142a Podstawowa w B\u00f3brce",
                "name": "Szko\u0142a Podstawowa w B\u00f3brce",
                "addr:postcode": "38-623",
                "addr:place": "B\u00f3brka",
                "addr:housenumber": "50",
                "addr:teryt:simc": 360508,
                "phone": "+48 134691861",
                "email": "zsbobrka@wp.pl",
                "website": "http:\/\/www.zsbobrka.szkolnastrona.pl",
                "ref:regon": "001214111",
                "operator": "Gmina Solina",
                "operator:type": "government",
                "amenity": "school"
            }
        },
        {
            "id": 114948,
            "type": "Feature",
            "geometry": {
                "type": "Point",
                "coordinates": [
                    22.4152099,
                    49.43302
                ]
            },
            "properties": {
                "isced:level": "1;2",
                "ref:rspo": 114948,
                "official_name": "Szko\u0142a Podstawowa w Myczkowcach",
                "name": "Szko\u0142a Podstawowa w Myczkowcach",
                "addr:postcode": "38-623",
                "addr:place": "Myczkowce",
                "addr:housenumber": "89",
                "addr:teryt:simc": 360550,
                "phone": "+48 134618019",
                "email": "szkolamyczkowce@wp.pl",
                "ref:regon": "001214097",
                "ref:vatin": "PL6881224492",
                "operator": "Gmina Solina",
                "operator:type": "government",
                "amenity": "school"
            }
        },
        {
            "id": 272048,
            "type": "Feature",
            "geometry": {
                "type": "Point",
                "coordinates": [
                    22.325010299683,
                    49.473720550537
                ]
            },
            "properties": {
                "ref:rspo": 272048,
                "official_name": "Publiczne Przedszkole w Bukowcu",
                "name": "Publiczne Przedszkole w Bukowcu",
                "addr:postcode": "38-610",
                "addr:place": "Bukowiec",
                "addr:housenumber": "37",
                "addr:teryt:simc": 360537,
                "phone": "+48 134703686",
                "email": "przedszkolebukowiec@gmail.com",
                "ref:regon": "383894851",
                "ref:vatin": "PL6881303180",
                "operator": "Gmina Solina",
                "operator:type": "government",
                "amenity": "kindergarten"
            }
        }
    ]
}