{
    "type": "FeatureCollection",
    "features": [
        {
            "id": 12110,
            "type": "Feature",
            "geometry": {
                "type": "Point",
                "coordinates": [
                    14.9976575,
                    52.4396391
                ]
            },
            "properties": {
                "isced:level": "1;2",
                "ref:rspo": 12110,
                "official_name": "Szko\u0142a Podstawowa w Smog\u00f3rach",
                "name": "Szko\u0142a Podstawowa w Smog\u00f3rach",
                "addr:postcode": "69-220",
                "addr:place": "Smog\u00f3ry",
                "addr:housenumber": "10",
                "addr:city:simc": 185413,
                "phone": "+48 957571352",
                "email": "sp_smogory@wp.pl",
                "website": "http:\/\/www.szkolasmogory.com.pl",
                "ref:regon": "210307026",
                "ref:vatin": "PL5981489999",
                "operator": "Gmina O\u015bno Lubuskie",
                "operator:type": "government",
                "amenity": "school"
            }
        },
        {
            "id": 91185,
            "type": "Feature",
            "geometry": {
                "type": "Point",
                "coordinates": [
                    14.88103,
                    52.44683
                ]
            },
            "properties": {
                "ref:rspo": 91185,
                "official_name": "Szkolne Schronisko M\u0142odzie\u017cowe w O\u015bnie Lubuskim",
                "name": "Szkolne Schronisko M\u0142odzie\u017cowe w O\u015bnie Lubuskim",
                "addr:postcode": "69-220",
                "addr:city": "O\u015bno Lubuskie",
                "addr:street": "Rzepi\u0144ska",
                "addr:housenumber": "8",
                "addr:city:simc": 935587,
                "addr:street:sym_ul": 19345,
                "phone": "+48 957576022",
                "email": "zse@powiatslubicki.pl",
                "ref:regon": "081092140",
                "operator": "Powiat S\u0142ubicki",
                "operator:type": "government",
                "tourism": "hostel"
            }
        },
        {
            "id": 133911,
            "type": "Feature",
            "geometry": {
                "type": "Point",
                "coordinates": [
                    14.88103,
                    52.446799999999996
                ]
            },
            "properties": {
                "ref:rspo": 133911,
                "official_name": "M\u0142odzie\u017cowy O\u015brodek Socjoterapii w O\u015bnie Lubuskim",
                "name": "M\u0142odzie\u017cowy O\u015brodek Socjoterapii w O\u015bnie Lubuskim",
                "addr:postcode": "69-220",
                "addr:city": "O\u015bno Lubuskie",
                "addr:street": "Rzepi\u0144ska",
                "addr:housenumber": "8",
                "addr:city:simc": 935587,
                "addr:street:sym_ul": 19345,
                "phone": "+48 957576022",
                "email": "mos@powiatslubicki.pl",
                "ref:regon": "367733161",
                "ref:vatin": "PL5981645577",
                "operator": "Powiat S\u0142ubicki",
                "operator:type": "government",
                "fixme": "amenity=social_facility + social_facility=group_home + social_facility:for=juvenile",
                "note": "Children RSPO: 133904"
            }
        },
        {
            "id": 133904,
            "type": "Feature",
            "geometry": {
                "type": "Point",
                "coordinates": [
                    14.88103,
                    52.44677
                ]
            },
            "properties": {
                "isced:level": "1;2",
                "ref:rspo": 133904,
                "official_name": "Szko\u0142a Podstawowa Specjalna w M\u0142odzie\u017cowym O\u015brodku Socjoterapii w O\u015bnie Lubuskim",
                "name": "Szko\u0142a Podstawowa Specjalna w M\u0142odzie\u017cowym O\u015brodku Socjoterapii w O\u015bnie Lubuskim",
                "addr:postcode": "69-220",
                "addr:city": "O\u015bno Lubuskie",
                "addr:street": "Rzepi\u0144ska",
                "addr:housenumber": "8",
                "addr:city:simc": 935587,
                "addr:street:sym_ul": 19345,
                "phone": "+48 957576022",
                "email": "mos@powiatslubicki.pl",
                "ref:regon": "367722447",
                "operator": "Powiat S\u0142ubicki",
                "operator:type": "government",
                "amenity": "school",
                "note": "Parent RSPO: 133911"
            }
        },
        {
            "id": 12090,
            "type": "Feature",
            "geometry": {
                "type": "Point",
                "coordinates": [
                    14.87765,
                    52.45641
                ]
            },
            "properties": {
                "ref:rspo": 12090,
                "official_name": "Samorz\u0105dowe Przedszkole Publiczne w O\u015bnie Lubuskim",
                "name": "Samorz\u0105dowe Przedszkole Publiczne w O\u015bnie Lubuskim",
                "addr:postcode": "69-220",
                "addr:city": "O\u015bno Lubuskie",
                "addr:street": "3 Maja",
                "addr:housenumber": "20",
                "addr:city:simc": 935587,
                "addr:street:sym_ul": 11937,
                "phone": "+48 957571349",
                "email": "przedszkole@osno.pl",
                "ref:regon": "210516480",
                "ref:vatin": "PL5981489982",
                "operator": "Gmina O\u015bno Lubuskie",
                "operator:type": "government",
                "amenity": "kindergarten"
            }
        },
        {
            "id": 26845,
            "type": "Feature",
            "geometry": {
                "type": "Point",
                "coordinates": [
                    14.87497,
                    52.45723
                ]
            },
            "properties": {
                "isced:level": "1;2",
                "ref:rspo": 26845,
                "official_name": "Szko\u0142a Podstawowa im. Marii Sk\u0142odowskiej-Curie w O\u015bnie Lubuskim",
                "name": "Szko\u0142a Podstawowa",
                "addr:postcode": "69-220",
                "addr:city": "O\u015bno Lubuskie",
                "addr:street": "Jeziorna",
                "addr:housenumber": "3",
                "addr:city:simc": 935587,
                "addr:street:sym_ul": 7535,
                "phone": "+48 957571351",
                "email": "zsp.osno@autograf.pl",
                "website": "http:\/\/www.zsposno.superszkolna.pl",
                "ref:regon": "210307032",
                "ref:vatin": "PL5981489953",
                "operator": "Gmina O\u015bno Lubuskie",
                "operator:type": "government",
                "amenity": "school"
            }
        },
        {
            "id": 272341,
            "type": "Feature",
            "geometry": {
                "type": "Point",
                "coordinates": [
                    14.86238,
                    52.45742
                ]
            },
            "properties": {
                "ref:rspo": 272341,
                "official_name": "Przedszkole Niepubliczne \"Akademia Talent\u00f3w\"",
                "name": "Przedszkole Niepubliczne \"Akademia Talent\u00f3w\"",
                "addr:postcode": "69-220",
                "addr:city": "O\u015bno Lubuskie",
                "addr:street": "Podg\u00f3rna",
                "addr:housenumber": "1",
                "addr:city:simc": 935587,
                "addr:street:sym_ul": 16742,
                "email": "ewelinab10@tlen.pl",
                "ref:regon": "384141869",
                "operator": "Ewelina Garczyk",
                "operator:type": "private",
                "amenity": "kindergarten"
            }
        }
    ]
}