{
    "type": "FeatureCollection",
    "features": [
        {
            "id": 86651,
            "type": "Feature",
            "geometry": {
                "type": "Point",
                "coordinates": [
                    14.65463,
                    52.49189
                ]
            },
            "properties": {
                "ref:rspo": 86651,
                "official_name": "Niepubliczne Przedszkole \"S\u0142oneczko\" w G\u00f3rzycy",
                "name": "Niepubliczne Przedszkole \"S\u0142oneczko\" w G\u00f3rzycy",
                "addr:postcode": "69-113",
                "addr:city": "G\u00f3rzyca",
                "addr:street": "S\u0142oneczna",
                "addr:housenumber": "1A",
                "addr:teryt:simc": 181680,
                "addr:teryt:sym_ul": 20254,
                "phone": "+48 695755899",
                "email": "gorzyca-sloneczko@wp.pl",
                "ref:regon": "081088730",
                "ref:vatin": "PL5981014902",
                "operator": "Mariola \u015awierczy\u0144ska",
                "operator:type": "private",
                "amenity": "kindergarten"
            }
        },
        {
            "id": 86967,
            "type": "Feature",
            "geometry": {
                "type": "Point",
                "coordinates": [
                    14.65495,
                    52.49385
                ]
            },
            "properties": {
                "isced:level": "1;2",
                "ref:rspo": 86967,
                "official_name": "Szko\u0142a Podstawowa im. W\u0142adys\u0142awa Broniewskiego w G\u00f3rzycy",
                "name": "Szko\u0142a Podstawowa",
                "addr:postcode": "69-113",
                "addr:city": "G\u00f3rzyca",
                "addr:street": "Wolno\u015bci",
                "addr:housenumber": "17",
                "addr:teryt:simc": 181680,
                "addr:teryt:sym_ul": 24687,
                "phone": "+48 957591228",
                "email": "zespolszkol@autograf.pl",
                "website": "http:\/\/www.zsgorzyca.superszkolna.pl",
                "ref:regon": "211049885",
                "operator": "Gmina G\u00f3rzyca",
                "operator:type": "government",
                "amenity": "school"
            }
        },
        {
            "id": 268980,
            "type": "Feature",
            "geometry": {
                "type": "Point",
                "coordinates": [
                    14.65495,
                    52.49382
                ]
            },
            "properties": {
                "ref:rspo": 268980,
                "official_name": "Punkt Przedszkolny w G\u00f3rzycy",
                "name": "Punkt Przedszkolny w G\u00f3rzycy",
                "addr:postcode": "69-113",
                "addr:city": "G\u00f3rzyca",
                "addr:street": "Wolno\u015bci",
                "addr:housenumber": "17",
                "addr:teryt:simc": 181680,
                "addr:teryt:sym_ul": 24687,
                "phone": "+48 957591228",
                "email": "zespolszkol@autograf.pl",
                "ref:regon": "381321849",
                "operator": "Gmina G\u00f3rzyca",
                "operator:type": "government",
                "amenity": "kindergarten"
            }
        },
        {
            "id": 85201,
            "type": "Feature",
            "geometry": {
                "type": "Point",
                "coordinates": [
                    14.71344,
                    52.5171599
                ]
            },
            "properties": {
                "isced:level": "1;2",
                "ref:rspo": 85201,
                "official_name": "Niepubliczna Szko\u0142a Podstawowa w \u017babicach",
                "name": "Niepubliczna Szko\u0142a Podstawowa w \u017babicach",
                "addr:postcode": "69-113",
                "addr:city": "\u017babice",
                "addr:street": "Kostrzy\u0144ska",
                "addr:housenumber": "5",
                "addr:teryt:simc": 181792,
                "addr:teryt:sym_ul": 9495,
                "phone": "+48 517869919",
                "email": "sekretariat@szkola-fkk.pl",
                "website": "http:\/\/www.szkola.fkk.edu.pl",
                "ref:regon": "081088440",
                "ref:vatin": "PL5981628053",
                "operator": "\"Fundacja Kszta\u0142cenia Kreatywnego\"",
                "operator:type": "ngo",
                "amenity": "school"
            }
        },
        {
            "id": 85203,
            "type": "Feature",
            "geometry": {
                "type": "Point",
                "coordinates": [
                    14.71234,
                    52.51844
                ]
            },
            "properties": {
                "ref:rspo": 85203,
                "official_name": "Niepubliczne Przedszkole \"Kajtu\u015b\" w \u017babicach",
                "name": "Niepubliczne Przedszkole \"Kajtu\u015b\" w \u017babicach",
                "addr:postcode": "69-113",
                "addr:city": "\u017babice",
                "addr:street": "Kostrzy\u0144ska",
                "addr:housenumber": "15",
                "addr:teryt:simc": 181792,
                "addr:teryt:sym_ul": 9495,
                "email": "przedszkole@fkk.edu.pl",
                "ref:regon": "081088434",
                "ref:vatin": "PL5981628076",
                "operator": "\"Fundacja Kszta\u0142cenia Kreatywnego\"",
                "operator:type": "ngo",
                "amenity": "kindergarten"
            }
        },
        {
            "id": 84293,
            "type": "Feature",
            "geometry": {
                "type": "Point",
                "coordinates": [
                    14.75618,
                    52.52963
                ]
            },
            "properties": {
                "isced:level": "1;2",
                "ref:rspo": 84293,
                "official_name": "Szko\u0142a Podstawowa im. Kresowian w Czarnowie",
                "name": "Szko\u0142a Podstawowa",
                "addr:postcode": "69-113",
                "addr:city": "Czarn\u00f3w",
                "addr:street": "Plac Wolno\u015bci",
                "addr:housenumber": "17",
                "addr:teryt:simc": 181674,
                "addr:teryt:sym_ul": 16415,
                "phone": "+48 957591279",
                "email": "spkresowianie@poczta.onet.pl",
                "website": "https:\/\/spkresowianie.edupage.org\/",
                "ref:regon": "210205159",
                "ref:vatin": "PL5981487569",
                "operator": "Gmina G\u00f3rzyca",
                "operator:type": "government",
                "amenity": "school"
            }
        },
        {
            "id": 88036,
            "type": "Feature",
            "geometry": {
                "type": "Point",
                "coordinates": [
                    14.75618,
                    52.529599999999995
                ]
            },
            "properties": {
                "ref:rspo": 88036,
                "official_name": "Punkt Przedszkolny w Czarnowie",
                "name": "Punkt Przedszkolny w Czarnowie",
                "addr:postcode": "69-113",
                "addr:city": "Czarn\u00f3w",
                "addr:street": "Plac Wolno\u015bci",
                "addr:housenumber": "17",
                "addr:teryt:simc": 181674,
                "addr:teryt:sym_ul": 16415,
                "phone": "+48 957591279",
                "email": "spkresowianie@poczta.onet.pl",
                "ref:regon": "081089089",
                "ref:vatin": "PL5981487569",
                "operator": "Gmina G\u00f3rzyca",
                "operator:type": "government",
                "amenity": "kindergarten"
            }
        }
    ]
}