{
    "type": "FeatureCollection",
    "features": [
        {
            "id": 84119,
            "type": "Feature",
            "geometry": {
                "type": "Point",
                "coordinates": [
                    14.83941,
                    52.34435
                ]
            },
            "properties": {
                "ref:rspo": 84119,
                "official_name": "Przedszkole Samorz\u0105dowe Nr 2",
                "name": "Przedszkole Samorz\u0105dowe Nr 2",
                "addr:postcode": "69-110",
                "addr:city": "Rzepin",
                "addr:street": "Tadeusza Ko\u015bciuszki",
                "addr:housenumber": "53",
                "addr:teryt:simc": 935682,
                "addr:teryt:sym_ul": 9582,
                "phone": "+48 957596336",
                "ref:regon": "210516959",
                "ref:vatin": "PL5981518229",
                "operator": "Gmina Rzepin",
                "operator:type": "government",
                "amenity": "kindergarten"
            }
        },
        {
            "id": 262761,
            "type": "Feature",
            "geometry": {
                "type": "Point",
                "coordinates": [
                    14.83452,
                    52.3459
                ]
            },
            "properties": {
                "ref:rspo": 262761,
                "official_name": "Zesp\u00f3\u0142 Szk\u00f3\u0142 w Rzepinie",
                "name": "Zesp\u00f3\u0142 Szk\u00f3\u0142 w Rzepinie",
                "addr:postcode": "69-110",
                "addr:city": "Rzepin",
                "addr:street": "Wojska Polskiego",
                "addr:housenumber": "28 i 30",
                "addr:teryt:simc": 935682,
                "addr:teryt:sym_ul": 24628,
                "phone": "+48 957596348",
                "email": "zsorzepin@wp.pl",
                "ref:regon": "368069469",
                "operator": "Gmina Rzepin",
                "operator:type": "government",
                "landuse": "education",
                "fixme": "amenity=school, amenity=college albo landuse=education w zale\u017cno\u015bci od tego, jakie plac\u00f3wki wchodz\u0105 w sk\u0142ad zespo\u0142u. Sprawd\u017a, kiedy stosowa\u0107 amenity=* a kiedy landuse=education.",
                "note": "Children RSPO: 86111;86672"
            }
        },
        {
            "id": 86111,
            "type": "Feature",
            "geometry": {
                "type": "Point",
                "coordinates": [
                    14.83452,
                    52.34587
                ]
            },
            "properties": {
                "isced:level": "1;2",
                "ref:rspo": 86111,
                "official_name": "Szko\u0142a Podstawowa Nr 1 Z Oddzia\u0142ami Integracyjnymi im. Henryka Sienkiewicza",
                "name": "Szko\u0142a Podstawowa Nr 1 Z Oddzia\u0142ami Integracyjnymi",
                "addr:postcode": "69-110",
                "addr:city": "Rzepin",
                "addr:street": "Wojska Polskiego",
                "addr:housenumber": "28",
                "addr:teryt:simc": 935682,
                "addr:teryt:sym_ul": 24628,
                "phone": "+48 957596348",
                "email": "zsorzepin@wp.pl",
                "website": "http:\/\/zso.rzepin.org",
                "ref:regon": "210309249",
                "ref:vatin": "PL5981505899",
                "operator": "Gmina Rzepin",
                "operator:type": "government",
                "amenity": "school",
                "note": "Parent RSPO: 262761"
            }
        },
        {
            "id": 26295,
            "type": "Feature",
            "geometry": {
                "type": "Point",
                "coordinates": [
                    14.8290012,
                    52.3460665
                ]
            },
            "properties": {
                "isced:level": "3",
                "ref:rspo": 26295,
                "official_name": "Technikum Le\u015bne im. Prof. Jana Miklaszewskiego",
                "name": "Technikum Le\u015bne",
                "addr:postcode": "69-110",
                "addr:place": "Staro\u015bcin",
                "addr:housenumber": "34",
                "addr:teryt:simc": 186559,
                "phone": "+48 957596239",
                "email": "sekretariat@tlrzepin.pl",
                "website": "http:\/\/www.tlrzepin.pl",
                "ref:regon": "000124191",
                "ref:vatin": "PL5981046061",
                "operator": "Ministerstwo \u015arodowiska",
                "operator:type": "public",
                "amenity": "school"
            }
        },
        {
            "id": 86672,
            "type": "Feature",
            "geometry": {
                "type": "Point",
                "coordinates": [
                    14.83306,
                    52.34642
                ]
            },
            "properties": {
                "isced:level": "3",
                "ref:rspo": 86672,
                "official_name": "Liceum Og\u00f3lnokszta\u0142c\u0105ce im. Stanis\u0142awa Staszica w Rzepinie",
                "name": "Liceum Og\u00f3lnokszta\u0142c\u0105ce",
                "addr:postcode": "69-110",
                "addr:city": "Rzepin",
                "addr:street": "Wojska Polskiego",
                "addr:housenumber": "30",
                "addr:teryt:simc": 935682,
                "addr:teryt:sym_ul": 24628,
                "phone": "+48 957596348",
                "email": "zsorzepin@wp.pl",
                "website": "http:\/\/www.zso.rzepin.org",
                "ref:regon": "211261898",
                "ref:vatin": "PL5981505882",
                "operator": "Gmina Rzepin",
                "operator:type": "government",
                "amenity": "school",
                "note": "Parent RSPO: 262761"
            }
        },
        {
            "id": 84120,
            "type": "Feature",
            "geometry": {
                "type": "Point",
                "coordinates": [
                    14.82696,
                    52.35488
                ]
            },
            "properties": {
                "ref:rspo": 84120,
                "official_name": "Przedszkole Samorz\u0105dowe Nr 3 \"Jarz\u0119binka\"",
                "name": "Przedszkole Samorz\u0105dowe Nr 3 \"Jarz\u0119binka\"",
                "addr:postcode": "69-110",
                "addr:city": "Rzepin",
                "addr:street": "Elizy Orzeszkowej",
                "addr:housenumber": "37",
                "addr:teryt:simc": 935682,
                "addr:teryt:sym_ul": 15211,
                "phone": "+48 957596840",
                "email": "psnr3rzepin@wp.pl",
                "website": "http:\/\/www.psjarzebinka.pl",
                "ref:regon": "210013862",
                "ref:vatin": "PL5981517595",
                "operator": "Gmina Rzepin",
                "operator:type": "government",
                "amenity": "kindergarten"
            }
        },
        {
            "id": 86673,
            "type": "Feature",
            "geometry": {
                "type": "Point",
                "coordinates": [
                    14.76035,
                    52.4001499
                ]
            },
            "properties": {
                "isced:level": "1;2",
                "ref:rspo": 86673,
                "official_name": "Publiczna Szko\u0142a Podstawowa im. Janusza Korczaka w Kowalowie",
                "name": "Publiczna Szko\u0142a Podstawowa",
                "addr:postcode": "69-110",
                "addr:city": "Kowal\u00f3w",
                "addr:street": "Rzepi\u0144ska",
                "addr:housenumber": "10",
                "addr:teryt:simc": 186482,
                "addr:teryt:sym_ul": 19345,
                "phone": "+48 957599324",
                "email": "psp_kowalow@wp.pl",
                "website": "http:\/\/www.pspkowalow.szkolnastrona.pl",
                "ref:regon": "210309278",
                "ref:vatin": "PL5981505913",
                "operator": "Gmina Rzepin",
                "operator:type": "government",
                "amenity": "school"
            }
        },
        {
            "id": 120085,
            "type": "Feature",
            "geometry": {
                "type": "Point",
                "coordinates": [
                    14.75958,
                    52.4031499
                ]
            },
            "properties": {
                "ref:rspo": 120085,
                "official_name": "Prywatne Przedszkole \"Euregio\" w Rzepinie",
                "name": "Prywatne Przedszkole \"Euregio\" w Rzepinie",
                "addr:postcode": "69-110",
                "addr:city": "Rzepin",
                "addr:street": "S\u0142ubicka",
                "addr:housenumber": "27",
                "addr:teryt:simc": 935682,
                "addr:teryt:sym_ul": 20308,
                "phone": "+48 506347495",
                "ref:regon": "081163733",
                "operator": "Fundacja \"Euregio\"",
                "operator:type": "ngo",
                "amenity": "kindergarten"
            }
        }
    ]
}