{
    "type": "FeatureCollection",
    "features": [
        {
            "id": 47107,
            "type": "Feature",
            "geometry": {
                "type": "Point",
                "coordinates": [
                    14.593732,
                    52.302924
                ]
            },
            "properties": {
                "ref:rspo": 47107,
                "official_name": "Punkt Przedszkolny w \u015awiecku",
                "name": "Punkt Przedszkolny w \u015awiecku",
                "addr:postcode": "69-100",
                "addr:place": "\u015awiecko",
                "addr:housenumber": "18",
                "addr:city:simc": 187211,
                "phone": "+48 957582715",
                "ref:regon": "081082213",
                "operator": "Gmina S\u0142ubice",
                "operator:type": "government",
                "amenity": "kindergarten"
            }
        },
        {
            "id": 277751,
            "type": "Feature",
            "geometry": {
                "type": "Point",
                "coordinates": [
                    14.63958,
                    52.34219
                ]
            },
            "properties": {
                "ref:rspo": 277751,
                "official_name": "Niepubliczne Przedszkole Promet Kids",
                "name": "Niepubliczne Przedszkole Promet Kids",
                "addr:postcode": "69-100",
                "addr:city": "Kunowice",
                "addr:street": "Dworcowa",
                "addr:housenumber": "28",
                "addr:city:simc": 187100,
                "addr:street:sym_ul": 4434,
                "email": "kontakt@promet-kids.pl",
                "website": "http:\/\/www.promet-kids.pl",
                "ref:regon": "389424862",
                "operator": "Promet Kids",
                "operator:type": "ngo",
                "amenity": "kindergarten"
            }
        },
        {
            "id": 34706,
            "type": "Feature",
            "geometry": {
                "type": "Point",
                "coordinates": [
                    14.56254,
                    52.34773
                ]
            },
            "properties": {
                "ref:rspo": 34706,
                "official_name": "Niepubliczne Przedszkole \"Kraina Rado\u015bci\"",
                "name": "Niepubliczne Przedszkole \"Kraina Rado\u015bci\"",
                "addr:postcode": "69-100",
                "addr:city": "S\u0142ubice",
                "addr:street": "1 Maja",
                "addr:housenumber": "4",
                "addr:city:simc": 935736,
                "addr:street:sym_ul": 11926,
                "email": "kontakt@krainaradosci.com",
                "website": "http:\/\/www.krainaradosci.com",
                "ref:regon": "081081946",
                "ref:vatin": "PL5981553705",
                "operator": "Luiza Szubert-Lutycz",
                "operator:type": "private",
                "amenity": "kindergarten"
            }
        },
        {
            "id": 264525,
            "type": "Feature",
            "geometry": {
                "type": "Point",
                "coordinates": [
                    14.55927,
                    52.3485
                ]
            },
            "properties": {
                "isced:level": "3",
                "ref:rspo": 264525,
                "official_name": "Uniwersyteckie Liceum Og\u00f3lnokszta\u0142c\u0105ce w S\u0142ubicach",
                "name": "Uniwersyteckie Liceum Og\u00f3lnokszta\u0142c\u0105ce w S\u0142ubicach",
                "addr:postcode": "69-100",
                "addr:city": "S\u0142ubice",
                "addr:street": "Tadeusza Ko\u015bciuszki",
                "addr:housenumber": "1",
                "addr:city:simc": 935736,
                "addr:street:sym_ul": 9572,
                "phone": "+48 618296838",
                "email": "liceum@amu.edu.pl",
                "website": "http:\/\/www.liceum.amu.edu.pl",
                "ref:regon": "368376510",
                "ref:vatin": "PL5981642946",
                "operator": "Uniwersytet Im. Adama Mickiewicza W Poznaniu",
                "operator:type": "public",
                "amenity": "school"
            }
        },
        {
            "id": 32096,
            "type": "Feature",
            "geometry": {
                "type": "Point",
                "coordinates": [
                    14.57153,
                    52.35052
                ]
            },
            "properties": {
                "isced:level": "1;2",
                "ref:rspo": 32096,
                "official_name": "Szko\u0142a Podstawowa nr 3 im. Stefana Czarnieckiego w S\u0142ubicach",
                "name": "Szko\u0142a Podstawowa nr 3",
                "addr:postcode": "69-100",
                "addr:city": "S\u0142ubice",
                "addr:street": "Jana Kili\u0144skiego",
                "addr:housenumber": "8",
                "addr:city:simc": 935736,
                "addr:street:sym_ul": 8431,
                "phone": "+48 957582243",
                "email": "dyrektorsp3@edukacja.slubice.pl",
                "website": "http:\/\/www.edukacja.slubice.pl",
                "ref:regon": "210331697",
                "ref:vatin": "PL5981303575",
                "operator": "Gmina S\u0142ubice",
                "operator:type": "government",
                "amenity": "school"
            }
        },
        {
            "id": 32097,
            "type": "Feature",
            "geometry": {
                "type": "Point",
                "coordinates": [
                    14.63177,
                    52.3506
                ]
            },
            "properties": {
                "isced:level": "1;2",
                "ref:rspo": 32097,
                "official_name": "Szko\u0142a Podstawowa w Kunowicach im. Kornela Makuszy\u0144skiego",
                "name": "Szko\u0142a Podstawowa w Kunowicach",
                "addr:postcode": "69-100",
                "addr:city": "Kunowice",
                "addr:street": "S\u0142ubicka",
                "addr:housenumber": "18",
                "addr:city:simc": 187100,
                "addr:street:sym_ul": 20308,
                "phone": "+48 957584213",
                "email": "dyrektorspkunowice@edukacja.slubice.pl",
                "website": "http:\/\/www.spkunowice.pl",
                "ref:regon": "210331711",
                "ref:vatin": "PL5981474472",
                "operator": "Gmina S\u0142ubice",
                "operator:type": "government",
                "amenity": "school"
            }
        },
        {
            "id": 270274,
            "type": "Feature",
            "geometry": {
                "type": "Point",
                "coordinates": [
                    14.56981,
                    52.35068
                ]
            },
            "properties": {
                "ref:rspo": 270274,
                "official_name": "Przedszkole Niepubliczne Fun Factory Edukacja I Zabawa",
                "name": "Przedszkole Niepubliczne Fun Factory Edukacja I Zabawa",
                "addr:postcode": "69-100",
                "addr:city": "S\u0142ubice",
                "addr:street": "Kochanowskiego",
                "addr:housenumber": "9",
                "addr:door": "5",
                "addr:city:simc": 935736,
                "addr:street:sym_ul": 8725,
                "ref:regon": "382300832",
                "operator": "Wioleta Konsik",
                "operator:type": "private",
                "amenity": "kindergarten"
            }
        },
        {
            "id": 38889,
            "type": "Feature",
            "geometry": {
                "type": "Point",
                "coordinates": [
                    14.56669,
                    52.3518
                ]
            },
            "properties": {
                "ref:rspo": 38889,
                "official_name": "Przedszkole Samorz\u0105dowe nr 3 \"Mi\u015b Uszatek\" w S\u0142ubicach",
                "name": "Przedszkole Samorz\u0105dowe nr 3 \"Mi\u015b Uszatek\" w S\u0142ubicach",
                "addr:postcode": "69-100",
                "addr:city": "S\u0142ubice",
                "addr:street": "Podchor\u0105\u017cych",
                "addr:housenumber": "3",
                "addr:city:simc": 935736,
                "addr:street:sym_ul": 16713,
                "phone": "+48 957582782",
                "email": "dyrektorps3@edukacja.slubice.pl",
                "website": "http:\/\/www.edukacja.slubice.pl",
                "ref:regon": "210516913",
                "ref:vatin": "PL5981470712",
                "operator": "Gmina S\u0142ubice",
                "operator:type": "government",
                "amenity": "kindergarten"
            }
        },
        {
            "id": 85123,
            "type": "Feature",
            "geometry": {
                "type": "Point",
                "coordinates": [
                    14.57356,
                    52.35219
                ]
            },
            "properties": {
                "ref:rspo": 85123,
                "official_name": "Specjalny O\u015brodek Szkolno-Wychowawczy w S\u0142ubicach",
                "name": "Specjalny O\u015brodek Szkolno-Wychowawczy w S\u0142ubicach",
                "addr:postcode": "69-100",
                "addr:city": "S\u0142ubice",
                "addr:street": "Aleja Niepodleg\u0142o\u015bci",
                "addr:housenumber": "23",
                "addr:city:simc": 935736,
                "addr:street:sym_ul": 14199,
                "phone": "+48 957582302",
                "email": "sosw@powiatslubicki.pl",
                "website": "http:\/\/sosw.powiatslubicki.pl",
                "ref:regon": "211183135",
                "ref:vatin": "PL5981451146",
                "operator": "Powiat S\u0142ubicki",
                "operator:type": "government",
                "amenity": "school",
                "note": "Children RSPO: 85880;114653;114654"
            }
        },
        {
            "id": 85880,
            "type": "Feature",
            "geometry": {
                "type": "Point",
                "coordinates": [
                    14.57356,
                    52.35216
                ]
            },
            "properties": {
                "isced:level": "1;2",
                "ref:rspo": 85880,
                "official_name": "Szko\u0142a Podstawowa Specjalna w Specjalnym Osrodku Szkolno-Wychowawczym w S\u0142ubicach",
                "name": "Szko\u0142a Podstawowa Specjalna w Specjalnym Osrodku Szkolno-Wychowawczym w S\u0142ubicach",
                "addr:postcode": "69-100",
                "addr:city": "S\u0142ubice",
                "addr:street": "Aleja Niepodleg\u0142o\u015bci",
                "addr:housenumber": "23",
                "addr:city:simc": 935736,
                "addr:street:sym_ul": 14199,
                "phone": "+48 957582302",
                "email": "sosw@powiatslubicki.pl",
                "website": "http:\/\/sosw.powiatslubicki.pl",
                "ref:regon": "000820973",
                "operator": "Powiat S\u0142ubicki",
                "operator:type": "government",
                "amenity": "school",
                "note": "Parent RSPO: 85123"
            }
        },
        {
            "id": 114653,
            "type": "Feature",
            "geometry": {
                "type": "Point",
                "coordinates": [
                    14.57356,
                    52.35213
                ]
            },
            "properties": {
                "ref:rspo": 114653,
                "official_name": "Specjalna Szko\u0142a Przysposabiaj\u0105ca do Pracy w Specjalnym O\u015brodku Szkolno-Wychowawczym w S\u0142ubicach",
                "name": "Specjalna Szko\u0142a Przysposabiaj\u0105ca do Pracy w Specjalnym O\u015brodku Szkolno-Wychowawczym w S\u0142ubicach",
                "addr:postcode": "69-100",
                "addr:city": "S\u0142ubice",
                "addr:street": "Aleja Niepodleg\u0142o\u015bci",
                "addr:housenumber": "23",
                "addr:city:simc": 935736,
                "addr:street:sym_ul": 14199,
                "phone": "+48 957582302",
                "email": "sosw@powiatslubicki.pl",
                "website": "http:\/\/sosw.powiatslubicki.pl",
                "ref:regon": "080282200",
                "operator": "Powiat S\u0142ubicki",
                "operator:type": "government",
                "amenity": "school",
                "note": "Parent RSPO: 85123"
            }
        },
        {
            "id": 114654,
            "type": "Feature",
            "geometry": {
                "type": "Point",
                "coordinates": [
                    14.57356,
                    52.3521
                ]
            },
            "properties": {
                "isced:level": "3",
                "ref:rspo": 114654,
                "official_name": "Bran\u017cowa Szko\u0142a I Stopnia w Specjalnym O\u015brodku Szkolno-Wychowawczym w S\u0142ubicach",
                "name": "Bran\u017cowa Szko\u0142a I Stopnia w Specjalnym O\u015brodku Szkolno-Wychowawczym w S\u0142ubicach",
                "addr:postcode": "69-100",
                "addr:city": "S\u0142ubice",
                "addr:street": "Aleja Niepodleg\u0142o\u015bci",
                "addr:housenumber": "23",
                "addr:city:simc": 935736,
                "addr:street:sym_ul": 14199,
                "phone": "+48 957582302",
                "email": "sosw@powiatslubicki.pl",
                "website": "http:\/\/sosw-slubice.pl",
                "ref:regon": "211238630",
                "operator": "Powiat S\u0142ubicki",
                "operator:type": "government",
                "amenity": "school",
                "note": "Parent RSPO: 85123"
            }
        },
        {
            "id": 86476,
            "type": "Feature",
            "geometry": {
                "type": "Point",
                "coordinates": [
                    14.57356,
                    52.35207
                ]
            },
            "properties": {
                "isced:level": "3",
                "ref:rspo": 86476,
                "official_name": "Technikum nr 1",
                "name": "Technikum nr 1",
                "addr:postcode": "69-100",
                "addr:city": "S\u0142ubice",
                "addr:street": "Aleja Niepodleg\u0142o\u015bci",
                "addr:housenumber": "23",
                "addr:city:simc": 935736,
                "addr:street:sym_ul": 14199,
                "phone": "+48 957582571",
                "email": "ckziu@powiatslubicki.pl",
                "website": "http:\/\/ckziu.powiatslubicki.pl",
                "ref:regon": "211047596",
                "operator": "Powiat S\u0142ubicki",
                "operator:type": "government",
                "amenity": "school",
                "note": "Parent RSPO: 275169"
            }
        },
        {
            "id": 84688,
            "type": "Feature",
            "geometry": {
                "type": "Point",
                "coordinates": [
                    14.57173,
                    52.35222
                ]
            },
            "properties": {
                "ref:rspo": 84688,
                "official_name": "Poradnia Psychologiczno-Pedagogiczna w S\u0142ubicach",
                "name": "Poradnia Psychologiczno-Pedagogiczna w S\u0142ubicach",
                "addr:postcode": "69-100",
                "addr:city": "S\u0142ubice",
                "addr:street": "Henryka Sienkiewicza",
                "addr:housenumber": "28",
                "addr:city:simc": 935736,
                "addr:street:sym_ul": 19830,
                "phone": "+48 957582299",
                "email": "ppp@powiatslubicki.pl",
                "ref:regon": "211026370",
                "ref:vatin": "PL5981478004",
                "operator": "Powiat S\u0142ubicki",
                "operator:type": "government",
                "healthcare": "counselling",
                "counselling_type": "education",
                "fixme": "w zale\u017cno\u015bci od przedmiotu dzia\u0142alno\u015bci (np. healthcare=counselling + counselling_type=education albo healthcare=psychotherapist)"
            }
        },
        {
            "id": 47105,
            "type": "Feature",
            "geometry": {
                "type": "Point",
                "coordinates": [
                    14.6355,
                    52.35224
                ]
            },
            "properties": {
                "ref:rspo": 47105,
                "official_name": "Punkt Przedszkolny w Kunowicach",
                "name": "Punkt Przedszkolny w Kunowicach",
                "addr:postcode": "69-100",
                "addr:city": "Kunowice",
                "addr:street": "Szkolna",
                "addr:housenumber": "2",
                "addr:city:simc": 187100,
                "addr:street:sym_ul": 21970,
                "phone": "+48 957584213",
                "ref:regon": "081082220",
                "operator": "Gmina S\u0142ubice",
                "operator:type": "government",
                "amenity": "kindergarten"
            }
        },
        {
            "id": 274172,
            "type": "Feature",
            "geometry": {
                "type": "Point",
                "coordinates": [
                    14.56761,
                    52.3528
                ]
            },
            "properties": {
                "ref:rspo": 274172,
                "official_name": "Prywatne Przedszkole \"Euregio\" w S\u0142ubicach",
                "name": "Prywatne Przedszkole \"Euregio\" w S\u0142ubicach",
                "addr:postcode": "69-100",
                "addr:city": "S\u0142ubice",
                "addr:street": "\u017bwirki i Wigury",
                "addr:housenumber": "8",
                "addr:city:simc": 935736,
                "addr:street:sym_ul": 26608,
                "email": "euregio.slubice@gmail.com",
                "ref:regon": "385366872",
                "operator": "Fundacja \"Euregio\"",
                "operator:type": "ngo",
                "amenity": "kindergarten"
            }
        },
        {
            "id": 32091,
            "type": "Feature",
            "geometry": {
                "type": "Point",
                "coordinates": [
                    14.56248,
                    52.35293
                ]
            },
            "properties": {
                "isced:level": "1;2",
                "ref:rspo": 32091,
                "official_name": "Szko\u0142a Podstawowa nr 1 im. Miko\u0142aja Kopernika w S\u0142ubicach",
                "name": "Szko\u0142a Podstawowa nr 1",
                "addr:postcode": "69-100",
                "addr:city": "S\u0142ubice",
                "addr:street": "Wojska Polskiego",
                "addr:housenumber": "1",
                "addr:city:simc": 935736,
                "addr:street:sym_ul": 24628,
                "phone": "+48 957582223",
                "email": "dyrektorsp1@edukacja.slubice.pl",
                "website": "http:\/\/www.edukacja.slubice.pl",
                "ref:regon": "210331674",
                "ref:vatin": "PL5981303517",
                "operator": "Gmina S\u0142ubice",
                "operator:type": "government",
                "amenity": "school"
            }
        },
        {
            "id": 275169,
            "type": "Feature",
            "geometry": {
                "type": "Point",
                "coordinates": [
                    14.57232,
                    52.35324
                ]
            },
            "properties": {
                "ref:rspo": 275169,
                "official_name": "Centrum Kszta\u0142cenia Zawodowego I Ustawicznego w S\u0142ubicach",
                "name": "Centrum Kszta\u0142cenia Zawodowego I Ustawicznego w S\u0142ubicach",
                "addr:postcode": "69-100",
                "addr:city": "S\u0142ubice",
                "addr:street": "Aleja Niepodleg\u0142o\u015bci",
                "addr:housenumber": "13",
                "addr:city:simc": 935736,
                "addr:street:sym_ul": 14199,
                "phone": "+48 957582577",
                "email": "ckziu@powiatslubicki.pl",
                "ref:regon": "386657040",
                "operator": "Powiat S\u0142ubicki",
                "operator:type": "government",
                "landuse": "education",
                "fixme": "amenity=school, amenity=college albo landuse=education w zale\u017cno\u015bci od tego, jakie plac\u00f3wki wchodz\u0105 w sk\u0142ad zespo\u0142u. Sprawd\u017a, kiedy stosowa\u0107 amenity=* a kiedy landuse=education.",
                "note": "Children RSPO: 84523;86476;126147;265155;275209"
            }
        },
        {
            "id": 84523,
            "type": "Feature",
            "geometry": {
                "type": "Point",
                "coordinates": [
                    14.57232,
                    52.35321
                ]
            },
            "properties": {
                "isced:level": "3",
                "ref:rspo": 84523,
                "official_name": "Technikum nr 2 im. In\u017c.tadeusza Ta\u0144skiego w S\u0142ubicach",
                "name": "Technikum nr 2",
                "addr:postcode": "69-100",
                "addr:city": "S\u0142ubice",
                "addr:street": "Aleja Niepodleg\u0142o\u015bci",
                "addr:housenumber": "13",
                "addr:city:simc": 935736,
                "addr:street:sym_ul": 14199,
                "phone": "+48 957582577",
                "email": "ckziu@powiatslubicki.pl",
                "website": "http:\/\/www.zstslubice.edupage.org",
                "ref:regon": "211237687",
                "operator": "Powiat S\u0142ubicki",
                "operator:type": "government",
                "amenity": "school",
                "note": "Parent RSPO: 275169"
            }
        },
        {
            "id": 126147,
            "type": "Feature",
            "geometry": {
                "type": "Point",
                "coordinates": [
                    14.57232,
                    52.35318
                ]
            },
            "properties": {
                "isced:level": "3",
                "ref:rspo": 126147,
                "official_name": "Bran\u017cowa Szko\u0142a I Stopnia im. In\u017c. Tadeusza Ta\u0144skiego",
                "name": "Bran\u017cowa Szko\u0142a I Stopnia",
                "addr:postcode": "69-100",
                "addr:city": "S\u0142ubice",
                "addr:street": "Aleja Niepodleg\u0142o\u015bci",
                "addr:housenumber": "13",
                "addr:city:simc": 935736,
                "addr:street:sym_ul": 14199,
                "phone": "+48 957582577",
                "email": "ckziu@powiatslubicki.pl",
                "ref:regon": "211237724",
                "operator": "Powiat S\u0142ubicki",
                "operator:type": "government",
                "amenity": "school",
                "note": "Parent RSPO: 275169"
            }
        },
        {
            "id": 265155,
            "type": "Feature",
            "geometry": {
                "type": "Point",
                "coordinates": [
                    14.57232,
                    52.35315
                ]
            },
            "properties": {
                "isced:level": "1;2",
                "ref:rspo": 265155,
                "official_name": "Szko\u0142a Podstawowa dla Doros\u0142ych",
                "name": "Szko\u0142a Podstawowa dla Doros\u0142ych",
                "addr:postcode": "69-100",
                "addr:city": "S\u0142ubice",
                "addr:street": "Aleja Niepodleg\u0142o\u015bci",
                "addr:housenumber": "13",
                "addr:city:simc": 935736,
                "addr:street:sym_ul": 14199,
                "phone": "+48 957582577",
                "email": "ckziu@powiatslubicki.pl",
                "ref:regon": "368644525",
                "operator": "Powiat S\u0142ubicki",
                "operator:type": "government",
                "amenity": "school",
                "note": "Parent RSPO: 275169"
            }
        },
        {
            "id": 275209,
            "type": "Feature",
            "geometry": {
                "type": "Point",
                "coordinates": [
                    14.57232,
                    52.35312
                ]
            },
            "properties": {
                "ref:rspo": 275209,
                "official_name": "Centrum Kszta\u0142cenia Zawodowego w S\u0142ubicach",
                "name": "Centrum Kszta\u0142cenia Zawodowego w S\u0142ubicach",
                "addr:postcode": "69-100",
                "addr:city": "S\u0142ubice",
                "addr:street": "Aleja Niepodleg\u0142o\u015bci",
                "addr:housenumber": "13",
                "addr:city:simc": 935736,
                "addr:street:sym_ul": 14199,
                "phone": "+48 957582577",
                "email": "ckziu@powiatslubicki.pl",
                "ref:regon": "386693082",
                "operator": "Powiat S\u0142ubicki",
                "operator:type": "government",
                "fixme": "w zale\u017cno\u015bci od przedmiotu dzia\u0142alno\u015bci (np. amenity=training + training=*, amenity=dancing_school, amenity=language_school, amenity=music_school) albo amenity=school, amenity=college, albo landuse=education w zale\u017cno\u015bci od tego, jakie plac\u00f3wki wchodz\u0105 w sk\u0142ad zespo\u0142u. Sprawd\u017a, kiedy stosowa\u0107 amenity=* a kiedy landuse=education.",
                "note": "Parent RSPO: 275169"
            }
        },
        {
            "id": 34591,
            "type": "Feature",
            "geometry": {
                "type": "Point",
                "coordinates": [
                    14.57437,
                    52.35421
                ]
            },
            "properties": {
                "ref:rspo": 34591,
                "official_name": "Przedszkole Samorz\u0105dowe nr 2 \"Pinokio\" w S\u0142ubicach",
                "name": "Przedszkole Samorz\u0105dowe nr 2 \"Pinokio\" w S\u0142ubicach",
                "addr:postcode": "69-100",
                "addr:city": "S\u0142ubice",
                "addr:street": "Gabriela Narutowicza",
                "addr:housenumber": "17",
                "addr:city:simc": 935736,
                "addr:street:sym_ul": 14015,
                "phone": "+48 957582793",
                "email": "dyrektorps2@edukacja.slubice.pl",
                "website": "http:\/\/www.edukacja.slubice.pl",
                "ref:regon": "210516907",
                "ref:vatin": "PL5981470741",
                "operator": "Gmina S\u0142ubice",
                "operator:type": "government",
                "amenity": "kindergarten"
            }
        },
        {
            "id": 34590,
            "type": "Feature",
            "geometry": {
                "type": "Point",
                "coordinates": [
                    14.5580413,
                    52.3545758
                ]
            },
            "properties": {
                "ref:rspo": 34590,
                "official_name": "Przedszkole Samorz\u0105dowe nr 1 \"Jarz\u0119binka\" w S\u0142ubicach",
                "name": "Przedszkole Samorz\u0105dowe nr 1 \"Jarz\u0119binka\" w S\u0142ubicach",
                "addr:postcode": "69-100",
                "addr:city": "S\u0142ubice",
                "addr:street": "Miko\u0142aja Kopernika",
                "addr:housenumber": "62",
                "addr:city:simc": 935736,
                "addr:street:sym_ul": 9276,
                "phone": "+48 957582312",
                "email": "dyrektorps1@edukacja.slubice.pl",
                "website": "http:\/\/www.edukacja.slubice.pl",
                "ref:regon": "210516899",
                "ref:vatin": "PL5981470706",
                "operator": "Gmina S\u0142ubice",
                "operator:type": "government",
                "amenity": "kindergarten"
            }
        },
        {
            "id": 34592,
            "type": "Feature",
            "geometry": {
                "type": "Point",
                "coordinates": [
                    14.56345,
                    52.35659
                ]
            },
            "properties": {
                "ref:rspo": 34592,
                "official_name": "Przedszkole Samorz\u0105dowe nr 4 \"Krasnal Ha\u0142aba\u0142a\" w S\u0142ubicach",
                "name": "Przedszkole Samorz\u0105dowe nr 4 \"Krasnal Ha\u0142aba\u0142a\" w S\u0142ubicach",
                "addr:postcode": "69-100",
                "addr:city": "S\u0142ubice",
                "addr:street": "Bohater\u00f3w Warszawy",
                "addr:housenumber": "8",
                "addr:city:simc": 935736,
                "addr:street:sym_ul": 1679,
                "phone": "+48 957583156",
                "email": "dyrektorps4@edukacja.slubice.pl",
                "website": "http:\/\/www.edukacja.slubice.pl",
                "ref:regon": "210516942",
                "ref:vatin": "PL5981470729",
                "operator": "Gmina S\u0142ubice",
                "operator:type": "government",
                "amenity": "kindergarten"
            }
        },
        {
            "id": 84740,
            "type": "Feature",
            "geometry": {
                "type": "Point",
                "coordinates": [
                    14.56618,
                    52.35693
                ]
            },
            "properties": {
                "ref:rspo": 84740,
                "official_name": "Zesp\u00f3\u0142 Szk\u00f3\u0142 Licealnych im. Zbigniewa Herberta w S\u0142ubicach",
                "name": "Zesp\u00f3\u0142 Szk\u00f3\u0142 Licealnych",
                "addr:postcode": "69-100",
                "addr:city": "S\u0142ubice",
                "addr:street": "Bohater\u00f3w Warszawy",
                "addr:housenumber": "3",
                "addr:city:simc": 935736,
                "addr:street:sym_ul": 1679,
                "phone": "+48 957582255",
                "email": "zsl@powiatslubicki.pl",
                "website": "http:\/\/www.loslubice.edu.pl",
                "ref:regon": "211042251",
                "ref:vatin": "PL5981038469",
                "operator": "Powiat S\u0142ubicki",
                "operator:type": "government",
                "landuse": "education",
                "fixme": "amenity=school, amenity=college albo landuse=education w zale\u017cno\u015bci od tego, jakie plac\u00f3wki wchodz\u0105 w sk\u0142ad zespo\u0142u. Sprawd\u017a, kiedy stosowa\u0107 amenity=* a kiedy landuse=education.",
                "note": "Children RSPO: 84826;84861"
            }
        },
        {
            "id": 84826,
            "type": "Feature",
            "geometry": {
                "type": "Point",
                "coordinates": [
                    14.56618,
                    52.356899999999996
                ]
            },
            "properties": {
                "isced:level": "3",
                "ref:rspo": 84826,
                "official_name": "Liceum Og\u00f3lnokszta\u0142c\u0105ce w Zespole Szk\u00f3\u0142 Licealnych im. Zbigniewa Herberta w S\u0142ubicach",
                "name": "Liceum Og\u00f3lnokszta\u0142c\u0105ce w Zespole Szk\u00f3\u0142 Licealnych",
                "addr:postcode": "69-100",
                "addr:city": "S\u0142ubice",
                "addr:street": "Bohater\u00f3w Warszawy",
                "addr:housenumber": "3",
                "addr:city:simc": 935736,
                "addr:street:sym_ul": 1679,
                "phone": "+48 957582255",
                "email": "zsl@powiatslubicki.pl",
                "website": "http:\/\/www.loslubice.edu.pl",
                "ref:regon": "211042274",
                "operator": "Powiat S\u0142ubicki",
                "operator:type": "government",
                "amenity": "school",
                "note": "Parent RSPO: 84740"
            }
        },
        {
            "id": 84861,
            "type": "Feature",
            "geometry": {
                "type": "Point",
                "coordinates": [
                    14.56618,
                    52.35687
                ]
            },
            "properties": {
                "isced:level": "3",
                "ref:rspo": 84861,
                "official_name": "Liceum Og\u00f3lnokszta\u0142cace dla Doros\u0142ych w Zespole Szk\u00f3\u0142 Licealnych im. Zbigniewa Herberta w S\u0142ubicach",
                "name": "Liceum Og\u00f3lnokszta\u0142cace dla Doros\u0142ych w Zespole Szk\u00f3\u0142 Licealnych",
                "addr:postcode": "69-100",
                "addr:city": "S\u0142ubice",
                "addr:street": "Bohater\u00f3w Warszawy",
                "addr:housenumber": "3",
                "addr:city:simc": 935736,
                "addr:street:sym_ul": 1679,
                "phone": "+48 957582255",
                "email": "zsl@powiatslubicki.pl",
                "website": "http:\/\/www.loslubice.edu.pl",
                "ref:regon": "211055472",
                "operator": "Powiat S\u0142ubicki",
                "operator:type": "government",
                "amenity": "school",
                "note": "Parent RSPO: 84740"
            }
        },
        {
            "id": 27033,
            "type": "Feature",
            "geometry": {
                "type": "Point",
                "coordinates": [
                    14.56259,
                    52.35745
                ]
            },
            "properties": {
                "ref:rspo": 27033,
                "official_name": "Pa\u0144stwowa Szko\u0142a Muzyczna I St. im. Stanis\u0142awa Moniuszki w S\u0142ubicach",
                "name": "Pa\u0144stwowa Szko\u0142a Muzyczna I St.",
                "addr:postcode": "69-100",
                "addr:city": "S\u0142ubice",
                "addr:street": "Wojska Polskiego",
                "addr:housenumber": "142",
                "addr:city:simc": 935736,
                "addr:street:sym_ul": 24628,
                "phone": "+48 957586618",
                "email": "szkolamuzycznaslubice@wp.pl",
                "website": "http:\/\/psmslubice.pl",
                "ref:regon": "210208057",
                "operator": "Ministerstwo Kultury I Dziedzictwa Narodowego",
                "operator:type": "public",
                "amenity": "music_school"
            }
        },
        {
            "id": 106443,
            "type": "Feature",
            "geometry": {
                "type": "Point",
                "coordinates": [
                    14.56259,
                    52.35742
                ]
            },
            "properties": {
                "isced:level": "1;2",
                "ref:rspo": 106443,
                "official_name": "Spo\u0142eczna Niepubliczna Og\u00f3lnokszta\u0142c\u0105ca Szko\u0142a Muzyczna I St. w S\u0142ubicach",
                "name": "Spo\u0142eczna Niepubliczna Og\u00f3lnokszta\u0142c\u0105ca Szko\u0142a Muzyczna I St. w S\u0142ubicach",
                "addr:postcode": "69-100",
                "addr:city": "S\u0142ubice",
                "addr:street": "Wojska Polskiego",
                "addr:housenumber": "142",
                "addr:city:simc": 935736,
                "addr:street:sym_ul": 24628,
                "phone": "+48 957584970",
                "email": "dyrektor@snosm.stmslubice.edu.pl",
                "website": "http:\/\/www.snosm.stmslubice.edu.pl",
                "ref:regon": "081104972",
                "operator": "S\u0142ubickie Towarzystwo Muzyczne",
                "operator:type": "ngo",
                "amenity": "school"
            }
        },
        {
            "id": 41428,
            "type": "Feature",
            "geometry": {
                "type": "Point",
                "coordinates": [
                    14.56053,
                    52.35899
                ]
            },
            "properties": {
                "isced:level": "1;2",
                "ref:rspo": 41428,
                "official_name": "Prywatna Szko\u0142a Podstawowa \"Euregio\"",
                "name": "Prywatna Szko\u0142a Podstawowa \"Euregio\"",
                "addr:postcode": "69-100",
                "addr:city": "S\u0142ubice",
                "addr:street": "Sadowa",
                "addr:housenumber": "2",
                "addr:city:simc": 935736,
                "addr:street:sym_ul": 19404,
                "phone": "+48 506347495",
                "email": "psp.euregio@gmail.com",
                "website": "https:\/\/www.facebook.com\/psp.euregio",
                "ref:regon": "081081923",
                "ref:vatin": "PL9161370764",
                "operator": "Fundacja Euregio",
                "operator:type": "ngo",
                "amenity": "school"
            }
        },
        {
            "id": 274199,
            "type": "Feature",
            "geometry": {
                "type": "Point",
                "coordinates": [
                    14.56053,
                    52.358959999999996
                ]
            },
            "properties": {
                "ref:rspo": 274199,
                "official_name": "Prywatne Przedszkole \"Euregio\" w Rzepinie",
                "name": "Prywatne Przedszkole \"Euregio\" w Rzepinie",
                "addr:postcode": "69-100",
                "addr:city": "S\u0142ubice",
                "addr:street": "Sadowa",
                "addr:housenumber": "2",
                "addr:city:simc": 935736,
                "addr:street:sym_ul": 19404,
                "email": "euregio.rzepin@gmail.com",
                "ref:regon": "385408642",
                "operator": "Fundacja \"Euregio\"",
                "operator:type": "ngo",
                "amenity": "kindergarten"
            }
        },
        {
            "id": 274501,
            "type": "Feature",
            "geometry": {
                "type": "Point",
                "coordinates": [
                    14.56756,
                    52.35899
                ]
            },
            "properties": {
                "ref:rspo": 274501,
                "official_name": "O\u015brodek Szkoleniowy Polska Hybryda",
                "name": "O\u015brodek Szkoleniowy Polska Hybryda",
                "addr:postcode": "69-100",
                "addr:city": "S\u0142ubice",
                "addr:street": "Osiedle Osiedle \u015awierkowe",
                "addr:housenumber": "7 B",
                "addr:door": "6",
                "addr:city:simc": 935736,
                "addr:street:sym_ul": 47919,
                "email": "contact@polskahybryda.com",
                "ref:regon": "385855588",
                "operator": "Fundacja Polska Hybryda- Centrum Bada\u0144 Nad Zagro\u017ceniami Asymetryczno-Hybrydowymi",
                "operator:type": "ngo",
                "fixme": "w zale\u017cno\u015bci od przedmiotu dzia\u0142alno\u015bci (np. amenity=training + training=*, amenity=dancing_school, amenity=language_school, amenity=music_school)"
            }
        },
        {
            "id": 32092,
            "type": "Feature",
            "geometry": {
                "type": "Point",
                "coordinates": [
                    14.56444,
                    52.35956
                ]
            },
            "properties": {
                "isced:level": "1;2",
                "ref:rspo": 32092,
                "official_name": "Szko\u0142a Podstawowa nr 2 im. Tadeusza Ko\u015bciuszki w S\u0142ubicach",
                "name": "Szko\u0142a Podstawowa nr 2",
                "addr:postcode": "69-100",
                "addr:city": "S\u0142ubice",
                "addr:street": "Wojska Polskiego",
                "addr:housenumber": "38",
                "addr:city:simc": 935736,
                "addr:street:sym_ul": 24628,
                "phone": "+48 957582715",
                "email": "sekretariatsp2@edukacja.slubice.pl",
                "website": "http:\/\/www.sp2slubice.edupage.org",
                "ref:regon": "210331680",
                "ref:vatin": "PL5981303552",
                "operator": "Gmina S\u0142ubice",
                "operator:type": "government",
                "amenity": "school"
            }
        },
        {
            "id": 32098,
            "type": "Feature",
            "geometry": {
                "type": "Point",
                "coordinates": [
                    14.6591,
                    52.42941
                ]
            },
            "properties": {
                "isced:level": "1;2",
                "ref:rspo": 32098,
                "official_name": "Szko\u0142a Podstawowa w Golicach",
                "name": "Szko\u0142a Podstawowa w Golicach",
                "addr:postcode": "69-100",
                "addr:city": "Golice",
                "addr:street": "S\u0142ubicka",
                "addr:housenumber": "1",
                "addr:city:simc": 187085,
                "addr:street:sym_ul": 20308,
                "phone": "+48 957593206",
                "email": "dyrektorspgolice@edukacja.slubice.pl",
                "website": "http:\/\/www.spgolice.edupage.org",
                "ref:regon": "210331705",
                "ref:vatin": "PL5981474360",
                "operator": "Gmina S\u0142ubice",
                "operator:type": "government",
                "amenity": "school"
            }
        },
        {
            "id": 47109,
            "type": "Feature",
            "geometry": {
                "type": "Point",
                "coordinates": [
                    14.6591,
                    52.429379999999995
                ]
            },
            "properties": {
                "ref:rspo": 47109,
                "official_name": "Punkt Przedszkolny w Golicach",
                "name": "Punkt Przedszkolny w Golicach",
                "addr:postcode": "69-100",
                "addr:city": "Golice",
                "addr:street": "S\u0142ubicka",
                "addr:housenumber": "1",
                "addr:city:simc": 187085,
                "addr:street:sym_ul": 20308,
                "phone": "+48 957593206",
                "email": "dyrektorspgolice@edukacja.slubice.pl",
                "ref:regon": "081082207",
                "operator": "Gmina S\u0142ubice",
                "operator:type": "government",
                "amenity": "kindergarten"
            }
        }
    ]
}