{
    "type": "FeatureCollection",
    "features": [
        {
            "id": 48111,
            "type": "Feature",
            "geometry": {
                "type": "Point",
                "coordinates": [
                    21.25643,
                    52.64588
                ]
            },
            "properties": {
                "ref:rspo": 48111,
                "official_name": "Niepubliczne Przedszkole Integracyjne Geniusz",
                "name": "Niepubliczne Przedszkole Integracyjne Geniusz",
                "addr:country": "PL",
                "addr:postcode": "06-100",
                "addr:city": "Pu\u0142tusk",
                "addr:street": "Jacka Soplicy",
                "addr:housenumber": "2",
                "addr:teryt:simc": 930816,
                "addr:teryt:sym_ul": 20581,
                "contact:phone": "+48 501417576",
                "contact:email": "iwonakurowska6@wp.pl",
                "ref:regon": "146403800",
                "ref:vatin": "PL7621057709",
                "operator": "Iwona Kurowska",
                "operator:type": "private",
                "amenity": "kindergarten"
            }
        },
        {
            "id": 14127,
            "type": "Feature",
            "geometry": {
                "type": "Point",
                "coordinates": [
                    21.0284201,
                    52.6805929
                ]
            },
            "properties": {
                "isced:level": "1;2",
                "ref:rspo": 14127,
                "official_name": "Publiczna Szko\u0142a Podstawowa im. B\u0142. Jana Paw\u0142a II w P\u0142ocochowie",
                "name": "Publiczna Szko\u0142a Podstawowa",
                "addr:country": "PL",
                "addr:postcode": "06-100",
                "addr:place": "P\u0142ocochowo",
                "addr:housenumber": "72",
                "addr:teryt:simc": 123234,
                "contact:phone": "+48 236924593",
                "contact:email": "pspplocochowo@pultusk.pl",
                "contact:website": "http:\/\/www.pspplocochowo.bnx.pl",
                "ref:regon": "001133192",
                "ref:vatin": "PL5681238164",
                "operator": "Gmina Pu\u0142tusk",
                "operator:type": "government",
                "amenity": "school"
            }
        },
        {
            "id": 14122,
            "type": "Feature",
            "geometry": {
                "type": "Point",
                "coordinates": [
                    21.10885,
                    52.69136
                ]
            },
            "properties": {
                "ref:rspo": 14122,
                "official_name": "Zesp\u00f3\u0142 Szk\u00f3\u0142 Nr 2 Z Oddzia\u0142ami Integracyjnymi w Pu\u0142tusku",
                "name": "Zesp\u00f3\u0142 Szk\u00f3\u0142 Nr 2 Z Oddzia\u0142ami Integracyjnymi w Pu\u0142tusku",
                "addr:country": "PL",
                "addr:postcode": "06-100",
                "addr:city": "Pu\u0142tusk",
                "addr:street": "Polna",
                "addr:housenumber": "7",
                "addr:teryt:simc": 930816,
                "addr:teryt:sym_ul": 17011,
                "contact:phone": "+48 236920201",
                "contact:email": "pg2pult@wp.pl",
                "contact:website": "http:\/\/zs2pultusk.pl",
                "ref:regon": "130949410",
                "ref:vatin": "PL5681522557",
                "operator": "Gmina Pu\u0142tusk",
                "operator:type": "government",
                "landuse": "education",
                "fixme": "amenity=school, amenity=college albo landuse=education w zale\u017cno\u015bci od tego, jakie plac\u00f3wki wchodz\u0105 w sk\u0142ad zespo\u0142u. Sprawd\u017a, kiedy stosowa\u0107 amenity=* a kiedy landuse=education.",
                "note": "Children RSPO: 14128;26818"
            }
        },
        {
            "id": 14128,
            "type": "Feature",
            "geometry": {
                "type": "Point",
                "coordinates": [
                    21.10885,
                    52.69133
                ]
            },
            "properties": {
                "ref:rspo": 14128,
                "official_name": "Przedszkole Miejskie Nr 3 w Pu\u0142tusku",
                "name": "Przedszkole Miejskie Nr 3 w Pu\u0142tusku",
                "addr:country": "PL",
                "addr:postcode": "06-100",
                "addr:city": "Pu\u0142tusk",
                "addr:street": "Polna",
                "addr:housenumber": "7",
                "addr:teryt:simc": 930816,
                "addr:teryt:sym_ul": 17011,
                "contact:phone": "+48 236920201",
                "contact:email": "sekretariat@zs2.pultusk.pl",
                "contact:website": "http:\/\/zs2pultusk.pl",
                "ref:regon": "130501260",
                "ref:vatin": "PL5681239235",
                "operator": "Gmina Pu\u0142tusk",
                "operator:type": "government",
                "amenity": "kindergarten",
                "note": "Parent RSPO: 14122"
            }
        },
        {
            "id": 26818,
            "type": "Feature",
            "geometry": {
                "type": "Point",
                "coordinates": [
                    21.10885,
                    52.691300000000005
                ]
            },
            "properties": {
                "isced:level": "1;2",
                "ref:rspo": 26818,
                "official_name": "Publiczna Szko\u0142a Podstawowa Nr 2 Z Oddzia\u0142ami Integracyjnymi im. Mjr. Henryka Sucharskiego",
                "name": "Publiczna Szko\u0142a Podstawowa Nr 2 Z Oddzia\u0142ami Integracyjnymi",
                "addr:country": "PL",
                "addr:postcode": "06-100",
                "addr:city": "Pu\u0142tusk",
                "addr:street": "Polna",
                "addr:housenumber": "7",
                "addr:teryt:simc": 930816,
                "addr:teryt:sym_ul": 17011,
                "contact:phone": "+48 236920201",
                "contact:email": "pg2pult@wp.pl",
                "contact:website": "http:\/\/zs2pultusk.pl",
                "ref:regon": "001133140",
                "ref:vatin": "PL5681239198",
                "operator": "Gmina Pu\u0142tusk",
                "operator:type": "government",
                "amenity": "school",
                "note": "Parent RSPO: 14122"
            }
        },
        {
            "id": 16775,
            "type": "Feature",
            "geometry": {
                "type": "Point",
                "coordinates": [
                    21.11084,
                    52.69348
                ]
            },
            "properties": {
                "ref:rspo": 16775,
                "official_name": "Niepubliczne Katolickie Przedszkole Faustynka",
                "name": "Niepubliczne Katolickie Przedszkole Faustynka",
                "addr:country": "PL",
                "addr:postcode": "06-102",
                "addr:city": "Pu\u0142tusk",
                "addr:street": "Piaskowa",
                "addr:housenumber": "16",
                "addr:teryt:simc": 930816,
                "addr:teryt:sym_ul": 16033,
                "contact:phone": "+48 502221227",
                "contact:email": "faustynka.poplawiak@interia.pl",
                "contact:website": "http:\/\/faustynka.poplawiak@interia.pl",
                "ref:regon": "146312373",
                "operator": "Rzymsko-Katolicka Parafia P.w. Mi\u0142osierdzia Bo\u017cego",
                "operator:type": "religious",
                "amenity": "kindergarten"
            }
        },
        {
            "id": 51934,
            "type": "Feature",
            "geometry": {
                "type": "Point",
                "coordinates": [
                    21.08656,
                    52.6991
                ]
            },
            "properties": {
                "ref:rspo": 51934,
                "official_name": "Pa\u0144stwowa Szko\u0142a Muzyczna I St. w Pu\u0142tusku",
                "name": "Pa\u0144stwowa Szko\u0142a Muzyczna I St. w Pu\u0142tusku",
                "addr:country": "PL",
                "addr:postcode": "06-100",
                "addr:city": "Pu\u0142tusk",
                "addr:street": "Ignacego Daszy\u0144skiego",
                "addr:housenumber": "17A",
                "addr:teryt:simc": 930816,
                "addr:teryt:sym_ul": 3639,
                "contact:phone": "+48 236920592",
                "contact:email": "psm.pultusk@interia.pl",
                "contact:website": "http:\/\/www.psmpultusk.edu.pl",
                "ref:regon": "002720336",
                "operator": "Ministerstwo Kultury I Dziedzictwa Narodowego",
                "operator:type": "public",
                "amenity": "music_school"
            }
        },
        {
            "id": 262966,
            "type": "Feature",
            "geometry": {
                "type": "Point",
                "coordinates": [
                    21.07158,
                    52.7023
                ]
            },
            "properties": {
                "ref:rspo": 262966,
                "official_name": "Przedszkole Niepubliczne Kids' Academy",
                "name": "Przedszkole Niepubliczne Kids' Academy",
                "addr:country": "PL",
                "addr:postcode": "06-100",
                "addr:city": "Pu\u0142tusk",
                "addr:street": "Je\u017cynowa",
                "addr:housenumber": "11",
                "addr:teryt:simc": 930816,
                "addr:teryt:sym_ul": 7562,
                "contact:phone": "+48 507263077",
                "contact:email": "kontakt@przedszkole-kidsacademy.pl",
                "contact:website": "http:\/\/www.przedszkole-kidsacademy.pl",
                "ref:regon": "368078528",
                "operator": "Ewelina Rupi\u0144ska",
                "operator:type": "private",
                "amenity": "kindergarten"
            }
        },
        {
            "id": 15624,
            "type": "Feature",
            "geometry": {
                "type": "Point",
                "coordinates": [
                    21.07855,
                    52.70255
                ]
            },
            "properties": {
                "ref:rspo": 15624,
                "official_name": "Przedszkole Miniland",
                "name": "Przedszkole Miniland",
                "addr:country": "PL",
                "addr:postcode": "06-100",
                "addr:city": "Pu\u0142tusk",
                "addr:street": "Adama Mickiewicza",
                "addr:housenumber": "31",
                "addr:door": "9",
                "addr:teryt:simc": 930816,
                "addr:teryt:sym_ul": 12740,
                "contact:phone": "+48 505013478",
                "contact:email": "miniland@interia.eu",
                "contact:website": "http:\/\/przedszkole-miniland.pl",
                "ref:regon": "146308354",
                "ref:vatin": "PL5681557490",
                "operator": "Edyta Madeja",
                "operator:type": "private",
                "amenity": "kindergarten"
            }
        },
        {
            "id": 104395,
            "type": "Feature",
            "geometry": {
                "type": "Point",
                "coordinates": [
                    21.09228,
                    52.70321
                ]
            },
            "properties": {
                "ref:rspo": 104395,
                "official_name": "Biblioteka Pedagogiczna w Ciechanowie Filia w Pu\u0142tusku",
                "name": "Biblioteka Pedagogiczna w Ciechanowie Filia w Pu\u0142tusku",
                "addr:country": "PL",
                "addr:postcode": "06-100",
                "addr:city": "Pu\u0142tusk",
                "addr:street": "Stanis\u0142awa Staszica",
                "addr:housenumber": "35",
                "addr:teryt:simc": 930816,
                "addr:teryt:sym_ul": 21071,
                "contact:phone": "+48 236922740",
                "contact:email": "bppultusk@gmail.com",
                "contact:website": "http:\/\/www.bppultusk.edu.pl",
                "ref:regon": "130944743",
                "ref:vatin": "PL5661888864",
                "operator": "Wojew\u00f3dztwo Mazowieckie",
                "operator:type": "government",
                "amenity": "library",
                "note": "Parent RSPO: 26343"
            }
        },
        {
            "id": 14909,
            "type": "Feature",
            "geometry": {
                "type": "Point",
                "coordinates": [
                    21.07582,
                    52.7043
                ]
            },
            "properties": {
                "isced:level": "1;2",
                "ref:rspo": 14909,
                "official_name": "Publiczna Szko\u0142a Podstawowa Nr 3 Z Oddzialami Integracyjnymi im. Tadeusza Ko\u015bciuszki w Pu\u0142tusku",
                "name": "Publiczna Szko\u0142a Podstawowa Nr 3 Z Oddzialami Integracyjnymi",
                "addr:country": "PL",
                "addr:postcode": "06-100",
                "addr:city": "Pu\u0142tusk",
                "addr:street": "Aleja Tysi\u0105clecia",
                "addr:housenumber": "14",
                "addr:teryt:simc": 930816,
                "addr:teryt:sym_ul": 206,
                "contact:phone": "+48 236925432",
                "contact:email": "sekretariat@psp3.pultusk.pl",
                "contact:website": "http:\/\/psp3pultusk.edupage.org",
                "ref:regon": "001133157",
                "ref:vatin": "PL5681149905",
                "operator": "Gmina Pu\u0142tusk",
                "operator:type": "government",
                "amenity": "school"
            }
        },
        {
            "id": 14131,
            "type": "Feature",
            "geometry": {
                "type": "Point",
                "coordinates": [
                    21.08668,
                    52.70482
                ]
            },
            "properties": {
                "ref:rspo": 14131,
                "official_name": "Niepubliczne Przedszkole Urwis",
                "name": "Niepubliczne Przedszkole Urwis",
                "addr:country": "PL",
                "addr:postcode": "06-100",
                "addr:city": "Pu\u0142tusk",
                "addr:street": "3 Maja",
                "addr:housenumber": "4d",
                "addr:teryt:simc": 930816,
                "addr:teryt:sym_ul": 11937,
                "contact:phone": "+48 601095095",
                "contact:email": "przedszkole.urwis@tlen.pl",
                "ref:regon": "146300890",
                "ref:vatin": "PL5711552558",
                "operator": "Ewelina Kujawa-Lis",
                "operator:type": "private",
                "amenity": "kindergarten"
            }
        },
        {
            "id": 14130,
            "type": "Feature",
            "geometry": {
                "type": "Point",
                "coordinates": [
                    21.07864,
                    52.70516
                ]
            },
            "properties": {
                "ref:rspo": 14130,
                "official_name": "Przedszkole Miejskie Nr 5 w Pu\u0142tusku",
                "name": "Przedszkole Miejskie Nr 5 w Pu\u0142tusku",
                "addr:country": "PL",
                "addr:postcode": "06-100",
                "addr:city": "Pu\u0142tusk",
                "addr:street": "17 Stycznia",
                "addr:housenumber": "6",
                "addr:teryt:simc": 930816,
                "addr:teryt:sym_ul": 21445,
                "contact:phone": "+48 236925204",
                "contact:email": "sekretariat@pm5.pultusk.pl",
                "contact:website": "http:\/\/www.pultusk5.przedszkoleok.pl",
                "ref:regon": "130501282",
                "ref:vatin": "PL5681239206",
                "operator": "Gmina Pu\u0142tusk",
                "operator:type": "government",
                "amenity": "kindergarten"
            }
        },
        {
            "id": 278929,
            "type": "Feature",
            "geometry": {
                "type": "Point",
                "coordinates": [
                    21.0939,
                    52.70543
                ]
            },
            "properties": {
                "ref:rspo": 278929,
                "official_name": "Akademia O\u015bwiaty",
                "name": "Akademia O\u015bwiaty",
                "addr:country": "PL",
                "addr:postcode": "06-100",
                "addr:city": "Pu\u0142tusk",
                "addr:street": "Szkolna",
                "addr:housenumber": "11",
                "addr:teryt:simc": 930816,
                "addr:teryt:sym_ul": 21970,
                "contact:email": "stowarzyszenie.zarzad@zlobkikluby.org",
                "contact:website": "http:\/\/www.akademiaoswiaty.pl",
                "ref:regon": "520221336",
                "operator": "Robert Wilczek",
                "operator:type": "private",
                "fixme": "w zale\u017cno\u015bci od przedmiotu dzia\u0142alno\u015bci (np. amenity=training + training=*, amenity=dancing_school, amenity=language_school, amenity=music_school)"
            }
        },
        {
            "id": 21220,
            "type": "Feature",
            "geometry": {
                "type": "Point",
                "coordinates": [
                    21.08213,
                    52.70555
                ]
            },
            "properties": {
                "isced:level": "3",
                "ref:rspo": 21220,
                "official_name": "Liceum Og\u00f3lnokszta\u0142c\u0105ce dla Doros\u0142ych w Pu\u0142tusku",
                "name": "Liceum Og\u00f3lnokszta\u0142c\u0105ce dla Doros\u0142ych w Pu\u0142tusku",
                "addr:country": "PL",
                "addr:postcode": "06-100",
                "addr:city": "Pu\u0142tusk",
                "addr:street": "New Britain",
                "addr:housenumber": "1",
                "addr:teryt:simc": 930816,
                "addr:teryt:sym_ul": 34810,
                "contact:phone": "+48 236924382",
                "contact:email": "zntz@poczta.onet.pl",
                "contact:website": "http:\/\/www.szkolydladoroslych.edu.pl",
                "ref:regon": "146326620",
                "ref:vatin": "PL5681069193",
                "operator": "Wies\u0142aw Ko\u0142akowski",
                "operator:type": "private",
                "amenity": "school"
            }
        },
        {
            "id": 26777,
            "type": "Feature",
            "geometry": {
                "type": "Point",
                "coordinates": [
                    21.08213,
                    52.70552
                ]
            },
            "properties": {
                "isced:level": "1;2",
                "ref:rspo": 26777,
                "official_name": "Publiczna Szko\u0142a Podstawowa Nr 4 Z Klasami Sportowymi im. Ireny Szewi\u0144skiej w Pu\u0142tusku",
                "name": "Publiczna Szko\u0142a Podstawowa Nr 4 Z Klasami Sportowymi",
                "addr:country": "PL",
                "addr:postcode": "06-100",
                "addr:city": "Pu\u0142tusk",
                "addr:street": "New Britain",
                "addr:housenumber": "1",
                "addr:teryt:simc": 930816,
                "addr:teryt:sym_ul": 34810,
                "contact:phone": "+48 236920382",
                "contact:email": "sekretariat@psp4pultusk.edu.pl",
                "contact:website": "http:\/\/www.psp4pultusk.edu.pl",
                "ref:regon": "001133163",
                "ref:vatin": "PL5681522534",
                "operator": "Gmina Pu\u0142tusk",
                "operator:type": "government",
                "amenity": "school"
            }
        },
        {
            "id": 115254,
            "type": "Feature",
            "geometry": {
                "type": "Point",
                "coordinates": [
                    21.08213,
                    52.705490000000005
                ]
            },
            "properties": {
                "isced:level": "3",
                "ref:rspo": 115254,
                "official_name": "I Liceum Og\u00f3lnokszta\u0142c\u0105ce Cn-B im. 13 Pu\u0142ku Piechoty w Pu\u0142tusku",
                "name": "I Liceum Og\u00f3lnokszta\u0142c\u0105ce Cn-B",
                "addr:country": "PL",
                "addr:postcode": "06-100",
                "addr:city": "Pu\u0142tusk",
                "addr:street": "New Britain",
                "addr:housenumber": "1",
                "addr:teryt:simc": 930816,
                "addr:teryt:sym_ul": 34810,
                "contact:phone": "+48 600287185",
                "contact:email": "pultusk@cnb-feniks.edu.pl",
                "contact:website": "http:\/\/www.szkolyfeniks.pl",
                "ref:regon": "146739367",
                "operator": "Centrum Naukowo-Biznesowe Feniks Sp\u00f3\u0142ka Cywilna",
                "operator:type": "consortium",
                "amenity": "school"
            }
        },
        {
            "id": 118953,
            "type": "Feature",
            "geometry": {
                "type": "Point",
                "coordinates": [
                    21.08213,
                    52.70546
                ]
            },
            "properties": {
                "isced:level": "4",
                "ref:rspo": 118953,
                "official_name": "Studium Bezpiecze\u0144stwa I Higieny Pracy dla Doros\u0142ych w Pu\u0142tusku",
                "name": "Studium Bezpiecze\u0144stwa I Higieny Pracy dla Doros\u0142ych w Pu\u0142tusku",
                "addr:country": "PL",
                "addr:postcode": "06-100",
                "addr:city": "Pu\u0142tusk",
                "addr:street": "New Britain",
                "addr:housenumber": "1",
                "addr:teryt:simc": 930816,
                "addr:teryt:sym_ul": 34810,
                "contact:phone": "+48 236924382",
                "contact:email": "zntz@poczta.onet.pl",
                "contact:website": "http:\/\/www.szkolydladoroslych.edu.pl",
                "ref:regon": "146827976",
                "operator": "Wies\u0142aw Ko\u0142akowski",
                "operator:type": "private",
                "amenity": "college"
            }
        },
        {
            "id": 10324,
            "type": "Feature",
            "geometry": {
                "type": "Point",
                "coordinates": [
                    21.0753999,
                    52.70558
                ]
            },
            "properties": {
                "ref:rspo": 10324,
                "official_name": "Zesp\u00f3\u0142 Szk\u00f3\u0142 Zawodowych im. Jana Ruszkowskiego w Pu\u0142tusku",
                "name": "Zesp\u00f3\u0142 Szk\u00f3\u0142 Zawodowych",
                "addr:country": "PL",
                "addr:postcode": "06-100",
                "addr:city": "Pu\u0142tusk",
                "addr:street": "Aleja Tysi\u0105clecia",
                "addr:housenumber": "12",
                "addr:teryt:simc": 930816,
                "addr:teryt:sym_ul": 206,
                "contact:phone": "+48 236920641",
                "contact:email": "zszrusz@wp.pl",
                "contact:website": "http:\/\/www.zszpultusk.edu.pl",
                "ref:regon": "000199958",
                "ref:vatin": "PL5681051425",
                "operator": "Powiat Pu\u0142tuski",
                "operator:type": "government",
                "landuse": "education",
                "fixme": "amenity=school, amenity=college albo landuse=education w zale\u017cno\u015bci od tego, jakie plac\u00f3wki wchodz\u0105 w sk\u0142ad zespo\u0142u. Sprawd\u017a, kiedy stosowa\u0107 amenity=* a kiedy landuse=education.",
                "note": "Children RSPO: 18218;18277;18339;18953;19306"
            }
        },
        {
            "id": 14261,
            "type": "Feature",
            "geometry": {
                "type": "Point",
                "coordinates": [
                    21.0753999,
                    52.705549999999995
                ]
            },
            "properties": {
                "ref:rspo": 14261,
                "official_name": "Specjalny O\u015brodek Szkolno-Wychowawczy im.anny Kar\u0142owicz w Pu\u0142tusku",
                "name": "Specjalny O\u015brodek Szkolno-Wychowawczy im.anny Kar\u0142owicz w Pu\u0142tusku",
                "addr:country": "PL",
                "addr:postcode": "06-100",
                "addr:city": "Pu\u0142tusk",
                "addr:street": "Aleja Tysi\u0105clecia",
                "addr:housenumber": "12",
                "addr:teryt:simc": 930816,
                "addr:teryt:sym_ul": 206,
                "contact:phone": "+48 236920375",
                "contact:email": "sosw_pultusk@op.pl",
                "contact:website": "http:\/\/www.osrodek_pultusk.republika.pl",
                "ref:regon": "130454737",
                "ref:vatin": "PL5681272422",
                "operator": "Powiat Pu\u0142tuski",
                "operator:type": "government",
                "amenity": "school",
                "note": "Children RSPO: 29138;47509;86724"
            }
        },
        {
            "id": 18218,
            "type": "Feature",
            "geometry": {
                "type": "Point",
                "coordinates": [
                    21.0753999,
                    52.70552
                ]
            },
            "properties": {
                "isced:level": "3",
                "ref:rspo": 18218,
                "official_name": "I Liceum Og\u00f3lnokszta\u0142c\u0105ce",
                "name": "I Liceum Og\u00f3lnokszta\u0142c\u0105ce",
                "addr:country": "PL",
                "addr:postcode": "06-100",
                "addr:city": "Pu\u0142tusk",
                "addr:street": "Aleja Tysi\u0105clecia",
                "addr:housenumber": "12",
                "addr:teryt:simc": 930816,
                "addr:teryt:sym_ul": 206,
                "contact:phone": "+48 236920641",
                "contact:email": "zszrusz@wp.pl",
                "contact:website": "http:\/\/www.zszpultusk.edu.pl",
                "ref:regon": "141100360",
                "operator": "Powiat Pu\u0142tuski",
                "operator:type": "government",
                "amenity": "school",
                "note": "Parent RSPO: 10324"
            }
        },
        {
            "id": 18277,
            "type": "Feature",
            "geometry": {
                "type": "Point",
                "coordinates": [
                    21.0753999,
                    52.70549
                ]
            },
            "properties": {
                "isced:level": "3",
                "ref:rspo": 18277,
                "official_name": "Technikum Nr 1",
                "name": "Technikum Nr 1",
                "addr:country": "PL",
                "addr:postcode": "06-100",
                "addr:city": "Pu\u0142tusk",
                "addr:street": "Aleja Tysi\u0105clecia",
                "addr:housenumber": "12",
                "addr:teryt:simc": 930816,
                "addr:teryt:sym_ul": 206,
                "contact:phone": "+48 236920641",
                "contact:email": "zszrusz@wp.pl",
                "contact:website": "http:\/\/www.zszpultusk.edu.pl",
                "ref:regon": "130925556",
                "operator": "Powiat Pu\u0142tuski",
                "operator:type": "government",
                "amenity": "school",
                "note": "Parent RSPO: 10324"
            }
        },
        {
            "id": 18339,
            "type": "Feature",
            "geometry": {
                "type": "Point",
                "coordinates": [
                    21.0753999,
                    52.705459999999995
                ]
            },
            "properties": {
                "isced:level": "3",
                "ref:rspo": 18339,
                "official_name": "Bran\u017cowa Szko\u0142a I Stopnia Nr 1 w Pu\u0142tusku",
                "name": "Bran\u017cowa Szko\u0142a I Stopnia Nr 1 w Pu\u0142tusku",
                "addr:country": "PL",
                "addr:postcode": "06-100",
                "addr:city": "Pu\u0142tusk",
                "addr:street": "Aleja Tysi\u0105clecia",
                "addr:housenumber": "12",
                "addr:teryt:simc": 930816,
                "addr:teryt:sym_ul": 206,
                "contact:phone": "+48 236920641",
                "contact:email": "zszrusz@wp.pl",
                "contact:website": "http:\/\/www.zszpultusk.edu.pl",
                "ref:regon": "130915807",
                "operator": "Powiat Pu\u0142tuski",
                "operator:type": "government",
                "amenity": "school",
                "note": "Parent RSPO: 10324"
            }
        },
        {
            "id": 18953,
            "type": "Feature",
            "geometry": {
                "type": "Point",
                "coordinates": [
                    21.0753999,
                    52.70543
                ]
            },
            "properties": {
                "isced:level": "3",
                "ref:rspo": 18953,
                "official_name": "Liceum Og\u00f3lnokszta\u0142c\u0105ce dla Doros\u0142ych",
                "name": "Liceum Og\u00f3lnokszta\u0142c\u0105ce dla Doros\u0142ych",
                "addr:country": "PL",
                "addr:postcode": "06-100",
                "addr:city": "Pu\u0142tusk",
                "addr:street": "Aleja Tysi\u0105clecia",
                "addr:housenumber": "12",
                "addr:teryt:simc": 930816,
                "addr:teryt:sym_ul": 206,
                "contact:phone": "+48 236920641",
                "contact:email": "zszrusz@wp.pl",
                "contact:website": "http:\/\/www.zszpultusk.edu.pl",
                "ref:regon": "140490932",
                "operator": "Powiat Pu\u0142tuski",
                "operator:type": "government",
                "amenity": "school",
                "note": "Parent RSPO: 10324"
            }
        },
        {
            "id": 19306,
            "type": "Feature",
            "geometry": {
                "type": "Point",
                "coordinates": [
                    21.0753999,
                    52.7054
                ]
            },
            "properties": {
                "isced:level": "4",
                "ref:rspo": 19306,
                "official_name": "Szko\u0142a Policealna dla Doros\u0142ych",
                "name": "Szko\u0142a Policealna dla Doros\u0142ych",
                "addr:country": "PL",
                "addr:postcode": "06-100",
                "addr:city": "Pu\u0142tusk",
                "addr:street": "Aleja Tysi\u0105clecia",
                "addr:housenumber": "12",
                "addr:teryt:simc": 930816,
                "addr:teryt:sym_ul": 206,
                "contact:phone": "+48 236920641",
                "contact:email": "zszrusz@wp.pl",
                "contact:website": "http:\/\/www.zszpultusk.edu.pl",
                "ref:regon": "140224930",
                "operator": "Powiat Pu\u0142tuski",
                "operator:type": "government",
                "amenity": "college",
                "note": "Parent RSPO: 10324"
            }
        },
        {
            "id": 29138,
            "type": "Feature",
            "geometry": {
                "type": "Point",
                "coordinates": [
                    21.0753999,
                    52.705369999999995
                ]
            },
            "properties": {
                "ref:rspo": 29138,
                "official_name": "Przedszkole Specjalne",
                "name": "Przedszkole Specjalne",
                "addr:country": "PL",
                "addr:postcode": "06-100",
                "addr:city": "Pu\u0142tusk",
                "addr:street": "Aleja Tysi\u0105clecia",
                "addr:housenumber": "12",
                "addr:teryt:simc": 930816,
                "addr:teryt:sym_ul": 206,
                "contact:phone": "+48 236920375",
                "contact:email": "sosw_pultusk@op.pl",
                "contact:website": "http:\/\/www.osrodek_pultusk.republika.pl",
                "ref:regon": "142542395",
                "operator": "Powiat Pu\u0142tuski",
                "operator:type": "government",
                "amenity": "kindergarten",
                "note": "Parent RSPO: 14261"
            }
        },
        {
            "id": 47509,
            "type": "Feature",
            "geometry": {
                "type": "Point",
                "coordinates": [
                    21.0753999,
                    52.70534
                ]
            },
            "properties": {
                "isced:level": "1;2",
                "ref:rspo": 47509,
                "official_name": "Publiczna Szko\u0142a Podstawowa Specjalna",
                "name": "Publiczna Szko\u0142a Podstawowa Specjalna",
                "addr:country": "PL",
                "addr:postcode": "06-100",
                "addr:city": "Pu\u0142tusk",
                "addr:street": "Aleja Tysi\u0105clecia",
                "addr:housenumber": "12",
                "addr:teryt:simc": 930816,
                "addr:teryt:sym_ul": 206,
                "contact:phone": "+48 236920375",
                "contact:email": "sosw_pultusk@op.pl",
                "contact:website": "http:\/\/www.soswpultusk.pl",
                "ref:regon": "130455688",
                "operator": "Powiat Pu\u0142tuski",
                "operator:type": "government",
                "amenity": "school",
                "note": "Parent RSPO: 14261"
            }
        },
        {
            "id": 86724,
            "type": "Feature",
            "geometry": {
                "type": "Point",
                "coordinates": [
                    21.0753999,
                    52.70531
                ]
            },
            "properties": {
                "ref:rspo": 86724,
                "official_name": "Publiczna Szko\u0142a Specjalna Przysposabiaj\u0105ca Do Pracy",
                "name": "Publiczna Szko\u0142a Specjalna Przysposabiaj\u0105ca Do Pracy",
                "addr:country": "PL",
                "addr:postcode": "06-100",
                "addr:city": "Pu\u0142tusk",
                "addr:street": "Aleja Tysi\u0105clecia",
                "addr:housenumber": "12",
                "addr:teryt:simc": 930816,
                "addr:teryt:sym_ul": 206,
                "contact:phone": "+48 236920375",
                "contact:email": "sosw_pultusk@op.pl",
                "contact:website": "http:\/\/www.osrodek_pultusk.republika.pl",
                "ref:regon": "140218874",
                "operator": "Powiat Pu\u0142tuski",
                "operator:type": "government",
                "amenity": "school",
                "note": "Parent RSPO: 14261"
            }
        },
        {
            "id": 124066,
            "type": "Feature",
            "geometry": {
                "type": "Point",
                "coordinates": [
                    21.08344,
                    52.70612
                ]
            },
            "properties": {
                "ref:rspo": 124066,
                "official_name": "Malinowe Przedszkole Z Oddzia\u0142ami Integracyjnymi",
                "name": "Malinowe Przedszkole Z Oddzia\u0142ami Integracyjnymi",
                "addr:country": "PL",
                "addr:postcode": "06-100",
                "addr:city": "Pu\u0142tusk",
                "addr:street": "\u017bwirki i Wigury",
                "addr:housenumber": "2",
                "addr:teryt:simc": 930816,
                "addr:teryt:sym_ul": 26608,
                "contact:phone": "+48 236922029",
                "contact:email": "info@malinoweprzedszkole.pl",
                "ref:regon": "147372087",
                "operator": "Krystyna Owczarek Juliusz Owczarek S.c.",
                "operator:type": "consortium",
                "amenity": "kindergarten"
            }
        },
        {
            "id": 263680,
            "type": "Feature",
            "geometry": {
                "type": "Point",
                "coordinates": [
                    21.08344,
                    52.706089999999996
                ]
            },
            "properties": {
                "ref:rspo": 263680,
                "official_name": "Niepubliczna Poradnia Psychologiczno-Pedagogiczna Pio",
                "name": "Niepubliczna Poradnia Psychologiczno-Pedagogiczna Pio",
                "addr:country": "PL",
                "addr:postcode": "06-100",
                "addr:city": "Pu\u0142tusk",
                "addr:street": "\u017bwirki i Wigury",
                "addr:housenumber": "2",
                "addr:teryt:simc": 930816,
                "addr:teryt:sym_ul": 26608,
                "contact:phone": "+48 790447667",
                "contact:email": "rehabilitacja.pio@vp.pl",
                "contact:website": "http:\/\/www.rehabilitacja.pio@vp.pl",
                "ref:regon": "368216976",
                "operator": "Katarzyna Sieczkowska",
                "operator:type": "private",
                "healthcare": "counselling",
                "counselling_type": "education",
                "fixme": "w zale\u017cno\u015bci od przedmiotu dzia\u0142alno\u015bci (np. healthcare=counselling + counselling_type=education albo healthcare=psychotherapist)"
            }
        },
        {
            "id": 15555,
            "type": "Feature",
            "geometry": {
                "type": "Point",
                "coordinates": [
                    21.06906,
                    52.70617
                ]
            },
            "properties": {
                "ref:rspo": 15555,
                "official_name": "Niepubliczne Przedszkole British School Clever",
                "name": "Niepubliczne Przedszkole British School Clever",
                "addr:country": "PL",
                "addr:postcode": "06-100",
                "addr:city": "Pu\u0142tusk",
                "addr:street": "Burmistrza Stanis\u0142awa \u015aniegockiego",
                "addr:housenumber": "8f",
                "addr:teryt:simc": 930816,
                "addr:teryt:sym_ul": 39944,
                "contact:phone": "+48 504635634",
                "contact:email": "pultusk@przedszkoleclever.com",
                "contact:website": "http:\/\/www.przedszkoleclever.com",
                "ref:regon": "146308822",
                "ref:vatin": "PL5681508942",
                "operator": "Grzegorz Dziubi\u0144ski",
                "operator:type": "private",
                "amenity": "kindergarten"
            }
        },
        {
            "id": 8931,
            "type": "Feature",
            "geometry": {
                "type": "Point",
                "coordinates": [
                    21.08809,
                    52.70639
                ]
            },
            "properties": {
                "isced:level": "3",
                "ref:rspo": 8931,
                "official_name": "Liceum Og\u00f3lnokszta\u0142c\u0105ce im. Piotra Skargi w Pu\u0142tusku",
                "name": "Liceum Og\u00f3lnokszta\u0142c\u0105ce",
                "addr:country": "PL",
                "addr:postcode": "06-100",
                "addr:city": "Pu\u0142tusk",
                "addr:street": "Piotra Skargi",
                "addr:housenumber": "2",
                "addr:teryt:simc": 930816,
                "addr:teryt:sym_ul": 20012,
                "contact:phone": "+48 236920171",
                "contact:email": "kontakt@loskarga.edu.pl",
                "contact:website": "http:\/\/www.loskarga.edu.pl",
                "ref:regon": "000229458",
                "ref:vatin": "PL5681239011",
                "operator": "Powiat Pu\u0142tuski",
                "operator:type": "government",
                "amenity": "school"
            }
        },
        {
            "id": 21811,
            "type": "Feature",
            "geometry": {
                "type": "Point",
                "coordinates": [
                    21.08945,
                    52.70763
                ]
            },
            "properties": {
                "ref:rspo": 21811,
                "official_name": "Zesp\u00f3\u0142 Szk\u00f3\u0142 im. Boles\u0142awa Prusa w Pu\u0142tusku",
                "name": "Zesp\u00f3\u0142 Szk\u00f3\u0142",
                "addr:country": "PL",
                "addr:postcode": "06-100",
                "addr:city": "Pu\u0142tusk",
                "addr:street": "Marii Konopnickiej",
                "addr:housenumber": "9",
                "addr:teryt:simc": 930816,
                "addr:teryt:sym_ul": 9186,
                "contact:phone": "+48 236922242",
                "contact:email": "zsbprus@wp.pl",
                "contact:website": "http:\/\/zsbprus.beep.pl",
                "ref:regon": "130144563",
                "ref:vatin": "PL5681239287",
                "operator": "Powiat Pu\u0142tuski",
                "operator:type": "government",
                "landuse": "education",
                "fixme": "amenity=school, amenity=college albo landuse=education w zale\u017cno\u015bci od tego, jakie plac\u00f3wki wchodz\u0105 w sk\u0142ad zespo\u0142u. Sprawd\u017a, kiedy stosowa\u0107 amenity=* a kiedy landuse=education.",
                "note": "Children RSPO: 22972;23095"
            }
        },
        {
            "id": 22972,
            "type": "Feature",
            "geometry": {
                "type": "Point",
                "coordinates": [
                    21.08945,
                    52.7076
                ]
            },
            "properties": {
                "isced:level": "3",
                "ref:rspo": 22972,
                "official_name": "Technikum Nr2",
                "name": "Technikum Nr2",
                "addr:country": "PL",
                "addr:postcode": "06-100",
                "addr:city": "Pu\u0142tusk",
                "addr:street": "Marii Konopnickiej",
                "addr:housenumber": "9",
                "addr:teryt:simc": 930816,
                "addr:teryt:sym_ul": 9186,
                "contact:phone": "+48 236922242",
                "contact:email": "zsbprus@wp.pl",
                "contact:website": "http:\/\/www.zsbprus.beep.pl",
                "ref:regon": "130915842",
                "operator": "Powiat Pu\u0142tuski",
                "operator:type": "government",
                "amenity": "school",
                "note": "Parent RSPO: 21811"
            }
        },
        {
            "id": 23095,
            "type": "Feature",
            "geometry": {
                "type": "Point",
                "coordinates": [
                    21.08945,
                    52.707570000000004
                ]
            },
            "properties": {
                "isced:level": "3",
                "ref:rspo": 23095,
                "official_name": "Bran\u017cowa Szko\u0142a I Stopnia Nr 2 w Pu\u0142tusku",
                "name": "Bran\u017cowa Szko\u0142a I Stopnia Nr 2 w Pu\u0142tusku",
                "addr:country": "PL",
                "addr:postcode": "06-100",
                "addr:city": "Pu\u0142tusk",
                "addr:street": "Marii Konopnickiej",
                "addr:housenumber": "9",
                "addr:teryt:simc": 930816,
                "addr:teryt:sym_ul": 9186,
                "contact:phone": "+48 236922242",
                "contact:email": "zsbprus@wp.pl",
                "contact:website": "http:\/\/www.zsbprus.beep.pl",
                "ref:regon": "130915859",
                "operator": "Powiat Pu\u0142tuski",
                "operator:type": "government",
                "amenity": "school",
                "note": "Parent RSPO: 21811"
            }
        },
        {
            "id": 14317,
            "type": "Feature",
            "geometry": {
                "type": "Point",
                "coordinates": [
                    21.08451,
                    52.7077
                ]
            },
            "properties": {
                "ref:rspo": 14317,
                "official_name": "Poradnia Psychologiczno-Pedagogiczna w Pu\u0142tusku",
                "name": "Poradnia Psychologiczno-Pedagogiczna w Pu\u0142tusku",
                "addr:country": "PL",
                "addr:postcode": "06-100",
                "addr:city": "Pu\u0142tusk",
                "addr:street": "3 Maja",
                "addr:housenumber": "20",
                "addr:teryt:simc": 930816,
                "addr:teryt:sym_ul": 11937,
                "contact:phone": "+48 236925591",
                "contact:email": "sekretariat@ppppultusk.pl",
                "ref:regon": "000947449",
                "ref:vatin": "PL5681251549",
                "operator": "Powiat Pu\u0142tuski",
                "operator:type": "government",
                "healthcare": "counselling",
                "counselling_type": "education",
                "fixme": "w zale\u017cno\u015bci od przedmiotu dzia\u0142alno\u015bci (np. healthcare=counselling + counselling_type=education albo healthcare=psychotherapist)"
            }
        },
        {
            "id": 262647,
            "type": "Feature",
            "geometry": {
                "type": "Point",
                "coordinates": [
                    21.0880699,
                    52.70788
                ]
            },
            "properties": {
                "isced:level": "1;2",
                "ref:rspo": 262647,
                "official_name": "Publiczna Szko\u0142a Podstawowa Nr 1 im. Klaudyny Potockiej w Pu\u0142tusku",
                "name": "Publiczna Szko\u0142a Podstawowa Nr 1",
                "addr:country": "PL",
                "addr:postcode": "06-100",
                "addr:city": "Pu\u0142tusk",
                "addr:street": "Marii Konopnickiej",
                "addr:housenumber": "5",
                "addr:teryt:simc": 930816,
                "addr:teryt:sym_ul": 9186,
                "contact:phone": "+48 236925387",
                "contact:email": "sekretariat@psp1.pultusk.pl",
                "contact:website": "http:\/\/www.psp1pultusk.pl",
                "ref:regon": "368047373",
                "operator": "Gmina Pu\u0142tusk",
                "operator:type": "government",
                "amenity": "school"
            }
        },
        {
            "id": 15623,
            "type": "Feature",
            "geometry": {
                "type": "Point",
                "coordinates": [
                    21.08341,
                    52.70866
                ]
            },
            "properties": {
                "ref:rspo": 15623,
                "official_name": "Niepubliczne Katolickie Przedszkole im. \u015awietej Rodziny",
                "name": "Niepubliczne Katolickie Przedszkole",
                "addr:country": "PL",
                "addr:postcode": "06-100",
                "addr:city": "Pu\u0142tusk",
                "addr:street": "Tadeusza Ko\u015bciuszki",
                "addr:housenumber": "17",
                "addr:teryt:simc": 930816,
                "addr:teryt:sym_ul": 9582,
                "contact:phone": "+48 664173246",
                "contact:email": "swrodzina@onet.pl",
                "ref:regon": "146308288",
                "ref:vatin": "PL5681608365",
                "operator": "Zgromadzenie Si\u00f3str S\u0142u\u017cek Naj\u015bwi\u0119tszej Maryi Panny Niepokalanej Prowincja P\u0142ocka",
                "operator:type": "religious",
                "amenity": "kindergarten"
            }
        },
        {
            "id": 14129,
            "type": "Feature",
            "geometry": {
                "type": "Point",
                "coordinates": [
                    21.08211,
                    52.7100099
                ]
            },
            "properties": {
                "ref:rspo": 14129,
                "official_name": "Przedszkole Miejskie Nr 4 Z Oddzia\u0142ami Integracyjnymi w Pu\u0142tusku",
                "name": "Przedszkole Miejskie Nr 4 Z Oddzia\u0142ami Integracyjnymi w Pu\u0142tusku",
                "addr:country": "PL",
                "addr:postcode": "06-100",
                "addr:city": "Pu\u0142tusk",
                "addr:street": "Rafa\u0142a Krajewskiego",
                "addr:housenumber": "3",
                "addr:teryt:simc": 930816,
                "addr:teryt:sym_ul": 9782,
                "contact:phone": "+48 236922045",
                "contact:email": "lidia.sadowska@pm4.pultusk.pl",
                "contact:website": "http:\/\/pm4pultusk.szkolnastrona.pl",
                "ref:regon": "130501276",
                "ref:vatin": "PL5681149928",
                "operator": "Gmina Pu\u0142tusk",
                "operator:type": "government",
                "amenity": "kindergarten"
            }
        },
        {
            "id": 14124,
            "type": "Feature",
            "geometry": {
                "type": "Point",
                "coordinates": [
                    21.0667249,
                    52.760149
                ]
            },
            "properties": {
                "ref:rspo": 14124,
                "official_name": "Zesp\u00f3\u0142 Szkolno-Przedszkolny w Przemiarowie",
                "name": "Zesp\u00f3\u0142 Szkolno-Przedszkolny w Przemiarowie",
                "addr:country": "PL",
                "addr:postcode": "06-100",
                "addr:place": "Przemiarowo",
                "addr:housenumber": "33",
                "addr:teryt:simc": 123263,
                "contact:phone": "+48 236910952",
                "contact:email": "zspprzemiarowo@wp.pl",
                "contact:website": "http:\/\/www.zspprzemiarowo.pultusk.pl",
                "ref:regon": "130454223",
                "ref:vatin": "PL5681482065",
                "operator": "Gmina Pu\u0142tusk",
                "operator:type": "government",
                "landuse": "education",
                "fixme": "amenity=school, amenity=college albo landuse=education w zale\u017cno\u015bci od tego, jakie plac\u00f3wki wchodz\u0105 w sk\u0142ad zespo\u0142u. Sprawd\u017a, kiedy stosowa\u0107 amenity=* a kiedy landuse=education.",
                "note": "Children RSPO: 26476;26477;275688"
            }
        },
        {
            "id": 26476,
            "type": "Feature",
            "geometry": {
                "type": "Point",
                "coordinates": [
                    21.0667249,
                    52.760118999999996
                ]
            },
            "properties": {
                "ref:rspo": 26476,
                "official_name": "Przedszkole Wiejskie w Przemiarowie",
                "name": "Przedszkole Wiejskie w Przemiarowie",
                "addr:country": "PL",
                "addr:postcode": "06-100",
                "addr:place": "Przemiarowo",
                "addr:housenumber": "33",
                "addr:teryt:simc": 123263,
                "contact:phone": "+48 236910952",
                "contact:email": "zspprzemiarowo@wp.pl",
                "contact:website": "http:\/\/www.zspprzemiarowo.pultusk.pl",
                "ref:regon": "130501299",
                "ref:vatin": "PL5681238170",
                "operator": "Gmina Pu\u0142tusk",
                "operator:type": "government",
                "amenity": "kindergarten",
                "note": "Parent RSPO: 14124"
            }
        },
        {
            "id": 26477,
            "type": "Feature",
            "geometry": {
                "type": "Point",
                "coordinates": [
                    21.0667249,
                    52.760089
                ]
            },
            "properties": {
                "isced:level": "1;2",
                "ref:rspo": 26477,
                "official_name": "Publiczna Szko\u0142a Podstawowa im. Rmt Witolda Pileckiego w Przemiarowie",
                "name": "Publiczna Szko\u0142a Podstawowa",
                "addr:country": "PL",
                "addr:postcode": "06-100",
                "addr:place": "Przemiarowo",
                "addr:housenumber": "33",
                "addr:teryt:simc": 123263,
                "contact:phone": "+48 236910952",
                "contact:email": "zspprzemiarowo@wp.pl",
                "contact:website": "http:\/\/www.zspprzemiarowo.pultusk.pl",
                "ref:regon": "001133186",
                "ref:vatin": "PL5681238187",
                "operator": "Gmina Pu\u0142tusk",
                "operator:type": "government",
                "amenity": "school",
                "note": "Parent RSPO: 14124"
            }
        },
        {
            "id": 275688,
            "type": "Feature",
            "geometry": {
                "type": "Point",
                "coordinates": [
                    21.134337,
                    52.786448
                ]
            },
            "properties": {
                "ref:rspo": 275688,
                "official_name": "Punkt Przedszkolny w Bobach Przy Przedszkolu Wiejskim w Przemiarowie",
                "name": "Punkt Przedszkolny w Bobach Przy Przedszkolu Wiejskim w Przemiarowie",
                "addr:country": "PL",
                "addr:postcode": "06-100",
                "addr:place": "Boby",
                "addr:housenumber": "15a",
                "addr:teryt:simc": 123004,
                "contact:phone": "+48 236910952",
                "contact:email": "zspprzemiarowo@wp.pl",
                "ref:regon": "386932061",
                "operator": "Gmina Pu\u0142tusk",
                "operator:type": "government",
                "amenity": "kindergarten",
                "note": "Parent RSPO: 14124"
            }
        }
    ]
}