{
    "type": "FeatureCollection",
    "features": [
        {
            "id": 3817,
            "type": "Feature",
            "geometry": {
                "type": "Point",
                "coordinates": [
                    20.8605439,
                    52.725505
                ]
            },
            "properties": {
                "isced:level": "1;2",
                "ref:rspo": 3817,
                "official_name": "Publiczna Szko\u0142a Podstawowa w Skaszewie W\u0142o\u015bcia\u0144skim",
                "name": "Publiczna Szko\u0142a Podstawowa w Skaszewie W\u0142o\u015bcia\u0144skim",
                "addr:postcode": "06-126",
                "addr:place": "Skaszewo W\u0142o\u015bcia\u0144skie",
                "addr:housenumber": "25",
                "addr:teryt:simc": 116228,
                "phone": "+48 236915276",
                "email": "sekretariat.pspskaszewo@gminagzy.pl",
                "website": "http:\/\/www.pspskaszewo.pl\/",
                "ref:regon": "001158795",
                "ref:vatin": "PL5681459830",
                "operator": "Gmina Gzy",
                "operator:type": "government",
                "amenity": "school"
            }
        },
        {
            "id": 3816,
            "type": "Feature",
            "geometry": {
                "type": "Point",
                "coordinates": [
                    20.95526,
                    52.726248
                ]
            },
            "properties": {
                "isced:level": "1;2",
                "ref:rspo": 3816,
                "official_name": "Publiczna Szko\u0142a Podstawowa im.przyja\u017ani Polsko-W\u0119gierskiej w Przewodowie Poduchownym",
                "name": "Publiczna Szko\u0142a Podstawowa im.przyja\u017ani Polsko-W\u0119gierskiej w Przewodowie Poduchownym",
                "addr:postcode": "06-126",
                "addr:place": "Przewodowo Poduchowne",
                "addr:housenumber": "21",
                "addr:teryt:simc": 116205,
                "phone": "+48 236913081",
                "email": "spprzewodowo@gminagzy.pl",
                "website": "http:\/\/pspprzewodowo.pl",
                "ref:regon": "000692794",
                "ref:vatin": "PL5681459965",
                "operator": "Gmina Gzy",
                "operator:type": "government",
                "amenity": "school"
            }
        },
        {
            "id": 14630,
            "type": "Feature",
            "geometry": {
                "type": "Point",
                "coordinates": [
                    20.9257761,
                    52.744575
                ]
            },
            "properties": {
                "isced:level": "1;2",
                "ref:rspo": 14630,
                "official_name": "Spo\u0142eczna Szko\u0142a Podstawowa w Gzach",
                "name": "Spo\u0142eczna Szko\u0142a Podstawowa w Gzach",
                "addr:postcode": "06-126",
                "addr:place": "Gzy",
                "addr:housenumber": "59",
                "addr:teryt:simc": 115950,
                "phone": "+48 236925328",
                "email": "sspgzy@wp.pl",
                "website": "http:\/\/ssp-gzy.manifo.com",
                "ref:regon": "146302601",
                "operator": "Stowarzyszenie Rozwoju Wsi Gzy",
                "operator:type": "ngo",
                "amenity": "school"
            }
        }
    ]
}