{"type":"FeatureCollection","features":[{"id":270226,"type":"Feature","geometry":{"type":"Point","coordinates":[20.57907,49.7856]},"properties":{"ref:rspo":270226,"official_name":"Niepubliczne Przedszkole Radosna Gromadka","name":"Niepubliczne Przedszkole Radosna Gromadka","addr:country":"PL","addr:postcode":"32-862","addr:place":"Dru\u017ck\u00f3w Pusty","addr:housenumber":"81A","addr:teryt:sym_ul":820921,"contact:email":"biuro@radosnagromadka.pl","ref:regon":"382223600","operator":"Radosna Gromadka S.c. Piechnik Krzysztof, Motak Katarzyna","operator:type":"consortium","amenity":"kindergarten"}},{"id":269940,"type":"Feature","geometry":{"type":"Point","coordinates":[20.60121,49.78643]},"properties":{"ref:rspo":269940,"official_name":"Przedszkole Niepubliczne Ochronka B\u0142. Edmunda Bojanowskiego","name":"Przedszkole Niepubliczne Ochronka B\u0142. Edmunda Bojanowskiego","addr:country":"PL","addr:postcode":"32-862","addr:place":"K\u0105ty","addr:housenumber":"49","addr:teryt:sym_ul":821062,"contact:email":"halibor@poczta.fm","contact:website":"http:\/\/www.przedszkoleniepubliczneochronka","ref:regon":"381876458","operator":"Zgromadzenie Si\u00f3str S\u0142u\u017cebniczek Naj\u015bwi\u0119tszej Maryi Panny Niepokalanie Pocz\u0119tej Dom Zakonny","operator:type":"religious","amenity":"kindergarten"}},{"id":81426,"type":"Feature","geometry":{"type":"Point","coordinates":[20.60097,49.78718]},"properties":{"isced:level":"1;2","ref:rspo":81426,"official_name":"Publiczna Szko\u0142a Podstawowa im.gen.marcina K\u0105tskiego w K\u0105tach","name":"Publiczna Szko\u0142a Podstawowa im.gen.marcina K\u0105tskiego w K\u0105tach","addr:country":"PL","addr:postcode":"32-862","addr:place":"K\u0105ty","addr:housenumber":"21","addr:teryt:sym_ul":821062,"contact:phone":"+48 146845202","contact:email":"szkola_katy@poczta.onet.pl","contact:website":"http:\/\/www.pspkaty.edupage.org","ref:regon":"001190008","ref:vatin":"PL8691252150","operator":"Gmina Iwkowa","operator:type":"government","amenity":"school"}},{"id":81428,"type":"Feature","geometry":{"type":"Point","coordinates":[20.5661099,49.78802]},"properties":{"isced:level":"1;2","ref:rspo":81428,"official_name":"Publiczna Szko\u0142a Podstawowa im. W\u0142adys\u0142awa Orkana w Dobrocieszu","name":"Publiczna Szko\u0142a Podstawowa","addr:country":"PL","addr:postcode":"32-862","addr:place":"Dobrociesz","addr:housenumber":"136","addr:teryt:sym_ul":820832,"contact:phone":"+48 146845140","contact:email":"dobrociesz@iwkowa.strefa.pl","contact:website":"http:\/\/www.pspdobrocieszedupage.org","ref:regon":"001189985","ref:vatin":"PL8691286278","operator":"Gmina Iwkowa","operator:type":"government","amenity":"school"}},{"id":81424,"type":"Feature","geometry":{"type":"Point","coordinates":[20.5936471,49.7962797]},"properties":{"ref:rspo":81424,"official_name":"Publiczne Przedszkole w Por\u0105bce Iwkowskiej","name":"Publiczne Przedszkole w Por\u0105bce Iwkowskiej","addr:country":"PL","addr:postcode":"32-862","addr:place":"Por\u0105bka Iwkowska","addr:housenumber":"73","addr:teryt:sym_ul":821151,"contact:phone":"+48 146845214","contact:email":"djgnyla@poczta.fm","ref:regon":"121103114","ref:vatin":"PL8691953421","operator":"Gmina Iwkowa","operator:type":"government","amenity":"kindergarten"}},{"id":87904,"type":"Feature","geometry":{"type":"Point","coordinates":[20.56165,49.80256]},"properties":{"isced:level":"1;2","ref:rspo":87904,"official_name":"Publiczna Szko\u0142a Podstawowa w Wojakowej","name":"Publiczna Szko\u0142a Podstawowa w Wojakowej","addr:country":"PL","addr:postcode":"32-862","addr:place":"Wojakowa","addr:housenumber":"49","addr:teryt:sym_ul":821180,"contact:phone":"+48 146845100","contact:email":"szkolawojakowa0@poczta.onet.pl","contact:website":"http:\/\/www.szkolawojakowa.szkolnastrona.pl","ref:regon":"001190014","ref:vatin":"PL8691286249","operator":"Gmina Iwkowa","operator:type":"government","amenity":"school"}},{"id":81422,"type":"Feature","geometry":{"type":"Point","coordinates":[20.5972,49.81268]},"properties":{"ref:rspo":81422,"official_name":"Publiczne Przedszkole w Iwkowej","name":"Publiczne Przedszkole w Iwkowej","addr:country":"PL","addr:postcode":"32-861","addr:place":"Iwkowa","addr:housenumber":"585","addr:teryt:sym_ul":820967,"contact:phone":"+48 146844333","contact:email":"przedszkoleiwkowa@interia.pl","contact:website":"http:\/\/www.przedszkole.iwkowa.pl","ref:regon":"121103137","ref:vatin":"PL8691953438","operator":"Gmina Iwkowa","operator:type":"government","amenity":"kindergarten"}},{"id":81247,"type":"Feature","geometry":{"type":"Point","coordinates":[20.58486,49.82016]},"properties":{"isced:level":"1;2","ref:rspo":81247,"official_name":"Publiczna Szko\u0142a Podstawowa w Iwkowej","name":"Publiczna Szko\u0142a Podstawowa w Iwkowej","addr:country":"PL","addr:postcode":"32-861","addr:place":"Iwkowa","addr:housenumber":"525","addr:teryt:sym_ul":820967,"contact:phone":"+48 146844080","contact:email":"iwkowaszkola@op.pl","contact:website":"http:\/\/www.iwkowa.edupage.org","ref:regon":"001058645","ref:vatin":"PL8691277061","operator":"Gmina Iwkowa","operator:type":"government","amenity":"school"}},{"id":128334,"type":"Feature","geometry":{"type":"Point","coordinates":[20.582359313965,49.821460723877]},"properties":{"ref:rspo":128334,"official_name":"Uniwerek Malucha Niepubliczne Przedszkole im. \u015aw. Jana Paw\u0142a II w Iwkowej","name":"Uniwerek Malucha Niepubliczne Przedszkole","addr:country":"PL","addr:postcode":"32-861","addr:place":"Iwkowa","addr:housenumber":"844","addr:teryt:sym_ul":820967,"contact:phone":"+48 695916898","contact:email":"l.grzymek@wp.pl","ref:regon":"362234370","operator":"\u0141ucja Grzymek","operator:type":"private","amenity":"kindergarten"}},{"id":81249,"type":"Feature","geometry":{"type":"Point","coordinates":[20.54921,49.8261899]},"properties":{"isced:level":"1;2","ref:rspo":81249,"official_name":"Publiczna Szko\u0142a Podstawowa w Iwkowej Nag\u00f3rzu","name":"Publiczna Szko\u0142a Podstawowa w Iwkowej Nag\u00f3rzu","addr:country":"PL","addr:postcode":"32-861","addr:place":"Iwkowa","addr:housenumber":"463","addr:teryt:sym_ul":820967,"contact:phone":"+48 146844330","contact:email":"iwspnagorze@o2.pl","contact:website":"http:\/\/spnagorze.szkolnastrona.pl","ref:regon":"001189991","ref:vatin":"PL8691286255","operator":"Gmina Iwkowa","operator:type":"government","amenity":"school"}}]}