{
    "type": "FeatureCollection",
    "features": [
        {
            "id": 279287,
            "type": "Feature",
            "geometry": {
                "type": "Point",
                "coordinates": [
                    20.75137,
                    50.01483
                ]
            },
            "properties": {
                "ref:rspo": 279287,
                "official_name": "Prywatne Przedszkole Artystyczno - J\u0119zykowe w Borz\u0119cinie",
                "name": "Prywatne Przedszkole Artystyczno - J\u0119zykowe w Borz\u0119cinie",
                "addr:postcode": "32-825",
                "addr:place": "Borz\u0119cin",
                "addr:housenumber": "87 B",
                "addr:teryt:simc": 813513,
                "ref:regon": "521126172",
                "operator": "Jaros\u0142aw Zachara",
                "operator:type": "private",
                "amenity": "kindergarten"
            }
        },
        {
            "id": 87535,
            "type": "Feature",
            "geometry": {
                "type": "Point",
                "coordinates": [
                    20.68624,
                    50.0204499
                ]
            },
            "properties": {
                "isced:level": "1;2",
                "ref:rspo": 87535,
                "official_name": "Publiczna Szko\u0142a Podstawowa w \u0141\u0119kach",
                "name": "Publiczna Szko\u0142a Podstawowa w \u0141\u0119kach",
                "addr:postcode": "32-823",
                "addr:place": "\u0141\u0119ki",
                "addr:housenumber": "206",
                "addr:teryt:simc": 813677,
                "phone": "+48 146847050",
                "email": "spleki@op.pl",
                "website": "http:\/\/pspleki.edupage.org",
                "ref:regon": "122715500",
                "ref:vatin": "PL8691981110",
                "operator": "Stowarzyszenie Przyjaci\u00f3\u0142 Szko\u0142y W \u0141\u0119kach",
                "operator:type": "ngo",
                "amenity": "school"
            }
        },
        {
            "id": 262673,
            "type": "Feature",
            "geometry": {
                "type": "Point",
                "coordinates": [
                    20.73833,
                    50.02314
                ]
            },
            "properties": {
                "ref:rspo": 262673,
                "official_name": "Zesp\u00f3\u0142 Szkolno - Przedszkolny w Bielczy",
                "name": "Zesp\u00f3\u0142 Szkolno - Przedszkolny w Bielczy",
                "addr:postcode": "32-824",
                "addr:place": "Bielcza",
                "addr:housenumber": "294A",
                "addr:teryt:simc": 813447,
                "phone": "+48 146847701",
                "email": "zszbielcza@interia.pl",
                "website": "http:\/\/bielcza.edupage.org",
                "ref:regon": "368051430",
                "operator": "Gmina Borz\u0119cin",
                "operator:type": "government",
                "landuse": "education",
                "fixme": "amenity=school, amenity=college albo landuse=education w zale\u017cno\u015bci od tego, jakie plac\u00f3wki wchodz\u0105 w sk\u0142ad zespo\u0142u. Sprawd\u017a, kiedy stosowa\u0107 amenity=* a kiedy landuse=education.",
                "note": "Children RSPO: 59950;103347"
            }
        },
        {
            "id": 103347,
            "type": "Feature",
            "geometry": {
                "type": "Point",
                "coordinates": [
                    20.73833,
                    50.023109999999996
                ]
            },
            "properties": {
                "isced:level": "1;2",
                "ref:rspo": 103347,
                "official_name": "Publiczna Szko\u0142a Podstawowa w Bielczy",
                "name": "Publiczna Szko\u0142a Podstawowa w Bielczy",
                "addr:postcode": "32-824",
                "addr:place": "Bielcza",
                "addr:housenumber": "294A",
                "addr:teryt:simc": 813447,
                "phone": "+48 146847701",
                "email": "zszbielcza@interia.pl",
                "website": "http:\/\/www.bielcza.edupage.org",
                "ref:regon": "001191953",
                "ref:vatin": "PL8691787709",
                "operator": "Gmina Borz\u0119cin",
                "operator:type": "government",
                "amenity": "school",
                "note": "Parent RSPO: 262673"
            }
        },
        {
            "id": 59950,
            "type": "Feature",
            "geometry": {
                "type": "Point",
                "coordinates": [
                    20.73814,
                    50.02359
                ]
            },
            "properties": {
                "ref:rspo": 59950,
                "official_name": "Publiczne Przedszkole w Bielczy",
                "name": "Publiczne Przedszkole w Bielczy",
                "addr:postcode": "32-824",
                "addr:place": "Bielcza",
                "addr:housenumber": "294",
                "addr:teryt:simc": 813447,
                "phone": "+48 146847700",
                "email": "ppbielcza@interia.pl",
                "website": "http:\/\/www.ppbielcza.com",
                "ref:regon": "121299933",
                "ref:vatin": "PL8691965306",
                "operator": "Gmina Borz\u0119cin",
                "operator:type": "government",
                "amenity": "kindergarten",
                "note": "Parent RSPO: 262673"
            }
        },
        {
            "id": 82404,
            "type": "Feature",
            "geometry": {
                "type": "Point",
                "coordinates": [
                    20.66175,
                    50.0331199
                ]
            },
            "properties": {
                "ref:rspo": 82404,
                "official_name": "Zesp\u00f3\u0142 Szkolno - Przedszkolny im. Kardyna\u0142a Stefana Wyszy\u0144skiego",
                "name": "Zesp\u00f3\u0142 Szkolno - Przedszkolny",
                "addr:postcode": "32-823",
                "addr:place": "Przybor\u00f3w",
                "addr:housenumber": "192",
                "addr:teryt:simc": 813720,
                "phone": "+48 146847044",
                "email": "zsprzyborow@interia.pl",
                "website": "http:\/\/www.zspprzyborow.pl",
                "ref:regon": "852631123",
                "ref:vatin": "PL8691787715",
                "operator": "Gmina Borz\u0119cin",
                "operator:type": "government",
                "landuse": "education",
                "fixme": "amenity=school, amenity=college albo landuse=education w zale\u017cno\u015bci od tego, jakie plac\u00f3wki wchodz\u0105 w sk\u0142ad zespo\u0142u. Sprawd\u017a, kiedy stosowa\u0107 amenity=* a kiedy landuse=education.",
                "note": "Children RSPO: 103401;103528"
            }
        },
        {
            "id": 103401,
            "type": "Feature",
            "geometry": {
                "type": "Point",
                "coordinates": [
                    20.66175,
                    50.0330899
                ]
            },
            "properties": {
                "ref:rspo": 103401,
                "official_name": "Publiczne Przedszkole w Przyborowie",
                "name": "Publiczne Przedszkole w Przyborowie",
                "addr:postcode": "32-823",
                "addr:place": "Przybor\u00f3w",
                "addr:housenumber": "192",
                "addr:teryt:simc": 813720,
                "phone": "+48 146847044",
                "website": "http:\/\/www.zspprzyborow.pl",
                "ref:regon": "121323548",
                "ref:vatin": "PL8691787715",
                "operator": "Gmina Borz\u0119cin",
                "operator:type": "government",
                "amenity": "kindergarten",
                "note": "Parent RSPO: 82404"
            }
        },
        {
            "id": 103528,
            "type": "Feature",
            "geometry": {
                "type": "Point",
                "coordinates": [
                    20.66175,
                    50.033059900000005
                ]
            },
            "properties": {
                "isced:level": "1;2",
                "ref:rspo": 103528,
                "official_name": "Publiczna Szko\u0142a Podstawowa im. Kardyna\u0142a Stefana Wyszy\u0144skiego w Przyborowie",
                "name": "Publiczna Szko\u0142a Podstawowa",
                "addr:postcode": "32-823",
                "addr:place": "Przybor\u00f3w",
                "addr:housenumber": "192",
                "addr:teryt:simc": 813720,
                "phone": "+48 146847044",
                "email": "zsprzyborow@interia.pl",
                "website": "http:\/\/www.zspprzyborow.pl",
                "ref:regon": "001191976",
                "ref:vatin": "PL8691787715",
                "operator": "Gmina Borz\u0119cin",
                "operator:type": "government",
                "amenity": "school",
                "note": "Parent RSPO: 82404"
            }
        },
        {
            "id": 262670,
            "type": "Feature",
            "geometry": {
                "type": "Point",
                "coordinates": [
                    20.70845,
                    50.06727
                ]
            },
            "properties": {
                "ref:rspo": 262670,
                "official_name": "Zesp\u00f3\u0142 Szkolno - Przedszkolny Imienia \u015awi\u0119tego Jana Paw\u0142a II w Borz\u0119cinie G\u00f3rnym",
                "name": "Zesp\u00f3\u0142 Szkolno - Przedszkolny Imienia \u015awi\u0119tego Jana Paw\u0142a II w Borz\u0119cinie G\u00f3rnym",
                "addr:postcode": "32-825",
                "addr:place": "Borz\u0119cin",
                "addr:housenumber": "563",
                "addr:teryt:simc": 813513,
                "phone": "+48 146846895",
                "email": "zspbg.szkola@gmail.com",
                "website": "http:\/\/zs-borzecin.edu.pl",
                "ref:regon": "368051357",
                "operator": "Gmina Borz\u0119cin",
                "operator:type": "government",
                "landuse": "education",
                "fixme": "amenity=school, amenity=college albo landuse=education w zale\u017cno\u015bci od tego, jakie plac\u00f3wki wchodz\u0105 w sk\u0142ad zespo\u0142u. Sprawd\u017a, kiedy stosowa\u0107 amenity=* a kiedy landuse=education.",
                "note": "Children RSPO: 59772;82610"
            }
        },
        {
            "id": 59772,
            "type": "Feature",
            "geometry": {
                "type": "Point",
                "coordinates": [
                    20.70845,
                    50.06724
                ]
            },
            "properties": {
                "ref:rspo": 59772,
                "official_name": "Publiczne Przedszkole w Borz\u0119cinie G\u00f3rnym",
                "name": "Publiczne Przedszkole w Borz\u0119cinie G\u00f3rnym",
                "addr:postcode": "32-825",
                "addr:place": "Borz\u0119cin",
                "addr:housenumber": "563",
                "addr:teryt:simc": 813513,
                "phone": "+48 146846505",
                "email": "zs@zs-borzecin.edu.pl",
                "website": "http:\/\/zs-borzecin.edu.pl",
                "ref:regon": "121295616",
                "ref:vatin": "PL8691964904",
                "operator": "Gmina Borz\u0119cin",
                "operator:type": "government",
                "amenity": "kindergarten",
                "note": "Parent RSPO: 262670"
            }
        },
        {
            "id": 82610,
            "type": "Feature",
            "geometry": {
                "type": "Point",
                "coordinates": [
                    20.70845,
                    50.06721
                ]
            },
            "properties": {
                "isced:level": "1;2",
                "ref:rspo": 82610,
                "official_name": "Publiczna Szko\u0142a Podstawowa im. W\u0142adys\u0142awa Jagie\u0142\u0142y w Borz\u0119cinie G\u00f3rnym",
                "name": "Publiczna Szko\u0142a Podstawowa",
                "addr:postcode": "32-825",
                "addr:place": "Borz\u0119cin",
                "addr:housenumber": "563",
                "addr:teryt:simc": 813513,
                "phone": "+48 146846895",
                "email": "zs@zs-borzecin.edu.pl",
                "website": "http:\/\/zs-borzecin.edu.pl",
                "ref:regon": "000718499",
                "ref:vatin": "PL8691727848",
                "operator": "Gmina Borz\u0119cin",
                "operator:type": "government",
                "amenity": "school",
                "note": "Parent RSPO: 262670"
            }
        },
        {
            "id": 262671,
            "type": "Feature",
            "geometry": {
                "type": "Point",
                "coordinates": [
                    20.6979,
                    50.10077
                ]
            },
            "properties": {
                "ref:rspo": 262671,
                "official_name": "Zesp\u00f3\u0142 Szkolno - Przedszkolny Imienia B\u0142ogos\u0142awionej Karoliny K\u00f3zk\u00f3wny w Borz\u0119cinie Dolnym",
                "name": "Zesp\u00f3\u0142 Szkolno - Przedszkolny Imienia B\u0142ogos\u0142awionej Karoliny K\u00f3zk\u00f3wny w Borz\u0119cinie Dolnym",
                "addr:postcode": "32-825",
                "addr:place": "Borz\u0119cin",
                "addr:housenumber": "321B",
                "addr:teryt:simc": 813513,
                "phone": "+48 146846633",
                "email": "spdolny7@gmail.com",
                "website": "http:\/\/www.zsp.borzecindolny.szkolnastrona.pl",
                "ref:regon": "368051305",
                "operator": "Gmina Borz\u0119cin",
                "operator:type": "government",
                "landuse": "education",
                "fixme": "amenity=school, amenity=college albo landuse=education w zale\u017cno\u015bci od tego, jakie plac\u00f3wki wchodz\u0105 w sk\u0142ad zespo\u0142u. Sprawd\u017a, kiedy stosowa\u0107 amenity=* a kiedy landuse=education.",
                "note": "Children RSPO: 82339;82420"
            }
        },
        {
            "id": 82339,
            "type": "Feature",
            "geometry": {
                "type": "Point",
                "coordinates": [
                    20.6979,
                    50.100739999999995
                ]
            },
            "properties": {
                "isced:level": "1;2",
                "ref:rspo": 82339,
                "official_name": "Publiczna Szko\u0142a Podstawowa im. Kazimierza Wielkiego w Borz\u0119cinie Dolnym",
                "name": "Publiczna Szko\u0142a Podstawowa",
                "addr:postcode": "32-825",
                "addr:place": "Borz\u0119cin",
                "addr:housenumber": "321B",
                "addr:teryt:simc": 813513,
                "phone": "+48 146846633",
                "email": "borzecin_szkola@op.pl",
                "website": "http:\/\/pspdolny.w.interia.pl",
                "ref:regon": "001191947",
                "ref:vatin": "PL8691727819",
                "operator": "Gmina Borz\u0119cin",
                "operator:type": "government",
                "amenity": "school",
                "note": "Parent RSPO: 262671"
            }
        },
        {
            "id": 82420,
            "type": "Feature",
            "geometry": {
                "type": "Point",
                "coordinates": [
                    20.6979,
                    50.10071
                ]
            },
            "properties": {
                "ref:rspo": 82420,
                "official_name": "Publiczne Przedszkole w Borz\u0119cinie Dolnym",
                "name": "Publiczne Przedszkole w Borz\u0119cinie Dolnym",
                "addr:postcode": "32-825",
                "addr:place": "Borz\u0119cin",
                "addr:housenumber": "321B",
                "addr:teryt:simc": 813513,
                "phone": "+48 146846646",
                "email": "ppborzecind@o2.pl",
                "ref:regon": "121300004",
                "ref:vatin": "PL8691965312",
                "operator": "Gmina Borz\u0119cin",
                "operator:type": "government",
                "amenity": "kindergarten",
                "note": "Parent RSPO: 262671"
            }
        }
    ]
}