{
    "type": "FeatureCollection",
    "features": [
        {
            "id": 26360,
            "type": "Feature",
            "geometry": {
                "type": "Point",
                "coordinates": [
                    20.6479485,
                    49.8059157
                ]
            },
            "properties": {
                "isced:level": "1;2",
                "ref:rspo": 26360,
                "official_name": "Publiczna Szko\u0142a Podstawowa w Wytrzyszczce",
                "name": "Publiczna Szko\u0142a Podstawowa w Wytrzyszczce",
                "addr:postcode": "32-860",
                "addr:place": "Wytrzyszczka",
                "addr:housenumber": "15",
                "addr:city:simc": 817310,
                "phone": "+48 146635610",
                "email": "pspwytrzyszczka@czchow.pl",
                "ref:regon": "122680240",
                "operator": "Stowarzyszenie Rozwoju Wsi Wytrzyszczka I B\u0119dzieszyna",
                "operator:type": "ngo",
                "amenity": "school"
            }
        },
        {
            "id": 81497,
            "type": "Feature",
            "geometry": {
                "type": "Point",
                "coordinates": [
                    20.67834,
                    49.82371
                ]
            },
            "properties": {
                "ref:rspo": 81497,
                "official_name": "Zesp\u00f3\u0142 Szk\u00f3\u0142 w Czchowie",
                "name": "Zesp\u00f3\u0142 Szk\u00f3\u0142 w Czchowie",
                "addr:postcode": "32-860",
                "addr:city": "Czch\u00f3w",
                "addr:street": "S\u0105decka",
                "addr:housenumber": "187",
                "addr:city:simc": 816871,
                "addr:street:sym_ul": 19578,
                "phone": "+48 146843230",
                "email": "zespolszkol187@op.pl",
                "website": "http:\/\/www.zsczchow.pl",
                "ref:regon": "850387854",
                "ref:vatin": "PL8691382013",
                "operator": "Powiat Brzeski",
                "operator:type": "government",
                "landuse": "education",
                "fixme": "amenity=school, amenity=college albo landuse=education w zale\u017cno\u015bci od tego, jakie plac\u00f3wki wchodz\u0105 w sk\u0142ad zespo\u0142u. Sprawd\u017a, kiedy stosowa\u0107 amenity=* a kiedy landuse=education.",
                "note": "Children RSPO: 90974;90975;90976;92049;126341"
            }
        },
        {
            "id": 90974,
            "type": "Feature",
            "geometry": {
                "type": "Point",
                "coordinates": [
                    20.67834,
                    49.823679999999996
                ]
            },
            "properties": {
                "isced:level": "3",
                "ref:rspo": 90974,
                "official_name": "Liceum Og\u00f3lnokszta\u0142c\u0105ce im. Kardyna\u0142a Stefana Wyszy\u0144skiego",
                "name": "Liceum Og\u00f3lnokszta\u0142c\u0105ce",
                "addr:postcode": "32-860",
                "addr:city": "Czch\u00f3w",
                "addr:street": "S\u0105decka",
                "addr:housenumber": "187",
                "addr:city:simc": 816871,
                "addr:street:sym_ul": 19578,
                "phone": "+48 146843230",
                "email": "zespolszkol187@op.pl",
                "website": "http:\/\/www.zsczchow.pl",
                "ref:regon": "852717050",
                "ref:vatin": "PL8691382013",
                "operator": "Powiat Brzeski",
                "operator:type": "government",
                "amenity": "school",
                "note": "Parent RSPO: 81497"
            }
        },
        {
            "id": 90975,
            "type": "Feature",
            "geometry": {
                "type": "Point",
                "coordinates": [
                    20.67834,
                    49.82365
                ]
            },
            "properties": {
                "isced:level": "3",
                "ref:rspo": 90975,
                "official_name": "Technikum im. Kardyna\u0142a Stefana Wyszy\u0144skiego",
                "name": "Technikum",
                "addr:postcode": "32-860",
                "addr:city": "Czch\u00f3w",
                "addr:street": "S\u0105decka",
                "addr:housenumber": "187",
                "addr:city:simc": 816871,
                "addr:street:sym_ul": 19578,
                "phone": "+48 146843230",
                "email": "zespolszkol187@op.pl",
                "website": "http:\/\/www.zsczchow.pl",
                "ref:regon": "852717126",
                "ref:vatin": "PL8691382013",
                "operator": "Powiat Brzeski",
                "operator:type": "government",
                "amenity": "school",
                "note": "Parent RSPO: 81497"
            }
        },
        {
            "id": 90976,
            "type": "Feature",
            "geometry": {
                "type": "Point",
                "coordinates": [
                    20.67834,
                    49.82362
                ]
            },
            "properties": {
                "isced:level": "3",
                "ref:rspo": 90976,
                "official_name": "Bran\u017cowa Szko\u0142a I Stopnia im. Kardyna\u0142a Stefana Wyszy\u0144skiego",
                "name": "Bran\u017cowa Szko\u0142a I Stopnia",
                "addr:postcode": "32-860",
                "addr:city": "Czch\u00f3w",
                "addr:street": "S\u0105decka",
                "addr:housenumber": "187",
                "addr:city:simc": 816871,
                "addr:street:sym_ul": 19578,
                "phone": "+48 146843230",
                "email": "zespolszkol187@op.pl",
                "website": "http:\/\/www.zsczchow.pl",
                "ref:regon": "852717066",
                "ref:vatin": "PL8691382013",
                "operator": "Powiat Brzeski",
                "operator:type": "government",
                "amenity": "school",
                "note": "Parent RSPO: 81497"
            }
        },
        {
            "id": 92049,
            "type": "Feature",
            "geometry": {
                "type": "Point",
                "coordinates": [
                    20.67834,
                    49.823589999999996
                ]
            },
            "properties": {
                "isced:level": "4",
                "ref:rspo": 92049,
                "official_name": "Szko\u0142a Policealna",
                "name": "Szko\u0142a Policealna",
                "addr:postcode": "32-860",
                "addr:city": "Czch\u00f3w",
                "addr:street": "S\u0105decka",
                "addr:housenumber": "187",
                "addr:city:simc": 816871,
                "addr:street:sym_ul": 19578,
                "phone": "+48 146843230",
                "email": "zespolszkol187@op.pl",
                "website": "http:\/\/www.zsczchow.pl",
                "ref:regon": "852717149",
                "ref:vatin": "PL8691382013",
                "operator": "Powiat Brzeski",
                "operator:type": "government",
                "amenity": "college",
                "note": "Parent RSPO: 81497"
            }
        },
        {
            "id": 126341,
            "type": "Feature",
            "geometry": {
                "type": "Point",
                "coordinates": [
                    20.67834,
                    49.82356
                ]
            },
            "properties": {
                "isced:level": "3",
                "ref:rspo": 126341,
                "official_name": "Liceum Og\u00f3lnokszta\u0142c\u0105ce dla Doros\u0142ych",
                "name": "Liceum Og\u00f3lnokszta\u0142c\u0105ce dla Doros\u0142ych",
                "addr:postcode": "32-860",
                "addr:city": "Czch\u00f3w",
                "addr:street": "S\u0105decka",
                "addr:housenumber": "187",
                "addr:city:simc": 816871,
                "addr:street:sym_ul": 19578,
                "phone": "+48 146843230",
                "email": "zespolszkol187@op.pl",
                "website": "http:\/\/zsczchow.pl",
                "ref:regon": "360237980",
                "ref:vatin": "PL8691382013",
                "operator": "Powiat Brzeski",
                "operator:type": "government",
                "amenity": "school",
                "note": "Parent RSPO: 81497"
            }
        },
        {
            "id": 44659,
            "type": "Feature",
            "geometry": {
                "type": "Point",
                "coordinates": [
                    20.67931,
                    49.83388
                ]
            },
            "properties": {
                "isced:level": "3",
                "ref:rspo": 44659,
                "official_name": "Bran\u017cowa Szko\u0142a I Stopnia Zak\u0142adu Doskonalenia Zawodowego w Krakowie z Siedzib\u0105 w Czchowie",
                "name": "Bran\u017cowa Szko\u0142a I Stopnia Zak\u0142adu Doskonalenia Zawodowego w Krakowie z Siedzib\u0105 w Czchowie",
                "addr:postcode": "32-860",
                "addr:city": "Czch\u00f3w",
                "addr:street": "S\u0105decka",
                "addr:housenumber": "32",
                "addr:city:simc": 816871,
                "addr:street:sym_ul": 19578,
                "phone": "+48 146843330",
                "email": "zdzzws@poczta.onet.pl",
                "ref:regon": "122723600",
                "ref:vatin": "PL6770051858",
                "operator": "Zak\u0142ad Doskonalenia Zawodowego",
                "operator:type": "ngo",
                "amenity": "school"
            }
        },
        {
            "id": 24380,
            "type": "Feature",
            "geometry": {
                "type": "Point",
                "coordinates": [
                    20.67401,
                    49.83487
                ]
            },
            "properties": {
                "ref:rspo": 24380,
                "official_name": "Publiczne Przedszkole w Czchowie",
                "name": "Publiczne Przedszkole w Czchowie",
                "addr:postcode": "32-860",
                "addr:city": "Czch\u00f3w",
                "addr:street": "Armii Krajowej",
                "addr:housenumber": "10",
                "addr:city:simc": 816871,
                "addr:street:sym_ul": 432,
                "phone": "+48 146636557",
                "email": "przedszkole@czchow.pl",
                "ref:regon": "121411206",
                "ref:vatin": "PL8691970833",
                "operator": "Gmina Czch\u00f3w",
                "operator:type": "government",
                "amenity": "kindergarten"
            }
        },
        {
            "id": 25069,
            "type": "Feature",
            "geometry": {
                "type": "Point",
                "coordinates": [
                    20.67504,
                    49.83489
                ]
            },
            "properties": {
                "isced:level": "1;2",
                "ref:rspo": 25069,
                "official_name": "Publiczna Szko\u0142a Podstawowa w Czchowie",
                "name": "Publiczna Szko\u0142a Podstawowa w Czchowie",
                "addr:postcode": "32-860",
                "addr:city": "Czch\u00f3w",
                "addr:street": "Szkolna",
                "addr:housenumber": "2",
                "addr:city:simc": 816871,
                "addr:street:sym_ul": 21970,
                "phone": "+48 146843200",
                "email": "psp_czchow@op.pl",
                "website": "http:\/\/www.psp.czchow@op.pl",
                "ref:regon": "000718387",
                "ref:vatin": "PL8691357995",
                "operator": "Gmina Czch\u00f3w",
                "operator:type": "government",
                "amenity": "school"
            }
        },
        {
            "id": 24405,
            "type": "Feature",
            "geometry": {
                "type": "Point",
                "coordinates": [
                    20.69809,
                    49.84819
                ]
            },
            "properties": {
                "ref:rspo": 24405,
                "official_name": "Publiczne Przedszkole w Jurkowie",
                "name": "Publiczne Przedszkole w Jurkowie",
                "addr:postcode": "32-860",
                "addr:place": "Jurk\u00f3w",
                "addr:housenumber": "00",
                "addr:city:simc": 817020,
                "phone": "+48 146842201",
                "email": "pjurkow@czchow.pl",
                "ref:regon": "121311367",
                "ref:vatin": "PL8691965832",
                "operator": "Gmina Czch\u00f3w",
                "operator:type": "government",
                "amenity": "kindergarten"
            }
        },
        {
            "id": 25999,
            "type": "Feature",
            "geometry": {
                "type": "Point",
                "coordinates": [
                    20.62104,
                    49.85114
                ]
            },
            "properties": {
                "ref:rspo": 25999,
                "official_name": "Publiczne Przedszkole w Tymowej",
                "name": "Publiczne Przedszkole w Tymowej",
                "addr:postcode": "32-863",
                "addr:place": "Tymowa",
                "addr:housenumber": "376A",
                "addr:city:simc": 817244,
                "phone": "+48 146860500",
                "email": "ptymowa@czchow.pl",
                "ref:regon": "121411241",
                "ref:vatin": "PL8691970827",
                "operator": "Gmina Czch\u00f3w",
                "operator:type": "government",
                "amenity": "kindergarten"
            }
        },
        {
            "id": 28500,
            "type": "Feature",
            "geometry": {
                "type": "Point",
                "coordinates": [
                    20.62104,
                    49.85111
                ]
            },
            "properties": {
                "isced:level": "1;2",
                "ref:rspo": 28500,
                "official_name": "Publiczna Szko\u0142a Podstawowa w Tymowej",
                "name": "Publiczna Szko\u0142a Podstawowa w Tymowej",
                "addr:postcode": "32-863",
                "addr:place": "Tymowa",
                "addr:housenumber": "376",
                "addr:city:simc": 817244,
                "phone": "+48 146860400",
                "email": "sekretariat@tymowa.edu.pl",
                "website": "http:\/\/www.tymowa.edu.pl",
                "ref:regon": "001191338",
                "ref:vatin": "PL8691805376",
                "operator": "Gmina Czch\u00f3w",
                "operator:type": "government",
                "amenity": "school"
            }
        },
        {
            "id": 26126,
            "type": "Feature",
            "geometry": {
                "type": "Point",
                "coordinates": [
                    20.69219,
                    49.85231
                ]
            },
            "properties": {
                "isced:level": "1;2",
                "ref:rspo": 26126,
                "official_name": "Publiczna Szko\u0142a Podstawowa im. Jana Paw\u0142a II w Jurkowie",
                "name": "Publiczna Szko\u0142a Podstawowa",
                "addr:postcode": "32-860",
                "addr:place": "Jurk\u00f3w",
                "addr:housenumber": "150",
                "addr:city:simc": 817020,
                "phone": "+48 146842200",
                "email": "spjurkow@gmail.com",
                "website": "http:\/\/www.zsjurkow.jurkow.pl",
                "ref:regon": "001191485",
                "ref:vatin": "PL8691805399",
                "operator": "Gmina Czch\u00f3w",
                "operator:type": "government",
                "amenity": "school"
            }
        },
        {
            "id": 28497,
            "type": "Feature",
            "geometry": {
                "type": "Point",
                "coordinates": [
                    20.65874,
                    49.85295
                ]
            },
            "properties": {
                "isced:level": "1;2",
                "ref:rspo": 28497,
                "official_name": "Publiczna Szko\u0142a Podstawowa Im I. J. Paderewskiego w Tworkowej",
                "name": "Publiczna Szko\u0142a Podstawowa Im I. J. Paderewskiego w Tworkowej",
                "addr:postcode": "32-863",
                "addr:place": "Tworkowa",
                "addr:housenumber": "36",
                "addr:city:simc": 817190,
                "phone": "+48 146842306",
                "email": "zstworkowa@czchow.pl",
                "ref:regon": "001191500",
                "ref:vatin": "PL8691805413",
                "operator": "Gmina Czch\u00f3w",
                "operator:type": "government",
                "amenity": "school"
            }
        },
        {
            "id": 24315,
            "type": "Feature",
            "geometry": {
                "type": "Point",
                "coordinates": [
                    20.72579,
                    49.86325
                ]
            },
            "properties": {
                "ref:rspo": 24315,
                "official_name": "Zesp\u00f3\u0142 Szk\u00f3\u0142 I Przedszkola im. Ks. Prof. J\u00f3zefa Tischnera",
                "name": "Zesp\u00f3\u0142 Szk\u00f3\u0142 I Przedszkola",
                "addr:postcode": "32-860",
                "addr:place": "Domos\u0142awice",
                "addr:housenumber": "24",
                "addr:city:simc": 816859,
                "phone": "+48 146635420",
                "email": "zsdomoslawice@domoslawice.pl",
                "website": "http:\/\/www.domoslawice.pl",
                "ref:regon": "852717089",
                "ref:vatin": "PL8691804158",
                "operator": "Gmina Czch\u00f3w",
                "operator:type": "government",
                "landuse": "education",
                "fixme": "amenity=school, amenity=college albo landuse=education w zale\u017cno\u015bci od tego, jakie plac\u00f3wki wchodz\u0105 w sk\u0142ad zespo\u0142u. Sprawd\u017a, kiedy stosowa\u0107 amenity=* a kiedy landuse=education.",
                "note": "Children RSPO: 26128;26224;91691"
            }
        },
        {
            "id": 26128,
            "type": "Feature",
            "geometry": {
                "type": "Point",
                "coordinates": [
                    20.72579,
                    49.86322
                ]
            },
            "properties": {
                "ref:rspo": 26128,
                "official_name": "Publiczne Przedszkole w Domos\u0142awicach im. Ks. Prof. J\u00f3zefa Tischnera",
                "name": "Publiczne Przedszkole w Domos\u0142awicach",
                "addr:postcode": "32-860",
                "addr:place": "Domos\u0142awice",
                "addr:housenumber": "24",
                "addr:city:simc": 816859,
                "phone": "+48 146635420",
                "email": "zsdomoslawice@czchow.pl",
                "website": "http:\/\/www.domoslawice.edu.pl",
                "ref:regon": "120286911",
                "ref:vatin": "PL8691881785",
                "operator": "Gmina Czch\u00f3w",
                "operator:type": "government",
                "amenity": "kindergarten",
                "note": "Parent RSPO: 24315"
            }
        },
        {
            "id": 26224,
            "type": "Feature",
            "geometry": {
                "type": "Point",
                "coordinates": [
                    20.72579,
                    49.86319
                ]
            },
            "properties": {
                "isced:level": "1;2",
                "ref:rspo": 26224,
                "official_name": "Publiczna Szko\u0142a Podstawowa im. Ks. Prof. J\u00f3zefa Tischnera w Domos\u0142awicach",
                "name": "Publiczna Szko\u0142a Podstawowa",
                "addr:postcode": "32-860",
                "addr:place": "Domos\u0142awice",
                "addr:housenumber": "24",
                "addr:city:simc": 816859,
                "phone": "+48 146635420",
                "email": "zsdomoslawice@domoslawice.pl",
                "website": "http:\/\/www.domoslawice.edu.pl",
                "ref:regon": "001191479",
                "ref:vatin": "PL8691357972",
                "operator": "Gmina Czch\u00f3w",
                "operator:type": "government",
                "amenity": "school",
                "note": "Parent RSPO: 24315"
            }
        },
        {
            "id": 91691,
            "type": "Feature",
            "geometry": {
                "type": "Point",
                "coordinates": [
                    20.72579,
                    49.86316
                ]
            },
            "properties": {
                "ref:rspo": 91691,
                "official_name": "Szko\u0142a Muzyczna I Stopnia im. Ks. Prof. J\u00f3zefa Tischnera w Domos\u0142awicach",
                "name": "Szko\u0142a Muzyczna I Stopnia",
                "addr:postcode": "32-860",
                "addr:place": "Domos\u0142awice",
                "addr:housenumber": "24",
                "addr:city:simc": 816859,
                "phone": "+48 146635420",
                "email": "zsdomoslawice@czchow.pl",
                "website": "http:\/\/www.domoslawice.edu.pl",
                "ref:regon": "122578049",
                "ref:vatin": "PL8691981104",
                "operator": "Gmina Czch\u00f3w",
                "operator:type": "government",
                "amenity": "music_school",
                "note": "Parent RSPO: 24315"
            }
        },
        {
            "id": 70853,
            "type": "Feature",
            "geometry": {
                "type": "Point",
                "coordinates": [
                    20.6979599,
                    49.87083
                ]
            },
            "properties": {
                "ref:rspo": 70853,
                "official_name": "Specjalny O\u015brodek Szkolno-Wychowawczy im. Marii Konopnickiej w Z\u0142otej",
                "name": "Specjalny O\u015brodek Szkolno-Wychowawczy",
                "addr:postcode": "32-859",
                "addr:place": "Z\u0142ota",
                "addr:housenumber": "292",
                "addr:city:simc": 817340,
                "phone": "+48 146845430",
                "email": "sosw_zlota@powiatbrzeski.pl",
                "website": "http:\/\/www.sosw.zlota.exone-web.pl",
                "ref:regon": "000196724",
                "ref:vatin": "PL8691273838",
                "operator": "Powiat Brzeski",
                "operator:type": "government",
                "amenity": "school",
                "note": "Children RSPO: 84690;84775;84847;268126"
            }
        },
        {
            "id": 84690,
            "type": "Feature",
            "geometry": {
                "type": "Point",
                "coordinates": [
                    20.6979599,
                    49.870799999999996
                ]
            },
            "properties": {
                "isced:level": "1;2",
                "ref:rspo": 84690,
                "official_name": "Szko\u0142a Podstawowa Specjalna",
                "name": "Szko\u0142a Podstawowa Specjalna",
                "addr:postcode": "32-859",
                "addr:place": "Z\u0142ota",
                "addr:housenumber": "292",
                "addr:city:simc": 817340,
                "phone": "+48 146845430",
                "email": "sosw_zlota@powiatbrzeski.pl",
                "website": "http:\/\/www.sosw.zlota.exone-web.pl",
                "ref:regon": "852721458",
                "ref:vatin": "PL8691273838",
                "operator": "Powiat Brzeski",
                "operator:type": "government",
                "amenity": "school",
                "note": "Parent RSPO: 70853"
            }
        },
        {
            "id": 84775,
            "type": "Feature",
            "geometry": {
                "type": "Point",
                "coordinates": [
                    20.6979599,
                    49.87077
                ]
            },
            "properties": {
                "isced:level": "3",
                "ref:rspo": 84775,
                "official_name": "Bran\u017cowa Szko\u0142a I Stopnia Specjalna",
                "name": "Bran\u017cowa Szko\u0142a I Stopnia Specjalna",
                "addr:postcode": "32-859",
                "addr:place": "Z\u0142ota",
                "addr:housenumber": "292",
                "addr:city:simc": 817340,
                "phone": "+48 146845430",
                "email": "sosw_zlota@powiatbrzeski.pl",
                "website": "http:\/\/www.sosw.zlota.exone-web.pl",
                "ref:regon": "852721493",
                "ref:vatin": "PL8691273838",
                "operator": "Powiat Brzeski",
                "operator:type": "government",
                "amenity": "school",
                "note": "Parent RSPO: 70853"
            }
        },
        {
            "id": 84847,
            "type": "Feature",
            "geometry": {
                "type": "Point",
                "coordinates": [
                    20.6979599,
                    49.87074
                ]
            },
            "properties": {
                "ref:rspo": 84847,
                "official_name": "Szko\u0142a Specjalna Przysposabiaj\u0105ca do Pracy",
                "name": "Szko\u0142a Specjalna Przysposabiaj\u0105ca do Pracy",
                "addr:postcode": "32-859",
                "addr:place": "Z\u0142ota",
                "addr:housenumber": "292",
                "addr:city:simc": 817340,
                "phone": "+48 146845430",
                "email": "sosw_zlota@powiatbrzeski.pl",
                "website": "http:\/\/www.sosw.zlota.exone-web.pl",
                "ref:regon": "120841910",
                "ref:vatin": "PL8691273838",
                "operator": "Powiat Brzeski",
                "operator:type": "government",
                "amenity": "school",
                "note": "Parent RSPO: 70853"
            }
        },
        {
            "id": 268126,
            "type": "Feature",
            "geometry": {
                "type": "Point",
                "coordinates": [
                    20.6979599,
                    49.870709999999995
                ]
            },
            "properties": {
                "ref:rspo": 268126,
                "official_name": "Przedszkole Specjalne w Specjalnym O\u015brodku Szkolno-Wychowawczym im. Marii Konopnickiej w Z\u0142otej",
                "name": "Przedszkole Specjalne w Specjalnym O\u015brodku Szkolno-Wychowawczym",
                "addr:postcode": "32-859",
                "addr:place": "Z\u0142ota",
                "addr:housenumber": "292",
                "addr:city:simc": 817340,
                "phone": "+48 146845430",
                "email": "sosw_zlota@powiatbrzeski.pl",
                "website": "http:\/\/www.sosw.zlota.exone-web.pl",
                "ref:regon": "380952909",
                "operator": "Powiat Brzeski",
                "operator:type": "government",
                "amenity": "kindergarten",
                "note": "Parent RSPO: 70853"
            }
        },
        {
            "id": 24350,
            "type": "Feature",
            "geometry": {
                "type": "Point",
                "coordinates": [
                    20.6986199,
                    49.87345
                ]
            },
            "properties": {
                "ref:rspo": 24350,
                "official_name": "Zesp\u00f3\u0142 Szko\u0142y I Przedszkola w Z\u0142otej",
                "name": "Zesp\u00f3\u0142 Szko\u0142y I Przedszkola w Z\u0142otej",
                "addr:postcode": "32-859",
                "addr:place": "Z\u0142ota",
                "addr:housenumber": "50",
                "addr:city:simc": 817340,
                "phone": "+48 146636530",
                "email": "zszlota@czchow.pl",
                "ref:regon": "852718373",
                "ref:vatin": "PL8691805382",
                "operator": "Gmina Czch\u00f3w",
                "operator:type": "government",
                "landuse": "education",
                "fixme": "amenity=school, amenity=college albo landuse=education w zale\u017cno\u015bci od tego, jakie plac\u00f3wki wchodz\u0105 w sk\u0142ad zespo\u0142u. Sprawd\u017a, kiedy stosowa\u0107 amenity=* a kiedy landuse=education.",
                "note": "Children RSPO: 28494;28570"
            }
        },
        {
            "id": 28494,
            "type": "Feature",
            "geometry": {
                "type": "Point",
                "coordinates": [
                    20.6986199,
                    49.873419999999996
                ]
            },
            "properties": {
                "isced:level": "1;2",
                "ref:rspo": 28494,
                "official_name": "Publiczna Szko\u0142a Podstawowa im. Adama Mickiewicza w Z\u0142otej",
                "name": "Publiczna Szko\u0142a Podstawowa",
                "addr:postcode": "32-859",
                "addr:place": "Z\u0142ota",
                "addr:housenumber": "50",
                "addr:city:simc": 817340,
                "phone": "+48 146636530",
                "email": "zszlota@czchow.pl",
                "ref:regon": "001191350",
                "ref:vatin": "PL8691357989",
                "operator": "Gmina Czch\u00f3w",
                "operator:type": "government",
                "amenity": "school",
                "note": "Parent RSPO: 24350"
            }
        },
        {
            "id": 28570,
            "type": "Feature",
            "geometry": {
                "type": "Point",
                "coordinates": [
                    20.6986199,
                    49.87339
                ]
            },
            "properties": {
                "ref:rspo": 28570,
                "official_name": "Publiczne Przedszkole w Z\u0142otej",
                "name": "Publiczne Przedszkole w Z\u0142otej",
                "addr:postcode": "32-859",
                "addr:place": "Z\u0142ota",
                "addr:housenumber": "50",
                "addr:city:simc": 817340,
                "phone": "+48 146636530",
                "email": "zszlota@czchow.pl",
                "ref:regon": "120551922",
                "operator": "Gmina Czch\u00f3w",
                "operator:type": "government",
                "amenity": "kindergarten",
                "note": "Parent RSPO: 24350"
            }
        }
    ]
}