{
    "type": "FeatureCollection",
    "features": [
        {
            "id": 7159,
            "type": "Feature",
            "geometry": {
                "type": "Point",
                "coordinates": [
                    20.554479598999,
                    49.939281463623
                ]
            },
            "properties": {
                "ref:rspo": 7159,
                "official_name": "Publiczne Przedszkole w Por\u0119bie Spytkowskiej",
                "name": "Publiczne Przedszkole w Por\u0119bie Spytkowskiej",
                "addr:country": "PL",
                "addr:postcode": "32-800",
                "addr:city": "Por\u0119ba Spytkowska",
                "addr:street": "Kasztelana Spytka",
                "addr:housenumber": "100",
                "addr:teryt:simc": 814317,
                "addr:teryt:sym_ul": 40898,
                "contact:phone": "+48 146866040",
                "contact:email": "przedszkole.porebaspytkowska@brzesko.pl",
                "ref:regon": "850513684",
                "ref:vatin": "PL8691726369",
                "operator": "Gmina Brzesko",
                "operator:type": "government",
                "amenity": "kindergarten"
            }
        },
        {
            "id": 9089,
            "type": "Feature",
            "geometry": {
                "type": "Point",
                "coordinates": [
                    20.554479598999,
                    49.939251463622995
                ]
            },
            "properties": {
                "isced:level": "1;2",
                "ref:rspo": 9089,
                "official_name": "Publiczna Szko\u0142a Podstawowa w Por\u0119bie Spytkowskiej",
                "name": "Publiczna Szko\u0142a Podstawowa w Por\u0119bie Spytkowskiej",
                "addr:country": "PL",
                "addr:postcode": "32-800",
                "addr:city": "Por\u0119ba Spytkowska",
                "addr:street": "Kasztelana Spytka",
                "addr:housenumber": "98",
                "addr:teryt:simc": 814317,
                "addr:teryt:sym_ul": 40898,
                "contact:phone": "+48 146866080",
                "contact:email": "szkola.porebaspytkowska@brzesko.pl",
                "contact:website": "http:\/\/www.spporebaspytkowska.szkolnastrona.pl",
                "ref:regon": "001204740",
                "ref:vatin": "PL8691726116",
                "operator": "Gmina Brzesko",
                "operator:type": "government",
                "amenity": "school"
            }
        },
        {
            "id": 9087,
            "type": "Feature",
            "geometry": {
                "type": "Point",
                "coordinates": [
                    20.6037399,
                    49.94839
                ]
            },
            "properties": {
                "isced:level": "1;2",
                "ref:rspo": 9087,
                "official_name": "Publiczna Szko\u0142a Podstawowa im. Jana Goetza Okocimskiego w Okocimiu",
                "name": "Publiczna Szko\u0142a Podstawowa",
                "addr:country": "PL",
                "addr:postcode": "32-800",
                "addr:city": "Okocim",
                "addr:street": "Goetz\u00f3w Okocimskich",
                "addr:housenumber": "102",
                "addr:teryt:simc": 814205,
                "addr:teryt:sym_ul": 33231,
                "contact:phone": "+48 146860930",
                "contact:email": "szkola.okocim@brzesko.pl",
                "contact:website": "http:\/\/www.pspokocim.pl",
                "ref:regon": "001204733",
                "ref:vatin": "PL8691726091",
                "operator": "Gmina Brzesko",
                "operator:type": "government",
                "amenity": "school"
            }
        },
        {
            "id": 11093,
            "type": "Feature",
            "geometry": {
                "type": "Point",
                "coordinates": [
                    20.6030799,
                    49.95722
                ]
            },
            "properties": {
                "isced:level": "3",
                "ref:rspo": 11093,
                "official_name": "Katolicke Liceum Og\u00f3lnokszta\u0142c\u0105ce w Brzesku im. \u015aw. Stanis\u0142awa Bm Ze Szczepanowa",
                "name": "Katolicke Liceum Og\u00f3lnokszta\u0142c\u0105ce w Brzesku",
                "addr:country": "PL",
                "addr:postcode": "32-800",
                "addr:city": "Brzesko",
                "addr:street": "Browarna",
                "addr:housenumber": "39",
                "addr:teryt:simc": 981966,
                "addr:teryt:sym_ul": 2148,
                "contact:phone": "+48 146862001",
                "contact:email": "szkolakat@interia.pl",
                "contact:website": "http:\/\/www.szkolakatolicka.brzesko.pl",
                "ref:regon": "122654253",
                "ref:vatin": "PL8691807346",
                "operator": "Stowarzyszenie Wspierania Rozwoju M\u0142odzie\u017cy \"Wzrastanie\"",
                "operator:type": "ngo",
                "amenity": "school"
            }
        },
        {
            "id": 9041,
            "type": "Feature",
            "geometry": {
                "type": "Point",
                "coordinates": [
                    20.60051,
                    49.96196
                ]
            },
            "properties": {
                "ref:rspo": 9041,
                "official_name": "Publiczne Przedszkole Nr 9 im. Marii Kownackiej w Brzesku",
                "name": "Publiczne Przedszkole Nr 9",
                "addr:country": "PL",
                "addr:postcode": "32-800",
                "addr:city": "Brzesko",
                "addr:street": "Browarna",
                "addr:housenumber": "9",
                "addr:teryt:simc": 981966,
                "addr:teryt:sym_ul": 2148,
                "contact:phone": "+48 146849446",
                "contact:email": "przedszkole9.brzesko@brzesko.pl",
                "contact:website": "http:\/\/www.przedszkole9brzesko",
                "ref:regon": "850513649",
                "ref:vatin": "PL8691726300",
                "operator": "Gmina Brzesko",
                "operator:type": "government",
                "amenity": "kindergarten"
            }
        },
        {
            "id": 13901,
            "type": "Feature",
            "geometry": {
                "type": "Point",
                "coordinates": [
                    20.61164,
                    49.96362
                ]
            },
            "properties": {
                "isced:level": "3",
                "ref:rspo": 13901,
                "official_name": "Liceum Og\u00f3lnokszta\u0142c\u0105ce dla Doros\u0142ych w Brzesku",
                "name": "Liceum Og\u00f3lnokszta\u0142c\u0105ce dla Doros\u0142ych w Brzesku",
                "addr:country": "PL",
                "addr:postcode": "32-800",
                "addr:city": "Brzesko",
                "addr:street": "Piastowska",
                "addr:housenumber": "7",
                "addr:teryt:simc": 981966,
                "addr:teryt:sym_ul": 16046,
                "contact:phone": "+48 146633242",
                "contact:email": "lo.brzesko@gmail.com",
                "contact:website": "http:\/\/www.brzesko.edu.pl",
                "ref:regon": "122664323",
                "operator": "Bo\u017cena Maksylewicz",
                "operator:type": "private",
                "amenity": "school"
            }
        },
        {
            "id": 13902,
            "type": "Feature",
            "geometry": {
                "type": "Point",
                "coordinates": [
                    20.61164,
                    49.963589999999996
                ]
            },
            "properties": {
                "isced:level": "4",
                "ref:rspo": 13902,
                "official_name": "Szko\u0142a Policealna Zawodowa w Brzesku",
                "name": "Szko\u0142a Policealna Zawodowa w Brzesku",
                "addr:country": "PL",
                "addr:postcode": "32-800",
                "addr:city": "Brzesko",
                "addr:street": "Piastowska",
                "addr:housenumber": "7",
                "addr:teryt:simc": 981966,
                "addr:teryt:sym_ul": 16046,
                "contact:phone": "+48 146633242",
                "contact:email": "lo.brzesko@gmail.com",
                "contact:website": "http:\/\/www.brzesko.edu.pl",
                "ref:regon": "122664501",
                "operator": "Bo\u017cena Maksylewicz",
                "operator:type": "private",
                "amenity": "college"
            }
        },
        {
            "id": 128365,
            "type": "Feature",
            "geometry": {
                "type": "Point",
                "coordinates": [
                    20.61164,
                    49.96356
                ]
            },
            "properties": {
                "ref:rspo": 128365,
                "official_name": "Niepubliczne Centrum Kszta\u0142cenia Ustawicznego w Brzesku",
                "name": "Niepubliczne Centrum Kszta\u0142cenia Ustawicznego w Brzesku",
                "addr:country": "PL",
                "addr:postcode": "32-800",
                "addr:city": "Brzesko",
                "addr:street": "Piastowska",
                "addr:housenumber": "7",
                "addr:teryt:simc": 981966,
                "addr:teryt:sym_ul": 16046,
                "contact:phone": "+48 146633242",
                "contact:email": "technikum@brzesko.edu.pl",
                "contact:website": "http:\/\/www.brzesko.edu.pl",
                "ref:regon": "362253025",
                "operator": "Bo\u017cena Maksylewicz",
                "operator:type": "private",
                "fixme": "w zale\u017cno\u015bci od przedmiotu dzia\u0142alno\u015bci (np. amenity=training + training=*, amenity=dancing_school, amenity=language_school, amenity=music_school)"
            }
        },
        {
            "id": 7722,
            "type": "Feature",
            "geometry": {
                "type": "Point",
                "coordinates": [
                    20.61013,
                    49.96385
                ]
            },
            "properties": {
                "ref:rspo": 7722,
                "official_name": "Publiczne Przedszkole Nr 7 w Brzesku",
                "name": "Publiczne Przedszkole Nr 7 w Brzesku",
                "addr:country": "PL",
                "addr:postcode": "32-800",
                "addr:city": "Brzesko",
                "addr:street": "Okocimska",
                "addr:housenumber": "23",
                "addr:teryt:simc": 981966,
                "addr:teryt:sym_ul": 14874,
                "contact:phone": "+48 146849447",
                "contact:email": "przedszkole7.brzesko@brzesko.pl",
                "ref:regon": "850513394",
                "ref:vatin": "PL8691726292",
                "operator": "Gmina Brzesko",
                "operator:type": "government",
                "amenity": "kindergarten"
            }
        },
        {
            "id": 70159,
            "type": "Feature",
            "geometry": {
                "type": "Point",
                "coordinates": [
                    20.61163,
                    49.96426
                ]
            },
            "properties": {
                "ref:rspo": 70159,
                "official_name": "Poradnia Psychologiczno-Pedagogiczna w Brzesku",
                "name": "Poradnia Psychologiczno-Pedagogiczna w Brzesku",
                "addr:country": "PL",
                "addr:postcode": "32-800",
                "addr:city": "Brzesko",
                "addr:street": "Piastowska",
                "addr:housenumber": "2b",
                "addr:teryt:simc": 981966,
                "addr:teryt:sym_ul": 16046,
                "contact:phone": "+48 146630181",
                "contact:email": "pppbrzesko@op.pl",
                "contact:website": "http:\/\/www.pppbrzesko.pl",
                "ref:regon": "001053866",
                "ref:vatin": "PL8691663692",
                "operator": "Powiat Brzeski",
                "operator:type": "government",
                "healthcare": "counselling",
                "counselling_type": "education",
                "fixme": "w zale\u017cno\u015bci od przedmiotu dzia\u0142alno\u015bci (np. healthcare=counselling + counselling_type=education albo healthcare=psychotherapist)"
            }
        },
        {
            "id": 81498,
            "type": "Feature",
            "geometry": {
                "type": "Point",
                "coordinates": [
                    20.61163,
                    49.96423
                ]
            },
            "properties": {
                "ref:rspo": 81498,
                "official_name": "Zesp\u00f3\u0142 Szk\u00f3\u0142 Technicznych I Bran\u017cowych im. Bohater\u00f3w Westerplatte w Brzesku",
                "name": "Zesp\u00f3\u0142 Szk\u00f3\u0142 Technicznych I Bran\u017cowych",
                "addr:country": "PL",
                "addr:postcode": "32-800",
                "addr:city": "Brzesko",
                "addr:street": "Piastowska",
                "addr:housenumber": "2",
                "addr:teryt:simc": 981966,
                "addr:teryt:sym_ul": 16046,
                "contact:phone": "+48 146631603",
                "contact:email": "szkola@zsp2.edu.pl",
                "contact:website": "http:\/\/www.zsp2.edu.pl",
                "ref:regon": "000188073",
                "ref:vatin": "PL8691035783",
                "operator": "Powiat Brzeski",
                "operator:type": "government",
                "landuse": "education",
                "fixme": "amenity=school, amenity=college albo landuse=education w zale\u017cno\u015bci od tego, jakie plac\u00f3wki wchodz\u0105 w sk\u0142ad zespo\u0142u. Sprawd\u017a, kiedy stosowa\u0107 amenity=* a kiedy landuse=education.",
                "note": "Children RSPO: 90896;90897;90898;125759;276266"
            }
        },
        {
            "id": 128581,
            "type": "Feature",
            "geometry": {
                "type": "Point",
                "coordinates": [
                    20.61163,
                    49.964200000000005
                ]
            },
            "properties": {
                "ref:rspo": 128581,
                "official_name": "Powiatowe Centrum Edukacji w Brzesku",
                "name": "Powiatowe Centrum Edukacji w Brzesku",
                "addr:country": "PL",
                "addr:postcode": "32-800",
                "addr:city": "Brzesko",
                "addr:street": "Piastowska",
                "addr:housenumber": "2B",
                "addr:teryt:simc": 981966,
                "addr:teryt:sym_ul": 16046,
                "contact:phone": "+48 146630063",
                "contact:email": "kadry@ssm-brzesko.pl",
                "contact:website": "http:\/\/www.pce-brzesko.pl",
                "ref:regon": "362325546",
                "operator": "Powiat Brzeski",
                "operator:type": "government",
                "landuse": "education",
                "fixme": "amenity=school, amenity=college albo landuse=education w zale\u017cno\u015bci od tego, jakie plac\u00f3wki wchodz\u0105 w sk\u0142ad zespo\u0142u. Sprawd\u017a, kiedy stosowa\u0107 amenity=* a kiedy landuse=education.",
                "note": "Children RSPO: 81502;128580"
            }
        },
        {
            "id": 24921,
            "type": "Feature",
            "geometry": {
                "type": "Point",
                "coordinates": [
                    20.61163,
                    49.96417
                ]
            },
            "properties": {
                "ref:rspo": 24921,
                "official_name": "Biblioteka Pedagogiczna w Tarnowie Filia w Brzesku",
                "name": "Biblioteka Pedagogiczna w Tarnowie Filia w Brzesku",
                "addr:country": "PL",
                "addr:postcode": "32-800",
                "addr:city": "Brzesko",
                "addr:street": "Piastowska",
                "addr:housenumber": "2B",
                "addr:teryt:simc": 981966,
                "addr:teryt:sym_ul": 16046,
                "contact:phone": "+48 146630660",
                "contact:email": "brzesko@bpt.edu.pl",
                "contact:website": "http:\/\/www.bpt.edu.pl",
                "ref:regon": "850002311",
                "operator": "Wojew\u00f3dztwo Ma\u0142opolskie",
                "operator:type": "government",
                "amenity": "library",
                "note": "Parent RSPO: 18897"
            }
        },
        {
            "id": 90896,
            "type": "Feature",
            "geometry": {
                "type": "Point",
                "coordinates": [
                    20.61163,
                    49.96414
                ]
            },
            "properties": {
                "isced:level": "3",
                "ref:rspo": 90896,
                "official_name": "Bran\u017cowa Szko\u0142a I Stopnia im. Bohater\u00f3w Westerplatte",
                "name": "Bran\u017cowa Szko\u0142a I Stopnia",
                "addr:country": "PL",
                "addr:postcode": "32-800",
                "addr:city": "Brzesko",
                "addr:street": "Piastowska",
                "addr:housenumber": "2",
                "addr:teryt:simc": 981966,
                "addr:teryt:sym_ul": 16046,
                "contact:phone": "+48 146631603",
                "contact:email": "szkola@zsp2.edu.pl",
                "contact:website": "http:\/\/www.zsp2.edu.pl",
                "ref:regon": "852623780",
                "ref:vatin": "PL8691035783",
                "operator": "Powiat Brzeski",
                "operator:type": "government",
                "amenity": "school",
                "note": "Parent RSPO: 81498"
            }
        },
        {
            "id": 90897,
            "type": "Feature",
            "geometry": {
                "type": "Point",
                "coordinates": [
                    20.61163,
                    49.964110000000005
                ]
            },
            "properties": {
                "isced:level": "3",
                "ref:rspo": 90897,
                "official_name": "Technikum im. Bohater\u00f3w Westerplatte",
                "name": "Technikum",
                "addr:country": "PL",
                "addr:postcode": "32-800",
                "addr:city": "Brzesko",
                "addr:street": "Piastowska",
                "addr:housenumber": "2",
                "addr:teryt:simc": 981966,
                "addr:teryt:sym_ul": 16046,
                "contact:phone": "+48 146631603",
                "contact:email": "szkola@zsp2.ed.pl",
                "contact:website": "http:\/\/www.zsp2.edu.pl",
                "ref:regon": "852713625",
                "ref:vatin": "PL8691035783",
                "operator": "Powiat Brzeski",
                "operator:type": "government",
                "amenity": "school",
                "note": "Parent RSPO: 81498"
            }
        },
        {
            "id": 90898,
            "type": "Feature",
            "geometry": {
                "type": "Point",
                "coordinates": [
                    20.61163,
                    49.96408
                ]
            },
            "properties": {
                "ref:rspo": 90898,
                "official_name": "Centrum Kszta\u0142cenia Zawodowego",
                "name": "Centrum Kszta\u0142cenia Zawodowego",
                "addr:country": "PL",
                "addr:postcode": "32-800",
                "addr:city": "Brzesko",
                "addr:street": "Piastowska",
                "addr:housenumber": "2",
                "addr:teryt:simc": 981966,
                "addr:teryt:sym_ul": 16046,
                "contact:phone": "+48 146631603",
                "contact:email": "szkola@zsp2.edu.pl",
                "contact:website": "http:\/\/www.zsp2.edu.pl",
                "ref:regon": "120246679",
                "ref:vatin": "PL8691035783",
                "operator": "Powiat Brzeski",
                "operator:type": "government",
                "fixme": "w zale\u017cno\u015bci od przedmiotu dzia\u0142alno\u015bci (np. amenity=training + training=*, amenity=dancing_school, amenity=language_school, amenity=music_school) albo amenity=school, amenity=college, albo landuse=education w zale\u017cno\u015bci od tego, jakie plac\u00f3wki wchodz\u0105 w sk\u0142ad zespo\u0142u. Sprawd\u017a, kiedy stosowa\u0107 amenity=* a kiedy landuse=education.",
                "note": "Parent RSPO: 81498"
            }
        },
        {
            "id": 125759,
            "type": "Feature",
            "geometry": {
                "type": "Point",
                "coordinates": [
                    20.61163,
                    49.96405
                ]
            },
            "properties": {
                "isced:level": "3",
                "ref:rspo": 125759,
                "official_name": "Liceum Og\u00f3lnokszta\u0142c\u0105ce dla Doros\u0142ych w Brzesku",
                "name": "Liceum Og\u00f3lnokszta\u0142c\u0105ce dla Doros\u0142ych w Brzesku",
                "addr:country": "PL",
                "addr:postcode": "32-800",
                "addr:city": "Brzesko",
                "addr:street": "Piastowska",
                "addr:housenumber": "2",
                "addr:teryt:simc": 981966,
                "addr:teryt:sym_ul": 16046,
                "contact:phone": "+48 146631603",
                "contact:email": "szkola@zsp2.edu.pl",
                "ref:regon": "852634570",
                "operator": "Powiat Brzeski",
                "operator:type": "government",
                "amenity": "school",
                "note": "Parent RSPO: 81498"
            }
        },
        {
            "id": 81502,
            "type": "Feature",
            "geometry": {
                "type": "Point",
                "coordinates": [
                    20.61163,
                    49.964020000000005
                ]
            },
            "properties": {
                "ref:rspo": 81502,
                "official_name": "Szkolne Schronisko M\u0142odzie\u017cowe w Brzesku",
                "name": "Szkolne Schronisko M\u0142odzie\u017cowe w Brzesku",
                "addr:country": "PL",
                "addr:postcode": "32-800",
                "addr:city": "Brzesko",
                "addr:street": "Piastowska",
                "addr:housenumber": "2b",
                "addr:teryt:simc": 981966,
                "addr:teryt:sym_ul": 16046,
                "contact:phone": "+48 146630063",
                "contact:email": "recepcja@schronisko.malopolska.pl",
                "contact:website": "http:\/\/www.ssm-brzesko.pl",
                "ref:regon": "852723931",
                "ref:vatin": "PL8691810124",
                "operator": "Powiat Brzeski",
                "operator:type": "government",
                "tourism": "hostel",
                "note": "Parent RSPO: 128581"
            }
        },
        {
            "id": 128580,
            "type": "Feature",
            "geometry": {
                "type": "Point",
                "coordinates": [
                    20.61163,
                    49.96399
                ]
            },
            "properties": {
                "ref:rspo": 128580,
                "official_name": "Powiatowy O\u015brodek Doskonalenia Nauczycieli w Brzesku",
                "name": "Powiatowy O\u015brodek Doskonalenia Nauczycieli w Brzesku",
                "addr:country": "PL",
                "addr:postcode": "32-800",
                "addr:city": "Brzesko",
                "addr:street": "Piastowska",
                "addr:housenumber": "2B",
                "addr:teryt:simc": 981966,
                "addr:teryt:sym_ul": 16046,
                "contact:phone": "+48 146520340",
                "contact:email": "info@pce-brzesko.pl",
                "contact:website": "http:\/\/www.ssm-brzesko.pl",
                "ref:regon": "362325486",
                "operator": "Powiat Brzeski",
                "operator:type": "government",
                "amenity": "training",
                "note": "Parent RSPO: 128581"
            }
        },
        {
            "id": 6722,
            "type": "Feature",
            "geometry": {
                "type": "Point",
                "coordinates": [
                    20.60548,
                    49.96552
                ]
            },
            "properties": {
                "ref:rspo": 6722,
                "official_name": "Publiczne Przedszkole Nr 3 w Brzesku",
                "name": "Publiczne Przedszkole Nr 3 w Brzesku",
                "addr:country": "PL",
                "addr:postcode": "32-800",
                "addr:city": "Brzesko",
                "addr:street": "Adama Mickiewicza",
                "addr:housenumber": "21",
                "addr:teryt:simc": 981966,
                "addr:teryt:sym_ul": 12740,
                "contact:phone": "+48 146849442",
                "contact:email": "przedszkole3.brzesko@brzesko.pl",
                "contact:website": "http:\/\/pp3b.blogspot.com",
                "ref:regon": "850513388",
                "ref:vatin": "PL8691726240",
                "operator": "Gmina Brzesko",
                "operator:type": "government",
                "amenity": "kindergarten"
            }
        },
        {
            "id": 7907,
            "type": "Feature",
            "geometry": {
                "type": "Point",
                "coordinates": [
                    20.6456851,
                    49.9662326
                ]
            },
            "properties": {
                "ref:rspo": 7907,
                "official_name": "Publiczne Przedszkole Nr 1 w Jadownikach",
                "name": "Publiczne Przedszkole Nr 1 w Jadownikach",
                "addr:country": "PL",
                "addr:postcode": "32-851",
                "addr:city": "Jadowniki",
                "addr:street": "\u015awi\u0119tego Prokopa",
                "addr:housenumber": "10",
                "addr:teryt:simc": 813890,
                "addr:teryt:sym_ul": 50713,
                "contact:phone": "+48 146867830",
                "contact:email": "przedszkole1.jadowniki@brzesko.pl",
                "contact:website": "http:\/\/www.p1.jadowniki.szkolnastrona.pl",
                "ref:regon": "850513661",
                "ref:vatin": "PL8691726346",
                "operator": "Gmina Brzesko",
                "operator:type": "government",
                "amenity": "kindergarten"
            }
        },
        {
            "id": 128736,
            "type": "Feature",
            "geometry": {
                "type": "Point",
                "coordinates": [
                    20.60601,
                    49.96633
                ]
            },
            "properties": {
                "isced:level": "1;2",
                "ref:rspo": 128736,
                "official_name": "Szko\u0142a Podstawowa Specjalna w Brzesku",
                "name": "Szko\u0142a Podstawowa Specjalna w Brzesku",
                "addr:country": "PL",
                "addr:postcode": "32-800",
                "addr:city": "Brzesko",
                "addr:street": "Marsza\u0142ka J\u00f3zefa Pi\u0142sudskiego",
                "addr:housenumber": "28",
                "addr:teryt:simc": 981966,
                "addr:teryt:sym_ul": 36029,
                "contact:email": "jano61@poczta.fm",
                "contact:website": "http:\/\/szkolaspecjalna-brzesko.pl",
                "ref:regon": "362372735",
                "operator": "Janusz Morawiec",
                "operator:type": "private",
                "amenity": "school"
            }
        },
        {
            "id": 9129,
            "type": "Feature",
            "geometry": {
                "type": "Point",
                "coordinates": [
                    20.57589,
                    49.9664
                ]
            },
            "properties": {
                "isced:level": "1;2",
                "ref:rspo": 9129,
                "official_name": "Publiczna Szko\u0142a Podstawowa w Jasieniu",
                "name": "Publiczna Szko\u0142a Podstawowa w Jasieniu",
                "addr:country": "PL",
                "addr:postcode": "32-800",
                "addr:city": "Jasie\u0144",
                "addr:street": "Zielna",
                "addr:housenumber": "1",
                "addr:teryt:simc": 814062,
                "addr:teryt:sym_ul": 26077,
                "contact:phone": "+48 146867660",
                "contact:email": "szkola.jasien@brzesko.pl",
                "contact:website": "http:\/\/pspjasien.pl",
                "ref:regon": "001204710",
                "ref:vatin": "PL8691726085",
                "operator": "Gmina Brzesko",
                "operator:type": "government",
                "amenity": "school"
            }
        },
        {
            "id": 8486,
            "type": "Feature",
            "geometry": {
                "type": "Point",
                "coordinates": [
                    20.64428,
                    49.967981
                ]
            },
            "properties": {
                "isced:level": "1;2",
                "ref:rspo": 8486,
                "official_name": "Publiczna Szko\u0142a Podstawowa Nr 1 im. Stanis\u0142awa Staszica w Jadownikach",
                "name": "Publiczna Szko\u0142a Podstawowa Nr 1",
                "addr:country": "PL",
                "addr:postcode": "32-851",
                "addr:city": "Jadowniki",
                "addr:street": "\u015awi\u0119tego Prokopa",
                "addr:housenumber": "4",
                "addr:teryt:simc": 813890,
                "addr:teryt:sym_ul": 50713,
                "contact:phone": "+48 146867990",
                "contact:email": "szkola1.jadowniki@brzesko.pl",
                "contact:website": "http:\/\/sp1.jadowniki.pl",
                "ref:regon": "001204704",
                "ref:vatin": "PL8691726062",
                "operator": "Gmina Brzesko",
                "operator:type": "government",
                "amenity": "school"
            }
        },
        {
            "id": 8095,
            "type": "Feature",
            "geometry": {
                "type": "Point",
                "coordinates": [
                    20.6141,
                    49.96807
                ]
            },
            "properties": {
                "ref:rspo": 8095,
                "official_name": "Szko\u0142a Muzyczna I Stopnia w Brzesku",
                "name": "Szko\u0142a Muzyczna I Stopnia w Brzesku",
                "addr:country": "PL",
                "addr:postcode": "32-800",
                "addr:city": "Brzesko",
                "addr:street": "Bartosza G\u0142owackiego",
                "addr:housenumber": "57",
                "addr:teryt:simc": 981966,
                "addr:teryt:sym_ul": 5627,
                "contact:phone": "+48 146853344",
                "contact:email": "szkola.muzyczna@brzesko.pl",
                "contact:website": "http:\/\/www.sm.brzesko.pl",
                "ref:regon": "122611491",
                "ref:vatin": "PL8691981191",
                "operator": "Gmina Brzesko",
                "operator:type": "government",
                "amenity": "music_school"
            }
        },
        {
            "id": 262665,
            "type": "Feature",
            "geometry": {
                "type": "Point",
                "coordinates": [
                    20.6141,
                    49.968039999999995
                ]
            },
            "properties": {
                "isced:level": "1;2",
                "ref:rspo": 262665,
                "official_name": "Publiczna Szko\u0142a Podstawowa Nr 1 im. Kr\u00f3lowej Jadwigi w Brzesku",
                "name": "Publiczna Szko\u0142a Podstawowa Nr 1",
                "addr:country": "PL",
                "addr:postcode": "32-800",
                "addr:city": "Brzesko",
                "addr:street": "Bartosza G\u0142owackiego",
                "addr:housenumber": "57",
                "addr:teryt:simc": 981966,
                "addr:teryt:sym_ul": 5627,
                "contact:phone": "+48 146863290",
                "contact:email": "szkola1.brzesko@brzesko.pl",
                "contact:website": "http:\/\/psp1.brzesko.pl",
                "ref:regon": "368049580",
                "ref:vatin": "PL8691988537",
                "operator": "Gmina Brzesko",
                "operator:type": "government",
                "amenity": "school"
            }
        },
        {
            "id": 11766,
            "type": "Feature",
            "geometry": {
                "type": "Point",
                "coordinates": [
                    20.573334,
                    49.968234
                ]
            },
            "properties": {
                "ref:rspo": 11766,
                "official_name": "Ochronka Zgromadzenia Si\u00f3str S\u0142u\u017cebniczek Bdnp Niepubliczne Przedszkole",
                "name": "Ochronka Zgromadzenia Si\u00f3str S\u0142u\u017cebniczek Bdnp Niepubliczne Przedszkole",
                "addr:country": "PL",
                "addr:postcode": "32-800",
                "addr:city": "Jasie\u0144",
                "addr:street": "Ksi\u0119dza Piotra Mazurkiewicza",
                "addr:housenumber": "34",
                "addr:teryt:simc": 814062,
                "addr:teryt:sym_ul": 50714,
                "contact:phone": "+48 146633480",
                "contact:email": "ochronkajasien@gmail.com",
                "ref:regon": "122654320",
                "ref:vatin": "PL8691035837",
                "operator": "Zg.ss.s\u0142u\u017cebniczek Bdnp, Prowincja Krakowska",
                "operator:type": "religious",
                "amenity": "kindergarten"
            }
        },
        {
            "id": 8599,
            "type": "Feature",
            "geometry": {
                "type": "Point",
                "coordinates": [
                    20.60784,
                    49.9695899
                ]
            },
            "properties": {
                "ref:rspo": 8599,
                "official_name": "Przedszkole Niepubliczne Zgromadzenia Si\u00f3str S\u0142u\u017cebniczek Naj\u015bwi\u0119tszej Maryi Panny Niepokalanie Pocz",
                "name": "Przedszkole Niepubliczne Zgromadzenia Si\u00f3str S\u0142u\u017cebniczek Naj\u015bwi\u0119tszej Maryi Panny Niepokalanie Pocz",
                "addr:country": "PL",
                "addr:postcode": "32-800",
                "addr:city": "Brzesko",
                "addr:street": "Plac Kazimierza Wielkiego",
                "addr:housenumber": "12",
                "addr:teryt:simc": 981966,
                "addr:teryt:sym_ul": 8264,
                "contact:phone": "+48 146862168",
                "contact:email": "pnleonia@gmail.com",
                "ref:regon": "122650960",
                "ref:vatin": "PL8691900057",
                "operator": "Zgromadzenie Si\u00f3str S\u0142u\u017cebniczek Naj\u015bwi\u0119tszej Maryi Panny Niepokalanie Pocz\u0119tej Dom Zakonny",
                "operator:type": "religious",
                "amenity": "kindergarten"
            }
        },
        {
            "id": 9172,
            "type": "Feature",
            "geometry": {
                "type": "Point",
                "coordinates": [
                    20.60386,
                    49.9698
                ]
            },
            "properties": {
                "ref:rspo": 9172,
                "official_name": "Publiczne Przedszkole Nr 4 im. Jana Brzechwy w Brzesku",
                "name": "Publiczne Przedszkole Nr 4",
                "addr:country": "PL",
                "addr:postcode": "32-800",
                "addr:city": "Brzesko",
                "addr:street": "Ogrodowa",
                "addr:housenumber": "10",
                "addr:teryt:simc": 981966,
                "addr:teryt:sym_ul": 14834,
                "contact:phone": "+48 146849441",
                "contact:email": "przedszkole4.brzesko@brzesko.pl",
                "ref:regon": "850513282",
                "ref:vatin": "PL8691726263",
                "operator": "Gmina Brzesko",
                "operator:type": "government",
                "amenity": "kindergarten"
            }
        },
        {
            "id": 8159,
            "type": "Feature",
            "geometry": {
                "type": "Point",
                "coordinates": [
                    20.60486,
                    49.97046
                ]
            },
            "properties": {
                "ref:rspo": 8159,
                "official_name": "Publiczne Przedszkole Nr 1 w Brzesku",
                "name": "Publiczne Przedszkole Nr 1 w Brzesku",
                "addr:country": "PL",
                "addr:postcode": "32-800",
                "addr:city": "Brzesko",
                "addr:street": "Ogrodowa",
                "addr:housenumber": "13a",
                "addr:teryt:simc": 981966,
                "addr:teryt:sym_ul": 14834,
                "contact:phone": "+48 146849440",
                "contact:email": "przedszkole1.brzesko@brzesko.pl",
                "ref:regon": "850513276",
                "ref:vatin": "PL8691726211",
                "operator": "Gmina Brzesko",
                "operator:type": "government",
                "amenity": "kindergarten"
            }
        },
        {
            "id": 8182,
            "type": "Feature",
            "geometry": {
                "type": "Point",
                "coordinates": [
                    20.61361,
                    49.97171
                ]
            },
            "properties": {
                "ref:rspo": 8182,
                "official_name": "Publiczne Przedszkole Nr 10 Z Oddzia\u0142em Integracyjnym im. Jana Paw\u0142a II w Brzesku",
                "name": "Publiczne Przedszkole Nr 10 Z Oddzia\u0142em Integracyjnym",
                "addr:country": "PL",
                "addr:postcode": "32-800",
                "addr:city": "Brzesko",
                "addr:street": "Armii Andersa",
                "addr:housenumber": "8",
                "addr:teryt:simc": 981966,
                "addr:teryt:sym_ul": 49400,
                "contact:phone": "+48 146849443",
                "contact:email": "przedszkole10.brzesko@brzesko.pl",
                "ref:regon": "850513655",
                "ref:vatin": "PL8691726317",
                "operator": "Gmina Brzesko",
                "operator:type": "government",
                "amenity": "kindergarten"
            }
        },
        {
            "id": 7890,
            "type": "Feature",
            "geometry": {
                "type": "Point",
                "coordinates": [
                    20.61173,
                    49.97198
                ]
            },
            "properties": {
                "isced:level": "1;2",
                "ref:rspo": 7890,
                "official_name": "Publiczna Szko\u0142a Podstawowa Nr 3 im. Miko\u0142aja Kopernika w Brzesku",
                "name": "Publiczna Szko\u0142a Podstawowa Nr 3",
                "addr:country": "PL",
                "addr:postcode": "32-800",
                "addr:city": "Brzesko",
                "addr:street": "Legion\u00f3w Pi\u0142sudskiego",
                "addr:housenumber": "23",
                "addr:teryt:simc": 981966,
                "addr:teryt:sym_ul": 10772,
                "contact:phone": "+48 146631282",
                "contact:email": "szkola3.brzesko@brzesko.pl",
                "contact:website": "http:\/\/www.psp3brzesko.edu.pl",
                "ref:regon": "001204673",
                "ref:vatin": "PL8691726056",
                "operator": "Gmina Brzesko",
                "operator:type": "government",
                "amenity": "school"
            }
        },
        {
            "id": 266439,
            "type": "Feature",
            "geometry": {
                "type": "Point",
                "coordinates": [
                    20.59891,
                    49.9721199
                ]
            },
            "properties": {
                "ref:rspo": 266439,
                "official_name": "Zesp\u00f3\u0142 Szkolno - Przedszkolny w Brzesku",
                "name": "Zesp\u00f3\u0142 Szkolno - Przedszkolny w Brzesku",
                "addr:country": "PL",
                "addr:postcode": "32-800",
                "addr:city": "Brzesko",
                "addr:street": "Kr\u00f3lowej Jadwigi",
                "addr:housenumber": "18",
                "addr:teryt:simc": 981966,
                "addr:teryt:sym_ul": 10003,
                "contact:phone": "+48 146863530",
                "contact:email": "zespol.brzesko@brzesko.pl",
                "ref:regon": "369498698",
                "ref:vatin": "PL8691991686",
                "operator": "Gmina Brzesko",
                "operator:type": "government",
                "landuse": "education",
                "fixme": "amenity=school, amenity=college albo landuse=education w zale\u017cno\u015bci od tego, jakie plac\u00f3wki wchodz\u0105 w sk\u0142ad zespo\u0142u. Sprawd\u017a, kiedy stosowa\u0107 amenity=* a kiedy landuse=education.",
                "note": "Children RSPO: 7945;266452"
            }
        },
        {
            "id": 7945,
            "type": "Feature",
            "geometry": {
                "type": "Point",
                "coordinates": [
                    20.59891,
                    49.9720899
                ]
            },
            "properties": {
                "isced:level": "1;2",
                "ref:rspo": 7945,
                "official_name": "Publiczna Szko\u0142a Podstawowa Nr 2 im. Ignacego \u0141ukasiewicza w Brzesku",
                "name": "Publiczna Szko\u0142a Podstawowa Nr 2",
                "addr:country": "PL",
                "addr:postcode": "32-800",
                "addr:city": "Brzesko",
                "addr:street": "Kr\u00f3lowej Jadwigi",
                "addr:housenumber": "18",
                "addr:teryt:simc": 981966,
                "addr:teryt:sym_ul": 10003,
                "contact:phone": "+48 146863530",
                "contact:email": "zespol.brzesko@brzesko.pl",
                "contact:website": "http:\/\/sp2brzesko.pl",
                "ref:regon": "001204667",
                "ref:vatin": "PL8691726033",
                "operator": "Gmina Brzesko",
                "operator:type": "government",
                "amenity": "school",
                "note": "Parent RSPO: 266439"
            }
        },
        {
            "id": 266452,
            "type": "Feature",
            "geometry": {
                "type": "Point",
                "coordinates": [
                    20.59891,
                    49.972059900000005
                ]
            },
            "properties": {
                "ref:rspo": 266452,
                "official_name": "Publiczne Przedszkole Nr 2 w Brzesku",
                "name": "Publiczne Przedszkole Nr 2 w Brzesku",
                "addr:country": "PL",
                "addr:postcode": "32-800",
                "addr:city": "Brzesko",
                "addr:street": "Kr\u00f3lowej Jadwigi",
                "addr:housenumber": "18",
                "addr:teryt:simc": 981966,
                "addr:teryt:sym_ul": 10003,
                "contact:phone": "+48 146863530",
                "contact:email": "zespol.brzesko@brzesko.pl",
                "contact:website": "http:\/\/www.sp2brzesko.pl\/",
                "ref:regon": "369501704",
                "operator": "Gmina Brzesko",
                "operator:type": "government",
                "amenity": "kindergarten",
                "note": "Parent RSPO: 266439"
            }
        },
        {
            "id": 123845,
            "type": "Feature",
            "geometry": {
                "type": "Point",
                "coordinates": [
                    20.59826,
                    49.97253
                ]
            },
            "properties": {
                "ref:rspo": 123845,
                "official_name": "Prywatne Przedszkole \"Cypisek\"",
                "name": "Prywatne Przedszkole \"Cypisek\"",
                "addr:country": "PL",
                "addr:postcode": "32-800",
                "addr:city": "Brzesko",
                "addr:street": "Osiedle Osiedle W\u0142adys\u0142awa Jagie\u0142\u0142y",
                "addr:housenumber": "5A",
                "addr:teryt:simc": 981966,
                "addr:teryt:sym_ul": 49182,
                "contact:phone": "+48 511662686",
                "contact:email": "przedszkole@cypisek-brzesko.pl",
                "ref:regon": "123178688",
                "operator": "Prywatne Przedszkole  \"Cypisek\"  S.c. A.m. Peters - Musia\u0142",
                "operator:type": "consortium",
                "amenity": "kindergarten"
            }
        },
        {
            "id": 16263,
            "type": "Feature",
            "geometry": {
                "type": "Point",
                "coordinates": [
                    20.61073,
                    49.97316
                ]
            },
            "properties": {
                "ref:rspo": 16263,
                "official_name": "Przedszkole Specjalne Krol Maciu\u015b Pierwszy",
                "name": "Przedszkole Specjalne Krol Maciu\u015b Pierwszy",
                "addr:country": "PL",
                "addr:postcode": "32-800",
                "addr:city": "Brzesko",
                "addr:street": "Zamkni\u0119ta",
                "addr:housenumber": "1",
                "addr:teryt:simc": 981966,
                "addr:teryt:sym_ul": 25545,
                "contact:phone": "+48 732745145",
                "contact:email": "jano61@poczta.fm",
                "ref:regon": "122663223",
                "ref:vatin": "PL6782837926",
                "operator": "Janusz Morawiec",
                "operator:type": "private",
                "amenity": "kindergarten"
            }
        },
        {
            "id": 8559,
            "type": "Feature",
            "geometry": {
                "type": "Point",
                "coordinates": [
                    20.6196127,
                    49.9732054
                ]
            },
            "properties": {
                "ref:rspo": 8559,
                "official_name": "Niepubliczne Przedszkole Artystyczno - J\u0119zykowe \"Fikander\"",
                "name": "Niepubliczne Przedszkole Artystyczno - J\u0119zykowe \"Fikander\"",
                "addr:country": "PL",
                "addr:postcode": "32-800",
                "addr:city": "Brzesko",
                "addr:street": "Granitowa",
                "addr:housenumber": "30",
                "addr:teryt:simc": 981966,
                "addr:teryt:sym_ul": 6077,
                "contact:email": "skwarlo@wp.pl",
                "contact:website": "http:\/\/www.fikanderbrzesko.pl",
                "ref:regon": "122650930",
                "ref:vatin": "PL8691680704",
                "operator": "Justyna Dudek-Skwar\u0142o",
                "operator:type": "private",
                "amenity": "kindergarten"
            }
        },
        {
            "id": 132422,
            "type": "Feature",
            "geometry": {
                "type": "Point",
                "coordinates": [
                    20.57417,
                    49.97345
                ]
            },
            "properties": {
                "ref:rspo": 132422,
                "official_name": "Niepubliczne Przedszkole \"Stacyjkowo\"",
                "name": "Niepubliczne Przedszkole \"Stacyjkowo\"",
                "addr:country": "PL",
                "addr:postcode": "32-800",
                "addr:city": "Jasie\u0144",
                "addr:street": "Klonowa",
                "addr:housenumber": "1",
                "addr:teryt:simc": 814062,
                "addr:teryt:sym_ul": 8574,
                "contact:phone": "+48 691277440",
                "contact:email": "crd.stacyjkowo@onet.pl",
                "contact:website": "http:\/\/www.stacyjkowo-brzesko.pl",
                "ref:regon": "365616362",
                "operator": "And\u017celika Wojciechowska",
                "operator:type": "private",
                "amenity": "kindergarten"
            }
        },
        {
            "id": 278620,
            "type": "Feature",
            "geometry": {
                "type": "Point",
                "coordinates": [
                    20.60179,
                    49.97363
                ]
            },
            "properties": {
                "ref:rspo": 278620,
                "official_name": "Niepubliczne Przedszkole \"Pod Magnoli\u0105\"",
                "name": "Niepubliczne Przedszkole \"Pod Magnoli\u0105\"",
                "addr:country": "PL",
                "addr:postcode": "32-800",
                "addr:city": "Brzesko",
                "addr:street": "W\u0142adys\u0142awa Jagie\u0142\u0142y",
                "addr:housenumber": "11",
                "addr:teryt:simc": 981966,
                "addr:teryt:sym_ul": 24494,
                "contact:phone": "+48 600900906",
                "contact:email": "brzesko@podmagnolia.pl",
                "ref:regon": "520003094",
                "operator": "Pacu\u0142a & Walerjan Sp\u00f3\u0142ka Z Ograniczon\u0105 Odpowiedzialno\u015bci\u0105",
                "operator:type": "private",
                "amenity": "kindergarten"
            }
        },
        {
            "id": 123870,
            "type": "Feature",
            "geometry": {
                "type": "Point",
                "coordinates": [
                    20.58855,
                    49.97415
                ]
            },
            "properties": {
                "ref:rspo": 123870,
                "official_name": "Niepubliczne Przedszkole Muzyczne \"Ta\u0144cz\u0105ce Nutki\"",
                "name": "Niepubliczne Przedszkole Muzyczne \"Ta\u0144cz\u0105ce Nutki\"",
                "addr:country": "PL",
                "addr:postcode": "32-800",
                "addr:city": "Brzesko",
                "addr:street": "Topolowa",
                "addr:housenumber": "57",
                "addr:teryt:simc": 981966,
                "addr:teryt:sym_ul": 22880,
                "contact:phone": "+48 511985445",
                "contact:email": "tanczacenutki@przedszkole.brzesko.pl",
                "contact:website": "http:\/\/www.przedszkolebrzesko.pl",
                "ref:regon": "123178903",
                "operator": "Marcin Hnat\u00f3w",
                "operator:type": "private",
                "amenity": "kindergarten"
            }
        },
        {
            "id": 11094,
            "type": "Feature",
            "geometry": {
                "type": "Point",
                "coordinates": [
                    20.60786,
                    49.97548
                ]
            },
            "properties": {
                "ref:rspo": 11094,
                "official_name": "Niepubliczna Plac\u00f3wka Kszta\u0142cenia Ustawicznego Bhp Marka Krzysztof Mariankowski",
                "name": "Niepubliczna Plac\u00f3wka Kszta\u0142cenia Ustawicznego Bhp Marka Krzysztof Mariankowski",
                "addr:country": "PL",
                "addr:postcode": "32-800",
                "addr:city": "Brzesko",
                "addr:street": "Kwiatowa",
                "addr:housenumber": "27",
                "addr:teryt:simc": 981966,
                "addr:teryt:sym_ul": 10562,
                "contact:phone": "+48 146632257",
                "ref:regon": "122654313",
                "ref:vatin": "PL8691178382",
                "operator": "Krzysztof Mariankowski",
                "operator:type": "private",
                "fixme": "w zale\u017cno\u015bci od przedmiotu dzia\u0142alno\u015bci (np. amenity=training + training=*, amenity=dancing_school, amenity=language_school, amenity=music_school)"
            }
        },
        {
            "id": 90414,
            "type": "Feature",
            "geometry": {
                "type": "Point",
                "coordinates": [
                    20.60673,
                    49.97597
                ]
            },
            "properties": {
                "isced:level": "3",
                "ref:rspo": 90414,
                "official_name": "Liceum Og\u00f3lnokszta\u0142c\u0105ce im. Miko\u0142aja Kopernika w Brzesku",
                "name": "Liceum Og\u00f3lnokszta\u0142c\u0105ce",
                "addr:country": "PL",
                "addr:postcode": "32-800",
                "addr:city": "Brzesko",
                "addr:street": "Genera\u0142a Leopolda Okulickiego",
                "addr:housenumber": "2",
                "addr:teryt:simc": 981966,
                "addr:teryt:sym_ul": 48105,
                "contact:phone": "+48 146863837",
                "contact:email": "sekretariat@lobrzesko.edu.pl",
                "contact:website": "http:\/\/www.kopernik.brzesko.pl",
                "ref:regon": "000231082",
                "ref:vatin": "PL8691998889",
                "operator": "Powiat Brzeski",
                "operator:type": "government",
                "amenity": "school"
            }
        },
        {
            "id": 90415,
            "type": "Feature",
            "geometry": {
                "type": "Point",
                "coordinates": [
                    20.60673,
                    49.975939999999994
                ]
            },
            "properties": {
                "isced:level": "3",
                "ref:rspo": 90415,
                "official_name": "Technikum im. J\u00f3zefa Pi\u0142sudskiego",
                "name": "Technikum",
                "addr:country": "PL",
                "addr:postcode": "32-800",
                "addr:city": "Brzesko",
                "addr:street": "Genera\u0142a Leopolda Okulickiego",
                "addr:housenumber": "2",
                "addr:teryt:simc": 981966,
                "addr:teryt:sym_ul": 48105,
                "contact:phone": "+48 146863200",
                "contact:email": "sekretariat@technikum-brzesko.edu.pl",
                "contact:website": "http:\/\/www.technikum-brzesko.edu.pl",
                "ref:regon": "852713683",
                "ref:vatin": "PL8691998872",
                "operator": "Powiat Brzeski",
                "operator:type": "government",
                "amenity": "school"
            }
        },
        {
            "id": 9334,
            "type": "Feature",
            "geometry": {
                "type": "Point",
                "coordinates": [
                    20.60608,
                    49.97723
                ]
            },
            "properties": {
                "ref:rspo": 9334,
                "official_name": "Publiczne Przedszkole Z Oddzia\u0142ami Integracyjnymi im. \u015aw. S. Faustyny",
                "name": "Publiczne Przedszkole Z Oddzia\u0142ami Integracyjnymi",
                "addr:country": "PL",
                "addr:postcode": "32-800",
                "addr:city": "Brzesko",
                "addr:street": "\u015awi\u0119tego Brata Alberta",
                "addr:housenumber": "8",
                "addr:teryt:simc": 981966,
                "addr:teryt:sym_ul": 41620,
                "contact:phone": "+48 146863911",
                "contact:email": "pintegracyjne@gmail.com",
                "ref:regon": "122651266",
                "ref:vatin": "PL8691807317",
                "operator": "Parafia Rzym.-Kat. Pw Mi\u0142osierdzia Bo\u017cego W Krakowie",
                "operator:type": "religious",
                "amenity": "kindergarten"
            }
        },
        {
            "id": 266441,
            "type": "Feature",
            "geometry": {
                "type": "Point",
                "coordinates": [
                    20.64292,
                    49.97915
                ]
            },
            "properties": {
                "ref:rspo": 266441,
                "official_name": "Zesp\u00f3\u0142 Szkolno-Przedszkolny w Jadownikach",
                "name": "Zesp\u00f3\u0142 Szkolno-Przedszkolny w Jadownikach",
                "addr:country": "PL",
                "addr:postcode": "32-851",
                "addr:city": "Jadowniki",
                "addr:street": "Szkolna",
                "addr:housenumber": "5",
                "addr:teryt:simc": 813890,
                "addr:teryt:sym_ul": 21970,
                "contact:phone": "+48 146633009",
                "contact:email": "zespol.jadowniki@brzesko.pl",
                "ref:regon": "369499261",
                "ref:vatin": "PL8691990445",
                "operator": "Gmina Brzesko",
                "operator:type": "government",
                "landuse": "education",
                "fixme": "amenity=school, amenity=college albo landuse=education w zale\u017cno\u015bci od tego, jakie plac\u00f3wki wchodz\u0105 w sk\u0142ad zespo\u0142u. Sprawd\u017a, kiedy stosowa\u0107 amenity=* a kiedy landuse=education.",
                "note": "Children RSPO: 8035;266453"
            }
        },
        {
            "id": 8035,
            "type": "Feature",
            "geometry": {
                "type": "Point",
                "coordinates": [
                    20.64292,
                    49.979119999999995
                ]
            },
            "properties": {
                "isced:level": "1;2",
                "ref:rspo": 8035,
                "official_name": "Publiczna Szko\u0142a Podstawowa Nr 2 im. \u015aw. Jana Paw\u0142a II i Kardyna\u0142a Stefana Wyszy\u0144skiego w Jadownikach",
                "name": "Publiczna Szko\u0142a Podstawowa Nr 2",
                "addr:country": "PL",
                "addr:postcode": "32-851",
                "addr:city": "Jadowniki",
                "addr:street": "Szkolna",
                "addr:housenumber": "5",
                "addr:teryt:simc": 813890,
                "addr:teryt:sym_ul": 21970,
                "contact:phone": "+48 146633009",
                "contact:email": "zespol.jadowniki@brzesko.pl",
                "contact:website": "http:\/\/www.psp2.jadowniki.szkolnastrona.pl",
                "ref:regon": "001204696",
                "ref:vatin": "PL8691986136",
                "operator": "Gmina Brzesko",
                "operator:type": "government",
                "amenity": "school",
                "note": "Parent RSPO: 266441"
            }
        },
        {
            "id": 266453,
            "type": "Feature",
            "geometry": {
                "type": "Point",
                "coordinates": [
                    20.64292,
                    49.97909
                ]
            },
            "properties": {
                "ref:rspo": 266453,
                "official_name": "Publiczne Przedszkole Nr 2 w Jadownikach",
                "name": "Publiczne Przedszkole Nr 2 w Jadownikach",
                "addr:country": "PL",
                "addr:postcode": "32-800",
                "addr:city": "Jadowniki",
                "addr:street": "Szkolna",
                "addr:housenumber": "5",
                "addr:teryt:simc": 813890,
                "addr:teryt:sym_ul": 21970,
                "contact:phone": "+48 146633009",
                "contact:email": "zespol.jadowniki@brzesko.pl",
                "ref:regon": "369501785",
                "ref:vatin": "PL8691990439",
                "operator": "Gmina Brzesko",
                "operator:type": "government",
                "amenity": "kindergarten",
                "note": "Parent RSPO: 266441"
            }
        },
        {
            "id": 276266,
            "type": "Feature",
            "geometry": {
                "type": "Point",
                "coordinates": [
                    20.60006,
                    49.98319
                ]
            },
            "properties": {
                "isced:level": "3",
                "ref:rspo": 276266,
                "official_name": "Zesp\u00f3\u0142 Szk\u00f3\u0142 Technicznych I Bran\u017cowych im. Bohater\u00f3w Westerplatte w Brzesku Bran\u017cowa Szko\u0142a II Stopnia",
                "name": "Zesp\u00f3\u0142 Szk\u00f3\u0142 Technicznych I Bran\u017cowych",
                "addr:country": "PL",
                "addr:postcode": "32-800",
                "addr:city": "Brzesko",
                "addr:street": "Piaskowa",
                "addr:housenumber": "2",
                "addr:teryt:simc": 981966,
                "addr:teryt:sym_ul": 16033,
                "contact:phone": "+48 146631603",
                "contact:email": "szkola@zsp2.edu.pl",
                "contact:website": "http:\/\/www.zsp2.edu.pl",
                "ref:regon": "387062060",
                "operator": "Powiat Brzeski",
                "operator:type": "government",
                "amenity": "school",
                "note": "Parent RSPO: 81498"
            }
        },
        {
            "id": 130866,
            "type": "Feature",
            "geometry": {
                "type": "Point",
                "coordinates": [
                    20.61095,
                    49.98913
                ]
            },
            "properties": {
                "ref:rspo": 130866,
                "official_name": "Przedszkole \"Bajka\"",
                "name": "Przedszkole \"Bajka\"",
                "addr:country": "PL",
                "addr:postcode": "32-800",
                "addr:city": "Brzesko",
                "addr:street": "Stawowa",
                "addr:housenumber": "4",
                "addr:teryt:simc": 981966,
                "addr:teryt:sym_ul": 21101,
                "contact:phone": "+48 146714343",
                "contact:email": "bajkabrzesko@gmail.com",
                "contact:website": "http:\/\/www.przedszkole.brzesko.edu.pl",
                "ref:regon": "364635570",
                "operator": "J\u00f3zefa Borowiec-Ozorka",
                "operator:type": "private",
                "amenity": "kindergarten"
            }
        },
        {
            "id": 9231,
            "type": "Feature",
            "geometry": {
                "type": "Point",
                "coordinates": [
                    20.67792,
                    49.99541
                ]
            },
            "properties": {
                "isced:level": "1;2",
                "ref:rspo": 9231,
                "official_name": "Publiczna Szko\u0142a Podstawowa im. \u015aw. Stanis\u0142awa Szczepanowskiego Bm w Sterkowcu",
                "name": "Publiczna Szko\u0142a Podstawowa",
                "addr:country": "PL",
                "addr:postcode": "32-823",
                "addr:city": "Sterkowiec",
                "addr:street": "Sosnowa",
                "addr:housenumber": "20",
                "addr:teryt:simc": 814375,
                "addr:teryt:sym_ul": 20598,
                "contact:phone": "+48 146638609",
                "contact:email": "szkola.sterkowiec@brzesko.pl",
                "contact:website": "http:\/\/www.sterkowiec.edu.pl",
                "ref:regon": "001277525",
                "ref:vatin": "PL8691726168",
                "operator": "Gmina Brzesko",
                "operator:type": "government",
                "amenity": "school"
            }
        },
        {
            "id": 6879,
            "type": "Feature",
            "geometry": {
                "type": "Point",
                "coordinates": [
                    20.6191,
                    50.0034599
                ]
            },
            "properties": {
                "isced:level": "1;2",
                "ref:rspo": 6879,
                "official_name": "Publiczna Szko\u0142a Podstawowa im. Tadeusza Ko\u015bciuszki w Mokrzyskach",
                "name": "Publiczna Szko\u0142a Podstawowa",
                "addr:country": "PL",
                "addr:postcode": "32-800",
                "addr:city": "Mokrzyska",
                "addr:street": "Wi\u015blana",
                "addr:housenumber": "47",
                "addr:teryt:simc": 814151,
                "addr:teryt:sym_ul": 24398,
                "contact:phone": "+48 146868444",
                "contact:email": "szkola.mokrzyska@brzesko.pl",
                "contact:website": "http:\/\/spmokrzyska.pl",
                "ref:regon": "001204727",
                "ref:vatin": "PL8691726122",
                "operator": "Gmina Brzesko",
                "operator:type": "government",
                "amenity": "school"
            }
        },
        {
            "id": 8076,
            "type": "Feature",
            "geometry": {
                "type": "Point",
                "coordinates": [
                    20.6549145,
                    50.0045433
                ]
            },
            "properties": {
                "isced:level": "1;2",
                "ref:rspo": 8076,
                "official_name": "Publiczna Szko\u0142a Podstawowa im. Bohater\u00f3w Westerplatte w Szczepanowie",
                "name": "Publiczna Szko\u0142a Podstawowa",
                "addr:country": "PL",
                "addr:postcode": "32-823",
                "addr:city": "Szczepan\u00f3w",
                "addr:street": "\u015awi\u0119tego Stanis\u0142awa",
                "addr:housenumber": "5",
                "addr:teryt:simc": 814412,
                "addr:teryt:sym_ul": 46939,
                "contact:phone": "+48 146638014",
                "contact:email": "szkola.szczepanow@brzesko.pl",
                "ref:regon": "001201396",
                "ref:vatin": "PL8691726151",
                "operator": "Gmina Brzesko",
                "operator:type": "government",
                "amenity": "school"
            }
        },
        {
            "id": 16262,
            "type": "Feature",
            "geometry": {
                "type": "Point",
                "coordinates": [
                    20.61541,
                    50.00481
                ]
            },
            "properties": {
                "ref:rspo": 16262,
                "official_name": "Publiczne Przedszkole Parafialne Pw B\u0142. Karoliny Kozka Mokrzyska",
                "name": "Publiczne Przedszkole Parafialne Pw B\u0142. Karoliny Kozka Mokrzyska",
                "addr:country": "PL",
                "addr:postcode": "32-800",
                "addr:city": "Mokrzyska",
                "addr:street": "Ko\u015bcielna",
                "addr:housenumber": "13",
                "addr:teryt:simc": 814151,
                "addr:teryt:sym_ul": 9546,
                "contact:phone": "+48 146862168",
                "contact:email": "etomana65@wp.pl",
                "contact:website": "http:\/\/www.przedszkolemokrzyska.pl",
                "ref:regon": "122663306",
                "ref:vatin": "PL8691035777",
                "operator": "Parafia Rzym.-Kat. Pw.naj\u015bwi\u0119tszego Serca Pana Jezusa",
                "operator:type": "religious",
                "amenity": "kindergarten"
            }
        },
        {
            "id": 7734,
            "type": "Feature",
            "geometry": {
                "type": "Point",
                "coordinates": [
                    20.6520012,
                    50.0054862
                ]
            },
            "properties": {
                "ref:rspo": 7734,
                "official_name": "Publiczne Przedszkole im. \u015aw. Jana Paw\u0142a II w Szczepanowie",
                "name": "Publiczne Przedszkole",
                "addr:country": "PL",
                "addr:postcode": "32-823",
                "addr:city": "Szczepan\u00f3w",
                "addr:street": "Rynek Szczepanowski",
                "addr:housenumber": "1",
                "addr:teryt:simc": 814412,
                "addr:teryt:sym_ul": 50722,
                "contact:phone": "+48 146864230",
                "contact:email": "przedszkole.szczepanow@brzesko.pl",
                "contact:website": "http:\/\/www.przedszkoleszczepanow.pl",
                "ref:regon": "850513690",
                "ref:vatin": "PL8691726205",
                "operator": "Gmina Brzesko",
                "operator:type": "government",
                "amenity": "kindergarten"
            }
        },
        {
            "id": 11786,
            "type": "Feature",
            "geometry": {
                "type": "Point",
                "coordinates": [
                    20.61164,
                    50.03533
                ]
            },
            "properties": {
                "isced:level": "1;2",
                "ref:rspo": 11786,
                "official_name": "Publiczna Szko\u0142a Podstawowa im. Ksi\u0119dza Jana Twardowskiego w Buczu",
                "name": "Publiczna Szko\u0142a Podstawowa",
                "addr:country": "PL",
                "addr:postcode": "32-800",
                "addr:city": "Bucze",
                "addr:street": "Okulicka",
                "addr:housenumber": "6",
                "addr:teryt:simc": 813832,
                "addr:teryt:sym_ul": 14924,
                "contact:phone": "+48 146868860",
                "contact:email": "szkola.bucze@brzesko.pl",
                "contact:website": "http:\/\/www.pspbucze.szkolnastrona.pl",
                "ref:regon": "001204680",
                "ref:vatin": "PL8691726139",
                "operator": "Gmina Brzesko",
                "operator:type": "government",
                "amenity": "school"
            }
        }
    ]
}