{"type":"FeatureCollection","features":[{"id":6340,"type":"Feature","geometry":{"type":"Point","coordinates":[20.71336,49.89857]},"properties":{"isced:level":"1;2","ref:rspo":6340,"official_name":"Publiczna Szko\u0142a Podstawowa im. Jana Dudka w Nied\u017awiedzy","name":"Publiczna Szko\u0142a Podstawowa","addr:country":"PL","addr:postcode":"32-854","addr:place":"Nied\u017awiedza","addr:housenumber":"130","addr:teryt:sym_ul":819289,"contact:phone":"+48 146656248","contact:email":"sp-nd@gminadebno.pl","ref:regon":"001190965","ref:vatin":"PL8691725045","operator":"Gmina D\u0119bno","operator:type":"government","amenity":"school"}},{"id":6141,"type":"Feature","geometry":{"type":"Point","coordinates":[20.75748,49.90785]},"properties":{"isced:level":"1;2","ref:rspo":6141,"official_name":"Publiczna Szko\u0142a Podstawowa w Jaworsku","name":"Publiczna Szko\u0142a Podstawowa w Jaworsku","addr:country":"PL","addr:postcode":"32-853","addr:place":"Jaworsko","addr:housenumber":"151","addr:teryt:sym_ul":819013,"contact:phone":"+48 146657183","contact:email":"sp-jw@gminadebno.pl","ref:regon":"001190920","ref:vatin":"PL8691725128","operator":"Gmina D\u0119bno","operator:type":"government","amenity":"school"}},{"id":3389,"type":"Feature","geometry":{"type":"Point","coordinates":[20.69639,49.91076]},"properties":{"isced:level":"1;2","ref:rspo":3389,"official_name":"Publiczna Szko\u0142a Podstawowa w \u0141oniowej","name":"Publiczna Szko\u0142a Podstawowa w \u0141oniowej","addr:country":"PL","addr:postcode":"32-854","addr:place":"\u0141oniowa","addr:housenumber":"210","addr:teryt:sym_ul":819059,"contact:phone":"+48 146656125","contact:email":"sp-ln@gminadebno.pl","contact:website":"https:\/\/sploniowa.edupage.org","ref:regon":"001190936","ref:vatin":"PL8691725424","operator":"Gmina D\u0119bno","operator:type":"government","amenity":"school"}},{"id":6355,"type":"Feature","geometry":{"type":"Point","coordinates":[20.6982,49.91271]},"properties":{"ref:rspo":6355,"official_name":"Przedszkole Publiczne w \u0141oniowej","name":"Przedszkole Publiczne w \u0141oniowej","addr:country":"PL","addr:postcode":"32-854","addr:place":"\u0141oniowa","addr:housenumber":"155","addr:teryt:sym_ul":819059,"contact:phone":"+48 146656321","contact:email":"pp-ln@gminadebno.pl","ref:regon":"850463199","ref:vatin":"PL8691724991","operator":"Gmina D\u0119bno","operator:type":"government","amenity":"kindergarten"}},{"id":11388,"type":"Feature","geometry":{"type":"Point","coordinates":[20.67765,49.9311099]},"properties":{"isced:level":"1;2","ref:rspo":11388,"official_name":"Publiczna Szko\u0142a Podstawowa im. W\u0142adys\u0142awa Reymonta w Por\u0105bce Uszewskiej","name":"Publiczna Szko\u0142a Podstawowa","addr:country":"PL","addr:postcode":"32-854","addr:place":"Por\u0105bka Uszewska","addr:housenumber":"306","addr:teryt:sym_ul":819378,"contact:phone":"+48 146656730","contact:email":"zs-pu@gminadebno.pl","ref:regon":"001190971","ref:vatin":"PL8691768534","operator":"Gmina D\u0119bno","operator:type":"government","amenity":"school"}},{"id":70160,"type":"Feature","geometry":{"type":"Point","coordinates":[20.7308999,49.93294]},"properties":{"ref:rspo":70160,"official_name":"M\u0142odzie\u017cowy O\u015brodek Socjoterapii w \u0141ysej G\u00f3rze","name":"M\u0142odzie\u017cowy O\u015brodek Socjoterapii w \u0141ysej G\u00f3rze","addr:country":"PL","addr:postcode":"32-853","addr:place":"\u0141ysa G\u00f3ra","addr:housenumber":"274","addr:teryt:sym_ul":819148,"contact:phone":"+48 146657313","contact:email":"mos@edu.pl","contact:website":"http:\/\/www.mos.edu.pl","ref:regon":"121279250","ref:vatin":"PL8691963767","operator":"Powiat Brzeski","operator:type":"government","fixme":"amenity=social facility + social_facility=group_home + social_facility:for=juvenile","note":"Children RSPO: 262593;268531"}},{"id":262593,"type":"Feature","geometry":{"type":"Point","coordinates":[20.7308999,49.93291]},"properties":{"isced:level":"1;2","ref:rspo":262593,"official_name":"Szko\u0142a Podstawowa Specjalna w M\u0142odzie\u017cowym O\u015brodku Socjoterapii w \u0141ysej G\u00f3rze","name":"Szko\u0142a Podstawowa Specjalna w M\u0142odzie\u017cowym O\u015brodku Socjoterapii w \u0141ysej G\u00f3rze","addr:country":"PL","addr:postcode":"32-853","addr:place":"\u0141ysa G\u00f3ra","addr:housenumber":"274","addr:teryt:sym_ul":819148,"contact:phone":"+48 146657313","contact:email":"mos@va.pl","contact:website":"http:\/\/www.mos.edu.pl","ref:regon":"368047410","operator":"Powiat Brzeski","operator:type":"government","amenity":"school","note":"Parent RSPO: 70160"}},{"id":268531,"type":"Feature","geometry":{"type":"Point","coordinates":[20.7308999,49.932880000000004]},"properties":{"isced:level":"3","ref:rspo":268531,"official_name":"Bran\u017cowa Szko\u0142a I Stopnia Specjalna w M\u0142odzie\u017cowym O\u015brodku Socjoterapii w \u0141ysej G\u00f3rze","name":"Bran\u017cowa Szko\u0142a I Stopnia Specjalna w M\u0142odzie\u017cowym O\u015brodku Socjoterapii w \u0141ysej G\u00f3rze","addr:country":"PL","addr:postcode":"32-853","addr:place":"\u0141ysa G\u00f3ra","addr:housenumber":"274","addr:teryt:sym_ul":819148,"contact:phone":"+48 146657313","contact:email":"mos@va.pl","contact:website":"http:\/\/www.mos.edu.pl","ref:regon":"381202100","operator":"Powiat Brzeski","operator:type":"government","amenity":"school","note":"Parent RSPO: 70160"}},{"id":6154,"type":"Feature","geometry":{"type":"Point","coordinates":[20.73556,49.93303]},"properties":{"ref:rspo":6154,"official_name":"Zesp\u00f3\u0142 Szkolno - Przedszkolny w \u0141ysej G\u00f3rze","name":"Zesp\u00f3\u0142 Szkolno - Przedszkolny w \u0141ysej G\u00f3rze","addr:country":"PL","addr:postcode":"32-853","addr:place":"\u0141ysa G\u00f3ra","addr:housenumber":"275","addr:teryt:sym_ul":819148,"contact:phone":"+48 146657315","contact:email":"sp-lg@gminadebno.pl","contact:website":"http:\/\/www.szkolalg.pl","ref:regon":"120990372","ref:vatin":"PL8691946970","operator":"Gmina D\u0119bno","operator:type":"government","landuse":"education","fixme":"amenity=school, amenity=college albo landuse=education w zale\u017cno\u015bci od tego, jakie plac\u00f3wki wchodz\u0105 w sk\u0142ad zespo\u0142u. Sprawd\u017a, kiedy stosowa\u0107 amenity=* a kiedy landuse=education.","note":"Children RSPO: 12585;12591"}},{"id":12585,"type":"Feature","geometry":{"type":"Point","coordinates":[20.73556,49.933]},"properties":{"ref:rspo":12585,"official_name":"Przedszkole Publiczne w \u0141ysej G\u00f3rze","name":"Przedszkole Publiczne w \u0141ysej G\u00f3rze","addr:country":"PL","addr:postcode":"32-853","addr:place":"\u0141ysa G\u00f3ra","addr:housenumber":"275","addr:teryt:sym_ul":819148,"contact:phone":"+48 146657309","contact:email":"sp-lg@gminadebno.pl","ref:regon":"850463390","ref:vatin":"PL8691724784","operator":"Gmina D\u0119bno","operator:type":"government","amenity":"kindergarten","note":"Parent RSPO: 6154"}},{"id":12591,"type":"Feature","geometry":{"type":"Point","coordinates":[20.73556,49.932970000000005]},"properties":{"isced:level":"1;2","ref:rspo":12591,"official_name":"Publiczna Szko\u0142a Podstawowa im.jana Smolenia w \u0141ysej G\u00f3rze","name":"Publiczna Szko\u0142a Podstawowa im.jana Smolenia w \u0141ysej G\u00f3rze","addr:country":"PL","addr:postcode":"32-853","addr:place":"\u0141ysa G\u00f3ra","addr:housenumber":"275","addr:teryt:sym_ul":819148,"contact:phone":"+48 146657315","contact:email":"sp-lg@gminadebno.pl","contact:website":"http:\/\/www.szkolalg.pl\/","ref:regon":"001190942","ref:vatin":"PL8691725418","operator":"Gmina D\u0119bno","operator:type":"government","amenity":"school","note":"Parent RSPO: 6154"}},{"id":6372,"type":"Feature","geometry":{"type":"Point","coordinates":[20.6789999,49.93551]},"properties":{"ref:rspo":6372,"official_name":"Publiczne Przedszkole w Por\u0105bce Uszewskiej im. Juliana Tuwima","name":"Publiczne Przedszkole w Por\u0105bce Uszewskiej","addr:country":"PL","addr:postcode":"32-854","addr:place":"Por\u0105bka Uszewska","addr:housenumber":"330","addr:teryt:sym_ul":819378,"contact:phone":"+48 146656760","contact:email":"pp-pu@gminadebno.pl","ref:regon":"850463259","ref:vatin":"PL8691724933","operator":"Gmina D\u0119bno","operator:type":"government","amenity":"kindergarten"}},{"id":8780,"type":"Feature","geometry":{"type":"Point","coordinates":[20.75202,49.95684]},"properties":{"isced:level":"1;2","ref:rspo":8780,"official_name":"Publiczna Szko\u0142a Podstawowa im. Ks. Pra\u0142ata P\u0142k. Tadeusza D\u0142ubacza w Sufczynie","name":"Publiczna Szko\u0142a Podstawowa","addr:country":"PL","addr:postcode":"32-852","addr:place":"Sufczyn","addr:housenumber":"250","addr:teryt:sym_ul":819444,"contact:phone":"+48 146658072","contact:email":"zs-sf@gminadebno.pl","ref:regon":"001190988","ref:vatin":"PL8691809026","operator":"Gmina D\u0119bno","operator:type":"government","amenity":"school"}},{"id":272734,"type":"Feature","geometry":{"type":"Point","coordinates":[20.75743,49.95812]},"properties":{"ref:rspo":272734,"official_name":"Niepubliczne Przedszkole \"Bajkowa Kraina\"","name":"Niepubliczne Przedszkole \"Bajkowa Kraina\"","addr:country":"PL","addr:postcode":"32-852","addr:place":"Sufczyn","addr:housenumber":"508","addr:teryt:sym_ul":819444,"contact:email":"annazdebskasroka@gmail.com","ref:regon":"384282251","operator":"Anna Zdebska - Sroka","operator:type":"private","amenity":"kindergarten"}},{"id":6118,"type":"Feature","geometry":{"type":"Point","coordinates":[20.71993,49.96109]},"properties":{"ref:rspo":6118,"official_name":"Zesp\u00f3\u0142 Szkolno-Przedszkolny w D\u0119bnie","name":"Zesp\u00f3\u0142 Szkolno-Przedszkolny w D\u0119bnie","addr:country":"PL","addr:postcode":"32-852","addr:place":"D\u0119bno","addr:housenumber":"212","addr:teryt:sym_ul":818841,"contact:phone":"+48 146658769","contact:email":"sp-db@gminadebno.pl","ref:regon":"120526108","ref:vatin":"PL8691908544","operator":"Gmina D\u0119bno","operator:type":"government","landuse":"education","fixme":"amenity=school, amenity=college albo landuse=education w zale\u017cno\u015bci od tego, jakie plac\u00f3wki wchodz\u0105 w sk\u0142ad zespo\u0142u. Sprawd\u017a, kiedy stosowa\u0107 amenity=* a kiedy landuse=education.","note":"Children RSPO: 11397;11405"}},{"id":11397,"type":"Feature","geometry":{"type":"Point","coordinates":[20.71993,49.961059999999996]},"properties":{"ref:rspo":11397,"official_name":"Przedszkole Publiczne w D\u0119bnie","name":"Przedszkole Publiczne w D\u0119bnie","addr:country":"PL","addr:postcode":"32-852","addr:place":"D\u0119bno","addr:housenumber":"212","addr:teryt:sym_ul":818841,"contact:phone":"+48 146658768","contact:email":"sp-db@gminadebno.pl","ref:regon":"850463271","ref:vatin":"PL8691724867","operator":"Gmina D\u0119bno","operator:type":"government","amenity":"kindergarten","note":"Parent RSPO: 6118"}},{"id":11405,"type":"Feature","geometry":{"type":"Point","coordinates":[20.71993,49.96103]},"properties":{"isced:level":"1;2","ref:rspo":11405,"official_name":"Publiczna Szko\u0142a Podstawowa im.tadeusza Ko\u015bciuszki w D\u0119bnie","name":"Publiczna Szko\u0142a Podstawowa im.tadeusza Ko\u015bciuszki w D\u0119bnie","addr:country":"PL","addr:postcode":"32-852","addr:place":"D\u0119bno","addr:housenumber":"212","addr:teryt:sym_ul":818841,"contact:phone":"+48 146658769","contact:email":"sp-db@gminadebno.pl","ref:regon":"000718393","ref:vatin":"PL8691725447","operator":"Gmina D\u0119bno","operator:type":"government","amenity":"school","note":"Parent RSPO: 6118"}},{"id":6084,"type":"Feature","geometry":{"type":"Point","coordinates":[20.71374,49.97004]},"properties":{"isced:level":"1;2","ref:rspo":6084,"official_name":"Publiczna Szko\u0142a Podstawowa w Woli D\u0119bi\u0144skiej","name":"Publiczna Szko\u0142a Podstawowa w Woli D\u0119bi\u0144skiej","addr:country":"PL","addr:postcode":"32-852","addr:place":"Wola D\u0119bi\u0144ska","addr:housenumber":"330","addr:teryt:sym_ul":819504,"contact:phone":"+48 146658218","contact:email":"sp-wd@gminadebno.pl","ref:regon":"850048402","ref:vatin":"PL8691767983","operator":"Gmina D\u0119bno","operator:type":"government","amenity":"school"}},{"id":6399,"type":"Feature","geometry":{"type":"Point","coordinates":[20.71043,49.97335]},"properties":{"ref:rspo":6399,"official_name":"Publiczne Przedszkole w Woli D\u0119bi\u0144skiej im. Jana Paw\u0142a Ii","name":"Publiczne Przedszkole w Woli D\u0119bi\u0144skiej","addr:country":"PL","addr:postcode":"32-852","addr:place":"Wola D\u0119bi\u0144ska","addr:housenumber":"2","addr:teryt:sym_ul":819504,"contact:phone":"+48 146658683","contact:email":"pp-wd@gminadebno.pl","ref:regon":"850020349","ref:vatin":"PL8691724838","operator":"Gmina D\u0119bno","operator:type":"government","amenity":"kindergarten"}},{"id":127191,"type":"Feature","geometry":{"type":"Point","coordinates":[20.6953,49.9777]},"properties":{"ref:rspo":127191,"official_name":"Niepubliczne Przedszkole \"Z\u0142ota Rybka\" Thomas Sworniowski","name":"Niepubliczne Przedszkole \"Z\u0142ota Rybka\" Thomas Sworniowski","addr:country":"PL","addr:postcode":"32-852","addr:place":"Wola D\u0119bi\u0144ska","addr:housenumber":"258","addr:teryt:sym_ul":819504,"contact:phone":"+48 661531717","contact:email":"przedszkole.thomas@gmail.com","ref:regon":"361175530","operator":"Thomas Sworniowski","operator:type":"private","amenity":"kindergarten"}},{"id":6165,"type":"Feature","geometry":{"type":"Point","coordinates":[20.69096,49.98705]},"properties":{"ref:rspo":6165,"official_name":"Zesp\u00f3\u0142 Szkolno-Przedszkolny w Maszkienicach","name":"Zesp\u00f3\u0142 Szkolno-Przedszkolny w Maszkienicach","addr:country":"PL","addr:postcode":"32-828","addr:place":"Maszkienice","addr:housenumber":"51","addr:teryt:sym_ul":819237,"contact:phone":"+48 146638564","contact:email":"sp-ms@gminadebno.pl","contact:website":"http:\/\/zspmaszkienice.edupage.org","ref:regon":"120972820","ref:vatin":"PL8691945953","operator":"Gmina D\u0119bno","operator:type":"government","landuse":"education","fixme":"amenity=school, amenity=college albo landuse=education w zale\u017cno\u015bci od tego, jakie plac\u00f3wki wchodz\u0105 w sk\u0142ad zespo\u0142u. Sprawd\u017a, kiedy stosowa\u0107 amenity=* a kiedy landuse=education.","note":"Children RSPO: 12600;12715"}},{"id":12600,"type":"Feature","geometry":{"type":"Point","coordinates":[20.69096,49.98702]},"properties":{"ref:rspo":12600,"official_name":"Przedszkole Publiczne w Maszkienicach","name":"Przedszkole Publiczne w Maszkienicach","addr:country":"PL","addr:postcode":"32-828","addr:place":"Maszkienice","addr:housenumber":"51","addr:teryt:sym_ul":819237,"contact:phone":"+48 146638564","contact:email":"sp-ms@gminadebno.pl","ref:regon":"850463236","ref:vatin":"PL8691724904","operator":"Gmina D\u0119bno","operator:type":"government","amenity":"kindergarten","note":"Parent RSPO: 6165"}},{"id":12715,"type":"Feature","geometry":{"type":"Point","coordinates":[20.69096,49.986990000000006]},"properties":{"isced:level":"1;2","ref:rspo":12715,"official_name":"Publiczna Szko\u0142a Podstawowa im.prof.dr Franciszka Bujaka w Maszkienicach","name":"Publiczna Szko\u0142a Podstawowa im.prof.dr Franciszka Bujaka w Maszkienicach","addr:country":"PL","addr:postcode":"32-828","addr:place":"Maszkienice","addr:housenumber":"51","addr:teryt:sym_ul":819237,"contact:phone":"+48 146638564","contact:email":"sp-ms@gminadebno.pl","ref:regon":"001190959","ref:vatin":"PL8691725097","operator":"Gmina D\u0119bno","operator:type":"government","amenity":"school","note":"Parent RSPO: 6165"}},{"id":6107,"type":"Feature","geometry":{"type":"Point","coordinates":[20.75275,49.98915]},"properties":{"isced:level":"1;2","ref:rspo":6107,"official_name":"Publiczna Szko\u0142a Podstawowa im. Marsza\u0142ka J\u00f3zefa Pi\u0142sudskiego w Biadolinach Szlacheckich","name":"Publiczna Szko\u0142a Podstawowa","addr:country":"PL","addr:postcode":"32-828","addr:place":"Biadoliny Szlacheckie","addr:housenumber":"44","addr:teryt:sym_ul":818829,"contact:phone":"+48 146658136","contact:email":"sp-bs@gminadebno.pl","contact:website":"http:\/\/spbiadolinys.edupage.org","ref:regon":"001190913","ref:vatin":"PL8691725298","operator":"Gmina D\u0119bno","operator:type":"government","amenity":"school"}}]}