{
    "type": "FeatureCollection",
    "features": [
        {
            "id": 53569,
            "type": "Feature",
            "geometry": {
                "type": "Point",
                "coordinates": [
                    20.95523,
                    51.5113
                ]
            },
            "properties": {
                "isced:level": "1;2",
                "ref:rspo": 53569,
                "official_name": "Publiczna Szko\u0142a Podstawowa im. Adama Mickiewicza w Kaszowie",
                "name": "Publiczna Szko\u0142a Podstawowa",
                "addr:country": "PL",
                "addr:postcode": "26-806",
                "addr:place": "Kasz\u00f3w",
                "addr:housenumber": "37",
                "addr:teryt:sym_ul": 638145,
                "contact:phone": "+48 486197027",
                "contact:email": "pspkaszow@starablotnica.pl",
                "ref:regon": "001189324",
                "ref:vatin": "PL7981412704",
                "operator": "Gmina Stara B\u0142otnica",
                "operator:type": "government",
                "amenity": "school"
            }
        },
        {
            "id": 85601,
            "type": "Feature",
            "geometry": {
                "type": "Point",
                "coordinates": [
                    20.9723599,
                    51.54573
                ]
            },
            "properties": {
                "isced:level": "1;2",
                "ref:rspo": 85601,
                "official_name": "Publiczna Szko\u0142a Podstawowa im. Ojca \u015awi\u0119tego Jana Paw\u0142a II w Starej B\u0142otnicy",
                "name": "Publiczna Szko\u0142a Podstawowa",
                "addr:country": "PL",
                "addr:postcode": "26-806",
                "addr:place": "Stara B\u0142otnica",
                "addr:housenumber": "49",
                "addr:teryt:sym_ul": 638286,
                "contact:phone": "+48 486196945",
                "contact:email": "pspstarablotnica@starablotnica.pl",
                "contact:website": "https:\/\/pspblotnica.edupage.org",
                "ref:regon": "000675666",
                "ref:vatin": "PL7981412414",
                "operator": "Gmina Stara B\u0142otnica",
                "operator:type": "government",
                "amenity": "school"
            }
        },
        {
            "id": 85604,
            "type": "Feature",
            "geometry": {
                "type": "Point",
                "coordinates": [
                    21.0276299,
                    51.5620199
                ]
            },
            "properties": {
                "isced:level": "1;2",
                "ref:rspo": 85604,
                "official_name": "Publiczna Szko\u0142a Podstawowa im. Marii Konopnickiej w Starym Go\u017adzie",
                "name": "Publiczna Szko\u0142a Podstawowa",
                "addr:country": "PL",
                "addr:postcode": "26-806",
                "addr:place": "Stary G\u00f3zd",
                "addr:housenumber": "90",
                "addr:teryt:sym_ul": 638352,
                "contact:phone": "+48 486198005",
                "contact:email": "zsgstarygozd@starablotnica.pl",
                "contact:website": "http:\/\/zsgstarygozd.edupage.org",
                "ref:regon": "001189301",
                "ref:vatin": "PL7981412696",
                "operator": "Gmina Stara B\u0142otnica",
                "operator:type": "government",
                "amenity": "school"
            }
        },
        {
            "id": 55748,
            "type": "Feature",
            "geometry": {
                "type": "Point",
                "coordinates": [
                    20.9939399,
                    51.58364
                ]
            },
            "properties": {
                "isced:level": "1;2",
                "ref:rspo": 55748,
                "official_name": "Publiczna Szko\u0142a Podstawowa im. Biskupa Jana Chrapka w Starych Sieklukach",
                "name": "Publiczna Szko\u0142a Podstawowa",
                "addr:country": "PL",
                "addr:postcode": "26-806",
                "addr:place": "Stare Siekluki",
                "addr:housenumber": "78",
                "addr:teryt:sym_ul": 638300,
                "contact:phone": "+48 486198004",
                "contact:email": "pspsiekluki@starablotnica.pl",
                "ref:regon": "001189318",
                "ref:vatin": "PL7981411811",
                "operator": "Gmina Stara B\u0142otnica",
                "operator:type": "government",
                "amenity": "school"
            }
        }
    ]
}