{
    "type": "FeatureCollection",
    "features": [
        {
            "id": 9145,
            "type": "Feature",
            "geometry": {
                "type": "Point",
                "coordinates": [
                    21.05716,
                    51.61081
                ]
            },
            "properties": {
                "isced:level": "1;2",
                "ref:rspo": 9145,
                "official_name": "Publiczna Szko\u0142a Podstawowa im. \u015aw Jana Paw\u0142a II w Bobrku",
                "name": "Publiczna Szko\u0142a Podstawowa",
                "addr:country": "PL",
                "addr:postcode": "26-804",
                "addr:place": "Bobrek-Kolonia",
                "addr:housenumber": "24",
                "addr:teryt:sym_ul": 638620,
                "contact:phone": "+48 486191006",
                "contact:email": "beatakomorek@tlen.pl",
                "ref:regon": "001145500",
                "ref:vatin": "PL7981405294",
                "operator": "Gmina Stromiec",
                "operator:type": "government",
                "amenity": "school"
            }
        },
        {
            "id": 9146,
            "type": "Feature",
            "geometry": {
                "type": "Point",
                "coordinates": [
                    21.21193,
                    51.6243
                ]
            },
            "properties": {
                "isced:level": "1;2",
                "ref:rspo": 9146,
                "official_name": "Publiczna Szko\u0142a Podstawowa im. Ks. Kazimierza Kniedzia\u0142owskiego w Dobieszynie",
                "name": "Publiczna Szko\u0142a Podstawowa",
                "addr:country": "PL",
                "addr:postcode": "26-804",
                "addr:place": "Kolonia Sielce",
                "addr:housenumber": "45a",
                "addr:teryt:sym_ul": 639015,
                "contact:phone": "+48 486195147",
                "contact:email": "pspdobieszyn@gazeta.pl",
                "contact:website": "http:\/\/pspdobieszyn.szkolna.net",
                "ref:regon": "001145522",
                "ref:vatin": "PL7981405584",
                "operator": "Gmina Stromiec",
                "operator:type": "government",
                "amenity": "school"
            }
        },
        {
            "id": 9147,
            "type": "Feature",
            "geometry": {
                "type": "Point",
                "coordinates": [
                    21.15278,
                    51.62878
                ]
            },
            "properties": {
                "isced:level": "1;2",
                "ref:rspo": 9147,
                "official_name": "Publiczna Szko\u0142a Podstawowa im. Tadeusza Ko\u015bciuszki w Podlesiu Du\u017cym",
                "name": "Publiczna Szko\u0142a Podstawowa",
                "addr:country": "PL",
                "addr:postcode": "26-804",
                "addr:place": "Podlesie Du\u017ce",
                "addr:housenumber": "71",
                "addr:teryt:sym_ul": 639080,
                "contact:phone": "+48 486195119",
                "contact:email": "psppodlesie@gmail.com",
                "contact:website": "http:\/\/psppodlesie.szkolna.net",
                "ref:regon": "001145516",
                "ref:vatin": "PL7981405302",
                "operator": "Gmina Stromiec",
                "operator:type": "government",
                "amenity": "school"
            }
        },
        {
            "id": 9148,
            "type": "Feature",
            "geometry": {
                "type": "Point",
                "coordinates": [
                    21.08652,
                    51.63849
                ]
            },
            "properties": {
                "isced:level": "1;2",
                "ref:rspo": 9148,
                "official_name": "Publiczna Szko\u0142a Podstawowa im. Dionizego Czachowskiegow Stromcu",
                "name": "Publiczna Szko\u0142a Podstawowa",
                "addr:country": "PL",
                "addr:postcode": "26-804",
                "addr:city": "Stromiec",
                "addr:street": "ul. Radomska",
                "addr:housenumber": "27",
                "addr:teryt:simc": 18316,
                "addr:teryt:sym_ul": 639044,
                "contact:phone": "+48 486191045",
                "contact:email": "pspstromiec@interia.pl",
                "ref:regon": "000678446",
                "ref:vatin": "PL7981155466",
                "operator": "Gmina Stromiec",
                "operator:type": "government",
                "amenity": "school"
            }
        },
        {
            "id": 7705,
            "type": "Feature",
            "geometry": {
                "type": "Point",
                "coordinates": [
                    21.13132,
                    51.6877799
                ]
            },
            "properties": {
                "isced:level": "1;2",
                "ref:rspo": 7705,
                "official_name": "Publiczna Szko\u0142a Podstawowa im. Armii Krajowej w Bo\u017cem",
                "name": "Publiczna Szko\u0142a Podstawowa",
                "addr:country": "PL",
                "addr:postcode": "26-804",
                "addr:place": "Bo\u017ce",
                "addr:housenumber": "1",
                "addr:teryt:sym_ul": 638665,
                "contact:phone": "+48 486192128",
                "contact:email": "szkola.boze@interia.pl",
                "ref:regon": "001145539",
                "ref:vatin": "PL7981405578",
                "operator": "Gmina Stromiec",
                "operator:type": "government",
                "amenity": "school"
            }
        }
    ]
}