{
    "type": "FeatureCollection",
    "features": [
        {
            "id": 80553,
            "type": "Feature",
            "geometry": {
                "type": "Point",
                "coordinates": [
                    20.79824,
                    51.52646
                ]
            },
            "properties": {
                "isced:level": "1;2",
                "ref:rspo": 80553,
                "official_name": "Publiczna Szko\u0142a Podstawowa im. Janusza Korczaka w Czarnocinie",
                "name": "Publiczna Szko\u0142a Podstawowa",
                "addr:postcode": "26-807",
                "addr:place": "Czarnocin",
                "addr:housenumber": "58",
                "addr:city:simc": 634756,
                "phone": "+48 486136344",
                "email": "pspczarnocin@wp.pl",
                "website": "http:\/\/pspczarnocin.szkolnastrona.pl",
                "ref:regon": "670179721",
                "ref:vatin": "PL7981405963",
                "operator": "Gmina Radzan\u00f3w",
                "operator:type": "government",
                "amenity": "school"
            }
        },
        {
            "id": 74430,
            "type": "Feature",
            "geometry": {
                "type": "Point",
                "coordinates": [
                    20.86393,
                    51.54481
                ]
            },
            "properties": {
                "isced:level": "1;2",
                "ref:rspo": 74430,
                "official_name": "Publiczna Szko\u0142a Podstawowa im. Dionizego Feliksa Czachowskiego w Buk\u00f3wnie",
                "name": "Publiczna Szko\u0142a Podstawowa",
                "addr:postcode": "26-807",
                "addr:place": "Buk\u00f3wno",
                "addr:housenumber": "1",
                "addr:city:simc": 634710,
                "phone": "+48 486136210",
                "email": "spbukowno@op.pl",
                "website": "http:\/\/www.pspbukowno.pl",
                "ref:regon": "001169860",
                "ref:vatin": "PL7981406098",
                "operator": "Gmina Radzan\u00f3w",
                "operator:type": "government",
                "amenity": "school"
            }
        },
        {
            "id": 80552,
            "type": "Feature",
            "geometry": {
                "type": "Point",
                "coordinates": [
                    20.8824,
                    51.55428
                ]
            },
            "properties": {
                "isced:level": "1;2",
                "ref:rspo": 80552,
                "official_name": "Publiczna Szko\u0142a Podstawowa im. Henryka Sienkiewicza w Rogolinie",
                "name": "Publiczna Szko\u0142a Podstawowa",
                "addr:postcode": "26-807",
                "addr:place": "Rogolin",
                "addr:housenumber": "4a",
                "addr:city:simc": 635030,
                "phone": "+48 486136323",
                "email": "sekretariat@psprogolin.pl",
                "website": "http:\/\/www.psprogolin.pl",
                "ref:regon": "000675548",
                "ref:vatin": "PL7981405986",
                "operator": "Gmina Radzan\u00f3w",
                "operator:type": "government",
                "amenity": "school"
            }
        }
    ]
}