{"type":"FeatureCollection","features":[{"id":25937,"type":"Feature","geometry":{"type":"Point","coordinates":[20.85486,51.66552]},"properties":{"ref:rspo":25937,"official_name":"Zesp\u00f3\u0142 Plac\u00f3wek O\u015bwiatowych w Przybyszewie","name":"Zesp\u00f3\u0142 Plac\u00f3wek O\u015bwiatowych w Przybyszewie","addr:country":"PL","addr:postcode":"26-803","addr:city":"Przybyszew","addr:street":"ul. W\u0142adys\u0142awa Ros\u0142o\u0144ca","addr:housenumber":"5","addr:teryt:simc":37562,"addr:teryt:sym_ul":633113,"contact:phone":"+48 486152159","contact:email":"pspprzybyszew@op.pl","ref:regon":"140129700","ref:vatin":"PL7981470469","operator":"Gmina Promna","operator:type":"government","landuse":"education","fixme":"amenity=school, amenity=college albo landuse=education w zale\u017cno\u015bci od tego, jakie plac\u00f3wki wchodz\u0105 w sk\u0142ad zespo\u0142u. Sprawd\u017a, kiedy stosowa\u0107 amenity=* a kiedy landuse=education.","note":"Children RSPO: 31929;42928"}},{"id":31929,"type":"Feature","geometry":{"type":"Point","coordinates":[20.85486,51.66549]},"properties":{"isced:level":"1;2","ref:rspo":31929,"official_name":"Publiczna Szko\u0142a Podstawowa im. W\u0142adys\u0142awa Ros\u0142o\u0144ca w Przybyszewie","name":"Publiczna Szko\u0142a Podstawowa","addr:country":"PL","addr:postcode":"26-803","addr:city":"Przybyszew","addr:street":"ul. W\u0142adys\u0142awa Ros\u0142o\u0144ca","addr:housenumber":"5","addr:teryt:simc":37562,"addr:teryt:sym_ul":633113,"contact:phone":"+48 486152159","contact:email":"pspprzybyszew@op.pl","ref:regon":"001189330","ref:vatin":"PL7981394343","operator":"Gmina Promna","operator:type":"government","amenity":"school","note":"Parent RSPO: 25937"}},{"id":42928,"type":"Feature","geometry":{"type":"Point","coordinates":[20.85486,51.66546]},"properties":{"ref:rspo":42928,"official_name":"Przedszkole Samorz\u0105dowe w Przybyszewie","name":"Przedszkole Samorz\u0105dowe w Przybyszewie","addr:country":"PL","addr:postcode":"26-803","addr:city":"Przybyszew","addr:street":"ul. W\u0142adys\u0142awa Ros\u0142o\u0144ca","addr:housenumber":"5","addr:teryt:simc":37562,"addr:teryt:sym_ul":633113,"contact:phone":"+48 486152159","contact:email":"pspprzybyszew@op.pl","ref:regon":"672749252","ref:vatin":"PL7981394509","operator":"Gmina Promna","operator:type":"government","amenity":"kindergarten","note":"Parent RSPO: 25937"}},{"id":267986,"type":"Feature","geometry":{"type":"Point","coordinates":[20.91417,51.66899]},"properties":{"isced:level":"1;2","ref:rspo":267986,"official_name":"Publiczna Szko\u0142a Podstawowa Specjalna w Adamowie","name":"Publiczna Szko\u0142a Podstawowa Specjalna w Adamowie","addr:country":"PL","addr:postcode":"26-803","addr:place":"Adam\u00f3w","addr:housenumber":"30","addr:teryt:sym_ul":632651,"contact:phone":"+48 486151446","contact:email":"adamowpsps@wp.pl","ref:regon":"380819889","ref:vatin":"PL7981480338","operator":"Gmina Promna","operator:type":"government","amenity":"school"}},{"id":267987,"type":"Feature","geometry":{"type":"Point","coordinates":[20.91417,51.66896]},"properties":{"ref:rspo":267987,"official_name":"Publiczna Szko\u0142a Ponadpodstawowa Specjalna Przysposabiaj\u0105ca Do Pracy w Adamowie","name":"Publiczna Szko\u0142a Ponadpodstawowa Specjalna Przysposabiaj\u0105ca Do Pracy w Adamowie","addr:country":"PL","addr:postcode":"26-803","addr:place":"Adam\u00f3w","addr:housenumber":"30","addr:teryt:sym_ul":632651,"contact:phone":"+48 486151446","contact:email":"adamowpp@wp.pl","ref:regon":"380820390","ref:vatin":"PL7981480344","operator":"Gmina Promna","operator:type":"government","amenity":"school"}},{"id":267988,"type":"Feature","geometry":{"type":"Point","coordinates":[20.91417,51.66893]},"properties":{"isced:level":"3","ref:rspo":267988,"official_name":"Publiczna Bran\u017cowa Szko\u0142a Specjalna I Stopnia w Adamowie","name":"Publiczna Bran\u017cowa Szko\u0142a Specjalna I Stopnia w Adamowie","addr:country":"PL","addr:postcode":"26-803","addr:place":"Adam\u00f3w","addr:housenumber":"30","addr:teryt:sym_ul":632651,"contact:phone":"+48 486133628","ref:regon":"380819984","operator":"Gmina Promna","operator:type":"government","amenity":"school"}},{"id":26130,"type":"Feature","geometry":{"type":"Point","coordinates":[20.95233,51.68223]},"properties":{"isced:level":"1;2","ref:rspo":26130,"official_name":"Publiczna Szko\u0142a Podstawowa im. Tadeusza Kierzkowskiego w Promnie","name":"Publiczna Szko\u0142a Podstawowa","addr:country":"PL","addr:postcode":"26-803","addr:place":"Promna-Kolonia","addr:housenumber":"39","addr:teryt:sym_ul":633107,"contact:phone":"+48 486151006","contact:email":"psppromna@poczta.onet.pl","contact:website":"http:\/\/psppromna.pl","ref:regon":"000675643","ref:vatin":"PL7981393421","operator":"Gmina Promna","operator:type":"government","amenity":"school"}},{"id":26129,"type":"Feature","geometry":{"type":"Point","coordinates":[20.96498,51.72947]},"properties":{"isced:level":"1;2","ref:rspo":26129,"official_name":"Publiczna Szko\u0142a Podstawowa im. Marii Konopnickiej w Olkowicach","name":"Publiczna Szko\u0142a Podstawowa","addr:country":"PL","addr:postcode":"26-803","addr:place":"Olkowice","addr:housenumber":"23","addr:teryt:sym_ul":632912,"contact:phone":"+48 486153022","contact:email":"psp.olkowice@op.pl","ref:regon":"001194153","ref:vatin":"PL7981389141","operator":"Gmina Promna","operator:type":"government","amenity":"school"}}]}