{
    "type": "FeatureCollection",
    "features": [
        {
            "id": 16665,
            "type": "Feature",
            "geometry": {
                "type": "Point",
                "coordinates": [
                    18.89979,
                    50.38441
                ]
            },
            "properties": {
                "ref:rspo": 16665,
                "official_name": "Zesp\u00f3\u0142 Szk\u00f3\u0142 Specjalnych",
                "name": "Zesp\u00f3\u0142 Szk\u00f3\u0142 Specjalnych",
                "addr:postcode": "41-922",
                "addr:city": "Radzionk\u00f3w",
                "addr:street": "Zofii Na\u0142kowskiej",
                "addr:housenumber": "2",
                "addr:city:simc": 938806,
                "addr:street:sym_ul": 13967,
                "phone": "+48 322866250",
                "email": "zsradzionkow@op.pl",
                "website": "http:\/\/www.zss.radzionkow.pl",
                "ref:regon": "276663548",
                "ref:vatin": "PL6452218953",
                "operator": "Powiat Tarnog\u00f3rski",
                "operator:type": "government",
                "landuse": "education",
                "fixme": "amenity=school, amenity=college albo landuse=education w zale\u017cno\u015bci od tego, jakie plac\u00f3wki wchodz\u0105 w sk\u0142ad zespo\u0142u. Sprawd\u017a, kiedy stosowa\u0107 amenity=* a kiedy landuse=education.",
                "note": "Children RSPO: 29729;87950;87951"
            }
        },
        {
            "id": 29060,
            "type": "Feature",
            "geometry": {
                "type": "Point",
                "coordinates": [
                    18.89979,
                    50.38438
                ]
            },
            "properties": {
                "isced:level": "3",
                "ref:rspo": 29060,
                "official_name": "Technikum Nr 13",
                "name": "Technikum Nr 13",
                "addr:postcode": "41-922",
                "addr:city": "Radzionk\u00f3w",
                "addr:street": "Zofii Na\u0142kowskiej",
                "addr:housenumber": "2",
                "addr:city:simc": 938806,
                "addr:street:sym_ul": 13967,
                "phone": "+48 322890552",
                "email": "sekretariat@zste.pl",
                "website": "http:\/\/www.zste.pl",
                "ref:regon": "271878296",
                "ref:vatin": "PL6452562366",
                "operator": "Powiat Tarnog\u00f3rski",
                "operator:type": "government",
                "amenity": "school"
            }
        },
        {
            "id": 273333,
            "type": "Feature",
            "geometry": {
                "type": "Point",
                "coordinates": [
                    18.89979,
                    50.384350000000005
                ]
            },
            "properties": {
                "isced:level": "1;2",
                "ref:rspo": 273333,
                "official_name": "Szko\u0142a Podstawowa dla Doros\u0142ych Edukacja w Radzionkowie",
                "name": "Szko\u0142a Podstawowa dla Doros\u0142ych Edukacja w Radzionkowie",
                "addr:postcode": "41-922",
                "addr:city": "Radzionk\u00f3w",
                "addr:street": "Zofii Na\u0142kowskiej",
                "addr:housenumber": "2",
                "addr:city:simc": 938806,
                "addr:street:sym_ul": 13967,
                "phone": "+48 327259690",
                "email": "piekary@bezplatneszkoly.pl",
                "website": "http:\/\/www.bezplatneszkoly.pl",
                "ref:regon": "384446860",
                "operator": "Agnieszka W\u0142ochowicz-Kucharczyk",
                "operator:type": "private",
                "amenity": "school"
            }
        },
        {
            "id": 273336,
            "type": "Feature",
            "geometry": {
                "type": "Point",
                "coordinates": [
                    18.89979,
                    50.38432
                ]
            },
            "properties": {
                "isced:level": "3",
                "ref:rspo": 273336,
                "official_name": "Liceum Og\u00f3lnokszta\u0142c\u0105ce dla Doros\u0142ych Edukacja w Radzionkowie",
                "name": "Liceum Og\u00f3lnokszta\u0142c\u0105ce dla Doros\u0142ych Edukacja w Radzionkowie",
                "addr:postcode": "41-922",
                "addr:city": "Radzionk\u00f3w",
                "addr:street": "Zofii Na\u0142kowskiej",
                "addr:housenumber": "2",
                "addr:city:simc": 938806,
                "addr:street:sym_ul": 13967,
                "phone": "+48 327259690",
                "email": "piekary@bezplatneszkoly.pl",
                "ref:regon": "384447284",
                "operator": "Agnieszka W\u0142ochowicz-Kucharczyk",
                "operator:type": "private",
                "amenity": "school"
            }
        },
        {
            "id": 273338,
            "type": "Feature",
            "geometry": {
                "type": "Point",
                "coordinates": [
                    18.89979,
                    50.38429
                ]
            },
            "properties": {
                "isced:level": "4",
                "ref:rspo": 273338,
                "official_name": "Szko\u0142a Policealna Edukacja w Radzionkowie",
                "name": "Szko\u0142a Policealna Edukacja w Radzionkowie",
                "addr:postcode": "41-922",
                "addr:city": "Radzionk\u00f3w",
                "addr:street": "Zofii Na\u0142kowskiej",
                "addr:housenumber": "2",
                "addr:city:simc": 938806,
                "addr:street:sym_ul": 13967,
                "phone": "+48 327259690",
                "email": "piekary@bezplatneszkoly.pl",
                "ref:regon": "384447545",
                "operator": "Agnieszka W\u0142ochowicz-Kucharczyk",
                "operator:type": "private",
                "amenity": "college"
            }
        },
        {
            "id": 276148,
            "type": "Feature",
            "geometry": {
                "type": "Point",
                "coordinates": [
                    18.89979,
                    50.384260000000005
                ]
            },
            "properties": {
                "ref:rspo": 276148,
                "official_name": "Niepubliczna Poradnia Psychologiczno-Pedagogiczna \"Edukacja\"",
                "name": "Niepubliczna Poradnia Psychologiczno-Pedagogiczna \"Edukacja\"",
                "addr:postcode": "41-922",
                "addr:city": "Radzionk\u00f3w",
                "addr:street": "Zofii Na\u0142kowskiej",
                "addr:housenumber": "2",
                "addr:city:simc": 938806,
                "addr:street:sym_ul": 13967,
                "phone": "+48 327259690",
                "ref:regon": "387003889",
                "operator": "Agnieszka W\u0142ochowicz-Kucharczyk",
                "operator:type": "private",
                "healthcare": "counselling",
                "counselling_type": "education",
                "fixme": "w zale\u017cno\u015bci od przedmiotu dzia\u0142alno\u015bci (np. healthcare=counselling + counselling_type=education albo healthcare=psychotherapist)"
            }
        },
        {
            "id": 29729,
            "type": "Feature",
            "geometry": {
                "type": "Point",
                "coordinates": [
                    18.89979,
                    50.38423
                ]
            },
            "properties": {
                "isced:level": "1;2",
                "ref:rspo": 29729,
                "official_name": "Szko\u0142a Podstawowa Nr 3 Specjalna",
                "name": "Szko\u0142a Podstawowa Nr 3 Specjalna",
                "addr:postcode": "41-922",
                "addr:city": "Radzionk\u00f3w",
                "addr:street": "Zofii Na\u0142kowskiej",
                "addr:housenumber": "2",
                "addr:city:simc": 938806,
                "addr:street:sym_ul": 13967,
                "phone": "+48 322866250",
                "email": "zsradzionkow@op.pl",
                "website": "http:\/\/www.zss.radzionkow.pl",
                "ref:regon": "000724867",
                "operator": "Powiat Tarnog\u00f3rski",
                "operator:type": "government",
                "amenity": "school",
                "note": "Parent RSPO: 16665"
            }
        },
        {
            "id": 87950,
            "type": "Feature",
            "geometry": {
                "type": "Point",
                "coordinates": [
                    18.89979,
                    50.3842
                ]
            },
            "properties": {
                "isced:level": "3",
                "ref:rspo": 87950,
                "official_name": "Bran\u017cowa Szko\u0142a I Stopnia Specjalna Nr 16",
                "name": "Bran\u017cowa Szko\u0142a I Stopnia Specjalna Nr 16",
                "addr:postcode": "41-922",
                "addr:city": "Radzionk\u00f3w",
                "addr:street": "Zofii Na\u0142kowskiej",
                "addr:housenumber": "2",
                "addr:city:simc": 938806,
                "addr:street:sym_ul": 13967,
                "phone": "+48 322866250",
                "email": "zsradzionkow@op.pl",
                "website": "http:\/\/www.zss.radzionkow.pl",
                "ref:regon": "240162395",
                "operator": "Powiat Tarnog\u00f3rski",
                "operator:type": "government",
                "amenity": "school",
                "note": "Parent RSPO: 16665"
            }
        },
        {
            "id": 87951,
            "type": "Feature",
            "geometry": {
                "type": "Point",
                "coordinates": [
                    18.89979,
                    50.384170000000005
                ]
            },
            "properties": {
                "ref:rspo": 87951,
                "official_name": "Szko\u0142a Specjalna Przysposabiaj\u0105ca Do Pracy Nr 2",
                "name": "Szko\u0142a Specjalna Przysposabiaj\u0105ca Do Pracy Nr 2",
                "addr:postcode": "41-922",
                "addr:city": "Radzionk\u00f3w",
                "addr:street": "Zofii Na\u0142kowskiej",
                "addr:housenumber": "2",
                "addr:city:simc": 938806,
                "addr:street:sym_ul": 13967,
                "phone": "+48 322866250",
                "email": "zsradzionkow@op.pl",
                "website": "http:\/\/www.zss.radzionkow.pl",
                "ref:regon": "240162449",
                "operator": "Powiat Tarnog\u00f3rski",
                "operator:type": "government",
                "amenity": "school",
                "note": "Parent RSPO: 16665"
            }
        },
        {
            "id": 10924,
            "type": "Feature",
            "geometry": {
                "type": "Point",
                "coordinates": [
                    18.89752,
                    50.38636
                ]
            },
            "properties": {
                "isced:level": "1;2",
                "ref:rspo": 10924,
                "official_name": "Szko\u0142a Podstawowa Nr 4 im. J. Lompy w Radzionkowie",
                "name": "Szko\u0142a Podstawowa Nr 4",
                "addr:postcode": "41-922",
                "addr:city": "Radzionk\u00f3w",
                "addr:street": "Genera\u0142a W\u0142adys\u0142awa Sikorskiego",
                "addr:housenumber": "8A",
                "addr:city:simc": 938806,
                "addr:street:sym_ul": 19907,
                "phone": "+48 322866252",
                "email": "szkola@sp4.radzionkow.pl",
                "website": "http:\/\/www.sp4.radzionkow.pl",
                "ref:regon": "000723158",
                "ref:vatin": "PL6452354544",
                "operator": "Gmina Radzionk\u00f3w",
                "operator:type": "government",
                "amenity": "school"
            }
        },
        {
            "id": 20663,
            "type": "Feature",
            "geometry": {
                "type": "Point",
                "coordinates": [
                    18.88935,
                    50.38659
                ]
            },
            "properties": {
                "ref:rspo": 20663,
                "official_name": "M\u0142odzie\u017cowy O\u015brodek Wychowawczy w Radzionkowie",
                "name": "M\u0142odzie\u017cowy O\u015brodek Wychowawczy w Radzionkowie",
                "addr:postcode": "41-922",
                "addr:city": "Radzionk\u00f3w",
                "addr:street": "Genera\u0142a W\u0142adys\u0142awa Sikorskiego",
                "addr:housenumber": "7a",
                "addr:city:simc": 938806,
                "addr:street:sym_ul": 19907,
                "phone": "+48 322890150",
                "email": "mowradzionkow@mowradzionkow.pl",
                "website": "http:\/\/www.mow.radzionkow.pl",
                "ref:regon": "000184690",
                "ref:vatin": "PL6261065444",
                "operator": "Wojew\u00f3dztwo \u015al\u0105skie",
                "operator:type": "government",
                "fixme": "amenity=social_facility + social_facility=group_home + social_facility:for=juvenile",
                "note": "Children RSPO: 109145;109163"
            }
        },
        {
            "id": 109145,
            "type": "Feature",
            "geometry": {
                "type": "Point",
                "coordinates": [
                    18.88935,
                    50.386559999999996
                ]
            },
            "properties": {
                "isced:level": "1;2",
                "ref:rspo": 109145,
                "official_name": "Szko\u0142a Podstawowa Specjalna Nr 41 w Radzionkowie",
                "name": "Szko\u0142a Podstawowa Specjalna Nr 41 w Radzionkowie",
                "addr:postcode": "41-922",
                "addr:city": "Radzionk\u00f3w",
                "addr:street": "Genera\u0142a W\u0142adys\u0142awa Sikorskiego",
                "addr:housenumber": "7A",
                "addr:city:simc": 938806,
                "addr:street:sym_ul": 19907,
                "phone": "+48 322890150",
                "email": "mowradzionkow@mowradzionkow.pl",
                "website": "http:\/\/www.mow.radzionkow.pl",
                "ref:regon": "000862931",
                "operator": "Wojew\u00f3dztwo \u015al\u0105skie",
                "operator:type": "government",
                "amenity": "school",
                "note": "Parent RSPO: 20663"
            }
        },
        {
            "id": 109163,
            "type": "Feature",
            "geometry": {
                "type": "Point",
                "coordinates": [
                    18.88935,
                    50.38653
                ]
            },
            "properties": {
                "isced:level": "3",
                "ref:rspo": 109163,
                "official_name": "Bran\u017cowa Szko\u0142a I Stopnia Specjalna Nr 12 w Radzionkowie",
                "name": "Bran\u017cowa Szko\u0142a I Stopnia Specjalna Nr 12 w Radzionkowie",
                "addr:postcode": "41-922",
                "addr:city": "Radzionk\u00f3w",
                "addr:street": "Genera\u0142a W\u0142adys\u0142awa Sikorskiego",
                "addr:housenumber": "7A",
                "addr:city:simc": 938806,
                "addr:street:sym_ul": 19907,
                "phone": "+48 322890150",
                "email": "mowradzionkow@mowradzionkow.pl",
                "website": "http:\/\/www.mow.radzionkow.pl",
                "ref:regon": "001007903",
                "operator": "Wojew\u00f3dztwo \u015al\u0105skie",
                "operator:type": "government",
                "amenity": "school",
                "note": "Parent RSPO: 20663"
            }
        },
        {
            "id": 6368,
            "type": "Feature",
            "geometry": {
                "type": "Point",
                "coordinates": [
                    18.89825,
                    50.39149
                ]
            },
            "properties": {
                "ref:rspo": 6368,
                "official_name": "Przedszkole Nr 4 w Radzionkowie",
                "name": "Przedszkole Nr 4 w Radzionkowie",
                "addr:postcode": "41-922",
                "addr:city": "Radzionk\u00f3w",
                "addr:street": "Jana Ku\u017caja",
                "addr:housenumber": "15",
                "addr:city:simc": 938806,
                "addr:street:sym_ul": 10534,
                "phone": "+48 322866255",
                "email": "bajka@przedszkole4.radzionkow.pl",
                "website": "http:\/\/www.bajka.radzionkow.pl\/",
                "ref:regon": "271068893",
                "ref:vatin": "PL6452223405",
                "operator": "Gmina Radzionk\u00f3w",
                "operator:type": "government",
                "amenity": "kindergarten"
            }
        },
        {
            "id": 9530,
            "type": "Feature",
            "geometry": {
                "type": "Point",
                "coordinates": [
                    18.89735,
                    50.39689
                ]
            },
            "properties": {
                "ref:rspo": 9530,
                "official_name": "Przedszkole Nr 3 w Radzionkowie",
                "name": "Przedszkole Nr 3 w Radzionkowie",
                "addr:postcode": "41-922",
                "addr:city": "Radzionk\u00f3w",
                "addr:street": "Szyma\u0142y",
                "addr:housenumber": "38",
                "addr:city:simc": 938806,
                "addr:street:sym_ul": 22230,
                "phone": "+48 322866331",
                "email": "przedszkole3.radzionkow@onet.pl",
                "website": "http:\/\/www.przedszkole3.radzionkow.pl",
                "ref:regon": "271068887",
                "ref:vatin": "PL6452223380",
                "operator": "Gmina Radzionk\u00f3w",
                "operator:type": "government",
                "amenity": "kindergarten"
            }
        },
        {
            "id": 9409,
            "type": "Feature",
            "geometry": {
                "type": "Point",
                "coordinates": [
                    18.89767,
                    50.39725
                ]
            },
            "properties": {
                "isced:level": "1;2",
                "ref:rspo": 9409,
                "official_name": "Szko\u0142a Podstawowa Nr 2 im. Jana Paw\u0142a II w Radzionkowie",
                "name": "Szko\u0142a Podstawowa Nr 2",
                "addr:postcode": "41-922",
                "addr:city": "Radzionk\u00f3w",
                "addr:street": "Szyma\u0142y",
                "addr:housenumber": "36",
                "addr:city:simc": 938806,
                "addr:street:sym_ul": 22230,
                "phone": "+48 322866359",
                "email": "szkola@sp2.radzionkow.pl",
                "website": "http:\/\/www.sp2.radzionkow.pl",
                "ref:regon": "000723098",
                "ref:vatin": "PL6452223440",
                "operator": "Gmina Radzionk\u00f3w",
                "operator:type": "government",
                "amenity": "school"
            }
        },
        {
            "id": 120187,
            "type": "Feature",
            "geometry": {
                "type": "Point",
                "coordinates": [
                    18.9019,
                    50.3978899
                ]
            },
            "properties": {
                "ref:rspo": 120187,
                "official_name": "O\u015brodek Szkoleniowo-Us\u0142ugowy \"Rajd\" Ryszard Walc",
                "name": "O\u015brodek Szkoleniowo-Us\u0142ugowy \"Rajd\" Ryszard Walc",
                "addr:postcode": "41-922",
                "addr:city": "Radzionk\u00f3w",
                "addr:street": "M\u0119czennik\u00f3w O\u015bwi\u0119cimia",
                "addr:housenumber": "23",
                "addr:door": "1",
                "addr:city:simc": 938806,
                "addr:street:sym_ul": 12654,
                "phone": "+48 322897777",
                "email": "rajd@rajd.slask.pl",
                "website": "http:\/\/www.rajd.slask.pl",
                "ref:regon": "243376122",
                "operator": "Ryszard Walc",
                "operator:type": "private",
                "fixme": "w zale\u017cno\u015bci od przedmiotu dzia\u0142alno\u015bci (np. amenity=training + training=*, amenity=dancing_school, amenity=language_school, amenity=music_school)"
            }
        },
        {
            "id": 103841,
            "type": "Feature",
            "geometry": {
                "type": "Point",
                "coordinates": [
                    18.89685,
                    50.3981
                ]
            },
            "properties": {
                "ref:rspo": 103841,
                "official_name": "Niepubliczne Przedszkole \"Radosne S\u0142oneczko\"",
                "name": "Niepubliczne Przedszkole \"Radosne S\u0142oneczko\"",
                "addr:postcode": "41-922",
                "addr:city": "Radzionk\u00f3w",
                "addr:street": "Gajdasa",
                "addr:housenumber": "1B",
                "addr:city:simc": 938806,
                "addr:street:sym_ul": 5251,
                "phone": "+48 690885588",
                "email": "przedszkole@radosnesloneczko.pl",
                "website": "http:\/\/radosnesloneczko.com.pl\/",
                "ref:regon": "243124030",
                "ref:vatin": "PL6452552557",
                "operator": "Niepubliczne Przedszkole \"Radosne S\u0142oneczko\" Sp\u00f3\u0142ka Z Ograniczon\u0105 Odpowiedzialno\u015bci\u0105",
                "operator:type": "private",
                "amenity": "kindergarten"
            }
        },
        {
            "id": 7843,
            "type": "Feature",
            "geometry": {
                "type": "Point",
                "coordinates": [
                    18.90209,
                    50.4022099
                ]
            },
            "properties": {
                "isced:level": "3",
                "ref:rspo": 7843,
                "official_name": "Liceum Og\u00f3lnokszta\u0142c\u0105ce im. Powsta\u0144c\u00f3w \u015aL\u0105skich w Radzionkowie",
                "name": "Liceum Og\u00f3lnokszta\u0142c\u0105ce",
                "addr:postcode": "41-922",
                "addr:city": "Radzionk\u00f3w",
                "addr:street": "Plac Jana Paw\u0142a II",
                "addr:housenumber": "8",
                "addr:city:simc": 938806,
                "addr:street:sym_ul": 7122,
                "phone": "+48 322866251",
                "email": "liceum@liceum.radzionkow.pl",
                "ref:regon": "272095679",
                "ref:vatin": "PL6452223463",
                "operator": "Gmina Radzionk\u00f3w",
                "operator:type": "government",
                "amenity": "school"
            }
        },
        {
            "id": 10289,
            "type": "Feature",
            "geometry": {
                "type": "Point",
                "coordinates": [
                    18.90209,
                    50.4021799
                ]
            },
            "properties": {
                "isced:level": "1;2",
                "ref:rspo": 10289,
                "official_name": "Niepubliczna Szko\u0142a Podstawowa \"Zamkowa Szko\u0142a\"",
                "name": "Niepubliczna Szko\u0142a Podstawowa \"Zamkowa Szko\u0142a\"",
                "addr:postcode": "41-922",
                "addr:city": "Radzionk\u00f3w",
                "addr:street": "Plac Jana Paw\u0142a II",
                "addr:housenumber": "8",
                "addr:city:simc": 938806,
                "addr:street:sym_ul": 7122,
                "phone": "+48 323879009",
                "email": "sekretariat@zamkowaszkola.pl",
                "website": "http:\/\/www.zamkowaszkola.pl",
                "ref:regon": "243029113",
                "ref:vatin": "PL6261680416",
                "operator": "Niepubliczna Szko\u0142a Podstawowa \"Zamkowa Szko\u0142a\" S.c. Aneta Pasieka, Arkadiusz Pasieka",
                "operator:type": "consortium",
                "amenity": "school"
            }
        },
        {
            "id": 6379,
            "type": "Feature",
            "geometry": {
                "type": "Point",
                "coordinates": [
                    18.90295,
                    50.40222
                ]
            },
            "properties": {
                "ref:rspo": 6379,
                "official_name": "Przedszkole Nr 2 w Radzionkowie",
                "name": "Przedszkole Nr 2 w Radzionkowie",
                "addr:postcode": "41-922",
                "addr:city": "Radzionk\u00f3w",
                "addr:street": "Plac Jana Paw\u0142a II",
                "addr:housenumber": "6",
                "addr:city:simc": 938806,
                "addr:street:sym_ul": 7122,
                "phone": "+48 322866532",
                "email": "przedszkole2radzionkow@gmail.com",
                "website": "http:\/\/www.przedszkole2.radzionkow.pl",
                "ref:regon": "271068692",
                "ref:vatin": "PL6452223397",
                "operator": "Gmina Radzionk\u00f3w",
                "operator:type": "government",
                "amenity": "kindergarten"
            }
        },
        {
            "id": 10986,
            "type": "Feature",
            "geometry": {
                "type": "Point",
                "coordinates": [
                    18.90295,
                    50.40219
                ]
            },
            "properties": {
                "ref:rspo": 10986,
                "official_name": "Niepubliczne Przedszkole Integracyjne \"Ptasi Raj\"",
                "name": "Niepubliczne Przedszkole Integracyjne \"Ptasi Raj\"",
                "addr:postcode": "41-922",
                "addr:city": "Radzionk\u00f3w",
                "addr:street": "Plac Jana Paw\u0142a II",
                "addr:housenumber": "4",
                "addr:city:simc": 938806,
                "addr:street:sym_ul": 7122,
                "phone": "+48 322866531",
                "email": "zdorewir@wp.pl",
                "ref:regon": "243032635",
                "ref:vatin": "PL6452310044",
                "operator": "Stowarzyszenie Pomocy Dzieciom I M\u0142odzie\u017cy Niepe\u0142nosprawnej",
                "operator:type": "ngo",
                "amenity": "kindergarten"
            }
        },
        {
            "id": 27616,
            "type": "Feature",
            "geometry": {
                "type": "Point",
                "coordinates": [
                    18.90295,
                    50.40216
                ]
            },
            "properties": {
                "ref:rspo": 27616,
                "official_name": "Zesp\u00f3\u0142 Dziennych O\u015brodk\u00f3w Rewalidacyjno - Edukacyjno - Wychowawczych I Rehabilitacyjnych dla Dzieci I M\u0142odzie\u017cy Niepe\u0142nosprawnej w Radzionkowie",
                "name": "Zesp\u00f3\u0142 Dziennych O\u015brodk\u00f3w Rewalidacyjno - Edukacyjno - Wychowawczych I Rehabilitacyjnych dla Dzieci I M\u0142odzie\u017cy Niepe\u0142nosprawnej w Radzionkowie",
                "addr:postcode": "41-922",
                "addr:city": "Radzionk\u00f3w",
                "addr:street": "Plac Jana Paw\u0142a II",
                "addr:housenumber": "4",
                "addr:city:simc": 938806,
                "addr:street:sym_ul": 7122,
                "phone": "+48 322866531",
                "email": "zdorewir@wp.pl",
                "website": "http:\/\/www.osrodek-radzionkow.pl",
                "ref:regon": "243072244",
                "ref:vatin": "PL6452310044",
                "operator": "Stowarzyszenie Pomocy Dzieciom I M\u0142odzie\u017cy Niepe\u0142nosprawnej",
                "operator:type": "ngo",
                "amenity": "school"
            }
        },
        {
            "id": 125763,
            "type": "Feature",
            "geometry": {
                "type": "Point",
                "coordinates": [
                    18.90089,
                    50.40229
                ]
            },
            "properties": {
                "isced:level": "4",
                "ref:rspo": 125763,
                "official_name": "Szko\u0142a G\u0142\u00f3wna S\u0142u\u017cb Spo\u0142ecznych Kolegium Kr\u00f3lewskie w Radzionkowie",
                "name": "Szko\u0142a G\u0142\u00f3wna S\u0142u\u017cb Spo\u0142ecznych Kolegium Kr\u00f3lewskie w Radzionkowie",
                "addr:postcode": "41-922",
                "addr:city": "Radzionk\u00f3w",
                "addr:street": "Krzywa",
                "addr:housenumber": "18",
                "addr:city:simc": 938806,
                "addr:street:sym_ul": 10157,
                "phone": "+48 616537864",
                "ref:regon": "243698601",
                "operator": "Ecal Polska Sp\u00f3\u0142ka Z Ograniczon\u0105 Odpowiedzialno\u015bci\u0105",
                "operator:type": "private",
                "amenity": "college"
            }
        },
        {
            "id": 5682,
            "type": "Feature",
            "geometry": {
                "type": "Point",
                "coordinates": [
                    18.90755,
                    50.40392
                ]
            },
            "properties": {
                "ref:rspo": 5682,
                "official_name": "Przedszkole Niepubliczne im. B\u0142. Edmunda Bojanowskiego",
                "name": "Przedszkole Niepubliczne",
                "addr:postcode": "41-922",
                "addr:city": "Radzionk\u00f3w",
                "addr:street": "Klasztorna",
                "addr:housenumber": "1",
                "addr:city:simc": 938806,
                "addr:street:sym_ul": 8485,
                "phone": "+48 322894026",
                "email": "ochronkabojanowskiego@gmail.com",
                "ref:regon": "243021235",
                "ref:vatin": "PL6452490655",
                "operator": "Zgromadzenie Si\u00f3str S\u0142u\u017cebniczek Nmp Np  Prowincja Katowicka",
                "operator:type": "religious",
                "amenity": "kindergarten"
            }
        },
        {
            "id": 9408,
            "type": "Feature",
            "geometry": {
                "type": "Point",
                "coordinates": [
                    18.90365,
                    50.40393
                ]
            },
            "properties": {
                "isced:level": "1;2",
                "ref:rspo": 9408,
                "official_name": "Szko\u0142a Podstawowa Nr 1 im.a.mickiewicza w Radzionkowie",
                "name": "Szko\u0142a Podstawowa Nr 1 im.a.mickiewicza w Radzionkowie",
                "addr:postcode": "41-922",
                "addr:city": "Radzionk\u00f3w",
                "addr:street": "Ksi\u0119dza Doktora J\u00f3zefa Knosa\u0142y",
                "addr:housenumber": "16",
                "addr:city:simc": 938806,
                "addr:street:sym_ul": 8676,
                "phone": "+48 322866253",
                "email": "sp1radzionkow@poczta.onet.pl",
                "website": "http:\/\/www.sp1radzionkow.pl",
                "ref:regon": "000723081",
                "ref:vatin": "PL6452223457",
                "operator": "Gmina Radzionk\u00f3w",
                "operator:type": "government",
                "amenity": "school"
            }
        },
        {
            "id": 263574,
            "type": "Feature",
            "geometry": {
                "type": "Point",
                "coordinates": [
                    18.90034,
                    50.40488
                ]
            },
            "properties": {
                "isced:level": "1;2",
                "ref:rspo": 263574,
                "official_name": "Szko\u0142a Mistrzostwa Sportowego Radzionk\u00f3w Niepubliczna Szko\u0142a Podstawowa",
                "name": "Szko\u0142a Mistrzostwa Sportowego Radzionk\u00f3w Niepubliczna Szko\u0142a Podstawowa",
                "addr:postcode": "41-922",
                "addr:city": "Radzionk\u00f3w",
                "addr:street": "Ksi\u0119dza Doktora J\u00f3zefa Knosa\u0142y",
                "addr:housenumber": "113",
                "addr:city:simc": 938806,
                "addr:street:sym_ul": 8676,
                "phone": "+48 323075092",
                "email": "smsradzionkow.szkola@gmail.com",
                "ref:regon": "368202483",
                "operator": "Stowarzyszenie Szko\u0142a Mistrzostwa Sportowego Radzionk\u00f3w",
                "operator:type": "ngo",
                "amenity": "school"
            }
        },
        {
            "id": 268101,
            "type": "Feature",
            "geometry": {
                "type": "Point",
                "coordinates": [
                    18.90034,
                    50.404849999999996
                ]
            },
            "properties": {
                "isced:level": "3",
                "ref:rspo": 268101,
                "official_name": "Szko\u0142a Mistrzostwa Sportowego Radzionk\u00f3w Niepubliczne Liceum Og\u00f3lnokszta\u0142c\u0105ce",
                "name": "Szko\u0142a Mistrzostwa Sportowego Radzionk\u00f3w Niepubliczne Liceum Og\u00f3lnokszta\u0142c\u0105ce",
                "addr:postcode": "41-922",
                "addr:city": "Radzionk\u00f3w",
                "addr:street": "Ksi\u0119dza Doktora J\u00f3zefa Knosa\u0142y",
                "addr:housenumber": "113",
                "addr:city:simc": 938806,
                "addr:street:sym_ul": 8676,
                "phone": "+48 323075092",
                "email": "smsradzionkow.biuro@gmail.com",
                "website": "http:\/\/www.smsradzionkow.pl",
                "ref:regon": "380943425",
                "operator": "Stowarzyszenie Szko\u0142a Mistrzostwa Sportowego Radzionk\u00f3w",
                "operator:type": "ngo",
                "amenity": "school"
            }
        },
        {
            "id": 91526,
            "type": "Feature",
            "geometry": {
                "type": "Point",
                "coordinates": [
                    18.90034,
                    50.40482
                ]
            },
            "properties": {
                "ref:rspo": 91526,
                "official_name": "Powiatowy M\u0142odzie\u017cowy Dom Kultury im. Henryka Jordana w Tarnowskich G\u00f3rach - Filia w Radzionkowie",
                "name": "Powiatowy M\u0142odzie\u017cowy Dom Kultury",
                "addr:postcode": "41-922",
                "addr:city": "Radzionk\u00f3w",
                "addr:street": "Ksi\u0119dza Doktora J\u00f3zefa Knosa\u0142y",
                "addr:housenumber": "113",
                "addr:city:simc": 938806,
                "addr:street:sym_ul": 8676,
                "phone": "+48 322890041",
                "email": "filia_radzionkow@mdk.tgory.pl",
                "website": "http:\/\/www.mdk.tgory.pl",
                "ref:regon": "730632000",
                "operator": "Powiat Tarnog\u00f3rski",
                "operator:type": "government",
                "amenity": "community_centre",
                "community_centre:for": "juvenile",
                "note": "Parent RSPO: 90619"
            }
        }
    ]
}