{
    "type": "FeatureCollection",
    "features": [
        {
            "id": 105186,
            "type": "Feature",
            "geometry": {
                "type": "Point",
                "coordinates": [
                    18.94906,
                    50.48752
                ]
            },
            "properties": {
                "ref:rspo": 105186,
                "official_name": "Zesp\u00f3\u0142 Szkolno-Przedszkolny w Miasteczku \u015aL\u0105skim",
                "name": "Zesp\u00f3\u0142 Szkolno-Przedszkolny w Miasteczku \u015aL\u0105skim",
                "addr:country": "PL",
                "addr:postcode": "42-610",
                "addr:city": "Miasteczko \u015al\u0105skie",
                "addr:street": "Harcerska",
                "addr:housenumber": "5",
                "addr:teryt:simc": 6523,
                "addr:teryt:sym_ul": 943902,
                "contact:phone": "+48 322849668",
                "contact:email": "szkolamiast@poczta.onet.pl",
                "ref:regon": "278301826",
                "ref:vatin": "PL6452473875",
                "operator": "Gmina Miasteczko \u015al\u0105skie",
                "operator:type": "government",
                "landuse": "education",
                "fixme": "amenity=school, amenity=college albo landuse=education w zale\u017cno\u015bci od tego, jakie plac\u00f3wki wchodz\u0105 w sk\u0142ad zespo\u0142u. Sprawd\u017a, kiedy stosowa\u0107 amenity=* a kiedy landuse=education.",
                "note": "Children RSPO: 105817;105835"
            }
        },
        {
            "id": 105817,
            "type": "Feature",
            "geometry": {
                "type": "Point",
                "coordinates": [
                    18.94906,
                    50.48749
                ]
            },
            "properties": {
                "isced:level": "1;2",
                "ref:rspo": 105817,
                "official_name": "Szko\u0142a Podstawowa Nr 2\nIm. Gustawa Morcinka w Miasteczku \u015aL\u0105skim",
                "name": "Szko\u0142a Podstawowa Nr 2\nIm. Gustawa Morcinka w Miasteczku \u015aL\u0105skim",
                "addr:country": "PL",
                "addr:postcode": "42-610",
                "addr:city": "Miasteczko \u015al\u0105skie",
                "addr:street": "Harcerska",
                "addr:housenumber": "5",
                "addr:teryt:simc": 6523,
                "addr:teryt:sym_ul": 943902,
                "contact:phone": "+48 322849668",
                "contact:email": "szkolamiast@poczta.onet.pl",
                "contact:website": "http:\/\/zsp2.miasteczko-slaskie.pl",
                "ref:regon": "000730595",
                "ref:vatin": "PL6452473875",
                "operator": "Gmina Miasteczko \u015al\u0105skie",
                "operator:type": "government",
                "amenity": "school",
                "note": "Parent RSPO: 105186"
            }
        },
        {
            "id": 105835,
            "type": "Feature",
            "geometry": {
                "type": "Point",
                "coordinates": [
                    18.94906,
                    50.487460000000006
                ]
            },
            "properties": {
                "ref:rspo": 105835,
                "official_name": "Publiczne Przedszkole Nr 2 w Miasteczku \u015aL\u0105skim",
                "name": "Publiczne Przedszkole Nr 2 w Miasteczku \u015aL\u0105skim",
                "addr:country": "PL",
                "addr:postcode": "42-610",
                "addr:city": "Miasteczko \u015al\u0105skie",
                "addr:street": "Harcerska",
                "addr:housenumber": "5",
                "addr:teryt:simc": 6523,
                "addr:teryt:sym_ul": 943902,
                "contact:phone": "+48 322849668",
                "contact:email": "szkolamiast@poczta.onet.pl",
                "ref:regon": "271509890",
                "ref:vatin": "PL6452473875",
                "operator": "Gmina Miasteczko \u015al\u0105skie",
                "operator:type": "government",
                "amenity": "kindergarten",
                "note": "Parent RSPO: 105186"
            }
        },
        {
            "id": 105203,
            "type": "Feature",
            "geometry": {
                "type": "Point",
                "coordinates": [
                    18.92177,
                    50.48871
                ]
            },
            "properties": {
                "ref:rspo": 105203,
                "official_name": "Przedszkole Niepubliczne im. B\u0142. Edmunda Bojanowskiego w Miasteczku \u015aL\u0105skim",
                "name": "Przedszkole Niepubliczne",
                "addr:country": "PL",
                "addr:postcode": "42-610",
                "addr:city": "Miasteczko \u015al\u0105skie",
                "addr:street": "Konstantego Ildefonsa Ga\u0142czy\u0144skiego",
                "addr:housenumber": "26",
                "addr:teryt:simc": 5300,
                "addr:teryt:sym_ul": 943902,
                "contact:phone": "+48 322888180",
                "contact:email": "przedszkole.bl.ed@gmail.com",
                "contact:website": "http:\/\/www.ochronkamiasteczko.pl",
                "ref:regon": "243136346",
                "ref:vatin": "PL6452532448",
                "operator": "Zgromadzenie Si\u00f3str S\u0142u\u017cebniczek Nmp Np  Prowincja Katowicka",
                "operator:type": "religious",
                "amenity": "kindergarten"
            }
        },
        {
            "id": 105190,
            "type": "Feature",
            "geometry": {
                "type": "Point",
                "coordinates": [
                    18.92579,
                    50.49236
                ]
            },
            "properties": {
                "ref:rspo": 105190,
                "official_name": "Przedszkole Nr 1 w Miasteczku Slaskim",
                "name": "Przedszkole Nr 1 w Miasteczku Slaskim",
                "addr:country": "PL",
                "addr:postcode": "42-610",
                "addr:city": "Miasteczko \u015al\u0105skie",
                "addr:street": "D\u0119bina",
                "addr:housenumber": "1",
                "addr:teryt:simc": 3798,
                "addr:teryt:sym_ul": 943902,
                "contact:phone": "+48 322888025",
                "contact:email": "przedszkolenr1@poczta.onet.pl",
                "ref:regon": "271509877",
                "ref:vatin": "PL6452473533",
                "operator": "Gmina Miasteczko \u015al\u0105skie",
                "operator:type": "government",
                "amenity": "kindergarten"
            }
        },
        {
            "id": 105182,
            "type": "Feature",
            "geometry": {
                "type": "Point",
                "coordinates": [
                    18.9210299,
                    50.49274
                ]
            },
            "properties": {
                "isced:level": "1;2",
                "ref:rspo": 105182,
                "official_name": "Szko\u0142a Podstawowa Nr 1 im.ks.teodora Christopha w Miasteczku \u015aL\u0105skim",
                "name": "Szko\u0142a Podstawowa Nr 1 im.ks.teodora Christopha w Miasteczku \u015aL\u0105skim",
                "addr:country": "PL",
                "addr:postcode": "42-610",
                "addr:city": "Miasteczko \u015al\u0105skie",
                "addr:street": "Dworcowa",
                "addr:housenumber": "5",
                "addr:teryt:simc": 4434,
                "addr:teryt:sym_ul": 943902,
                "contact:phone": "+48 322888661",
                "contact:email": "sp1miasteczko@poczta.onet.pl",
                "contact:website": "http:\/\/sp1.miasteczko-slaskie.pl",
                "ref:regon": "000730589",
                "ref:vatin": "PL6451161501",
                "operator": "Gmina Miasteczko \u015al\u0105skie",
                "operator:type": "government",
                "amenity": "school"
            }
        },
        {
            "id": 105195,
            "type": "Feature",
            "geometry": {
                "type": "Point",
                "coordinates": [
                    18.90881,
                    50.49287
                ]
            },
            "properties": {
                "ref:rspo": 105195,
                "official_name": "Przedszkole Nr 3 w Miasteczku \u015alaskim",
                "name": "Przedszkole Nr 3 w Miasteczku \u015alaskim",
                "addr:country": "PL",
                "addr:postcode": "42-610",
                "addr:city": "Miasteczko \u015al\u0105skie",
                "addr:street": "Srebrna",
                "addr:housenumber": "12",
                "addr:teryt:simc": 20732,
                "addr:teryt:sym_ul": 943902,
                "contact:phone": "+48 322888045",
                "contact:email": "dyrektor@przedszkole3.miasteczko-slaskie.pl",
                "ref:regon": "271509920",
                "ref:vatin": "PL6452155951",
                "operator": "Gmina Miasteczko \u015al\u0105skie",
                "operator:type": "government",
                "amenity": "kindergarten"
            }
        }
    ]
}