{
    "type": "FeatureCollection",
    "features": [
        {
            "id": 31547,
            "type": "Feature",
            "geometry": {
                "type": "Point",
                "coordinates": [
                    18.82977,
                    50.41473
                ]
            },
            "properties": {
                "ref:rspo": 31547,
                "official_name": "Zesp\u00f3\u0142 Szkolno-Przedszkolny Nr 3",
                "name": "Zesp\u00f3\u0142 Szkolno-Przedszkolny Nr 3",
                "addr:postcode": "42-603",
                "addr:city": "Tarnowskie G\u00f3ry",
                "addr:street": "Stefana \u017beromskiego",
                "addr:housenumber": "64",
                "addr:teryt:simc": 943813,
                "addr:teryt:sym_ul": 26469,
                "phone": "+48 323848215",
                "email": "repty12@gmail.com",
                "website": "http:\/\/bip.zsp3.tarnowskiegory.pl",
                "ref:regon": "240130142",
                "ref:vatin": "PL6452373702",
                "operator": "Gmina Tarnowskie G\u00f3ry",
                "operator:type": "government",
                "landuse": "education",
                "fixme": "amenity=school, amenity=college albo landuse=education w zale\u017cno\u015bci od tego, jakie plac\u00f3wki wchodz\u0105 w sk\u0142ad zespo\u0142u. Sprawd\u017a, kiedy stosowa\u0107 amenity=* a kiedy landuse=education.",
                "note": "Children RSPO: 79183;80374"
            }
        },
        {
            "id": 79183,
            "type": "Feature",
            "geometry": {
                "type": "Point",
                "coordinates": [
                    18.82977,
                    50.414699999999996
                ]
            },
            "properties": {
                "isced:level": "1;2",
                "ref:rspo": 79183,
                "official_name": "Szko\u0142a Podstawowa Nr 12",
                "name": "Szko\u0142a Podstawowa Nr 12",
                "addr:postcode": "42-603",
                "addr:city": "Tarnowskie G\u00f3ry",
                "addr:street": "Stefana \u017beromskiego",
                "addr:housenumber": "64",
                "addr:teryt:simc": 943813,
                "addr:teryt:sym_ul": 26469,
                "phone": "+48 323848215",
                "email": "repty12@gmail.com",
                "website": "http:\/\/www.sp12.zsp3.tg.pl",
                "ref:regon": "000730543",
                "operator": "Gmina Tarnowskie G\u00f3ry",
                "operator:type": "government",
                "amenity": "school",
                "note": "Parent RSPO: 31547"
            }
        },
        {
            "id": 80374,
            "type": "Feature",
            "geometry": {
                "type": "Point",
                "coordinates": [
                    18.8298,
                    50.41505
                ]
            },
            "properties": {
                "ref:rspo": 80374,
                "official_name": "Przedszkole Nr 13",
                "name": "Przedszkole Nr 13",
                "addr:postcode": "42-603",
                "addr:city": "Tarnowskie G\u00f3ry",
                "addr:street": "Stefana \u017beromskiego",
                "addr:housenumber": "62",
                "addr:teryt:simc": 943813,
                "addr:teryt:sym_ul": 26469,
                "phone": "+48 323848171",
                "email": "repty12@gmail.com",
                "ref:regon": "271509860",
                "operator": "Gmina Tarnowskie G\u00f3ry",
                "operator:type": "government",
                "amenity": "kindergarten",
                "note": "Parent RSPO: 31547"
            }
        },
        {
            "id": 57806,
            "type": "Feature",
            "geometry": {
                "type": "Point",
                "coordinates": [
                    18.86789,
                    50.42154
                ]
            },
            "properties": {
                "ref:rspo": 57806,
                "official_name": "Przedszkole Nr 12",
                "name": "Przedszkole Nr 12",
                "addr:postcode": "42-605",
                "addr:city": "Tarnowskie G\u00f3ry",
                "addr:street": "J\u00f3zefa Korola",
                "addr:housenumber": "18",
                "addr:teryt:simc": 943813,
                "addr:teryt:sym_ul": 9367,
                "phone": "+48 322859084",
                "email": "przedszkole12@vp.pl",
                "website": "http:\/\/www.p12.bobrowniki.tgory.pl",
                "ref:regon": "271509854",
                "ref:vatin": "PL6452387064",
                "operator": "Gmina Tarnowskie G\u00f3ry",
                "operator:type": "government",
                "amenity": "kindergarten"
            }
        },
        {
            "id": 269952,
            "type": "Feature",
            "geometry": {
                "type": "Point",
                "coordinates": [
                    18.85225,
                    50.42436
                ]
            },
            "properties": {
                "ref:rspo": 269952,
                "official_name": "Us\u0142ugi Po\u017carnicze I Bhp Now-Po\u017c 2",
                "name": "Us\u0142ugi Po\u017carnicze I Bhp Now-Po\u017c 2",
                "addr:postcode": "42-605",
                "addr:city": "Tarnowskie G\u00f3ry",
                "addr:street": "Ma\u0142a",
                "addr:housenumber": "16a",
                "addr:teryt:simc": 943813,
                "addr:teryt:sym_ul": 12098,
                "email": "nowpoz@post.pl",
                "ref:regon": "381899525",
                "operator": "Nowak Andrzej Us\u0142ugi Po\u017carnicze I Bhp \"Now-Po\u017c 2\"",
                "operator:type": "consortium",
                "fixme": "w zale\u017cno\u015bci od przedmiotu dzia\u0142alno\u015bci (np. amenity=training + training=*, amenity=dancing_school, amenity=language_school, amenity=music_school)"
            }
        },
        {
            "id": 54138,
            "type": "Feature",
            "geometry": {
                "type": "Point",
                "coordinates": [
                    18.86808,
                    50.42618
                ]
            },
            "properties": {
                "isced:level": "1;2",
                "ref:rspo": 54138,
                "official_name": "Szko\u0142a Podstawowa Nr 11 im. W\u0142adys\u0142awa Broniewskiego",
                "name": "Szko\u0142a Podstawowa Nr 11",
                "addr:postcode": "42-605",
                "addr:city": "Tarnowskie G\u00f3ry",
                "addr:street": "J\u00f3zefa Korola",
                "addr:housenumber": "38a",
                "addr:teryt:simc": 943813,
                "addr:teryt:sym_ul": 9367,
                "phone": "+48 322859722",
                "email": "sp11tgory@interia.pl",
                "website": "http:\/\/www.tgorysp11.edupage.org",
                "ref:regon": "000730537",
                "ref:vatin": "PL6451159243",
                "operator": "Gmina Tarnowskie G\u00f3ry",
                "operator:type": "government",
                "amenity": "school"
            }
        },
        {
            "id": 273060,
            "type": "Feature",
            "geometry": {
                "type": "Point",
                "coordinates": [
                    18.8720164,
                    50.4265104
                ]
            },
            "properties": {
                "ref:rspo": 273060,
                "official_name": "Katolickie Przedszkole Niepubliczne \"Akademia Pana Boga\"",
                "name": "Katolickie Przedszkole Niepubliczne \"Akademia Pana Boga\"",
                "addr:postcode": "42-605",
                "addr:city": "Tarnowskie G\u00f3ry",
                "addr:street": "Kr\u00f3la Jana Kazimierza",
                "addr:housenumber": "21",
                "addr:teryt:simc": 943813,
                "addr:teryt:sym_ul": 7118,
                "phone": "+48 794474555",
                "email": "biuro@akademiapanaboga.pl",
                "website": "http:\/\/www.akademiapanaboga.pl",
                "ref:regon": "384364240",
                "operator": "Rzymsko-Katolicka Parafia Pw.przemienienia Pa\u0144skiego",
                "operator:type": "religious",
                "amenity": "kindergarten"
            }
        },
        {
            "id": 56594,
            "type": "Feature",
            "geometry": {
                "type": "Point",
                "coordinates": [
                    18.87057,
                    50.43306
                ]
            },
            "properties": {
                "ref:rspo": 56594,
                "official_name": "Przedszkole Nr 9 \"Akademia Przedszkolaka\"",
                "name": "Przedszkole Nr 9 \"Akademia Przedszkolaka\"",
                "addr:postcode": "42-606",
                "addr:city": "Tarnowskie G\u00f3ry",
                "addr:street": "Zaciszna",
                "addr:housenumber": "11",
                "addr:teryt:simc": 943813,
                "addr:teryt:sym_ul": 25316,
                "phone": "+48 322859039",
                "email": "p9tarngory@wp.pl",
                "website": "http:\/\/www.przedszkolenr9.prv.pl",
                "ref:regon": "271509831",
                "ref:vatin": "PL6452387058",
                "operator": "Gmina Tarnowskie G\u00f3ry",
                "operator:type": "government",
                "amenity": "kindergarten"
            }
        },
        {
            "id": 125074,
            "type": "Feature",
            "geometry": {
                "type": "Point",
                "coordinates": [
                    18.85022,
                    50.43616
                ]
            },
            "properties": {
                "ref:rspo": 125074,
                "official_name": "Angloj\u0119zyczne Przedszkole Niepubliczne \"Best Start Academy\" Z Oddzia\u0142ami Integracyjnymi",
                "name": "Angloj\u0119zyczne Przedszkole Niepubliczne \"Best Start Academy\" Z Oddzia\u0142ami Integracyjnymi",
                "addr:postcode": "42-600",
                "addr:city": "Tarnowskie G\u00f3ry",
                "addr:street": "Sko\u015bna",
                "addr:housenumber": "10c",
                "addr:teryt:simc": 943813,
                "addr:teryt:sym_ul": 20107,
                "email": "academybeststart@gmail.com",
                "website": "http:\/\/beststartacademy.pl",
                "ref:regon": "243671482",
                "ref:vatin": "PL6452275968",
                "operator": "Aleksandra Kolczok-Nnonyelu",
                "operator:type": "private",
                "amenity": "kindergarten"
            }
        },
        {
            "id": 133955,
            "type": "Feature",
            "geometry": {
                "type": "Point",
                "coordinates": [
                    18.85022,
                    50.43613
                ]
            },
            "properties": {
                "isced:level": "1;2",
                "ref:rspo": 133955,
                "official_name": "Mi\u0119dzynarodowa Szko\u0142a Podstawowa Best Start Academy",
                "name": "Mi\u0119dzynarodowa Szko\u0142a Podstawowa Best Start Academy",
                "addr:postcode": "42-600",
                "addr:city": "Tarnowskie G\u00f3ry",
                "addr:street": "Sko\u015bna",
                "addr:housenumber": "10c",
                "addr:teryt:simc": 943813,
                "addr:teryt:sym_ul": 20107,
                "phone": "+48 695790150",
                "email": "academybeststart@gmail.com",
                "website": "http:\/\/beststartacademy.pl",
                "ref:regon": "367747795",
                "operator": "Aleksandra Kolczok-Nnonyelu",
                "operator:type": "private",
                "amenity": "school"
            }
        },
        {
            "id": 105218,
            "type": "Feature",
            "geometry": {
                "type": "Point",
                "coordinates": [
                    18.8074979,
                    50.4380333
                ]
            },
            "properties": {
                "ref:rspo": 105218,
                "official_name": "Salezja\u0144ski O\u015brodek Szkolno-Wychowawczy w Tarnowskich G\u00f3rach",
                "name": "Salezja\u0144ski O\u015brodek Szkolno-Wychowawczy w Tarnowskich G\u00f3rach",
                "addr:postcode": "42-604",
                "addr:city": "Tarnowskie G\u00f3ry",
                "addr:street": "Jana \u015aniadeckiego",
                "addr:housenumber": "1",
                "addr:teryt:simc": 943813,
                "addr:teryt:sym_ul": 22386,
                "phone": "+48 323932300",
                "ref:regon": "243137340",
                "ref:vatin": "PL6452186348",
                "operator": "Inspektoria Towarzystwa Salezja\u0144skiego \u015aw.jana Bosko",
                "operator:type": "religious",
                "landuse": "education",
                "fixme": "amenity=school, amenity=college albo landuse=education w zale\u017cno\u015bci od tego, jakie plac\u00f3wki wchodz\u0105 w sk\u0142ad zespo\u0142u. Sprawd\u017a, kiedy stosowa\u0107 amenity=* a kiedy landuse=education.",
                "note": "Children RSPO: 106246;106305;106591;107088;264030;267101"
            }
        },
        {
            "id": 106246,
            "type": "Feature",
            "geometry": {
                "type": "Point",
                "coordinates": [
                    18.8074979,
                    50.4380033
                ]
            },
            "properties": {
                "ref:rspo": 106246,
                "official_name": "Specjalny O\u015brodek Szkolno - Wychowawczy",
                "name": "Specjalny O\u015brodek Szkolno - Wychowawczy",
                "addr:postcode": "42-604",
                "addr:city": "Tarnowskie G\u00f3ry",
                "addr:street": "Jana \u015aniadeckiego",
                "addr:housenumber": "1",
                "addr:teryt:simc": 943813,
                "addr:teryt:sym_ul": 22386,
                "phone": "+48 323932300",
                "ref:regon": "243147960",
                "operator": "Inspektoria Towarzystwa Salezja\u0144skiego \u015aw.jana Bosko",
                "operator:type": "religious",
                "amenity": "school",
                "note": "Parent RSPO: 105218"
            }
        },
        {
            "id": 106305,
            "type": "Feature",
            "geometry": {
                "type": "Point",
                "coordinates": [
                    18.8074979,
                    50.4379733
                ]
            },
            "properties": {
                "isced:level": "3",
                "ref:rspo": 106305,
                "official_name": "Technikum Nr 14 Z Oddzia\u0142ami Integracyjnymi",
                "name": "Technikum Nr 14 Z Oddzia\u0142ami Integracyjnymi",
                "addr:postcode": "42-604",
                "addr:city": "Tarnowskie G\u00f3ry",
                "addr:street": "Jana \u015aniadeckiego",
                "addr:housenumber": "1",
                "addr:teryt:simc": 943813,
                "addr:teryt:sym_ul": 22386,
                "phone": "+48 323932300",
                "ref:regon": "243148007",
                "operator": "Inspektoria Towarzystwa Salezja\u0144skiego \u015aw.jana Bosko",
                "operator:type": "religious",
                "amenity": "school",
                "note": "Parent RSPO: 105218"
            }
        },
        {
            "id": 106591,
            "type": "Feature",
            "geometry": {
                "type": "Point",
                "coordinates": [
                    18.8074979,
                    50.4379433
                ]
            },
            "properties": {
                "isced:level": "3",
                "ref:rspo": 106591,
                "official_name": "Xi Liceum Og\u00f3lnokszta\u0142c\u0105ce Z Oddzia\u0142ami Integracyjnymi",
                "name": "Xi Liceum Og\u00f3lnokszta\u0142c\u0105ce Z Oddzia\u0142ami Integracyjnymi",
                "addr:postcode": "42-604",
                "addr:city": "Tarnowskie G\u00f3ry",
                "addr:street": "Jana \u015aniadeckiego",
                "addr:housenumber": "1",
                "addr:teryt:simc": 943813,
                "addr:teryt:sym_ul": 22386,
                "phone": "+48 323932300",
                "email": "sosw@salezjanie.pl",
                "website": "https:\/\/sosw.salezjanie.pl\/",
                "ref:regon": "243150694",
                "operator": "Inspektoria Towarzystwa Salezja\u0144skiego \u015aw.jana Bosko",
                "operator:type": "religious",
                "amenity": "school",
                "note": "Parent RSPO: 105218"
            }
        },
        {
            "id": 107088,
            "type": "Feature",
            "geometry": {
                "type": "Point",
                "coordinates": [
                    18.8074979,
                    50.4379133
                ]
            },
            "properties": {
                "isced:level": "3",
                "ref:rspo": 107088,
                "official_name": "Publiczna Salezja\u0144ska Szko\u0142a Bran\u017cowa Specjalna I Stopnia w Tarnowskich G\u00f3rach",
                "name": "Publiczna Salezja\u0144ska Szko\u0142a Bran\u017cowa Specjalna I Stopnia w Tarnowskich G\u00f3rach",
                "addr:postcode": "42-604",
                "addr:city": "Tarnowskie G\u00f3ry",
                "addr:street": "Jana \u015aniadeckiego",
                "addr:housenumber": "1",
                "addr:teryt:simc": 943813,
                "addr:teryt:sym_ul": 22386,
                "phone": "+48 323932300",
                "email": "sosw@salezjanie.pl",
                "website": "https:\/\/sosw.salezjanie.pl\/",
                "ref:regon": "243159465",
                "operator": "Inspektoria Towarzystwa Salezja\u0144skiego \u015aw.jana Bosko",
                "operator:type": "religious",
                "amenity": "school",
                "note": "Parent RSPO: 105218"
            }
        },
        {
            "id": 264030,
            "type": "Feature",
            "geometry": {
                "type": "Point",
                "coordinates": [
                    18.8074979,
                    50.4378833
                ]
            },
            "properties": {
                "isced:level": "1;2",
                "ref:rspo": 264030,
                "official_name": "Salezja\u0144ska Szko\u0142a Podstawowa Z Oddzia\u0142ami Integracyjnymi w Salezja\u0144skim O\u015brodku Szkolno-Wychowawczym w Tarnowskich G\u00f3rach",
                "name": "Salezja\u0144ska Szko\u0142a Podstawowa Z Oddzia\u0142ami Integracyjnymi w Salezja\u0144skim O\u015brodku Szkolno-Wychowawczym w Tarnowskich G\u00f3rach",
                "addr:postcode": "42-604",
                "addr:city": "Tarnowskie G\u00f3ry",
                "addr:street": "Jana \u015aniadeckiego",
                "addr:housenumber": "1",
                "addr:teryt:simc": 943813,
                "addr:teryt:sym_ul": 22386,
                "phone": "+48 323932301",
                "email": "sosw@salezjanie.pl",
                "website": "http:\/\/www.sosw.salezjanie.pl",
                "ref:regon": "368253871",
                "operator": "Inspektoria Towarzystwa Salezja\u0144skiego \u015aw.jana Bosko",
                "operator:type": "religious",
                "amenity": "school",
                "note": "Parent RSPO: 105218"
            }
        },
        {
            "id": 267101,
            "type": "Feature",
            "geometry": {
                "type": "Point",
                "coordinates": [
                    18.8074979,
                    50.4378533
                ]
            },
            "properties": {
                "isced:level": "3",
                "ref:rspo": 267101,
                "official_name": "Publiczna Salezja\u0144ska Bran\u017cowa Szko\u0142a I Stopnia",
                "name": "Publiczna Salezja\u0144ska Bran\u017cowa Szko\u0142a I Stopnia",
                "addr:postcode": "42-604",
                "addr:city": "Tarnowskie G\u00f3ry",
                "addr:street": "Jana \u015aniadeckiego",
                "addr:housenumber": "1",
                "addr:teryt:simc": 943813,
                "addr:teryt:sym_ul": 22386,
                "phone": "+48 323932300",
                "email": "sosw@salezjanie.pl",
                "ref:regon": "369922268",
                "operator": "Inspektoria Towarzystwa Salezja\u0144skiego \u015aw.jana Bosko",
                "operator:type": "religious",
                "amenity": "school",
                "note": "Parent RSPO: 105218"
            }
        },
        {
            "id": 131695,
            "type": "Feature",
            "geometry": {
                "type": "Point",
                "coordinates": [
                    18.85554,
                    50.43971
                ]
            },
            "properties": {
                "ref:rspo": 131695,
                "official_name": "T\u0119czowy Ogr\u00f3d Integracyjne Centrum Rozwoju Dziecka - Przedszkole Publiczne Z Oddzia\u0142ami Integracyjnymi",
                "name": "T\u0119czowy Ogr\u00f3d Integracyjne Centrum Rozwoju Dziecka - Przedszkole Publiczne Z Oddzia\u0142ami Integracyjnymi",
                "addr:postcode": "42-600",
                "addr:city": "Tarnowskie G\u00f3ry",
                "addr:street": "Ogrodowa",
                "addr:housenumber": "12",
                "addr:teryt:simc": 943813,
                "addr:teryt:sym_ul": 14834,
                "email": "ogrodowaprzedszkole@vp.pl",
                "ref:regon": "365329250",
                "operator": "Sylwia Zakrzewska",
                "operator:type": "private",
                "amenity": "kindergarten"
            }
        },
        {
            "id": 54137,
            "type": "Feature",
            "geometry": {
                "type": "Point",
                "coordinates": [
                    18.8686599,
                    50.44015
                ]
            },
            "properties": {
                "isced:level": "1;2",
                "ref:rspo": 54137,
                "official_name": "Szko\u0142a Podstawowa Nr 10",
                "name": "Szko\u0142a Podstawowa Nr 10",
                "addr:postcode": "42-600",
                "addr:city": "Tarnowskie G\u00f3ry",
                "addr:street": "Jana Kochanowskiego",
                "addr:housenumber": "15",
                "addr:teryt:simc": 943813,
                "addr:teryt:sym_ul": 8728,
                "phone": "+48 322854731",
                "email": "dziesiatka@wp.pl",
                "website": "http:\/\/www.sp10tg.edupage.org",
                "ref:regon": "000730520",
                "ref:vatin": "PL6451159237",
                "operator": "Gmina Tarnowskie G\u00f3ry",
                "operator:type": "government",
                "amenity": "school"
            }
        },
        {
            "id": 17675,
            "type": "Feature",
            "geometry": {
                "type": "Point",
                "coordinates": [
                    18.85883,
                    50.44029
                ]
            },
            "properties": {
                "ref:rspo": 17675,
                "official_name": "Niepubliczna Plac\u00f3wka Doskonalenia Nauczycieli \"Pedagog\"",
                "name": "Niepubliczna Plac\u00f3wka Doskonalenia Nauczycieli \"Pedagog\"",
                "addr:postcode": "42-600",
                "addr:city": "Tarnowskie G\u00f3ry",
                "addr:street": "Kar\u0142uszowiec",
                "addr:housenumber": "9",
                "addr:teryt:simc": 943813,
                "addr:teryt:sym_ul": 33887,
                "phone": "+48 327690339",
                "email": "pedagog@kursysilesia.pl",
                "website": "http:\/\/www.kursysilesia.pl",
                "ref:regon": "243050314",
                "ref:vatin": "PL6451739058",
                "operator": "Zbigniew Maruszewski",
                "operator:type": "private",
                "amenity": "training"
            }
        },
        {
            "id": 90619,
            "type": "Feature",
            "geometry": {
                "type": "Point",
                "coordinates": [
                    18.85016,
                    50.44035
                ]
            },
            "properties": {
                "ref:rspo": 90619,
                "official_name": "Powiatowy M\u0142odzie\u017cowy Dom Kultury im. Henryka Jordana",
                "name": "Powiatowy M\u0142odzie\u017cowy Dom Kultury",
                "addr:postcode": "42-600",
                "addr:city": "Tarnowskie G\u00f3ry",
                "addr:street": "Gliwicka",
                "addr:housenumber": "36",
                "addr:teryt:simc": 943813,
                "addr:teryt:sym_ul": 5583,
                "phone": "+48 322852974",
                "email": "sekretariat@mdk.tgory.pl",
                "website": "http:\/\/www.mdk.tgory.pl",
                "ref:regon": "000730632",
                "ref:vatin": "PL6451115671",
                "operator": "Powiat Tarnog\u00f3rski",
                "operator:type": "government",
                "amenity": "community_centre",
                "community_centre:for": "juvenile",
                "note": "Children RSPO: 91526"
            }
        },
        {
            "id": 16626,
            "type": "Feature",
            "geometry": {
                "type": "Point",
                "coordinates": [
                    18.85807,
                    50.44094
                ]
            },
            "properties": {
                "ref:rspo": 16626,
                "official_name": "Zesp\u00f3\u0142 Szk\u00f3\u0142 Artystyczno - Projektowych",
                "name": "Zesp\u00f3\u0142 Szk\u00f3\u0142 Artystyczno - Projektowych",
                "addr:postcode": "42-600",
                "addr:city": "Tarnowskie G\u00f3ry",
                "addr:street": "Legion\u00f3w",
                "addr:housenumber": "35",
                "addr:teryt:simc": 943813,
                "addr:teryt:sym_ul": 10769,
                "phone": "+48 322854087",
                "email": "sekretariat@zsap.info",
                "website": "http:\/\/www.zsap.info",
                "ref:regon": "000695522",
                "ref:vatin": "PL6451161599",
                "operator": "Powiat Tarnog\u00f3rski",
                "operator:type": "government",
                "landuse": "education",
                "fixme": "amenity=school, amenity=college albo landuse=education w zale\u017cno\u015bci od tego, jakie plac\u00f3wki wchodz\u0105 w sk\u0142ad zespo\u0142u. Sprawd\u017a, kiedy stosowa\u0107 amenity=* a kiedy landuse=education.",
                "note": "Children RSPO: 24200;24210"
            }
        },
        {
            "id": 24200,
            "type": "Feature",
            "geometry": {
                "type": "Point",
                "coordinates": [
                    18.85807,
                    50.440909999999995
                ]
            },
            "properties": {
                "isced:level": "3",
                "ref:rspo": 24200,
                "official_name": "Liceum Sztuk Plastycznych",
                "name": "Liceum Sztuk Plastycznych",
                "addr:postcode": "42-600",
                "addr:city": "Tarnowskie G\u00f3ry",
                "addr:street": "Legion\u00f3w",
                "addr:housenumber": "35",
                "addr:teryt:simc": 943813,
                "addr:teryt:sym_ul": 10769,
                "phone": "+48 322854087",
                "email": "sekretariat@zsap.edu.pl",
                "website": "http:\/\/www.zsap.art.pl",
                "ref:regon": "240142398",
                "operator": "Powiat Tarnog\u00f3rski",
                "operator:type": "government",
                "amenity": "school",
                "note": "Parent RSPO: 16626"
            }
        },
        {
            "id": 24210,
            "type": "Feature",
            "geometry": {
                "type": "Point",
                "coordinates": [
                    18.85807,
                    50.44088
                ]
            },
            "properties": {
                "isced:level": "3",
                "ref:rspo": 24210,
                "official_name": "Technikum Nr 7",
                "name": "Technikum Nr 7",
                "addr:postcode": "42-600",
                "addr:city": "Tarnowskie G\u00f3ry",
                "addr:street": "Legion\u00f3w",
                "addr:housenumber": "35",
                "addr:teryt:simc": 943813,
                "addr:teryt:sym_ul": 10769,
                "phone": "+48 322854087",
                "email": "sekretariat@zsap.edu.pl",
                "website": "http:\/\/www.zsap.art.pl",
                "ref:regon": "271955223",
                "operator": "Powiat Tarnog\u00f3rski",
                "operator:type": "government",
                "amenity": "school",
                "note": "Parent RSPO: 16626"
            }
        },
        {
            "id": 278376,
            "type": "Feature",
            "geometry": {
                "type": "Point",
                "coordinates": [
                    18.85891,
                    50.44111
                ]
            },
            "properties": {
                "ref:rspo": 278376,
                "official_name": "Punkt Przedszkolny Silesia Montessori",
                "name": "Punkt Przedszkolny Silesia Montessori",
                "addr:postcode": "42-600",
                "addr:city": "Tarnowskie G\u00f3ry",
                "addr:street": "Legion\u00f3w",
                "addr:housenumber": "37c",
                "addr:teryt:simc": 943813,
                "addr:teryt:sym_ul": 10769,
                "phone": "+48 531228877",
                "email": "kontakt@silesiamontessori.pl",
                "website": "http:\/\/www.silesiamontessori.pl",
                "ref:regon": "389872810",
                "operator": "Fundacja Silesia Montessori",
                "operator:type": "ngo",
                "amenity": "kindergarten"
            }
        },
        {
            "id": 16651,
            "type": "Feature",
            "geometry": {
                "type": "Point",
                "coordinates": [
                    18.85858,
                    50.44158
                ]
            },
            "properties": {
                "ref:rspo": 16651,
                "official_name": "Zesp\u00f3\u0142 Szk\u00f3\u0142 Gastronomiczno - Hotelarskich",
                "name": "Zesp\u00f3\u0142 Szk\u00f3\u0142 Gastronomiczno - Hotelarskich",
                "addr:postcode": "42-600",
                "addr:city": "Tarnowskie G\u00f3ry",
                "addr:street": "Karola Miarki",
                "addr:housenumber": "17",
                "addr:teryt:simc": 943813,
                "addr:teryt:sym_ul": 12674,
                "phone": "+48 322853861",
                "email": "zsghtg@poczta.onet.pl",
                "website": "http:\/\/www.zsghtg.pl",
                "ref:regon": "000200928",
                "ref:vatin": "PL6451220451",
                "operator": "Powiat Tarnog\u00f3rski",
                "operator:type": "government",
                "landuse": "education",
                "fixme": "amenity=school, amenity=college albo landuse=education w zale\u017cno\u015bci od tego, jakie plac\u00f3wki wchodz\u0105 w sk\u0142ad zespo\u0142u. Sprawd\u017a, kiedy stosowa\u0107 amenity=* a kiedy landuse=education.",
                "note": "Children RSPO: 23809;23832"
            }
        },
        {
            "id": 23809,
            "type": "Feature",
            "geometry": {
                "type": "Point",
                "coordinates": [
                    18.85858,
                    50.44155
                ]
            },
            "properties": {
                "isced:level": "3",
                "ref:rspo": 23809,
                "official_name": "Bran\u017cowa Szko\u0142a I Stopnia Nr 4",
                "name": "Bran\u017cowa Szko\u0142a I Stopnia Nr 4",
                "addr:postcode": "42-600",
                "addr:city": "Tarnowskie G\u00f3ry",
                "addr:street": "Karola Miarki",
                "addr:housenumber": "17",
                "addr:teryt:simc": 943813,
                "addr:teryt:sym_ul": 12674,
                "phone": "+48 322853861",
                "email": "zsghtg@poczta.onet.pl",
                "website": "http:\/\/www.zsghtg.pl",
                "ref:regon": "271955269",
                "operator": "Powiat Tarnog\u00f3rski",
                "operator:type": "government",
                "amenity": "school",
                "note": "Parent RSPO: 16651"
            }
        },
        {
            "id": 23832,
            "type": "Feature",
            "geometry": {
                "type": "Point",
                "coordinates": [
                    18.85858,
                    50.441520000000004
                ]
            },
            "properties": {
                "isced:level": "3",
                "ref:rspo": 23832,
                "official_name": "Technikum Nr 6",
                "name": "Technikum Nr 6",
                "addr:postcode": "42-600",
                "addr:city": "Tarnowskie G\u00f3ry",
                "addr:street": "Karola Miarki",
                "addr:housenumber": "17",
                "addr:teryt:simc": 943813,
                "addr:teryt:sym_ul": 12674,
                "phone": "+48 322853861",
                "email": "zsghtg@poczta.onet.pl",
                "website": "http:\/\/www.zsghtg.pl",
                "ref:regon": "271955281",
                "operator": "Powiat Tarnog\u00f3rski",
                "operator:type": "government",
                "amenity": "school",
                "note": "Parent RSPO: 16651"
            }
        },
        {
            "id": 57811,
            "type": "Feature",
            "geometry": {
                "type": "Point",
                "coordinates": [
                    18.82097,
                    50.44183
                ]
            },
            "properties": {
                "ref:rspo": 57811,
                "official_name": "Przedszkole Nr 22",
                "name": "Przedszkole Nr 22",
                "addr:postcode": "42-612",
                "addr:city": "Tarnowskie G\u00f3ry",
                "addr:street": "Kardyna\u0142a Stefana Wyszy\u0144skiego",
                "addr:housenumber": "137",
                "addr:teryt:simc": 943813,
                "addr:teryt:sym_ul": 35421,
                "phone": "+48 322851268",
                "email": "przedszkole22tg@wp.pl",
                "website": "http:\/\/www.przedszkole22tg.pl",
                "ref:regon": "271509950",
                "ref:vatin": "PL6452387242",
                "operator": "Gmina Tarnowskie G\u00f3ry",
                "operator:type": "government",
                "amenity": "kindergarten"
            }
        },
        {
            "id": 133295,
            "type": "Feature",
            "geometry": {
                "type": "Point",
                "coordinates": [
                    18.85093,
                    50.4421
                ]
            },
            "properties": {
                "ref:rspo": 133295,
                "official_name": "Omni Niepubliczne Centrum Kszta\u0142cenia Zawodowego",
                "name": "Omni Niepubliczne Centrum Kszta\u0142cenia Zawodowego",
                "addr:postcode": "42-600",
                "addr:city": "Tarnowskie G\u00f3ry",
                "addr:street": "Gliwicka",
                "addr:housenumber": "35",
                "addr:teryt:simc": 943813,
                "addr:teryt:sym_ul": 5583,
                "phone": "+48 696353939",
                "ref:regon": "366967922",
                "operator": "Dariusz Duli\u0144ski",
                "operator:type": "private",
                "fixme": "w zale\u017cno\u015bci od przedmiotu dzia\u0142alno\u015bci (np. amenity=training + training=*, amenity=dancing_school, amenity=language_school, amenity=music_school) albo amenity=school, amenity=college, albo landuse=education w zale\u017cno\u015bci od tego, jakie plac\u00f3wki wchodz\u0105 w sk\u0142ad zespo\u0142u. Sprawd\u017a, kiedy stosowa\u0107 amenity=* a kiedy landuse=education."
            }
        },
        {
            "id": 274334,
            "type": "Feature",
            "geometry": {
                "type": "Point",
                "coordinates": [
                    18.85093,
                    50.44207
                ]
            },
            "properties": {
                "isced:level": "4",
                "ref:rspo": 274334,
                "official_name": "Szko\u0142a Policealna Medus",
                "name": "Szko\u0142a Policealna Medus",
                "addr:postcode": "42-600",
                "addr:city": "Tarnowskie G\u00f3ry",
                "addr:street": "Gliwicka",
                "addr:housenumber": "35",
                "addr:teryt:simc": 943813,
                "addr:teryt:sym_ul": 5583,
                "phone": "+48 323071333",
                "email": "for3szkola@gmail.com",
                "ref:regon": "385585249",
                "operator": "For3 Sp\u00f3\u0142ka Z Ograniczon\u0105 Odpowiedzialno\u015bci\u0105",
                "operator:type": "private",
                "amenity": "college"
            }
        },
        {
            "id": 56587,
            "type": "Feature",
            "geometry": {
                "type": "Point",
                "coordinates": [
                    18.85384,
                    50.44214
                ]
            },
            "properties": {
                "ref:rspo": 56587,
                "official_name": "Przedszkole Nr 1 \"Weso\u0142a Jedyneczka\"",
                "name": "Przedszkole Nr 1 \"Weso\u0142a Jedyneczka\"",
                "addr:postcode": "42-600",
                "addr:city": "Tarnowskie G\u00f3ry",
                "addr:street": "Legion\u00f3w",
                "addr:housenumber": "9",
                "addr:teryt:simc": 943813,
                "addr:teryt:sym_ul": 10769,
                "phone": "+48 322854061",
                "email": "przedszkolenr1@strong-pc.pl",
                "ref:regon": "271509759",
                "ref:vatin": "PL6452387199",
                "operator": "Gmina Tarnowskie G\u00f3ry",
                "operator:type": "government",
                "amenity": "kindergarten"
            }
        },
        {
            "id": 32073,
            "type": "Feature",
            "geometry": {
                "type": "Point",
                "coordinates": [
                    18.84899,
                    50.443
                ]
            },
            "properties": {
                "isced:level": "1;2",
                "ref:rspo": 32073,
                "official_name": "Szko\u0142a Podstawowa Nr 3 im. Ks. Franciszka Blachnickiego",
                "name": "Szko\u0142a Podstawowa Nr 3",
                "addr:postcode": "42-600",
                "addr:city": "Tarnowskie G\u00f3ry",
                "addr:street": "Stanis\u0142awa Wyspia\u0144skiego",
                "addr:housenumber": "1",
                "addr:teryt:simc": 943813,
                "addr:teryt:sym_ul": 25084,
                "phone": "+48 322852754",
                "email": "sp3tg@poczta.onet.pl",
                "website": "http:\/\/www.sp3tg.edupage.org",
                "ref:regon": "000730477",
                "ref:vatin": "PL6451152152",
                "operator": "Gmina Tarnowskie G\u00f3ry",
                "operator:type": "government",
                "amenity": "school"
            }
        },
        {
            "id": 274992,
            "type": "Feature",
            "geometry": {
                "type": "Point",
                "coordinates": [
                    18.8551632,
                    50.4430807
                ]
            },
            "properties": {
                "ref:rspo": 274992,
                "official_name": "Centrum Kszta\u0142cenia Zawodowego Przy Wolnym Cechu Rzemios\u0142 R\u00f3\u017cnych I Przedsi\u0119biorc\u00f3w w Tarnowskich G\u00f3rach",
                "name": "Centrum Kszta\u0142cenia Zawodowego Przy Wolnym Cechu Rzemios\u0142 R\u00f3\u017cnych I Przedsi\u0119biorc\u00f3w w Tarnowskich G\u00f3rach",
                "addr:postcode": "42-600",
                "addr:city": "Tarnowskie G\u00f3ry",
                "addr:street": "Jana Bondkowskiego",
                "addr:housenumber": "2",
                "addr:teryt:simc": 943813,
                "addr:teryt:sym_ul": 31598,
                "phone": "+48 322852895",
                "email": "cechtg@wp.pl",
                "website": "http:\/\/www.cechtg.pl",
                "ref:regon": "386477898",
                "operator": "Wolny Cech Rzemios\u0142 R\u00f3\u017cnych I Przedsi\u0119biorc\u00f3w",
                "operator:type": "cooperative",
                "fixme": "w zale\u017cno\u015bci od przedmiotu dzia\u0142alno\u015bci (np. amenity=training + training=*, amenity=dancing_school, amenity=language_school, amenity=music_school) albo amenity=school, amenity=college, albo landuse=education w zale\u017cno\u015bci od tego, jakie plac\u00f3wki wchodz\u0105 w sk\u0142ad zespo\u0142u. Sprawd\u017a, kiedy stosowa\u0107 amenity=* a kiedy landuse=education."
            }
        },
        {
            "id": 91399,
            "type": "Feature",
            "geometry": {
                "type": "Point",
                "coordinates": [
                    18.85911,
                    50.4434
                ]
            },
            "properties": {
                "ref:rspo": 91399,
                "official_name": "O\u015brodek Szkoleniowy Centrum Nauki I Biznesu \"\u017bak\" w Tarnowskich G\u00f3rach",
                "name": "O\u015brodek Szkoleniowy Centrum Nauki I Biznesu \"\u017bak\" w Tarnowskich G\u00f3rach",
                "addr:postcode": "42-600",
                "addr:city": "Tarnowskie G\u00f3ry",
                "addr:street": "Piastowska",
                "addr:housenumber": "15",
                "addr:teryt:simc": 943813,
                "addr:teryt:sym_ul": 16046,
                "phone": "+48 322853410",
                "email": "tarnowskiegory@zak.edu.pl",
                "website": "http:\/\/www.tarnowskie-gory.zak.edu.pl",
                "ref:regon": "243112400",
                "ref:vatin": "PL7292597869",
                "operator": "Centrum Nauki I Biznesu \"\u017bak\" Sp\u00f3\u0142ka Z Ograniczon\u0105 Odpowiedzialno\u015bci\u0105",
                "operator:type": "private",
                "fixme": "w zale\u017cno\u015bci od przedmiotu dzia\u0142alno\u015bci (np. amenity=training + training=*, amenity=dancing_school, amenity=language_school, amenity=music_school)"
            }
        },
        {
            "id": 19388,
            "type": "Feature",
            "geometry": {
                "type": "Point",
                "coordinates": [
                    18.85888,
                    50.44341
                ]
            },
            "properties": {
                "isced:level": "3",
                "ref:rspo": 19388,
                "official_name": "Liceum Og\u00f3lnokszta\u0142c\u0105ce dla Doros\u0142ych \"\u017bak\"",
                "name": "Liceum Og\u00f3lnokszta\u0142c\u0105ce dla Doros\u0142ych \"\u017bak\"",
                "addr:postcode": "42-600",
                "addr:city": "Tarnowskie G\u00f3ry",
                "addr:street": "Piastowska",
                "addr:housenumber": "13",
                "addr:teryt:simc": 943813,
                "addr:teryt:sym_ul": 16046,
                "phone": "+48 322853410",
                "email": "tarnowskiegory@zak.edu.pl",
                "website": "http:\/\/www.tarnowskie-gory.zak.edu.pl",
                "ref:regon": "243053235",
                "ref:vatin": "PL7292597869",
                "operator": "Centrum Nauki I Biznesu \"\u017bak\" Sp\u00f3\u0142ka Z Ograniczon\u0105 Odpowiedzialno\u015bci\u0105",
                "operator:type": "private",
                "amenity": "school"
            }
        },
        {
            "id": 19422,
            "type": "Feature",
            "geometry": {
                "type": "Point",
                "coordinates": [
                    18.85888,
                    50.44338
                ]
            },
            "properties": {
                "isced:level": "4",
                "ref:rspo": 19422,
                "official_name": "Szko\u0142a Policealna Centrum Nauki I Biznesu \"\u017bak\"",
                "name": "Szko\u0142a Policealna Centrum Nauki I Biznesu \"\u017bak\"",
                "addr:postcode": "42-600",
                "addr:city": "Tarnowskie G\u00f3ry",
                "addr:street": "Piastowska",
                "addr:housenumber": "13",
                "addr:teryt:simc": 943813,
                "addr:teryt:sym_ul": 16046,
                "phone": "+48 322853410",
                "email": "tarnowskiegory@zak.edu.pl",
                "website": "http:\/\/www.tarnowskie-gory.zak.edu.pl",
                "ref:regon": "243053198",
                "ref:vatin": "PL7292597869",
                "operator": "Centrum Nauki I Biznesu \"\u017bak\" Sp\u00f3\u0142ka Z Ograniczon\u0105 Odpowiedzialno\u015bci\u0105",
                "operator:type": "private",
                "amenity": "college"
            }
        },
        {
            "id": 125753,
            "type": "Feature",
            "geometry": {
                "type": "Point",
                "coordinates": [
                    18.85888,
                    50.44335
                ]
            },
            "properties": {
                "isced:level": "4",
                "ref:rspo": 125753,
                "official_name": "Szko\u0142a Policealna Opieki Medycznej \"\u017bak\" w Tarnowskich G\u00f3rach",
                "name": "Szko\u0142a Policealna Opieki Medycznej \"\u017bak\" w Tarnowskich G\u00f3rach",
                "addr:postcode": "42-600",
                "addr:city": "Tarnowskie G\u00f3ry",
                "addr:street": "Piastowska",
                "addr:housenumber": "13",
                "addr:teryt:simc": 943813,
                "addr:teryt:sym_ul": 16046,
                "phone": "+48 322853410",
                "email": "tarnowskiegory@zak.edu.pl",
                "website": "http:\/\/www.zak.edu.pl",
                "ref:regon": "243697642",
                "operator": "Centrum Nauki I Biznesu \"\u017bak\" Sp\u00f3\u0142ka Z Ograniczon\u0105 Odpowiedzialno\u015bci\u0105",
                "operator:type": "private",
                "amenity": "college"
            }
        },
        {
            "id": 130246,
            "type": "Feature",
            "geometry": {
                "type": "Point",
                "coordinates": [
                    18.85888,
                    50.44332
                ]
            },
            "properties": {
                "isced:level": "4",
                "ref:rspo": 130246,
                "official_name": "Szko\u0142a Policealna Medyczna \"\u017bak\" w Tarnowskich G\u00f3rach",
                "name": "Szko\u0142a Policealna Medyczna \"\u017bak\" w Tarnowskich G\u00f3rach",
                "addr:postcode": "42-600",
                "addr:city": "Tarnowskie G\u00f3ry",
                "addr:street": "Piastowska",
                "addr:housenumber": "13",
                "addr:teryt:simc": 943813,
                "addr:teryt:sym_ul": 16046,
                "phone": "+48 322853410",
                "email": "tarnowskiegory@zak.edu.pl",
                "website": "http:\/\/www.zak.edu.pl",
                "ref:regon": "363711228",
                "operator": "Centrum Nauki I Biznesu \"\u017bak\" Sp\u00f3\u0142ka Z Ograniczon\u0105 Odpowiedzialno\u015bci\u0105",
                "operator:type": "private",
                "amenity": "college"
            }
        },
        {
            "id": 17738,
            "type": "Feature",
            "geometry": {
                "type": "Point",
                "coordinates": [
                    18.84412,
                    50.4436
                ]
            },
            "properties": {
                "ref:rspo": 17738,
                "official_name": "Specjalny O\u015brodek Szkolno - Wychowawczy",
                "name": "Specjalny O\u015brodek Szkolno - Wychowawczy",
                "addr:postcode": "42-600",
                "addr:city": "Tarnowskie G\u00f3ry",
                "addr:street": "Strzelc\u00f3w Bytomskich",
                "addr:housenumber": "7",
                "addr:teryt:simc": 943813,
                "addr:teryt:sym_ul": 21365,
                "phone": "+48 322852893",
                "email": "soswtg@poczta.onet.pl",
                "website": "http:\/\/www.soswtg.pl",
                "ref:regon": "000209757",
                "ref:vatin": "PL6451741598",
                "operator": "Powiat Tarnog\u00f3rski",
                "operator:type": "government",
                "amenity": "school",
                "note": "Children RSPO: 87952;87954;87955"
            }
        },
        {
            "id": 87952,
            "type": "Feature",
            "geometry": {
                "type": "Point",
                "coordinates": [
                    18.84412,
                    50.44357
                ]
            },
            "properties": {
                "isced:level": "1;2",
                "ref:rspo": 87952,
                "official_name": "Szko\u0142a Podstawowa Nr 7 Specjalna",
                "name": "Szko\u0142a Podstawowa Nr 7 Specjalna",
                "addr:postcode": "42-600",
                "addr:city": "Tarnowskie G\u00f3ry",
                "addr:street": "Strzelc\u00f3w Bytomskich",
                "addr:housenumber": "7",
                "addr:teryt:simc": 943813,
                "addr:teryt:sym_ul": 21365,
                "phone": "+48 322852893",
                "email": "soswtg@poczta.onet.pl",
                "website": "http:\/\/www.soswtg.pl",
                "ref:regon": "000862925",
                "operator": "Powiat Tarnog\u00f3rski",
                "operator:type": "government",
                "amenity": "school",
                "note": "Parent RSPO: 17738"
            }
        },
        {
            "id": 87954,
            "type": "Feature",
            "geometry": {
                "type": "Point",
                "coordinates": [
                    18.84412,
                    50.443540000000006
                ]
            },
            "properties": {
                "isced:level": "3",
                "ref:rspo": 87954,
                "official_name": "Bran\u017cowa Szko\u0142a I Stopnia Specjalna Nr 14",
                "name": "Bran\u017cowa Szko\u0142a I Stopnia Specjalna Nr 14",
                "addr:postcode": "42-600",
                "addr:city": "Tarnowskie G\u00f3ry",
                "addr:street": "Strzelc\u00f3w Bytomskich",
                "addr:housenumber": "7",
                "addr:teryt:simc": 943813,
                "addr:teryt:sym_ul": 21365,
                "phone": "+48 322852893",
                "email": "soswtg@poczta.onet.pl",
                "website": "http:\/\/www.soswtg.pl",
                "ref:regon": "277877139",
                "operator": "Powiat Tarnog\u00f3rski",
                "operator:type": "government",
                "amenity": "school",
                "note": "Parent RSPO: 17738"
            }
        },
        {
            "id": 87955,
            "type": "Feature",
            "geometry": {
                "type": "Point",
                "coordinates": [
                    18.84412,
                    50.44351
                ]
            },
            "properties": {
                "ref:rspo": 87955,
                "official_name": "Szko\u0142a Specjalna Przysposabiaj\u0105ca Do Pracy Nr 1",
                "name": "Szko\u0142a Specjalna Przysposabiaj\u0105ca Do Pracy Nr 1",
                "addr:postcode": "42-600",
                "addr:city": "Tarnowskie G\u00f3ry",
                "addr:street": "Strzelc\u00f3w Bytomskich",
                "addr:housenumber": "7",
                "addr:teryt:simc": 943813,
                "addr:teryt:sym_ul": 21365,
                "phone": "+48 322852893",
                "email": "soswtg@poczta.onet.pl",
                "website": "http:\/\/www.soswtg.pl",
                "ref:regon": "240159973",
                "operator": "Powiat Tarnog\u00f3rski",
                "operator:type": "government",
                "amenity": "school",
                "note": "Parent RSPO: 17738"
            }
        },
        {
            "id": 269375,
            "type": "Feature",
            "geometry": {
                "type": "Point",
                "coordinates": [
                    18.85781,
                    50.4436899
                ]
            },
            "properties": {
                "ref:rspo": 269375,
                "official_name": "Niepubliczna Plac\u00f3wka Kszta\u0142cenia Ustawicznego \"Program\"",
                "name": "Niepubliczna Plac\u00f3wka Kszta\u0142cenia Ustawicznego \"Program\"",
                "addr:postcode": "42-600",
                "addr:city": "Tarnowskie G\u00f3ry",
                "addr:street": "Piastowska",
                "addr:housenumber": "8",
                "addr:teryt:simc": 943813,
                "addr:teryt:sym_ul": 16046,
                "phone": "+48 322854668",
                "email": "biuro@program.tgory.pl",
                "website": "http:\/\/www.program.tgory.pl\/",
                "ref:regon": "381457833",
                "operator": "\"Program\" Przedsi\u0119biorstwo Szkoleniowo-Projektowe Sp\u00f3\u0142ka Z Ograniczon\u0105 Odpowiedzialno\u015bci\u0105",
                "operator:type": "private",
                "fixme": "w zale\u017cno\u015bci od przedmiotu dzia\u0142alno\u015bci (np. amenity=training + training=*, amenity=dancing_school, amenity=language_school, amenity=music_school)"
            }
        },
        {
            "id": 54260,
            "type": "Feature",
            "geometry": {
                "type": "Point",
                "coordinates": [
                    18.8276721,
                    50.4439974
                ]
            },
            "properties": {
                "isced:level": "1;2",
                "ref:rspo": 54260,
                "official_name": "Szko\u0142a Podstawowa Nr 15 im. Gwark\u00f3w Tarnog\u00f3rskich",
                "name": "Szko\u0142a Podstawowa Nr 15",
                "addr:postcode": "42-612",
                "addr:city": "Tarnowskie G\u00f3ry",
                "addr:street": "Litewska",
                "addr:housenumber": "6",
                "addr:teryt:simc": 943813,
                "addr:teryt:sym_ul": 11223,
                "phone": "+48 322855116",
                "email": "szkola_15@poczta.onet.pl",
                "website": "http:\/\/www.sp15tg.edupage.org",
                "ref:regon": "271502770",
                "operator": "Gmina Tarnowskie G\u00f3ry",
                "operator:type": "government",
                "amenity": "school"
            }
        },
        {
            "id": 15815,
            "type": "Feature",
            "geometry": {
                "type": "Point",
                "coordinates": [
                    18.8604763,
                    50.4441481
                ]
            },
            "properties": {
                "isced:level": "3",
                "ref:rspo": 15815,
                "official_name": "Ii Liceum Og\u00f3lnokszta\u0142c\u0105ce im. Stanis\u0142awa Staszica",
                "name": "Ii Liceum Og\u00f3lnokszta\u0142c\u0105ce",
                "addr:postcode": "42-600",
                "addr:city": "Tarnowskie G\u00f3ry",
                "addr:street": "Marsza\u0142ka J\u00f3zefa Pi\u0142sudskiego",
                "addr:housenumber": "1",
                "addr:teryt:simc": 943813,
                "addr:teryt:sym_ul": 36029,
                "phone": "+48 322852941",
                "email": "lostaszic@wp.pl",
                "website": "http:\/\/www.lostaszic.pl",
                "ref:regon": "272125009",
                "ref:vatin": "PL6452439720",
                "operator": "Powiat Tarnog\u00f3rski",
                "operator:type": "government",
                "amenity": "school"
            }
        },
        {
            "id": 17581,
            "type": "Feature",
            "geometry": {
                "type": "Point",
                "coordinates": [
                    18.85985,
                    50.44421
                ]
            },
            "properties": {
                "ref:rspo": 17581,
                "official_name": "Niepubliczna Plac\u00f3wka Doskonalenia Nauczycieli \"Sza_Rada\"",
                "name": "Niepubliczna Plac\u00f3wka Doskonalenia Nauczycieli \"Sza_Rada\"",
                "addr:postcode": "42-600",
                "addr:city": "Tarnowskie G\u00f3ry",
                "addr:street": "Krakowska",
                "addr:housenumber": "20",
                "addr:teryt:simc": 943813,
                "addr:teryt:sym_ul": 9796,
                "phone": "+48 239000195",
                "email": "krzysztof356@wp.pl",
                "ref:regon": "243047329",
                "ref:vatin": "PL6260007485",
                "operator": "Dane Do Uzupe\u0142nienia",
                "operator:type": "private",
                "amenity": "training"
            }
        },
        {
            "id": 56588,
            "type": "Feature",
            "geometry": {
                "type": "Point",
                "coordinates": [
                    18.84698,
                    50.44435
                ]
            },
            "properties": {
                "ref:rspo": 56588,
                "official_name": "Przedszkole Nr 2",
                "name": "Przedszkole Nr 2",
                "addr:postcode": "42-600",
                "addr:city": "Tarnowskie G\u00f3ry",
                "addr:street": "Gruze\u0142ki",
                "addr:housenumber": "17",
                "addr:teryt:simc": 943813,
                "addr:teryt:sym_ul": 6278,
                "phone": "+48 322855297",
                "email": "przedszkole2tg@op.pl",
                "website": "http:\/\/www.przedszkole2.pl",
                "ref:regon": "271509765",
                "ref:vatin": "PL6452387035",
                "operator": "Gmina Tarnowskie G\u00f3ry",
                "operator:type": "government",
                "amenity": "kindergarten"
            }
        },
        {
            "id": 266960,
            "type": "Feature",
            "geometry": {
                "type": "Point",
                "coordinates": [
                    18.8465,
                    50.4444299
                ]
            },
            "properties": {
                "ref:rspo": 266960,
                "official_name": "Tb Polska",
                "name": "Tb Polska",
                "addr:postcode": "42-600",
                "addr:city": "Tarnowskie G\u00f3ry",
                "addr:street": "Gruze\u0142ki",
                "addr:housenumber": "19",
                "addr:teryt:simc": 943813,
                "addr:teryt:sym_ul": 6278,
                "phone": "+48 323820690",
                "ref:regon": "369763166",
                "operator": "\"Tb Polska\" Sp\u00f3\u0142ka Z Ograniczon\u0105 Odpowiedzialno\u015bci\u0105",
                "operator:type": "private",
                "fixme": "w zale\u017cno\u015bci od przedmiotu dzia\u0142alno\u015bci (np. amenity=training + training=*, amenity=dancing_school, amenity=language_school, amenity=music_school)"
            }
        },
        {
            "id": 133849,
            "type": "Feature",
            "geometry": {
                "type": "Point",
                "coordinates": [
                    18.81822,
                    50.44461
                ]
            },
            "properties": {
                "isced:level": "1;2",
                "ref:rspo": 133849,
                "official_name": "Szko\u0142a Podstawowa Nr 8 im. Pu\u0142ku 3. U\u0142an\u00f3w \u015aL\u0105skich",
                "name": "Szko\u0142a Podstawowa Nr 8",
                "addr:postcode": "42-612",
                "addr:city": "Tarnowskie G\u00f3ry",
                "addr:street": "Wincentego Janasa",
                "addr:housenumber": "11",
                "addr:teryt:simc": 943813,
                "addr:teryt:sym_ul": 7142,
                "phone": "+48 322855117",
                "email": "sekretariat@sp8tg.pl",
                "website": "http:\/\/www.sp8tg.pl",
                "ref:regon": "367697880",
                "operator": "Gmina Tarnowskie G\u00f3ry",
                "operator:type": "government",
                "amenity": "school"
            }
        },
        {
            "id": 57807,
            "type": "Feature",
            "geometry": {
                "type": "Point",
                "coordinates": [
                    18.83027,
                    50.44496
                ]
            },
            "properties": {
                "ref:rspo": 57807,
                "official_name": "Przedszkole Nr 17 \"Bajkowe Wzg\u00f3rze\"",
                "name": "Przedszkole Nr 17 \"Bajkowe Wzg\u00f3rze\"",
                "addr:postcode": "42-612",
                "addr:city": "Tarnowskie G\u00f3ry",
                "addr:street": "Norweska",
                "addr:housenumber": "2",
                "addr:teryt:simc": 943813,
                "addr:teryt:sym_ul": 14316,
                "phone": "+48 322851098",
                "email": "p17tg@poczta.fm",
                "website": "http:\/\/www.bajkowewzgorze.edupage.org",
                "ref:regon": "271510001",
                "ref:vatin": "PL6452387265",
                "operator": "Gmina Tarnowskie G\u00f3ry",
                "operator:type": "government",
                "amenity": "kindergarten"
            }
        },
        {
            "id": 107468,
            "type": "Feature",
            "geometry": {
                "type": "Point",
                "coordinates": [
                    18.82653,
                    50.44502
                ]
            },
            "properties": {
                "ref:rspo": 107468,
                "official_name": "Niepubliczna Poradnia Psychologiczno-Pedagogiczna \"Poradnia Dziecka.pl\"",
                "name": "Niepubliczna Poradnia Psychologiczno-Pedagogiczna \"Poradnia Dziecka.pl\"",
                "addr:postcode": "42-612",
                "addr:city": "Tarnowskie G\u00f3ry",
                "addr:street": "\u0141otewska",
                "addr:housenumber": "9",
                "addr:teryt:simc": 943813,
                "addr:teryt:sym_ul": 11687,
                "phone": "+48 323846958",
                "email": "info@poradniadziecka.pl",
                "website": "http:\/\/www.poradniadziecka.pl",
                "ref:regon": "243162088",
                "ref:vatin": "PL6452166328",
                "operator": "Prestige Katarzyna Mol-Galios",
                "operator:type": "consortium",
                "healthcare": "counselling",
                "counselling_type": "education",
                "fixme": "w zale\u017cno\u015bci od przedmiotu dzia\u0142alno\u015bci (np. healthcare=counselling + counselling_type=education albo healthcare=psychotherapist)"
            }
        },
        {
            "id": 16560,
            "type": "Feature",
            "geometry": {
                "type": "Point",
                "coordinates": [
                    18.85864,
                    50.44568
                ]
            },
            "properties": {
                "ref:rspo": 16560,
                "official_name": "Centrum Edukacji Ekonomiczno - Handlowej im. Karola Goduli",
                "name": "Centrum Edukacji Ekonomiczno - Handlowej",
                "addr:postcode": "42-600",
                "addr:city": "Tarnowskie G\u00f3ry",
                "addr:street": "Jana III Sobieskiego",
                "addr:housenumber": "5",
                "addr:teryt:simc": 943813,
                "addr:teryt:sym_ul": 20431,
                "phone": "+48 322852928",
                "email": "zsetg@poczta.onet.pl",
                "website": "http:\/\/www.ekonomiktg.edupage.org",
                "ref:regon": "000200868",
                "ref:vatin": "PL6451746331",
                "operator": "Powiat Tarnog\u00f3rski",
                "operator:type": "government",
                "landuse": "education",
                "fixme": "amenity=school, amenity=college albo landuse=education w zale\u017cno\u015bci od tego, jakie plac\u00f3wki wchodz\u0105 w sk\u0142ad zespo\u0142u. Sprawd\u017a, kiedy stosowa\u0107 amenity=* a kiedy landuse=education.",
                "note": "Children RSPO: 18938;18944"
            }
        },
        {
            "id": 18938,
            "type": "Feature",
            "geometry": {
                "type": "Point",
                "coordinates": [
                    18.85864,
                    50.44565
                ]
            },
            "properties": {
                "isced:level": "3",
                "ref:rspo": 18938,
                "official_name": "Technikum Nr 9",
                "name": "Technikum Nr 9",
                "addr:postcode": "42-600",
                "addr:city": "Tarnowskie G\u00f3ry",
                "addr:street": "Jana III Sobieskiego",
                "addr:housenumber": "5",
                "addr:teryt:simc": 943813,
                "addr:teryt:sym_ul": 20431,
                "phone": "+48 322852928",
                "email": "zsetg@poczta.onet.pl",
                "website": "http:\/\/www.ekonomiktg.edupage.org",
                "ref:regon": "277865521",
                "operator": "Powiat Tarnog\u00f3rski",
                "operator:type": "government",
                "amenity": "school",
                "note": "Parent RSPO: 16560"
            }
        },
        {
            "id": 18944,
            "type": "Feature",
            "geometry": {
                "type": "Point",
                "coordinates": [
                    18.85864,
                    50.445620000000005
                ]
            },
            "properties": {
                "isced:level": "3",
                "ref:rspo": 18944,
                "official_name": "Bran\u017cowa Szko\u0142a I Stopnia Nr 7",
                "name": "Bran\u017cowa Szko\u0142a I Stopnia Nr 7",
                "addr:postcode": "42-600",
                "addr:city": "Tarnowskie G\u00f3ry",
                "addr:street": "Jana III Sobieskiego",
                "addr:housenumber": "5",
                "addr:teryt:simc": 943813,
                "addr:teryt:sym_ul": 20431,
                "phone": "+48 322852928",
                "email": "zsetg@poczta.onet.pl",
                "website": "http:\/\/www.ekonomiktg.edupage.org",
                "ref:regon": "272124493",
                "operator": "Powiat Tarnog\u00f3rski",
                "operator:type": "government",
                "amenity": "school",
                "note": "Parent RSPO: 16560"
            }
        },
        {
            "id": 72978,
            "type": "Feature",
            "geometry": {
                "type": "Point",
                "coordinates": [
                    18.8283099,
                    50.44596
                ]
            },
            "properties": {
                "ref:rspo": 72978,
                "official_name": "Przedszkole I \u017b\u0142obek Ego Agnieszka Swatek",
                "name": "Przedszkole I \u017b\u0142obek Ego Agnieszka Swatek",
                "addr:postcode": "42-612",
                "addr:city": "Tarnowskie G\u00f3ry",
                "addr:street": "Szwedzka",
                "addr:housenumber": "2",
                "addr:teryt:simc": 943813,
                "addr:teryt:sym_ul": 22179,
                "email": "ego@ego.edu.pl",
                "website": "http:\/\/www.ego.edu.pl",
                "ref:regon": "243085695",
                "ref:vatin": "PL6452457066",
                "operator": "Agnieszka Swatek",
                "operator:type": "private",
                "amenity": "kindergarten"
            }
        },
        {
            "id": 56592,
            "type": "Feature",
            "geometry": {
                "type": "Point",
                "coordinates": [
                    18.856470108032,
                    50.44612121582
                ]
            },
            "properties": {
                "ref:rspo": 56592,
                "official_name": "Przedszkole Nr 6",
                "name": "Przedszkole Nr 6",
                "addr:postcode": "42-600",
                "addr:city": "Tarnowskie G\u00f3ry",
                "addr:street": "gen. J\u00f3zefa Bema",
                "addr:housenumber": "1",
                "addr:teryt:simc": 943813,
                "addr:teryt:sym_ul": 1014,
                "phone": "+48 322853271",
                "email": "przedszkole6tg@interia.pl",
                "website": "http:\/\/www.przedszkole6tg.prv.pl",
                "ref:regon": "271509802",
                "ref:vatin": "PL6452386656",
                "operator": "Gmina Tarnowskie G\u00f3ry",
                "operator:type": "government",
                "amenity": "kindergarten"
            }
        },
        {
            "id": 15816,
            "type": "Feature",
            "geometry": {
                "type": "Point",
                "coordinates": [
                    18.84911,
                    50.4467799
                ]
            },
            "properties": {
                "ref:rspo": 15816,
                "official_name": "Zesp\u00f3\u0142 Szk\u00f3\u0142 Chemiczno - Medycznych I Og\u00f3lnokszta\u0142c\u0105cych",
                "name": "Zesp\u00f3\u0142 Szk\u00f3\u0142 Chemiczno - Medycznych I Og\u00f3lnokszta\u0142c\u0105cych",
                "addr:postcode": "42-600",
                "addr:city": "Tarnowskie G\u00f3ry",
                "addr:street": "Opolska",
                "addr:housenumber": "26",
                "addr:teryt:simc": 943813,
                "addr:teryt:sym_ul": 15095,
                "phone": "+48 322855234",
                "email": "zschmio@o2.pl",
                "website": "http:\/\/www.chemiktg.pl",
                "ref:regon": "000200822",
                "ref:vatin": "PL6451986443",
                "operator": "Powiat Tarnog\u00f3rski",
                "operator:type": "government",
                "landuse": "education",
                "fixme": "amenity=school, amenity=college albo landuse=education w zale\u017cno\u015bci od tego, jakie plac\u00f3wki wchodz\u0105 w sk\u0142ad zespo\u0142u. Sprawd\u017a, kiedy stosowa\u0107 amenity=* a kiedy landuse=education.",
                "note": "Children RSPO: 17766;18063;18095"
            }
        },
        {
            "id": 17766,
            "type": "Feature",
            "geometry": {
                "type": "Point",
                "coordinates": [
                    18.84911,
                    50.4467499
                ]
            },
            "properties": {
                "isced:level": "3",
                "ref:rspo": 17766,
                "official_name": "Technikum Nr 1",
                "name": "Technikum Nr 1",
                "addr:postcode": "42-600",
                "addr:city": "Tarnowskie G\u00f3ry",
                "addr:street": "Opolska",
                "addr:housenumber": "26",
                "addr:teryt:simc": 943813,
                "addr:teryt:sym_ul": 15095,
                "phone": "+48 322855234",
                "email": "zschmio@o2.pl",
                "website": "http:\/\/www.chemiktg.pl",
                "ref:regon": "272130849",
                "operator": "Powiat Tarnog\u00f3rski",
                "operator:type": "government",
                "amenity": "school",
                "note": "Parent RSPO: 15816"
            }
        },
        {
            "id": 18063,
            "type": "Feature",
            "geometry": {
                "type": "Point",
                "coordinates": [
                    18.84911,
                    50.446719900000005
                ]
            },
            "properties": {
                "isced:level": "4",
                "ref:rspo": 18063,
                "official_name": "Szko\u0142a Policealna Nr 1",
                "name": "Szko\u0142a Policealna Nr 1",
                "addr:postcode": "42-600",
                "addr:city": "Tarnowskie G\u00f3ry",
                "addr:street": "Opolska",
                "addr:housenumber": "26",
                "addr:teryt:simc": 943813,
                "addr:teryt:sym_ul": 15095,
                "phone": "+48 322855234",
                "email": "zschmio@o2.pl",
                "website": "http:\/\/www.policealna.chemiktg.pl",
                "ref:regon": "272130921",
                "operator": "Powiat Tarnog\u00f3rski",
                "operator:type": "government",
                "amenity": "college",
                "note": "Parent RSPO: 15816"
            }
        },
        {
            "id": 18095,
            "type": "Feature",
            "geometry": {
                "type": "Point",
                "coordinates": [
                    18.84911,
                    50.4466899
                ]
            },
            "properties": {
                "isced:level": "4",
                "ref:rspo": 18095,
                "official_name": "Szko\u0142a Policealna Nr 1 w Zespole Szk\u00f3\u0142 Chemiczno- Medycznych I Og\u00f3lnokszta\u0142c\u0105cych im. Marii Sk\u0142odowskiej- Curie",
                "name": "Szko\u0142a Policealna Nr 1 w Zespole Szk\u00f3\u0142 Chemiczno- Medycznych I Og\u00f3lnokszta\u0142c\u0105cych",
                "addr:postcode": "42-600",
                "addr:city": "Tarnowskie G\u00f3ry",
                "addr:street": "Opolska",
                "addr:housenumber": "26",
                "addr:teryt:simc": 943813,
                "addr:teryt:sym_ul": 15095,
                "phone": "+48 322855234",
                "email": "zschmio@o2.pl",
                "website": "http:\/\/www.policealna.chemiktg.pl",
                "ref:regon": "278210897",
                "operator": "Powiat Tarnog\u00f3rski",
                "operator:type": "government",
                "amenity": "college",
                "note": "Parent RSPO: 15816"
            }
        },
        {
            "id": 111429,
            "type": "Feature",
            "geometry": {
                "type": "Point",
                "coordinates": [
                    18.82012,
                    50.4468
                ]
            },
            "properties": {
                "ref:rspo": 111429,
                "official_name": "Niepubliczne Przedszkole \"Bystry Maluszek\"",
                "name": "Niepubliczne Przedszkole \"Bystry Maluszek\"",
                "addr:postcode": "42-612",
                "addr:city": "Tarnowskie G\u00f3ry",
                "addr:street": "W\u0142oska",
                "addr:housenumber": "20",
                "addr:teryt:simc": 943813,
                "addr:teryt:sym_ul": 24524,
                "email": "biuro.przedszkoletg@gmail.com",
                "website": "http:\/\/www.bystrymaluszek.pl",
                "ref:regon": "243205917",
                "ref:vatin": "PL6452166328",
                "operator": "Fundacja Fundamenty Rozwoju",
                "operator:type": "ngo",
                "amenity": "kindergarten"
            }
        },
        {
            "id": 56590,
            "type": "Feature",
            "geometry": {
                "type": "Point",
                "coordinates": [
                    18.86131,
                    50.44691
                ]
            },
            "properties": {
                "ref:rspo": 56590,
                "official_name": "Przedszkole Nr 4",
                "name": "Przedszkole Nr 4",
                "addr:postcode": "42-600",
                "addr:city": "Tarnowskie G\u00f3ry",
                "addr:street": "Henryka Sienkiewicza",
                "addr:housenumber": "5",
                "addr:teryt:simc": 943813,
                "addr:teryt:sym_ul": 19834,
                "phone": "+48 322852736",
                "email": "przedszkole4@vp.pl",
                "website": "http:\/\/www.przedszkole4tg.republika.pl",
                "ref:regon": "271509788",
                "ref:vatin": "PL6452387319",
                "operator": "Gmina Tarnowskie G\u00f3ry",
                "operator:type": "government",
                "amenity": "kindergarten"
            }
        },
        {
            "id": 23129,
            "type": "Feature",
            "geometry": {
                "type": "Point",
                "coordinates": [
                    18.84739,
                    50.44732
                ]
            },
            "properties": {
                "isced:level": "3",
                "ref:rspo": 23129,
                "official_name": "I Liceum Og\u00f3lnokszta\u0142c\u0105ce im. S. Sempo\u0142owskiej",
                "name": "I Liceum Og\u00f3lnokszta\u0142c\u0105ce",
                "addr:postcode": "42-600",
                "addr:city": "Tarnowskie G\u00f3ry",
                "addr:street": "Opolska",
                "addr:housenumber": "28",
                "addr:teryt:simc": 943813,
                "addr:teryt:sym_ul": 15095,
                "phone": "+48 322852845",
                "email": "sekretariat@sempa.pl",
                "website": "http:\/\/www.sempa.pl",
                "ref:regon": "000730603",
                "ref:vatin": "PL6451736166",
                "operator": "Powiat Tarnog\u00f3rski",
                "operator:type": "government",
                "amenity": "school"
            }
        },
        {
            "id": 16605,
            "type": "Feature",
            "geometry": {
                "type": "Point",
                "coordinates": [
                    18.86066,
                    50.44733
                ]
            },
            "properties": {
                "ref:rspo": 16605,
                "official_name": "Wieloprofilowy Zesp\u00f3\u0142 Szk\u00f3\u0142",
                "name": "Wieloprofilowy Zesp\u00f3\u0142 Szk\u00f3\u0142",
                "addr:postcode": "42-600",
                "addr:city": "Tarnowskie G\u00f3ry",
                "addr:street": "Henryka Sienkiewicza",
                "addr:housenumber": "6",
                "addr:teryt:simc": 943813,
                "addr:teryt:sym_ul": 19834,
                "phone": "+48 322852537",
                "email": "wzs_tg@poczta.onet.pl",
                "website": "http:\/\/www.wzstg.pl",
                "ref:regon": "000201046",
                "ref:vatin": "PL6451243742",
                "operator": "Powiat Tarnog\u00f3rski",
                "operator:type": "government",
                "landuse": "education",
                "fixme": "amenity=school, amenity=college albo landuse=education w zale\u017cno\u015bci od tego, jakie plac\u00f3wki wchodz\u0105 w sk\u0142ad zespo\u0142u. Sprawd\u017a, kiedy stosowa\u0107 amenity=* a kiedy landuse=education.",
                "note": "Children RSPO: 24058;24084;275506;275509;275512"
            }
        },
        {
            "id": 24058,
            "type": "Feature",
            "geometry": {
                "type": "Point",
                "coordinates": [
                    18.86066,
                    50.4473
                ]
            },
            "properties": {
                "isced:level": "3",
                "ref:rspo": 24058,
                "official_name": "Bran\u017cowa Szko\u0142a I Stopnia Nr 3",
                "name": "Bran\u017cowa Szko\u0142a I Stopnia Nr 3",
                "addr:postcode": "42-600",
                "addr:city": "Tarnowskie G\u00f3ry",
                "addr:street": "Henryka Sienkiewicza",
                "addr:housenumber": "6",
                "addr:teryt:simc": 943813,
                "addr:teryt:sym_ul": 19834,
                "phone": "+48 322852537",
                "email": "wzs_tg@poczta.onet.pl",
                "website": "http:\/\/www.wzstg.pl",
                "ref:regon": "272124910",
                "operator": "Powiat Tarnog\u00f3rski",
                "operator:type": "government",
                "amenity": "school",
                "note": "Parent RSPO: 16605"
            }
        },
        {
            "id": 24084,
            "type": "Feature",
            "geometry": {
                "type": "Point",
                "coordinates": [
                    18.86066,
                    50.44727
                ]
            },
            "properties": {
                "isced:level": "3",
                "ref:rspo": 24084,
                "official_name": "Technikum Nr 5",
                "name": "Technikum Nr 5",
                "addr:postcode": "42-600",
                "addr:city": "Tarnowskie G\u00f3ry",
                "addr:street": "Henryka Sienkiewicza",
                "addr:housenumber": "6",
                "addr:teryt:simc": 943813,
                "addr:teryt:sym_ul": 19834,
                "phone": "+48 322852537",
                "email": "wzs_tg@poczta.onet.pl",
                "website": "http:\/\/www.wzstg.pl",
                "ref:regon": "273603304",
                "operator": "Powiat Tarnog\u00f3rski",
                "operator:type": "government",
                "amenity": "school",
                "note": "Parent RSPO: 16605"
            }
        },
        {
            "id": 275506,
            "type": "Feature",
            "geometry": {
                "type": "Point",
                "coordinates": [
                    18.86066,
                    50.44724
                ]
            },
            "properties": {
                "isced:level": "4",
                "ref:rspo": 275506,
                "official_name": "Szko\u0142a Policealna Nr 2 w Tarnowskich G\u00f3rach",
                "name": "Szko\u0142a Policealna Nr 2 w Tarnowskich G\u00f3rach",
                "addr:postcode": "42-600",
                "addr:city": "Tarnowskie G\u00f3ry",
                "addr:street": "Henryka Sienkiewicza",
                "addr:housenumber": "6",
                "addr:teryt:simc": 943813,
                "addr:teryt:sym_ul": 19834,
                "phone": "+48 322852537",
                "email": "wzs_tg@poczta.onet.pl",
                "website": "http:\/\/www.wzstg.pl\/",
                "ref:regon": "386926570",
                "operator": "Powiat Tarnog\u00f3rski",
                "operator:type": "government",
                "amenity": "college",
                "note": "Parent RSPO: 16605"
            }
        },
        {
            "id": 275509,
            "type": "Feature",
            "geometry": {
                "type": "Point",
                "coordinates": [
                    18.86066,
                    50.44721
                ]
            },
            "properties": {
                "isced:level": "3",
                "ref:rspo": 275509,
                "official_name": "Bran\u017cowa Szko\u0142a II Stopnia Nr 1 w Tarnowskich G\u00f3rach",
                "name": "Bran\u017cowa Szko\u0142a II Stopnia Nr 1 w Tarnowskich G\u00f3rach",
                "addr:postcode": "42-600",
                "addr:city": "Tarnowskie G\u00f3ry",
                "addr:street": "Henryka Sienkiewicza",
                "addr:housenumber": "6",
                "addr:teryt:simc": 943813,
                "addr:teryt:sym_ul": 19834,
                "phone": "+48 322852537",
                "email": "wzs_tg@poczta.onet.pl",
                "website": "http:\/\/www.wzstg.pl\/",
                "ref:regon": "386926860",
                "operator": "Powiat Tarnog\u00f3rski",
                "operator:type": "government",
                "amenity": "school",
                "note": "Parent RSPO: 16605"
            }
        },
        {
            "id": 275512,
            "type": "Feature",
            "geometry": {
                "type": "Point",
                "coordinates": [
                    18.86066,
                    50.44718
                ]
            },
            "properties": {
                "isced:level": "3",
                "ref:rspo": 275512,
                "official_name": "Liceum Og\u00f3lnokszta\u0142c\u0105ce dla Doros\u0142ych w Tarnowskich G\u00f3rach",
                "name": "Liceum Og\u00f3lnokszta\u0142c\u0105ce dla Doros\u0142ych w Tarnowskich G\u00f3rach",
                "addr:postcode": "42-600",
                "addr:city": "Tarnowskie G\u00f3ry",
                "addr:street": "Henryka Sienkiewicza",
                "addr:housenumber": "6",
                "addr:teryt:simc": 943813,
                "addr:teryt:sym_ul": 19834,
                "phone": "+48 322852537",
                "email": "wzs_tg@poczta.onet.pl",
                "website": "http:\/\/www.wzstg.pl\/",
                "ref:regon": "386927309",
                "operator": "Powiat Tarnog\u00f3rski",
                "operator:type": "government",
                "amenity": "school",
                "note": "Parent RSPO: 16605"
            }
        },
        {
            "id": 16951,
            "type": "Feature",
            "geometry": {
                "type": "Point",
                "coordinates": [
                    18.8627323,
                    50.4474301
                ]
            },
            "properties": {
                "ref:rspo": 16951,
                "official_name": "Zesp\u00f3\u0142 Szk\u00f3\u0142 Techniczno - Us\u0142ugowych im. Jana Paw\u0142a Ii",
                "name": "Zesp\u00f3\u0142 Szk\u00f3\u0142 Techniczno - Us\u0142ugowych",
                "addr:postcode": "42-600",
                "addr:city": "Tarnowskie G\u00f3ry",
                "addr:street": "Pokoju",
                "addr:housenumber": "14",
                "addr:teryt:simc": 943813,
                "addr:teryt:sym_ul": 16942,
                "phone": "+48 327191158",
                "email": "sekretariat@zstu.tg.edu.pl",
                "website": "http:\/\/www.zstu.tg.edu.pl",
                "ref:regon": "000126899",
                "ref:vatin": "PL6451879380",
                "operator": "Powiat Tarnog\u00f3rski",
                "operator:type": "government",
                "landuse": "education",
                "fixme": "amenity=school, amenity=college albo landuse=education w zale\u017cno\u015bci od tego, jakie plac\u00f3wki wchodz\u0105 w sk\u0142ad zespo\u0142u. Sprawd\u017a, kiedy stosowa\u0107 amenity=* a kiedy landuse=education.",
                "note": "Children RSPO: 24637;27799"
            }
        },
        {
            "id": 24637,
            "type": "Feature",
            "geometry": {
                "type": "Point",
                "coordinates": [
                    18.8627323,
                    50.447400099999996
                ]
            },
            "properties": {
                "isced:level": "3",
                "ref:rspo": 24637,
                "official_name": "Technikum Nr 12",
                "name": "Technikum Nr 12",
                "addr:postcode": "42-600",
                "addr:city": "Tarnowskie G\u00f3ry",
                "addr:street": "Pokoju",
                "addr:housenumber": "14",
                "addr:teryt:simc": 943813,
                "addr:teryt:sym_ul": 16942,
                "phone": "+48 327191158",
                "email": "sekretariat@zstu.tg.edu.pl",
                "website": "http:\/\/www.zstu.tg.edu.pl",
                "ref:regon": "272206601",
                "operator": "Powiat Tarnog\u00f3rski",
                "operator:type": "government",
                "amenity": "school",
                "note": "Parent RSPO: 16951"
            }
        },
        {
            "id": 27799,
            "type": "Feature",
            "geometry": {
                "type": "Point",
                "coordinates": [
                    18.8627323,
                    50.4473701
                ]
            },
            "properties": {
                "isced:level": "3",
                "ref:rspo": 27799,
                "official_name": "Vi Liceum Og\u00f3lnokszta\u0142cace",
                "name": "Vi Liceum Og\u00f3lnokszta\u0142cace",
                "addr:postcode": "42-600",
                "addr:city": "Tarnowskie G\u00f3ry",
                "addr:street": "Pokoju",
                "addr:housenumber": "14",
                "addr:teryt:simc": 943813,
                "addr:teryt:sym_ul": 16942,
                "phone": "+48 327191158",
                "email": "sekretariat@zstu.tg.edu.pl",
                "website": "http:\/\/www.zstu.tg.edu.pl",
                "ref:regon": "276935691",
                "operator": "Powiat Tarnog\u00f3rski",
                "operator:type": "government",
                "amenity": "school",
                "note": "Parent RSPO: 16951"
            }
        },
        {
            "id": 267041,
            "type": "Feature",
            "geometry": {
                "type": "Point",
                "coordinates": [
                    18.82656,
                    50.44797
                ]
            },
            "properties": {
                "ref:rspo": 267041,
                "official_name": "Niepubliczne Przedszkole Muzyczno-J\u0119zykowe Z Oddzia\u0142ami Integracyjnymi Tw\u00f3rcza Chatka",
                "name": "Niepubliczne Przedszkole Muzyczno-J\u0119zykowe Z Oddzia\u0142ami Integracyjnymi Tw\u00f3rcza Chatka",
                "addr:postcode": "42-612",
                "addr:city": "Tarnowskie G\u00f3ry",
                "addr:street": "Gustawa Morcinka",
                "addr:housenumber": "26",
                "addr:teryt:simc": 943813,
                "addr:teryt:sym_ul": 13279,
                "phone": "+48 515061834",
                "email": "kontakt@studioartmusic.pl",
                "website": "http:\/\/www.tworczachatka.pl",
                "ref:regon": "369820906",
                "operator": "Pawe\u0142 Szmaj",
                "operator:type": "private",
                "amenity": "kindergarten"
            }
        },
        {
            "id": 266440,
            "type": "Feature",
            "geometry": {
                "type": "Point",
                "coordinates": [
                    18.84707,
                    50.44811
                ]
            },
            "properties": {
                "ref:rspo": 266440,
                "official_name": "Akademia Mikropigmentacji Linel Grupa Kamajo",
                "name": "Akademia Mikropigmentacji Linel Grupa Kamajo",
                "addr:postcode": "42-600",
                "addr:city": "Tarnowskie G\u00f3ry",
                "addr:street": "Opolska",
                "addr:housenumber": "31",
                "addr:teryt:simc": 943813,
                "addr:teryt:sym_ul": 15095,
                "ref:regon": "369499060",
                "ref:vatin": "PL6451508086",
                "operator": "Monika Wi\u015bniewska",
                "operator:type": "private",
                "fixme": "w zale\u017cno\u015bci od przedmiotu dzia\u0142alno\u015bci (np. amenity=training + training=*, amenity=dancing_school, amenity=language_school, amenity=music_school)"
            }
        },
        {
            "id": 57808,
            "type": "Feature",
            "geometry": {
                "type": "Point",
                "coordinates": [
                    18.82466,
                    50.44816
                ]
            },
            "properties": {
                "ref:rspo": 57808,
                "official_name": "Przedszkole Nr 20",
                "name": "Przedszkole Nr 20",
                "addr:postcode": "42-612",
                "addr:city": "Tarnowskie G\u00f3ry",
                "addr:street": "Gustawa Morcinka",
                "addr:housenumber": "7",
                "addr:teryt:simc": 943813,
                "addr:teryt:sym_ul": 13279,
                "phone": "+48 322854871",
                "email": "przedszkoletg20@interia.pl",
                "website": "http:\/\/www.przedszkolenr20.prv.pl",
                "ref:regon": "271510018",
                "ref:vatin": "PL6452387236",
                "operator": "Gmina Tarnowskie G\u00f3ry",
                "operator:type": "government",
                "amenity": "kindergarten"
            }
        },
        {
            "id": 16638,
            "type": "Feature",
            "geometry": {
                "type": "Point",
                "coordinates": [
                    18.85311,
                    50.44888
                ]
            },
            "properties": {
                "ref:rspo": 16638,
                "official_name": "Zesp\u00f3\u0142 Szk\u00f3\u0142 Budowlano - Architektonicznych",
                "name": "Zesp\u00f3\u0142 Szk\u00f3\u0142 Budowlano - Architektonicznych",
                "addr:postcode": "42-600",
                "addr:city": "Tarnowskie G\u00f3ry",
                "addr:street": "Stefana Okrzei",
                "addr:housenumber": "3",
                "addr:teryt:simc": 943813,
                "addr:teryt:sym_ul": 14914,
                "phone": "+48 322852824",
                "email": "techbud@interia.pl",
                "website": "http:\/\/www.budowlanka.tgory.pl",
                "ref:regon": "000201069",
                "ref:vatin": "PL6451159421",
                "operator": "Powiat Tarnog\u00f3rski",
                "operator:type": "government",
                "landuse": "education",
                "fixme": "amenity=school, amenity=college albo landuse=education w zale\u017cno\u015bci od tego, jakie plac\u00f3wki wchodz\u0105 w sk\u0142ad zespo\u0142u. Sprawd\u017a, kiedy stosowa\u0107 amenity=* a kiedy landuse=education.",
                "note": "Children RSPO: 18970;18972"
            }
        },
        {
            "id": 18970,
            "type": "Feature",
            "geometry": {
                "type": "Point",
                "coordinates": [
                    18.85311,
                    50.44885
                ]
            },
            "properties": {
                "isced:level": "3",
                "ref:rspo": 18970,
                "official_name": "Bran\u017cowa Szko\u0142a I Stopnia Nr 1",
                "name": "Bran\u017cowa Szko\u0142a I Stopnia Nr 1",
                "addr:postcode": "42-600",
                "addr:city": "Tarnowskie G\u00f3ry",
                "addr:street": "Stefana Okrzei",
                "addr:housenumber": "3",
                "addr:teryt:simc": 943813,
                "addr:teryt:sym_ul": 14914,
                "phone": "+48 322852824",
                "email": "techbud@interia.pl",
                "website": "http:\/\/www.budowlanka.tgory.pl",
                "ref:regon": "272124524",
                "operator": "Powiat Tarnog\u00f3rski",
                "operator:type": "government",
                "amenity": "school",
                "note": "Parent RSPO: 16638"
            }
        },
        {
            "id": 18972,
            "type": "Feature",
            "geometry": {
                "type": "Point",
                "coordinates": [
                    18.85311,
                    50.448820000000005
                ]
            },
            "properties": {
                "isced:level": "3",
                "ref:rspo": 18972,
                "official_name": "Technikum Nr 2",
                "name": "Technikum Nr 2",
                "addr:postcode": "42-600",
                "addr:city": "Tarnowskie G\u00f3ry",
                "addr:street": "Stefana Okrzei",
                "addr:housenumber": "3",
                "addr:teryt:simc": 943813,
                "addr:teryt:sym_ul": 14914,
                "phone": "+48 322852824",
                "email": "techbud@interia.pl",
                "website": "http:\/\/www.budowlanka.tgory.pl",
                "ref:regon": "272124576",
                "operator": "Powiat Tarnog\u00f3rski",
                "operator:type": "government",
                "amenity": "school",
                "note": "Parent RSPO: 16638"
            }
        },
        {
            "id": 263401,
            "type": "Feature",
            "geometry": {
                "type": "Point",
                "coordinates": [
                    18.83414,
                    50.44919
                ]
            },
            "properties": {
                "isced:level": "1;2",
                "ref:rspo": 263401,
                "official_name": "Niepubliczna Szko\u0142a Podstawowa \"Centrum Rozwoju Dziecka\"",
                "name": "Niepubliczna Szko\u0142a Podstawowa \"Centrum Rozwoju Dziecka\"",
                "addr:postcode": "42-612",
                "addr:city": "Tarnowskie G\u00f3ry",
                "addr:street": "Opatowicka",
                "addr:housenumber": "126A",
                "addr:teryt:simc": 943813,
                "addr:teryt:sym_ul": 15070,
                "email": "biuro.przedszkoletg@gmail.com",
                "website": "http:\/\/www.szkolacrd.com",
                "ref:regon": "368186270",
                "operator": "Centrum Rozwoju Sp\u00f3\u0142ka Z Ograniczon\u0105 Odpowiedzialno\u015bci\u0105",
                "operator:type": "private",
                "amenity": "school"
            }
        },
        {
            "id": 16583,
            "type": "Feature",
            "geometry": {
                "type": "Point",
                "coordinates": [
                    18.86002,
                    50.44919
                ]
            },
            "properties": {
                "ref:rspo": 16583,
                "official_name": "Powiatowa Poradnia Psychologiczno - Pedagogiczna",
                "name": "Powiatowa Poradnia Psychologiczno - Pedagogiczna",
                "addr:postcode": "42-600",
                "addr:city": "Tarnowskie G\u00f3ry",
                "addr:street": "Henryka Sienkiewicza",
                "addr:housenumber": "16",
                "addr:teryt:simc": 943813,
                "addr:teryt:sym_ul": 19834,
                "phone": "+48 322854367",
                "email": "pppptgdyr@onet.pl",
                "website": "http:\/\/www.poradniatg.pl",
                "ref:regon": "276924204",
                "ref:vatin": "PL6452236721",
                "operator": "Powiat Tarnog\u00f3rski",
                "operator:type": "government",
                "healthcare": "counselling",
                "counselling_type": "education",
                "fixme": "w zale\u017cno\u015bci od przedmiotu dzia\u0142alno\u015bci (np. healthcare=counselling + counselling_type=education albo healthcare=psychotherapist)"
            }
        },
        {
            "id": 57805,
            "type": "Feature",
            "geometry": {
                "type": "Point",
                "coordinates": [
                    18.8565546,
                    50.4495181
                ]
            },
            "properties": {
                "ref:rspo": 57805,
                "official_name": "Przedszkole Nr 11",
                "name": "Przedszkole Nr 11",
                "addr:postcode": "42-600",
                "addr:city": "Tarnowskie G\u00f3ry",
                "addr:street": "Adama Mickiewicza",
                "addr:housenumber": "18",
                "addr:teryt:simc": 943813,
                "addr:teryt:sym_ul": 12740,
                "phone": "+48 322851871",
                "email": "przedszkole11tarngory@gmail.com",
                "website": "http:\/\/www.przedszkole11.tgory.pl",
                "ref:regon": "271590767",
                "ref:vatin": "PL6452387288",
                "operator": "Gmina Tarnowskie G\u00f3ry",
                "operator:type": "government",
                "amenity": "kindergarten"
            }
        },
        {
            "id": 16950,
            "type": "Feature",
            "geometry": {
                "type": "Point",
                "coordinates": [
                    18.86107,
                    50.44962
                ]
            },
            "properties": {
                "ref:rspo": 16950,
                "official_name": "Zesp\u00f3\u0142 Szk\u00f3\u0142 Technicznych I Og\u00f3lnokszta\u0142c\u0105cych",
                "name": "Zesp\u00f3\u0142 Szk\u00f3\u0142 Technicznych I Og\u00f3lnokszta\u0142c\u0105cych",
                "addr:postcode": "42-600",
                "addr:city": "Tarnowskie G\u00f3ry",
                "addr:street": "Henryka Sienkiewicza",
                "addr:housenumber": "23",
                "addr:teryt:simc": 943813,
                "addr:teryt:sym_ul": 19834,
                "phone": "+48 322852857",
                "email": "dyrekcja@mechaniktg.pl",
                "website": "http:\/\/www.mechaniktg.pl",
                "ref:regon": "000200963",
                "ref:vatin": "PL6451243699",
                "operator": "Powiat Tarnog\u00f3rski",
                "operator:type": "government",
                "landuse": "education",
                "fixme": "amenity=school, amenity=college albo landuse=education w zale\u017cno\u015bci od tego, jakie plac\u00f3wki wchodz\u0105 w sk\u0142ad zespo\u0142u. Sprawd\u017a, kiedy stosowa\u0107 amenity=* a kiedy landuse=education.",
                "note": "Children RSPO: 23624;23655"
            }
        },
        {
            "id": 23624,
            "type": "Feature",
            "geometry": {
                "type": "Point",
                "coordinates": [
                    18.86107,
                    50.44959
                ]
            },
            "properties": {
                "isced:level": "3",
                "ref:rspo": 23624,
                "official_name": "Technikum Nr 4",
                "name": "Technikum Nr 4",
                "addr:postcode": "42-600",
                "addr:city": "Tarnowskie G\u00f3ry",
                "addr:street": "Henryka Sienkiewicza",
                "addr:housenumber": "23",
                "addr:teryt:simc": 943813,
                "addr:teryt:sym_ul": 19834,
                "phone": "+48 322852857",
                "email": "mechaniktg@onet.eu",
                "website": "http:\/\/www.mechaniktg.pl",
                "ref:regon": "271955186",
                "operator": "Powiat Tarnog\u00f3rski",
                "operator:type": "government",
                "amenity": "school",
                "note": "Parent RSPO: 16950"
            }
        },
        {
            "id": 23655,
            "type": "Feature",
            "geometry": {
                "type": "Point",
                "coordinates": [
                    18.86107,
                    50.449560000000005
                ]
            },
            "properties": {
                "isced:level": "3",
                "ref:rspo": 23655,
                "official_name": "Bran\u017cowa Szko\u0142a I Stopnia Nr 2",
                "name": "Bran\u017cowa Szko\u0142a I Stopnia Nr 2",
                "addr:postcode": "42-600",
                "addr:city": "Tarnowskie G\u00f3ry",
                "addr:street": "Henryka Sienkiewicza",
                "addr:housenumber": "23",
                "addr:teryt:simc": 943813,
                "addr:teryt:sym_ul": 19834,
                "phone": "+48 322852857",
                "email": "mechaniktg@onet.eu",
                "website": "http:\/\/www.mechaniktg.pl",
                "ref:regon": "271955200",
                "operator": "Powiat Tarnog\u00f3rski",
                "operator:type": "government",
                "amenity": "school",
                "note": "Parent RSPO: 16950"
            }
        },
        {
            "id": 54135,
            "type": "Feature",
            "geometry": {
                "type": "Point",
                "coordinates": [
                    18.8523463,
                    50.4498071
                ]
            },
            "properties": {
                "isced:level": "1;2",
                "ref:rspo": 54135,
                "official_name": "Szko\u0142a Podstawowa Nr 9 im.miko\u0142aja Kopernika",
                "name": "Szko\u0142a Podstawowa Nr 9 im.miko\u0142aja Kopernika",
                "addr:postcode": "42-600",
                "addr:city": "Tarnowskie G\u00f3ry",
                "addr:street": "Janusza Korczaka",
                "addr:housenumber": "2",
                "addr:teryt:simc": 943813,
                "addr:teryt:sym_ul": 9329,
                "phone": "+48 322854092",
                "email": "sp_9@interia.pl",
                "website": "http:\/\/www.sp9tg.edupage.pl",
                "ref:regon": "000730514",
                "ref:vatin": "PL6451159220",
                "operator": "Gmina Tarnowskie G\u00f3ry",
                "operator:type": "government",
                "amenity": "school"
            }
        },
        {
            "id": 61443,
            "type": "Feature",
            "geometry": {
                "type": "Point",
                "coordinates": [
                    18.87884,
                    50.4502499
                ]
            },
            "properties": {
                "ref:rspo": 61443,
                "official_name": "Przedszkole Niepubliczne \"Bajkowy Zameczek\"",
                "name": "Przedszkole Niepubliczne \"Bajkowy Zameczek\"",
                "addr:postcode": "42-600",
                "addr:city": "Tarnowskie G\u00f3ry",
                "addr:street": "W\u0142adys\u0142awa Broniewskiego",
                "addr:housenumber": "27",
                "addr:teryt:simc": 943813,
                "addr:teryt:sym_ul": 2125,
                "phone": "+48 322842717",
                "email": "przedszkole@bajkowyzameczek.pl",
                "website": "http:\/\/www.bajkowyzameczek.pl",
                "ref:regon": "243079200",
                "ref:vatin": "PL6261680416",
                "operator": "Aneta Pasieka",
                "operator:type": "private",
                "amenity": "kindergarten"
            }
        },
        {
            "id": 54134,
            "type": "Feature",
            "geometry": {
                "type": "Point",
                "coordinates": [
                    18.88429,
                    50.45076
                ]
            },
            "properties": {
                "isced:level": "1;2",
                "ref:rspo": 54134,
                "official_name": "Szko\u0142a Podstawowa Nr 5 im. Kr\u00f3lowej Jadwigi",
                "name": "Szko\u0142a Podstawowa Nr 5",
                "addr:postcode": "42-600",
                "addr:city": "Tarnowskie G\u00f3ry",
                "addr:street": "Le\u015bna",
                "addr:housenumber": "23",
                "addr:teryt:simc": 943813,
                "addr:teryt:sym_ul": 10898,
                "phone": "+48 322852740",
                "email": "szkopod5@poczta.onet.pl",
                "website": "http:\/\/www.sp5.edupage.org",
                "ref:regon": "000730490",
                "ref:vatin": "PL6451159177",
                "operator": "Gmina Tarnowskie G\u00f3ry",
                "operator:type": "government",
                "amenity": "school"
            }
        },
        {
            "id": 103507,
            "type": "Feature",
            "geometry": {
                "type": "Point",
                "coordinates": [
                    18.86194,
                    50.45079
                ]
            },
            "properties": {
                "ref:rspo": 103507,
                "official_name": "Centrum Edukacyjne Future",
                "name": "Centrum Edukacyjne Future",
                "addr:postcode": "42-600",
                "addr:city": "Tarnowskie G\u00f3ry",
                "addr:street": "Henryka Sienkiewicza",
                "addr:housenumber": "39",
                "addr:teryt:simc": 943813,
                "addr:teryt:sym_ul": 19834,
                "phone": "+48 322856368",
                "ref:regon": "243123013",
                "operator": "Alicja Ga\u0142\u0105zka",
                "operator:type": "private",
                "fixme": "w zale\u017cno\u015bci od przedmiotu dzia\u0142alno\u015bci (np. amenity=training + training=*, amenity=dancing_school, amenity=language_school, amenity=music_school)"
            }
        },
        {
            "id": 130610,
            "type": "Feature",
            "geometry": {
                "type": "Point",
                "coordinates": [
                    18.86194,
                    50.450759999999995
                ]
            },
            "properties": {
                "ref:rspo": 130610,
                "official_name": "Centrum Kszta\u0142cenia Ustawicznego Future",
                "name": "Centrum Kszta\u0142cenia Ustawicznego Future",
                "addr:postcode": "42-600",
                "addr:city": "Tarnowskie G\u00f3ry",
                "addr:street": "Henryka Sienkiewicza",
                "addr:housenumber": "39",
                "addr:teryt:simc": 943813,
                "addr:teryt:sym_ul": 19834,
                "phone": "+48 322856368",
                "ref:regon": "364243491",
                "operator": "Alicja Ga\u0142\u0105zka",
                "operator:type": "private",
                "fixme": "w zale\u017cno\u015bci od przedmiotu dzia\u0142alno\u015bci (np. amenity=training + training=*, amenity=dancing_school, amenity=language_school, amenity=music_school) albo amenity=school, amenity=college, albo landuse=education w zale\u017cno\u015bci od tego, jakie plac\u00f3wki wchodz\u0105 w sk\u0142ad zespo\u0142u. Sprawd\u017a, kiedy stosowa\u0107 amenity=* a kiedy landuse=education."
            }
        },
        {
            "id": 132391,
            "type": "Feature",
            "geometry": {
                "type": "Point",
                "coordinates": [
                    18.86194,
                    50.45073
                ]
            },
            "properties": {
                "ref:rspo": 132391,
                "official_name": "Przedszkole Publiczne Dwuj\u0119zyczny Maluch",
                "name": "Przedszkole Publiczne Dwuj\u0119zyczny Maluch",
                "addr:postcode": "42-600",
                "addr:city": "Tarnowskie G\u00f3ry",
                "addr:street": "Henryka Sienkiewicza",
                "addr:housenumber": "39",
                "addr:teryt:simc": 943813,
                "addr:teryt:sym_ul": 19834,
                "phone": "+48 322856368",
                "email": "biuro@future.edu.pl",
                "website": "http:\/\/www.future.edu.pl",
                "ref:regon": "365588105",
                "operator": "Alicja Ga\u0142\u0105zka",
                "operator:type": "private",
                "amenity": "kindergarten"
            }
        },
        {
            "id": 56591,
            "type": "Feature",
            "geometry": {
                "type": "Point",
                "coordinates": [
                    18.879674,
                    50.4508961
                ]
            },
            "properties": {
                "ref:rspo": 56591,
                "official_name": "Przedszkole Nr 5",
                "name": "Przedszkole Nr 5",
                "addr:postcode": "42-600",
                "addr:city": "Tarnowskie G\u00f3ry",
                "addr:street": "Le\u015bna",
                "addr:housenumber": "6",
                "addr:teryt:simc": 943813,
                "addr:teryt:sym_ul": 10898,
                "phone": "+48 322854539",
                "email": "przedszkole5tg@gmail.com",
                "website": "http:\/\/www.przedszkolenr5tg.edupage.org",
                "ref:regon": "271509794",
                "ref:vatin": "PL6452387207",
                "operator": "Gmina Tarnowskie G\u00f3ry",
                "operator:type": "government",
                "amenity": "kindergarten"
            }
        },
        {
            "id": 75584,
            "type": "Feature",
            "geometry": {
                "type": "Point",
                "coordinates": [
                    18.87061,
                    50.45164
                ]
            },
            "properties": {
                "ref:rspo": 75584,
                "official_name": "Pa\u0144stwowa Szko\u0142a Muzyczna I St. im. Ignacego Jana Paderewskiego w Tarnowskich G\u00f3rach",
                "name": "Pa\u0144stwowa Szko\u0142a Muzyczna I St.",
                "addr:postcode": "42-600",
                "addr:city": "Tarnowskie G\u00f3ry",
                "addr:street": "9 Maja",
                "addr:housenumber": "1",
                "addr:teryt:simc": 943813,
                "addr:teryt:sym_ul": 11941,
                "phone": "+48 322854324",
                "email": "sekretariat@psmtg.pl",
                "website": "http:\/\/www.psmtg.pl",
                "ref:regon": "000287177",
                "operator": "Ministerstwo Kultury I Dziedzictwa Narodowego",
                "operator:type": "public",
                "amenity": "music_school"
            }
        },
        {
            "id": 127158,
            "type": "Feature",
            "geometry": {
                "type": "Point",
                "coordinates": [
                    18.85415,
                    50.45378
                ]
            },
            "properties": {
                "ref:rspo": 127158,
                "official_name": "Przedszkole Publiczne \"Uniwersytet Przedszkolaka\" Z Oddzia\u0142ami Integracyjnymi",
                "name": "Przedszkole Publiczne \"Uniwersytet Przedszkolaka\" Z Oddzia\u0142ami Integracyjnymi",
                "addr:postcode": "42-600",
                "addr:city": "Tarnowskie G\u00f3ry",
                "addr:street": "Janusza Korczaka",
                "addr:housenumber": "32A",
                "addr:teryt:simc": 943813,
                "addr:teryt:sym_ul": 9329,
                "email": "be_ata@wp.pl",
                "website": "http:\/\/uniwersytet-przedszkolaka.pl",
                "ref:regon": "361159620",
                "ref:vatin": "PL5751612522",
                "operator": "Beata Kaczmarek",
                "operator:type": "private",
                "amenity": "kindergarten"
            }
        },
        {
            "id": 57813,
            "type": "Feature",
            "geometry": {
                "type": "Point",
                "coordinates": [
                    18.81533,
                    50.45594
                ]
            },
            "properties": {
                "ref:rspo": 57813,
                "official_name": "Przedszkole Nr 26",
                "name": "Przedszkole Nr 26",
                "addr:postcode": "42-680",
                "addr:city": "Tarnowskie G\u00f3ry",
                "addr:street": "Jana Pastuszki",
                "addr:housenumber": "3",
                "addr:teryt:simc": 943813,
                "addr:teryt:sym_ul": 15784,
                "phone": "+48 322842084",
                "email": "p26opatowice@gmail.com",
                "website": "http:\/\/www.p-26.edupage.org",
                "ref:regon": "271509995",
                "ref:vatin": "PL6452387213",
                "operator": "Gmina Tarnowskie G\u00f3ry",
                "operator:type": "government",
                "amenity": "kindergarten"
            }
        },
        {
            "id": 31545,
            "type": "Feature",
            "geometry": {
                "type": "Point",
                "coordinates": [
                    18.85906,
                    50.46093
                ]
            },
            "properties": {
                "ref:rspo": 31545,
                "official_name": "Zesp\u00f3\u0142 Szkolno-Przedszkolny Nr 1",
                "name": "Zesp\u00f3\u0142 Szkolno-Przedszkolny Nr 1",
                "addr:postcode": "42-600",
                "addr:city": "Tarnowskie G\u00f3ry",
                "addr:street": "Juliusza S\u0142owackiego",
                "addr:housenumber": "34",
                "addr:teryt:simc": 943813,
                "addr:teryt:sym_ul": 20291,
                "phone": "+48 322854194",
                "email": "zsp1@sowice.pl",
                "website": "http:\/\/www.zsps1tg.edupage.org",
                "ref:regon": "277613417",
                "ref:vatin": "PL6452259461",
                "operator": "Gmina Tarnowskie G\u00f3ry",
                "operator:type": "government",
                "landuse": "education",
                "fixme": "amenity=school, amenity=college albo landuse=education w zale\u017cno\u015bci od tego, jakie plac\u00f3wki wchodz\u0105 w sk\u0142ad zespo\u0142u. Sprawd\u017a, kiedy stosowa\u0107 amenity=* a kiedy landuse=education.",
                "note": "Children RSPO: 79179;80372"
            }
        },
        {
            "id": 79179,
            "type": "Feature",
            "geometry": {
                "type": "Point",
                "coordinates": [
                    18.85906,
                    50.460899999999995
                ]
            },
            "properties": {
                "ref:rspo": 79179,
                "official_name": "Przedszkole Nr 8",
                "name": "Przedszkole Nr 8",
                "addr:postcode": "42-600",
                "addr:city": "Tarnowskie G\u00f3ry",
                "addr:street": "Juliusza S\u0142owackiego",
                "addr:housenumber": "34",
                "addr:teryt:simc": 943813,
                "addr:teryt:sym_ul": 20291,
                "phone": "+48 322854194",
                "email": "zsps1@pn.pl",
                "website": "http:\/\/www.zsps1tg.edupage.org",
                "ref:regon": "271509825",
                "operator": "Gmina Tarnowskie G\u00f3ry",
                "operator:type": "government",
                "amenity": "kindergarten",
                "note": "Parent RSPO: 31545"
            }
        },
        {
            "id": 80372,
            "type": "Feature",
            "geometry": {
                "type": "Point",
                "coordinates": [
                    18.85906,
                    50.46087
                ]
            },
            "properties": {
                "isced:level": "1;2",
                "ref:rspo": 80372,
                "official_name": "Szko\u0142a Podstawowa Nr 6 im.alfonsa Zgrzebnioka",
                "name": "Szko\u0142a Podstawowa Nr 6 im.alfonsa Zgrzebnioka",
                "addr:postcode": "42-600",
                "addr:city": "Tarnowskie G\u00f3ry",
                "addr:street": "Juliusza S\u0142owackiego",
                "addr:housenumber": "34",
                "addr:teryt:simc": 943813,
                "addr:teryt:sym_ul": 20291,
                "phone": "+48 322854194",
                "email": "zsps1@pn.pl",
                "website": "http:\/\/www.zsps1tg.edupage.org",
                "ref:regon": "000730508",
                "ref:vatin": "PL6452259461",
                "operator": "Gmina Tarnowskie G\u00f3ry",
                "operator:type": "government",
                "amenity": "school",
                "note": "Parent RSPO: 31545"
            }
        },
        {
            "id": 31548,
            "type": "Feature",
            "geometry": {
                "type": "Point",
                "coordinates": [
                    18.79241,
                    50.4694
                ]
            },
            "properties": {
                "ref:rspo": 31548,
                "official_name": "Zesp\u00f3\u0142 Szkolno-Przedszkolny Nr 4",
                "name": "Zesp\u00f3\u0142 Szkolno-Przedszkolny Nr 4",
                "addr:postcode": "42-680",
                "addr:city": "Tarnowskie G\u00f3ry",
                "addr:street": "Powsta\u0144c\u00f3w Warszawskich",
                "addr:housenumber": "42",
                "addr:teryt:simc": 943813,
                "addr:teryt:sym_ul": 17368,
                "phone": "+48 322841267",
                "email": "szkzsp@wp.pl",
                "website": "https:\/\/zsp4tg.edupage.org\/",
                "ref:regon": "240122421",
                "ref:vatin": "PL6452373731",
                "operator": "Gmina Tarnowskie G\u00f3ry",
                "operator:type": "government",
                "landuse": "education",
                "fixme": "amenity=school, amenity=college albo landuse=education w zale\u017cno\u015bci od tego, jakie plac\u00f3wki wchodz\u0105 w sk\u0142ad zespo\u0142u. Sprawd\u017a, kiedy stosowa\u0107 amenity=* a kiedy landuse=education.",
                "note": "Children RSPO: 79184;133883"
            }
        },
        {
            "id": 79184,
            "type": "Feature",
            "geometry": {
                "type": "Point",
                "coordinates": [
                    18.79241,
                    50.46937
                ]
            },
            "properties": {
                "ref:rspo": 79184,
                "official_name": "Przedszkole Nr 18 \"S\u0142oneczna 18\"",
                "name": "Przedszkole Nr 18 \"S\u0142oneczna 18\"",
                "addr:postcode": "42-680",
                "addr:city": "Tarnowskie G\u00f3ry",
                "addr:street": "Powsta\u0144c\u00f3w Warszawskich",
                "addr:housenumber": "42",
                "addr:teryt:simc": 943813,
                "addr:teryt:sym_ul": 17368,
                "phone": "+48 322841267",
                "email": "szkzsp@wp.pl",
                "website": "https:\/\/zsp4tg.edupage.org\/a\/przedszkole",
                "ref:regon": "271509914",
                "operator": "Gmina Tarnowskie G\u00f3ry",
                "operator:type": "government",
                "amenity": "kindergarten",
                "note": "Parent RSPO: 31548"
            }
        },
        {
            "id": 133883,
            "type": "Feature",
            "geometry": {
                "type": "Point",
                "coordinates": [
                    18.79241,
                    50.46934
                ]
            },
            "properties": {
                "isced:level": "1;2",
                "ref:rspo": 133883,
                "official_name": "Szko\u0142a Podstawowa Nr 14",
                "name": "Szko\u0142a Podstawowa Nr 14",
                "addr:postcode": "42-680",
                "addr:city": "Tarnowskie G\u00f3ry",
                "addr:street": "Powsta\u0144c\u00f3w Warszawskich",
                "addr:housenumber": "42",
                "addr:teryt:simc": 943813,
                "addr:teryt:sym_ul": 17368,
                "phone": "+48 322841267",
                "email": "szkzsp@wp.pl",
                "website": "https:\/\/zsp4tg.edupage.org\/",
                "ref:regon": "367706550",
                "operator": "Gmina Tarnowskie G\u00f3ry",
                "operator:type": "government",
                "amenity": "school",
                "note": "Parent RSPO: 31548"
            }
        },
        {
            "id": 57812,
            "type": "Feature",
            "geometry": {
                "type": "Point",
                "coordinates": [
                    18.8037,
                    50.47791
                ]
            },
            "properties": {
                "ref:rspo": 57812,
                "official_name": "T\u0119czowe Przedszkole Z Oddzia\u0142ami Integracyjnymi Nr 24",
                "name": "T\u0119czowe Przedszkole Z Oddzia\u0142ami Integracyjnymi Nr 24",
                "addr:postcode": "42-609",
                "addr:city": "Tarnowskie G\u00f3ry",
                "addr:street": "Strzybnicka",
                "addr:housenumber": "1",
                "addr:teryt:simc": 943813,
                "addr:teryt:sym_ul": 21401,
                "phone": "+48 322841494",
                "email": "teczoweprzedszkole@op.pl",
                "website": "http:\/\/www.p24.eoswiata.pl",
                "ref:regon": "271509972",
                "ref:vatin": "PL6452387087",
                "operator": "Gmina Tarnowskie G\u00f3ry",
                "operator:type": "government",
                "amenity": "kindergarten"
            }
        },
        {
            "id": 54140,
            "type": "Feature",
            "geometry": {
                "type": "Point",
                "coordinates": [
                    18.8023,
                    50.4792599
                ]
            },
            "properties": {
                "isced:level": "1;2",
                "ref:rspo": 54140,
                "official_name": "Szko\u0142a Podstawowa Z Oddzia\u0142ami Integracyjnymi Nr 13",
                "name": "Szko\u0142a Podstawowa Z Oddzia\u0142ami Integracyjnymi Nr 13",
                "addr:postcode": "42-609",
                "addr:city": "Tarnowskie G\u00f3ry",
                "addr:street": "Armii Krajowej",
                "addr:housenumber": "1",
                "addr:teryt:simc": 943813,
                "addr:teryt:sym_ul": 432,
                "phone": "+48 322841770",
                "email": "sp13tg@strong-pc.pl",
                "website": "http:\/\/www.sp13.tgory.pl",
                "ref:regon": "000730550",
                "ref:vatin": "PL6451159303",
                "operator": "Gmina Tarnowskie G\u00f3ry",
                "operator:type": "government",
                "amenity": "school"
            }
        },
        {
            "id": 131512,
            "type": "Feature",
            "geometry": {
                "type": "Point",
                "coordinates": [
                    18.79132,
                    50.48013
                ]
            },
            "properties": {
                "ref:rspo": 131512,
                "official_name": "Przedszkole Niepubliczne Mniami Przedszkole Ekologiczne Rafa\u0142 Przyby\u0142a",
                "name": "Przedszkole Niepubliczne Mniami Przedszkole Ekologiczne Rafa\u0142 Przyby\u0142a",
                "addr:postcode": "42-680",
                "addr:city": "Tarnowskie G\u00f3ry",
                "addr:street": "Zag\u00f3rska",
                "addr:housenumber": "60",
                "addr:teryt:simc": 943813,
                "addr:teryt:sym_ul": 25371,
                "email": "przedszkolemniami@gmail.com",
                "website": "http:\/\/www.przedszkole-mniami.pl",
                "ref:regon": "365204754",
                "operator": "Rafa\u0142 Przyby\u0142a",
                "operator:type": "private",
                "amenity": "kindergarten"
            }
        },
        {
            "id": 31546,
            "type": "Feature",
            "geometry": {
                "type": "Point",
                "coordinates": [
                    18.81203,
                    50.49608
                ]
            },
            "properties": {
                "ref:rspo": 31546,
                "official_name": "Zesp\u00f3\u0142 Szkolno-Przedszkolny Nr 2",
                "name": "Zesp\u00f3\u0142 Szkolno-Przedszkolny Nr 2",
                "addr:postcode": "42-609",
                "addr:city": "Tarnowskie G\u00f3ry",
                "addr:street": "Jagodowa",
                "addr:housenumber": "72",
                "addr:teryt:simc": 943813,
                "addr:teryt:sym_ul": 7059,
                "phone": "+48 322841700",
                "email": "sp16@zsp2tg.pl",
                "website": "http:\/\/www.zsp2tg.pl",
                "ref:regon": "240141364",
                "ref:vatin": "PL6452374558",
                "operator": "Gmina Tarnowskie G\u00f3ry",
                "operator:type": "government",
                "landuse": "education",
                "fixme": "amenity=school, amenity=college albo landuse=education w zale\u017cno\u015bci od tego, jakie plac\u00f3wki wchodz\u0105 w sk\u0142ad zespo\u0142u. Sprawd\u017a, kiedy stosowa\u0107 amenity=* a kiedy landuse=education.",
                "note": "Children RSPO: 79181;79182"
            }
        },
        {
            "id": 79181,
            "type": "Feature",
            "geometry": {
                "type": "Point",
                "coordinates": [
                    18.81203,
                    50.49605
                ]
            },
            "properties": {
                "ref:rspo": 79181,
                "official_name": "Przedszkole Nr 23",
                "name": "Przedszkole Nr 23",
                "addr:postcode": "42-609",
                "addr:city": "Tarnowskie G\u00f3ry",
                "addr:street": "Jagodowa",
                "addr:housenumber": "72",
                "addr:teryt:simc": 943813,
                "addr:teryt:sym_ul": 7059,
                "phone": "+48 322842307",
                "email": "p23@zsp2tg.pl",
                "website": "http:\/\/www.zsp2tg.pl",
                "ref:regon": "271509966",
                "operator": "Gmina Tarnowskie G\u00f3ry",
                "operator:type": "government",
                "amenity": "kindergarten",
                "note": "Parent RSPO: 31546"
            }
        },
        {
            "id": 79182,
            "type": "Feature",
            "geometry": {
                "type": "Point",
                "coordinates": [
                    18.81203,
                    50.49602
                ]
            },
            "properties": {
                "isced:level": "1;2",
                "ref:rspo": 79182,
                "official_name": "Szko\u0142a Podstawowa Nr 16",
                "name": "Szko\u0142a Podstawowa Nr 16",
                "addr:postcode": "42-609",
                "addr:city": "Tarnowskie G\u00f3ry",
                "addr:street": "Jagodowa",
                "addr:housenumber": "72",
                "addr:teryt:simc": 943813,
                "addr:teryt:sym_ul": 7059,
                "phone": "+48 322841700",
                "email": "sp16@zsp2tg.pl",
                "website": "http:\/\/www.zsp2tg.pl",
                "ref:regon": "000730572",
                "operator": "Gmina Tarnowskie G\u00f3ry",
                "operator:type": "government",
                "amenity": "school",
                "note": "Parent RSPO: 31546"
            }
        }
    ]
}