{
    "type": "FeatureCollection",
    "features": [
        {
            "id": 123213,
            "type": "Feature",
            "geometry": {
                "type": "Point",
                "coordinates": [
                    18.92381,
                    50.42202
                ]
            },
            "properties": {
                "ref:rspo": 123213,
                "official_name": "Zesp\u00f3\u0142 Szkolno-Przedszkolny w Orzechu",
                "name": "Zesp\u00f3\u0142 Szkolno-Przedszkolny w Orzechu",
                "addr:country": "PL",
                "addr:postcode": "42-622",
                "addr:city": "Orzech",
                "addr:street": "ul. Brzechwy",
                "addr:housenumber": "8",
                "addr:teryt:simc": 2224,
                "addr:teryt:sym_ul": 222226,
                "contact:phone": "+48 322843318",
                "contact:email": "sekretariat@zsporzech.edu.pl",
                "contact:website": "http:\/\/www.zsporzech.szkolna.net",
                "ref:regon": "243580242",
                "operator": "Gmina \u015awierklaniec",
                "operator:type": "government",
                "landuse": "education",
                "fixme": "amenity=school, amenity=college albo landuse=education w zale\u017cno\u015bci od tego, jakie plac\u00f3wki wchodz\u0105 w sk\u0142ad zespo\u0142u. Sprawd\u017a, kiedy stosowa\u0107 amenity=* a kiedy landuse=education.",
                "note": "Children RSPO: 18703;24796"
            }
        },
        {
            "id": 18703,
            "type": "Feature",
            "geometry": {
                "type": "Point",
                "coordinates": [
                    18.92381,
                    50.42199
                ]
            },
            "properties": {
                "isced:level": "1;2",
                "ref:rspo": 18703,
                "official_name": "Szko\u0142a Podstawowa im. Rodziny Wieczork\u00f3w w Orzechu",
                "name": "Szko\u0142a Podstawowa",
                "addr:country": "PL",
                "addr:postcode": "42-622",
                "addr:city": "Orzech",
                "addr:street": "ul. Brzechwy",
                "addr:housenumber": "8",
                "addr:teryt:simc": 2224,
                "addr:teryt:sym_ul": 222226,
                "contact:phone": "+48 322843318",
                "contact:email": "sekretariat@zsporzech.edu.pl",
                "contact:website": "http:\/\/www.zsporzech.szkolna.net",
                "ref:regon": "001198984",
                "operator": "Gmina \u015awierklaniec",
                "operator:type": "government",
                "amenity": "school",
                "note": "Parent RSPO: 123213"
            }
        },
        {
            "id": 24796,
            "type": "Feature",
            "geometry": {
                "type": "Point",
                "coordinates": [
                    18.92381,
                    50.421960000000006
                ]
            },
            "properties": {
                "ref:rspo": 24796,
                "official_name": "Przedszkole w Orzechu",
                "name": "Przedszkole w Orzechu",
                "addr:country": "PL",
                "addr:postcode": "42-622",
                "addr:city": "Orzech",
                "addr:street": "ul. Brzechwy",
                "addr:housenumber": "8",
                "addr:teryt:simc": 2224,
                "addr:teryt:sym_ul": 222226,
                "contact:phone": "+48 322843318",
                "contact:email": "sekretariat@zsporzech.edu.pl",
                "contact:website": "http:\/\/www.zsporzech.szkolna.net",
                "ref:regon": "271051310",
                "operator": "Gmina \u015awierklaniec",
                "operator:type": "government",
                "amenity": "kindergarten",
                "note": "Parent RSPO: 123213"
            }
        },
        {
            "id": 129044,
            "type": "Feature",
            "geometry": {
                "type": "Point",
                "coordinates": [
                    18.9067,
                    50.43302
                ]
            },
            "properties": {
                "ref:rspo": 129044,
                "official_name": "Topolino Natalia Heiduk",
                "name": "Topolino Natalia Heiduk",
                "addr:country": "PL",
                "addr:postcode": "42-620",
                "addr:city": "Nak\u0142o \u015al\u0105skie",
                "addr:street": "ul. Dworcowa",
                "addr:housenumber": "12A",
                "addr:teryt:simc": 4434,
                "addr:teryt:sym_ul": 222195,
                "contact:phone": "+48 603571142",
                "contact:email": "topolino.przedszkole@gmail.com",
                "contact:website": "http:\/\/www.topolino-przedszkole.jimdo.com",
                "ref:regon": "362458862",
                "operator": "Natalia Heiduk",
                "operator:type": "private",
                "amenity": "kindergarten"
            }
        },
        {
            "id": 24795,
            "type": "Feature",
            "geometry": {
                "type": "Point",
                "coordinates": [
                    18.90535,
                    50.43452
                ]
            },
            "properties": {
                "ref:rspo": 24795,
                "official_name": "Przedszkole w Nakle \u015aL\u0105skim",
                "name": "Przedszkole w Nakle \u015aL\u0105skim",
                "addr:country": "PL",
                "addr:postcode": "42-620",
                "addr:city": "Nak\u0142o \u015al\u0105skie",
                "addr:street": "ul. Ko\u015bciuszki",
                "addr:housenumber": "13",
                "addr:teryt:simc": 9572,
                "addr:teryt:sym_ul": 222195,
                "contact:phone": "+48 322845254",
                "contact:email": "przedszkolenaklo@tlen.pl",
                "ref:regon": "271051326",
                "ref:vatin": "PL6452225137",
                "operator": "Gmina \u015awierklaniec",
                "operator:type": "government",
                "amenity": "kindergarten"
            }
        },
        {
            "id": 71805,
            "type": "Feature",
            "geometry": {
                "type": "Point",
                "coordinates": [
                    18.89996,
                    50.43548
                ]
            },
            "properties": {
                "ref:rspo": 71805,
                "official_name": "Zesp\u00f3\u0142 Szk\u00f3\u0142 Centrum Kszta\u0142cenia Rolniczego im. 1000-Lecia Pa\u0144stwa Polskiego w Nakle \u015aL\u0105skim",
                "name": "Zesp\u00f3\u0142 Szk\u00f3\u0142 Centrum Kszta\u0142cenia Rolniczego",
                "addr:country": "PL",
                "addr:postcode": "42-620",
                "addr:city": "Nak\u0142o \u015al\u0105skie",
                "addr:street": "ul. Gustawa Morcinka",
                "addr:housenumber": "9",
                "addr:teryt:simc": 13279,
                "addr:teryt:sym_ul": 222195,
                "contact:phone": "+48 323813222",
                "contact:email": "sekretariat@ckrnaklo.pl",
                "contact:website": "http:\/\/www.ckrnaklo.pl",
                "ref:regon": "000095845",
                "ref:vatin": "PL6451967724",
                "operator": "Ministerstwo Rolnictwa I Rozwoju Wsi",
                "operator:type": "public",
                "landuse": "education",
                "fixme": "amenity=school, amenity=college albo landuse=education w zale\u017cno\u015bci od tego, jakie plac\u00f3wki wchodz\u0105 w sk\u0142ad zespo\u0142u. Sprawd\u017a, kiedy stosowa\u0107 amenity=* a kiedy landuse=education.",
                "note": "Children RSPO: 85059;85060;85064;130449"
            }
        },
        {
            "id": 103506,
            "type": "Feature",
            "geometry": {
                "type": "Point",
                "coordinates": [
                    18.89996,
                    50.435449999999996
                ]
            },
            "properties": {
                "ref:rspo": 103506,
                "official_name": "Bursa w Nakle \u015aL\u0105skim",
                "name": "Bursa w Nakle \u015aL\u0105skim",
                "addr:country": "PL",
                "addr:postcode": "42-620",
                "addr:city": "Nak\u0142o \u015al\u0105skie",
                "addr:street": "ul. Morcinka",
                "addr:housenumber": "9",
                "addr:teryt:simc": 13278,
                "addr:teryt:sym_ul": 222195,
                "contact:phone": "+48 323815760",
                "contact:email": "bursa@bursanaklo.pl",
                "contact:website": "http:\/\/www.bursanaklo.pl",
                "ref:regon": "243122982",
                "operator": "Zak\u0142ad Gospodarczy \"Bursa\" Sp\u00f3\u0142ka Z Ograniczon\u0105 Odpowiedzialno\u015bci\u0105",
                "operator:type": "private",
                "building": "dormitory"
            }
        },
        {
            "id": 85059,
            "type": "Feature",
            "geometry": {
                "type": "Point",
                "coordinates": [
                    18.89996,
                    50.43542
                ]
            },
            "properties": {
                "isced:level": "3",
                "ref:rspo": 85059,
                "official_name": "Technikum w Nakle \u015aL\u0105skim",
                "name": "Technikum w Nakle \u015aL\u0105skim",
                "addr:country": "PL",
                "addr:postcode": "42-620",
                "addr:city": "Nak\u0142o \u015al\u0105skie",
                "addr:street": "ul. Gustawa Morcinka",
                "addr:housenumber": "9",
                "addr:teryt:simc": 13279,
                "addr:teryt:sym_ul": 222195,
                "contact:phone": "+48 323813222",
                "contact:email": "sekretariat@ckrnaklo.pl",
                "contact:website": "http:\/\/www.ckrnaklo.pl",
                "ref:regon": "240718792",
                "operator": "Ministerstwo Rolnictwa I Rozwoju Wsi",
                "operator:type": "public",
                "amenity": "school",
                "note": "Parent RSPO: 71805"
            }
        },
        {
            "id": 85060,
            "type": "Feature",
            "geometry": {
                "type": "Point",
                "coordinates": [
                    18.89996,
                    50.43539
                ]
            },
            "properties": {
                "isced:level": "3",
                "ref:rspo": 85060,
                "official_name": "Bran\u017cowa Szko\u0142a I Stopnia w Nakle \u015aL\u0105skim",
                "name": "Bran\u017cowa Szko\u0142a I Stopnia w Nakle \u015aL\u0105skim",
                "addr:country": "PL",
                "addr:postcode": "42-620",
                "addr:city": "Nak\u0142o \u015al\u0105skie",
                "addr:street": "ul. Gustawa Morcinka",
                "addr:housenumber": "9",
                "addr:teryt:simc": 13279,
                "addr:teryt:sym_ul": 222195,
                "contact:phone": "+48 323813222",
                "contact:email": "sekretariat@ckrnaklo.pl",
                "contact:website": "http:\/\/www.ckrnaklo.pl",
                "ref:regon": "272226348",
                "operator": "Ministerstwo Rolnictwa I Rozwoju Wsi",
                "operator:type": "public",
                "amenity": "school",
                "note": "Parent RSPO: 71805"
            }
        },
        {
            "id": 85064,
            "type": "Feature",
            "geometry": {
                "type": "Point",
                "coordinates": [
                    18.89996,
                    50.435359999999996
                ]
            },
            "properties": {
                "isced:level": "4",
                "ref:rspo": 85064,
                "official_name": "Szko\u0142a Policealna w Nakle \u015aL\u0105skim",
                "name": "Szko\u0142a Policealna w Nakle \u015aL\u0105skim",
                "addr:country": "PL",
                "addr:postcode": "42-620",
                "addr:city": "Nak\u0142o \u015al\u0105skie",
                "addr:street": "ul. Gustawa Morcinka",
                "addr:housenumber": "9",
                "addr:teryt:simc": 13279,
                "addr:teryt:sym_ul": 222195,
                "contact:phone": "+48 323813222",
                "contact:email": "sekretariat@ckrnaklo.pl",
                "contact:website": "http:\/\/www.ckrnaklo.pl",
                "ref:regon": "241062069",
                "operator": "Ministerstwo Rolnictwa I Rozwoju Wsi",
                "operator:type": "public",
                "amenity": "college",
                "note": "Parent RSPO: 71805"
            }
        },
        {
            "id": 130449,
            "type": "Feature",
            "geometry": {
                "type": "Point",
                "coordinates": [
                    18.89996,
                    50.43533
                ]
            },
            "properties": {
                "ref:rspo": 130449,
                "official_name": "Centrum Kszta\u0142cenia Ustawicznego w Nakle \u015aL\u0105skim",
                "name": "Centrum Kszta\u0142cenia Ustawicznego w Nakle \u015aL\u0105skim",
                "addr:country": "PL",
                "addr:postcode": "42-620",
                "addr:city": "Nak\u0142o \u015al\u0105skie",
                "addr:street": "ul. Morcinka",
                "addr:housenumber": "9",
                "addr:teryt:simc": 13278,
                "addr:teryt:sym_ul": 222195,
                "contact:phone": "+48 323813222",
                "contact:email": "sekretariat@ckrnaklo.pl",
                "contact:website": "http:\/\/www.ckrnaklo.pl",
                "ref:regon": "364034959",
                "operator": "Ministerstwo Rolnictwa I Rozwoju Wsi",
                "operator:type": "public",
                "fixme": "w zale\u017cno\u015bci od przedmiotu dzia\u0142alno\u015bci (np. amenity=training + training=*, amenity=dancing_school, amenity=language_school, amenity=music_school)",
                "note": "Parent RSPO: 71805"
            }
        },
        {
            "id": 106341,
            "type": "Feature",
            "geometry": {
                "type": "Point",
                "coordinates": [
                    18.89677,
                    50.43559
                ]
            },
            "properties": {
                "ref:rspo": 106341,
                "official_name": "Niepubliczna Plac\u00f3wka Kszta\u0142cenia Kursowego \"Kursant\"",
                "name": "Niepubliczna Plac\u00f3wka Kszta\u0142cenia Kursowego \"Kursant\"",
                "addr:country": "PL",
                "addr:postcode": "42-620",
                "addr:city": "Nak\u0142o \u015al\u0105skie",
                "addr:street": "ul. Powsta\u0144c\u00f3w",
                "addr:housenumber": "50",
                "addr:teryt:simc": 17354,
                "addr:teryt:sym_ul": 222195,
                "contact:phone": "+48 327690339",
                "ref:regon": "243147522",
                "operator": "Zbigniew Maruszewski Sp\u00f3\u0142ka Z Ograniczon\u0105 Odpowiedzialno\u015bci\u0105",
                "operator:type": "private",
                "fixme": "w zale\u017cno\u015bci od przedmiotu dzia\u0142alno\u015bci (np. amenity=training + training=*, amenity=dancing_school, amenity=language_school, amenity=music_school)"
            }
        },
        {
            "id": 18597,
            "type": "Feature",
            "geometry": {
                "type": "Point",
                "coordinates": [
                    18.9079799,
                    50.43649
                ]
            },
            "properties": {
                "isced:level": "1;2",
                "ref:rspo": 18597,
                "official_name": "Szko\u0142a Podstawowa im. Kai Mireckiej w Nakle \u015aL\u0105skim",
                "name": "Szko\u0142a Podstawowa",
                "addr:country": "PL",
                "addr:postcode": "42-620",
                "addr:city": "Nak\u0142o \u015al\u0105skie",
                "addr:street": "ul. Dworcowa",
                "addr:housenumber": "2",
                "addr:teryt:simc": 4434,
                "addr:teryt:sym_ul": 222195,
                "contact:phone": "+48 322843613",
                "contact:email": "spnaklo@gmail.com",
                "contact:website": "http:\/\/www.spnaklo.szkolna.net",
                "ref:regon": "001198990",
                "operator": "Gmina \u015awierklaniec",
                "operator:type": "government",
                "amenity": "school"
            }
        },
        {
            "id": 24792,
            "type": "Feature",
            "geometry": {
                "type": "Point",
                "coordinates": [
                    18.93345,
                    50.43669
                ]
            },
            "properties": {
                "ref:rspo": 24792,
                "official_name": "Przedszkole Aladyn",
                "name": "Przedszkole Aladyn",
                "addr:country": "PL",
                "addr:postcode": "42-622",
                "addr:city": "\u015awierklaniec",
                "addr:street": "ul. Tarnog\u00f3rska",
                "addr:housenumber": "101",
                "addr:teryt:simc": 22677,
                "addr:teryt:sym_ul": 222232,
                "contact:phone": "+48 797847101",
                "contact:email": "biuro@przedszkolealadyn.pl",
                "contact:website": "http:\/\/www.przedszkolealadyn.pl",
                "ref:regon": "243061789",
                "operator": "Magdalena Skalska",
                "operator:type": "private",
                "amenity": "kindergarten"
            }
        },
        {
            "id": 24790,
            "type": "Feature",
            "geometry": {
                "type": "Point",
                "coordinates": [
                    18.94379,
                    50.43848
                ]
            },
            "properties": {
                "ref:rspo": 24790,
                "official_name": "Przedszkole \"Pod Zielonym Listkiem\" w \u015awierkla\u0144cu",
                "name": "Przedszkole \"Pod Zielonym Listkiem\" w \u015awierkla\u0144cu",
                "addr:country": "PL",
                "addr:postcode": "42-622",
                "addr:city": "\u015awierklaniec",
                "addr:street": "ul. O\u015bwi\u0119cimska",
                "addr:housenumber": "11",
                "addr:teryt:simc": 15440,
                "addr:teryt:sym_ul": 222232,
                "contact:phone": "+48 322844392",
                "contact:email": "przedszkole.swierklaniec@wp.pl",
                "contact:website": "http:\/\/www.przedszkole-swierklaniec.pl",
                "ref:regon": "271051303",
                "ref:vatin": "PL6452225166",
                "operator": "Gmina \u015awierklaniec",
                "operator:type": "government",
                "amenity": "kindergarten"
            }
        },
        {
            "id": 18704,
            "type": "Feature",
            "geometry": {
                "type": "Point",
                "coordinates": [
                    18.93611,
                    50.4389899
                ]
            },
            "properties": {
                "isced:level": "1;2",
                "ref:rspo": 18704,
                "official_name": "Szko\u0142a Podstawowa im. Adama Mickiewicza w \u015awierkla\u0144cu",
                "name": "Szko\u0142a Podstawowa",
                "addr:country": "PL",
                "addr:postcode": "42-622",
                "addr:city": "\u015awierklaniec",
                "addr:street": "ul. M\u0142y\u0144ska",
                "addr:housenumber": "7",
                "addr:teryt:simc": 13132,
                "addr:teryt:sym_ul": 222232,
                "contact:phone": "+48 322844434",
                "contact:email": "spsw@op.pl",
                "contact:website": "http:\/\/www.spswierklaniec.szkolna.net",
                "ref:regon": "000269788",
                "ref:vatin": "PL6452225226",
                "operator": "Gmina \u015awierklaniec",
                "operator:type": "government",
                "amenity": "school"
            }
        },
        {
            "id": 18707,
            "type": "Feature",
            "geometry": {
                "type": "Point",
                "coordinates": [
                    18.92164,
                    50.45124
                ]
            },
            "properties": {
                "isced:level": "1;2",
                "ref:rspo": 18707,
                "official_name": "Szko\u0142a Podstawowa im. Kr\u00f3lowej Jadwigi w Nowym Chechle",
                "name": "Szko\u0142a Podstawowa",
                "addr:country": "PL",
                "addr:postcode": "42-622",
                "addr:city": "Nowe Chech\u0142o",
                "addr:street": "ul. Lasowicka",
                "addr:housenumber": "103",
                "addr:teryt:simc": 10690,
                "addr:teryt:sym_ul": 222210,
                "contact:phone": "+48 322844323",
                "contact:email": "spchechlo@poczta.onet.pl",
                "contact:website": "http:\/\/www.spchechlo.szkolna.net",
                "ref:regon": "001198978",
                "ref:vatin": "PL6452225203",
                "operator": "Gmina \u015awierklaniec",
                "operator:type": "government",
                "amenity": "school"
            }
        }
    ]
}