{"type":"FeatureCollection","features":[{"id":271712,"type":"Feature","geometry":{"type":"Point","coordinates":[18.95331,50.55167]},"properties":{"ref:rspo":271712,"official_name":"Zesp\u00f3\u0142 Plac\u00f3wek O\u015bwiatowych w Kaletach Miotku","name":"Zesp\u00f3\u0142 Plac\u00f3wek O\u015bwiatowych w Kaletach Miotku","addr:country":"PL","addr:postcode":"42-660","addr:city":"Kalety","addr:street":"ul. Orzeszkowej","addr:housenumber":"10","addr:teryt:simc":15209,"addr:teryt:sym_ul":931589,"contact:phone":"+48 343578104","contact:email":"zsip@kalety.pl","ref:regon":"383569223","operator":"Miasto Kalety","operator:type":"government","landuse":"education","fixme":"amenity=school, amenity=college albo landuse=education w zale\u017cno\u015bci od tego, jakie plac\u00f3wki wchodz\u0105 w sk\u0142ad zespo\u0142u. Sprawd\u017a, kiedy stosowa\u0107 amenity=* a kiedy landuse=education.","note":"Children RSPO: 38488;38524"}},{"id":38488,"type":"Feature","geometry":{"type":"Point","coordinates":[18.95331,50.55164]},"properties":{"isced:level":"1;2","ref:rspo":38488,"official_name":"Zesp\u00f3\u0142 Plac\u00f3wek O\u015bwiatowych w Kaletach Miotku - Publiczna Szko\u0142a Podstawowa Nr 2 im.juliusza Ligonia","name":"Zesp\u00f3\u0142 Plac\u00f3wek O\u015bwiatowych w Kaletach Miotku - Publiczna Szko\u0142a Podstawowa Nr 2 im.juliusza Ligonia","addr:country":"PL","addr:postcode":"42-660","addr:city":"Kalety","addr:street":"ul. Orzeszkowej","addr:housenumber":"10","addr:teryt:simc":15209,"addr:teryt:sym_ul":931589,"contact:phone":"+48 343578103","contact:email":"zsip@kalety.pl","contact:website":"http:\/\/miotek-zsip.cba.pl","ref:regon":"000710670","ref:vatin":"PL6452223569","operator":"Miasto Kalety","operator:type":"government","amenity":"school","note":"Parent RSPO: 271712"}},{"id":38524,"type":"Feature","geometry":{"type":"Point","coordinates":[18.95331,50.551610000000004]},"properties":{"ref:rspo":38524,"official_name":"Zesp\u00f3\u0142 Plac\u00f3wek O\u015bwiatowych w Kaletach Miotku - Przedszkole Miejskie Nr 2","name":"Zesp\u00f3\u0142 Plac\u00f3wek O\u015bwiatowych w Kaletach Miotku - Przedszkole Miejskie Nr 2","addr:country":"PL","addr:postcode":"42-660","addr:city":"Kalety","addr:street":"ul. Orzeszkowej","addr:housenumber":"10","addr:teryt:simc":15209,"addr:teryt:sym_ul":931589,"contact:phone":"+48 343578103","contact:email":"zsip@kalety.pl","contact:website":"http:\/\/miotek-zsip.cba.pl","ref:regon":"150545884","ref:vatin":"PL6452304049","operator":"Miasto Kalety","operator:type":"government","amenity":"kindergarten","note":"Parent RSPO: 271712"}},{"id":30935,"type":"Feature","geometry":{"type":"Point","coordinates":[18.8937,50.55553]},"properties":{"ref:rspo":30935,"official_name":"Miejskie Przedszkole Nr 1 w Kaletach \"Le\u015bne Skrzaty\"","name":"Miejskie Przedszkole Nr 1 w Kaletach \"Le\u015bne Skrzaty\"","addr:country":"PL","addr:postcode":"42-660","addr:city":"Kalety","addr:street":"ul. Brzechwy","addr:housenumber":"2","addr:teryt:simc":2224,"addr:teryt:sym_ul":931589,"contact:phone":"+48 343577082","contact:email":"mp1kalety@poczta.pl","contact:website":"http:\/\/mp1kalety.edupage.org","ref:regon":"150545878","ref:vatin":"PL6452304055","operator":"Miasto Kalety","operator:type":"government","amenity":"kindergarten"}},{"id":3932,"type":"Feature","geometry":{"type":"Point","coordinates":[18.8862099,50.55626]},"properties":{"ref:rspo":3932,"official_name":"M\u0142odziezowy O\u015brodek Wychowawczy w Kaletach","name":"M\u0142odziezowy O\u015brodek Wychowawczy w Kaletach","addr:country":"PL","addr:postcode":"42-660","addr:city":"Kalety","addr:street":"ul. ks. Rogowskiego","addr:housenumber":"43","addr:teryt:simc":18770,"addr:teryt:sym_ul":931589,"contact:phone":"+48 343577655","contact:email":"mowkalety@wp.pl","contact:website":"http:\/\/www.edu-res.pl","ref:regon":"243021614","ref:vatin":"PL5471264600","operator":"Henryk Wrzesie\u0144","operator:type":"private","fixme":"amenity=social facility + social_facility=group_home + social_facility:for=juvenile","note":"Children RSPO: 10074;118441;263225;263229"}},{"id":10074,"type":"Feature","geometry":{"type":"Point","coordinates":[18.8862099,50.55623]},"properties":{"isced:level":"3","ref:rspo":10074,"official_name":"Bran\u017cowa Szko\u0142a Specjalna I Stopnia Przy M\u0142odzie\u017cowym O\u015brodku Wychowawczym w Kaletach","name":"Bran\u017cowa Szko\u0142a Specjalna I Stopnia Przy M\u0142odzie\u017cowym O\u015brodku Wychowawczym w Kaletach","addr:country":"PL","addr:postcode":"42-660","addr:city":"Kalety","addr:street":"ul. ks. Rogowskiego","addr:housenumber":"43","addr:teryt:simc":18770,"addr:teryt:sym_ul":931589,"contact:phone":"+48 343577654","ref:regon":"243029001","operator":"Henryk Wrzesie\u0144","operator:type":"private","amenity":"school","note":"Parent RSPO: 3932"}},{"id":118441,"type":"Feature","geometry":{"type":"Point","coordinates":[18.8862099,50.556200000000004]},"properties":{"isced:level":"3","ref:rspo":118441,"official_name":"Liceum Og\u00f3lnokszta\u0142c\u0105ce Specjalne Przy M\u0142odzie\u017cowym O\u015brodku Wychowawczym w Kaletach","name":"Liceum Og\u00f3lnokszta\u0142c\u0105ce Specjalne Przy M\u0142odzie\u017cowym O\u015brodku Wychowawczym w Kaletach","addr:country":"PL","addr:postcode":"42-660","addr:city":"Kalety","addr:street":"ul. ks. Rogowskiego","addr:housenumber":"43","addr:teryt:simc":18770,"addr:teryt:sym_ul":931589,"contact:phone":"+48 343577655","contact:email":"mowkalety@wp.pl","contact:website":"http:\/\/www.edu-res.pl","ref:regon":"243329269","operator":"Henryk Wrzesie\u0144   \"Edu Res\"","operator:type":"consortium","amenity":"school","note":"Parent RSPO: 3932"}},{"id":263225,"type":"Feature","geometry":{"type":"Point","coordinates":[18.8862099,50.55617]},"properties":{"isced:level":"1;2","ref:rspo":263225,"official_name":"Szko\u0142a Podstawowa Specjalna Przy M\u0142odzie\u017cowym O\u015brodku Wychowawczym w Kaletach","name":"Szko\u0142a Podstawowa Specjalna Przy M\u0142odzie\u017cowym O\u015brodku Wychowawczym w Kaletach","addr:country":"PL","addr:postcode":"42-660","addr:city":"Kalety","addr:street":"ul. ks. Rogowskiego","addr:housenumber":"43","addr:teryt:simc":18770,"addr:teryt:sym_ul":931589,"contact:phone":"+48 343577654","ref:regon":"368133960","operator":"Henryk Wrzesie\u0144   \"Edu Res\"","operator:type":"consortium","amenity":"school","note":"Parent RSPO: 3932"}},{"id":263229,"type":"Feature","geometry":{"type":"Point","coordinates":[18.8862099,50.55614]},"properties":{"isced:level":"3","ref:rspo":263229,"official_name":"Technikum Specjalne Przy M\u0142odzie\u017cowym O\u015brodku Wychowawczym","name":"Technikum Specjalne Przy M\u0142odzie\u017cowym O\u015brodku Wychowawczym","addr:country":"PL","addr:postcode":"42-660","addr:city":"Kalety","addr:street":"ul. ks. Rogowskiego","addr:housenumber":"43","addr:teryt:simc":18770,"addr:teryt:sym_ul":931589,"contact:phone":"+48 343577654","ref:regon":"368135232","operator":"Henryk Wrzesie\u0144   \"Edu Res\"","operator:type":"consortium","amenity":"school","note":"Parent RSPO: 3932"}},{"id":270645,"type":"Feature","geometry":{"type":"Point","coordinates":[18.89582,50.56156]},"properties":{"isced:level":"1;2","ref:rspo":270645,"official_name":"Niepubliczna Szko\u0142a Podstawowa Nr 1","name":"Niepubliczna Szko\u0142a Podstawowa Nr 1","addr:country":"PL","addr:postcode":"42-660","addr:city":"Kalety","addr:street":"ul. Lompy","addr:housenumber":"2","addr:teryt:simc":11246,"addr:teryt:sym_ul":931589,"contact:email":"kaletymaliodkrywcy@gmail.com","ref:regon":"382837555","ref:vatin":"PL6452166328","operator":"Katarzyna Mol-Galios","operator:type":"private","amenity":"school"}},{"id":274119,"type":"Feature","geometry":{"type":"Point","coordinates":[18.89327,50.56211]},"properties":{"ref:rspo":274119,"official_name":"Przedszkole Milu\u015b","name":"Przedszkole Milu\u015b","addr:country":"PL","addr:postcode":"42-660","addr:city":"Kalety","addr:street":"ul. Lubliniecka","addr:housenumber":"2","addr:teryt:simc":11333,"addr:teryt:sym_ul":931589,"contact:email":"karolina.dabrowska.op@wp.pl","ref:regon":"385262782","ref:vatin":"PL5751743804","operator":"Karolina D\u0105browska-Lisiecka","operator:type":"private","amenity":"kindergarten"}},{"id":278613,"type":"Feature","geometry":{"type":"Point","coordinates":[18.88712,50.56386]},"properties":{"ref:rspo":278613,"official_name":"Niepubliczna Poradnia Psychologiczno-Pedagogiczna \"Promyczek\"","name":"Niepubliczna Poradnia Psychologiczno-Pedagogiczna \"Promyczek\"","addr:country":"PL","addr:postcode":"42-660","addr:city":"Kalety","addr:street":"ul. 1 Maja","addr:housenumber":"5","addr:teryt:simc":11926,"addr:teryt:sym_ul":931589,"contact:email":"promyczek.kalety@gmail.com","ref:regon":"389993933","operator":"\"Edukacja\" Marta Ir","operator:type":"consortium","healthcare":"councelling","counselling_type":"education","fixme":"w zale\u017cno\u015bci od przedmiotu dzia\u0142alno\u015bci (np. healthcare=councelling + counselling_type=education albo healthcare=psychotherapist)"}},{"id":38526,"type":"Feature","geometry":{"type":"Point","coordinates":[18.88789,50.56426]},"properties":{"isced:level":"3","ref:rspo":38526,"official_name":"Zesp\u00f3\u0142 Szk\u00f3\u0142 Publicznych w Kaletach - Liceum Og\u00f3lnokszta\u0142c\u0105ce w Kaletach","name":"Zesp\u00f3\u0142 Szk\u00f3\u0142 Publicznych w Kaletach - Liceum Og\u00f3lnokszta\u0142c\u0105ce w Kaletach","addr:country":"PL","addr:postcode":"42-660","addr:city":"Kalety","addr:street":"ul. 1 Maja","addr:housenumber":"4","addr:teryt:simc":11926,"addr:teryt:sym_ul":931589,"contact:phone":"+48 343577013","contact:email":"psp1@kalety.pl","contact:website":"http:\/\/psp1.kalety.pl","ref:regon":"241707661","operator":"Miasto Kalety","operator:type":"government","amenity":"school","note":"Parent RSPO: 271571"}},{"id":38527,"type":"Feature","geometry":{"type":"Point","coordinates":[18.88789,50.564229999999995]},"properties":{"isced:level":"3","ref:rspo":38527,"official_name":"Zesp\u00f3\u0142 Szk\u00f3\u0142 Publicznych w Kaletach - Technikum w Kaletach","name":"Zesp\u00f3\u0142 Szk\u00f3\u0142 Publicznych w Kaletach - Technikum w Kaletach","addr:country":"PL","addr:postcode":"42-660","addr:city":"Kalety","addr:street":"ul. 1 Maja","addr:housenumber":"4","addr:teryt:simc":11926,"addr:teryt:sym_ul":931589,"contact:phone":"+48 343577013","contact:email":"psp1@kalety.pl","contact:website":"http:\/\/psp1.kalety.pl","ref:regon":"241707709","operator":"Miasto Kalety","operator:type":"government","amenity":"school","note":"Parent RSPO: 271571"}},{"id":271571,"type":"Feature","geometry":{"type":"Point","coordinates":[18.88783,50.56466]},"properties":{"ref:rspo":271571,"official_name":"Zesp\u00f3\u0142 Szk\u00f3\u0142 Publicznych w Kaletach","name":"Zesp\u00f3\u0142 Szk\u00f3\u0142 Publicznych w Kaletach","addr:country":"PL","addr:postcode":"42-660","addr:city":"Kalety","addr:street":"ul. 1 Maja","addr:housenumber":"6","addr:teryt:simc":11926,"addr:teryt:sym_ul":931589,"contact:phone":"+48 343577013","contact:email":"psp1@kalety.pl","ref:regon":"383422715","operator":"Miasto Kalety","operator:type":"government","landuse":"education","fixme":"amenity=school, amenity=college albo landuse=education w zale\u017cno\u015bci od tego, jakie plac\u00f3wki wchodz\u0105 w sk\u0142ad zespo\u0142u. Sprawd\u017a, kiedy stosowa\u0107 amenity=* a kiedy landuse=education.","note":"Children RSPO: 34226;38526;38527"}},{"id":34226,"type":"Feature","geometry":{"type":"Point","coordinates":[18.88783,50.56463]},"properties":{"isced:level":"1;2","ref:rspo":34226,"official_name":"Zesp\u00f3\u0142 Szk\u00f3\u0142 Publicznych w Kaletach - Publiczna Szko\u0142a Podstawowa Nr 1 im.a.mickiewicza","name":"Zesp\u00f3\u0142 Szk\u00f3\u0142 Publicznych w Kaletach - Publiczna Szko\u0142a Podstawowa Nr 1 im.a.mickiewicza","addr:country":"PL","addr:postcode":"42-660","addr:city":"Kalety","addr:street":"ul. 1 Maja","addr:housenumber":"6","addr:teryt:simc":11926,"addr:teryt:sym_ul":931589,"contact:phone":"+48 343577013","contact:email":"psp1@kalety.pl","contact:website":"http:\/\/www.psp1.kalety.pl","ref:regon":"000673644","ref:vatin":"PL5751644918","operator":"Miasto Kalety","operator:type":"government","amenity":"school","note":"Parent RSPO: 271571"}},{"id":276223,"type":"Feature","geometry":{"type":"Point","coordinates":[18.88256,50.56502]},"properties":{"ref:rspo":276223,"official_name":"Niepubliczna Szko\u0142a Muzyczna I Stopnia Konik w Kaletach","name":"Niepubliczna Szko\u0142a Muzyczna I Stopnia Konik w Kaletach","addr:country":"PL","addr:postcode":"42-660","addr:city":"Kalety","addr:street":"ul. 1 Maja","addr:housenumber":"osiedle","addr:teryt:simc":11926,"addr:teryt:sym_ul":931589,"contact:email":"karolina.dabrowska.op@wp.pl","ref:regon":"387037434","operator":"Kim Karolina D\u0105browska-Lisiecka","operator:type":"ngo","amenity":"music_school"}},{"id":125765,"type":"Feature","geometry":{"type":"Point","coordinates":[18.89105,50.5655]},"properties":{"ref:rspo":125765,"official_name":"Dorota Mazan Niepubliczne Przedszkole Bystrzaki Z Oddzia\u0142ami Integracyjnymi","name":"Dorota Mazan Niepubliczne Przedszkole Bystrzaki Z Oddzia\u0142ami Integracyjnymi","addr:country":"PL","addr:postcode":"42-660","addr:city":"Kalety","addr:street":"ul. Dworcowa","addr:housenumber":"4","addr:teryt:simc":4434,"addr:teryt:sym_ul":931589,"contact:phone":"+48 600359061","contact:email":"bystrzakikalety@onet.pl","contact:website":"http:\/\/www.bystrzaki.kalety.pl","ref:regon":"243698570","ref:vatin":"PL5751636474","operator":"Dorota Mazan","operator:type":"private","amenity":"kindergarten"}},{"id":123244,"type":"Feature","geometry":{"type":"Point","coordinates":[18.88342,50.56801]},"properties":{"ref:rspo":123244,"official_name":"Niepubliczne Przedszkole \"Mali Odkrywcy\"","name":"Niepubliczne Przedszkole \"Mali Odkrywcy\"","addr:country":"PL","addr:postcode":"42-660","addr:city":"Kalety","addr:street":"ul. Le\u015bna","addr:housenumber":"20","addr:teryt:simc":10898,"addr:teryt:sym_ul":931589,"contact:phone":"+48 606976038","contact:email":"kaletymaliodkrywcy@gmail.com","contact:website":"http:\/\/maliodkrywcy-przedszkole.pl","ref:regon":"243583157","ref:vatin":"PL6452166328","operator":"Katarzyna Mol-Galios","operator:type":"private","amenity":"kindergarten"}}]}