{
    "type": "FeatureCollection",
    "features": [
        {
            "id": 107046,
            "type": "Feature",
            "geometry": {
                "type": "Point",
                "coordinates": [
                    21.929189682007,
                    51.085258483887
                ]
            },
            "properties": {
                "isced:level": "3",
                "ref:rspo": 107046,
                "official_name": "Technikum Ogrodnicze",
                "name": "Technikum Ogrodnicze",
                "addr:country": "PL",
                "addr:postcode": "24-300",
                "addr:place": "Kluczkowice-Osiedle",
                "addr:housenumber": "7",
                "addr:teryt:simc": 388375,
                "contact:phone": "+48 818272175",
                "contact:email": "zszol@o2.pl",
                "ref:regon": "060056519",
                "operator": "Powiat Opolski",
                "operator:type": "government",
                "amenity": "school",
                "note": "Parent RSPO: 74072"
            }
        },
        {
            "id": 107144,
            "type": "Feature",
            "geometry": {
                "type": "Point",
                "coordinates": [
                    21.929189682007,
                    51.085228483887
                ]
            },
            "properties": {
                "isced:level": "3",
                "ref:rspo": 107144,
                "official_name": "Liceum Og\u00f3lnokszta\u0142c\u0105ce dla Doros\u0142ych",
                "name": "Liceum Og\u00f3lnokszta\u0142c\u0105ce dla Doros\u0142ych",
                "addr:country": "PL",
                "addr:postcode": "24-300",
                "addr:place": "Kluczkowice-Osiedle",
                "addr:housenumber": "7",
                "addr:teryt:simc": 388375,
                "contact:phone": "+48 818272175",
                "contact:email": "zszol@o2.pl",
                "ref:regon": "061510140",
                "operator": "Powiat Opolski",
                "operator:type": "government",
                "amenity": "school",
                "note": "Parent RSPO: 74072"
            }
        },
        {
            "id": 107185,
            "type": "Feature",
            "geometry": {
                "type": "Point",
                "coordinates": [
                    21.929189682007,
                    51.085198483887005
                ]
            },
            "properties": {
                "isced:level": "4",
                "ref:rspo": 107185,
                "official_name": "Szko\u0142a Policealna w Opolu Lubelskim",
                "name": "Szko\u0142a Policealna w Opolu Lubelskim",
                "addr:country": "PL",
                "addr:postcode": "24-300",
                "addr:place": "Kluczkowice-Osiedle",
                "addr:housenumber": "7",
                "addr:teryt:simc": 388375,
                "contact:phone": "+48 818272175",
                "contact:email": "zszol@o2.pl",
                "ref:regon": "060055721",
                "operator": "Powiat Opolski",
                "operator:type": "government",
                "amenity": "college",
                "note": "Parent RSPO: 74072"
            }
        },
        {
            "id": 10396,
            "type": "Feature",
            "geometry": {
                "type": "Point",
                "coordinates": [
                    22.05938911438,
                    51.094409942627
                ]
            },
            "properties": {
                "isced:level": "1;2",
                "ref:rspo": 10396,
                "official_name": "Szko\u0142a Podstawowa im. \u015aw. Maksymiliana Marii Kolbe w Pusznie Godowskim",
                "name": "Szko\u0142a Podstawowa",
                "addr:country": "PL",
                "addr:postcode": "24-300",
                "addr:place": "Puszno Godowskie",
                "addr:housenumber": "99",
                "addr:teryt:simc": 388464,
                "contact:phone": "+48 818273045",
                "contact:email": "sppuszno@wp.pl",
                "contact:website": "http:\/\/www.sppuszno.szkolnastrona.pl",
                "ref:regon": "001152522",
                "ref:vatin": "PL7171729409",
                "operator": "Gmina Opole Lubelskie",
                "operator:type": "government",
                "amenity": "school"
            }
        },
        {
            "id": 11390,
            "type": "Feature",
            "geometry": {
                "type": "Point",
                "coordinates": [
                    22.069330215454,
                    51.113410949707
                ]
            },
            "properties": {
                "isced:level": "1;2",
                "ref:rspo": 11390,
                "official_name": "Szko\u0142a Podstawowa w Komaszycach",
                "name": "Szko\u0142a Podstawowa w Komaszycach",
                "addr:country": "PL",
                "addr:postcode": "24-300",
                "addr:place": "Stare Komaszyce",
                "addr:housenumber": "22",
                "addr:teryt:simc": 388547,
                "contact:phone": "+48 818273039",
                "contact:email": "komaszyce_szkola@wp.pl",
                "ref:regon": "061457019",
                "ref:vatin": "PL7171729421",
                "operator": "Stowarzyszenie Na Rzecz Rozwoju Wsi I Inicjatyw Kulturalno-O\u015bwiatowych \"Nasza Szko\u0142a\"",
                "operator:type": "ngo",
                "amenity": "school"
            }
        },
        {
            "id": 4448,
            "type": "Feature",
            "geometry": {
                "type": "Point",
                "coordinates": [
                    21.98422,
                    51.13788
                ]
            },
            "properties": {
                "ref:rspo": 4448,
                "official_name": "Centrum Kszta\u0142cenia Ustawicznego",
                "name": "Centrum Kszta\u0142cenia Ustawicznego",
                "addr:country": "PL",
                "addr:postcode": "24-300",
                "addr:city": "Opole Lubelskie",
                "addr:street": "Owocowa",
                "addr:housenumber": "7",
                "addr:teryt:simc": 956550,
                "addr:teryt:sym_ul": 15479,
                "contact:email": "zsd_opole_lubelskie@sw.gov.pl",
                "ref:regon": "061449020",
                "operator": "Ministerstwo Sprawiedliwo\u015bci",
                "operator:type": "public",
                "amenity": "school",
                "fixme": "amenity=school lub amenity=college",
                "note": "Children RSPO: 11110"
            }
        },
        {
            "id": 10254,
            "type": "Feature",
            "geometry": {
                "type": "Point",
                "coordinates": [
                    21.97963142395,
                    51.139041900635
                ]
            },
            "properties": {
                "ref:rspo": 10254,
                "official_name": "Niepubliczny Punkt Przedszkolny \"Maluszek\"",
                "name": "Niepubliczny Punkt Przedszkolny \"Maluszek\"",
                "addr:country": "PL",
                "addr:postcode": "24-300",
                "addr:place": "Niezd\u00f3w",
                "addr:housenumber": "97",
                "addr:teryt:simc": 388412,
                "contact:phone": "+48 818272053",
                "ref:regon": "061455894",
                "operator": "Stowarzyszenie Kulturalno-O\u015bwiatowe \"Inicjatywa\" W Niezdowie",
                "operator:type": "ngo",
                "amenity": "kindergarten"
            }
        },
        {
            "id": 10376,
            "type": "Feature",
            "geometry": {
                "type": "Point",
                "coordinates": [
                    21.97963142395,
                    51.139011900635
                ]
            },
            "properties": {
                "isced:level": "1;2",
                "ref:rspo": 10376,
                "official_name": "Szko\u0142a Podstawowa w Skokowie",
                "name": "Szko\u0142a Podstawowa w Skokowie",
                "addr:country": "PL",
                "addr:postcode": "24-300",
                "addr:place": "Skok\u00f3w",
                "addr:housenumber": "84",
                "addr:teryt:simc": 388524,
                "contact:phone": "+48 818273060",
                "contact:email": "spskokow@onet.pl",
                "contact:website": "http:\/\/www.spskokow.szkolnastrona.pl",
                "ref:regon": "001152500",
                "ref:vatin": "PL7171728404",
                "operator": "Gmina Opole Lubelskie",
                "operator:type": "government",
                "amenity": "school"
            }
        },
        {
            "id": 10405,
            "type": "Feature",
            "geometry": {
                "type": "Point",
                "coordinates": [
                    21.97963142395,
                    51.138981900635
                ]
            },
            "properties": {
                "isced:level": "1;2",
                "ref:rspo": 10405,
                "official_name": "Szko\u0142a Podstawowa w Wandalinie",
                "name": "Szko\u0142a Podstawowa w Wandalinie",
                "addr:country": "PL",
                "addr:postcode": "24-300",
                "addr:place": "Wandalin",
                "addr:housenumber": "71",
                "addr:teryt:simc": 388582,
                "contact:phone": "+48 818270007",
                "contact:email": "spwandalin@poczta.onet.pl",
                "contact:website": "http:\/\/www.spwandalin.pl",
                "ref:regon": "001152551",
                "ref:vatin": "PL7171729415",
                "operator": "Gmina Opole Lubelskie",
                "operator:type": "government",
                "amenity": "school"
            }
        },
        {
            "id": 11389,
            "type": "Feature",
            "geometry": {
                "type": "Point",
                "coordinates": [
                    21.97963142395,
                    51.138951900635
                ]
            },
            "properties": {
                "isced:level": "1;2",
                "ref:rspo": 11389,
                "official_name": "Szko\u0142a Podstawowa w Niezdowie",
                "name": "Szko\u0142a Podstawowa w Niezdowie",
                "addr:country": "PL",
                "addr:postcode": "24-300",
                "addr:place": "Niezd\u00f3w",
                "addr:housenumber": "97",
                "addr:teryt:simc": 388412,
                "contact:phone": "+48 818272053",
                "contact:email": "spniezdow@op.pl",
                "contact:website": "http:\/\/szkolawniezdowie.szkolna.net",
                "ref:regon": "061456965",
                "ref:vatin": "PL7171286857",
                "operator": "Stowarzyszenie Kulturalno-O\u015bwiatowe \"Inicjatywa\" W Niezdowie",
                "operator:type": "ngo",
                "amenity": "school"
            }
        },
        {
            "id": 20139,
            "type": "Feature",
            "geometry": {
                "type": "Point",
                "coordinates": [
                    21.97963142395,
                    51.138921900635
                ]
            },
            "properties": {
                "isced:level": "1;2",
                "ref:rspo": 20139,
                "official_name": "Szko\u0142a Podstawowa w Kluczkowicach im. B\u0142. Jana Paw\u0142a Ii",
                "name": "Szko\u0142a Podstawowa w Kluczkowicach",
                "addr:country": "PL",
                "addr:postcode": "24-300",
                "addr:place": "Kluczkowice",
                "addr:housenumber": "128",
                "addr:teryt:simc": 388352,
                "contact:phone": "+48 818271011",
                "contact:email": "szkola@kluczkowice.edu.pl",
                "contact:website": "http:\/\/spkluczkowice.pl",
                "ref:regon": "431269636",
                "ref:vatin": "PL7171239881",
                "operator": "Gmina Opole Lubelskie",
                "operator:type": "government",
                "amenity": "school"
            }
        },
        {
            "id": 10520,
            "type": "Feature",
            "geometry": {
                "type": "Point",
                "coordinates": [
                    21.97736,
                    51.14414
                ]
            },
            "properties": {
                "ref:rspo": 10520,
                "official_name": "Przedszkole Miejskie w Opolu Lubelskim",
                "name": "Przedszkole Miejskie w Opolu Lubelskim",
                "addr:country": "PL",
                "addr:postcode": "24-300",
                "addr:city": "Opole Lubelskie",
                "addr:street": "Przemys\u0142owa",
                "addr:housenumber": "3",
                "addr:teryt:simc": 956550,
                "addr:teryt:sym_ul": 17742,
                "contact:phone": "+48 818272275",
                "contact:email": "przedszkole@opolelubelskie.pl",
                "ref:regon": "430111235",
                "ref:vatin": "PL7171255087",
                "operator": "Gmina Opole Lubelskie",
                "operator:type": "government",
                "amenity": "kindergarten"
            }
        },
        {
            "id": 10433,
            "type": "Feature",
            "geometry": {
                "type": "Point",
                "coordinates": [
                    21.95713,
                    51.14448
                ]
            },
            "properties": {
                "ref:rspo": 10433,
                "official_name": "Promyczek",
                "name": "Promyczek",
                "addr:country": "PL",
                "addr:postcode": "24-300",
                "addr:city": "Opole Lubelskie",
                "addr:street": "Przedmie\u015bcie",
                "addr:housenumber": "1",
                "addr:teryt:simc": 956550,
                "addr:teryt:sym_ul": 17658,
                "contact:email": "info@promyczek-opolelubelskie.pl",
                "contact:website": "http:\/\/www.promyczek-opolelubelskie.pl",
                "ref:regon": "061456095",
                "ref:vatin": "PL7171552365",
                "operator": "Justyna \u0141ukasiewicz",
                "operator:type": "private",
                "amenity": "kindergarten"
            }
        },
        {
            "id": 20251,
            "type": "Feature",
            "geometry": {
                "type": "Point",
                "coordinates": [
                    21.97537,
                    51.14645
                ]
            },
            "properties": {
                "isced:level": "1;2",
                "ref:rspo": 20251,
                "official_name": "Szko\u0142a Podstawowa Nr 2 im. Oskara Kolberga w Opolu Lubelskim",
                "name": "Szko\u0142a Podstawowa Nr 2",
                "addr:country": "PL",
                "addr:postcode": "24-300",
                "addr:city": "Opole Lubelskie",
                "addr:street": "Fabryczna",
                "addr:housenumber": "28",
                "addr:teryt:simc": 956550,
                "addr:teryt:sym_ul": 4863,
                "contact:phone": "+48 818272048",
                "contact:email": "zesp_dwojka@poczta.onet.pl",
                "contact:website": "http:\/\/sp2opolelubelskie.pl",
                "ref:regon": "431268588",
                "ref:vatin": "PL7171254366",
                "operator": "Gmina Opole Lubelskie",
                "operator:type": "government",
                "amenity": "school"
            }
        },
        {
            "id": 74072,
            "type": "Feature",
            "geometry": {
                "type": "Point",
                "coordinates": [
                    21.97425,
                    51.1493899
                ]
            },
            "properties": {
                "ref:rspo": 74072,
                "official_name": "Zesp\u00f3\u0142 Szk\u00f3\u0142 Zawodowych im. Stanis\u0142awa Konarskiego w Opolu Lubelskim",
                "name": "Zesp\u00f3\u0142 Szk\u00f3\u0142 Zawodowych",
                "addr:country": "PL",
                "addr:postcode": "24-300",
                "addr:city": "Opole Lubelskie",
                "addr:street": "Kolejowa",
                "addr:housenumber": "2",
                "addr:teryt:simc": 956550,
                "addr:teryt:sym_ul": 8828,
                "contact:phone": "+48 818272175",
                "contact:email": "zszol@o2.pl",
                "contact:website": "http:\/\/zszopolelubelskie.pl",
                "ref:regon": "000880573",
                "ref:vatin": "PL7171241369",
                "operator": "Powiat Opolski",
                "operator:type": "government",
                "landuse": "education",
                "fixme": "amenity=school, amenity=college albo landuse=education w zale\u017cno\u015bci od tego, jakie plac\u00f3wki wchodz\u0105 w sk\u0142ad zespo\u0142u. Sprawd\u017a, kiedy stosowa\u0107 amenity=* a kiedy landuse=education.",
                "note": "Children RSPO: 106692;106822;107046;107144;107185;107400;107476;133119;276084;277115"
            }
        },
        {
            "id": 106692,
            "type": "Feature",
            "geometry": {
                "type": "Point",
                "coordinates": [
                    21.97425,
                    51.1493599
                ]
            },
            "properties": {
                "isced:level": "3",
                "ref:rspo": 106692,
                "official_name": "Bran\u017cowa Szko\u0142a I Stopnia w Opolu Lubelskim",
                "name": "Bran\u017cowa Szko\u0142a I Stopnia w Opolu Lubelskim",
                "addr:country": "PL",
                "addr:postcode": "24-300",
                "addr:city": "Opole Lubelskie",
                "addr:street": "Kolejowa",
                "addr:housenumber": "2",
                "addr:teryt:simc": 956550,
                "addr:teryt:sym_ul": 8828,
                "contact:phone": "+48 818272175",
                "contact:email": "zszol@o2.pl",
                "ref:regon": "431254936",
                "operator": "Powiat Opolski",
                "operator:type": "government",
                "amenity": "school",
                "note": "Parent RSPO: 74072"
            }
        },
        {
            "id": 106822,
            "type": "Feature",
            "geometry": {
                "type": "Point",
                "coordinates": [
                    21.97425,
                    51.149329900000005
                ]
            },
            "properties": {
                "isced:level": "3",
                "ref:rspo": 106822,
                "official_name": "Technikum w Opolu Lubelskim",
                "name": "Technikum w Opolu Lubelskim",
                "addr:country": "PL",
                "addr:postcode": "24-300",
                "addr:city": "Opole Lubelskie",
                "addr:street": "Kolejowa",
                "addr:housenumber": "2",
                "addr:teryt:simc": 956550,
                "addr:teryt:sym_ul": 8828,
                "contact:phone": "+48 818272175",
                "contact:email": "zszol@o2.pl",
                "ref:regon": "060550432",
                "operator": "Powiat Opolski",
                "operator:type": "government",
                "amenity": "school",
                "note": "Parent RSPO: 74072"
            }
        },
        {
            "id": 107400,
            "type": "Feature",
            "geometry": {
                "type": "Point",
                "coordinates": [
                    21.97425,
                    51.1492999
                ]
            },
            "properties": {
                "ref:rspo": 107400,
                "official_name": "Centrum Kszta\u0142cenia Ustawicznego",
                "name": "Centrum Kszta\u0142cenia Ustawicznego",
                "addr:country": "PL",
                "addr:postcode": "24-300",
                "addr:city": "Opole Lubelskie",
                "addr:street": "Kolejowa",
                "addr:housenumber": "2",
                "addr:teryt:simc": 956550,
                "addr:teryt:sym_ul": 8828,
                "contact:phone": "+48 818272175",
                "contact:email": "zszol@o2.pl",
                "ref:regon": "060205043",
                "operator": "Powiat Opolski",
                "operator:type": "government",
                "fixme": "w zale\u017cno\u015bci od przedmiotu dzia\u0142alno\u015bci (np. amenity=training + training=*, amenity=dancing_school, amenity=language_school, amenity=music_school)",
                "note": "Parent RSPO: 74072"
            }
        },
        {
            "id": 107476,
            "type": "Feature",
            "geometry": {
                "type": "Point",
                "coordinates": [
                    21.97425,
                    51.1492699
                ]
            },
            "properties": {
                "ref:rspo": 107476,
                "official_name": "O\u015brodek Dokszta\u0142cania I Doskonalenia Zawodowego w Kluczkowicach",
                "name": "O\u015brodek Dokszta\u0142cania I Doskonalenia Zawodowego w Kluczkowicach",
                "addr:country": "PL",
                "addr:postcode": "24-300",
                "addr:city": "Opole Lubelskie",
                "addr:street": "Kolejowa",
                "addr:housenumber": "2",
                "addr:teryt:simc": 956550,
                "addr:teryt:sym_ul": 8828,
                "contact:phone": "+48 818272175",
                "contact:email": "zszol@o2.pl",
                "ref:regon": "060205066",
                "operator": "Powiat Opolski",
                "operator:type": "government",
                "fixme": "w zale\u017cno\u015bci od przedmiotu dzia\u0142alno\u015bci (np. amenity=training + training=*, amenity=dancing_school, amenity=language_school, amenity=music_school) albo amenity=school, amenity=college, albo landuse=education w zale\u017cno\u015bci od tego, jakie plac\u00f3wki wchodz\u0105 w sk\u0142ad zespo\u0142u. Sprawd\u017a, kiedy stosowa\u0107 amenity=* a kiedy landuse=education.",
                "note": "Parent RSPO: 74072"
            }
        },
        {
            "id": 133119,
            "type": "Feature",
            "geometry": {
                "type": "Point",
                "coordinates": [
                    21.97425,
                    51.149239900000005
                ]
            },
            "properties": {
                "isced:level": "4",
                "ref:rspo": 133119,
                "official_name": "Szko\u0142a Policealna w Opolu Lubelskim",
                "name": "Szko\u0142a Policealna w Opolu Lubelskim",
                "addr:country": "PL",
                "addr:postcode": "24-300",
                "addr:city": "Opole Lubelskie",
                "addr:street": "Kolejowa",
                "addr:housenumber": "2",
                "addr:teryt:simc": 956550,
                "addr:teryt:sym_ul": 8828,
                "contact:phone": "+48 818272175",
                "contact:email": "zszol@o2.pl",
                "ref:regon": "060056531",
                "operator": "Powiat Opolski",
                "operator:type": "government",
                "amenity": "college",
                "note": "Parent RSPO: 74072"
            }
        },
        {
            "id": 276084,
            "type": "Feature",
            "geometry": {
                "type": "Point",
                "coordinates": [
                    21.97425,
                    51.1492099
                ]
            },
            "properties": {
                "ref:rspo": 276084,
                "official_name": "Centrum Kszta\u0142cenia Zawodowego",
                "name": "Centrum Kszta\u0142cenia Zawodowego",
                "addr:country": "PL",
                "addr:postcode": "24-300",
                "addr:city": "Opole Lubelskie",
                "addr:street": "Kolejowa",
                "addr:housenumber": "2",
                "addr:teryt:simc": 956550,
                "addr:teryt:sym_ul": 8828,
                "contact:phone": "+48 818272175",
                "contact:email": "zszol@o2.pl",
                "ref:regon": "386985703",
                "operator": "Powiat Opolski",
                "operator:type": "government",
                "fixme": "w zale\u017cno\u015bci od przedmiotu dzia\u0142alno\u015bci (np. amenity=training + training=*, amenity=dancing_school, amenity=language_school, amenity=music_school) albo amenity=school, amenity=college, albo landuse=education w zale\u017cno\u015bci od tego, jakie plac\u00f3wki wchodz\u0105 w sk\u0142ad zespo\u0142u. Sprawd\u017a, kiedy stosowa\u0107 amenity=* a kiedy landuse=education.",
                "note": "Parent RSPO: 74072"
            }
        },
        {
            "id": 277115,
            "type": "Feature",
            "geometry": {
                "type": "Point",
                "coordinates": [
                    21.97425,
                    51.1491799
                ]
            },
            "properties": {
                "isced:level": "3",
                "ref:rspo": 277115,
                "official_name": "Bran\u017cowa Szko\u0142a II Stopnia w Opolu Lubelskim",
                "name": "Bran\u017cowa Szko\u0142a II Stopnia w Opolu Lubelskim",
                "addr:country": "PL",
                "addr:postcode": "24-300",
                "addr:city": "Opole Lubelskie",
                "addr:street": "Kolejowa",
                "addr:housenumber": "2",
                "addr:teryt:simc": 956550,
                "addr:teryt:sym_ul": 8828,
                "contact:phone": "+48 818272175",
                "contact:email": "zszol@o2.pl",
                "contact:website": "http:\/\/zszopolelubelskie.pl",
                "ref:regon": "388199794",
                "operator": "Powiat Opolski",
                "operator:type": "government",
                "amenity": "school",
                "note": "Parent RSPO: 74072"
            }
        },
        {
            "id": 74074,
            "type": "Feature",
            "geometry": {
                "type": "Point",
                "coordinates": [
                    21.97562,
                    51.1507099
                ]
            },
            "properties": {
                "isced:level": "3",
                "ref:rspo": 74074,
                "official_name": "Liceum Og\u00f3lnokszta\u0142c\u0105ce im. Adama Mickiewicza w Opolu Lubelskim",
                "name": "Liceum Og\u00f3lnokszta\u0142c\u0105ce",
                "addr:country": "PL",
                "addr:postcode": "24-300",
                "addr:city": "Opole Lubelskie",
                "addr:street": "Lipowa",
                "addr:housenumber": "23",
                "addr:teryt:simc": 956550,
                "addr:teryt:sym_ul": 11139,
                "contact:phone": "+48 818272076",
                "contact:email": "liceum@liceumopolelub.pl",
                "contact:website": "http:\/\/liceumopolelub.pl",
                "ref:regon": "000860560",
                "ref:vatin": "PL7171241352",
                "operator": "Powiat Opolski",
                "operator:type": "government",
                "amenity": "school"
            }
        },
        {
            "id": 129202,
            "type": "Feature",
            "geometry": {
                "type": "Point",
                "coordinates": [
                    21.97141,
                    51.1517399
                ]
            },
            "properties": {
                "ref:rspo": 129202,
                "official_name": "Prywatna Poradnia Psychologiczno-Pedagogiczna \"Sto Pociech w Opolu Lubelskim\"",
                "name": "Prywatna Poradnia Psychologiczno-Pedagogiczna \"Sto Pociech w Opolu Lubelskim\"",
                "addr:country": "PL",
                "addr:postcode": "24-300",
                "addr:city": "Opole Lubelskie",
                "addr:street": "Lubelska",
                "addr:housenumber": "37",
                "addr:teryt:simc": 956550,
                "addr:teryt:sym_ul": 11307,
                "contact:phone": "+48 695139150",
                "contact:email": "jmw.stopociech@gmail.com",
                "ref:regon": "362515710",
                "operator": "Joanna Mirowska-Wieczorek",
                "operator:type": "private",
                "healthcare": "counselling",
                "counselling_type": "education",
                "fixme": "w zale\u017cno\u015bci od przedmiotu dzia\u0142alno\u015bci (np. healthcare=counselling + counselling_type=education albo healthcare=psychotherapist)"
            }
        },
        {
            "id": 132262,
            "type": "Feature",
            "geometry": {
                "type": "Point",
                "coordinates": [
                    21.97141,
                    51.1517099
                ]
            },
            "properties": {
                "ref:rspo": 132262,
                "official_name": "Niepubliczne Przedszkole Specjalne \"Tajemniczy Ogr\u00f3d\"",
                "name": "Niepubliczne Przedszkole Specjalne \"Tajemniczy Ogr\u00f3d\"",
                "addr:country": "PL",
                "addr:postcode": "24-300",
                "addr:city": "Opole Lubelskie",
                "addr:street": "Lubelska",
                "addr:housenumber": "37",
                "addr:teryt:simc": 956550,
                "addr:teryt:sym_ul": 11307,
                "contact:phone": "+48 690501561",
                "contact:email": "jw.tajemniczyogrod@gmail.com",
                "ref:regon": "365523123",
                "ref:vatin": "PL7121553612",
                "operator": "Jerzy Wieczorek",
                "operator:type": "private",
                "amenity": "kindergarten"
            }
        },
        {
            "id": 43685,
            "type": "Feature",
            "geometry": {
                "type": "Point",
                "coordinates": [
                    21.97203,
                    51.15638
                ]
            },
            "properties": {
                "isced:level": "1;2",
                "ref:rspo": 43685,
                "official_name": "Szko\u0142a Podstawowa Nr 1 im. Kornela Makuszy\u0144skiego w Opolu Lubelskim",
                "name": "Szko\u0142a Podstawowa Nr 1",
                "addr:country": "PL",
                "addr:postcode": "24-300",
                "addr:city": "Opole Lubelskie",
                "addr:street": "Szkolna",
                "addr:housenumber": "5",
                "addr:teryt:simc": 956550,
                "addr:teryt:sym_ul": 21970,
                "contact:phone": "+48 818272177",
                "contact:email": "sekretariat@sp1opolelub.pl",
                "contact:website": "http:\/\/www.sp1opolelub.pl\/",
                "ref:regon": "431265667",
                "ref:vatin": "PL7171263626",
                "operator": "Gmina Opole Lubelskie",
                "operator:type": "government",
                "amenity": "school"
            }
        },
        {
            "id": 74073,
            "type": "Feature",
            "geometry": {
                "type": "Point",
                "coordinates": [
                    21.97203,
                    51.156349999999996
                ]
            },
            "properties": {
                "ref:rspo": 74073,
                "official_name": "Poradni Psychologiczno-Pedagogiczna w Opolu Lubelskim",
                "name": "Poradni Psychologiczno-Pedagogiczna w Opolu Lubelskim",
                "addr:country": "PL",
                "addr:postcode": "24-300",
                "addr:city": "Opole Lubelskie",
                "addr:street": "Szkolna",
                "addr:housenumber": "5",
                "addr:teryt:simc": 956550,
                "addr:teryt:sym_ul": 21970,
                "contact:phone": "+48 818272367",
                "contact:email": "ppp.opole.lub@interia.pl",
                "ref:regon": "000802700",
                "operator": "Powiat Opolski",
                "operator:type": "government",
                "healthcare": "counselling",
                "counselling_type": "education",
                "fixme": "w zale\u017cno\u015bci od przedmiotu dzia\u0142alno\u015bci (np. healthcare=counselling + counselling_type=education albo healthcare=psychotherapist)"
            }
        },
        {
            "id": 11110,
            "type": "Feature",
            "geometry": {
                "type": "Point",
                "coordinates": [
                    22.03147,
                    51.1808
                ]
            },
            "properties": {
                "isced:level": "3",
                "ref:rspo": 11110,
                "official_name": "Liceum Og\u00f3lnokszta\u0142c\u0105ce dla Doros\u0142ych",
                "name": "Liceum Og\u00f3lnokszta\u0142c\u0105ce dla Doros\u0142ych",
                "addr:country": "PL",
                "addr:postcode": "24-300",
                "addr:place": "Opole Lubelskie",
                "addr:housenumber": "7",
                "addr:teryt:simc": 956550,
                "contact:phone": "+48 818276979",
                "contact:email": "zsd_opole_lubelskie@sw.gov.pl",
                "ref:regon": "060616556",
                "operator": "Ministerstwo Sprawiedliwo\u015bci",
                "operator:type": "public",
                "amenity": "school",
                "note": "Parent RSPO: 4448"
            }
        }
    ]
}