{
    "type": "FeatureCollection",
    "features": [
        {
            "id": 80775,
            "type": "Feature",
            "geometry": {
                "type": "Point",
                "coordinates": [
                    22.08045,
                    53.15557
                ]
            },
            "properties": {
                "ref:rspo": 80775,
                "official_name": "Przedszkole Niepubliczne \"Nutka\"",
                "name": "Przedszkole Niepubliczne \"Nutka\"",
                "addr:postcode": "18-400",
                "addr:city": "\u0141om\u017ca",
                "addr:street": "Sybirak\u00f3w",
                "addr:housenumber": "24",
                "addr:city:simc": 957241,
                "addr:street:sym_ul": 21641,
                "phone": "+48 530417087",
                "email": "jm.drotis@gmail.com",
                "ref:regon": "200741434",
                "ref:vatin": "PL7182139485",
                "operator": "\"Fundacja Dr Otis\"",
                "operator:type": "ngo",
                "amenity": "kindergarten"
            }
        },
        {
            "id": 128708,
            "type": "Feature",
            "geometry": {
                "type": "Point",
                "coordinates": [
                    22.08045,
                    53.155539999999995
                ]
            },
            "properties": {
                "isced:level": "1;2",
                "ref:rspo": 128708,
                "official_name": "Szko\u0142a Podstawowa Specjalna dla Dzieci z Autyzmem I Niepe\u0142nosprawno\u015bciami Sprz\u0119\u017conymi w \u0141om\u017cy",
                "name": "Szko\u0142a Podstawowa Specjalna dla Dzieci z Autyzmem I Niepe\u0142nosprawno\u015bciami Sprz\u0119\u017conymi w \u0141om\u017cy",
                "addr:postcode": "18-400",
                "addr:city": "\u0141om\u017ca",
                "addr:street": "Sybirak\u00f3w",
                "addr:housenumber": "24",
                "addr:city:simc": 957241,
                "addr:street:sym_ul": 21641,
                "phone": "+48 606741343",
                "email": "fundacja.drotis@gmail.com",
                "ref:regon": "362364411",
                "ref:vatin": "PL7182139485",
                "operator": "\"Fundacja Dr Otis\"",
                "operator:type": "ngo",
                "amenity": "school"
            }
        },
        {
            "id": 13123,
            "type": "Feature",
            "geometry": {
                "type": "Point",
                "coordinates": [
                    22.06792,
                    53.15836
                ]
            },
            "properties": {
                "ref:rspo": 13123,
                "official_name": "Przedszkole Publiczne nr 15 w \u0141om\u017cy",
                "name": "Przedszkole Publiczne nr 15 w \u0141om\u017cy",
                "addr:postcode": "18-400",
                "addr:city": "\u0141om\u017ca",
                "addr:street": "Hugona Ko\u0142\u0142\u0105taja",
                "addr:housenumber": "10",
                "addr:city:simc": 957241,
                "addr:street:sym_ul": 9003,
                "phone": "+48 862189119",
                "email": "przedszkole_nr_15@interia.pl",
                "ref:regon": "450033867",
                "ref:vatin": "PL7181751534",
                "operator": "Miasto \u0141om\u017ca",
                "operator:type": "government",
                "amenity": "kindergarten"
            }
        },
        {
            "id": 131531,
            "type": "Feature",
            "geometry": {
                "type": "Point",
                "coordinates": [
                    22.07722,
                    53.15836
                ]
            },
            "properties": {
                "ref:rspo": 131531,
                "official_name": "Przedszkole Niepubliczne \"Motylek\" w \u0141om\u017cy",
                "name": "Przedszkole Niepubliczne \"Motylek\" w \u0141om\u017cy",
                "addr:postcode": "18-400",
                "addr:city": "\u0141om\u017ca",
                "addr:street": "Porucznika Hieronima \u0141agody",
                "addr:housenumber": "4",
                "addr:city:simc": 957241,
                "addr:street:sym_ul": 26959,
                "phone": "+48 577016220",
                "email": "drotis.lomza@gmail.com",
                "ref:regon": "365215812",
                "operator": "Dorota Zwierzy\u0144ska",
                "operator:type": "private",
                "amenity": "kindergarten"
            }
        },
        {
            "id": 13453,
            "type": "Feature",
            "geometry": {
                "type": "Point",
                "coordinates": [
                    22.07223,
                    53.1586
                ]
            },
            "properties": {
                "isced:level": "1;2",
                "ref:rspo": 13453,
                "official_name": "Szko\u0142a Podstawowa nr 10 im. Jana Paw\u0142a II w \u0141om\u017cy",
                "name": "Szko\u0142a Podstawowa nr 10",
                "addr:postcode": "18-400",
                "addr:city": "\u0141om\u017ca",
                "addr:street": "Juliana Ursyna Niemcewicza",
                "addr:housenumber": "17",
                "addr:city:simc": 957241,
                "addr:street:sym_ul": 14177,
                "phone": "+48 862189010",
                "email": "sekretariat@sp10lomza.pl",
                "website": "http:\/\/sp10lomza.pl",
                "ref:regon": "450108074",
                "operator": "Miasto \u0141om\u017ca",
                "operator:type": "government",
                "amenity": "school"
            }
        },
        {
            "id": 13122,
            "type": "Feature",
            "geometry": {
                "type": "Point",
                "coordinates": [
                    22.06882,
                    53.1589
                ]
            },
            "properties": {
                "ref:rspo": 13122,
                "official_name": "Przedszkole Publiczne nr 14 w \u0141om\u017cy",
                "name": "Przedszkole Publiczne nr 14 w \u0141om\u017cy",
                "addr:postcode": "18-400",
                "addr:city": "\u0141om\u017ca",
                "addr:street": "Hugona Ko\u0142\u0142\u0105taja",
                "addr:housenumber": "8",
                "addr:city:simc": 957241,
                "addr:street:sym_ul": 9003,
                "phone": "+48 862188552",
                "email": "dyrektor@przedszkole14.lomza.pl",
                "website": "http:\/\/przedszkole14.lomza.pl\/",
                "ref:regon": "450033850",
                "ref:vatin": "PL7181751497",
                "operator": "Miasto \u0141om\u017ca",
                "operator:type": "government",
                "amenity": "kindergarten"
            }
        },
        {
            "id": 14327,
            "type": "Feature",
            "geometry": {
                "type": "Point",
                "coordinates": [
                    22.0618899,
                    53.1596
                ]
            },
            "properties": {
                "ref:rspo": 14327,
                "official_name": "Zesp\u00f3\u0142 Szk\u00f3\u0142 Mechanicznych I Og\u00f3lnokszta\u0142c\u0105cych nr 5 im. Marsza\u0142ka J\u00f3zefa Pi\u0142sudskiego w \u0141om\u017cy",
                "name": "Zesp\u00f3\u0142 Szk\u00f3\u0142 Mechanicznych I Og\u00f3lnokszta\u0142c\u0105cych nr 5",
                "addr:postcode": "18-400",
                "addr:city": "\u0141om\u017ca",
                "addr:street": "Przykoszarowa",
                "addr:housenumber": "22",
                "addr:city:simc": 957241,
                "addr:street:sym_ul": 17945,
                "phone": "+48 862198793",
                "email": "sekretariat@zsmio.pl",
                "website": "http:\/\/zsmio.pl",
                "ref:regon": "000182739",
                "ref:vatin": "PL7181459880",
                "operator": "Miasto \u0141om\u017ca",
                "operator:type": "government",
                "landuse": "education",
                "fixme": "amenity=school, amenity=college albo landuse=education w zale\u017cno\u015bci od tego, jakie plac\u00f3wki wchodz\u0105 w sk\u0142ad zespo\u0142u. Sprawd\u017a, kiedy stosowa\u0107 amenity=* a kiedy landuse=education.",
                "note": "Children RSPO: 24421;24422;24423"
            }
        },
        {
            "id": 14330,
            "type": "Feature",
            "geometry": {
                "type": "Point",
                "coordinates": [
                    22.0618899,
                    53.159569999999995
                ]
            },
            "properties": {
                "ref:rspo": 14330,
                "official_name": "Centrum Kszta\u0142cenia Zawodowego I Ustawicznego w \u0141om\u017cy",
                "name": "Centrum Kszta\u0142cenia Zawodowego I Ustawicznego w \u0141om\u017cy",
                "addr:postcode": "18-400",
                "addr:city": "\u0141om\u017ca",
                "addr:street": "Przykoszarowa",
                "addr:housenumber": "22",
                "addr:city:simc": 957241,
                "addr:street:sym_ul": 17945,
                "phone": "+48 862182790",
                "email": "info@zckpiu.pl",
                "website": "http:\/\/www.zckpiu.pl",
                "ref:regon": "451190327",
                "ref:vatin": "PL7181919057",
                "operator": "Miasto \u0141om\u017ca",
                "operator:type": "government",
                "landuse": "education",
                "fixme": "amenity=school, amenity=college albo landuse=education w zale\u017cno\u015bci od tego, jakie plac\u00f3wki wchodz\u0105 w sk\u0142ad zespo\u0142u. Sprawd\u017a, kiedy stosowa\u0107 amenity=* a kiedy landuse=education.",
                "note": "Children RSPO: 22799;22801;113460;113844"
            }
        },
        {
            "id": 24421,
            "type": "Feature",
            "geometry": {
                "type": "Point",
                "coordinates": [
                    22.0618899,
                    53.15954
                ]
            },
            "properties": {
                "isced:level": "3",
                "ref:rspo": 24421,
                "official_name": "V Liceum Og\u00f3lnokszta\u0142c\u0105ce",
                "name": "V Liceum Og\u00f3lnokszta\u0142c\u0105ce",
                "addr:postcode": "18-400",
                "addr:city": "\u0141om\u017ca",
                "addr:street": "Przykoszarowa",
                "addr:housenumber": "22",
                "addr:city:simc": 957241,
                "addr:street:sym_ul": 17945,
                "phone": "+48 862198793",
                "email": "sekretariat@zsmio.pl",
                "website": "http:\/\/zsmio.pl",
                "ref:regon": "451152249",
                "operator": "Miasto \u0141om\u017ca",
                "operator:type": "government",
                "amenity": "school",
                "note": "Parent RSPO: 14327"
            }
        },
        {
            "id": 24422,
            "type": "Feature",
            "geometry": {
                "type": "Point",
                "coordinates": [
                    22.0618899,
                    53.15951
                ]
            },
            "properties": {
                "isced:level": "3",
                "ref:rspo": 24422,
                "official_name": "Technikum nr 5",
                "name": "Technikum nr 5",
                "addr:postcode": "18-400",
                "addr:city": "\u0141om\u017ca",
                "addr:street": "Przykoszarowa",
                "addr:housenumber": "22",
                "addr:city:simc": 957241,
                "addr:street:sym_ul": 17945,
                "phone": "+48 862198793",
                "email": "sekretariat@zsmio.pl",
                "website": "http:\/\/zsmio.pl",
                "ref:regon": "451152210",
                "operator": "Miasto \u0141om\u017ca",
                "operator:type": "government",
                "amenity": "school",
                "note": "Parent RSPO: 14327"
            }
        },
        {
            "id": 24423,
            "type": "Feature",
            "geometry": {
                "type": "Point",
                "coordinates": [
                    22.0618899,
                    53.159479999999995
                ]
            },
            "properties": {
                "isced:level": "3",
                "ref:rspo": 24423,
                "official_name": "Bran\u017cowa Szko\u0142a I Stopnia nr 5",
                "name": "Bran\u017cowa Szko\u0142a I Stopnia nr 5",
                "addr:postcode": "18-400",
                "addr:city": "\u0141om\u017ca",
                "addr:street": "Przykoszarowa",
                "addr:housenumber": "22",
                "addr:city:simc": 957241,
                "addr:street:sym_ul": 17945,
                "phone": "+48 862198793",
                "email": "sekretariat@zsmio.pl",
                "website": "http:\/\/zsmio.pl",
                "ref:regon": "451152203",
                "operator": "Miasto \u0141om\u017ca",
                "operator:type": "government",
                "amenity": "school",
                "note": "Parent RSPO: 14327"
            }
        },
        {
            "id": 22799,
            "type": "Feature",
            "geometry": {
                "type": "Point",
                "coordinates": [
                    22.0618899,
                    53.15945
                ]
            },
            "properties": {
                "isced:level": "3",
                "ref:rspo": 22799,
                "official_name": "I Liceum Og\u00f3lnokszta\u0142c\u0105ce dla Doros\u0142ych w \u0141om\u017cy",
                "name": "I Liceum Og\u00f3lnokszta\u0142c\u0105ce dla Doros\u0142ych w \u0141om\u017cy",
                "addr:postcode": "18-400",
                "addr:city": "\u0141om\u017ca",
                "addr:street": "Przykoszarowa",
                "addr:housenumber": "22",
                "addr:city:simc": 957241,
                "addr:street:sym_ul": 17945,
                "phone": "+48 862182790",
                "email": "info@zckpiu.pl",
                "website": "http:\/\/www.zckpiu.pl",
                "ref:regon": "451190190",
                "operator": "Miasto \u0141om\u017ca",
                "operator:type": "government",
                "amenity": "school",
                "note": "Parent RSPO: 14330"
            }
        },
        {
            "id": 22801,
            "type": "Feature",
            "geometry": {
                "type": "Point",
                "coordinates": [
                    22.0618899,
                    53.15942
                ]
            },
            "properties": {
                "isced:level": "4",
                "ref:rspo": 22801,
                "official_name": "Policealna Szko\u0142a nr 2 w \u0141om\u017cy",
                "name": "Policealna Szko\u0142a nr 2 w \u0141om\u017cy",
                "addr:postcode": "18-400",
                "addr:city": "\u0141om\u017ca",
                "addr:street": "Przykoszarowa",
                "addr:housenumber": "22",
                "addr:city:simc": 957241,
                "addr:street:sym_ul": 17945,
                "phone": "+48 862162790",
                "email": "info@zckpiu.pl",
                "website": "http:\/\/www.zckpiu.pl",
                "ref:regon": "200035080",
                "operator": "Miasto \u0141om\u017ca",
                "operator:type": "government",
                "amenity": "college",
                "note": "Parent RSPO: 14330"
            }
        },
        {
            "id": 113460,
            "type": "Feature",
            "geometry": {
                "type": "Point",
                "coordinates": [
                    22.0618899,
                    53.159389999999995
                ]
            },
            "properties": {
                "ref:rspo": 113460,
                "official_name": "Centrum Kszta\u0142cenia Zawodowego w \u0141om\u017cy",
                "name": "Centrum Kszta\u0142cenia Zawodowego w \u0141om\u017cy",
                "addr:postcode": "18-400",
                "addr:city": "\u0141om\u017ca",
                "addr:street": "Przykoszarowa",
                "addr:housenumber": "22",
                "addr:city:simc": 957241,
                "addr:street:sym_ul": 17945,
                "phone": "+48 862182790",
                "email": "info@zckpiu.pl",
                "website": "http:\/\/www.zckpiu.pl",
                "ref:regon": "450158215",
                "operator": "Miasto \u0141om\u017ca",
                "operator:type": "government",
                "fixme": "w zale\u017cno\u015bci od przedmiotu dzia\u0142alno\u015bci (np. amenity=training + training=*, amenity=dancing_school, amenity=language_school, amenity=music_school) albo amenity=school, amenity=college, albo landuse=education w zale\u017cno\u015bci od tego, jakie plac\u00f3wki wchodz\u0105 w sk\u0142ad zespo\u0142u. Sprawd\u017a, kiedy stosowa\u0107 amenity=* a kiedy landuse=education.",
                "note": "Parent RSPO: 14330"
            }
        },
        {
            "id": 113844,
            "type": "Feature",
            "geometry": {
                "type": "Point",
                "coordinates": [
                    22.0618899,
                    53.15936
                ]
            },
            "properties": {
                "ref:rspo": 113844,
                "official_name": "Centrum Kszta\u0142cenia Ustawicznego w \u0141om\u017cy",
                "name": "Centrum Kszta\u0142cenia Ustawicznego w \u0141om\u017cy",
                "addr:postcode": "18-400",
                "addr:city": "\u0141om\u017ca",
                "addr:street": "Przykoszarowa",
                "addr:housenumber": "22",
                "addr:city:simc": 957241,
                "addr:street:sym_ul": 17945,
                "phone": "+48 862182790",
                "email": "info@zckpiu.pl",
                "website": "http:\/\/www.zckpiu.pl",
                "ref:regon": "451190333",
                "operator": "Miasto \u0141om\u017ca",
                "operator:type": "government",
                "fixme": "w zale\u017cno\u015bci od przedmiotu dzia\u0142alno\u015bci (np. amenity=training + training=*, amenity=dancing_school, amenity=language_school, amenity=music_school)",
                "note": "Parent RSPO: 14330"
            }
        },
        {
            "id": 269260,
            "type": "Feature",
            "geometry": {
                "type": "Point",
                "coordinates": [
                    22.0810299,
                    53.16041
                ]
            },
            "properties": {
                "ref:rspo": 269260,
                "official_name": "\"Klubik Malucha\" Niepubliczne Przedszkole Integracyjno - Terapeutyczne",
                "name": "\"Klubik Malucha\" Niepubliczne Przedszkole Integracyjno - Terapeutyczne",
                "addr:postcode": "18-400",
                "addr:city": "\u0141om\u017ca",
                "addr:street": "Kaza\u0144ska",
                "addr:housenumber": "2",
                "addr:city:simc": 957241,
                "addr:street:sym_ul": 8243,
                "email": "przedszkoleklubikmalucha@wp.pl",
                "ref:regon": "381433301",
                "operator": "S\u0142awomir Ch\u0119tnik",
                "operator:type": "private",
                "amenity": "kindergarten"
            }
        },
        {
            "id": 104701,
            "type": "Feature",
            "geometry": {
                "type": "Point",
                "coordinates": [
                    22.0884249,
                    53.1622728
                ]
            },
            "properties": {
                "isced:level": "1;2",
                "ref:rspo": 104701,
                "official_name": "Filia Szko\u0142y Podstawowej nr 8 Przy Zespole Opieki Zdrowotnej",
                "name": "Filia Szko\u0142y Podstawowej nr 8 Przy Zespole Opieki Zdrowotnej",
                "addr:postcode": "18-400",
                "addr:city": "\u0141om\u017ca",
                "addr:street": "Aleja J\u00f3zefa Pi\u0142sudskiego",
                "addr:housenumber": "11",
                "addr:city:simc": 957241,
                "addr:street:sym_ul": 41904,
                "phone": "+48 862165764",
                "email": "sp8@o2.pl",
                "ref:regon": "450712232",
                "operator": "Miasto \u0141om\u017ca",
                "operator:type": "government",
                "amenity": "school",
                "note": "Parent RSPO: 22818"
            }
        },
        {
            "id": 126227,
            "type": "Feature",
            "geometry": {
                "type": "Point",
                "coordinates": [
                    22.08477,
                    53.16229
                ]
            },
            "properties": {
                "ref:rspo": 126227,
                "official_name": "Niepubliczne Przedszkole Montessori \"Przysta\u0144\"",
                "name": "Niepubliczne Przedszkole Montessori \"Przysta\u0144\"",
                "addr:postcode": "18-400",
                "addr:city": "\u0141om\u017ca",
                "addr:street": "Ksi\u0119cia Janusza I",
                "addr:housenumber": "3",
                "addr:city:simc": 957241,
                "addr:street:sym_ul": 7226,
                "phone": "+48 661021168",
                "email": "centrum.edukacji@montessori-przystan.pl",
                "ref:regon": "360175893",
                "ref:vatin": "PL7181947220",
                "operator": "Aneta Wasilewska",
                "operator:type": "private",
                "amenity": "kindergarten"
            }
        },
        {
            "id": 265999,
            "type": "Feature",
            "geometry": {
                "type": "Point",
                "coordinates": [
                    22.08477,
                    53.162259999999996
                ]
            },
            "properties": {
                "ref:rspo": 265999,
                "official_name": "O\u015brodek Szkoleniowy \"Edytor\" Niepubliczna Plac\u00f3wka Kszta\u0142cenia Ustawicznego",
                "name": "O\u015brodek Szkoleniowy \"Edytor\" Niepubliczna Plac\u00f3wka Kszta\u0142cenia Ustawicznego",
                "addr:postcode": "18-400",
                "addr:city": "\u0141om\u017ca",
                "addr:street": "Ksi\u0119cia Janusza I",
                "addr:housenumber": "1",
                "addr:city:simc": 957241,
                "addr:street:sym_ul": 7226,
                "phone": "+48 862182702",
                "email": "osd.edytor@wp.pl",
                "ref:regon": "369134453",
                "ref:vatin": "PL7181739355",
                "operator": "Justyna Walczak-Komorowska",
                "operator:type": "private",
                "fixme": "w zale\u017cno\u015bci od przedmiotu dzia\u0142alno\u015bci (np. amenity=training + training=*, amenity=dancing_school, amenity=language_school, amenity=music_school)"
            }
        },
        {
            "id": 19085,
            "type": "Feature",
            "geometry": {
                "type": "Point",
                "coordinates": [
                    22.06557,
                    53.16348
                ]
            },
            "properties": {
                "isced:level": "4",
                "ref:rspo": 19085,
                "official_name": "Szko\u0142a Policealna Farmaceutyczna w \u0141om\u017cy",
                "name": "Szko\u0142a Policealna Farmaceutyczna w \u0141om\u017cy",
                "addr:postcode": "18-400",
                "addr:city": "\u0141om\u017ca",
                "addr:street": "Aleja J\u00f3zefa Pi\u0142sudskiego",
                "addr:housenumber": "83",
                "addr:city:simc": 957241,
                "addr:street:sym_ul": 41904,
                "phone": "+48 862164261",
                "email": "j.kossakowska@cen.lomza.pl",
                "website": "http:\/\/www.szkoly.stopkapress.com.pl",
                "ref:regon": "200730880",
                "operator": "Spo\u0142eczne Stowarzyszenie Prasoznawcze \"Stopka\" Im. Stanis\u0142awa Zag\u00f3rskiego W \u0141om\u017cy",
                "operator:type": "ngo",
                "amenity": "college"
            }
        },
        {
            "id": 13120,
            "type": "Feature",
            "geometry": {
                "type": "Point",
                "coordinates": [
                    22.07181,
                    53.16486
                ]
            },
            "properties": {
                "ref:rspo": 13120,
                "official_name": "Przedszkole Publiczne nr 9 w \u0141om\u017cy",
                "name": "Przedszkole Publiczne nr 9 w \u0141om\u017cy",
                "addr:postcode": "18-400",
                "addr:city": "\u0141om\u017ca",
                "addr:street": "Boles\u0142awa Prusa",
                "addr:housenumber": "11A",
                "addr:city:simc": 957241,
                "addr:street:sym_ul": 17577,
                "phone": "+48 862188293",
                "email": "przedszkole9lomza@op.pl",
                "website": "https:\/\/przedszkole9.lomza.pl\/",
                "ref:regon": "450033815",
                "ref:vatin": "PL7181751592",
                "operator": "Miasto \u0141om\u017ca",
                "operator:type": "government",
                "amenity": "kindergarten"
            }
        },
        {
            "id": 264627,
            "type": "Feature",
            "geometry": {
                "type": "Point",
                "coordinates": [
                    22.07007,
                    53.16566
                ]
            },
            "properties": {
                "ref:rspo": 264627,
                "official_name": "Przedszkole J\u0119zykowo-Artystyczne \"Akademia Przedszkolaka\" Rafa\u0142 Borawski",
                "name": "Przedszkole J\u0119zykowo-Artystyczne \"Akademia Przedszkolaka\" Rafa\u0142 Borawski",
                "addr:postcode": "18-400",
                "addr:city": "\u0141om\u017ca",
                "addr:street": "W\u0142adys\u0142awa Reymonta",
                "addr:housenumber": "11A",
                "addr:city:simc": 957241,
                "addr:street:sym_ul": 18648,
                "phone": "+48 797987800",
                "email": "akademia.przedszkolaka.lomza@wp.pl",
                "ref:regon": "368412074",
                "operator": "Rafa\u0142 Borawski",
                "operator:type": "private",
                "amenity": "kindergarten"
            }
        },
        {
            "id": 133876,
            "type": "Feature",
            "geometry": {
                "type": "Point",
                "coordinates": [
                    22.06954,
                    53.16671
                ]
            },
            "properties": {
                "isced:level": "1;2",
                "ref:rspo": 133876,
                "official_name": "Szko\u0142a Podstawowa nr 1 w \u0141om\u017cy",
                "name": "Szko\u0142a Podstawowa nr 1 w \u0141om\u017cy",
                "addr:postcode": "18-400",
                "addr:city": "\u0141om\u017ca",
                "addr:street": "W\u0142adys\u0142awa Reymonta",
                "addr:housenumber": "9",
                "addr:city:simc": 957241,
                "addr:street:sym_ul": 18648,
                "phone": "+48 862184439",
                "email": "poczta@sp1.miastolomza.pl",
                "website": "http:\/\/sp1miastolomza.edupage.org",
                "ref:regon": "367702226",
                "operator": "Miasto \u0141om\u017ca",
                "operator:type": "government",
                "amenity": "school"
            }
        },
        {
            "id": 264815,
            "type": "Feature",
            "geometry": {
                "type": "Point",
                "coordinates": [
                    22.06264,
                    53.16677
                ]
            },
            "properties": {
                "ref:rspo": 264815,
                "official_name": "Niepubliczne Przedszkole Specjalne \"Wyj\u0105tkowa Kraina\"",
                "name": "Niepubliczne Przedszkole Specjalne \"Wyj\u0105tkowa Kraina\"",
                "addr:postcode": "18-400",
                "addr:city": "\u0141om\u017ca",
                "addr:street": "Aleja Legion\u00f3w",
                "addr:housenumber": "97A",
                "addr:city:simc": 957241,
                "addr:street:sym_ul": 52532,
                "email": "jarosz.e@wp.pl",
                "ref:regon": "368475229",
                "operator": "Ewa Jarosz-Lipi\u0144ska",
                "operator:type": "private",
                "amenity": "kindergarten"
            }
        },
        {
            "id": 71065,
            "type": "Feature",
            "geometry": {
                "type": "Point",
                "coordinates": [
                    22.07046,
                    53.16767
                ]
            },
            "properties": {
                "ref:rspo": 71065,
                "official_name": "Alma Mater Szko\u0142a J\u0119zyk\u00f3w Obcych Wies\u0142aw Brzozowy S.j.",
                "name": "Alma Mater Szko\u0142a J\u0119zyk\u00f3w Obcych Wies\u0142aw Brzozowy S.j.",
                "addr:postcode": "18-400",
                "addr:city": "\u0141om\u017ca",
                "addr:street": "Ksi\u0119dza Kardyna\u0142a Stefana Wyszy\u0144skiego",
                "addr:housenumber": "30",
                "addr:city:simc": 957241,
                "addr:street:sym_ul": 39550,
                "phone": "+48 862150165",
                "ref:regon": "200740015",
                "operator": "Alma Mater Szko\u0142a J\u0119zyk\u00f3w Obcych Wies\u0142aw Brzozowy Sp\u00f3\u0142ka Jawna",
                "operator:type": "private",
                "fixme": "w zale\u017cno\u015bci od przedmiotu dzia\u0142alno\u015bci (np. amenity=training + training=*, amenity=dancing_school, amenity=language_school, amenity=music_school)"
            }
        },
        {
            "id": 19712,
            "type": "Feature",
            "geometry": {
                "type": "Point",
                "coordinates": [
                    22.0694899,
                    53.1678
                ]
            },
            "properties": {
                "ref:rspo": 19712,
                "official_name": "Niepubliczne Przedszkole Weso\u0142e S\u0142oneczko Stowarzyszenia Edukator w \u0141om\u017cy",
                "name": "Niepubliczne Przedszkole Weso\u0142e S\u0142oneczko Stowarzyszenia Edukator w \u0141om\u017cy",
                "addr:postcode": "18-400",
                "addr:city": "\u0141om\u017ca",
                "addr:street": "Sp\u00f3\u0142dzielcza",
                "addr:housenumber": "74",
                "addr:city:simc": 957241,
                "addr:street:sym_ul": 20696,
                "phone": "+48 862182845",
                "email": "np.wesolesloneczko@edukator.lomza.pl",
                "ref:regon": "200730867",
                "ref:vatin": "PL7181729859",
                "operator": "Spo\u0142eczno - O\u015bwiatowe Stowarzyszenie Pomocy Pokrzywdzonym I Niepe\u0142nosprawnym \"Edukator\"",
                "operator:type": "ngo",
                "amenity": "kindergarten"
            }
        },
        {
            "id": 13124,
            "type": "Feature",
            "geometry": {
                "type": "Point",
                "coordinates": [
                    22.06607,
                    53.16896
                ]
            },
            "properties": {
                "ref:rspo": 13124,
                "official_name": "Przedszkole Publiczne nr 4 z Oddzia\u0142ami Integracyjnymi w \u0141om\u017cy",
                "name": "Przedszkole Publiczne nr 4 z Oddzia\u0142ami Integracyjnymi w \u0141om\u017cy",
                "addr:postcode": "18-400",
                "addr:city": "\u0141om\u017ca",
                "addr:street": "Sp\u00f3\u0142dzielcza",
                "addr:housenumber": "8",
                "addr:city:simc": 957241,
                "addr:street:sym_ul": 20696,
                "phone": "+48 862183977",
                "email": "przedszkole4lomza@op.pl",
                "ref:regon": "450033761",
                "operator": "Miasto \u0141om\u017ca",
                "operator:type": "government",
                "amenity": "kindergarten"
            }
        },
        {
            "id": 48410,
            "type": "Feature",
            "geometry": {
                "type": "Point",
                "coordinates": [
                    22.06572,
                    53.16998
                ]
            },
            "properties": {
                "ref:rspo": 48410,
                "official_name": "O\u015brodek Szkolenia Zawodowego w \u0141om\u017cy",
                "name": "O\u015brodek Szkolenia Zawodowego w \u0141om\u017cy",
                "addr:postcode": "18-400",
                "addr:city": "\u0141om\u017ca",
                "addr:street": "Aleja Legion\u00f3w",
                "addr:housenumber": "49",
                "addr:city:simc": 957241,
                "addr:street:sym_ul": 52532,
                "phone": "+48 862162550",
                "email": "osz.lomza@op.pl",
                "ref:regon": "200735959",
                "operator": "Lech Mierzejewski",
                "operator:type": "private",
                "fixme": "w zale\u017cno\u015bci od przedmiotu dzia\u0142alno\u015bci (np. amenity=training + training=*, amenity=dancing_school, amenity=language_school, amenity=music_school)"
            }
        },
        {
            "id": 80780,
            "type": "Feature",
            "geometry": {
                "type": "Point",
                "coordinates": [
                    22.06572,
                    53.16995
                ]
            },
            "properties": {
                "isced:level": "3",
                "ref:rspo": 80780,
                "official_name": "Iii Liceum Og\u00f3lnokszta\u0142c\u0105ce dla Doros\u0142ych w \u0141om\u017cy",
                "name": "Iii Liceum Og\u00f3lnokszta\u0142c\u0105ce dla Doros\u0142ych w \u0141om\u017cy",
                "addr:postcode": "18-400",
                "addr:city": "\u0141om\u017ca",
                "addr:street": "Aleja Legion\u00f3w",
                "addr:housenumber": "49",
                "addr:city:simc": 957241,
                "addr:street:sym_ul": 52532,
                "phone": "+48 862162550",
                "email": "osz.lomza@op.pl",
                "ref:regon": "200742497",
                "ref:vatin": "PL7181012529",
                "operator": "Lech Mierzejewski",
                "operator:type": "private",
                "amenity": "school"
            }
        },
        {
            "id": 80783,
            "type": "Feature",
            "geometry": {
                "type": "Point",
                "coordinates": [
                    22.06572,
                    53.169920000000005
                ]
            },
            "properties": {
                "isced:level": "4",
                "ref:rspo": 80783,
                "official_name": "Szko\u0142a Policealna Administracji w \u0141om\u017cy",
                "name": "Szko\u0142a Policealna Administracji w \u0141om\u017cy",
                "addr:postcode": "18-400",
                "addr:city": "\u0141om\u017ca",
                "addr:street": "Aleja Legion\u00f3w",
                "addr:housenumber": "49",
                "addr:city:simc": 957241,
                "addr:street:sym_ul": 52532,
                "phone": "+48 862162550",
                "email": "osz.lomza@op.pl",
                "website": "http:\/\/osz.lomza@op.pl",
                "ref:regon": "200742735",
                "ref:vatin": "PL7181012529",
                "operator": "Lech Mierzejewski",
                "operator:type": "private",
                "amenity": "college"
            }
        },
        {
            "id": 85826,
            "type": "Feature",
            "geometry": {
                "type": "Point",
                "coordinates": [
                    22.06572,
                    53.16989
                ]
            },
            "properties": {
                "isced:level": "4",
                "ref:rspo": 85826,
                "official_name": "Szko\u0142a Policealna Kosmetyczna w \u0141om\u017cy",
                "name": "Szko\u0142a Policealna Kosmetyczna w \u0141om\u017cy",
                "addr:postcode": "18-400",
                "addr:city": "\u0141om\u017ca",
                "addr:street": "Aleja Legion\u00f3w",
                "addr:housenumber": "49",
                "addr:city:simc": 957241,
                "addr:street:sym_ul": 52532,
                "phone": "+48 862162550",
                "email": "osz.lomza@op.pl",
                "ref:regon": "200742729",
                "ref:vatin": "PL7181012529",
                "operator": "Lech Mierzejewski",
                "operator:type": "private",
                "amenity": "college"
            }
        },
        {
            "id": 275140,
            "type": "Feature",
            "geometry": {
                "type": "Point",
                "coordinates": [
                    22.06572,
                    53.16986
                ]
            },
            "properties": {
                "isced:level": "4",
                "ref:rspo": 275140,
                "official_name": "Szko\u0142a Policealna Medyczno - Spo\u0142eczna w \u0141om\u017cy",
                "name": "Szko\u0142a Policealna Medyczno - Spo\u0142eczna w \u0141om\u017cy",
                "addr:postcode": "18-400",
                "addr:city": "\u0141om\u017ca",
                "addr:street": "Aleja Legion\u00f3w",
                "addr:housenumber": "49",
                "addr:city:simc": 957241,
                "addr:street:sym_ul": 52532,
                "phone": "+48 862162550",
                "email": "osz.lomza@op.pl",
                "website": "http:\/\/osz.lomza@op.pl",
                "ref:regon": "386614190",
                "operator": "Lech Mierzejewski",
                "operator:type": "private",
                "amenity": "college"
            }
        },
        {
            "id": 71027,
            "type": "Feature",
            "geometry": {
                "type": "Point",
                "coordinates": [
                    22.07306,
                    53.17001
                ]
            },
            "properties": {
                "ref:rspo": 71027,
                "official_name": "Plac\u00f3wka Kszta\u0142cenia Ustawicznego \"Logos\" Centrum Edukacyjne",
                "name": "Plac\u00f3wka Kszta\u0142cenia Ustawicznego \"Logos\" Centrum Edukacyjne",
                "addr:postcode": "18-400",
                "addr:city": "\u0141om\u017ca",
                "addr:street": "Ksi\u0119dza Kardyna\u0142a Stefana Wyszy\u0144skiego",
                "addr:housenumber": "6",
                "addr:door": "44",
                "addr:city:simc": 957241,
                "addr:street:sym_ul": 39550,
                "phone": "+48 864731985",
                "email": "biuro@zdammature.pl",
                "ref:regon": "200740133",
                "operator": "Jan Roma\u0144czuk",
                "operator:type": "private",
                "fixme": "w zale\u017cno\u015bci od przedmiotu dzia\u0142alno\u015bci (np. amenity=training + training=*, amenity=dancing_school, amenity=language_school, amenity=music_school)"
            }
        },
        {
            "id": 276368,
            "type": "Feature",
            "geometry": {
                "type": "Point",
                "coordinates": [
                    22.07306,
                    53.169979999999995
                ]
            },
            "properties": {
                "ref:rspo": 276368,
                "official_name": "Plac\u00f3wka O\u015bwiatowo - Wychowawcza \"Logos\" Centrum Edukacji",
                "name": "Plac\u00f3wka O\u015bwiatowo - Wychowawcza \"Logos\" Centrum Edukacji",
                "addr:postcode": "18-400",
                "addr:city": "\u0141om\u017ca",
                "addr:street": "Ksi\u0119dza Kardyna\u0142a Stefana Wyszy\u0144skiego",
                "addr:housenumber": "6",
                "addr:door": "44",
                "addr:city:simc": 957241,
                "addr:street:sym_ul": 39550,
                "email": "jan.romanczuk@gamil.com",
                "website": "http:\/\/zdammature.pl",
                "ref:regon": "387111490",
                "operator": "Jan Roma\u0144czuk",
                "operator:type": "private",
                "fixme": "w zale\u017cno\u015bci od przedmiotu dzia\u0142alno\u015bci (np. amenity=training + training=*, amenity=dancing_school, amenity=language_school, amenity=music_school)"
            }
        },
        {
            "id": 13984,
            "type": "Feature",
            "geometry": {
                "type": "Point",
                "coordinates": [
                    22.06796,
                    53.17075
                ]
            },
            "properties": {
                "isced:level": "1;2",
                "ref:rspo": 13984,
                "official_name": "Szko\u0142a Podstawowa nr 7 im. Adama Mickiewicza w \u0141om\u017cy",
                "name": "Szko\u0142a Podstawowa nr 7",
                "addr:postcode": "18-400",
                "addr:city": "\u0141om\u017ca",
                "addr:street": "Adama Mickiewicza",
                "addr:housenumber": "6",
                "addr:city:simc": 957241,
                "addr:street:sym_ul": 12740,
                "phone": "+48 862185043",
                "email": "sekretariat@szkola7.lomza.pl",
                "website": "http:\/\/www.szkola7.lomza.pl\/",
                "ref:regon": "450108051",
                "operator": "Miasto \u0141om\u017ca",
                "operator:type": "government",
                "amenity": "school"
            }
        },
        {
            "id": 74912,
            "type": "Feature",
            "geometry": {
                "type": "Point",
                "coordinates": [
                    22.0688,
                    53.17094
                ]
            },
            "properties": {
                "ref:rspo": 74912,
                "official_name": "Plac\u00f3wka O\u015bwiatowa Niepubliczna English Education Center",
                "name": "Plac\u00f3wka O\u015bwiatowa Niepubliczna English Education Center",
                "addr:postcode": "18-400",
                "addr:city": "\u0141om\u017ca",
                "addr:street": "Adama Mickiewicza",
                "addr:housenumber": "19",
                "addr:city:simc": 957241,
                "addr:street:sym_ul": 12740,
                "phone": "+48 600996424",
                "ref:regon": "200740452",
                "operator": "Alina Walewska",
                "operator:type": "private",
                "fixme": "w zale\u017cno\u015bci od przedmiotu dzia\u0142alno\u015bci (np. amenity=training + training=*, amenity=dancing_school, amenity=language_school, amenity=music_school)"
            }
        },
        {
            "id": 278077,
            "type": "Feature",
            "geometry": {
                "type": "Point",
                "coordinates": [
                    22.0707,
                    53.17106
                ]
            },
            "properties": {
                "ref:rspo": 278077,
                "official_name": "Przedszkole Niepubliczne \"Mali Odkrywcy\"",
                "name": "Przedszkole Niepubliczne \"Mali Odkrywcy\"",
                "addr:postcode": "18-400",
                "addr:city": "\u0141om\u017ca",
                "addr:street": "Pana Tadeusza",
                "addr:housenumber": "16",
                "addr:city:simc": 957241,
                "addr:street:sym_ul": 15611,
                "email": "maliodkrywcy.lomza@gmail.com",
                "ref:regon": "389759611",
                "operator": "Renata Za\u0142uska-Szcze\u015bniak",
                "operator:type": "private",
                "amenity": "kindergarten"
            }
        },
        {
            "id": 269264,
            "type": "Feature",
            "geometry": {
                "type": "Point",
                "coordinates": [
                    22.07082,
                    53.17108
                ]
            },
            "properties": {
                "ref:rspo": 269264,
                "official_name": "Dwuj\u0119zyczne Przedszkole \"Bajkowe Przedszkole\"",
                "name": "Dwuj\u0119zyczne Przedszkole \"Bajkowe Przedszkole\"",
                "addr:postcode": "18-400",
                "addr:city": "\u0141om\u017ca",
                "addr:street": "Pana Tadeusza",
                "addr:housenumber": "17",
                "addr:city:simc": 957241,
                "addr:street:sym_ul": 15611,
                "email": "bajkoweprzedszkole_lomza@wp.pl",
                "ref:regon": "381433324",
                "operator": "Magdalena Kostrzewska",
                "operator:type": "private",
                "amenity": "kindergarten"
            }
        },
        {
            "id": 13118,
            "type": "Feature",
            "geometry": {
                "type": "Point",
                "coordinates": [
                    22.07382,
                    53.17115
                ]
            },
            "properties": {
                "ref:rspo": 13118,
                "official_name": "Przedszkole Publiczne nr 5 w \u0141om\u017cy",
                "name": "Przedszkole Publiczne nr 5 w \u0141om\u017cy",
                "addr:postcode": "18-400",
                "addr:city": "\u0141om\u017ca",
                "addr:street": "Genera\u0142a W\u0142adys\u0142awa Sikorskiego",
                "addr:housenumber": "216",
                "addr:city:simc": 957241,
                "addr:street:sym_ul": 19907,
                "phone": "+48 862182236",
                "email": "przedszkole.5.lomza@interia.pl",
                "website": "http:\/\/www.przedszkole5.4lomza.pl",
                "ref:regon": "450033778",
                "ref:vatin": "PL7181751652",
                "operator": "Miasto \u0141om\u017ca",
                "operator:type": "government",
                "amenity": "kindergarten"
            }
        },
        {
            "id": 13121,
            "type": "Feature",
            "geometry": {
                "type": "Point",
                "coordinates": [
                    22.065099716186,
                    53.172130584717
                ]
            },
            "properties": {
                "ref:rspo": 13121,
                "official_name": "Przedszkole Publiczne nr 10 w \u0141om\u017cy",
                "name": "Przedszkole Publiczne nr 10 w \u0141om\u017cy",
                "addr:postcode": "18-400",
                "addr:city": "\u0141om\u017ca",
                "addr:street": "Ksi\u0119\u017cnej Anny",
                "addr:housenumber": "12",
                "addr:city:simc": 957241,
                "addr:street:sym_ul": 10250,
                "phone": "+48 862188484",
                "email": "pp10@przedszkole10lomza.pl",
                "website": "http:\/\/przedszkole10lomza.edupage.org",
                "ref:regon": "450033844",
                "operator": "Miasto \u0141om\u017ca",
                "operator:type": "government",
                "amenity": "kindergarten"
            }
        },
        {
            "id": 13452,
            "type": "Feature",
            "geometry": {
                "type": "Point",
                "coordinates": [
                    22.065099716186,
                    53.172100584717
                ]
            },
            "properties": {
                "isced:level": "1;2",
                "ref:rspo": 13452,
                "official_name": "Szko\u0142a Podstawowa nr 9 w \u0141om\u017cy im. Ksi\u0119cia Mazowieckiego Janusza I",
                "name": "Szko\u0142a Podstawowa nr 9 w \u0141om\u017cy",
                "addr:postcode": "18-400",
                "addr:city": "\u0141om\u017ca",
                "addr:street": "Ksi\u0119\u017cnej Anny",
                "addr:housenumber": "18",
                "addr:city:simc": 957241,
                "addr:street:sym_ul": 10250,
                "phone": "+48 862188246",
                "email": "pocztalomza@vp.pl",
                "website": "http:\/\/www.sp9.miastolomza.pl",
                "ref:regon": "450108068",
                "operator": "Miasto \u0141om\u017ca",
                "operator:type": "government",
                "amenity": "school"
            }
        },
        {
            "id": 14329,
            "type": "Feature",
            "geometry": {
                "type": "Point",
                "coordinates": [
                    22.065099716186,
                    53.172070584717005
                ]
            },
            "properties": {
                "ref:rspo": 14329,
                "official_name": "Zesp\u00f3\u0142 Szk\u00f3\u0142 Weterynaryjnych I Og\u00f3lnokszta\u0142c\u0105cych nr 7 w \u0141om\u017cy",
                "name": "Zesp\u00f3\u0142 Szk\u00f3\u0142 Weterynaryjnych I Og\u00f3lnokszta\u0142c\u0105cych nr 7 w \u0141om\u017cy",
                "addr:postcode": "18-400",
                "addr:city": "\u0141om\u017ca",
                "addr:street": "Stacha Konwy",
                "addr:housenumber": "11",
                "addr:city:simc": 957241,
                "addr:street:sym_ul": 9228,
                "phone": "+48 862162015",
                "email": "sekwet@wp.pl",
                "website": "http:\/\/wetalomza.pl",
                "ref:regon": "000096690",
                "ref:vatin": "PL7181123849",
                "operator": "Miasto \u0141om\u017ca",
                "operator:type": "government",
                "landuse": "education",
                "fixme": "amenity=school, amenity=college albo landuse=education w zale\u017cno\u015bci od tego, jakie plac\u00f3wki wchodz\u0105 w sk\u0142ad zespo\u0142u. Sprawd\u017a, kiedy stosowa\u0107 amenity=* a kiedy landuse=education.",
                "note": "Children RSPO: 22804;22805;22806;269076"
            }
        },
        {
            "id": 14836,
            "type": "Feature",
            "geometry": {
                "type": "Point",
                "coordinates": [
                    22.065099716186,
                    53.172040584717
                ]
            },
            "properties": {
                "ref:rspo": 14836,
                "official_name": "Bursa Szkolna nr 2 w \u0141om\u017cy",
                "name": "Bursa Szkolna nr 2 w \u0141om\u017cy",
                "addr:postcode": "18-400",
                "addr:city": "\u0141om\u017ca",
                "addr:street": "Stacha Konwy",
                "addr:housenumber": "13",
                "addr:city:simc": 957241,
                "addr:street:sym_ul": 9228,
                "phone": "+48 862163042",
                "email": "bursa2lomza@o2.pl",
                "website": "http:\/\/www.bs2lomza.szkolnastrona.pl",
                "ref:regon": "000769226",
                "ref:vatin": "PL7181190478",
                "operator": "Miasto \u0141om\u017ca",
                "operator:type": "government",
                "building": "dormitory"
            }
        },
        {
            "id": 74914,
            "type": "Feature",
            "geometry": {
                "type": "Point",
                "coordinates": [
                    22.065099716186,
                    53.172010584717
                ]
            },
            "properties": {
                "ref:rspo": 74914,
                "official_name": "O\u015brodek Kszta\u0142cenia Zawodowego Zdz w \u0141om\u017cy",
                "name": "O\u015brodek Kszta\u0142cenia Zawodowego Zdz w \u0141om\u017cy",
                "addr:postcode": "18-400",
                "addr:city": "\u0141om\u017ca",
                "addr:street": "Ciep\u0142a",
                "addr:housenumber": "22",
                "addr:city:simc": 957241,
                "addr:street:sym_ul": 3032,
                "phone": "+48 862162345",
                "ref:regon": "200740682",
                "operator": "Zak\u0142ad Doskonalenia Zawodowego W \u0141om\u017cy",
                "operator:type": "ngo",
                "fixme": "w zale\u017cno\u015bci od przedmiotu dzia\u0142alno\u015bci (np. amenity=training + training=*, amenity=dancing_school, amenity=language_school, amenity=music_school)"
            }
        },
        {
            "id": 92831,
            "type": "Feature",
            "geometry": {
                "type": "Point",
                "coordinates": [
                    22.065099716186,
                    53.171980584717005
                ]
            },
            "properties": {
                "isced:level": "3",
                "ref:rspo": 92831,
                "official_name": "Bran\u017cowa Szko\u0142a I Stopnia w \u0141om\u017cy Zak\u0142ad Doskonalenia Zawodowego w \u0141om\u017cy",
                "name": "Bran\u017cowa Szko\u0142a I Stopnia w \u0141om\u017cy Zak\u0142ad Doskonalenia Zawodowego w \u0141om\u017cy",
                "addr:postcode": "18-400",
                "addr:city": "\u0141om\u017ca",
                "addr:street": "Ciep\u0142a",
                "addr:housenumber": "22",
                "addr:city:simc": 957241,
                "addr:street:sym_ul": 3032,
                "phone": "+48 862166239",
                "email": "zdz_lomza@wp.pl",
                "ref:regon": "200734167",
                "ref:vatin": "PL7180001765",
                "operator": "Zak\u0142ad Doskonalenia Zawodowego W \u0141om\u017cy",
                "operator:type": "ngo",
                "amenity": "school"
            }
        },
        {
            "id": 22804,
            "type": "Feature",
            "geometry": {
                "type": "Point",
                "coordinates": [
                    22.065099716186,
                    53.171950584717
                ]
            },
            "properties": {
                "isced:level": "3",
                "ref:rspo": 22804,
                "official_name": "Vii Liceum Og\u00f3lnokszta\u0142c\u0105ce w \u0141om\u017cy",
                "name": "Vii Liceum Og\u00f3lnokszta\u0142c\u0105ce w \u0141om\u017cy",
                "addr:postcode": "18-400",
                "addr:city": "\u0141om\u017ca",
                "addr:street": "Stacha Konwy",
                "addr:housenumber": "11",
                "addr:city:simc": 957241,
                "addr:street:sym_ul": 9228,
                "phone": "+48 862162015",
                "email": "sekwet@wp.pl",
                "ref:regon": "451152137",
                "operator": "Miasto \u0141om\u017ca",
                "operator:type": "government",
                "amenity": "school",
                "note": "Parent RSPO: 14329"
            }
        },
        {
            "id": 22805,
            "type": "Feature",
            "geometry": {
                "type": "Point",
                "coordinates": [
                    22.065099716186,
                    53.171920584717
                ]
            },
            "properties": {
                "isced:level": "4",
                "ref:rspo": 22805,
                "official_name": "Policealna Szko\u0142a Zawodowa nr 1 w \u0141om\u017cy",
                "name": "Policealna Szko\u0142a Zawodowa nr 1 w \u0141om\u017cy",
                "addr:postcode": "18-400",
                "addr:city": "\u0141om\u017ca",
                "addr:street": "Stacha Konwy",
                "addr:housenumber": "11",
                "addr:city:simc": 957241,
                "addr:street:sym_ul": 9228,
                "phone": "+48 862162015",
                "email": "sekwet@wp.pl",
                "ref:regon": "200627649",
                "operator": "Miasto \u0141om\u017ca",
                "operator:type": "government",
                "amenity": "college",
                "note": "Parent RSPO: 14329"
            }
        },
        {
            "id": 22806,
            "type": "Feature",
            "geometry": {
                "type": "Point",
                "coordinates": [
                    22.065099716186,
                    53.171890584717005
                ]
            },
            "properties": {
                "isced:level": "3",
                "ref:rspo": 22806,
                "official_name": "Technikum nr 7 Im . Ludwika Bojanusa w \u0141om\u017cy",
                "name": "Technikum nr 7 Im . Ludwika Bojanusa w \u0141om\u017cy",
                "addr:postcode": "18-400",
                "addr:city": "\u0141om\u017ca",
                "addr:street": "Stacha Konwy",
                "addr:housenumber": "11",
                "addr:city:simc": 957241,
                "addr:street:sym_ul": 9228,
                "phone": "+48 862162015",
                "email": "sekwet@wp.pl",
                "ref:regon": "451152120",
                "operator": "Miasto \u0141om\u017ca",
                "operator:type": "government",
                "amenity": "school",
                "note": "Parent RSPO: 14329"
            }
        },
        {
            "id": 269076,
            "type": "Feature",
            "geometry": {
                "type": "Point",
                "coordinates": [
                    22.065099716186,
                    53.171860584717
                ]
            },
            "properties": {
                "isced:level": "3",
                "ref:rspo": 269076,
                "official_name": "Bran\u017cowa Szko\u0142a I Stopnia w \u0141om\u017cy",
                "name": "Bran\u017cowa Szko\u0142a I Stopnia w \u0141om\u017cy",
                "addr:postcode": "18-400",
                "addr:city": "\u0141om\u017ca",
                "addr:street": "Stacha Konwy",
                "addr:housenumber": "11",
                "addr:city:simc": 957241,
                "addr:street:sym_ul": 9228,
                "phone": "+48 862162015",
                "email": "sekwet@wp.pl",
                "ref:regon": "381367484",
                "operator": "Miasto \u0141om\u017ca",
                "operator:type": "government",
                "amenity": "school",
                "note": "Parent RSPO: 14329"
            }
        },
        {
            "id": 13119,
            "type": "Feature",
            "geometry": {
                "type": "Point",
                "coordinates": [
                    22.03971,
                    53.17249
                ]
            },
            "properties": {
                "ref:rspo": 13119,
                "official_name": "Przedszkole Publiczne nr 8 w \u0141om\u017cy",
                "name": "Przedszkole Publiczne nr 8 w \u0141om\u017cy",
                "addr:postcode": "18-400",
                "addr:city": "\u0141om\u017ca",
                "addr:street": "Studencka",
                "addr:housenumber": "13",
                "addr:city:simc": 957241,
                "addr:street:sym_ul": 21410,
                "phone": "+48 862169541",
                "email": "pp8.ksiegowosc@um.lomza.pl",
                "ref:regon": "450033809",
                "ref:vatin": "PL7181751600",
                "operator": "Miasto \u0141om\u017ca",
                "operator:type": "government",
                "amenity": "kindergarten"
            }
        },
        {
            "id": 119705,
            "type": "Feature",
            "geometry": {
                "type": "Point",
                "coordinates": [
                    22.03971,
                    53.17246
                ]
            },
            "properties": {
                "ref:rspo": 119705,
                "official_name": "Przedszkole Publiczne Twp \"Pinokio\"",
                "name": "Przedszkole Publiczne Twp \"Pinokio\"",
                "addr:postcode": "18-400",
                "addr:city": "\u0141om\u017ca",
                "addr:street": "Studencka",
                "addr:housenumber": "11",
                "addr:city:simc": 957241,
                "addr:street:sym_ul": 21410,
                "phone": "+48 862160127",
                "email": "pinokio.lomza@wp.pl",
                "ref:regon": "200805938",
                "ref:vatin": "PL7181835975",
                "operator": "Oddzia\u0142 Regionalny Towarzystwa Wiedzy Powszechnej W \u0141om\u017cy",
                "operator:type": "ngo",
                "amenity": "kindergarten"
            }
        },
        {
            "id": 21324,
            "type": "Feature",
            "geometry": {
                "type": "Point",
                "coordinates": [
                    22.03938,
                    53.1726699
                ]
            },
            "properties": {
                "isced:level": "3",
                "ref:rspo": 21324,
                "official_name": "Akademickie Liceum Og\u00f3lnokszta\u0142c\u0105ce w \u0141om\u017cy",
                "name": "Akademickie Liceum Og\u00f3lnokszta\u0142c\u0105ce w \u0141om\u017cy",
                "addr:postcode": "18-402",
                "addr:city": "\u0141om\u017ca",
                "addr:street": "Studencka",
                "addr:housenumber": "19",
                "addr:city:simc": 957241,
                "addr:street:sym_ul": 21410,
                "phone": "+48 862150249",
                "email": "asp@wsa.edu.pl",
                "website": "http:\/\/zsa.wsa.edu.pl\/",
                "ref:regon": "200731341",
                "operator": "Wy\u017csza Szko\u0142a Agrobiznesu W \u0141om\u017cy",
                "operator:type": "private",
                "amenity": "school"
            }
        },
        {
            "id": 34831,
            "type": "Feature",
            "geometry": {
                "type": "Point",
                "coordinates": [
                    22.03938,
                    53.1726399
                ]
            },
            "properties": {
                "isced:level": "3",
                "ref:rspo": 34831,
                "official_name": "Akademicka Szko\u0142a Ponadpodstawowa w \u0141om\u017cy",
                "name": "Akademicka Szko\u0142a Ponadpodstawowa w \u0141om\u017cy",
                "addr:postcode": "18-400",
                "addr:city": "\u0141om\u017ca",
                "addr:street": "Studencka",
                "addr:housenumber": "19",
                "addr:city:simc": 957241,
                "addr:street:sym_ul": 21410,
                "phone": "+48 862150249",
                "email": "asp@wsa.edu.pl",
                "website": "http:\/\/zsa.wsa.edu.pl\/",
                "ref:regon": "200735770",
                "operator": "Wy\u017csza Szko\u0142a Agrobiznesu W \u0141om\u017cy",
                "operator:type": "private",
                "amenity": "school"
            }
        },
        {
            "id": 13450,
            "type": "Feature",
            "geometry": {
                "type": "Point",
                "coordinates": [
                    22.08538,
                    53.17356
                ]
            },
            "properties": {
                "isced:level": "1;2",
                "ref:rspo": 13450,
                "official_name": "Szko\u0142a Podstawowa nr 4 im. Genera\u0142a W\u0142adys\u0142awa Andersa w \u0141om\u017cy",
                "name": "Szko\u0142a Podstawowa nr 4",
                "addr:postcode": "18-400",
                "addr:city": "\u0141om\u017ca",
                "addr:street": "Kierzkowa",
                "addr:housenumber": "7",
                "addr:city:simc": 957241,
                "addr:street:sym_ul": 8415,
                "phone": "+48 862162752",
                "email": "lomzasp4@wp.pl",
                "website": "http:\/\/sp4lomza.pl",
                "ref:regon": "450108022",
                "operator": "Miasto \u0141om\u017ca",
                "operator:type": "government",
                "amenity": "school"
            }
        },
        {
            "id": 105618,
            "type": "Feature",
            "geometry": {
                "type": "Point",
                "coordinates": [
                    22.08044,
                    53.1736
                ]
            },
            "properties": {
                "ref:rspo": 105618,
                "official_name": "Poradnia Psychologiczno - Pedagogiczna nr 1 w \u0141om\u017cy",
                "name": "Poradnia Psychologiczno - Pedagogiczna nr 1 w \u0141om\u017cy",
                "addr:postcode": "18-400",
                "addr:city": "\u0141om\u017ca",
                "addr:street": "Szosa Zambrowska",
                "addr:housenumber": "1",
                "addr:door": "27",
                "addr:city:simc": 957241,
                "addr:street:sym_ul": 52516,
                "phone": "+48 862156947",
                "email": "poradniapp1.lomza@poczta.fm",
                "website": "http:\/\/poradniapp1lomza.szkolnastrona.pl\/",
                "ref:regon": "451104747",
                "ref:vatin": "PL7181866527",
                "operator": "Powiat \u0141om\u017cy\u0144ski",
                "operator:type": "government",
                "healthcare": "counselling",
                "counselling_type": "education",
                "fixme": "w zale\u017cno\u015bci od przedmiotu dzia\u0142alno\u015bci (np. healthcare=counselling + counselling_type=education albo healthcare=psychotherapist)"
            }
        },
        {
            "id": 14631,
            "type": "Feature",
            "geometry": {
                "type": "Point",
                "coordinates": [
                    22.06921,
                    53.17468
                ]
            },
            "properties": {
                "ref:rspo": 14631,
                "official_name": "Pa\u0144stwowa Szko\u0142a Muzyczna I I II St. w \u0141om\u017cy",
                "name": "Pa\u0144stwowa Szko\u0142a Muzyczna I I II St. w \u0141om\u017cy",
                "addr:postcode": "18-400",
                "addr:city": "\u0141om\u017ca",
                "addr:street": "Aleja Legion\u00f3w",
                "addr:housenumber": "36",
                "addr:city:simc": 957241,
                "addr:street:sym_ul": 10766,
                "phone": "+48 862150161",
                "email": "psmlomza@poczta.internetdsl.pl",
                "website": "http:\/\/psm.lomza.pl",
                "ref:regon": "000280519",
                "operator": "Ministerstwo Kultury I Dziedzictwa Narodowego",
                "operator:type": "government",
                "landuse": "education",
                "fixme": "amenity=school, amenity=college albo landuse=education w zale\u017cno\u015bci od tego, jakie plac\u00f3wki wchodz\u0105 w sk\u0142ad zespo\u0142u. Sprawd\u017a, kiedy stosowa\u0107 amenity=* a kiedy landuse=education.",
                "note": "Children RSPO: 112108;112109"
            }
        },
        {
            "id": 112108,
            "type": "Feature",
            "geometry": {
                "type": "Point",
                "coordinates": [
                    22.06921,
                    53.17465
                ]
            },
            "properties": {
                "ref:rspo": 112108,
                "official_name": "Pa\u0144stwowa Szko\u0142a Muzyczna I St. w \u0141om\u017cy",
                "name": "Pa\u0144stwowa Szko\u0142a Muzyczna I St. w \u0141om\u017cy",
                "addr:postcode": "18-400",
                "addr:city": "\u0141om\u017ca",
                "addr:street": "Aleja Legion\u00f3w",
                "addr:housenumber": "36",
                "addr:city:simc": 957241,
                "addr:street:sym_ul": 10766,
                "phone": "+48 862150161",
                "ref:regon": "200014208",
                "operator": "Ministerstwo Kultury I Dziedzictwa Narodowego",
                "operator:type": "government",
                "amenity": "music_school",
                "note": "Children RSPO: 113930Parent RSPO: 14631"
            }
        },
        {
            "id": 112109,
            "type": "Feature",
            "geometry": {
                "type": "Point",
                "coordinates": [
                    22.06921,
                    53.174620000000004
                ]
            },
            "properties": {
                "ref:rspo": 112109,
                "official_name": "Pa\u0144stwowa Szko\u0142a Muzyczna II St. w \u0141om\u017cy",
                "name": "Pa\u0144stwowa Szko\u0142a Muzyczna II St. w \u0141om\u017cy",
                "addr:postcode": "18-400",
                "addr:city": "\u0141om\u017ca",
                "addr:street": "Aleja Legion\u00f3w",
                "addr:housenumber": "36",
                "addr:city:simc": 957241,
                "addr:street:sym_ul": 10766,
                "phone": "+48 862150161",
                "ref:regon": "200014183",
                "operator": "Ministerstwo Kultury I Dziedzictwa Narodowego",
                "operator:type": "government",
                "amenity": "music_school",
                "note": "Parent RSPO: 14631"
            }
        },
        {
            "id": 14835,
            "type": "Feature",
            "geometry": {
                "type": "Point",
                "coordinates": [
                    22.07583,
                    53.17477
                ]
            },
            "properties": {
                "ref:rspo": 14835,
                "official_name": "Bursa Szkolna nr 1 w \u0141om\u017cy",
                "name": "Bursa Szkolna nr 1 w \u0141om\u017cy",
                "addr:postcode": "18-400",
                "addr:city": "\u0141om\u017ca",
                "addr:street": "Miko\u0142aja Kopernika",
                "addr:housenumber": "16",
                "addr:city:simc": 957241,
                "addr:street:sym_ul": 9282,
                "phone": "+48 862165175",
                "email": "bursa1.lomza@wp.pl",
                "website": "http:\/\/bursa1.lomza.eta.pl",
                "ref:regon": "000658389",
                "ref:vatin": "PL7181248108",
                "operator": "Miasto \u0141om\u017ca",
                "operator:type": "government",
                "building": "dormitory"
            }
        },
        {
            "id": 15212,
            "type": "Feature",
            "geometry": {
                "type": "Point",
                "coordinates": [
                    22.07583,
                    53.17474
                ]
            },
            "properties": {
                "ref:rspo": 15212,
                "official_name": "Zesp\u00f3\u0142 Szk\u00f3\u0142 Ekonomicznych I Og\u00f3lnokszta\u0142c\u0105cych nr 6 w \u0141om\u017cy",
                "name": "Zesp\u00f3\u0142 Szk\u00f3\u0142 Ekonomicznych I Og\u00f3lnokszta\u0142c\u0105cych nr 6 w \u0141om\u017cy",
                "addr:postcode": "18-400",
                "addr:city": "\u0141om\u017ca",
                "addr:street": "Miko\u0142aja Kopernika",
                "addr:housenumber": "16",
                "addr:city:simc": 957241,
                "addr:street:sym_ul": 9282,
                "phone": "+48 862166263",
                "email": "zselomza@poczta.onet.pl",
                "website": "https:\/\/www.ekonomiklomza.pl\/",
                "ref:regon": "000190236",
                "ref:vatin": "PL7181312378",
                "operator": "Miasto \u0141om\u017ca",
                "operator:type": "government",
                "landuse": "education",
                "fixme": "amenity=school, amenity=college albo landuse=education w zale\u017cno\u015bci od tego, jakie plac\u00f3wki wchodz\u0105 w sk\u0142ad zespo\u0142u. Sprawd\u017a, kiedy stosowa\u0107 amenity=* a kiedy landuse=education.",
                "note": "Children RSPO: 22802;22803"
            }
        },
        {
            "id": 22802,
            "type": "Feature",
            "geometry": {
                "type": "Point",
                "coordinates": [
                    22.07583,
                    53.174710000000005
                ]
            },
            "properties": {
                "isced:level": "3",
                "ref:rspo": 22802,
                "official_name": "Technikum nr 6 w \u0141om\u017cy",
                "name": "Technikum nr 6 w \u0141om\u017cy",
                "addr:postcode": "18-400",
                "addr:city": "\u0141om\u017ca",
                "addr:street": "Miko\u0142aja Kopernika",
                "addr:housenumber": "16",
                "addr:city:simc": 957241,
                "addr:street:sym_ul": 9282,
                "phone": "+48 862166263",
                "email": "zselomza@poczta.onet.pl",
                "website": "https:\/\/www.ekonomiklomza.pl\/",
                "ref:regon": "451152195",
                "operator": "Miasto \u0141om\u017ca",
                "operator:type": "government",
                "amenity": "school",
                "note": "Parent RSPO: 15212"
            }
        },
        {
            "id": 22803,
            "type": "Feature",
            "geometry": {
                "type": "Point",
                "coordinates": [
                    22.07583,
                    53.17468
                ]
            },
            "properties": {
                "isced:level": "3",
                "ref:rspo": 22803,
                "official_name": "Vi Liceum Og\u00f3lnokszta\u0142c\u0105ce w \u0141om\u017cy",
                "name": "Vi Liceum Og\u00f3lnokszta\u0142c\u0105ce w \u0141om\u017cy",
                "addr:postcode": "18-400",
                "addr:city": "\u0141om\u017ca",
                "addr:street": "Miko\u0142aja Kopernika",
                "addr:housenumber": "16",
                "addr:city:simc": 957241,
                "addr:street:sym_ul": 9282,
                "phone": "+48 862166263",
                "email": "zselomza@poczta.onet.pl",
                "website": "https:\/\/www.ekonomiklomza.pl\/",
                "ref:regon": "451152166",
                "operator": "Miasto \u0141om\u017ca",
                "operator:type": "government",
                "amenity": "school",
                "note": "Parent RSPO: 15212"
            }
        },
        {
            "id": 269265,
            "type": "Feature",
            "geometry": {
                "type": "Point",
                "coordinates": [
                    22.0442399,
                    53.17587
                ]
            },
            "properties": {
                "ref:rspo": 269265,
                "official_name": "Niepubliczne Przedszkole Integracyjne \"Eksperymentarium Malucha\"",
                "name": "Niepubliczne Przedszkole Integracyjne \"Eksperymentarium Malucha\"",
                "addr:postcode": "18-400",
                "addr:city": "\u0141om\u017ca",
                "addr:street": "Wojska Polskiego",
                "addr:housenumber": "151",
                "addr:city:simc": 957241,
                "addr:street:sym_ul": 24628,
                "email": "barbara.zabielska1@wp.pl",
                "ref:regon": "381433347",
                "operator": "Barbara Zabielska",
                "operator:type": "private",
                "amenity": "kindergarten"
            }
        },
        {
            "id": 75624,
            "type": "Feature",
            "geometry": {
                "type": "Point",
                "coordinates": [
                    22.0687,
                    53.17597
                ]
            },
            "properties": {
                "isced:level": "3",
                "ref:rspo": 75624,
                "official_name": "Pa\u0144stwowe Liceum Sztuk Plastycznych im. Wojciecha Kossaka w \u0141om\u017cy",
                "name": "Pa\u0144stwowe Liceum Sztuk Plastycznych",
                "addr:postcode": "18-400",
                "addr:city": "\u0141om\u017ca",
                "addr:street": "Marii Sk\u0142odowskiej-Curie",
                "addr:housenumber": "1",
                "addr:city:simc": 957241,
                "addr:street:sym_ul": 20068,
                "phone": "+48 862188419",
                "email": "malgorzata.wagner@lplomza.pl",
                "website": "http:\/\/www.lplomza.pl",
                "ref:regon": "450091830",
                "operator": "Ministerstwo Kultury I Dziedzictwa Narodowego",
                "operator:type": "government",
                "amenity": "school"
            }
        },
        {
            "id": 14251,
            "type": "Feature",
            "geometry": {
                "type": "Point",
                "coordinates": [
                    22.0687,
                    53.17594
                ]
            },
            "properties": {
                "ref:rspo": 14251,
                "official_name": "Biblioteka Pedagogiczna w \u0141om\u017cy",
                "name": "Biblioteka Pedagogiczna w \u0141om\u017cy",
                "addr:postcode": "18-400",
                "addr:city": "\u0141om\u017ca",
                "addr:street": "Marii Sk\u0142odowskiej-Curie",
                "addr:housenumber": "1",
                "addr:city:simc": 957241,
                "addr:street:sym_ul": 20068,
                "phone": "+48 862165099",
                "email": "info@bp.lomza.pl",
                "website": "http:\/\/bp.lomza.pl",
                "ref:regon": "000707283",
                "ref:vatin": "PL7181102451",
                "operator": "Wojew\u00f3dztwo Podlaskie",
                "operator:type": "government",
                "amenity": "library",
                "note": "Parent RSPO: 268052"
            }
        },
        {
            "id": 14659,
            "type": "Feature",
            "geometry": {
                "type": "Point",
                "coordinates": [
                    22.0774,
                    53.17691
                ]
            },
            "properties": {
                "isced:level": "3",
                "ref:rspo": 14659,
                "official_name": "Katolickie Liceum Og\u00f3lnokszta\u0142c\u0105ce im. Kardyna\u0142a Stefana Wyszy\u0144skiego w \u0141om\u017cy",
                "name": "Katolickie Liceum Og\u00f3lnokszta\u0142c\u0105ce",
                "addr:postcode": "18-400",
                "addr:city": "\u0141om\u017ca",
                "addr:street": "Sadowa",
                "addr:housenumber": "12",
                "addr:city:simc": 957241,
                "addr:street:sym_ul": 19404,
                "phone": "+48 862163657",
                "email": "kglolomza@wp.pl",
                "website": "http:\/\/www.szkolykatolickie.lomza.pl",
                "ref:regon": "200728787",
                "ref:vatin": "PL7181917584",
                "operator": "Diecezja \u0141om\u017cy\u0144ska",
                "operator:type": "religious",
                "amenity": "school"
            }
        },
        {
            "id": 133676,
            "type": "Feature",
            "geometry": {
                "type": "Point",
                "coordinates": [
                    22.0774,
                    53.17688
                ]
            },
            "properties": {
                "isced:level": "1;2",
                "ref:rspo": 133676,
                "official_name": "Katolicka Szko\u0142a Podstawowa im. Kardyna\u0142a Stefana Wyszy\u0144skiego w \u0141om\u017cy",
                "name": "Katolicka Szko\u0142a Podstawowa",
                "addr:postcode": "18-400",
                "addr:city": "\u0141om\u017ca",
                "addr:street": "Sadowa",
                "addr:housenumber": "12",
                "addr:city:simc": 957241,
                "addr:street:sym_ul": 19404,
                "phone": "+48 862163657",
                "email": "kglolomza@wp.pl",
                "website": "http:\/\/www.szkolykatolickie.lomza.pl",
                "ref:regon": "367538382",
                "ref:vatin": "PL7182146634",
                "operator": "Diecezja \u0141om\u017cy\u0144ska",
                "operator:type": "religious",
                "amenity": "school"
            }
        },
        {
            "id": 74915,
            "type": "Feature",
            "geometry": {
                "type": "Point",
                "coordinates": [
                    22.05338,
                    53.1771
                ]
            },
            "properties": {
                "ref:rspo": 74915,
                "official_name": "O\u015brodek Kszta\u0142cenia Kursowego w \u0141om\u017cy",
                "name": "O\u015brodek Kszta\u0142cenia Kursowego w \u0141om\u017cy",
                "addr:postcode": "18-400",
                "addr:city": "\u0141om\u017ca",
                "addr:street": "Wojska Polskiego",
                "addr:housenumber": "113",
                "addr:city:simc": 957241,
                "addr:street:sym_ul": 24628,
                "phone": "+48 862167342",
                "ref:regon": "200740707",
                "operator": "Stowarzyszenie Wspierania Edukacji I Rynku Pracy",
                "operator:type": "ngo",
                "fixme": "w zale\u017cno\u015bci od przedmiotu dzia\u0142alno\u015bci (np. amenity=training + training=*, amenity=dancing_school, amenity=language_school, amenity=music_school)"
            }
        },
        {
            "id": 129649,
            "type": "Feature",
            "geometry": {
                "type": "Point",
                "coordinates": [
                    22.05338,
                    53.17707
                ]
            },
            "properties": {
                "ref:rspo": 129649,
                "official_name": "Zesp\u00f3\u0142 Szk\u00f3\u0142 Stowarzyszenia Wspierania Edukacji I Rynku Pracy im. Stanis\u0142awa Staszica w \u0141om\u017cy",
                "name": "Zesp\u00f3\u0142 Szk\u00f3\u0142 Stowarzyszenia Wspierania Edukacji I Rynku Pracy",
                "addr:postcode": "18-400",
                "addr:city": "\u0141om\u017ca",
                "addr:street": "Wojska Polskiego",
                "addr:housenumber": "113",
                "addr:city:simc": 957241,
                "addr:street:sym_ul": 24628,
                "phone": "+48 862165724",
                "email": "edu@praca.org.pl",
                "ref:regon": "362715833",
                "ref:vatin": "PL7181409942",
                "operator": "Stowarzyszenie Wspierania Edukacji I Rynku Pracy",
                "operator:type": "ngo",
                "landuse": "education",
                "fixme": "amenity=school, amenity=college albo landuse=education w zale\u017cno\u015bci od tego, jakie plac\u00f3wki wchodz\u0105 w sk\u0142ad zespo\u0142u. Sprawd\u017a, kiedy stosowa\u0107 amenity=* a kiedy landuse=education.",
                "note": "Children RSPO: 14893;14895"
            }
        },
        {
            "id": 130226,
            "type": "Feature",
            "geometry": {
                "type": "Point",
                "coordinates": [
                    22.05338,
                    53.177040000000005
                ]
            },
            "properties": {
                "ref:rspo": 130226,
                "official_name": "Niepubliczna Poradnia Psychologiczno Pedagogiczna Pro Edu w \u0141om\u017cy",
                "name": "Niepubliczna Poradnia Psychologiczno Pedagogiczna Pro Edu w \u0141om\u017cy",
                "addr:postcode": "18-400",
                "addr:city": "\u0141om\u017ca",
                "addr:street": "Wojska Polskiego",
                "addr:housenumber": "113",
                "addr:city:simc": 957241,
                "addr:street:sym_ul": 24628,
                "phone": "+48 660446877",
                "email": "kontakt@poradnia-lomza.pl",
                "website": "http:\/\/www.poradnia-lomza.pl",
                "ref:regon": "363673568",
                "ref:vatin": "PL7181409942",
                "operator": "Stowarzyszenie Wspierania Edukacji I Rynku Pracy",
                "operator:type": "ngo",
                "healthcare": "counselling",
                "counselling_type": "education",
                "fixme": "w zale\u017cno\u015bci od przedmiotu dzia\u0142alno\u015bci (np. healthcare=counselling + counselling_type=education albo healthcare=psychotherapist)"
            }
        },
        {
            "id": 14893,
            "type": "Feature",
            "geometry": {
                "type": "Point",
                "coordinates": [
                    22.05338,
                    53.17701
                ]
            },
            "properties": {
                "isced:level": "3",
                "ref:rspo": 14893,
                "official_name": "Bran\u017cowa Szko\u0142a I Stopnia im. Stanis\u0142awa Staszica w \u0141om\u017cy",
                "name": "Bran\u017cowa Szko\u0142a I Stopnia",
                "addr:postcode": "18-400",
                "addr:city": "\u0141om\u017ca",
                "addr:street": "Wojska Polskiego",
                "addr:housenumber": "113",
                "addr:city:simc": 957241,
                "addr:street:sym_ul": 24628,
                "phone": "+48 862165724",
                "email": "edu@praca.org.pl",
                "ref:regon": "200736730",
                "ref:vatin": "PL7181409942",
                "operator": "Stowarzyszenie Wspierania Edukacji I Rynku Pracy",
                "operator:type": "ngo",
                "amenity": "school",
                "note": "Parent RSPO: 129649"
            }
        },
        {
            "id": 14895,
            "type": "Feature",
            "geometry": {
                "type": "Point",
                "coordinates": [
                    22.05338,
                    53.17698
                ]
            },
            "properties": {
                "isced:level": "3",
                "ref:rspo": 14895,
                "official_name": "Ii Liceum Og\u00f3lnokszta\u0142c\u0105ce dla Doros\u0142ych im. Stanis\u0142awa Staszica w \u0141om\u017cy",
                "name": "Ii Liceum Og\u00f3lnokszta\u0142c\u0105ce dla Doros\u0142ych",
                "addr:postcode": "18-400",
                "addr:city": "\u0141om\u017ca",
                "addr:street": "Wojska Polskiego",
                "addr:housenumber": "113",
                "addr:city:simc": 957241,
                "addr:street:sym_ul": 24628,
                "phone": "+48 862165724",
                "email": "edu@praca.org.pl",
                "ref:regon": "200735623",
                "ref:vatin": "PL7181409942",
                "operator": "Stowarzyszenie Wspierania Edukacji I Rynku Pracy",
                "operator:type": "ngo",
                "amenity": "school",
                "note": "Parent RSPO: 129649"
            }
        },
        {
            "id": 22823,
            "type": "Feature",
            "geometry": {
                "type": "Point",
                "coordinates": [
                    22.06855,
                    53.17752
                ]
            },
            "properties": {
                "ref:rspo": 22823,
                "official_name": "O\u015brodek Rewalidacyjno-Wychowawczy w \u0141om\u017cy",
                "name": "O\u015brodek Rewalidacyjno-Wychowawczy w \u0141om\u017cy",
                "addr:postcode": "18-400",
                "addr:city": "\u0141om\u017ca",
                "addr:street": "Marii Sk\u0142odowskiej Curie",
                "addr:housenumber": "5",
                "addr:city:simc": 957241,
                "addr:street:sym_ul": 32755,
                "phone": "+48 862115206",
                "email": "sp8@o2.pl",
                "website": "http:\/\/zsslomza.witrynaszkolna.pl\/",
                "ref:regon": "200284333",
                "operator": "Miasto \u0141om\u017ca",
                "operator:type": "government",
                "amenity": "school",
                "note": "Parent RSPO: 14678"
            }
        },
        {
            "id": 268496,
            "type": "Feature",
            "geometry": {
                "type": "Point",
                "coordinates": [
                    22.05745,
                    53.17758
                ]
            },
            "properties": {
                "ref:rspo": 268496,
                "official_name": "Centrum Kszta\u0142cenia Sukces Niepubliczna Plac\u00f3wka Kszta\u0142cenia Ustawicznego",
                "name": "Centrum Kszta\u0142cenia Sukces Niepubliczna Plac\u00f3wka Kszta\u0142cenia Ustawicznego",
                "addr:postcode": "18-400",
                "addr:city": "\u0141om\u017ca",
                "addr:street": "Spokojna",
                "addr:housenumber": "1",
                "addr:city:simc": 957241,
                "addr:street:sym_ul": 20677,
                "phone": "+48 862140479",
                "ref:regon": "381223905",
                "ref:vatin": "PL7181981151",
                "operator": "Beata Zaczek",
                "operator:type": "private",
                "fixme": "w zale\u017cno\u015bci od przedmiotu dzia\u0142alno\u015bci (np. amenity=training + training=*, amenity=dancing_school, amenity=language_school, amenity=music_school)"
            }
        },
        {
            "id": 13987,
            "type": "Feature",
            "geometry": {
                "type": "Point",
                "coordinates": [
                    22.08462,
                    53.17778
                ]
            },
            "properties": {
                "isced:level": "3",
                "ref:rspo": 13987,
                "official_name": "Iii Liceum Og\u00f3lnokszta\u0142c\u0105ce im. \u017bo\u0142nierzy Obwodu \u0141om\u017cy\u0144skiego Armii Krajowej w \u0141om\u017cy",
                "name": "Iii Liceum Og\u00f3lnokszta\u0142c\u0105ce",
                "addr:postcode": "18-400",
                "addr:city": "\u0141om\u017ca",
                "addr:street": "Senatorska",
                "addr:housenumber": "13",
                "addr:city:simc": 957241,
                "addr:street:sym_ul": 19677,
                "phone": "+48 862166720",
                "email": "sekretariat@lo3.lomza.pl",
                "website": "http:\/\/www.lo3.lomza.pl",
                "ref:regon": "450021887",
                "operator": "Miasto \u0141om\u017ca",
                "operator:type": "government",
                "amenity": "school"
            }
        },
        {
            "id": 74913,
            "type": "Feature",
            "geometry": {
                "type": "Point",
                "coordinates": [
                    22.0725,
                    53.1781
                ]
            },
            "properties": {
                "ref:rspo": 74913,
                "official_name": "O\u015brodek Doskonalenia Kadr \u0141om\u017cy\u0144skiej Rady Federacji Stowarzysze\u0144 Naukowo-Technicznych Not w \u0141om\u017cy",
                "name": "O\u015brodek Doskonalenia Kadr \u0141om\u017cy\u0144skiej Rady Federacji Stowarzysze\u0144 Naukowo-Technicznych Not w \u0141om\u017cy",
                "addr:postcode": "18-400",
                "addr:city": "\u0141om\u017ca",
                "addr:street": "Polowa",
                "addr:housenumber": "45",
                "addr:city:simc": 957241,
                "addr:street:sym_ul": 17027,
                "phone": "+48 862164672",
                "ref:regon": "200741664",
                "operator": "\u0141om\u017cy\u0144ska Rada Federacji Stowarzysze\u0144 Naukowo - Technicznych Not W \u0141om\u017cy",
                "operator:type": "ngo",
                "fixme": "w zale\u017cno\u015bci od przedmiotu dzia\u0142alno\u015bci (np. amenity=training + training=*, amenity=dancing_school, amenity=language_school, amenity=music_school)"
            }
        },
        {
            "id": 14328,
            "type": "Feature",
            "geometry": {
                "type": "Point",
                "coordinates": [
                    22.08672,
                    53.1781999
                ]
            },
            "properties": {
                "ref:rspo": 14328,
                "official_name": "Zesp\u00f3\u0142 Szk\u00f3\u0142 Technicznych I Og\u00f3lnokszta\u0142c\u0105cych nr 4 im. Marii Sk\u0142odowskiej - Curie w \u0141om\u017cy",
                "name": "Zesp\u00f3\u0142 Szk\u00f3\u0142 Technicznych I Og\u00f3lnokszta\u0142c\u0105cych nr 4",
                "addr:postcode": "18-400",
                "addr:city": "\u0141om\u017ca",
                "addr:street": "Zielona",
                "addr:housenumber": "21",
                "addr:city:simc": 957241,
                "addr:street:sym_ul": 26081,
                "phone": "+48 862165218",
                "email": "zielona210@op.pl",
                "website": "http:\/\/www.zielona21.lomza.pl",
                "ref:regon": "000187790",
                "ref:vatin": "PL7181321963",
                "operator": "Miasto \u0141om\u017ca",
                "operator:type": "government",
                "landuse": "education",
                "fixme": "amenity=school, amenity=college albo landuse=education w zale\u017cno\u015bci od tego, jakie plac\u00f3wki wchodz\u0105 w sk\u0142ad zespo\u0142u. Sprawd\u017a, kiedy stosowa\u0107 amenity=* a kiedy landuse=education.",
                "note": "Children RSPO: 22807;22808;22809"
            }
        },
        {
            "id": 22807,
            "type": "Feature",
            "geometry": {
                "type": "Point",
                "coordinates": [
                    22.08672,
                    53.1781699
                ]
            },
            "properties": {
                "isced:level": "3",
                "ref:rspo": 22807,
                "official_name": "Iv Liceum Og\u00f3lnokszta\u0142c\u0105ce w \u0141om\u017cy",
                "name": "Iv Liceum Og\u00f3lnokszta\u0142c\u0105ce w \u0141om\u017cy",
                "addr:postcode": "18-400",
                "addr:city": "\u0141om\u017ca",
                "addr:street": "Zielona",
                "addr:housenumber": "21",
                "addr:city:simc": 957241,
                "addr:street:sym_ul": 26081,
                "phone": "+48 862165218",
                "email": "zielona210@op.pl",
                "website": "http:\/\/www.zielona21.lomza.pl",
                "ref:regon": "450665461",
                "operator": "Miasto \u0141om\u017ca",
                "operator:type": "government",
                "amenity": "school",
                "note": "Parent RSPO: 14328"
            }
        },
        {
            "id": 22808,
            "type": "Feature",
            "geometry": {
                "type": "Point",
                "coordinates": [
                    22.08672,
                    53.178139900000005
                ]
            },
            "properties": {
                "isced:level": "3",
                "ref:rspo": 22808,
                "official_name": "Technikum nr 4 w \u0141om\u017cy",
                "name": "Technikum nr 4 w \u0141om\u017cy",
                "addr:postcode": "18-400",
                "addr:city": "\u0141om\u017ca",
                "addr:street": "Zielona",
                "addr:housenumber": "21",
                "addr:city:simc": 957241,
                "addr:street:sym_ul": 26081,
                "phone": "+48 862165218",
                "email": "zielona210@op.pl",
                "website": "http:\/\/www.zielona21.lomza.pl",
                "ref:regon": "451151920",
                "operator": "Miasto \u0141om\u017ca",
                "operator:type": "government",
                "amenity": "school",
                "note": "Parent RSPO: 14328"
            }
        },
        {
            "id": 22809,
            "type": "Feature",
            "geometry": {
                "type": "Point",
                "coordinates": [
                    22.08672,
                    53.1781099
                ]
            },
            "properties": {
                "isced:level": "3",
                "ref:rspo": 22809,
                "official_name": "Bran\u017cowa Szko\u0142a I Stopnia nr 4 w \u0141om\u017cy",
                "name": "Bran\u017cowa Szko\u0142a I Stopnia nr 4 w \u0141om\u017cy",
                "addr:postcode": "18-400",
                "addr:city": "\u0141om\u017ca",
                "addr:street": "Zielona",
                "addr:housenumber": "21",
                "addr:city:simc": 957241,
                "addr:street:sym_ul": 26081,
                "phone": "+48 862165218",
                "email": "zielona210@op.pl",
                "website": "http:\/\/www.zielona21.lomza.pl",
                "ref:regon": "451151936",
                "operator": "Miasto \u0141om\u017ca",
                "operator:type": "government",
                "amenity": "school",
                "note": "Parent RSPO: 14328"
            }
        },
        {
            "id": 19389,
            "type": "Feature",
            "geometry": {
                "type": "Point",
                "coordinates": [
                    22.06774,
                    53.17837
                ]
            },
            "properties": {
                "ref:rspo": 19389,
                "official_name": "Stowarzyszenie Edukator w \u0141om\u017cy Niepubliczne Przedszkole Integracyjne \"Ma\u0142y Artysta\"",
                "name": "Stowarzyszenie Edukator w \u0141om\u017cy Niepubliczne Przedszkole Integracyjne \"Ma\u0142y Artysta\"",
                "addr:postcode": "18-400",
                "addr:city": "\u0141om\u017ca",
                "addr:street": "Wojska Polskiego",
                "addr:housenumber": "29A",
                "addr:city:simc": 957241,
                "addr:street:sym_ul": 24628,
                "phone": "+48 862163045",
                "email": "np.malyartysta@edukator.lomza.pl",
                "ref:regon": "200730979",
                "ref:vatin": "PL7181729859",
                "operator": "Spo\u0142eczno - O\u015bwiatowe Stowarzyszenie Pomocy Pokrzywdzonym I Niepe\u0142nosprawnym \"Edukator\"",
                "operator:type": "ngo",
                "amenity": "kindergarten"
            }
        },
        {
            "id": 19390,
            "type": "Feature",
            "geometry": {
                "type": "Point",
                "coordinates": [
                    22.06774,
                    53.17834
                ]
            },
            "properties": {
                "ref:rspo": 19390,
                "official_name": "O\u015brodek Rewalidacyjno-Wychowawczy \"Szansa\" w \u0141om\u017cy",
                "name": "O\u015brodek Rewalidacyjno-Wychowawczy \"Szansa\" w \u0141om\u017cy",
                "addr:postcode": "18-400",
                "addr:city": "\u0141om\u017ca",
                "addr:street": "Wojska Polskiego",
                "addr:housenumber": "29A",
                "addr:city:simc": 957241,
                "addr:street:sym_ul": 24628,
                "phone": "+48 862150463",
                "ref:regon": "200730420",
                "operator": "Spo\u0142eczno - O\u015bwiatowe Stowarzyszenie Pomocy Pokrzywdzonym I Niepe\u0142nosprawnym \"Edukator\"",
                "operator:type": "ngo",
                "amenity": "school"
            }
        },
        {
            "id": 6742,
            "type": "Feature",
            "geometry": {
                "type": "Point",
                "coordinates": [
                    22.04971,
                    53.17848
                ]
            },
            "properties": {
                "ref:rspo": 6742,
                "official_name": "Poradnia Psychologiczno - Pedagogiczna nr 2 w \u0141om\u017cy",
                "name": "Poradnia Psychologiczno - Pedagogiczna nr 2 w \u0141om\u017cy",
                "addr:postcode": "18-400",
                "addr:city": "\u0141om\u017ca",
                "addr:street": "Polna",
                "addr:housenumber": "16",
                "addr:city:simc": 957241,
                "addr:street:sym_ul": 17011,
                "phone": "+48 862150318",
                "email": "ppplomza@poczta.onet.pl",
                "website": "http:\/\/lcre-lomza.webd.pl\/ppp2.webd.pl\/",
                "ref:regon": "000833295",
                "ref:vatin": "PL7181658438",
                "operator": "Miasto \u0141om\u017ca",
                "operator:type": "government",
                "healthcare": "counselling",
                "counselling_type": "education",
                "fixme": "w zale\u017cno\u015bci od przedmiotu dzia\u0142alno\u015bci (np. healthcare=counselling + counselling_type=education albo healthcare=psychotherapist)"
            }
        },
        {
            "id": 13117,
            "type": "Feature",
            "geometry": {
                "type": "Point",
                "coordinates": [
                    22.06951,
                    53.17882
                ]
            },
            "properties": {
                "ref:rspo": 13117,
                "official_name": "Przedszkole Publiczne nr 2 w \u0141om\u017cy",
                "name": "Przedszkole Publiczne nr 2 w \u0141om\u017cy",
                "addr:postcode": "18-400",
                "addr:city": "\u0141om\u017ca",
                "addr:street": "Polowa",
                "addr:housenumber": "57B",
                "addr:city:simc": 957241,
                "addr:street:sym_ul": 17027,
                "phone": "+48 862162925",
                "email": "przedszkole2lomza@op.pl",
                "website": "http:\/\/przedszkole2lomza.pl",
                "ref:regon": "450033749",
                "ref:vatin": "PL7181704948",
                "operator": "Miasto \u0141om\u017ca",
                "operator:type": "government",
                "amenity": "kindergarten"
            }
        },
        {
            "id": 13985,
            "type": "Feature",
            "geometry": {
                "type": "Point",
                "coordinates": [
                    22.04825,
                    53.17908
                ]
            },
            "properties": {
                "isced:level": "1;2",
                "ref:rspo": 13985,
                "official_name": "Szko\u0142a Podstawowa nr 5 im. Stanis\u0142awa Staszica w \u0141om\u017cy",
                "name": "Szko\u0142a Podstawowa nr 5",
                "addr:postcode": "18-400",
                "addr:city": "\u0141om\u017ca",
                "addr:street": "Polna",
                "addr:housenumber": "40A",
                "addr:city:simc": 957241,
                "addr:street:sym_ul": 17011,
                "phone": "+48 862162038",
                "email": "sp5_lomza@interklasa.pl",
                "website": "http:\/\/www.sp5.lomza.pl",
                "ref:regon": "450108039",
                "operator": "Miasto \u0141om\u017ca",
                "operator:type": "government",
                "amenity": "school"
            }
        },
        {
            "id": 131981,
            "type": "Feature",
            "geometry": {
                "type": "Point",
                "coordinates": [
                    22.06755,
                    53.17955
                ]
            },
            "properties": {
                "ref:rspo": 131981,
                "official_name": "Niepubliczne Przedszkole Integracyjno-Terapeutyczne \"Akademia Malucha\" w \u0141om\u017cy",
                "name": "Niepubliczne Przedszkole Integracyjno-Terapeutyczne \"Akademia Malucha\" w \u0141om\u017cy",
                "addr:postcode": "18-400",
                "addr:city": "\u0141om\u017ca",
                "addr:street": "Wojska Polskiego",
                "addr:housenumber": "8",
                "addr:city:simc": 957241,
                "addr:street:sym_ul": 24628,
                "phone": "+48 668199453",
                "email": "barbara.zabielska1@wp.pl",
                "ref:regon": "365398480",
                "operator": "Barbara Zabielska",
                "operator:type": "private",
                "amenity": "kindergarten"
            }
        },
        {
            "id": 75713,
            "type": "Feature",
            "geometry": {
                "type": "Point",
                "coordinates": [
                    22.08326,
                    53.1796099
                ]
            },
            "properties": {
                "ref:rspo": 75713,
                "official_name": "Niepubliczne Przedszkole Katolickie Zgromadzenia Si\u00f3str S\u0142u\u017cek Naj\u015bwi\u0119tszej Maryi Panny Niepokalanej w \u0141om\u017cy",
                "name": "Niepubliczne Przedszkole Katolickie Zgromadzenia Si\u00f3str S\u0142u\u017cek Naj\u015bwi\u0119tszej Maryi Panny Niepokalanej w \u0141om\u017cy",
                "addr:postcode": "18-400",
                "addr:city": "\u0141om\u017ca",
                "addr:street": "Radziecka",
                "addr:housenumber": "4",
                "addr:city:simc": 957241,
                "addr:street:sym_ul": 18348,
                "phone": "+48 862166950",
                "email": "przedszkole.katolickie.lomza@gmail.com",
                "website": "http:\/\/www.npk.lomza.eprzedszkola.pl",
                "ref:regon": "200741055",
                "ref:vatin": "PL7181667673",
                "operator": "Zgromadzenie Si\u00f3str S\u0142u\u017cek Naj\u015bwi\u0119tszej Maryi Panny Niepokalanej Prowincja Siedlecka",
                "operator:type": "religious",
                "amenity": "kindergarten"
            }
        },
        {
            "id": 19713,
            "type": "Feature",
            "geometry": {
                "type": "Point",
                "coordinates": [
                    22.07568,
                    53.17981
                ]
            },
            "properties": {
                "isced:level": "4",
                "ref:rspo": 19713,
                "official_name": "Szko\u0142a Policealna Centrum Nauki I Biznesu \"\u017bak\" w \u0141om\u017cy",
                "name": "Szko\u0142a Policealna Centrum Nauki I Biznesu \"\u017bak\" w \u0141om\u017cy",
                "addr:postcode": "18-400",
                "addr:city": "\u0141om\u017ca",
                "addr:street": "Dworna",
                "addr:housenumber": "1",
                "addr:city:simc": 957241,
                "addr:street:sym_ul": 4442,
                "phone": "+48 862150215",
                "email": "lomza@zak.edu.pl",
                "ref:regon": "200730778",
                "ref:vatin": "PL7292597869",
                "operator": "Centrum Nauki I Biznesu \"\u017bak\" Sp\u00f3\u0142ka Z Ograniczon\u0105 Odpowiedzialno\u015bci\u0105",
                "operator:type": "private",
                "amenity": "college"
            }
        },
        {
            "id": 30086,
            "type": "Feature",
            "geometry": {
                "type": "Point",
                "coordinates": [
                    22.07568,
                    53.17978
                ]
            },
            "properties": {
                "isced:level": "4",
                "ref:rspo": 30086,
                "official_name": "Szko\u0142a Policealna Prawno - Administracyjna \"\u017bak\" w \u0141om\u017cy",
                "name": "Szko\u0142a Policealna Prawno - Administracyjna \"\u017bak\" w \u0141om\u017cy",
                "addr:postcode": "18-400",
                "addr:city": "\u0141om\u017ca",
                "addr:street": "Dworna",
                "addr:housenumber": "1",
                "addr:city:simc": 957241,
                "addr:street:sym_ul": 4442,
                "phone": "+48 862150215",
                "email": "lomza@zak.edu.pl",
                "ref:regon": "200734919",
                "ref:vatin": "PL7292597869",
                "operator": "Centrum Nauki I Biznesu \"\u017bak\" Sp\u00f3\u0142ka Z Ograniczon\u0105 Odpowiedzialno\u015bci\u0105",
                "operator:type": "private",
                "amenity": "college"
            }
        },
        {
            "id": 80925,
            "type": "Feature",
            "geometry": {
                "type": "Point",
                "coordinates": [
                    22.07568,
                    53.179750000000006
                ]
            },
            "properties": {
                "ref:rspo": 80925,
                "official_name": "O\u015brodek Szkoleniowy Centrum Nauki I Biznesu \"\u017bak\" w \u0141om\u017cy",
                "name": "O\u015brodek Szkoleniowy Centrum Nauki I Biznesu \"\u017bak\" w \u0141om\u017cy",
                "addr:postcode": "18-400",
                "addr:city": "\u0141om\u017ca",
                "addr:street": "Dworna",
                "addr:housenumber": "1",
                "addr:door": "4",
                "addr:city:simc": 957241,
                "addr:street:sym_ul": 4442,
                "phone": "+48 862150215",
                "ref:regon": "200743083",
                "operator": "Centrum Nauki I Biznesu \"\u017bak\" Sp\u00f3\u0142ka Z Ograniczon\u0105 Odpowiedzialno\u015bci\u0105",
                "operator:type": "private",
                "fixme": "w zale\u017cno\u015bci od przedmiotu dzia\u0142alno\u015bci (np. amenity=training + training=*, amenity=dancing_school, amenity=language_school, amenity=music_school)"
            }
        },
        {
            "id": 92832,
            "type": "Feature",
            "geometry": {
                "type": "Point",
                "coordinates": [
                    22.07568,
                    53.17972
                ]
            },
            "properties": {
                "isced:level": "3",
                "ref:rspo": 92832,
                "official_name": "Liceum Og\u00f3lnokszta\u0142c\u0105ce dla Doros\u0142ych \"\u017bak\" w \u0141om\u017cy",
                "name": "Liceum Og\u00f3lnokszta\u0142c\u0105ce dla Doros\u0142ych \"\u017bak\" w \u0141om\u017cy",
                "addr:postcode": "18-400",
                "addr:city": "\u0141om\u017ca",
                "addr:street": "Dworna",
                "addr:housenumber": "1",
                "addr:city:simc": 957241,
                "addr:street:sym_ul": 4442,
                "phone": "+48 862150215",
                "email": "lomza@zak.edu.pl",
                "ref:regon": "200749341",
                "operator": "Centrum Nauki I Biznesu \"\u017bak\" Sp\u00f3\u0142ka Z Ograniczon\u0105 Odpowiedzialno\u015bci\u0105",
                "operator:type": "private",
                "amenity": "school"
            }
        },
        {
            "id": 129819,
            "type": "Feature",
            "geometry": {
                "type": "Point",
                "coordinates": [
                    22.07568,
                    53.17969
                ]
            },
            "properties": {
                "isced:level": "4",
                "ref:rspo": 129819,
                "official_name": "Szko\u0142a Policealna Opieki Medycznej \"\u017bak\" w \u0141om\u017cy",
                "name": "Szko\u0142a Policealna Opieki Medycznej \"\u017bak\" w \u0141om\u017cy",
                "addr:postcode": "18-400",
                "addr:city": "\u0141om\u017ca",
                "addr:street": "Dworna",
                "addr:housenumber": "1",
                "addr:city:simc": 957241,
                "addr:street:sym_ul": 4442,
                "phone": "+48 862150215",
                "email": "lomza@zak.edu.pl",
                "ref:regon": "362931838",
                "ref:vatin": "PL7292597869",
                "operator": "Centrum Nauki I Biznesu \"\u017bak\" Sp\u00f3\u0142ka Z Ograniczon\u0105 Odpowiedzialno\u015bci\u0105",
                "operator:type": "private",
                "amenity": "college"
            }
        },
        {
            "id": 129820,
            "type": "Feature",
            "geometry": {
                "type": "Point",
                "coordinates": [
                    22.07568,
                    53.179660000000005
                ]
            },
            "properties": {
                "isced:level": "4",
                "ref:rspo": 129820,
                "official_name": "Szko\u0142a Policealna Medyczna \"\u017bak\" w \u0141om\u017cy",
                "name": "Szko\u0142a Policealna Medyczna \"\u017bak\" w \u0141om\u017cy",
                "addr:postcode": "18-400",
                "addr:city": "\u0141om\u017ca",
                "addr:street": "Dworna",
                "addr:housenumber": "1",
                "addr:city:simc": 957241,
                "addr:street:sym_ul": 4442,
                "phone": "+48 862150215",
                "email": "d.danilowska@zak.edu.pl",
                "ref:regon": "362931531",
                "ref:vatin": "PL7292597869",
                "operator": "Centrum Nauki I Biznesu \"\u017bak\" Sp\u00f3\u0142ka Z Ograniczon\u0105 Odpowiedzialno\u015bci\u0105",
                "operator:type": "private",
                "amenity": "college"
            }
        },
        {
            "id": 268052,
            "type": "Feature",
            "geometry": {
                "type": "Point",
                "coordinates": [
                    22.07554,
                    53.18082
                ]
            },
            "properties": {
                "ref:rspo": 268052,
                "official_name": "Centrum Edukacji Nauczycieli w \u0141om\u017cy",
                "name": "Centrum Edukacji Nauczycieli w \u0141om\u017cy",
                "addr:postcode": "18-400",
                "addr:city": "\u0141om\u017ca",
                "addr:street": "Plac Tadeusza Ko\u015bciuszki",
                "addr:housenumber": "2",
                "addr:city:simc": 957241,
                "addr:street:sym_ul": 41718,
                "phone": "+48 862164217",
                "email": "cen@cen.lomza.pl",
                "website": "http:\/\/cen.lomza.pl",
                "ref:regon": "380889134",
                "ref:vatin": "PL7182149561",
                "operator": "Wojew\u00f3dztwo Podlaskie",
                "operator:type": "government",
                "landuse": "education",
                "fixme": "amenity=school, amenity=college albo landuse=education w zale\u017cno\u015bci od tego, jakie plac\u00f3wki wchodz\u0105 w sk\u0142ad zespo\u0142u. Sprawd\u017a, kiedy stosowa\u0107 amenity=* a kiedy landuse=education.",
                "note": "Children RSPO: 14247;14251"
            }
        },
        {
            "id": 14247,
            "type": "Feature",
            "geometry": {
                "type": "Point",
                "coordinates": [
                    22.07554,
                    53.180789999999995
                ]
            },
            "properties": {
                "ref:rspo": 14247,
                "official_name": "O\u015brodek Doskonalenia Nauczycieli w \u0141om\u017cy",
                "name": "O\u015brodek Doskonalenia Nauczycieli w \u0141om\u017cy",
                "addr:postcode": "18-400",
                "addr:city": "\u0141om\u017ca",
                "addr:street": "Plac Tadeusza Ko\u015bciuszki",
                "addr:housenumber": "2",
                "addr:city:simc": 957241,
                "addr:street:sym_ul": 9580,
                "phone": "+48 862164217",
                "email": "odn@odnlomza.pl",
                "website": "http:\/\/odnlomza.pl",
                "ref:regon": "004256771",
                "ref:vatin": "PL7181436293",
                "operator": "Wojew\u00f3dztwo Podlaskie",
                "operator:type": "government",
                "amenity": "training",
                "note": "Parent RSPO: 268052"
            }
        },
        {
            "id": 13986,
            "type": "Feature",
            "geometry": {
                "type": "Point",
                "coordinates": [
                    22.07741,
                    53.18093
                ]
            },
            "properties": {
                "isced:level": "3",
                "ref:rspo": 13986,
                "official_name": "Ii Liceum Og\u00f3lnokszta\u0142c\u0105ce im. Marii Konopnickiej w \u0141om\u017cy",
                "name": "Ii Liceum Og\u00f3lnokszta\u0142c\u0105ce",
                "addr:postcode": "18-400",
                "addr:city": "\u0141om\u017ca",
                "addr:street": "Plac Tadeusza Ko\u015bciuszki",
                "addr:housenumber": "3",
                "addr:city:simc": 957241,
                "addr:street:sym_ul": 41718,
                "phone": "+48 862162750",
                "email": "2lolomza@onet.eu",
                "website": "http:\/\/www.lomza2lo.webd.pl",
                "ref:regon": "450093160",
                "operator": "Miasto \u0141om\u017ca",
                "operator:type": "government",
                "amenity": "school"
            }
        },
        {
            "id": 14678,
            "type": "Feature",
            "geometry": {
                "type": "Point",
                "coordinates": [
                    22.07262,
                    53.18116
                ]
            },
            "properties": {
                "ref:rspo": 14678,
                "official_name": "Zesp\u00f3\u0142 Szk\u00f3\u0142 Specjalnych w \u0141om\u017cy",
                "name": "Zesp\u00f3\u0142 Szk\u00f3\u0142 Specjalnych w \u0141om\u017cy",
                "addr:postcode": "18-400",
                "addr:city": "\u0141om\u017ca",
                "addr:street": "Nowogrodzka",
                "addr:housenumber": "4",
                "addr:city:simc": 957241,
                "addr:street:sym_ul": 14426,
                "phone": "+48 862165764",
                "email": "sp8@o2.pl",
                "website": "http:\/\/zsslomza.witrynaszkolna.pl",
                "ref:regon": "000719955",
                "ref:vatin": "PL7181212955",
                "operator": "Miasto \u0141om\u017ca",
                "operator:type": "government",
                "landuse": "education",
                "fixme": "amenity=school, amenity=college albo landuse=education w zale\u017cno\u015bci od tego, jakie plac\u00f3wki wchodz\u0105 w sk\u0142ad zespo\u0142u. Sprawd\u017a, kiedy stosowa\u0107 amenity=* a kiedy landuse=education.",
                "note": "Children RSPO: 22818;22821;22822;22823;272315"
            }
        },
        {
            "id": 22818,
            "type": "Feature",
            "geometry": {
                "type": "Point",
                "coordinates": [
                    22.07262,
                    53.181129999999996
                ]
            },
            "properties": {
                "isced:level": "1;2",
                "ref:rspo": 22818,
                "official_name": "Szko\u0142a Podstawowa Specjalna nr 8 w \u0141om\u017cy",
                "name": "Szko\u0142a Podstawowa Specjalna nr 8 w \u0141om\u017cy",
                "addr:postcode": "18-400",
                "addr:city": "\u0141om\u017ca",
                "addr:street": "Nowogrodzka",
                "addr:housenumber": "4",
                "addr:city:simc": 957241,
                "addr:street:sym_ul": 14426,
                "phone": "+48 862165764",
                "email": "sp8@o2.pl",
                "website": "http:\/\/zsslomza.witrynaszkolna.pl",
                "ref:regon": "450712232",
                "operator": "Miasto \u0141om\u017ca",
                "operator:type": "government",
                "amenity": "school",
                "note": "Children RSPO: 104701Parent RSPO: 14678"
            }
        },
        {
            "id": 22821,
            "type": "Feature",
            "geometry": {
                "type": "Point",
                "coordinates": [
                    22.07262,
                    53.1811
                ]
            },
            "properties": {
                "isced:level": "3",
                "ref:rspo": 22821,
                "official_name": "Bran\u017cowa Szko\u0142a I Stopnia nr 8 w \u0141om\u017cy",
                "name": "Bran\u017cowa Szko\u0142a I Stopnia nr 8 w \u0141om\u017cy",
                "addr:postcode": "18-400",
                "addr:city": "\u0141om\u017ca",
                "addr:street": "Nowogrodzka",
                "addr:housenumber": "4",
                "addr:city:simc": 957241,
                "addr:street:sym_ul": 14426,
                "phone": "+48 862165764",
                "email": "sp8@o2.pl",
                "website": "http:\/\/zsslomza.witrynaszkolna.pl",
                "ref:regon": "450712249",
                "operator": "Miasto \u0141om\u017ca",
                "operator:type": "government",
                "amenity": "school",
                "note": "Parent RSPO: 14678"
            }
        },
        {
            "id": 22822,
            "type": "Feature",
            "geometry": {
                "type": "Point",
                "coordinates": [
                    22.07262,
                    53.18107
                ]
            },
            "properties": {
                "ref:rspo": 22822,
                "official_name": "Szko\u0142a Specjalna Przysposabiaj\u0105ca do Pracy nr 1 w \u0141om\u017cy",
                "name": "Szko\u0142a Specjalna Przysposabiaj\u0105ca do Pracy nr 1 w \u0141om\u017cy",
                "addr:postcode": "18-400",
                "addr:city": "\u0141om\u017ca",
                "addr:street": "Nowogrodzka",
                "addr:housenumber": "4",
                "addr:city:simc": 957241,
                "addr:street:sym_ul": 14426,
                "phone": "+48 862165764",
                "email": "sp8@o2.pl",
                "ref:regon": "200020048",
                "operator": "Miasto \u0141om\u017ca",
                "operator:type": "government",
                "amenity": "school",
                "note": "Parent RSPO: 14678"
            }
        },
        {
            "id": 272315,
            "type": "Feature",
            "geometry": {
                "type": "Point",
                "coordinates": [
                    22.07262,
                    53.181039999999996
                ]
            },
            "properties": {
                "ref:rspo": 272315,
                "official_name": "Przedszkole Specjalne nr 3",
                "name": "Przedszkole Specjalne nr 3",
                "addr:postcode": "18-400",
                "addr:city": "\u0141om\u017ca",
                "addr:street": "Nowogrodzka",
                "addr:housenumber": "4",
                "addr:city:simc": 957241,
                "addr:street:sym_ul": 14426,
                "phone": "+48 862165764",
                "email": "sp8@o2.pl",
                "ref:regon": "384119730",
                "operator": "Miasto \u0141om\u017ca",
                "operator:type": "government",
                "amenity": "kindergarten",
                "note": "Parent RSPO: 14678"
            }
        },
        {
            "id": 13449,
            "type": "Feature",
            "geometry": {
                "type": "Point",
                "coordinates": [
                    22.07655,
                    53.18155
                ]
            },
            "properties": {
                "isced:level": "1;2",
                "ref:rspo": 13449,
                "official_name": "Szko\u0142a Podstawowa nr 2 im. W\u0142adys\u0142awa Broniewskiego w \u0141om\u017cy",
                "name": "Szko\u0142a Podstawowa nr 2",
                "addr:postcode": "18-400",
                "addr:city": "\u0141om\u017ca",
                "addr:street": "Pi\u0119kna",
                "addr:housenumber": "2",
                "addr:city:simc": 957241,
                "addr:street:sym_ul": 16191,
                "phone": "+48 862164008",
                "email": "sekretariat@sp2.lomza.pl",
                "ref:regon": "450108000",
                "operator": "Miasto \u0141om\u017ca",
                "operator:type": "government",
                "amenity": "school"
            }
        },
        {
            "id": 13116,
            "type": "Feature",
            "geometry": {
                "type": "Point",
                "coordinates": [
                    22.05799,
                    53.18161
                ]
            },
            "properties": {
                "ref:rspo": 13116,
                "official_name": "Przedszkole Publiczne nr 1 w \u0141om\u017cy",
                "name": "Przedszkole Publiczne nr 1 w \u0141om\u017cy",
                "addr:postcode": "18-400",
                "addr:city": "\u0141om\u017ca",
                "addr:street": "Wyzwolenia",
                "addr:housenumber": "1A",
                "addr:city:simc": 957241,
                "addr:street:sym_ul": 25133,
                "phone": "+48 862162250",
                "email": "poczta@pp1.miastolomza.pl",
                "ref:regon": "450033732",
                "ref:vatin": "PL7181751712",
                "operator": "Miasto \u0141om\u017ca",
                "operator:type": "government",
                "amenity": "kindergarten"
            }
        },
        {
            "id": 22796,
            "type": "Feature",
            "geometry": {
                "type": "Point",
                "coordinates": [
                    22.07288,
                    53.18195
                ]
            },
            "properties": {
                "isced:level": "3",
                "ref:rspo": 22796,
                "official_name": "I Liceum Og\u00f3lnokszta\u0142c\u0105ce im. Tadeusza Ko\u015bciuszki w \u0141om\u017cy",
                "name": "I Liceum Og\u00f3lnokszta\u0142c\u0105ce",
                "addr:postcode": "18-400",
                "addr:city": "\u0141om\u017ca",
                "addr:street": "Feliksa Bernatowicza",
                "addr:housenumber": "4",
                "addr:city:simc": 957241,
                "addr:street:sym_ul": 1093,
                "phone": "+48 862163717",
                "email": "zso.lomza@gmail.com",
                "website": "http:\/\/1lo.lomza.pl",
                "ref:regon": "451107540",
                "operator": "Miasto \u0141om\u017ca",
                "operator:type": "government",
                "amenity": "school"
            }
        },
        {
            "id": 12873,
            "type": "Feature",
            "geometry": {
                "type": "Point",
                "coordinates": [
                    22.0795,
                    53.18225
                ]
            },
            "properties": {
                "ref:rspo": 12873,
                "official_name": "Bursa Szkolna nr 3 w \u0141om\u017cy",
                "name": "Bursa Szkolna nr 3 w \u0141om\u017cy",
                "addr:postcode": "18-400",
                "addr:city": "\u0141om\u017ca",
                "addr:street": "Zjazd",
                "addr:housenumber": "3",
                "addr:city:simc": 957241,
                "addr:street:sym_ul": 26170,
                "phone": "+48 862164609",
                "email": "bursa@bs3.lomza.pl",
                "website": "http:\/\/bs3.lomza.pl",
                "ref:regon": "450022013",
                "ref:vatin": "PL7181233271",
                "operator": "Miasto \u0141om\u017ca",
                "operator:type": "government",
                "building": "dormitory"
            }
        },
        {
            "id": 109895,
            "type": "Feature",
            "geometry": {
                "type": "Point",
                "coordinates": [
                    22.07734,
                    53.18286
                ]
            },
            "properties": {
                "ref:rspo": 109895,
                "official_name": "Akademicki Zesp\u00f3\u0142 Szk\u00f3\u0142 Przy Pa\u0144stwowej Wy\u017cszej Szkole Informatyki I Przedsi\u0119biorczo\u015bci w \u0141om\u017cy",
                "name": "Akademicki Zesp\u00f3\u0142 Szk\u00f3\u0142 Przy Pa\u0144stwowej Wy\u017cszej Szkole Informatyki I Przedsi\u0119biorczo\u015bci w \u0141om\u017cy",
                "addr:postcode": "18-400",
                "addr:city": "\u0141om\u017ca",
                "addr:street": "Wiejska",
                "addr:housenumber": "16",
                "addr:city:simc": 957241,
                "addr:street:sym_ul": 24048,
                "phone": "+48 862163153",
                "email": "azsp@pwsip.edu.pl",
                "website": "http:\/\/www.pwsip.edu.pl\/azsp",
                "ref:regon": "200763855",
                "ref:vatin": "PL7181947148",
                "operator": "Pa\u0144stwowa Wy\u017csza Szko\u0142a Informatyki I Przedsi\u0119biorczo\u015bci W \u0141om\u017cy",
                "operator:type": "public",
                "landuse": "education",
                "fixme": "amenity=school, amenity=college albo landuse=education w zale\u017cno\u015bci od tego, jakie plac\u00f3wki wchodz\u0105 w sk\u0142ad zespo\u0142u. Sprawd\u017a, kiedy stosowa\u0107 amenity=* a kiedy landuse=education.",
                "note": "Children RSPO: 75993;80777;111781"
            }
        },
        {
            "id": 75993,
            "type": "Feature",
            "geometry": {
                "type": "Point",
                "coordinates": [
                    22.07734,
                    53.182829999999996
                ]
            },
            "properties": {
                "isced:level": "4",
                "ref:rspo": 75993,
                "official_name": "Akademicka Szko\u0142a Policealna dla Doros\u0142ych",
                "name": "Akademicka Szko\u0142a Policealna dla Doros\u0142ych",
                "addr:postcode": "18-400",
                "addr:city": "\u0141om\u017ca",
                "addr:street": "Wiejska",
                "addr:housenumber": "16",
                "addr:city:simc": 957241,
                "addr:street:sym_ul": 24048,
                "phone": "+48 862163153",
                "email": "azsp@pwsip.edu.pl",
                "website": "http:\/\/www.pwsip.edu.pl\/azsp",
                "ref:regon": "200741003",
                "operator": "Pa\u0144stwowa Wy\u017csza Szko\u0142a Informatyki I Przedsi\u0119biorczo\u015bci W \u0141om\u017cy",
                "operator:type": "public",
                "amenity": "college",
                "note": "Parent RSPO: 109895"
            }
        },
        {
            "id": 80777,
            "type": "Feature",
            "geometry": {
                "type": "Point",
                "coordinates": [
                    22.07734,
                    53.1828
                ]
            },
            "properties": {
                "isced:level": "4",
                "ref:rspo": 80777,
                "official_name": "Akademicka Szko\u0142a Policealna w \u0141om\u017cy",
                "name": "Akademicka Szko\u0142a Policealna w \u0141om\u017cy",
                "addr:postcode": "18-400",
                "addr:city": "\u0141om\u017ca",
                "addr:street": "Wiejska",
                "addr:housenumber": "16",
                "addr:city:simc": 957241,
                "addr:street:sym_ul": 24048,
                "phone": "+48 862163153",
                "email": "azsp@pwsip.edu.pl",
                "website": "http:\/\/www.pwsip.edu.pl\/azsp",
                "ref:regon": "200742385",
                "operator": "Pa\u0144stwowa Wy\u017csza Szko\u0142a Informatyki I Przedsi\u0119biorczo\u015bci W \u0141om\u017cy",
                "operator:type": "public",
                "amenity": "college",
                "note": "Parent RSPO: 109895"
            }
        },
        {
            "id": 111781,
            "type": "Feature",
            "geometry": {
                "type": "Point",
                "coordinates": [
                    22.07734,
                    53.18277
                ]
            },
            "properties": {
                "isced:level": "3",
                "ref:rspo": 111781,
                "official_name": "Liceum Mistrzostwa Sportowego w \u0141om\u017cy",
                "name": "Liceum Mistrzostwa Sportowego w \u0141om\u017cy",
                "addr:postcode": "18-400",
                "addr:city": "\u0141om\u017ca",
                "addr:street": "Wiejska",
                "addr:housenumber": "16",
                "addr:city:simc": 957241,
                "addr:street:sym_ul": 24048,
                "phone": "+48 862163153",
                "email": "azsp@pwsip.edu.pl",
                "website": "http:\/\/www.pwsip.edu.pl\/lms",
                "ref:regon": "200770312",
                "operator": "Pa\u0144stwowa Wy\u017csza Szko\u0142a Informatyki I Przedsi\u0119biorczo\u015bci W \u0141om\u017cy",
                "operator:type": "public",
                "amenity": "school",
                "note": "Parent RSPO: 109895"
            }
        },
        {
            "id": 30425,
            "type": "Feature",
            "geometry": {
                "type": "Point",
                "coordinates": [
                    22.30238,
                    53.28536
                ]
            },
            "properties": {
                "ref:rspo": 30425,
                "official_name": "Katolicka Bursa Szkolna im. Ksi\u0119dza Kardyna\u0142a Stefana Wyszy\u0144skiego",
                "name": "Katolicka Bursa Szkolna",
                "addr:postcode": "18-400",
                "addr:city": "\u0141om\u017ca",
                "addr:street": "Plac Papie\u017ca Jana Paw\u0142a II",
                "addr:housenumber": "1",
                "addr:city:simc": 957241,
                "addr:street:sym_ul": 38295,
                "phone": "+48 862162429",
                "email": "zbyszekpysklo@wp.pl",
                "website": "http:\/\/www.bursakatolicka.pl",
                "ref:regon": "200736545",
                "ref:vatin": "PL7181681992",
                "operator": "Diecezja \u0141om\u017cy\u0144ska",
                "operator:type": "religious",
                "building": "dormitory"
            }
        }
    ]
}