{
    "type": "FeatureCollection",
    "features": [
        {
            "id": 265809,
            "type": "Feature",
            "geometry": {
                "type": "Point",
                "coordinates": [
                    22.7776,
                    49.74842
                ]
            },
            "properties": {
                "ref:rspo": 265809,
                "official_name": "Niepubliczne Przedszkole Specjalne \"Nad Jaworem\"",
                "name": "Niepubliczne Przedszkole Specjalne \"Nad Jaworem\"",
                "addr:postcode": "37-700",
                "addr:city": "Przemy\u015bl",
                "addr:street": "Sob\u00f3tki",
                "addr:housenumber": "23",
                "addr:teryt:simc": 971672,
                "addr:teryt:sym_ul": 20459,
                "phone": "+48 166705830",
                "email": "jadsien5@interia.pl",
                "ref:regon": "368921491",
                "operator": "Polskie Towarzystwo Walki Z Kalectwem Oddzia\u0142 W Przemy\u015blu",
                "operator:type": "ngo",
                "amenity": "kindergarten"
            }
        },
        {
            "id": 272532,
            "type": "Feature",
            "geometry": {
                "type": "Point",
                "coordinates": [
                    22.80462,
                    49.76702
                ]
            },
            "properties": {
                "isced:level": "1;2",
                "ref:rspo": 272532,
                "official_name": "Szko\u0142a Mistrzostwa Sportowego Przemy\u015bl",
                "name": "Szko\u0142a Mistrzostwa Sportowego Przemy\u015bl",
                "addr:postcode": "37-700",
                "addr:city": "Przemy\u015bl",
                "addr:street": "Tarniowa",
                "addr:housenumber": "8",
                "addr:teryt:simc": 971672,
                "addr:teryt:sym_ul": 22674,
                "phone": "+48 730008110",
                "email": "smsprzemysl@gmail.com",
                "ref:regon": "384262171",
                "operator": "Stowarzyszenie Sms Przemy\u015bl",
                "operator:type": "ngo",
                "amenity": "school"
            }
        },
        {
            "id": 7634,
            "type": "Feature",
            "geometry": {
                "type": "Point",
                "coordinates": [
                    22.7885,
                    49.77183
                ]
            },
            "properties": {
                "ref:rspo": 7634,
                "official_name": "Zesp\u00f3\u0142 Szk\u00f3\u0142 Us\u0142ugowo-Hotelarskich I Gastronomicznych w Przemy\u015blu",
                "name": "Zesp\u00f3\u0142 Szk\u00f3\u0142 Us\u0142ugowo-Hotelarskich I Gastronomicznych w Przemy\u015blu",
                "addr:postcode": "37-700",
                "addr:city": "Przemy\u015bl",
                "addr:street": "Bako\u0144czycka",
                "addr:housenumber": "11",
                "addr:teryt:simc": 971672,
                "addr:teryt:sym_ul": 617,
                "phone": "+48 166788486",
                "email": "zsu-hig@um.przemysl.pl",
                "website": "http:\/\/www.zsu-hig.edu.pl",
                "ref:regon": "650976137",
                "ref:vatin": "PL7951283716",
                "operator": "Przemy\u015bl - Miasto Na Prawach Powiatu",
                "operator:type": "government",
                "landuse": "education",
                "fixme": "amenity=school, amenity=college albo landuse=education w zale\u017cno\u015bci od tego, jakie plac\u00f3wki wchodz\u0105 w sk\u0142ad zespo\u0142u. Sprawd\u017a, kiedy stosowa\u0107 amenity=* a kiedy landuse=education.",
                "note": "Children RSPO: 12454;12456"
            }
        },
        {
            "id": 12454,
            "type": "Feature",
            "geometry": {
                "type": "Point",
                "coordinates": [
                    22.7885,
                    49.7718
                ]
            },
            "properties": {
                "isced:level": "3",
                "ref:rspo": 12454,
                "official_name": "Technikum Nr 1 im. Armii Krajowej w Przemy\u015blu",
                "name": "Technikum Nr 1",
                "addr:postcode": "37-700",
                "addr:city": "Przemy\u015bl",
                "addr:street": "Bako\u0144czycka",
                "addr:housenumber": "11",
                "addr:teryt:simc": 971672,
                "addr:teryt:sym_ul": 617,
                "phone": "+48 166788486",
                "email": "zsu-hig@um.przemysl.pl",
                "website": "http:\/\/www.zsu-hig.edu.pl",
                "ref:regon": "651499136",
                "operator": "Przemy\u015bl - Miasto Na Prawach Powiatu",
                "operator:type": "government",
                "amenity": "school",
                "note": "Parent RSPO: 7634"
            }
        },
        {
            "id": 12456,
            "type": "Feature",
            "geometry": {
                "type": "Point",
                "coordinates": [
                    22.7885,
                    49.771770000000004
                ]
            },
            "properties": {
                "isced:level": "3",
                "ref:rspo": 12456,
                "official_name": "Bran\u017cowa Szko\u0142a I Stopnia Nr 1 w Przemy\u015blu",
                "name": "Bran\u017cowa Szko\u0142a I Stopnia Nr 1 w Przemy\u015blu",
                "addr:postcode": "37-700",
                "addr:city": "Przemy\u015bl",
                "addr:street": "Bako\u0144czycka",
                "addr:housenumber": "11",
                "addr:teryt:simc": 971672,
                "addr:teryt:sym_ul": 617,
                "phone": "+48 166788486",
                "email": "zsu-hig@um.przemysl.pl",
                "website": "http:\/\/www.zsu-hig.edu.pl",
                "ref:regon": "651499159",
                "operator": "Przemy\u015bl - Miasto Na Prawach Powiatu",
                "operator:type": "government",
                "amenity": "school",
                "note": "Parent RSPO: 7634"
            }
        },
        {
            "id": 20791,
            "type": "Feature",
            "geometry": {
                "type": "Point",
                "coordinates": [
                    22.78348,
                    49.7729
                ]
            },
            "properties": {
                "ref:rspo": 20791,
                "official_name": "Zesp\u00f3\u0142 Pa\u0144stwowych Szk\u00f3\u0142 Muzycznych im. Artura Malawskiego w Przemy\u015blu",
                "name": "Zesp\u00f3\u0142 Pa\u0144stwowych Szk\u00f3\u0142 Muzycznych",
                "addr:postcode": "37-700",
                "addr:city": "Przemy\u015bl",
                "addr:street": "Juliusza S\u0142owackiego",
                "addr:housenumber": "91",
                "addr:teryt:simc": 971672,
                "addr:teryt:sym_ul": 20291,
                "phone": "+48 166783766",
                "email": "sekretariat@muzyk.edu.pl",
                "website": "http:\/\/muzyk.edu.pl",
                "ref:regon": "000277753",
                "operator": "Ministerstwo Kultury I Dziedzictwa Narodowego",
                "operator:type": "public",
                "landuse": "education",
                "fixme": "amenity=school, amenity=college albo landuse=education w zale\u017cno\u015bci od tego, jakie plac\u00f3wki wchodz\u0105 w sk\u0142ad zespo\u0142u. Sprawd\u017a, kiedy stosowa\u0107 amenity=* a kiedy landuse=education.",
                "note": "Children RSPO: 103662;103663;103664;103665"
            }
        },
        {
            "id": 103662,
            "type": "Feature",
            "geometry": {
                "type": "Point",
                "coordinates": [
                    22.78348,
                    49.77287
                ]
            },
            "properties": {
                "ref:rspo": 103662,
                "official_name": "Pa\u0144stwowa Szko\u0142a Muzyczna I St. w Przemy\u015blu",
                "name": "Pa\u0144stwowa Szko\u0142a Muzyczna I St. w Przemy\u015blu",
                "addr:postcode": "37-700",
                "addr:city": "Przemy\u015bl",
                "addr:street": "Juliusza S\u0142owackiego",
                "addr:housenumber": "91",
                "addr:teryt:simc": 971672,
                "addr:teryt:sym_ul": 20291,
                "phone": "+48 166783766",
                "ref:regon": "180037041",
                "operator": "Ministerstwo Kultury I Dziedzictwa Narodowego",
                "operator:type": "public",
                "amenity": "music_school",
                "note": "Parent RSPO: 20791"
            }
        },
        {
            "id": 103663,
            "type": "Feature",
            "geometry": {
                "type": "Point",
                "coordinates": [
                    22.78348,
                    49.77284
                ]
            },
            "properties": {
                "ref:rspo": 103663,
                "official_name": "Pa\u0144stwowa Szko\u0142a Muzyczna II St. w Przemy\u015blu",
                "name": "Pa\u0144stwowa Szko\u0142a Muzyczna II St. w Przemy\u015blu",
                "addr:postcode": "37-700",
                "addr:city": "Przemy\u015bl",
                "addr:street": "Juliusza S\u0142owackiego",
                "addr:housenumber": "91",
                "addr:teryt:simc": 971672,
                "addr:teryt:sym_ul": 20291,
                "phone": "+48 166783766",
                "email": "zpsmiam@gmail.com",
                "website": "http:\/\/muzyk.edu.pl",
                "ref:regon": "180037064",
                "operator": "Ministerstwo Kultury I Dziedzictwa Narodowego",
                "operator:type": "public",
                "amenity": "music_school",
                "note": "Parent RSPO: 20791"
            }
        },
        {
            "id": 103664,
            "type": "Feature",
            "geometry": {
                "type": "Point",
                "coordinates": [
                    22.78348,
                    49.77281
                ]
            },
            "properties": {
                "isced:level": "1;2",
                "ref:rspo": 103664,
                "official_name": "Og\u00f3lnokszta\u0142c\u0105ca Szko\u0142a Muzyczna I St. w Przemy\u015blu",
                "name": "Og\u00f3lnokszta\u0142c\u0105ca Szko\u0142a Muzyczna I St. w Przemy\u015blu",
                "addr:postcode": "37-700",
                "addr:city": "Przemy\u015bl",
                "addr:street": "Juliusza S\u0142owackiego",
                "addr:housenumber": "91",
                "addr:teryt:simc": 971672,
                "addr:teryt:sym_ul": 20291,
                "phone": "+48 166783766",
                "email": "sekretariat@muzyk.edu.pl",
                "ref:regon": "180037058",
                "operator": "Ministerstwo Kultury I Dziedzictwa Narodowego",
                "operator:type": "public",
                "amenity": "school",
                "note": "Parent RSPO: 20791"
            }
        },
        {
            "id": 103665,
            "type": "Feature",
            "geometry": {
                "type": "Point",
                "coordinates": [
                    22.78348,
                    49.77278
                ]
            },
            "properties": {
                "isced:level": "3",
                "ref:rspo": 103665,
                "official_name": "Og\u00f3lnokszta\u0142caca Szko\u0142a Muzyczna II St. w Przemy\u015blu",
                "name": "Og\u00f3lnokszta\u0142caca Szko\u0142a Muzyczna II St. w Przemy\u015blu",
                "addr:postcode": "37-700",
                "addr:city": "Przemy\u015bl",
                "addr:street": "Juliusza S\u0142owackiego",
                "addr:housenumber": "91",
                "addr:teryt:simc": 971672,
                "addr:teryt:sym_ul": 20291,
                "phone": "+48 166783766",
                "email": "sekretariat@muzyk.edu.pl",
                "website": "http:\/\/www.muzyk.edu.pl",
                "ref:regon": "180037070",
                "operator": "Ministerstwo Kultury I Dziedzictwa Narodowego",
                "operator:type": "public",
                "amenity": "school",
                "note": "Parent RSPO: 20791"
            }
        },
        {
            "id": 9740,
            "type": "Feature",
            "geometry": {
                "type": "Point",
                "coordinates": [
                    22.7912074,
                    49.7732523
                ]
            },
            "properties": {
                "ref:rspo": 9740,
                "official_name": "Prywatne Przedszkole im. Marii Montessori Mgr Ewy Po\u0142e\u0107",
                "name": "Prywatne Przedszkole",
                "addr:postcode": "37-700",
                "addr:city": "Przemy\u015bl",
                "addr:street": "\u017bo\u0142nierzy I Armii Wojska Polskiego",
                "addr:housenumber": "1",
                "addr:door": "22",
                "addr:teryt:simc": 971672,
                "addr:teryt:sym_ul": 39919,
                "phone": "+48 166788802",
                "email": "montessori@montessori.com.pl",
                "website": "http:\/\/www.montessori.com.pl",
                "ref:regon": "180883534",
                "operator": "Ewa Po\u0142e\u0107",
                "operator:type": "private",
                "amenity": "kindergarten"
            }
        },
        {
            "id": 6509,
            "type": "Feature",
            "geometry": {
                "type": "Point",
                "coordinates": [
                    22.78185,
                    49.77372
                ]
            },
            "properties": {
                "ref:rspo": 6509,
                "official_name": "Przedszkole Nr 20 w Przemy\u015blu",
                "name": "Przedszkole Nr 20 w Przemy\u015blu",
                "addr:postcode": "37-700",
                "addr:city": "Przemy\u015bl",
                "addr:street": "Juliusza S\u0142owackiego",
                "addr:housenumber": "102",
                "addr:teryt:simc": 971672,
                "addr:teryt:sym_ul": 20291,
                "phone": "+48 166782182",
                "email": "pm20@um.przemysl.pl",
                "ref:regon": "180576878",
                "ref:vatin": "PL7952501718",
                "operator": "Przemy\u015bl - Miasto Na Prawach Powiatu",
                "operator:type": "government",
                "amenity": "kindergarten"
            }
        },
        {
            "id": 6600,
            "type": "Feature",
            "geometry": {
                "type": "Point",
                "coordinates": [
                    22.7811999,
                    49.77529
                ]
            },
            "properties": {
                "isced:level": "4",
                "ref:rspo": 6600,
                "official_name": "Szko\u0142a Policealna. Elitarne Studium S\u0142u\u017cb Ochrony \"Delta\" w Przemy\u015blu",
                "name": "Szko\u0142a Policealna. Elitarne Studium S\u0142u\u017cb Ochrony \"Delta\" w Przemy\u015blu",
                "addr:postcode": "37-700",
                "addr:city": "Przemy\u015bl",
                "addr:street": "Juliusza S\u0142owackiego",
                "addr:housenumber": "85",
                "addr:teryt:simc": 971672,
                "addr:teryt:sym_ul": 20291,
                "phone": "+48 166783955",
                "email": "przemysl@deltasc.pl",
                "website": "http:\/\/www.deltasc.pl",
                "ref:regon": "180893136",
                "operator": "Centrum Szkoleniowe S\u0142u\u017cb Ochrony Delta Sp\u00f3\u0142ka Z Ograniczon\u0105 Odpowiedzialno\u015bci\u0105",
                "operator:type": "private",
                "amenity": "college"
            }
        },
        {
            "id": 123731,
            "type": "Feature",
            "geometry": {
                "type": "Point",
                "coordinates": [
                    22.78159,
                    49.77762
                ]
            },
            "properties": {
                "ref:rspo": 123731,
                "official_name": "Medyczno-Spo\u0142eczne Centrum Kszta\u0142cenia Zawodowego I Ustawicznego w Przemy\u015blu",
                "name": "Medyczno-Spo\u0142eczne Centrum Kszta\u0142cenia Zawodowego I Ustawicznego w Przemy\u015blu",
                "addr:postcode": "37-700",
                "addr:city": "Przemy\u015bl",
                "addr:street": "Waleriana \u0141ukasi\u0144skiego",
                "addr:housenumber": "20",
                "addr:teryt:simc": 971672,
                "addr:teryt:sym_ul": 11755,
                "phone": "+48 166783955",
                "email": "zsmed@pro.onet.pl",
                "ref:regon": "181135544",
                "operator": "Wojew\u00f3dztwo Podkarpackie",
                "operator:type": "government",
                "landuse": "education",
                "fixme": "amenity=school, amenity=college albo landuse=education w zale\u017cno\u015bci od tego, jakie plac\u00f3wki wchodz\u0105 w sk\u0142ad zespo\u0142u. Sprawd\u017a, kiedy stosowa\u0107 amenity=* a kiedy landuse=education.",
                "note": "Children RSPO: 91272;128333"
            }
        },
        {
            "id": 91272,
            "type": "Feature",
            "geometry": {
                "type": "Point",
                "coordinates": [
                    22.78159,
                    49.77759
                ]
            },
            "properties": {
                "isced:level": "4",
                "ref:rspo": 91272,
                "official_name": "Medyczna Szko\u0142a Policealna im. Jadwigi I\u017cyckiej w Przemy\u015blu",
                "name": "Medyczna Szko\u0142a Policealna",
                "addr:postcode": "37-700",
                "addr:city": "Przemy\u015bl",
                "addr:street": "Waleriana \u0141ukasi\u0144skiego",
                "addr:housenumber": "20",
                "addr:teryt:simc": 971672,
                "addr:teryt:sym_ul": 11755,
                "phone": "+48 166786128",
                "email": "zsmed@pro.onet.pl",
                "ref:regon": "651419746",
                "ref:vatin": "PL7951283403",
                "operator": "Wojew\u00f3dztwo Podkarpackie",
                "operator:type": "government",
                "amenity": "college",
                "note": "Parent RSPO: 123731"
            }
        },
        {
            "id": 128333,
            "type": "Feature",
            "geometry": {
                "type": "Point",
                "coordinates": [
                    22.78159,
                    49.77756
                ]
            },
            "properties": {
                "ref:rspo": 128333,
                "official_name": "Podkarpackie Centrum Kszta\u0142cenia Ustawicznego w Przemy\u015blu",
                "name": "Podkarpackie Centrum Kszta\u0142cenia Ustawicznego w Przemy\u015blu",
                "addr:postcode": "37-700",
                "addr:city": "Przemy\u015bl",
                "addr:street": "Waleriana \u0141ukasi\u0144skiego",
                "addr:housenumber": "20",
                "addr:teryt:simc": 971672,
                "addr:teryt:sym_ul": 11755,
                "phone": "+48 166783955",
                "email": "zsmed@pro.onet.pl",
                "ref:regon": "362233471",
                "operator": "Wojew\u00f3dztwo Podkarpackie",
                "operator:type": "government",
                "fixme": "w zale\u017cno\u015bci od przedmiotu dzia\u0142alno\u015bci (np. amenity=training + training=*, amenity=dancing_school, amenity=language_school, amenity=music_school)",
                "note": "Parent RSPO: 123731"
            }
        },
        {
            "id": 11538,
            "type": "Feature",
            "geometry": {
                "type": "Point",
                "coordinates": [
                    22.79176,
                    49.77769
                ]
            },
            "properties": {
                "isced:level": "4",
                "ref:rspo": 11538,
                "official_name": "Szko\u0142a Policealna Nr 5 w Przemy\u015blu",
                "name": "Szko\u0142a Policealna Nr 5 w Przemy\u015blu",
                "addr:postcode": "37-700",
                "addr:city": "Przemy\u015bl",
                "addr:street": "Aleksandra Dworskiego",
                "addr:housenumber": "100",
                "addr:teryt:simc": 971672,
                "addr:teryt:sym_ul": 4447,
                "phone": "+48 166785174",
                "email": "ckziu1@um.przemysl.pl",
                "website": "http:\/\/ckziu1przemysl.pl",
                "ref:regon": "180884982",
                "operator": "Przemy\u015bl - Miasto Na Prawach Powiatu",
                "operator:type": "government",
                "amenity": "college",
                "note": "Parent RSPO: 118928"
            }
        },
        {
            "id": 11542,
            "type": "Feature",
            "geometry": {
                "type": "Point",
                "coordinates": [
                    22.79176,
                    49.77766
                ]
            },
            "properties": {
                "isced:level": "3",
                "ref:rspo": 11542,
                "official_name": "Technikum Nr 8 im. Ks. Abp. Ignacego Tokarczuka w Przemy\u015blu",
                "name": "Technikum Nr 8",
                "addr:postcode": "37-700",
                "addr:city": "Przemy\u015bl",
                "addr:street": "Aleksandra Dworskiego",
                "addr:housenumber": "100",
                "addr:teryt:simc": 971672,
                "addr:teryt:sym_ul": 4447,
                "phone": "+48 166785174",
                "email": "ckziu1@um.przemysl.pl",
                "website": "http:\/\/ckziu1przemysl.pl",
                "ref:regon": "651498881",
                "operator": "Przemy\u015bl - Miasto Na Prawach Powiatu",
                "operator:type": "government",
                "amenity": "school",
                "note": "Parent RSPO: 118928"
            }
        },
        {
            "id": 118928,
            "type": "Feature",
            "geometry": {
                "type": "Point",
                "coordinates": [
                    22.7930199,
                    49.77839
                ]
            },
            "properties": {
                "ref:rspo": 118928,
                "official_name": "Centrum Kszta\u0142cenia Zawodowego I Ustawicznego Nr 1 w Przemy\u015blu",
                "name": "Centrum Kszta\u0142cenia Zawodowego I Ustawicznego Nr 1 w Przemy\u015blu",
                "addr:postcode": "37-700",
                "addr:city": "Przemy\u015bl",
                "addr:street": "Aleksandra Dworskiego",
                "addr:housenumber": "99",
                "addr:teryt:simc": 971672,
                "addr:teryt:sym_ul": 4447,
                "phone": "+48 166785174",
                "email": "ckziu1@um.przemysl.pl",
                "website": "http:\/\/ckziu1przemysl.pl",
                "ref:regon": "181011641",
                "ref:vatin": "PL7952527847",
                "operator": "Przemy\u015bl - Miasto Na Prawach Powiatu",
                "operator:type": "government",
                "landuse": "education",
                "fixme": "amenity=school, amenity=college albo landuse=education w zale\u017cno\u015bci od tego, jakie plac\u00f3wki wchodz\u0105 w sk\u0142ad zespo\u0142u. Sprawd\u017a, kiedy stosowa\u0107 amenity=* a kiedy landuse=education.",
                "note": "Children RSPO: 6484;11538;11542;12339;12340;12341"
            }
        },
        {
            "id": 12339,
            "type": "Feature",
            "geometry": {
                "type": "Point",
                "coordinates": [
                    22.7930199,
                    49.77836
                ]
            },
            "properties": {
                "isced:level": "3",
                "ref:rspo": 12339,
                "official_name": "Technikum Nr 6 im. Ksi\u0119dza Franciszka Winnickiego w Przemy\u015blu",
                "name": "Technikum Nr 6",
                "addr:postcode": "37-700",
                "addr:city": "Przemy\u015bl",
                "addr:street": "Aleksandra Dworskiego",
                "addr:housenumber": "99",
                "addr:teryt:simc": 971672,
                "addr:teryt:sym_ul": 4447,
                "phone": "+48 166785174",
                "email": "ckziu1@um.przemysl.pl",
                "website": "http:\/\/ckziu1przemysl.pl",
                "ref:regon": "651498912",
                "operator": "Przemy\u015bl - Miasto Na Prawach Powiatu",
                "operator:type": "government",
                "amenity": "school",
                "note": "Parent RSPO: 118928"
            }
        },
        {
            "id": 12340,
            "type": "Feature",
            "geometry": {
                "type": "Point",
                "coordinates": [
                    22.7930199,
                    49.778330000000004
                ]
            },
            "properties": {
                "isced:level": "3",
                "ref:rspo": 12340,
                "official_name": "Bran\u017cowa Szko\u0142a I Stopnia Nr 6 im. Ksi\u0119dza Franciszka Winnickiego w Przemy\u015blu",
                "name": "Bran\u017cowa Szko\u0142a I Stopnia Nr 6",
                "addr:postcode": "37-700",
                "addr:city": "Przemy\u015bl",
                "addr:street": "Aleksandra Dworskiego",
                "addr:housenumber": "99",
                "addr:teryt:simc": 971672,
                "addr:teryt:sym_ul": 4447,
                "phone": "+48 166785174",
                "email": "ckziu1@um.przemysl.pl",
                "website": "http:\/\/ckziu1przemysl.pl",
                "ref:regon": "651498935",
                "operator": "Przemy\u015bl - Miasto Na Prawach Powiatu",
                "operator:type": "government",
                "amenity": "school",
                "note": "Parent RSPO: 118928"
            }
        },
        {
            "id": 12341,
            "type": "Feature",
            "geometry": {
                "type": "Point",
                "coordinates": [
                    22.7930199,
                    49.7783
                ]
            },
            "properties": {
                "isced:level": "4",
                "ref:rspo": 12341,
                "official_name": "Szko\u0142a Policealna Nr 2 w Przemy\u015blu",
                "name": "Szko\u0142a Policealna Nr 2 w Przemy\u015blu",
                "addr:postcode": "37-700",
                "addr:city": "Przemy\u015bl",
                "addr:street": "Aleksandra Dworskiego",
                "addr:housenumber": "99",
                "addr:teryt:simc": 971672,
                "addr:teryt:sym_ul": 4447,
                "phone": "+48 166785174",
                "email": "ckziu1@um.przemysl.pl",
                "website": "http:\/\/ckziu1przemysl.pl",
                "ref:regon": "651421861",
                "operator": "Przemy\u015bl - Miasto Na Prawach Powiatu",
                "operator:type": "government",
                "amenity": "college",
                "note": "Parent RSPO: 118928"
            }
        },
        {
            "id": 6484,
            "type": "Feature",
            "geometry": {
                "type": "Point",
                "coordinates": [
                    22.79243,
                    49.77858
                ]
            },
            "properties": {
                "ref:rspo": 6484,
                "official_name": "Centrum Kszta\u0142cenia Praktycznego w Przemy\u015blu",
                "name": "Centrum Kszta\u0142cenia Praktycznego w Przemy\u015blu",
                "addr:postcode": "37-700",
                "addr:city": "Przemy\u015bl",
                "addr:street": "Aleksandra Dworskiego",
                "addr:housenumber": "97A",
                "addr:teryt:simc": 971672,
                "addr:teryt:sym_ul": 4447,
                "phone": "+48 166785174",
                "email": "ckziu1@um.przemysl.pl",
                "website": "http:\/\/ckziu1przemysl.pl",
                "ref:regon": "650974902",
                "ref:vatin": "PL7952184956",
                "operator": "Przemy\u015bl - Miasto Na Prawach Powiatu",
                "operator:type": "government",
                "fixme": "w zale\u017cno\u015bci od przedmiotu dzia\u0142alno\u015bci (np. amenity=training + training=*, amenity=dancing_school, amenity=language_school, amenity=music_school) albo amenity=school, amenity=college, albo landuse=education w zale\u017cno\u015bci od tego, jakie plac\u00f3wki wchodz\u0105 w sk\u0142ad zespo\u0142u. Sprawd\u017a, kiedy stosowa\u0107 amenity=* a kiedy landuse=education.",
                "note": "Parent RSPO: 118928"
            }
        },
        {
            "id": 6516,
            "type": "Feature",
            "geometry": {
                "type": "Point",
                "coordinates": [
                    22.77638,
                    49.77919
                ]
            },
            "properties": {
                "ref:rspo": 6516,
                "official_name": "Przedszkole Nr 9 im. Czytelnik\u00f3w \u017bycia Przemyskiego w Przemy\u015blu",
                "name": "Przedszkole Nr 9",
                "addr:postcode": "37-700",
                "addr:city": "Przemy\u015bl",
                "addr:street": "Juliusza S\u0142owackiego",
                "addr:housenumber": "34",
                "addr:teryt:simc": 971672,
                "addr:teryt:sym_ul": 20291,
                "phone": "+48 166785796",
                "email": "pm9@um.przemysl.pl",
                "website": "http:\/\/www.p9przemysl.pl",
                "ref:regon": "180576140",
                "ref:vatin": "PL7952501428",
                "operator": "Przemy\u015bl - Miasto Na Prawach Powiatu",
                "operator:type": "government",
                "amenity": "kindergarten"
            }
        },
        {
            "id": 6521,
            "type": "Feature",
            "geometry": {
                "type": "Point",
                "coordinates": [
                    22.7869,
                    49.77935
                ]
            },
            "properties": {
                "ref:rspo": 6521,
                "official_name": "Przedszkole Nr 2 w Przemy\u015blu",
                "name": "Przedszkole Nr 2 w Przemy\u015blu",
                "addr:postcode": "37-700",
                "addr:city": "Przemy\u015bl",
                "addr:street": "Bartosza G\u0142owackiego",
                "addr:housenumber": "17",
                "addr:teryt:simc": 971672,
                "addr:teryt:sym_ul": 5627,
                "phone": "+48 166786407",
                "email": "pm2@um.przemysl.pl",
                "website": "http:\/\/www.przedszkole2przemysl.edupage.org",
                "ref:regon": "180576789",
                "ref:vatin": "PL7952501687",
                "operator": "Przemy\u015bl - Miasto Na Prawach Powiatu",
                "operator:type": "government",
                "amenity": "kindergarten"
            }
        },
        {
            "id": 6487,
            "type": "Feature",
            "geometry": {
                "type": "Point",
                "coordinates": [
                    22.78451,
                    49.77946
                ]
            },
            "properties": {
                "ref:rspo": 6487,
                "official_name": "Zesp\u00f3\u0142 Szk\u00f3\u0142 Elektronicznych I Og\u00f3lnokszta\u0142c\u0105cych im. Prof. Janusza Groszkowskiego w Przemy\u015blu",
                "name": "Zesp\u00f3\u0142 Szk\u00f3\u0142 Elektronicznych I Og\u00f3lnokszta\u0142c\u0105cych",
                "addr:postcode": "37-700",
                "addr:city": "Przemy\u015bl",
                "addr:street": "Jana Kili\u0144skiego",
                "addr:housenumber": "10",
                "addr:teryt:simc": 971672,
                "addr:teryt:sym_ul": 8435,
                "phone": "+48 166783001",
                "email": "zseio@um.przemysl.pl",
                "website": "http:\/\/www.zseio.net.pl",
                "ref:regon": "650975451",
                "ref:vatin": "PL7951393971",
                "operator": "Przemy\u015bl - Miasto Na Prawach Powiatu",
                "operator:type": "government",
                "landuse": "education",
                "fixme": "amenity=school, amenity=college albo landuse=education w zale\u017cno\u015bci od tego, jakie plac\u00f3wki wchodz\u0105 w sk\u0142ad zespo\u0142u. Sprawd\u017a, kiedy stosowa\u0107 amenity=* a kiedy landuse=education.",
                "note": "Children RSPO: 9428;9429;9431"
            }
        },
        {
            "id": 9428,
            "type": "Feature",
            "geometry": {
                "type": "Point",
                "coordinates": [
                    22.78451,
                    49.77943
                ]
            },
            "properties": {
                "isced:level": "3",
                "ref:rspo": 9428,
                "official_name": "Technikum Nr 4 w Przemy\u015blu",
                "name": "Technikum Nr 4 w Przemy\u015blu",
                "addr:postcode": "37-700",
                "addr:city": "Przemy\u015bl",
                "addr:street": "Jana Kili\u0144skiego",
                "addr:housenumber": "10",
                "addr:teryt:simc": 971672,
                "addr:teryt:sym_ul": 8435,
                "phone": "+48 166783001",
                "email": "zseio@um.przemysl.pl",
                "website": "http:\/\/www.zseio.net.pl",
                "ref:regon": "651498987",
                "operator": "Przemy\u015bl - Miasto Na Prawach Powiatu",
                "operator:type": "government",
                "amenity": "school",
                "note": "Parent RSPO: 6487"
            }
        },
        {
            "id": 9429,
            "type": "Feature",
            "geometry": {
                "type": "Point",
                "coordinates": [
                    22.78451,
                    49.7794
                ]
            },
            "properties": {
                "isced:level": "3",
                "ref:rspo": 9429,
                "official_name": "Iv Liceum Og\u00f3lnokszta\u0142c\u0105ce w Przemy\u015blu",
                "name": "Iv Liceum Og\u00f3lnokszta\u0142c\u0105ce w Przemy\u015blu",
                "addr:postcode": "37-700",
                "addr:city": "Przemy\u015bl",
                "addr:street": "Jana Kili\u0144skiego",
                "addr:housenumber": "10",
                "addr:teryt:simc": 971672,
                "addr:teryt:sym_ul": 8435,
                "phone": "+48 166783001",
                "email": "zseio@um.przemysl.pl",
                "website": "http:\/\/www.zseio.net.pl",
                "ref:regon": "651498964",
                "operator": "Przemy\u015bl - Miasto Na Prawach Powiatu",
                "operator:type": "government",
                "amenity": "school",
                "note": "Parent RSPO: 6487"
            }
        },
        {
            "id": 9431,
            "type": "Feature",
            "geometry": {
                "type": "Point",
                "coordinates": [
                    22.78451,
                    49.77937
                ]
            },
            "properties": {
                "isced:level": "3",
                "ref:rspo": 9431,
                "official_name": "Bran\u017cowa Szko\u0142a I Stopnia Nr 4 w Przemy\u015blu",
                "name": "Bran\u017cowa Szko\u0142a I Stopnia Nr 4 w Przemy\u015blu",
                "addr:postcode": "37-700",
                "addr:city": "Przemy\u015bl",
                "addr:street": "Jana Kili\u0144skiego",
                "addr:housenumber": "10",
                "addr:teryt:simc": 971672,
                "addr:teryt:sym_ul": 8435,
                "phone": "+48 166783001",
                "email": "zseio@um.przemysl.pl",
                "website": "http:\/\/www.zseio.net.pl",
                "ref:regon": "651498958",
                "operator": "Przemy\u015bl - Miasto Na Prawach Powiatu",
                "operator:type": "government",
                "amenity": "school",
                "note": "Parent RSPO: 6487"
            }
        },
        {
            "id": 129933,
            "type": "Feature",
            "geometry": {
                "type": "Point",
                "coordinates": [
                    22.78202,
                    49.77982
                ]
            },
            "properties": {
                "ref:rspo": 129933,
                "official_name": "Nowoczesna Edukacja Podkarpacie",
                "name": "Nowoczesna Edukacja Podkarpacie",
                "addr:postcode": "37-700",
                "addr:city": "Przemy\u015bl",
                "addr:street": "Stanis\u0142awa Moniuszki",
                "addr:housenumber": "2",
                "addr:door": "15",
                "addr:teryt:simc": 971672,
                "addr:teryt:sym_ul": 13246,
                "phone": "+48 608414456",
                "email": "fcpodkarpacie@onet.pl",
                "ref:regon": "363121314",
                "operator": "Filip Ciepa\u0142owicz",
                "operator:type": "private",
                "fixme": "w zale\u017cno\u015bci od przedmiotu dzia\u0142alno\u015bci (np. amenity=training + training=*, amenity=dancing_school, amenity=language_school, amenity=music_school)"
            }
        },
        {
            "id": 6480,
            "type": "Feature",
            "geometry": {
                "type": "Point",
                "coordinates": [
                    22.76976,
                    49.77998
                ]
            },
            "properties": {
                "ref:rspo": 6480,
                "official_name": "Poradnia Psychologiczno-Pedagogiczna",
                "name": "Poradnia Psychologiczno-Pedagogiczna",
                "addr:postcode": "37-700",
                "addr:city": "Przemy\u015bl",
                "addr:street": "Kapitulna",
                "addr:housenumber": "4",
                "addr:teryt:simc": 971672,
                "addr:teryt:sym_ul": 7983,
                "phone": "+48 166783794",
                "email": "ppp@um.przemysl.pl",
                "website": "http:\/\/www.poradnia-przemysl.com.pl",
                "ref:regon": "650958725",
                "ref:vatin": "PL7952156380",
                "operator": "Przemy\u015bl - Miasto Na Prawach Powiatu",
                "operator:type": "government",
                "healthcare": "counselling",
                "counselling_type": "education",
                "fixme": "w zale\u017cno\u015bci od przedmiotu dzia\u0142alno\u015bci (np. healthcare=counselling + counselling_type=education albo healthcare=psychotherapist)"
            }
        },
        {
            "id": 6565,
            "type": "Feature",
            "geometry": {
                "type": "Point",
                "coordinates": [
                    22.76976,
                    49.77995
                ]
            },
            "properties": {
                "ref:rspo": 6565,
                "official_name": "Specjalny O\u015brodek Szkolno-Wychowawczy Nr 3 im. Kazimierza Wielkiego w Przemy\u015blu",
                "name": "Specjalny O\u015brodek Szkolno-Wychowawczy Nr 3",
                "addr:postcode": "37-700",
                "addr:city": "Przemy\u015bl",
                "addr:street": "Kapitulna",
                "addr:housenumber": "4",
                "addr:teryt:simc": 971672,
                "addr:teryt:sym_ul": 7983,
                "phone": "+48 166783096",
                "email": "sosw3@um.przemysl.pl",
                "website": "http:\/\/sosw3.edu.pl",
                "ref:regon": "650957714",
                "ref:vatin": "PL7952143259",
                "operator": "Przemy\u015bl - Miasto Na Prawach Powiatu",
                "operator:type": "government",
                "amenity": "school",
                "note": "Children RSPO: 15674;15676;15677;15678"
            }
        },
        {
            "id": 15674,
            "type": "Feature",
            "geometry": {
                "type": "Point",
                "coordinates": [
                    22.76976,
                    49.779920000000004
                ]
            },
            "properties": {
                "isced:level": "3",
                "ref:rspo": 15674,
                "official_name": "I Liceum Og\u00f3lnokszta\u0142c\u0105ce Specjalne w Przemy\u015blu",
                "name": "I Liceum Og\u00f3lnokszta\u0142c\u0105ce Specjalne w Przemy\u015blu",
                "addr:postcode": "37-700",
                "addr:city": "Przemy\u015bl",
                "addr:street": "Kapitulna",
                "addr:housenumber": "4",
                "addr:teryt:simc": 971672,
                "addr:teryt:sym_ul": 7983,
                "phone": "+48 166783094",
                "email": "sosw3@um.przemysl.pl",
                "website": "http:\/\/www.sosw3.edu.pl",
                "ref:regon": "651499308",
                "operator": "Przemy\u015bl - Miasto Na Prawach Powiatu",
                "operator:type": "government",
                "amenity": "school",
                "note": "Parent RSPO: 6565"
            }
        },
        {
            "id": 15676,
            "type": "Feature",
            "geometry": {
                "type": "Point",
                "coordinates": [
                    22.76976,
                    49.77989
                ]
            },
            "properties": {
                "isced:level": "4",
                "ref:rspo": 15676,
                "official_name": "Szko\u0142a Policealna Specjalna Nr 3 w Przemy\u015blu",
                "name": "Szko\u0142a Policealna Specjalna Nr 3 w Przemy\u015blu",
                "addr:postcode": "37-700",
                "addr:city": "Przemy\u015bl",
                "addr:street": "Kapitulna",
                "addr:housenumber": "4",
                "addr:teryt:simc": 971672,
                "addr:teryt:sym_ul": 7983,
                "phone": "+48 166783094",
                "email": "sosw3@um.przemysl.pl",
                "website": "http:\/\/www.sosw3.edu.pl",
                "ref:regon": "180060293",
                "operator": "Przemy\u015bl - Miasto Na Prawach Powiatu",
                "operator:type": "government",
                "amenity": "college",
                "note": "Parent RSPO: 6565"
            }
        },
        {
            "id": 15677,
            "type": "Feature",
            "geometry": {
                "type": "Point",
                "coordinates": [
                    22.76976,
                    49.77986
                ]
            },
            "properties": {
                "isced:level": "3",
                "ref:rspo": 15677,
                "official_name": "Technikum Specjalne Nr 1 w Przemy\u015blu",
                "name": "Technikum Specjalne Nr 1 w Przemy\u015blu",
                "addr:postcode": "37-700",
                "addr:city": "Przemy\u015bl",
                "addr:street": "Kapitulna",
                "addr:housenumber": "4",
                "addr:teryt:simc": 971672,
                "addr:teryt:sym_ul": 7983,
                "phone": "+48 166783094",
                "email": "sosw3@um.przemysl.pl",
                "website": "http:\/\/www.sosw3.edu.pl",
                "ref:regon": "651499320",
                "operator": "Przemy\u015bl - Miasto Na Prawach Powiatu",
                "operator:type": "government",
                "amenity": "school",
                "note": "Parent RSPO: 6565"
            }
        },
        {
            "id": 15678,
            "type": "Feature",
            "geometry": {
                "type": "Point",
                "coordinates": [
                    22.76976,
                    49.779830000000004
                ]
            },
            "properties": {
                "isced:level": "3",
                "ref:rspo": 15678,
                "official_name": "Bran\u017cowa Szko\u0142a I Stopnia Specjalna Nr 5 w Przemy\u015blu",
                "name": "Bran\u017cowa Szko\u0142a I Stopnia Specjalna Nr 5 w Przemy\u015blu",
                "addr:postcode": "37-700",
                "addr:city": "Przemy\u015bl",
                "addr:street": "Kapitulna",
                "addr:housenumber": "4",
                "addr:teryt:simc": 971672,
                "addr:teryt:sym_ul": 7983,
                "phone": "+48 166783094",
                "email": "sosw3@um.przemysl.pl",
                "website": "http:\/\/www.sosw3.edu.pl",
                "ref:regon": "651499314",
                "operator": "Przemy\u015bl - Miasto Na Prawach Powiatu",
                "operator:type": "government",
                "amenity": "school",
                "note": "Parent RSPO: 6565"
            }
        },
        {
            "id": 6492,
            "type": "Feature",
            "geometry": {
                "type": "Point",
                "coordinates": [
                    22.77781,
                    49.78015
                ]
            },
            "properties": {
                "ref:rspo": 6492,
                "official_name": "Zesp\u00f3\u0142 Szk\u00f3\u0142 Og\u00f3lnokszta\u0142cacych Nr 2 im. Markiana Szaszkewicza w Przemy\u015blu",
                "name": "Zesp\u00f3\u0142 Szk\u00f3\u0142 Og\u00f3lnokszta\u0142cacych Nr 2",
                "addr:postcode": "37-700",
                "addr:city": "Przemy\u015bl",
                "addr:street": "Franciszka Smolki",
                "addr:housenumber": "10",
                "addr:teryt:simc": 971672,
                "addr:teryt:sym_ul": 20367,
                "phone": "+48 166785347",
                "email": "zso2@um.przemysl.pl",
                "website": "http:\/\/www.szaszk.edu.pl",
                "ref:regon": "650890051",
                "ref:vatin": "PL7952037907",
                "operator": "Przemy\u015bl - Miasto Na Prawach Powiatu",
                "operator:type": "government",
                "landuse": "education",
                "fixme": "amenity=school, amenity=college albo landuse=education w zale\u017cno\u015bci od tego, jakie plac\u00f3wki wchodz\u0105 w sk\u0142ad zespo\u0142u. Sprawd\u017a, kiedy stosowa\u0107 amenity=* a kiedy landuse=education.",
                "note": "Children RSPO: 8189;8229"
            }
        },
        {
            "id": 8189,
            "type": "Feature",
            "geometry": {
                "type": "Point",
                "coordinates": [
                    22.77781,
                    49.78012
                ]
            },
            "properties": {
                "isced:level": "1;2",
                "ref:rspo": 8189,
                "official_name": "Szko\u0142a Podstawowa Nr 17 w Przemy\u015blu",
                "name": "Szko\u0142a Podstawowa Nr 17 w Przemy\u015blu",
                "addr:postcode": "37-700",
                "addr:city": "Przemy\u015bl",
                "addr:street": "Franciszka Smolki",
                "addr:housenumber": "10",
                "addr:teryt:simc": 971672,
                "addr:teryt:sym_ul": 20367,
                "phone": "+48 166785347",
                "email": "zso2@um.przemysl.pl",
                "website": "http:\/\/www.szaszk.edu.pl",
                "ref:regon": "651422323",
                "operator": "Przemy\u015bl - Miasto Na Prawach Powiatu",
                "operator:type": "government",
                "amenity": "school",
                "note": "Parent RSPO: 6492"
            }
        },
        {
            "id": 8229,
            "type": "Feature",
            "geometry": {
                "type": "Point",
                "coordinates": [
                    22.77781,
                    49.78009
                ]
            },
            "properties": {
                "isced:level": "3",
                "ref:rspo": 8229,
                "official_name": "Iii Liceum Og\u00f3lnokszta\u0142c\u0105ce w Przemy\u015blu",
                "name": "Iii Liceum Og\u00f3lnokszta\u0142c\u0105ce w Przemy\u015blu",
                "addr:postcode": "37-700",
                "addr:city": "Przemy\u015bl",
                "addr:street": "Franciszka Smolki",
                "addr:housenumber": "10",
                "addr:teryt:simc": 971672,
                "addr:teryt:sym_ul": 20367,
                "phone": "+48 166785347",
                "email": "zso2@um.przemysl.pl",
                "website": "http:\/\/www.szaszk.edu.pl",
                "ref:regon": "651499739",
                "operator": "Przemy\u015bl - Miasto Na Prawach Powiatu",
                "operator:type": "government",
                "amenity": "school",
                "note": "Parent RSPO: 6492"
            }
        },
        {
            "id": 4080,
            "type": "Feature",
            "geometry": {
                "type": "Point",
                "coordinates": [
                    22.77002,
                    49.7802
                ]
            },
            "properties": {
                "ref:rspo": 4080,
                "official_name": "Niepubliczne Przedszkole Zgromadzenia Si\u00f3str S\u0142u\u017cebniczek Nmp Np im. B\u0142. Edmunda Bojanowskiego",
                "name": "Niepubliczne Przedszkole Zgromadzenia Si\u00f3str S\u0142u\u017cebniczek Nmp Np",
                "addr:postcode": "37-700",
                "addr:city": "Przemy\u015bl",
                "addr:street": "Kapitulna",
                "addr:housenumber": "7",
                "addr:teryt:simc": 971672,
                "addr:teryt:sym_ul": 7983,
                "phone": "+48 166784355",
                "email": "ochronkaeb@wp.pl",
                "ref:regon": "180881073",
                "operator": "Zg. Ss. S\u0142u\u017cebniczek Nmp Niepokalanie Pocz\u0119tej, Prowincja Przemyska",
                "operator:type": "religious",
                "amenity": "kindergarten"
            }
        },
        {
            "id": 6491,
            "type": "Feature",
            "geometry": {
                "type": "Point",
                "coordinates": [
                    22.77714,
                    49.78063
                ]
            },
            "properties": {
                "isced:level": "3",
                "ref:rspo": 6491,
                "official_name": "I Liceum Og\u00f3lnokszta\u0142c\u0105ce im. Juliusza S\u0142owackiego w Przemy\u015blu",
                "name": "I Liceum Og\u00f3lnokszta\u0142c\u0105ce",
                "addr:postcode": "37-700",
                "addr:city": "Przemy\u015bl",
                "addr:street": "Juliusza S\u0142owackiego",
                "addr:housenumber": "21",
                "addr:teryt:simc": 971672,
                "addr:teryt:sym_ul": 20291,
                "phone": "+48 166769570",
                "email": "liceum@slowak.edu.pl",
                "website": "http:\/\/www.slowak.edu.pl",
                "ref:regon": "651536363",
                "ref:vatin": "PL7952428393",
                "operator": "Przemy\u015bl - Miasto Na Prawach Powiatu",
                "operator:type": "government",
                "amenity": "school"
            }
        },
        {
            "id": 9958,
            "type": "Feature",
            "geometry": {
                "type": "Point",
                "coordinates": [
                    22.77096,
                    49.7807
                ]
            },
            "properties": {
                "isced:level": "1;2",
                "ref:rspo": 9958,
                "official_name": "Niepubliczna Szko\u0142a Podstawowa Nr 1 im. Heleny Modrzejewskiej",
                "name": "Niepubliczna Szko\u0142a Podstawowa Nr 1",
                "addr:postcode": "37-700",
                "addr:city": "Przemy\u015bl",
                "addr:street": "Plac Tadeusza Czackiego",
                "addr:housenumber": "2",
                "addr:teryt:simc": 971672,
                "addr:teryt:sym_ul": 41677,
                "phone": "+48 166760076",
                "email": "bazacentrum@onet.eu",
                "ref:regon": "180886640",
                "operator": "Wies\u0142awa Januszczyk",
                "operator:type": "private",
                "amenity": "school"
            }
        },
        {
            "id": 10492,
            "type": "Feature",
            "geometry": {
                "type": "Point",
                "coordinates": [
                    22.77096,
                    49.78067
                ]
            },
            "properties": {
                "isced:level": "3",
                "ref:rspo": 10492,
                "official_name": "Niepubliczne Liceum Og\u00f3lnokszta\u0142c\u0105ce dla Doros\u0142ych w Przemy\u015blu",
                "name": "Niepubliczne Liceum Og\u00f3lnokszta\u0142c\u0105ce dla Doros\u0142ych w Przemy\u015blu",
                "addr:postcode": "37-700",
                "addr:city": "Przemy\u015bl",
                "addr:street": "Plac Tadeusza Czackiego",
                "addr:housenumber": "2",
                "addr:teryt:simc": 971672,
                "addr:teryt:sym_ul": 41677,
                "phone": "+48 166760076",
                "email": "bazacentrum@onet.eu",
                "website": "http:\/\/www.centrumbaza.edu.pl",
                "ref:regon": "180884491",
                "operator": "Wies\u0142awa Januszczyk",
                "operator:type": "private",
                "amenity": "school"
            }
        },
        {
            "id": 12741,
            "type": "Feature",
            "geometry": {
                "type": "Point",
                "coordinates": [
                    22.77096,
                    49.780640000000005
                ]
            },
            "properties": {
                "ref:rspo": 12741,
                "official_name": "Centrum Edukacji \"Baza\" Niepubliczne Przedszkole Edukacyjne \"Kraina Odkrywc\u00f3w\"",
                "name": "Centrum Edukacji \"Baza\" Niepubliczne Przedszkole Edukacyjne \"Kraina Odkrywc\u00f3w\"",
                "addr:postcode": "37-700",
                "addr:city": "Przemy\u015bl",
                "addr:street": "Plac Tadeusza Czackiego",
                "addr:housenumber": "2",
                "addr:teryt:simc": 971672,
                "addr:teryt:sym_ul": 41677,
                "phone": "+48 166760076",
                "email": "bazacentrum@onet.eu",
                "ref:regon": "180886107",
                "operator": "Wies\u0142awa Januszczyk",
                "operator:type": "private",
                "amenity": "kindergarten"
            }
        },
        {
            "id": 20073,
            "type": "Feature",
            "geometry": {
                "type": "Point",
                "coordinates": [
                    22.79611,
                    49.78073
                ]
            },
            "properties": {
                "ref:rspo": 20073,
                "official_name": "Niepubliczne Przedszkole \"Omnibusek\"",
                "name": "Niepubliczne Przedszkole \"Omnibusek\"",
                "addr:postcode": "37-700",
                "addr:city": "Przemy\u015bl",
                "addr:street": "Genera\u0142a Jakuba Jasi\u0144skiego",
                "addr:housenumber": "2",
                "addr:teryt:simc": 971672,
                "addr:teryt:sym_ul": 41636,
                "phone": "+48 783140227",
                "email": "omnibusek.elbast@o2.pl",
                "website": "http:\/\/omnibusek.eu",
                "ref:regon": "180892177",
                "operator": "El\u017cbieta Bartkiewicz-St\u00f3s",
                "operator:type": "private",
                "amenity": "kindergarten"
            }
        },
        {
            "id": 262313,
            "type": "Feature",
            "geometry": {
                "type": "Point",
                "coordinates": [
                    22.77879,
                    49.7811
                ]
            },
            "properties": {
                "isced:level": "1;2",
                "ref:rspo": 262313,
                "official_name": "Szko\u0142a Podstawowa Stowarzyszenia Absolwent\u00f3w I Lo w Przemy\u015blu",
                "name": "Szko\u0142a Podstawowa Stowarzyszenia Absolwent\u00f3w I Lo w Przemy\u015blu",
                "addr:postcode": "37-700",
                "addr:city": "Przemy\u015bl",
                "addr:street": "Aleksandra Dworskiego",
                "addr:housenumber": "25",
                "addr:teryt:simc": 971672,
                "addr:teryt:sym_ul": 4447,
                "phone": "+48 696650964",
                "email": "spslowak@op.pl",
                "ref:regon": "367992922",
                "operator": "Stowarzyszenie Absolwent\u00f3w I Liceum Og\u00f3lnokszta\u0142c\u0105cego Im. Juliusza S\u0142owackiego W Przemy\u015blu",
                "operator:type": "ngo",
                "amenity": "school"
            }
        },
        {
            "id": 92386,
            "type": "Feature",
            "geometry": {
                "type": "Point",
                "coordinates": [
                    22.77249,
                    49.7813
                ]
            },
            "properties": {
                "ref:rspo": 92386,
                "official_name": "Pedagogiczna Biblioteka Wojew\u00f3dzka im. J\u00f3zefa Gwalberta Pawlikowskiego w Przemy\u015blu",
                "name": "Pedagogiczna Biblioteka Wojew\u00f3dzka",
                "addr:postcode": "37-700",
                "addr:city": "Przemy\u015bl",
                "addr:street": "Biskupa Jana \u015anigurskiego",
                "addr:housenumber": "10-12",
                "addr:teryt:simc": 971672,
                "addr:teryt:sym_ul": 41619,
                "phone": "+48 166784942",
                "email": "przemysl@pbw.org.pl",
                "ref:regon": "001057309",
                "ref:vatin": "PL7951632128",
                "operator": "Wojew\u00f3dztwo Podkarpackie",
                "operator:type": "government",
                "amenity": "library",
                "note": "Children RSPO: 128407;128408;128409"
            }
        },
        {
            "id": 6500,
            "type": "Feature",
            "geometry": {
                "type": "Point",
                "coordinates": [
                    22.77422,
                    49.78147
                ]
            },
            "properties": {
                "isced:level": "1;2",
                "ref:rspo": 6500,
                "official_name": "Szko\u0142a Podstawowa Nr 11 im. Henryka Jordana w Przemy\u015blu",
                "name": "Szko\u0142a Podstawowa Nr 11",
                "addr:postcode": "37-700",
                "addr:city": "Przemy\u015bl",
                "addr:street": "W\u0142adycze",
                "addr:housenumber": "5",
                "addr:teryt:simc": 971672,
                "addr:teryt:sym_ul": 24485,
                "phone": "+48 166783615",
                "email": "sp11@um.przemysl.pl",
                "website": "http:\/\/www.sp11.przemysl.pl",
                "ref:regon": "650103780",
                "ref:vatin": "PL7951309597",
                "operator": "Przemy\u015bl - Miasto Na Prawach Powiatu",
                "operator:type": "government",
                "amenity": "school"
            }
        },
        {
            "id": 6504,
            "type": "Feature",
            "geometry": {
                "type": "Point",
                "coordinates": [
                    22.78097,
                    49.78149
                ]
            },
            "properties": {
                "isced:level": "1;2",
                "ref:rspo": 6504,
                "official_name": "Szko\u0142a Podstawowa Nr 5 im. Bohater\u00f3w Wrze\u015bnia w Przemy\u015blu",
                "name": "Szko\u0142a Podstawowa Nr 5",
                "addr:postcode": "37-700",
                "addr:city": "Przemy\u015bl",
                "addr:street": "Stanis\u0142awa Konarskiego",
                "addr:housenumber": "7",
                "addr:teryt:simc": 971672,
                "addr:teryt:sym_ul": 9111,
                "phone": "+48 166782124",
                "email": "sp5@um.przemysl.pl",
                "website": "http:\/\/www.sp5przemysl.pl",
                "ref:regon": "650108790",
                "ref:vatin": "PL7951135045",
                "operator": "Przemy\u015bl - Miasto Na Prawach Powiatu",
                "operator:type": "government",
                "amenity": "school"
            }
        },
        {
            "id": 10707,
            "type": "Feature",
            "geometry": {
                "type": "Point",
                "coordinates": [
                    22.76524,
                    49.78174
                ]
            },
            "properties": {
                "ref:rspo": 10707,
                "official_name": "Bursa Szkolna dla M\u0142odzie\u017cy \u017be\u0144skiej",
                "name": "Bursa Szkolna dla M\u0142odzie\u017cy \u017be\u0144skiej",
                "addr:postcode": "37-700",
                "addr:city": "Przemy\u015bl",
                "addr:street": "Fryderyka Chopina",
                "addr:housenumber": "1",
                "addr:teryt:simc": 971672,
                "addr:teryt:sym_ul": 2849,
                "phone": "+48 166787444",
                "email": "bursa_pr@poczta.onet.pl",
                "ref:regon": "180884947",
                "operator": "Zgromadzenie S\u0142ug Jezusa",
                "operator:type": "religious",
                "building": "dormitory"
            }
        },
        {
            "id": 9701,
            "type": "Feature",
            "geometry": {
                "type": "Point",
                "coordinates": [
                    22.77081,
                    49.7819
                ]
            },
            "properties": {
                "ref:rspo": 9701,
                "official_name": "O\u015brodek Nauczania J\u0119zyk\u00f3w Obcych \"Miteinander\"",
                "name": "O\u015brodek Nauczania J\u0119zyk\u00f3w Obcych \"Miteinander\"",
                "addr:postcode": "37-700",
                "addr:city": "Przemy\u015bl",
                "addr:street": "Franciszka\u0144ska",
                "addr:housenumber": "3",
                "addr:teryt:simc": 971672,
                "addr:teryt:sym_ul": 5151,
                "phone": "+48 166768220",
                "email": "biuro@miteinander.edu.pl",
                "website": "http:\/\/www.miteinander.edu.pl",
                "ref:regon": "180883497",
                "operator": "Beata Zawada",
                "operator:type": "private",
                "fixme": "w zale\u017cno\u015bci od przedmiotu dzia\u0142alno\u015bci (np. amenity=training + training=*, amenity=dancing_school, amenity=language_school, amenity=music_school)"
            }
        },
        {
            "id": 6505,
            "type": "Feature",
            "geometry": {
                "type": "Point",
                "coordinates": [
                    22.76424,
                    49.78202
                ]
            },
            "properties": {
                "isced:level": "1;2",
                "ref:rspo": 6505,
                "official_name": "Szko\u0142a Podstawowa Nr 1 im. Henryka Sienkiewicza w Przemy\u015blu",
                "name": "Szko\u0142a Podstawowa Nr 1",
                "addr:postcode": "37-700",
                "addr:city": "Przemy\u015bl",
                "addr:street": "Henryka Sienkiewicza",
                "addr:housenumber": "3",
                "addr:teryt:simc": 971672,
                "addr:teryt:sym_ul": 19834,
                "phone": "+48 166789151",
                "email": "sp1@um.przemysl.pl",
                "website": "http:\/\/sp1przemysl.pl",
                "ref:regon": "650108889",
                "ref:vatin": "PL7951047766",
                "operator": "Przemy\u015bl - Miasto Na Prawach Powiatu",
                "operator:type": "government",
                "amenity": "school"
            }
        },
        {
            "id": 9730,
            "type": "Feature",
            "geometry": {
                "type": "Point",
                "coordinates": [
                    22.74832,
                    49.78238
                ]
            },
            "properties": {
                "ref:rspo": 9730,
                "official_name": "Prywatne \"T\u0119czowe Przedszkole\"",
                "name": "Prywatne \"T\u0119czowe Przedszkole\"",
                "addr:postcode": "37-700",
                "addr:city": "Przemy\u015bl",
                "addr:street": "Wybrze\u017ce Ojca \u015awi\u0119tego Jana Paw\u0142a II",
                "addr:housenumber": "70",
                "addr:teryt:simc": 971672,
                "addr:teryt:sym_ul": 41670,
                "phone": "+48 166702652",
                "email": "tereska.argasinska@tlen.pl",
                "website": "http:\/\/www.teczoweprzedszkole.fc.pl",
                "ref:regon": "180883505",
                "operator": "Zofia Zwoli\u0144ska",
                "operator:type": "private",
                "amenity": "kindergarten"
            }
        },
        {
            "id": 6507,
            "type": "Feature",
            "geometry": {
                "type": "Point",
                "coordinates": [
                    22.74517,
                    49.78242
                ]
            },
            "properties": {
                "ref:rspo": 6507,
                "official_name": "O\u015brodek Rehabilitacyjno-Edukacyjno-Wychowawczy w Przemy\u015blu",
                "name": "O\u015brodek Rehabilitacyjno-Edukacyjno-Wychowawczy w Przemy\u015blu",
                "addr:postcode": "37-700",
                "addr:city": "Przemy\u015bl",
                "addr:street": "Wybrze\u017ce Ojca \u015awi\u0119tego Jana Paw\u0142a II",
                "addr:housenumber": "78",
                "addr:teryt:simc": 971672,
                "addr:teryt:sym_ul": 41670,
                "phone": "+48 166778919",
                "email": "orew@psoni.przemysl.pl",
                "ref:regon": "180886544",
                "operator": "Polskie Stowarzyszenie Na Rzecz Os\u00f3b Z Niepe\u0142nosprawno\u015bci\u0105 Intelektualn\u0105 Ko\u0142o W Przemy\u015blu",
                "operator:type": "ngo",
                "amenity": "school"
            }
        },
        {
            "id": 6522,
            "type": "Feature",
            "geometry": {
                "type": "Point",
                "coordinates": [
                    22.74517,
                    49.78239
                ]
            },
            "properties": {
                "ref:rspo": 6522,
                "official_name": "Niepubliczna Poradnia Psychologiczno-Pedagogiczna Wczesnego Wspomagania Rozwoju w Przemy\u015blu",
                "name": "Niepubliczna Poradnia Psychologiczno-Pedagogiczna Wczesnego Wspomagania Rozwoju w Przemy\u015blu",
                "addr:postcode": "37-700",
                "addr:city": "Przemy\u015bl",
                "addr:street": "Wybrze\u017ce Ojca \u015awi\u0119tego Jana Paw\u0142a II",
                "addr:housenumber": "78",
                "addr:teryt:simc": 971672,
                "addr:teryt:sym_ul": 41670,
                "phone": "+48 166778919",
                "email": "poradnia@psoni.przemysl.pl",
                "website": "http:\/\/www.psoni.przemysl.pl",
                "ref:regon": "180886580",
                "operator": "Polskie Stowarzyszenie Na Rzecz Os\u00f3b Z Niepe\u0142nosprawno\u015bci\u0105 Intelektualn\u0105 Ko\u0142o W Przemy\u015blu",
                "operator:type": "ngo",
                "healthcare": "counselling",
                "counselling_type": "education",
                "fixme": "w zale\u017cno\u015bci od przedmiotu dzia\u0142alno\u015bci (np. healthcare=counselling + counselling_type=education albo healthcare=psychotherapist)"
            }
        },
        {
            "id": 9922,
            "type": "Feature",
            "geometry": {
                "type": "Point",
                "coordinates": [
                    22.76493,
                    49.7825599
                ]
            },
            "properties": {
                "ref:rspo": 9922,
                "official_name": "Publiczne Przedszkole Zgromadzenia Si\u00f3str Felicjanek w Przemy\u015blu",
                "name": "Publiczne Przedszkole Zgromadzenia Si\u00f3str Felicjanek w Przemy\u015blu",
                "addr:postcode": "37-700",
                "addr:city": "Przemy\u015bl",
                "addr:street": "Walerego Waygarta",
                "addr:housenumber": "12",
                "addr:teryt:simc": 971672,
                "addr:teryt:sym_ul": 23772,
                "phone": "+48 166782989",
                "email": "pp.sfelicjanek@poczta.fm",
                "ref:regon": "180886656",
                "operator": "Zgromadzenie Si\u00f3str \u015aw.feliksa Z Kantalicjo Prowincja Matki Bo\u017cej Cz\u0119stochowskiej - Siostry Felicjanki",
                "operator:type": "religious",
                "amenity": "kindergarten"
            }
        },
        {
            "id": 6515,
            "type": "Feature",
            "geometry": {
                "type": "Point",
                "coordinates": [
                    22.74937,
                    49.7826499
                ]
            },
            "properties": {
                "ref:rspo": 6515,
                "official_name": "Przedszkole Nr 11 Z Oddzia\u0142ami Integracyjnymi w Przemy\u015blu",
                "name": "Przedszkole Nr 11 Z Oddzia\u0142ami Integracyjnymi w Przemy\u015blu",
                "addr:postcode": "37-700",
                "addr:city": "Przemy\u015bl",
                "addr:street": "Wybrze\u017ce Ojca \u015awi\u0119tego Jana Paw\u0142a II",
                "addr:housenumber": "68",
                "addr:teryt:simc": 971672,
                "addr:teryt:sym_ul": 41670,
                "phone": "+48 166707678",
                "email": "pm11@um.przemysl.pl",
                "website": "http:\/\/www.pm11przemysl.luppo.pl",
                "ref:regon": "180577932",
                "ref:vatin": "PL7952501730",
                "operator": "Przemy\u015bl - Miasto Na Prawach Powiatu",
                "operator:type": "government",
                "amenity": "kindergarten"
            }
        },
        {
            "id": 68389,
            "type": "Feature",
            "geometry": {
                "type": "Point",
                "coordinates": [
                    22.76606,
                    49.7827399
                ]
            },
            "properties": {
                "ref:rspo": 68389,
                "official_name": "Poradnia Psychologiczno-Pedagogiczna dla Powiatu Przemyskiego w Przemy\u015bl",
                "name": "Poradnia Psychologiczno-Pedagogiczna dla Powiatu Przemyskiego w Przemy\u015bl",
                "addr:postcode": "37-700",
                "addr:city": "Przemy\u015bl",
                "addr:street": "Walerego Waygarta",
                "addr:housenumber": "1",
                "addr:teryt:simc": 971672,
                "addr:teryt:sym_ul": 23772,
                "phone": "+48 166787998",
                "ref:regon": "650971401",
                "operator": "Powiat Przemyski",
                "operator:type": "government",
                "healthcare": "counselling",
                "counselling_type": "education",
                "fixme": "w zale\u017cno\u015bci od przedmiotu dzia\u0142alno\u015bci (np. healthcare=counselling + counselling_type=education albo healthcare=psychotherapist)"
            }
        },
        {
            "id": 6510,
            "type": "Feature",
            "geometry": {
                "type": "Point",
                "coordinates": [
                    22.82508,
                    49.7827399
                ]
            },
            "properties": {
                "ref:rspo": 6510,
                "official_name": "Przedszkole Nr 19 w Przemy\u015blu",
                "name": "Przedszkole Nr 19 w Przemy\u015blu",
                "addr:postcode": "37-700",
                "addr:city": "Przemy\u015bl",
                "addr:street": "Ofiar Katynia",
                "addr:housenumber": "4A",
                "addr:teryt:simc": 971672,
                "addr:teryt:sym_ul": 14793,
                "phone": "+48 166780087",
                "email": "pm19@um.przemysl.pl",
                "website": "http:\/\/p19przemysl.szkolnastrona.pl",
                "ref:regon": "180577004",
                "ref:vatin": "PL7952501434",
                "operator": "Przemy\u015bl - Miasto Na Prawach Powiatu",
                "operator:type": "government",
                "amenity": "kindergarten"
            }
        },
        {
            "id": 262630,
            "type": "Feature",
            "geometry": {
                "type": "Point",
                "coordinates": [
                    22.81857,
                    49.78283
                ]
            },
            "properties": {
                "ref:rspo": 262630,
                "official_name": "Niepubliczne Przedszkole \"Jag\u00f3dka\"",
                "name": "Niepubliczne Przedszkole \"Jag\u00f3dka\"",
                "addr:postcode": "37-700",
                "addr:city": "Przemy\u015bl",
                "addr:street": "Lwowska",
                "addr:housenumber": "70",
                "addr:teryt:simc": 971672,
                "addr:teryt:sym_ul": 11467,
                "phone": "+48 505985085",
                "email": "edytalenar@interia.pl",
                "ref:regon": "368042134",
                "operator": "Edyta Lenar",
                "operator:type": "private",
                "amenity": "kindergarten"
            }
        },
        {
            "id": 129072,
            "type": "Feature",
            "geometry": {
                "type": "Point",
                "coordinates": [
                    22.76808,
                    49.78349
                ]
            },
            "properties": {
                "isced:level": "3",
                "ref:rspo": 129072,
                "official_name": "Liceum Og\u00f3lnokszta\u0142c\u0105ce Sinus w Przemy\u015blu",
                "name": "Liceum Og\u00f3lnokszta\u0142c\u0105ce Sinus w Przemy\u015blu",
                "addr:postcode": "37-700",
                "addr:city": "Przemy\u015bl",
                "addr:street": "Tadeusza Ko\u015bciuszki",
                "addr:housenumber": "2",
                "addr:door": "208",
                "addr:teryt:simc": 971672,
                "addr:teryt:sym_ul": 9582,
                "phone": "+48 606940514",
                "email": "sekretariat@szkolasinus.pl",
                "ref:regon": "362464851",
                "operator": "Anna Sielska",
                "operator:type": "private",
                "amenity": "school"
            }
        },
        {
            "id": 129075,
            "type": "Feature",
            "geometry": {
                "type": "Point",
                "coordinates": [
                    22.76808,
                    49.78346
                ]
            },
            "properties": {
                "isced:level": "4",
                "ref:rspo": 129075,
                "official_name": "Policealna Szko\u0142a Sinus w Przemy\u015blu",
                "name": "Policealna Szko\u0142a Sinus w Przemy\u015blu",
                "addr:postcode": "37-700",
                "addr:city": "Przemy\u015bl",
                "addr:street": "Tadeusza Ko\u015bciuszki",
                "addr:housenumber": "2",
                "addr:door": "208",
                "addr:teryt:simc": 971672,
                "addr:teryt:sym_ul": 9582,
                "phone": "+48 606940514",
                "email": "sekretariat@szkolasinus.pl",
                "ref:regon": "362465247",
                "operator": "Anna Sielska",
                "operator:type": "private",
                "amenity": "college"
            }
        },
        {
            "id": 6481,
            "type": "Feature",
            "geometry": {
                "type": "Point",
                "coordinates": [
                    22.76403,
                    49.78431
                ]
            },
            "properties": {
                "ref:rspo": 6481,
                "official_name": "M\u0142odzie\u017cowy Dom Kultury",
                "name": "M\u0142odzie\u017cowy Dom Kultury",
                "addr:postcode": "37-700",
                "addr:city": "Przemy\u015bl",
                "addr:street": "\u015awi\u0119tego J\u00f3zefa",
                "addr:housenumber": "6",
                "addr:teryt:simc": 971672,
                "addr:teryt:sym_ul": 38777,
                "phone": "+48 166702003",
                "email": "mdk@um.przemysl.pl",
                "website": "http:\/\/www.mdkprzemysl.pl",
                "ref:regon": "651490431",
                "ref:vatin": "PL7951270317",
                "operator": "Przemy\u015bl - Miasto Na Prawach Powiatu",
                "operator:type": "government",
                "amenity": "community_centre",
                "community_centre:for": "juvenile"
            }
        },
        {
            "id": 6523,
            "type": "Feature",
            "geometry": {
                "type": "Point",
                "coordinates": [
                    22.776540756226,
                    49.784339904785
                ]
            },
            "properties": {
                "ref:rspo": 6523,
                "official_name": "Schronisko M\u0142odzie\u017cowe Ptsm \"Matecznik\" w Przemy\u015blu",
                "name": "Schronisko M\u0142odzie\u017cowe Ptsm \"Matecznik\" w Przemy\u015blu",
                "addr:postcode": "37-700",
                "addr:city": "Przemy\u015bl",
                "addr:street": "Joachima Lelewela",
                "addr:housenumber": "6",
                "addr:teryt:simc": 971672,
                "addr:teryt:sym_ul": 10793,
                "phone": "+48 166706145",
                "email": "biuro@ptsm-matecznik.pl",
                "website": "http:\/\/ptsm-matecznik.pl",
                "ref:regon": "180886633",
                "operator": "Polskie Towarzystwo Schronisk M\u0142odzie\u017cowych",
                "operator:type": "ngo",
                "tourism": "hostel"
            }
        },
        {
            "id": 10687,
            "type": "Feature",
            "geometry": {
                "type": "Point",
                "coordinates": [
                    22.776540756226,
                    49.784309904785
                ]
            },
            "properties": {
                "ref:rspo": 10687,
                "official_name": "O\u015brodek Kszta\u0142cenia Zawodowego w Przemy\u015blu",
                "name": "O\u015brodek Kszta\u0142cenia Zawodowego w Przemy\u015blu",
                "addr:postcode": "37-700",
                "addr:city": "Przemy\u015bl",
                "addr:street": "Wybrze\u017ce Prezydenta Woodrowa Wilsona",
                "addr:housenumber": "12",
                "addr:teryt:simc": 971672,
                "addr:teryt:sym_ul": 41668,
                "phone": "+48 166782404",
                "email": "zdzprzemysl@wp.pl",
                "website": "http:\/\/www.zdz-przemysl.com",
                "ref:regon": "180884516",
                "operator": "Zak\u0142ad Doskonalenia Zawodowego W Przemy\u015blu",
                "operator:type": "ngo",
                "fixme": "w zale\u017cno\u015bci od przedmiotu dzia\u0142alno\u015bci (np. amenity=training + training=*, amenity=dancing_school, amenity=language_school, amenity=music_school)"
            }
        },
        {
            "id": 118931,
            "type": "Feature",
            "geometry": {
                "type": "Point",
                "coordinates": [
                    22.776540756226,
                    49.784279904785
                ]
            },
            "properties": {
                "ref:rspo": 118931,
                "official_name": "Centrum Kszta\u0142cenia Zawodowego I Ustawicznego Nr 2 w Przemy\u015blu",
                "name": "Centrum Kszta\u0142cenia Zawodowego I Ustawicznego Nr 2 w Przemy\u015blu",
                "addr:postcode": "37-700",
                "addr:city": "Przemy\u015bl",
                "addr:street": "Harcmistrz Izydory Kossowskiej",
                "addr:housenumber": "1",
                "addr:teryt:simc": 971672,
                "addr:teryt:sym_ul": 46715,
                "phone": "+48 166783302",
                "email": "ckziu2@um.przemysl.pl",
                "website": "http:\/\/www.ckziu2.edu.pl",
                "ref:regon": "181011658",
                "ref:vatin": "PL7952527824",
                "operator": "Przemy\u015bl - Miasto Na Prawach Powiatu",
                "operator:type": "government",
                "landuse": "education",
                "fixme": "amenity=school, amenity=college albo landuse=education w zale\u017cno\u015bci od tego, jakie plac\u00f3wki wchodz\u0105 w sk\u0142ad zespo\u0142u. Sprawd\u017a, kiedy stosowa\u0107 amenity=* a kiedy landuse=education.",
                "note": "Children RSPO: 6483;8702;8724;15950;15951;262414"
            }
        },
        {
            "id": 128650,
            "type": "Feature",
            "geometry": {
                "type": "Point",
                "coordinates": [
                    22.776540756226,
                    49.784249904785
                ]
            },
            "properties": {
                "ref:rspo": 128650,
                "official_name": "Niepubliczne Przedszkole Integracyjne \"Kraina Maluszka\"",
                "name": "Niepubliczne Przedszkole Integracyjne \"Kraina Maluszka\"",
                "addr:postcode": "37-700",
                "addr:city": "Przemy\u015bl",
                "addr:street": "Wybrze\u017ce Prezydenta Woodrowa Wilsona",
                "addr:housenumber": "14",
                "addr:teryt:simc": 971672,
                "addr:teryt:sym_ul": 41668,
                "phone": "+48 883633030",
                "email": "s.s.ostoja@gmail.com",
                "website": "http:\/\/przedszkole.kraina-maluszka.pl\/",
                "ref:regon": "362341901",
                "operator": "Sp\u00f3\u0142dzielnia Socjalna \"Ostoja\"",
                "operator:type": "cooperative",
                "amenity": "kindergarten"
            }
        },
        {
            "id": 15945,
            "type": "Feature",
            "geometry": {
                "type": "Point",
                "coordinates": [
                    22.776540756226,
                    49.784219904785
                ]
            },
            "properties": {
                "isced:level": "3",
                "ref:rspo": 15945,
                "official_name": "Liceum Og\u00f3lnokszta\u0142c\u0105ce dla Doros\u0142ych",
                "name": "Liceum Og\u00f3lnokszta\u0142c\u0105ce dla Doros\u0142ych",
                "addr:postcode": "37-700",
                "addr:city": "Przemy\u015bl",
                "addr:street": "Harcmistrz Izydory Kossowskiej",
                "addr:housenumber": "1",
                "addr:teryt:simc": 971672,
                "addr:teryt:sym_ul": 46715,
                "phone": "+48 166783302",
                "email": "ckziu2@um.przemysl.pl",
                "website": "http:\/\/www.ckziu2.edu.pl",
                "ref:regon": "651553500",
                "operator": "Przemy\u015bl - Miasto Na Prawach Powiatu",
                "operator:type": "government",
                "amenity": "school",
                "note": "Parent RSPO: 6483"
            }
        },
        {
            "id": 15946,
            "type": "Feature",
            "geometry": {
                "type": "Point",
                "coordinates": [
                    22.776540756226,
                    49.784189904785
                ]
            },
            "properties": {
                "isced:level": "3",
                "ref:rspo": 15946,
                "official_name": "Vii Liceum Og\u00f3lnokszta\u0142c\u0105ce dla Doros\u0142ych w Przemy\u015blu",
                "name": "Vii Liceum Og\u00f3lnokszta\u0142c\u0105ce dla Doros\u0142ych w Przemy\u015blu",
                "addr:postcode": "37-700",
                "addr:city": "Przemy\u015bl",
                "addr:street": "Harcmistrz Izydory Kossowskiej",
                "addr:housenumber": "1",
                "addr:teryt:simc": 971672,
                "addr:teryt:sym_ul": 46715,
                "phone": "+48 166786500",
                "email": "ckziu2@um.przemysl.pl",
                "website": "http:\/\/www.ckziu2.edu.pl",
                "ref:regon": "180468960",
                "operator": "Przemy\u015bl - Miasto Na Prawach Powiatu",
                "operator:type": "government",
                "amenity": "school",
                "note": "Parent RSPO: 6483"
            }
        },
        {
            "id": 6483,
            "type": "Feature",
            "geometry": {
                "type": "Point",
                "coordinates": [
                    22.776540756226,
                    49.784159904785
                ]
            },
            "properties": {
                "ref:rspo": 6483,
                "official_name": "Centrum Kszta\u0142cenia Ustawicznego",
                "name": "Centrum Kszta\u0142cenia Ustawicznego",
                "addr:postcode": "37-700",
                "addr:city": "Przemy\u015bl",
                "addr:street": "Harcmistrz Izydory Kossowskiej",
                "addr:housenumber": "1",
                "addr:teryt:simc": 971672,
                "addr:teryt:sym_ul": 46715,
                "phone": "+48 166791110",
                "email": "ckziu2@um.przemysl.pl",
                "website": "http:\/\/www.cku.przemysl.pl",
                "ref:regon": "650973624",
                "ref:vatin": "PL7952184560",
                "operator": "Przemy\u015bl - Miasto Na Prawach Powiatu",
                "operator:type": "government",
                "amenity": "school",
                "fixme": "amenity=school lub amenity=college",
                "note": "Children RSPO: 15945;15946Parent RSPO: 118931"
            }
        },
        {
            "id": 8702,
            "type": "Feature",
            "geometry": {
                "type": "Point",
                "coordinates": [
                    22.776540756226,
                    49.784129904785
                ]
            },
            "properties": {
                "isced:level": "3",
                "ref:rspo": 8702,
                "official_name": "Technikum Nr 2 w Przemy\u015blu",
                "name": "Technikum Nr 2 w Przemy\u015blu",
                "addr:postcode": "37-700",
                "addr:city": "Przemy\u015bl",
                "addr:street": "Harcmistrz Izydory Kossowskiej",
                "addr:housenumber": "1",
                "addr:teryt:simc": 971672,
                "addr:teryt:sym_ul": 46715,
                "phone": "+48 166783302",
                "email": "ckziu2@um.przemysl.pl",
                "website": "http:\/\/www.ekonomik.przemysl.pl",
                "ref:regon": "651499082",
                "operator": "Przemy\u015bl - Miasto Na Prawach Powiatu",
                "operator:type": "government",
                "amenity": "school",
                "note": "Parent RSPO: 118931"
            }
        },
        {
            "id": 8724,
            "type": "Feature",
            "geometry": {
                "type": "Point",
                "coordinates": [
                    22.776540756226,
                    49.784099904785
                ]
            },
            "properties": {
                "isced:level": "3",
                "ref:rspo": 8724,
                "official_name": "Bran\u017cowa Szko\u0142a I Stopnia Nr 2 w Przemy\u015blu",
                "name": "Bran\u017cowa Szko\u0142a I Stopnia Nr 2 w Przemy\u015blu",
                "addr:postcode": "37-700",
                "addr:city": "Przemy\u015bl",
                "addr:street": "Harcmistrz Izydory Kossowskiej",
                "addr:housenumber": "1",
                "addr:teryt:simc": 971672,
                "addr:teryt:sym_ul": 46715,
                "phone": "+48 166783302",
                "email": "ckziu2@um.przemysl.pl",
                "website": "http:\/\/www.ckziu2.edu.pl",
                "ref:regon": "180063133",
                "operator": "Przemy\u015bl - Miasto Na Prawach Powiatu",
                "operator:type": "government",
                "amenity": "school",
                "note": "Parent RSPO: 118931"
            }
        },
        {
            "id": 15950,
            "type": "Feature",
            "geometry": {
                "type": "Point",
                "coordinates": [
                    22.776540756226,
                    49.784069904785
                ]
            },
            "properties": {
                "isced:level": "4",
                "ref:rspo": 15950,
                "official_name": "Szko\u0142a Policealna Nr 1 w Przemy\u015blu",
                "name": "Szko\u0142a Policealna Nr 1 w Przemy\u015blu",
                "addr:postcode": "37-700",
                "addr:city": "Przemy\u015bl",
                "addr:street": "Harcmistrz Izydory Kossowskiej",
                "addr:housenumber": "1",
                "addr:teryt:simc": 971672,
                "addr:teryt:sym_ul": 46715,
                "phone": "+48 166783302",
                "email": "ckziu2@um.przemysl.pl",
                "website": "http:\/\/www.ckziu2.edu.pl",
                "ref:regon": "180063452",
                "operator": "Przemy\u015bl - Miasto Na Prawach Powiatu",
                "operator:type": "government",
                "amenity": "college",
                "note": "Parent RSPO: 118931"
            }
        },
        {
            "id": 15951,
            "type": "Feature",
            "geometry": {
                "type": "Point",
                "coordinates": [
                    22.776540756226,
                    49.784039904785
                ]
            },
            "properties": {
                "isced:level": "4",
                "ref:rspo": 15951,
                "official_name": "Szko\u0142a Policealna Nr 6 w Przemy\u015blu",
                "name": "Szko\u0142a Policealna Nr 6 w Przemy\u015blu",
                "addr:postcode": "37-700",
                "addr:city": "Przemy\u015bl",
                "addr:street": "Harcmistrz Izydory Kossowskiej",
                "addr:housenumber": "1",
                "addr:teryt:simc": 971672,
                "addr:teryt:sym_ul": 46715,
                "phone": "+48 166783302",
                "email": "ckziu2@um.przemysl.pl",
                "website": "http:\/\/www.ckziu2.edu.pl",
                "ref:regon": "180398359",
                "operator": "Przemy\u015bl - Miasto Na Prawach Powiatu",
                "operator:type": "government",
                "amenity": "college",
                "note": "Parent RSPO: 118931"
            }
        },
        {
            "id": 262414,
            "type": "Feature",
            "geometry": {
                "type": "Point",
                "coordinates": [
                    22.776540756226,
                    49.784009904785
                ]
            },
            "properties": {
                "isced:level": "1;2",
                "ref:rspo": 262414,
                "official_name": "Szko\u0142a Podstawowa dla Doros\u0142ych w Przemy\u015blu",
                "name": "Szko\u0142a Podstawowa dla Doros\u0142ych w Przemy\u015blu",
                "addr:postcode": "37-700",
                "addr:city": "Przemy\u015bl",
                "addr:street": "Harcmistrz Izydory Kossowskiej",
                "addr:housenumber": "1",
                "addr:teryt:simc": 971672,
                "addr:teryt:sym_ul": 46715,
                "phone": "+48 166786500",
                "email": "ckziu2@um.przemysl.pl",
                "website": "http:\/\/www.ckziu2.edu.pl",
                "ref:regon": "368003677",
                "operator": "Przemy\u015bl - Miasto Na Prawach Powiatu",
                "operator:type": "government",
                "amenity": "school",
                "note": "Parent RSPO: 118931"
            }
        },
        {
            "id": 6514,
            "type": "Feature",
            "geometry": {
                "type": "Point",
                "coordinates": [
                    22.75428,
                    49.78457
                ]
            },
            "properties": {
                "ref:rspo": 6514,
                "official_name": "Przedszkole Nr 12 im. 5 Batalionu Strzelc\u00f3w Podhala\u0144skich w Przemy\u015blu",
                "name": "Przedszkole Nr 12",
                "addr:postcode": "37-700",
                "addr:city": "Przemy\u015bl",
                "addr:street": "Grunwaldzka",
                "addr:housenumber": "81",
                "addr:teryt:simc": 971672,
                "addr:teryt:sym_ul": 6260,
                "phone": "+48 166720654",
                "email": "pm12@um.przemysl.pl",
                "ref:regon": "180577033",
                "ref:vatin": "PL7952501701",
                "operator": "Przemy\u015bl - Miasto Na Prawach Powiatu",
                "operator:type": "government",
                "amenity": "kindergarten"
            }
        },
        {
            "id": 8052,
            "type": "Feature",
            "geometry": {
                "type": "Point",
                "coordinates": [
                    22.75428,
                    49.78454
                ]
            },
            "properties": {
                "isced:level": "1;2",
                "ref:rspo": 8052,
                "official_name": "Szko\u0142a Podstawowa Nr 16 Z Oddzia\u0142ami Integracyjnymi im. Orl\u0105t Lwowskich w Przemy\u015blu",
                "name": "Szko\u0142a Podstawowa Nr 16 Z Oddzia\u0142ami Integracyjnymi",
                "addr:postcode": "37-700",
                "addr:city": "Przemy\u015bl",
                "addr:street": "Grunwaldzka",
                "addr:housenumber": "81",
                "addr:teryt:simc": 971672,
                "addr:teryt:sym_ul": 6260,
                "phone": "+48 166702915",
                "email": "sp16@um.przemysl.pl",
                "website": "http:\/\/www.sp16przemysl.pl",
                "ref:regon": "650107401",
                "ref:vatin": "PL7952184548",
                "operator": "Przemy\u015bl - Miasto Na Prawach Powiatu",
                "operator:type": "government",
                "amenity": "school"
            }
        },
        {
            "id": 9689,
            "type": "Feature",
            "geometry": {
                "type": "Point",
                "coordinates": [
                    22.77411,
                    49.78465
                ]
            },
            "properties": {
                "isced:level": "3",
                "ref:rspo": 9689,
                "official_name": "Liceum Og\u00f3lnokszta\u0142c\u0105ce dla Doros\u0142ych \"Partner\" w Przemy\u015blu",
                "name": "Liceum Og\u00f3lnokszta\u0142c\u0105ce dla Doros\u0142ych \"Partner\" w Przemy\u015blu",
                "addr:postcode": "37-700",
                "addr:city": "Przemy\u015bl",
                "addr:street": "Kamienny Most",
                "addr:housenumber": "6",
                "addr:teryt:simc": 971672,
                "addr:teryt:sym_ul": 7889,
                "phone": "+48 166760077",
                "email": "partner@c-net.pl",
                "website": "http:\/\/www.ce-partner.edu.pl",
                "ref:regon": "180883480",
                "operator": "Anna Uziemb\u0142o",
                "operator:type": "private",
                "amenity": "school"
            }
        },
        {
            "id": 123028,
            "type": "Feature",
            "geometry": {
                "type": "Point",
                "coordinates": [
                    22.7636,
                    49.78466
                ]
            },
            "properties": {
                "isced:level": "1;2",
                "ref:rspo": 123028,
                "official_name": "Niepubliczna Szko\u0142a Podstawowa im. Isaac'a Newtona w Przemy\u015blu",
                "name": "Niepubliczna Szko\u0142a Podstawowa",
                "addr:postcode": "37-700",
                "addr:city": "Przemy\u015bl",
                "addr:street": "Ksi\u0119dza Piotra Skargi",
                "addr:housenumber": "7",
                "addr:door": "1",
                "addr:teryt:simc": 971672,
                "addr:teryt:sym_ul": 41644,
                "phone": "+48 166705420",
                "email": "poczta@szkolanewton.pl",
                "ref:regon": "181107186",
                "operator": "Stowarzyszenie Edukacyjno-Kulturalne \"Ad Astra\"",
                "operator:type": "ngo",
                "amenity": "school"
            }
        },
        {
            "id": 6464,
            "type": "Feature",
            "geometry": {
                "type": "Point",
                "coordinates": [
                    22.78178,
                    49.7849999
                ]
            },
            "properties": {
                "ref:rspo": 6464,
                "official_name": "Specjalny O\u015brodek Szkolno-Wychowawczy Nr 2 im. Dra Janusza Korczaka w Przemy\u015blu",
                "name": "Specjalny O\u015brodek Szkolno-Wychowawczy Nr 2",
                "addr:postcode": "37-700",
                "addr:city": "Przemy\u015bl",
                "addr:street": "Stefana Czarnieckiego",
                "addr:housenumber": "27",
                "addr:teryt:simc": 971672,
                "addr:teryt:sym_ul": 3283,
                "phone": "+48 166760400",
                "email": "dyrektorszkoly@sosw2przemysl.com",
                "website": "http:\/\/www.sosw2przemysl.com",
                "ref:regon": "651499231",
                "ref:vatin": "PL7951057144",
                "operator": "Przemy\u015bl - Miasto Na Prawach Powiatu",
                "operator:type": "government",
                "amenity": "school",
                "note": "Children RSPO: 14755;14759;14760;24196"
            }
        },
        {
            "id": 14755,
            "type": "Feature",
            "geometry": {
                "type": "Point",
                "coordinates": [
                    22.78178,
                    49.7849699
                ]
            },
            "properties": {
                "isced:level": "1;2",
                "ref:rspo": 14755,
                "official_name": "Szko\u0142a Podstawowa Nr 12 Specjalna w Przemy\u015blu",
                "name": "Szko\u0142a Podstawowa Nr 12 Specjalna w Przemy\u015blu",
                "addr:postcode": "37-700",
                "addr:city": "Przemy\u015bl",
                "addr:street": "Stefana Czarnieckiego",
                "addr:housenumber": "27",
                "addr:teryt:simc": 971672,
                "addr:teryt:sym_ul": 3283,
                "phone": "+48 166760400",
                "email": "dyrektorszkoly@sosw2przemysl.com",
                "website": "http:\/\/sosw2przemysl.com",
                "ref:regon": "651499254",
                "operator": "Przemy\u015bl - Miasto Na Prawach Powiatu",
                "operator:type": "government",
                "amenity": "school",
                "note": "Parent RSPO: 6464"
            }
        },
        {
            "id": 14759,
            "type": "Feature",
            "geometry": {
                "type": "Point",
                "coordinates": [
                    22.78178,
                    49.784939900000005
                ]
            },
            "properties": {
                "isced:level": "4",
                "ref:rspo": 14759,
                "official_name": "Szko\u0142a Policealna Specjalna Nr 4 w Przemy\u015blu",
                "name": "Szko\u0142a Policealna Specjalna Nr 4 w Przemy\u015blu",
                "addr:postcode": "37-700",
                "addr:city": "Przemy\u015bl",
                "addr:street": "Stefana Czarnieckiego",
                "addr:housenumber": "27",
                "addr:teryt:simc": 971672,
                "addr:teryt:sym_ul": 3283,
                "phone": "+48 166760400",
                "email": "dyrektorszkoly@sosw2przemysl.com",
                "website": "http:\/\/www.sosw2przemysl.com",
                "ref:regon": "180358590",
                "operator": "Przemy\u015bl - Miasto Na Prawach Powiatu",
                "operator:type": "government",
                "amenity": "college",
                "note": "Parent RSPO: 6464"
            }
        },
        {
            "id": 14760,
            "type": "Feature",
            "geometry": {
                "type": "Point",
                "coordinates": [
                    22.78178,
                    49.7849099
                ]
            },
            "properties": {
                "isced:level": "3",
                "ref:rspo": 14760,
                "official_name": "Bran\u017cowa Szko\u0142a I Stopnia Specjalna Nr 7 w Przemy\u015blu",
                "name": "Bran\u017cowa Szko\u0142a I Stopnia Specjalna Nr 7 w Przemy\u015blu",
                "addr:postcode": "37-700",
                "addr:city": "Przemy\u015bl",
                "addr:street": "Stefana Czarnieckiego",
                "addr:housenumber": "27",
                "addr:teryt:simc": 971672,
                "addr:teryt:sym_ul": 3283,
                "phone": "+48 166760400",
                "email": "dyrektorszkoly@sosw2przemysl.com",
                "website": "http:\/\/www.sosw2przemysl.com",
                "ref:regon": "651499283",
                "operator": "Przemy\u015bl - Miasto Na Prawach Powiatu",
                "operator:type": "government",
                "amenity": "school",
                "note": "Parent RSPO: 6464"
            }
        },
        {
            "id": 24196,
            "type": "Feature",
            "geometry": {
                "type": "Point",
                "coordinates": [
                    22.78178,
                    49.7848799
                ]
            },
            "properties": {
                "isced:level": "3",
                "ref:rspo": 24196,
                "official_name": "Technikum Specjalne Nr 2 w Przemy\u015blu",
                "name": "Technikum Specjalne Nr 2 w Przemy\u015blu",
                "addr:postcode": "37-700",
                "addr:city": "Przemy\u015bl",
                "addr:street": "Stefana Czarnieckiego",
                "addr:housenumber": "27",
                "addr:teryt:simc": 971672,
                "addr:teryt:sym_ul": 3283,
                "phone": "+48 166760400",
                "email": "dyrektorszkoly@sosw2przemysl.com",
                "website": "http:\/\/www.sosw2przemysl.com",
                "ref:regon": "651499290",
                "operator": "Przemy\u015bl - Miasto Na Prawach Powiatu",
                "operator:type": "government",
                "amenity": "school",
                "note": "Parent RSPO: 6464"
            }
        },
        {
            "id": 6519,
            "type": "Feature",
            "geometry": {
                "type": "Point",
                "coordinates": [
                    22.76398,
                    49.7854
                ]
            },
            "properties": {
                "ref:rspo": 6519,
                "official_name": "Przedszkole Nr 3 w Przemy\u015blu",
                "name": "Przedszkole Nr 3 w Przemy\u015blu",
                "addr:postcode": "37-700",
                "addr:city": "Przemy\u015bl",
                "addr:street": "Barska",
                "addr:housenumber": "10",
                "addr:teryt:simc": 971672,
                "addr:teryt:sym_ul": 777,
                "phone": "+48 166700451",
                "email": "pm3@um.przemysl.pl",
                "ref:regon": "180576855",
                "ref:vatin": "PL7952501724",
                "operator": "Przemy\u015bl - Miasto Na Prawach Powiatu",
                "operator:type": "government",
                "amenity": "kindergarten"
            }
        },
        {
            "id": 276542,
            "type": "Feature",
            "geometry": {
                "type": "Point",
                "coordinates": [
                    22.77651,
                    49.78543
                ]
            },
            "properties": {
                "ref:rspo": 276542,
                "official_name": "Niepubliczne Przedszkole Edukacyjne \"Tajemniczy Ogr\u00f3d\"",
                "name": "Niepubliczne Przedszkole Edukacyjne \"Tajemniczy Ogr\u00f3d\"",
                "addr:postcode": "37-700",
                "addr:city": "Przemy\u015bl",
                "addr:street": "Miko\u0142aja Kopernika",
                "addr:housenumber": "9",
                "addr:teryt:simc": 971672,
                "addr:teryt:sym_ul": 9282,
                "phone": "+48 791620211",
                "email": "bazacentrum@onet.eu",
                "ref:regon": "387195535",
                "operator": "Leon Park Sp\u00f3\u0142ka - Centrum Edukacji I Rozrywki Sp\u00f3\u0142ka Z Ograniczon\u0105 Odpowiedzialno\u015bci\u0105",
                "operator:type": "private",
                "amenity": "kindergarten"
            }
        },
        {
            "id": 6478,
            "type": "Feature",
            "geometry": {
                "type": "Point",
                "coordinates": [
                    22.7773499,
                    49.78544
                ]
            },
            "properties": {
                "ref:rspo": 6478,
                "official_name": "Specjalny O\u015brodek Szkolno-Wychowawczy Nr 1 im. Marii Grzegorzewskiej w Przemy\u015blu",
                "name": "Specjalny O\u015brodek Szkolno-Wychowawczy Nr 1",
                "addr:postcode": "37-700",
                "addr:city": "Przemy\u015bl",
                "addr:street": "Miko\u0142aja Kopernika",
                "addr:housenumber": "14",
                "addr:teryt:simc": 971672,
                "addr:teryt:sym_ul": 9282,
                "phone": "+48 166783120",
                "email": "soswprzem@o2.pl",
                "website": "http:\/\/www.soswprzem.pl",
                "ref:regon": "651435975",
                "ref:vatin": "PL7951057138",
                "operator": "Przemy\u015bl - Miasto Na Prawach Powiatu",
                "operator:type": "government",
                "amenity": "school",
                "note": "Children RSPO: 14457;14459;14461"
            }
        },
        {
            "id": 6513,
            "type": "Feature",
            "geometry": {
                "type": "Point",
                "coordinates": [
                    22.7773499,
                    49.78541
                ]
            },
            "properties": {
                "ref:rspo": 6513,
                "official_name": "Przedszkole Nr 13 w Przemy\u015blu",
                "name": "Przedszkole Nr 13 w Przemy\u015blu",
                "addr:postcode": "37-700",
                "addr:city": "Przemy\u015bl",
                "addr:street": "Miko\u0142aja Kopernika",
                "addr:housenumber": "14",
                "addr:teryt:simc": 971672,
                "addr:teryt:sym_ul": 9282,
                "phone": "+48 166782635",
                "email": "pm13@um.przemysl.pl",
                "ref:regon": "180576594",
                "ref:vatin": "PL7952501405",
                "operator": "Przemy\u015bl - Miasto Na Prawach Powiatu",
                "operator:type": "government",
                "amenity": "kindergarten"
            }
        },
        {
            "id": 14457,
            "type": "Feature",
            "geometry": {
                "type": "Point",
                "coordinates": [
                    22.7773499,
                    49.78538
                ]
            },
            "properties": {
                "isced:level": "1;2",
                "ref:rspo": 14457,
                "official_name": "Szko\u0142a Podstawowa Nr 7 Specjalna w Przemy\u015blu",
                "name": "Szko\u0142a Podstawowa Nr 7 Specjalna w Przemy\u015blu",
                "addr:postcode": "37-700",
                "addr:city": "Przemy\u015bl",
                "addr:street": "Miko\u0142aja Kopernika",
                "addr:housenumber": "14",
                "addr:teryt:simc": 971672,
                "addr:teryt:sym_ul": 9282,
                "phone": "+48 166782408",
                "email": "szkola7spec@onet.eu",
                "ref:regon": "651435998",
                "operator": "Przemy\u015bl - Miasto Na Prawach Powiatu",
                "operator:type": "government",
                "amenity": "school",
                "note": "Parent RSPO: 6478"
            }
        },
        {
            "id": 14459,
            "type": "Feature",
            "geometry": {
                "type": "Point",
                "coordinates": [
                    22.7773499,
                    49.78535
                ]
            },
            "properties": {
                "isced:level": "3",
                "ref:rspo": 14459,
                "official_name": "Bran\u017cowa Szko\u0142a I Stopnia Specjalna Nr 3 w Przemy\u015blu",
                "name": "Bran\u017cowa Szko\u0142a I Stopnia Specjalna Nr 3 w Przemy\u015blu",
                "addr:postcode": "37-700",
                "addr:city": "Przemy\u015bl",
                "addr:street": "Miko\u0142aja Kopernika",
                "addr:housenumber": "14",
                "addr:teryt:simc": 971672,
                "addr:teryt:sym_ul": 9282,
                "phone": "+48 166783120",
                "email": "soswprzem@o2.pl",
                "ref:regon": "651498906",
                "operator": "Przemy\u015bl - Miasto Na Prawach Powiatu",
                "operator:type": "government",
                "amenity": "school",
                "note": "Parent RSPO: 6478"
            }
        },
        {
            "id": 14461,
            "type": "Feature",
            "geometry": {
                "type": "Point",
                "coordinates": [
                    22.7773499,
                    49.78532
                ]
            },
            "properties": {
                "ref:rspo": 14461,
                "official_name": "Szko\u0142a Specjalna Przysposabiaj\u0105ca Do Pracy w Przemy\u015blu",
                "name": "Szko\u0142a Specjalna Przysposabiaj\u0105ca Do Pracy w Przemy\u015blu",
                "addr:postcode": "37-700",
                "addr:city": "Przemy\u015bl",
                "addr:street": "Miko\u0142aja Kopernika",
                "addr:housenumber": "14",
                "addr:teryt:simc": 971672,
                "addr:teryt:sym_ul": 9282,
                "phone": "+48 166783180",
                "email": "sosw1sbsp@op.pl",
                "ref:regon": "651553456",
                "operator": "Przemy\u015bl - Miasto Na Prawach Powiatu",
                "operator:type": "government",
                "amenity": "school",
                "note": "Parent RSPO: 6478"
            }
        },
        {
            "id": 6518,
            "type": "Feature",
            "geometry": {
                "type": "Point",
                "coordinates": [
                    22.78643,
                    49.78544
                ]
            },
            "properties": {
                "ref:rspo": 6518,
                "official_name": "Przedszkole Nr 4 \"Zielony Zak\u0105tek\" w Przemy\u015blu",
                "name": "Przedszkole Nr 4 \"Zielony Zak\u0105tek\" w Przemy\u015blu",
                "addr:postcode": "37-700",
                "addr:city": "Przemy\u015bl",
                "addr:street": "Karola Szymanowskiego",
                "addr:housenumber": "4",
                "addr:teryt:simc": 971672,
                "addr:teryt:sym_ul": 22238,
                "phone": "+48 166783397",
                "email": "pm4@um.przemysl.pl",
                "website": "http:\/\/www.pm4.szkolnastrona.pl",
                "ref:regon": "180576996",
                "ref:vatin": "PL7952501397",
                "operator": "Przemy\u015bl - Miasto Na Prawach Powiatu",
                "operator:type": "government",
                "amenity": "kindergarten"
            }
        },
        {
            "id": 120983,
            "type": "Feature",
            "geometry": {
                "type": "Point",
                "coordinates": [
                    22.76171,
                    49.78701
                ]
            },
            "properties": {
                "ref:rspo": 120983,
                "official_name": "Zesp\u00f3\u0142 Szk\u00f3\u0142 Salezja\u0144skich w Przemy\u015blu",
                "name": "Zesp\u00f3\u0142 Szk\u00f3\u0142 Salezja\u0144skich w Przemy\u015blu",
                "addr:postcode": "37-700",
                "addr:city": "Przemy\u015bl",
                "addr:street": "\u015awi\u0119tego Jana Nepomucena",
                "addr:housenumber": "3",
                "addr:teryt:simc": 971672,
                "addr:teryt:sym_ul": 39277,
                "phone": "+48 166703265",
                "email": "zssalez@gmail.com",
                "website": "http:\/\/www.zssalez.pl",
                "ref:regon": "181051209",
                "operator": "Towarzystwo Salezja\u0144skie Inspektoria Krakowska P.w. \u015aw.jacka",
                "operator:type": "religious",
                "landuse": "education",
                "fixme": "amenity=school, amenity=college albo landuse=education w zale\u017cno\u015bci od tego, jakie plac\u00f3wki wchodz\u0105 w sk\u0142ad zespo\u0142u. Sprawd\u017a, kiedy stosowa\u0107 amenity=* a kiedy landuse=education.",
                "note": "Children RSPO: 6627;262563"
            }
        },
        {
            "id": 6627,
            "type": "Feature",
            "geometry": {
                "type": "Point",
                "coordinates": [
                    22.76171,
                    49.78698
                ]
            },
            "properties": {
                "isced:level": "3",
                "ref:rspo": 6627,
                "official_name": "Salezja\u0144skie Publiczne Liceum Og\u00f3lnokszta\u0142c\u0105ce w Przemy\u015blu",
                "name": "Salezja\u0144skie Publiczne Liceum Og\u00f3lnokszta\u0142c\u0105ce w Przemy\u015blu",
                "addr:postcode": "37-700",
                "addr:city": "Przemy\u015bl",
                "addr:street": "\u015awi\u0119tego Jana Nepomucena",
                "addr:housenumber": "3",
                "addr:teryt:simc": 971672,
                "addr:teryt:sym_ul": 39277,
                "phone": "+48 166703265",
                "email": "zssalez@gmail.com",
                "website": "http:\/\/www.zssalez.pl",
                "ref:regon": "180882434",
                "operator": "Towarzystwo Salezja\u0144skie Inspektoria Krakowska P.w. \u015aw.jacka",
                "operator:type": "religious",
                "amenity": "school",
                "note": "Parent RSPO: 120983"
            }
        },
        {
            "id": 262563,
            "type": "Feature",
            "geometry": {
                "type": "Point",
                "coordinates": [
                    22.76171,
                    49.786950000000004
                ]
            },
            "properties": {
                "isced:level": "1;2",
                "ref:rspo": 262563,
                "official_name": "Salezja\u0144ska Niepubliczna Szko\u0142a Podstawowa im. B\u0142. Ks. Augusta Czartoryskiego w Przemy\u015blu",
                "name": "Salezja\u0144ska Niepubliczna Szko\u0142a Podstawowa",
                "addr:postcode": "37-700",
                "addr:city": "Przemy\u015bl",
                "addr:street": "\u015awi\u0119tego Jana Nepomucena",
                "addr:housenumber": "3",
                "addr:teryt:simc": 971672,
                "addr:teryt:sym_ul": 39277,
                "phone": "+48 166703265",
                "email": "zssalez@gmail.com",
                "website": "http:\/\/www.zssalez.pl",
                "ref:regon": "368036837",
                "operator": "Towarzystwo Salezja\u0144skie Inspektoria Krakowska P.w. \u015aw.jacka",
                "operator:type": "religious",
                "amenity": "school",
                "note": "Parent RSPO: 120983"
            }
        },
        {
            "id": 6506,
            "type": "Feature",
            "geometry": {
                "type": "Point",
                "coordinates": [
                    22.76333,
                    49.78726
                ]
            },
            "properties": {
                "isced:level": "1;2",
                "ref:rspo": 6506,
                "official_name": "Szko\u0142a Podstawowa Nr 4 im. Ks. Jana Twardowskiego w Przemy\u015blu",
                "name": "Szko\u0142a Podstawowa Nr 4",
                "addr:postcode": "37-700",
                "addr:city": "Przemy\u015bl",
                "addr:street": "\u015awi\u0119tego Jana Nepomucena",
                "addr:housenumber": "10",
                "addr:teryt:simc": 971672,
                "addr:teryt:sym_ul": 39277,
                "phone": "+48 166702306",
                "email": "sp4@um.przemysl.pl",
                "website": "http:\/\/sp4.przemysl.pl",
                "ref:regon": "650105460",
                "ref:vatin": "PL7951070015",
                "operator": "Przemy\u015bl - Miasto Na Prawach Powiatu",
                "operator:type": "government",
                "amenity": "school"
            }
        },
        {
            "id": 6517,
            "type": "Feature",
            "geometry": {
                "type": "Point",
                "coordinates": [
                    22.77196,
                    49.78812
                ]
            },
            "properties": {
                "ref:rspo": 6517,
                "official_name": "Przedszkole Nr 7 w Przemy\u015blu",
                "name": "Przedszkole Nr 7 w Przemy\u015blu",
                "addr:postcode": "37-700",
                "addr:city": "Przemy\u015bl",
                "addr:street": "22 Stycznia",
                "addr:housenumber": "11",
                "addr:teryt:simc": 971672,
                "addr:teryt:sym_ul": 21454,
                "phone": "+48 166708582",
                "email": "pm7@um.przemysl.pl",
                "website": "http:\/\/www.pm7przemysl.szkolnastrona.pl",
                "ref:regon": "180576602",
                "ref:vatin": "PL7952501411",
                "operator": "Przemy\u015bl - Miasto Na Prawach Powiatu",
                "operator:type": "government",
                "amenity": "kindergarten"
            }
        },
        {
            "id": 15294,
            "type": "Feature",
            "geometry": {
                "type": "Point",
                "coordinates": [
                    22.76536,
                    49.78839
                ]
            },
            "properties": {
                "ref:rspo": 15294,
                "official_name": "\"S\u0142oneczna Kraina\" Prywatne Przedszkole",
                "name": "\"S\u0142oneczna Kraina\" Prywatne Przedszkole",
                "addr:postcode": "37-700",
                "addr:city": "Przemy\u015bl",
                "addr:street": "3 Maja",
                "addr:housenumber": "23a",
                "addr:teryt:simc": 971672,
                "addr:teryt:sym_ul": 11937,
                "phone": "+48 604823599",
                "email": "slonecznakraina@op.pl",
                "website": "http:\/\/www.slonecznakraina.szkolnastrona.pl",
                "ref:regon": "180888218",
                "operator": "Ewa Zaremba",
                "operator:type": "private",
                "amenity": "kindergarten"
            }
        },
        {
            "id": 17678,
            "type": "Feature",
            "geometry": {
                "type": "Point",
                "coordinates": [
                    22.77129,
                    49.7884
                ]
            },
            "properties": {
                "ref:rspo": 17678,
                "official_name": "Przedszkole Niepubliczne \n\u201eMa\u0142y Nazaret\u201d Stowarzyszenia Rodzin Katolickich Archidiecezji Przemyskiej",
                "name": "Przedszkole Niepubliczne \n\u201eMa\u0142y Nazaret\u201d Stowarzyszenia Rodzin Katolickich Archidiecezji Przemyskiej",
                "addr:postcode": "37-700",
                "addr:city": "Przemy\u015bl",
                "addr:street": "Zygmunta Krasi\u0144skiego",
                "addr:housenumber": "24",
                "addr:teryt:simc": 971672,
                "addr:teryt:sym_ul": 9848,
                "phone": "+48 667657364",
                "email": "przedszkolesrk2@gmail.com",
                "ref:regon": "180890340",
                "operator": "Stowarzyszenie Rodzin Katolickich Archidiecezji Przemyskiej Im. \u015awi\u0119tego J\u00f3zefa, Sebastiana Pelczara Biskupa",
                "operator:type": "ngo",
                "amenity": "kindergarten"
            }
        },
        {
            "id": 17022,
            "type": "Feature",
            "geometry": {
                "type": "Point",
                "coordinates": [
                    22.77085,
                    49.7888
                ]
            },
            "properties": {
                "ref:rspo": 17022,
                "official_name": "M\u0142odzie\u017cowy O\u015brodek Socjoterapii \"Dom Matki Antoniny Mirskiej\"",
                "name": "M\u0142odzie\u017cowy O\u015brodek Socjoterapii \"Dom Matki Antoniny Mirskiej\"",
                "addr:postcode": "37-700",
                "addr:city": "Przemy\u015bl",
                "addr:street": "Zygmunta Krasi\u0144skiego",
                "addr:housenumber": "33",
                "addr:teryt:simc": 971672,
                "addr:teryt:sym_ul": 9848,
                "phone": "+48 166707255",
                "email": "kontakt@zsob.pl",
                "website": "http:\/\/www.mos-przemysl.pl",
                "ref:regon": "180890273",
                "operator": "Zgromadzenie Si\u00f3str Opatrzno\u015bci Bo\u017cej Dom Generalny",
                "operator:type": "religious",
                "fixme": "amenity=social_facility + social_facility=group_home + social_facility:for=juvenile",
                "note": "Children RSPO: 262319;268592"
            }
        },
        {
            "id": 262319,
            "type": "Feature",
            "geometry": {
                "type": "Point",
                "coordinates": [
                    22.77085,
                    49.78877
                ]
            },
            "properties": {
                "isced:level": "1;2",
                "ref:rspo": 262319,
                "official_name": "Niepubliczna Szko\u0142a Podstawowa im. Matki Antoniny Mirskiej w Przemy\u015blu",
                "name": "Niepubliczna Szko\u0142a Podstawowa",
                "addr:postcode": "37-700",
                "addr:city": "Przemy\u015bl",
                "addr:street": "Zygmunta Krasi\u0144skiego",
                "addr:housenumber": "33",
                "addr:teryt:simc": 971672,
                "addr:teryt:sym_ul": 9848,
                "phone": "+48 166707255",
                "email": "kontakt@zsob.pl",
                "website": "http:\/\/www.mos.zsob.pl",
                "ref:regon": "367992945",
                "operator": "Zgromadzenie Si\u00f3str Opatrzno\u015bci Bo\u017cej Dom Generalny",
                "operator:type": "religious",
                "amenity": "school",
                "note": "Parent RSPO: 17022"
            }
        },
        {
            "id": 268592,
            "type": "Feature",
            "geometry": {
                "type": "Point",
                "coordinates": [
                    22.77085,
                    49.788740000000004
                ]
            },
            "properties": {
                "isced:level": "3",
                "ref:rspo": 268592,
                "official_name": "Szko\u0142a Bran\u017cowa I Stopnia im. Matki Antoniny Mirskiej w Przemy\u015blu",
                "name": "Szko\u0142a Bran\u017cowa I Stopnia",
                "addr:postcode": "37-700",
                "addr:city": "Przemy\u015bl",
                "addr:street": "Zygmunta Krasi\u0144skiego",
                "addr:housenumber": "33",
                "addr:teryt:simc": 971672,
                "addr:teryt:sym_ul": 9848,
                "phone": "+48 166707255",
                "email": "kontakt@zsob.pl",
                "website": "http:\/\/www.mos.zsob.pl",
                "ref:regon": "381209816",
                "operator": "Zgromadzenie Si\u00f3str Opatrzno\u015bci Bo\u017cej Dom Generalny",
                "operator:type": "religious",
                "amenity": "school",
                "note": "Parent RSPO: 17022"
            }
        },
        {
            "id": 129993,
            "type": "Feature",
            "geometry": {
                "type": "Point",
                "coordinates": [
                    22.76642,
                    49.79063
                ]
            },
            "properties": {
                "isced:level": "1;2",
                "ref:rspo": 129993,
                "official_name": "Niepubliczna Szko\u0142a Podstawowa Nr 2 \"Kamon\" w Przemy\u015blu",
                "name": "Niepubliczna Szko\u0142a Podstawowa Nr 2 \"Kamon\" w Przemy\u015blu",
                "addr:postcode": "37-700",
                "addr:city": "Przemy\u015bl",
                "addr:street": "3 Maja",
                "addr:housenumber": "38",
                "addr:teryt:simc": 971672,
                "addr:teryt:sym_ul": 11937,
                "phone": "+48 603784646",
                "email": "szkolakamon@gmail.com",
                "website": "http:\/\/www.szkolapodstawowanr2.edu.pl",
                "ref:regon": "363237838",
                "operator": "Krzysztof Kassan",
                "operator:type": "private",
                "amenity": "school"
            }
        },
        {
            "id": 264069,
            "type": "Feature",
            "geometry": {
                "type": "Point",
                "coordinates": [
                    22.76642,
                    49.7906
                ]
            },
            "properties": {
                "ref:rspo": 264069,
                "official_name": "Niepubliczne Przedszkole Kamon w Przemy\u015blu",
                "name": "Niepubliczne Przedszkole Kamon w Przemy\u015blu",
                "addr:postcode": "37-700",
                "addr:city": "Przemy\u015bl",
                "addr:street": "3 Maja",
                "addr:housenumber": "38",
                "addr:teryt:simc": 971672,
                "addr:teryt:sym_ul": 11937,
                "phone": "+48 603784646",
                "email": "przedszkolekamon@gmail.com",
                "ref:regon": "368257930",
                "operator": "Krzysztof Kassan",
                "operator:type": "private",
                "amenity": "kindergarten"
            }
        },
        {
            "id": 6512,
            "type": "Feature",
            "geometry": {
                "type": "Point",
                "coordinates": [
                    22.77235,
                    49.79067
                ]
            },
            "properties": {
                "ref:rspo": 6512,
                "official_name": "Przedszkole Nr 14 im. Czytelnik\u00f3w \u017bycia Przemyskiego w Przemy\u015blu",
                "name": "Przedszkole Nr 14",
                "addr:postcode": "37-700",
                "addr:city": "Przemy\u015bl",
                "addr:street": "Pu\u0142kownika Marcina Borelowskiego",
                "addr:housenumber": "9",
                "addr:teryt:simc": 971672,
                "addr:teryt:sym_ul": 41624,
                "phone": "+48 166708185",
                "email": "pm14@um.przemysl.pl",
                "website": "http:\/\/www.p14przemysl.szkolnastrona.pl",
                "ref:regon": "180576849",
                "ref:vatin": "PL7952501747",
                "operator": "Przemy\u015bl - Miasto Na Prawach Powiatu",
                "operator:type": "government",
                "amenity": "kindergarten"
            }
        },
        {
            "id": 9826,
            "type": "Feature",
            "geometry": {
                "type": "Point",
                "coordinates": [
                    22.74897,
                    49.79088
                ]
            },
            "properties": {
                "ref:rspo": 9826,
                "official_name": "Przedszkole Niepubliczne \"Ma\u0142e Betlejem\" Stowarzyszenia Rodzin Katolickich Archidiecezji Przemyskiej",
                "name": "Przedszkole Niepubliczne \"Ma\u0142e Betlejem\" Stowarzyszenia Rodzin Katolickich Archidiecezji Przemyskiej",
                "addr:postcode": "37-700",
                "addr:city": "Przemy\u015bl",
                "addr:street": "Genera\u0142a W\u0142adys\u0142awa Sikorskiego",
                "addr:housenumber": "9A",
                "addr:teryt:simc": 971672,
                "addr:teryt:sym_ul": 38378,
                "phone": "+48 166799065",
                "email": "przedszkolesrk@gmail.com",
                "website": "http:\/\/www.malebetlejem.edu.pl\/",
                "ref:regon": "180883630",
                "operator": "Stowarzyszenie Rodzin Katolickich Archidiecezji Przemyskiej Im. \u015awi\u0119tego J\u00f3zefa, Sebastiana Pelczara Biskupa",
                "operator:type": "ngo",
                "amenity": "kindergarten"
            }
        },
        {
            "id": 6490,
            "type": "Feature",
            "geometry": {
                "type": "Point",
                "coordinates": [
                    22.7529,
                    49.79179
                ]
            },
            "properties": {
                "isced:level": "3",
                "ref:rspo": 6490,
                "official_name": "Ii Liceum Og\u00f3lnokszta\u0142c\u0105ce im. Prof. Kazimierza Morawskiego w Przemy\u015blu",
                "name": "Ii Liceum Og\u00f3lnokszta\u0142c\u0105ce",
                "addr:postcode": "37-700",
                "addr:city": "Przemy\u015bl",
                "addr:street": "Biskupa Jakuba Glazera",
                "addr:housenumber": "44",
                "addr:teryt:simc": 971672,
                "addr:teryt:sym_ul": 41618,
                "phone": "+48 166799675",
                "email": "sekr2lo@poczta.onet.pl",
                "website": "http:\/\/www.lo2przemysl.edu.pl",
                "ref:regon": "651537701",
                "ref:vatin": "PL7951047743",
                "operator": "Przemy\u015bl - Miasto Na Prawach Powiatu",
                "operator:type": "government",
                "amenity": "school"
            }
        },
        {
            "id": 6605,
            "type": "Feature",
            "geometry": {
                "type": "Point",
                "coordinates": [
                    22.7529,
                    49.79176
                ]
            },
            "properties": {
                "isced:level": "4",
                "ref:rspo": 6605,
                "official_name": "Policealna Szko\u0142a Detektyw\u00f3w I Pracownik\u00f3w Ochrony w Przemy\u015blu",
                "name": "Policealna Szko\u0142a Detektyw\u00f3w I Pracownik\u00f3w Ochrony w Przemy\u015blu",
                "addr:postcode": "37-700",
                "addr:city": "Przemy\u015bl",
                "addr:street": "Biskupa Jakuba Glazera",
                "addr:housenumber": "44",
                "addr:teryt:simc": 971672,
                "addr:teryt:sym_ul": 41618,
                "phone": "+48 602797099",
                "email": "przemysl@certus.edu.pl",
                "website": "http:\/\/www.certus.edu.pl",
                "ref:regon": "180882865",
                "operator": "Edukacja-Przysz\u0142o\u015b\u0107-Przemy\u015bl Sp\u00f3\u0142ka Z Ograniczon\u0105 Odpowiedzialno\u015bci\u0105 Z Siedzib\u0105 W Lubinie",
                "operator:type": "consortium",
                "amenity": "college"
            }
        },
        {
            "id": 124237,
            "type": "Feature",
            "geometry": {
                "type": "Point",
                "coordinates": [
                    22.7529,
                    49.79173
                ]
            },
            "properties": {
                "isced:level": "3",
                "ref:rspo": 124237,
                "official_name": "Liceum Og\u00f3lnokszta\u0142c\u0105ce dla Doros\u0142ych w Przemy\u015blu",
                "name": "Liceum Og\u00f3lnokszta\u0142c\u0105ce dla Doros\u0142ych w Przemy\u015blu",
                "addr:postcode": "37-700",
                "addr:city": "Przemy\u015bl",
                "addr:street": "Biskupa Jakuba Glazera",
                "addr:housenumber": "44",
                "addr:teryt:simc": 971672,
                "addr:teryt:sym_ul": 41618,
                "phone": "+48 508180968",
                "email": "halinatyszecka@poczta.onet.pl",
                "ref:regon": "181143874",
                "operator": "Halina Tyszecka-Gruszkowska",
                "operator:type": "private",
                "amenity": "school"
            }
        },
        {
            "id": 6498,
            "type": "Feature",
            "geometry": {
                "type": "Point",
                "coordinates": [
                    22.78574,
                    49.79225
                ]
            },
            "properties": {
                "isced:level": "1;2",
                "ref:rspo": 6498,
                "official_name": "Szko\u0142a Podstawowa Nr 15 im. Adama Mickiewicza w Przemy\u015blu",
                "name": "Szko\u0142a Podstawowa Nr 15",
                "addr:postcode": "37-700",
                "addr:city": "Przemy\u015bl",
                "addr:street": "Wincentego Pola",
                "addr:housenumber": "5",
                "addr:teryt:simc": 971672,
                "addr:teryt:sym_ul": 16961,
                "phone": "+48 166785576",
                "email": "sp15@um.przemysl.pl",
                "ref:regon": "650108808",
                "ref:vatin": "PL7951296587",
                "operator": "Przemy\u015bl - Miasto Na Prawach Powiatu",
                "operator:type": "government",
                "amenity": "school"
            }
        },
        {
            "id": 6499,
            "type": "Feature",
            "geometry": {
                "type": "Point",
                "coordinates": [
                    22.77195,
                    49.79239
                ]
            },
            "properties": {
                "isced:level": "1;2",
                "ref:rspo": 6499,
                "official_name": "Szko\u0142a Podstawowa Nr 14 im. Zjednoczonej Europy w Przemy\u015blu",
                "name": "Szko\u0142a Podstawowa Nr 14",
                "addr:postcode": "37-700",
                "addr:city": "Przemy\u015bl",
                "addr:street": "Pu\u0142kownika Marcina Borelowskiego",
                "addr:housenumber": "12",
                "addr:teryt:simc": 971672,
                "addr:teryt:sym_ul": 41624,
                "phone": "+48 166707270",
                "email": "sp14@um.przemysl.pl",
                "website": "http:\/\/www.sp14.pl",
                "ref:regon": "650102600",
                "ref:vatin": "PL7951057397",
                "operator": "Przemy\u015bl - Miasto Na Prawach Powiatu",
                "operator:type": "government",
                "amenity": "school"
            }
        },
        {
            "id": 15536,
            "type": "Feature",
            "geometry": {
                "type": "Point",
                "coordinates": [
                    22.74436,
                    49.79403
                ]
            },
            "properties": {
                "ref:rspo": 15536,
                "official_name": "Niepubliczne Przedszkole \"Stefanek\"",
                "name": "Niepubliczne Przedszkole \"Stefanek\"",
                "addr:postcode": "37-700",
                "addr:city": "Przemy\u015bl",
                "addr:street": "Swobodna",
                "addr:housenumber": "12",
                "addr:teryt:simc": 971672,
                "addr:teryt:sym_ul": 21625,
                "phone": "+48 602401412",
                "email": "marta.lenar@gmail.com",
                "ref:regon": "180889761",
                "operator": "El\u017cbieta Lenar",
                "operator:type": "private",
                "amenity": "kindergarten"
            }
        },
        {
            "id": 4118,
            "type": "Feature",
            "geometry": {
                "type": "Point",
                "coordinates": [
                    22.76667,
                    49.79437
                ]
            },
            "properties": {
                "ref:rspo": 4118,
                "official_name": "Niepubliczne Przedszkole J\u0119zykowe \"Promyczek\"",
                "name": "Niepubliczne Przedszkole J\u0119zykowe \"Promyczek\"",
                "addr:postcode": "37-700",
                "addr:city": "Przemy\u015bl",
                "addr:street": "El\u017cbiety Dru\u017cbackiej",
                "addr:housenumber": "2",
                "addr:teryt:simc": 971672,
                "addr:teryt:sym_ul": 4284,
                "phone": "+48 166700350",
                "email": "przedszkole.promyczek24@gmail.com",
                "website": "http:\/\/www.promyczek24.pl",
                "ref:regon": "180881096",
                "operator": "Wies\u0142aw Nieradka",
                "operator:type": "private",
                "amenity": "kindergarten"
            }
        },
        {
            "id": 6511,
            "type": "Feature",
            "geometry": {
                "type": "Point",
                "coordinates": [
                    22.75711,
                    49.7969
                ]
            },
            "properties": {
                "ref:rspo": 6511,
                "official_name": "Przedszkole Nr 16 w Przemy\u015blu",
                "name": "Przedszkole Nr 16 w Przemy\u015blu",
                "addr:postcode": "37-700",
                "addr:city": "Przemy\u015bl",
                "addr:street": "Ignacego Pr\u0105dzy\u0144skiego",
                "addr:housenumber": "47",
                "addr:teryt:simc": 971672,
                "addr:teryt:sym_ul": 17475,
                "phone": "+48 166701569",
                "email": "pm16@um.przemysl.pl",
                "ref:regon": "180577040",
                "ref:vatin": "PL7952501693",
                "operator": "Przemy\u015bl - Miasto Na Prawach Powiatu",
                "operator:type": "government",
                "amenity": "kindergarten"
            }
        },
        {
            "id": 6503,
            "type": "Feature",
            "geometry": {
                "type": "Point",
                "coordinates": [
                    22.75845,
                    49.7975
                ]
            },
            "properties": {
                "isced:level": "1;2",
                "ref:rspo": 6503,
                "official_name": "Szko\u0142a Podstawowa Nr 6 im. Ojca \u015awi\u0119tego Jana Paw\u0142a II w Przemy\u015blu",
                "name": "Szko\u0142a Podstawowa Nr 6",
                "addr:postcode": "37-700",
                "addr:city": "Przemy\u015bl",
                "addr:street": "Genera\u0142a Mieczys\u0142awa Boruty-Spiechowicza",
                "addr:housenumber": "1",
                "addr:teryt:simc": 971672,
                "addr:teryt:sym_ul": 44674,
                "phone": "+48 166779500",
                "email": "sp6@um.przemysl.pl",
                "website": "http:\/\/www.sp6przemysl.pl",
                "ref:regon": "650105508",
                "ref:vatin": "PL7951060040",
                "operator": "Przemy\u015bl - Miasto Na Prawach Powiatu",
                "operator:type": "government",
                "amenity": "school"
            }
        }
    ]
}