{
    "type": "FeatureCollection",
    "features": [
        {
            "id": 22440,
            "type": "Feature",
            "geometry": {
                "type": "Point",
                "coordinates": [
                    18.39144,
                    51.2937
                ]
            },
            "properties": {
                "ref:rspo": 22440,
                "official_name": "Zesp\u00f3\u0142 Szk\u00f3\u0142 w Walichnowach",
                "name": "Zesp\u00f3\u0142 Szk\u00f3\u0142 w Walichnowach",
                "addr:country": "PL",
                "addr:postcode": "98-420",
                "addr:city": "Walichnowy",
                "addr:street": "Szkolna",
                "addr:housenumber": "28A",
                "addr:teryt:simc": 208798,
                "addr:teryt:sym_ul": 21970,
                "contact:phone": "+48 627844471",
                "contact:email": "zs.walichnowy@gmail.com",
                "contact:website": "http:\/\/www.zswalichnowy.szkolnastrona.pl\/",
                "ref:regon": "731625984",
                "ref:vatin": "PL9970033565",
                "operator": "Gmina Sokolniki",
                "operator:type": "government",
                "landuse": "education",
                "fixme": "amenity=school, amenity=college albo landuse=education w zale\u017cno\u015bci od tego, jakie plac\u00f3wki wchodz\u0105 w sk\u0142ad zespo\u0142u. Sprawd\u017a, kiedy stosowa\u0107 amenity=* a kiedy landuse=education.",
                "note": "Children RSPO: 23340;23341"
            }
        },
        {
            "id": 23340,
            "type": "Feature",
            "geometry": {
                "type": "Point",
                "coordinates": [
                    18.39144,
                    51.29367
                ]
            },
            "properties": {
                "ref:rspo": 23340,
                "official_name": "Przedszkole Samorz\u0105dowe w Walichnowach",
                "name": "Przedszkole Samorz\u0105dowe w Walichnowach",
                "addr:country": "PL",
                "addr:postcode": "98-420",
                "addr:city": "Walichnowy",
                "addr:street": "Szkolna",
                "addr:housenumber": "28A",
                "addr:teryt:simc": 208798,
                "addr:teryt:sym_ul": 21970,
                "contact:phone": "+48 627844471",
                "contact:email": "zs.walichnowy@gmail.pl",
                "ref:regon": "731625990",
                "operator": "Gmina Sokolniki",
                "operator:type": "government",
                "amenity": "kindergarten",
                "note": "Parent RSPO: 22440"
            }
        },
        {
            "id": 23341,
            "type": "Feature",
            "geometry": {
                "type": "Point",
                "coordinates": [
                    18.39144,
                    51.29364
                ]
            },
            "properties": {
                "isced:level": "1;2",
                "ref:rspo": 23341,
                "official_name": "Szko\u0142a Podstawowa im. 32 Eskadry Rozpoznawczej Lotnictwa Armii \"\u0141\u00f3d\u017a\" w Walichnowach",
                "name": "Szko\u0142a Podstawowa",
                "addr:country": "PL",
                "addr:postcode": "98-420",
                "addr:city": "Walichnowy",
                "addr:street": "Szkolna",
                "addr:housenumber": "28A",
                "addr:teryt:simc": 208798,
                "addr:teryt:sym_ul": 21970,
                "contact:phone": "+48 627844471",
                "contact:email": "zs.walichnowy@gmail.com",
                "contact:website": "http:\/\/www.zswalichnowy.szkolnastrona.pl\/",
                "ref:regon": "001171420",
                "operator": "Gmina Sokolniki",
                "operator:type": "government",
                "amenity": "school",
                "note": "Parent RSPO: 22440"
            }
        },
        {
            "id": 23294,
            "type": "Feature",
            "geometry": {
                "type": "Point",
                "coordinates": [
                    18.38119,
                    51.29516
                ]
            },
            "properties": {
                "ref:rspo": 23294,
                "official_name": "Przedszkole Samorz\u0105dowe im. Jana Paw\u0142a II w Sokolnikach",
                "name": "Przedszkole Samorz\u0105dowe",
                "addr:country": "PL",
                "addr:postcode": "98-420",
                "addr:city": "Sokolniki",
                "addr:street": "Parkowa",
                "addr:housenumber": "10",
                "addr:teryt:simc": 208692,
                "addr:teryt:sym_ul": 15710,
                "contact:phone": "+48 627846127",
                "contact:email": "zs_sokolniki@poczta.onet.pl",
                "ref:regon": "731627144",
                "ref:vatin": "PL9970021697",
                "operator": "Gmina Sokolniki",
                "operator:type": "government",
                "amenity": "kindergarten",
                "note": "Parent RSPO: 22408"
            }
        },
        {
            "id": 23640,
            "type": "Feature",
            "geometry": {
                "type": "Point",
                "coordinates": [
                    18.258246,
                    51.300075
                ]
            },
            "properties": {
                "ref:rspo": 23640,
                "official_name": "Zesp\u00f3\u0142 Szk\u00f3\u0142 w Starym Och\u0119dzynie",
                "name": "Zesp\u00f3\u0142 Szk\u00f3\u0142 w Starym Och\u0119dzynie",
                "addr:country": "PL",
                "addr:postcode": "98-420",
                "addr:place": "Stary Och\u0119dzyn",
                "addr:housenumber": "55",
                "addr:teryt:simc": 208752,
                "contact:phone": "+48 627845781",
                "contact:email": "ochedzyn@vp.pl",
                "ref:regon": "731625955",
                "ref:vatin": "PL9970024655",
                "operator": "Gmina Sokolniki",
                "operator:type": "government",
                "landuse": "education",
                "fixme": "amenity=school, amenity=college albo landuse=education w zale\u017cno\u015bci od tego, jakie plac\u00f3wki wchodz\u0105 w sk\u0142ad zespo\u0142u. Sprawd\u017a, kiedy stosowa\u0107 amenity=* a kiedy landuse=education.",
                "note": "Children RSPO: 27111;27112"
            }
        },
        {
            "id": 27111,
            "type": "Feature",
            "geometry": {
                "type": "Point",
                "coordinates": [
                    18.258246,
                    51.300045
                ]
            },
            "properties": {
                "ref:rspo": 27111,
                "official_name": "Przedszkole Samorz\u0105dowe w Starym Och\u0119dzynie",
                "name": "Przedszkole Samorz\u0105dowe w Starym Och\u0119dzynie",
                "addr:country": "PL",
                "addr:postcode": "98-420",
                "addr:place": "Stary Och\u0119dzyn",
                "addr:housenumber": "55",
                "addr:teryt:simc": 208752,
                "contact:phone": "+48 627845781",
                "contact:email": "ochedzyn@vp.pl",
                "ref:regon": "731625961",
                "operator": "Gmina Sokolniki",
                "operator:type": "government",
                "amenity": "kindergarten",
                "note": "Parent RSPO: 23640"
            }
        },
        {
            "id": 27112,
            "type": "Feature",
            "geometry": {
                "type": "Point",
                "coordinates": [
                    18.258246,
                    51.300015
                ]
            },
            "properties": {
                "isced:level": "1;2",
                "ref:rspo": 27112,
                "official_name": "Szko\u0142a Podstawowa w Starym Och\u0119dzynie",
                "name": "Szko\u0142a Podstawowa w Starym Och\u0119dzynie",
                "addr:country": "PL",
                "addr:postcode": "98-420",
                "addr:place": "Stary Och\u0119dzyn",
                "addr:housenumber": "55",
                "addr:teryt:simc": 208752,
                "contact:phone": "+48 627845781",
                "contact:email": "ochedzyn@vp.pl",
                "ref:regon": "001171442",
                "operator": "Gmina Sokolniki",
                "operator:type": "government",
                "amenity": "school",
                "note": "Parent RSPO: 23640"
            }
        },
        {
            "id": 27114,
            "type": "Feature",
            "geometry": {
                "type": "Point",
                "coordinates": [
                    18.2990539,
                    51.3046689
                ]
            },
            "properties": {
                "isced:level": "1;2",
                "ref:rspo": 27114,
                "official_name": "Szko\u0142a Podstawowa Specjalna w Tyblach",
                "name": "Szko\u0142a Podstawowa Specjalna w Tyblach",
                "addr:country": "PL",
                "addr:postcode": "98-420",
                "addr:place": "Tyble",
                "addr:housenumber": "50A",
                "addr:teryt:simc": 208769,
                "contact:email": "martamieszala.zssptyble@gmail.com",
                "ref:regon": "001171459",
                "operator": "Gmina Sokolniki",
                "operator:type": "government",
                "amenity": "school"
            }
        },
        {
            "id": 22408,
            "type": "Feature",
            "geometry": {
                "type": "Point",
                "coordinates": [
                    18.32431,
                    51.30686
                ]
            },
            "properties": {
                "ref:rspo": 22408,
                "official_name": "Zesp\u00f3\u0142 Szk\u00f3\u0142 im. Jana Paw\u0142a II w Sokolnikach",
                "name": "Zesp\u00f3\u0142 Szk\u00f3\u0142",
                "addr:country": "PL",
                "addr:postcode": "98-420",
                "addr:city": "Sokolniki",
                "addr:street": "Szkolna",
                "addr:housenumber": "1",
                "addr:teryt:simc": 208692,
                "addr:teryt:sym_ul": 21970,
                "contact:phone": "+48 627846167",
                "contact:email": "zs_sokolniki@poczta.onet.pl",
                "contact:website": "http:\/\/www.zssokolniki.szkolnastrona.pl",
                "ref:regon": "731627138",
                "ref:vatin": "PL9970021697",
                "operator": "Gmina Sokolniki",
                "operator:type": "government",
                "landuse": "education",
                "fixme": "amenity=school, amenity=college albo landuse=education w zale\u017cno\u015bci od tego, jakie plac\u00f3wki wchodz\u0105 w sk\u0142ad zespo\u0142u. Sprawd\u017a, kiedy stosowa\u0107 amenity=* a kiedy landuse=education.",
                "note": "Children RSPO: 23294;23295"
            }
        },
        {
            "id": 23295,
            "type": "Feature",
            "geometry": {
                "type": "Point",
                "coordinates": [
                    18.32431,
                    51.30683
                ]
            },
            "properties": {
                "isced:level": "1;2",
                "ref:rspo": 23295,
                "official_name": "Szko\u0142a Podstawowa im. Jana Paw\u0142a II w Sokolnikach",
                "name": "Szko\u0142a Podstawowa",
                "addr:country": "PL",
                "addr:postcode": "98-420",
                "addr:city": "Sokolniki",
                "addr:street": "Szkolna",
                "addr:housenumber": "1",
                "addr:teryt:simc": 208692,
                "addr:teryt:sym_ul": 21970,
                "contact:phone": "+48 627846167",
                "contact:email": "zs_sokolniki@poczta.onet.pl",
                "contact:website": "http:\/\/zssokolniki.szkolnastrona.pl\/",
                "ref:regon": "000270509",
                "ref:vatin": "PL9970021697",
                "operator": "Gmina Sokolniki",
                "operator:type": "government",
                "amenity": "school",
                "note": "Parent RSPO: 22408"
            }
        },
        {
            "id": 23619,
            "type": "Feature",
            "geometry": {
                "type": "Point",
                "coordinates": [
                    18.3933239,
                    51.3281579
                ]
            },
            "properties": {
                "ref:rspo": 23619,
                "official_name": "Zesp\u00f3\u0142 Szk\u00f3\u0142 w Pichlicach",
                "name": "Zesp\u00f3\u0142 Szk\u00f3\u0142 w Pichlicach",
                "addr:country": "PL",
                "addr:postcode": "98-420",
                "addr:place": "Pichlice",
                "addr:housenumber": "1",
                "addr:teryt:simc": 208628,
                "contact:phone": "+48 627844483",
                "contact:email": "sppichlice@interia.pl",
                "ref:regon": "731625932",
                "ref:vatin": "PL9970024649",
                "operator": "Gmina Sokolniki",
                "operator:type": "government",
                "landuse": "education",
                "fixme": "amenity=school, amenity=college albo landuse=education w zale\u017cno\u015bci od tego, jakie plac\u00f3wki wchodz\u0105 w sk\u0142ad zespo\u0142u. Sprawd\u017a, kiedy stosowa\u0107 amenity=* a kiedy landuse=education.",
                "note": "Children RSPO: 24317;24393"
            }
        },
        {
            "id": 24317,
            "type": "Feature",
            "geometry": {
                "type": "Point",
                "coordinates": [
                    18.3933239,
                    51.3281279
                ]
            },
            "properties": {
                "ref:rspo": 24317,
                "official_name": "Samorz\u0105dowe Przedszkole w Pichlicach",
                "name": "Samorz\u0105dowe Przedszkole w Pichlicach",
                "addr:country": "PL",
                "addr:postcode": "98-420",
                "addr:place": "Pichlice",
                "addr:housenumber": "1",
                "addr:teryt:simc": 208628,
                "contact:phone": "+48 627844491",
                "contact:email": "sppichlice@interia.pl",
                "ref:regon": "731625949",
                "operator": "Gmina Sokolniki",
                "operator:type": "government",
                "amenity": "kindergarten",
                "note": "Parent RSPO: 23619"
            }
        },
        {
            "id": 24393,
            "type": "Feature",
            "geometry": {
                "type": "Point",
                "coordinates": [
                    18.3933239,
                    51.3280979
                ]
            },
            "properties": {
                "isced:level": "1;2",
                "ref:rspo": 24393,
                "official_name": "Szko\u0142a Podstawowa w Pichlicach",
                "name": "Szko\u0142a Podstawowa w Pichlicach",
                "addr:country": "PL",
                "addr:postcode": "98-420",
                "addr:place": "Pichlice",
                "addr:housenumber": "1",
                "addr:teryt:simc": 208628,
                "contact:phone": "+48 627844483",
                "contact:email": "sppichlice@interia.pl",
                "ref:regon": "001171436",
                "operator": "Gmina Sokolniki",
                "operator:type": "government",
                "amenity": "school",
                "note": "Parent RSPO: 23619"
            }
        }
    ]
}