{
    "type": "FeatureCollection",
    "features": [
        {
            "id": 60260,
            "type": "Feature",
            "geometry": {
                "type": "Point",
                "coordinates": [
                    18.48626,
                    51.32597
                ]
            },
            "properties": {
                "isced:level": "1;2",
                "ref:rspo": 60260,
                "official_name": "Szko\u0142a Podstawowa w Lututowie Szko\u0142a Filialna w Swobodzie",
                "name": "Szko\u0142a Podstawowa w Lututowie Szko\u0142a Filialna w Swobodzie",
                "addr:postcode": "98-360",
                "addr:place": "Swoboda",
                "addr:housenumber": "6",
                "addr:teryt:simc": 706817,
                "phone": "+48 438714327",
                "email": "splututow1863@gmail.com",
                "ref:regon": "653334000",
                "ref:vatin": "PL9970038137",
                "operator": "Gmina Lutut\u00f3w",
                "operator:type": "government",
                "amenity": "school",
                "note": "Parent RSPO: 48353"
            }
        },
        {
            "id": 48960,
            "type": "Feature",
            "geometry": {
                "type": "Point",
                "coordinates": [
                    18.52152,
                    51.34587
                ]
            },
            "properties": {
                "isced:level": "1;2",
                "ref:rspo": 48960,
                "official_name": "Katolicka Szko\u0142a Podstawowa Stowarzyszenia Przyjaci\u00f3\u0142 Szk\u00f3\u0142 Katolickich im. Jana Paw\u0142a II w Chojnach",
                "name": "Katolicka Szko\u0142a Podstawowa Stowarzyszenia Przyjaci\u00f3\u0142 Szk\u00f3\u0142 Katolickich",
                "addr:postcode": "98-360",
                "addr:place": "Chojny",
                "addr:housenumber": "21",
                "addr:teryt:simc": 706378,
                "phone": "+48 438714709",
                "email": "spsk_chojny@poczta.onet.pl",
                "ref:regon": "101488443",
                "ref:vatin": "PL9970044787",
                "operator": "Stowarzyszenie Przyjaci\u00f3\u0142 Szk\u00f3\u0142 Katolickich",
                "operator:type": "ngo",
                "amenity": "school"
            }
        },
        {
            "id": 48961,
            "type": "Feature",
            "geometry": {
                "type": "Point",
                "coordinates": [
                    18.52152,
                    51.345839999999995
                ]
            },
            "properties": {
                "ref:rspo": 48961,
                "official_name": "Przedszkole Stowarzyszenia Przyjaci\u00f3\u0142 Szk\u00f3\u0142 Katolickich w Chojnach",
                "name": "Przedszkole Stowarzyszenia Przyjaci\u00f3\u0142 Szk\u00f3\u0142 Katolickich w Chojnach",
                "addr:postcode": "98-360",
                "addr:place": "Chojny",
                "addr:housenumber": "21",
                "addr:teryt:simc": 706378,
                "phone": "+48 438714709",
                "ref:regon": "101488466",
                "ref:vatin": "PL9970131782",
                "operator": "Stowarzyszenie Przyjaci\u00f3\u0142 Szk\u00f3\u0142 Katolickich",
                "operator:type": "ngo",
                "amenity": "kindergarten"
            }
        },
        {
            "id": 48350,
            "type": "Feature",
            "geometry": {
                "type": "Point",
                "coordinates": [
                    18.4324,
                    51.3705
                ]
            },
            "properties": {
                "ref:rspo": 48350,
                "official_name": "Przedszkole Publiczne w Lututowie",
                "name": "Przedszkole Publiczne w Lututowie",
                "addr:postcode": "98-360",
                "addr:city": "Lutut\u00f3w",
                "addr:street": "Wieruszowska",
                "addr:housenumber": "18",
                "addr:teryt:simc": 706651,
                "addr:teryt:sym_ul": 24153,
                "phone": "+48 438714031",
                "email": "malwina-grzybek@wp.pl",
                "ref:regon": "731016133",
                "ref:vatin": "PL9970038172",
                "operator": "Gmina Lutut\u00f3w",
                "operator:type": "government",
                "amenity": "kindergarten"
            }
        },
        {
            "id": 48353,
            "type": "Feature",
            "geometry": {
                "type": "Point",
                "coordinates": [
                    18.43118,
                    51.37083
                ]
            },
            "properties": {
                "isced:level": "1;2",
                "ref:rspo": 48353,
                "official_name": "Szko\u0142a Podstawowa im. Powsta\u0144c\u00f3w 1863R. w Lututowie",
                "name": "Szko\u0142a Podstawowa",
                "addr:postcode": "98-360",
                "addr:city": "Lutut\u00f3w",
                "addr:street": "Wieruszowska",
                "addr:housenumber": "28a",
                "addr:teryt:simc": 706651,
                "addr:teryt:sym_ul": 24153,
                "phone": "+48 438714164",
                "email": "splututow1863@gmail.com",
                "website": "http:\/\/splututow.szkolnastrona.pl",
                "ref:regon": "000653334",
                "ref:vatin": "PL9970038137",
                "operator": "Gmina Lutut\u00f3w",
                "operator:type": "government",
                "amenity": "school",
                "note": "Children RSPO: 60260;131976"
            }
        },
        {
            "id": 8444,
            "type": "Feature",
            "geometry": {
                "type": "Point",
                "coordinates": [
                    18.4346983,
                    51.3716843
                ]
            },
            "properties": {
                "ref:rspo": 8444,
                "official_name": "Zesp\u00f3\u0142 Szk\u00f3\u0142 Centrum Kszta\u0142cenia Rolniczego w Lututowie",
                "name": "Zesp\u00f3\u0142 Szk\u00f3\u0142 Centrum Kszta\u0142cenia Rolniczego w Lututowie",
                "addr:postcode": "98-360",
                "addr:city": "Lutut\u00f3w",
                "addr:street": "Klonowska",
                "addr:housenumber": "3",
                "addr:teryt:simc": 706651,
                "addr:teryt:sym_ul": 8580,
                "phone": "+48 438714047",
                "email": "zsrlut-sekretariat@wp.pl",
                "website": "http:\/\/www.zsrlututow.internetdsl.pl",
                "ref:regon": "000096483",
                "ref:vatin": "PL8321038950",
                "operator": "Ministerstwo Rolnictwa I Rozwoju Wsi",
                "operator:type": "public",
                "landuse": "education",
                "fixme": "amenity=school, amenity=college albo landuse=education w zale\u017cno\u015bci od tego, jakie plac\u00f3wki wchodz\u0105 w sk\u0142ad zespo\u0142u. Sprawd\u017a, kiedy stosowa\u0107 amenity=* a kiedy landuse=education.",
                "note": "Children RSPO: 57740;57743;58944;276374;278826"
            }
        },
        {
            "id": 57740,
            "type": "Feature",
            "geometry": {
                "type": "Point",
                "coordinates": [
                    18.4346983,
                    51.371654299999996
                ]
            },
            "properties": {
                "isced:level": "3",
                "ref:rspo": 57740,
                "official_name": "Technikum im.alojzego Prospera Biernackiego w Lututowie",
                "name": "Technikum im.alojzego Prospera Biernackiego w Lututowie",
                "addr:postcode": "98-360",
                "addr:city": "Lutut\u00f3w",
                "addr:street": "Klonowska",
                "addr:housenumber": "3",
                "addr:teryt:simc": 706651,
                "addr:teryt:sym_ul": 8580,
                "phone": "+48 438714047",
                "email": "zsrlut-sekretariat@wp.pl",
                "website": "http:\/\/www.zsrlututow.internetdsl.pl",
                "ref:regon": "731585664",
                "operator": "Ministerstwo Rolnictwa I Rozwoju Wsi",
                "operator:type": "public",
                "amenity": "school",
                "note": "Parent RSPO: 8444"
            }
        },
        {
            "id": 57743,
            "type": "Feature",
            "geometry": {
                "type": "Point",
                "coordinates": [
                    18.4346983,
                    51.3716243
                ]
            },
            "properties": {
                "isced:level": "3",
                "ref:rspo": 57743,
                "official_name": "Bran\u017cowa Szko\u0142a I Stopnia im. Alojzego Prospera Biernackiego w Lututowie",
                "name": "Bran\u017cowa Szko\u0142a I Stopnia",
                "addr:postcode": "98-360",
                "addr:city": "Lutut\u00f3w",
                "addr:street": "Klonowska",
                "addr:housenumber": "3",
                "addr:teryt:simc": 706651,
                "addr:teryt:sym_ul": 8580,
                "phone": "+48 438714047",
                "email": "zsrlut-sekretariat@wp.pl",
                "website": "http:\/\/www.zsrlututow.internetdsl.pl",
                "ref:regon": "731585658",
                "operator": "Ministerstwo Rolnictwa I Rozwoju Wsi",
                "operator:type": "public",
                "amenity": "school",
                "note": "Parent RSPO: 8444"
            }
        },
        {
            "id": 58944,
            "type": "Feature",
            "geometry": {
                "type": "Point",
                "coordinates": [
                    18.4346983,
                    51.3715943
                ]
            },
            "properties": {
                "isced:level": "4",
                "ref:rspo": 58944,
                "official_name": "Szko\u0142a Policealna w Lututowie",
                "name": "Szko\u0142a Policealna w Lututowie",
                "addr:postcode": "98-360",
                "addr:city": "Lutut\u00f3w",
                "addr:street": "Klonowska",
                "addr:housenumber": "3",
                "addr:teryt:simc": 706651,
                "addr:teryt:sym_ul": 8580,
                "phone": "+48 438714047",
                "ref:regon": "100277454",
                "operator": "Ministerstwo Rolnictwa I Rozwoju Wsi",
                "operator:type": "public",
                "amenity": "college",
                "note": "Parent RSPO: 8444"
            }
        },
        {
            "id": 276374,
            "type": "Feature",
            "geometry": {
                "type": "Point",
                "coordinates": [
                    18.4346983,
                    51.371564299999996
                ]
            },
            "properties": {
                "isced:level": "3",
                "ref:rspo": 276374,
                "official_name": "Branzowa Szko\u0142a II Stopnia w Lututowie",
                "name": "Branzowa Szko\u0142a II Stopnia w Lututowie",
                "addr:postcode": "98-360",
                "addr:city": "Lutut\u00f3w",
                "addr:street": "Klonowska",
                "addr:housenumber": "3",
                "addr:teryt:simc": 706651,
                "addr:teryt:sym_ul": 8580,
                "phone": "+48 438714047",
                "website": "http:\/\/www.zsrlututow.internetdsl.pl",
                "ref:regon": "387110496",
                "operator": "Ministerstwo Rolnictwa I Rozwoju Wsi",
                "operator:type": "public",
                "amenity": "school",
                "note": "Parent RSPO: 8444"
            }
        },
        {
            "id": 278826,
            "type": "Feature",
            "geometry": {
                "type": "Point",
                "coordinates": [
                    18.4346983,
                    51.3715343
                ]
            },
            "properties": {
                "ref:rspo": 278826,
                "official_name": "Centrum Kszta\u0142cenia Ustawicznego w Lututowie",
                "name": "Centrum Kszta\u0142cenia Ustawicznego w Lututowie",
                "addr:postcode": "98-360",
                "addr:city": "Lutut\u00f3w",
                "addr:street": "Klonowska",
                "addr:housenumber": "3",
                "addr:teryt:simc": 706651,
                "addr:teryt:sym_ul": 8580,
                "phone": "+48 438714047",
                "email": "zsrlut-sekretariat@wp.pl",
                "ref:regon": "520092318",
                "operator": "Ministerstwo Rolnictwa I Rozwoju Wsi",
                "operator:type": "public",
                "fixme": "w zale\u017cno\u015bci od przedmiotu dzia\u0142alno\u015bci (np. amenity=training + training=*, amenity=dancing_school, amenity=language_school, amenity=music_school)",
                "note": "Parent RSPO: 8444"
            }
        },
        {
            "id": 62127,
            "type": "Feature",
            "geometry": {
                "type": "Point",
                "coordinates": [
                    18.43516,
                    51.37227
                ]
            },
            "properties": {
                "ref:rspo": 62127,
                "official_name": "Bankowy O\u015brodek Doradztwa I Edukacji",
                "name": "Bankowy O\u015brodek Doradztwa I Edukacji",
                "addr:postcode": "98-360",
                "addr:city": "Lutut\u00f3w",
                "addr:street": "Klonowska",
                "addr:housenumber": "2",
                "addr:teryt:simc": 706651,
                "addr:teryt:sym_ul": 8580,
                "phone": "+48 438714023",
                "email": "m.operacz@bodie.pl",
                "ref:regon": "101493964",
                "ref:vatin": "PL7811616098",
                "operator": "Bankowy O\u015brodek Doradztwa I Edukacji Sp\u00f3\u0142ka Z Ograniczon\u0105 Odpowiedzialno\u015bci\u0105",
                "operator:type": "private",
                "fixme": "w zale\u017cno\u015bci od przedmiotu dzia\u0142alno\u015bci (np. amenity=training + training=*, amenity=dancing_school, amenity=language_school, amenity=music_school)"
            }
        },
        {
            "id": 131976,
            "type": "Feature",
            "geometry": {
                "type": "Point",
                "coordinates": [
                    18.4607,
                    51.3815
                ]
            },
            "properties": {
                "isced:level": "1;2",
                "ref:rspo": 131976,
                "official_name": "Szko\u0142a Podstawowa w Lututowie im. Powsta\u0144c\u00f3w 1863 R.- Szko\u0142a Filialna w Niemojewie",
                "name": "Szko\u0142a Podstawowa w Lututowie",
                "addr:postcode": "98-360",
                "addr:city": "Lutut\u00f3w",
                "addr:street": "Lipowa",
                "addr:housenumber": "19",
                "addr:teryt:simc": 706651,
                "addr:teryt:sym_ul": 11139,
                "phone": "+48 438714164",
                "email": "splututow1863@gmail.com",
                "ref:regon": "653334000",
                "ref:vatin": "PL9970038137",
                "operator": "Gmina Lutut\u00f3w",
                "operator:type": "government",
                "amenity": "school",
                "note": "Parent RSPO: 48353"
            }
        }
    ]
}