{
    "type": "FeatureCollection",
    "features": [
        {
            "id": 25869,
            "type": "Feature",
            "geometry": {
                "type": "Point",
                "coordinates": [
                    21.6290618,
                    51.4934307
                ]
            },
            "properties": {
                "ref:rspo": 25869,
                "official_name": "Zesp\u00f3\u0142 Szk\u00f3\u0142 Drzewnych I Le\u015bnych im. Jana Kochanowskiego w Garbatce- Letnisku",
                "name": "Zesp\u00f3\u0142 Szk\u00f3\u0142 Drzewnych I Le\u015bnych",
                "addr:postcode": "26-930",
                "addr:city": "Garbatka-Letnisko",
                "addr:street": "Hanki Lewandowicz",
                "addr:housenumber": "4",
                "addr:teryt:simc": 618639,
                "addr:teryt:sym_ul": 10980,
                "phone": "+48 486210047",
                "email": "zsdwgarbatce@poczta.onet.pl",
                "website": "http:\/\/drzewna.com",
                "ref:regon": "673007110",
                "ref:vatin": "PL8121819335",
                "operator": "Wojew\u00f3dztwo Mazowieckie",
                "operator:type": "government",
                "landuse": "education",
                "fixme": "amenity=school, amenity=college albo landuse=education w zale\u017cno\u015bci od tego, jakie plac\u00f3wki wchodz\u0105 w sk\u0142ad zespo\u0142u. Sprawd\u017a, kiedy stosowa\u0107 amenity=* a kiedy landuse=education.",
                "note": "Children RSPO: 26362;27106;27804;28211;29990;115609;124828"
            }
        },
        {
            "id": 26362,
            "type": "Feature",
            "geometry": {
                "type": "Point",
                "coordinates": [
                    21.6290618,
                    51.493400699999995
                ]
            },
            "properties": {
                "isced:level": "3",
                "ref:rspo": 26362,
                "official_name": "Technikum Le\u015bne w Zespole Szk\u00f3\u0142 Drzewnych I Le\u015bnych im.jana Kochanowskiego w Garbatce-Letnisku",
                "name": "Technikum Le\u015bne w Zespole Szk\u00f3\u0142 Drzewnych I Le\u015bnych im.jana Kochanowskiego w Garbatce-Letnisku",
                "addr:postcode": "26-930",
                "addr:city": "Garbatka-Letnisko",
                "addr:street": "Hanki Lewandowicz",
                "addr:housenumber": "4",
                "addr:teryt:simc": 618639,
                "addr:teryt:sym_ul": 10980,
                "phone": "+48 486210047",
                "email": "zsdwgarbatce@poczta.onet.pl",
                "website": "http:\/\/www.drzewna.com",
                "ref:regon": "673007133",
                "ref:vatin": "PL8121819335",
                "operator": "Wojew\u00f3dztwo Mazowieckie",
                "operator:type": "government",
                "amenity": "school",
                "note": "Parent RSPO: 25869"
            }
        },
        {
            "id": 27106,
            "type": "Feature",
            "geometry": {
                "type": "Point",
                "coordinates": [
                    21.6290618,
                    51.4933707
                ]
            },
            "properties": {
                "isced:level": "3",
                "ref:rspo": 27106,
                "official_name": "Technikum Drzewne w Zespole Szk\u00f3\u0142 Drzewnych I Le\u015bnych im.jana Kochanowskiego w Garbatce-Letnisku",
                "name": "Technikum Drzewne w Zespole Szk\u00f3\u0142 Drzewnych I Le\u015bnych im.jana Kochanowskiego w Garbatce-Letnisku",
                "addr:postcode": "26-930",
                "addr:city": "Garbatka-Letnisko",
                "addr:street": "Hanki Lewandowicz",
                "addr:housenumber": "4",
                "addr:teryt:simc": 618639,
                "addr:teryt:sym_ul": 10980,
                "phone": "+48 486210047",
                "email": "zsdwgarbatce@poczta.onet.pl",
                "website": "http:\/\/www.drzewna.com",
                "ref:regon": "672967285",
                "ref:vatin": "PL8121819335",
                "operator": "Wojew\u00f3dztwo Mazowieckie",
                "operator:type": "government",
                "amenity": "school",
                "note": "Parent RSPO: 25869"
            }
        },
        {
            "id": 27804,
            "type": "Feature",
            "geometry": {
                "type": "Point",
                "coordinates": [
                    21.6290618,
                    51.4933407
                ]
            },
            "properties": {
                "ref:rspo": 27804,
                "official_name": "Szkolne Schronisko M\u0142odzie\u017cowe Przy Zespole Szk\u00f3\u0142drzewnych I Le\u015bnych im.jana Kochanowskiego w Garbatce-Letnisku",
                "name": "Szkolne Schronisko M\u0142odzie\u017cowe Przy Zespole Szk\u00f3\u0142drzewnych I Le\u015bnych im.jana Kochanowskiego w Garbatce-Letnisku",
                "addr:postcode": "26-930",
                "addr:city": "Garbatka-Letnisko",
                "addr:street": "Hanki Lewandowicz",
                "addr:housenumber": "4",
                "addr:teryt:simc": 618639,
                "addr:teryt:sym_ul": 10980,
                "phone": "+48 486210047",
                "email": "zsdwgarbatce@poczta.onet.pl",
                "ref:regon": "141415944",
                "ref:vatin": "PL8121875411",
                "operator": "Wojew\u00f3dztwo Mazowieckie",
                "operator:type": "government",
                "tourism": "hostel",
                "note": "Parent RSPO: 25869"
            }
        },
        {
            "id": 28211,
            "type": "Feature",
            "geometry": {
                "type": "Point",
                "coordinates": [
                    21.6290618,
                    51.493310699999995
                ]
            },
            "properties": {
                "isced:level": "4",
                "ref:rspo": 28211,
                "official_name": "Szko\u0142a Policealna w Zespole Szk\u00f3\u0142 Ponadgimnazjalnych Im Jana Kochanowskiego w Garbatce-Letnisku",
                "name": "Szko\u0142a Policealna w Zespole Szk\u00f3\u0142 Ponadgimnazjalnych Im Jana Kochanowskiego w Garbatce-Letnisku",
                "addr:postcode": "26-930",
                "addr:city": "Garbatka-Letnisko",
                "addr:street": "Hanki Lewandowicz",
                "addr:housenumber": "4",
                "addr:teryt:simc": 618639,
                "addr:teryt:sym_ul": 10980,
                "phone": "+48 486210047",
                "email": "zsdwgarbatce@poczta.onet.pl",
                "ref:regon": "140668519",
                "ref:vatin": "PL8121819335",
                "operator": "Wojew\u00f3dztwo Mazowieckie",
                "operator:type": "government",
                "amenity": "college",
                "note": "Parent RSPO: 25869"
            }
        },
        {
            "id": 29990,
            "type": "Feature",
            "geometry": {
                "type": "Point",
                "coordinates": [
                    21.6290618,
                    51.4932807
                ]
            },
            "properties": {
                "isced:level": "3",
                "ref:rspo": 29990,
                "official_name": "Szko\u0142a Bran\u017cowa I Stopnia w Zespole Szk\u00f3\u0142 Drzewnych I Le\u015bnych im.jana Kochanowskiego w Garbatce-Letnisku",
                "name": "Szko\u0142a Bran\u017cowa I Stopnia w Zespole Szk\u00f3\u0142 Drzewnych I Le\u015bnych im.jana Kochanowskiego w Garbatce-Letnisku",
                "addr:postcode": "26-930",
                "addr:city": "Garbatka-Letnisko",
                "addr:street": "Hanki Lewandowicz",
                "addr:housenumber": "4",
                "addr:teryt:simc": 618639,
                "addr:teryt:sym_ul": 10980,
                "phone": "+48 486210047",
                "email": "zsdwgarbatce@poczta.onet.pl",
                "ref:regon": "672967204",
                "ref:vatin": "PL8121819335",
                "operator": "Wojew\u00f3dztwo Mazowieckie",
                "operator:type": "government",
                "amenity": "school",
                "note": "Parent RSPO: 25869"
            }
        },
        {
            "id": 115609,
            "type": "Feature",
            "geometry": {
                "type": "Point",
                "coordinates": [
                    21.6290618,
                    51.4932507
                ]
            },
            "properties": {
                "ref:rspo": 115609,
                "official_name": "Centrum Kszta\u0142cenia Ustawicznego w Zespole Szk\u00f3\u0142 Drzewnych I Le\u015bnych im. Jana Kochanowskiego w Garbatce-Letnisku",
                "name": "Centrum Kszta\u0142cenia Ustawicznego w Zespole Szk\u00f3\u0142 Drzewnych I Le\u015bnych",
                "addr:postcode": "26-930",
                "addr:city": "Garbatka-Letnisko",
                "addr:street": "Hanki Lewandowicz",
                "addr:housenumber": "4",
                "addr:teryt:simc": 618639,
                "addr:teryt:sym_ul": 10980,
                "phone": "+48 486210047",
                "email": "zsdwgarbatce@poczta.onet.pl",
                "website": "http:\/\/drzewna.com",
                "ref:regon": "141953050",
                "ref:vatin": "PL8121892504",
                "operator": "Wojew\u00f3dztwo Mazowieckie",
                "operator:type": "government",
                "fixme": "w zale\u017cno\u015bci od przedmiotu dzia\u0142alno\u015bci (np. amenity=training + training=*, amenity=dancing_school, amenity=language_school, amenity=music_school)",
                "note": "Parent RSPO: 25869"
            }
        },
        {
            "id": 124828,
            "type": "Feature",
            "geometry": {
                "type": "Point",
                "coordinates": [
                    21.6290618,
                    51.493220699999995
                ]
            },
            "properties": {
                "isced:level": "3",
                "ref:rspo": 124828,
                "official_name": "Liceum Og\u00f3lnokszta\u0142c\u0105ce w Zespole Szk\u00f3\u0142 Drzewnych I Le\u015bnych im. Jana Kochanowskiego w Garbatce - Letnisku",
                "name": "Liceum Og\u00f3lnokszta\u0142c\u0105ce w Zespole Szk\u00f3\u0142 Drzewnych I Le\u015bnych",
                "addr:postcode": "26-930",
                "addr:city": "Garbatka-Letnisko",
                "addr:street": "Hanki Lewandowicz",
                "addr:housenumber": "4",
                "addr:teryt:simc": 618639,
                "addr:teryt:sym_ul": 10980,
                "phone": "+48 486210047",
                "email": "zsdwgarbatce@poczta.onet.pl",
                "website": "http:\/\/www.drzewna.com",
                "ref:regon": "147408359",
                "operator": "Wojew\u00f3dztwo Mazowieckie",
                "operator:type": "government",
                "amenity": "school",
                "note": "Parent RSPO: 25869"
            }
        },
        {
            "id": 79091,
            "type": "Feature",
            "geometry": {
                "type": "Point",
                "coordinates": [
                    21.6295499,
                    51.49363
                ]
            },
            "properties": {
                "isced:level": "1;2",
                "ref:rspo": 79091,
                "official_name": "Publiczna Szko\u0142a Podstawowa im. Kr\u00f3lowej Jadwigi w Garbatce-Letnisko",
                "name": "Publiczna Szko\u0142a Podstawowa",
                "addr:postcode": "26-930",
                "addr:city": "Garbatka-Letnisko",
                "addr:street": "Hanki Lewandowicz",
                "addr:housenumber": "2",
                "addr:teryt:simc": 618639,
                "addr:teryt:sym_ul": 10980,
                "phone": "+48 486210173",
                "email": "pspgarbatka@interia.pl",
                "website": "http:\/\/www.psp.garbatkaletnisko.pl",
                "ref:regon": "000234413",
                "ref:vatin": "PL8121879248",
                "operator": "Gmina Garbatka-Letnisko",
                "operator:type": "government",
                "amenity": "school",
                "note": "Children RSPO: 277758"
            }
        },
        {
            "id": 277758,
            "type": "Feature",
            "geometry": {
                "type": "Point",
                "coordinates": [
                    21.56624,
                    51.49571
                ]
            },
            "properties": {
                "isced:level": "1;2",
                "ref:rspo": 277758,
                "official_name": "Publiczna Szko\u0142a Podstawowa im. Kr\u00f3lowej Jadwigi w Garbatce-Letnisko - Szko\u0142a Filialna w Bogucinie",
                "name": "Publiczna Szko\u0142a Podstawowa",
                "addr:postcode": "26-930",
                "addr:place": "Bogucin",
                "addr:housenumber": "53a",
                "addr:teryt:simc": 618562,
                "phone": "+48 486210051",
                "email": "pspgarbatka@interia.pl",
                "ref:regon": "234413000",
                "ref:vatin": "PL8121879248",
                "operator": "Gmina Garbatka-Letnisko",
                "operator:type": "government",
                "amenity": "school",
                "note": "Parent RSPO: 79091"
            }
        },
        {
            "id": 74479,
            "type": "Feature",
            "geometry": {
                "type": "Point",
                "coordinates": [
                    21.62541,
                    51.4964299
                ]
            },
            "properties": {
                "ref:rspo": 74479,
                "official_name": "Przedszkole Samorz\u0105dowe w Garbatce-Letnisku \"Pod Sosnow\u0105 Szyszk\u0105\"",
                "name": "Przedszkole Samorz\u0105dowe w Garbatce-Letnisku \"Pod Sosnow\u0105 Szyszk\u0105\"",
                "addr:postcode": "26-930",
                "addr:city": "Garbatka-Letnisko",
                "addr:street": "Ignacego Krasickiego",
                "addr:housenumber": "4",
                "addr:teryt:simc": 618639,
                "addr:teryt:sym_ul": 9830,
                "phone": "+48 486210177",
                "email": "przedszkole.spss@wp.pl",
                "ref:regon": "670897801",
                "ref:vatin": "PL8121428089",
                "operator": "Gmina Garbatka-Letnisko",
                "operator:type": "government",
                "amenity": "kindergarten"
            }
        }
    ]
}