{
    "type": "FeatureCollection",
    "features": [
        {
            "id": 86157,
            "type": "Feature",
            "geometry": {
                "type": "Point",
                "coordinates": [
                    21.41191,
                    51.71513
                ]
            },
            "properties": {
                "isced:level": "1;2",
                "ref:rspo": 86157,
                "official_name": "Szko\u0142a Podstawowa w Przydworzycach",
                "name": "Szko\u0142a Podstawowa w Przydworzycach",
                "addr:country": "PL",
                "addr:postcode": "26-910",
                "addr:place": "Przydworzyce",
                "addr:housenumber": "37",
                "addr:teryt:simc": 628922,
                "contact:phone": "+48 486237310",
                "contact:email": "psp@przydworzyce.net",
                "contact:website": "http:\/\/www.przydworzyce.net\/",
                "ref:regon": "670740488",
                "ref:vatin": "PL8121796255",
                "operator": "Gmina Magnuszew",
                "operator:type": "government",
                "amenity": "school"
            }
        },
        {
            "id": 17257,
            "type": "Feature",
            "geometry": {
                "type": "Point",
                "coordinates": [
                    21.38346,
                    51.76621
                ]
            },
            "properties": {
                "ref:rspo": 17257,
                "official_name": "Zesp\u00f3\u0142 Szk\u00f3\u0142 I Plac\u00f3wek O\u015bwiatowych w Magnuszewie",
                "name": "Zesp\u00f3\u0142 Szk\u00f3\u0142 I Plac\u00f3wek O\u015bwiatowych w Magnuszewie",
                "addr:country": "PL",
                "addr:postcode": "26-910",
                "addr:city": "Magnuszew",
                "addr:street": "Bohater\u00f3w Wrze\u015bnia",
                "addr:housenumber": "10",
                "addr:teryt:simc": 628833,
                "addr:teryt:sym_ul": 1688,
                "contact:phone": "+48 486217034",
                "contact:email": "zspio.magnuszew@vp.pl",
                "contact:website": "http:\/\/www.magnuszew.edu.pl",
                "ref:regon": "672902587",
                "ref:vatin": "PL8121818784",
                "operator": "Gmina Magnuszew",
                "operator:type": "government",
                "landuse": "education",
                "fixme": "amenity=school, amenity=college albo landuse=education w zale\u017cno\u015bci od tego, jakie plac\u00f3wki wchodz\u0105 w sk\u0142ad zespo\u0142u. Sprawd\u017a, kiedy stosowa\u0107 amenity=* a kiedy landuse=education.",
                "note": "Children RSPO: 109555;109557;109558;109559"
            }
        },
        {
            "id": 109555,
            "type": "Feature",
            "geometry": {
                "type": "Point",
                "coordinates": [
                    21.38346,
                    51.76618
                ]
            },
            "properties": {
                "isced:level": "1;2",
                "ref:rspo": 109555,
                "official_name": "Szko\u0142a Podstawowa Magnuszew",
                "name": "Szko\u0142a Podstawowa Magnuszew",
                "addr:country": "PL",
                "addr:postcode": "26-910",
                "addr:city": "Magnuszew",
                "addr:street": "Bohater\u00f3w Wrze\u015bnia",
                "addr:housenumber": "10",
                "addr:teryt:simc": 628833,
                "addr:teryt:sym_ul": 1688,
                "contact:phone": "+48 486217034",
                "contact:email": "zsipo.magnuszew@vp.pl",
                "contact:website": "http:\/\/www.magnuszew.edu.pl\/",
                "ref:regon": "000725186",
                "operator": "Gmina Magnuszew",
                "operator:type": "government",
                "amenity": "school",
                "note": "Parent RSPO: 17257"
            }
        },
        {
            "id": 109557,
            "type": "Feature",
            "geometry": {
                "type": "Point",
                "coordinates": [
                    21.38346,
                    51.76615
                ]
            },
            "properties": {
                "isced:level": "3",
                "ref:rspo": 109557,
                "official_name": "Liceum Og\u00f3lnokszta\u0142cace Magnuszew",
                "name": "Liceum Og\u00f3lnokszta\u0142cace Magnuszew",
                "addr:country": "PL",
                "addr:postcode": "26-910",
                "addr:city": "Magnuszew",
                "addr:street": "Bohater\u00f3w Wrze\u015bnia",
                "addr:housenumber": "10",
                "addr:teryt:simc": 628833,
                "addr:teryt:sym_ul": 1688,
                "contact:phone": "+48 486217034",
                "contact:email": "zsipo.magnuszew@vp.pl",
                "contact:website": "http:\/\/www.magnuszew.edu.pl\/",
                "ref:regon": "672744303",
                "operator": "Gmina Magnuszew",
                "operator:type": "government",
                "amenity": "school",
                "note": "Parent RSPO: 17257"
            }
        },
        {
            "id": 109558,
            "type": "Feature",
            "geometry": {
                "type": "Point",
                "coordinates": [
                    21.38346,
                    51.76612
                ]
            },
            "properties": {
                "ref:rspo": 109558,
                "official_name": "Publiczne Przedszkole Samorz\u0105dowe Magnuszew",
                "name": "Publiczne Przedszkole Samorz\u0105dowe Magnuszew",
                "addr:country": "PL",
                "addr:postcode": "26-910",
                "addr:city": "Magnuszew",
                "addr:street": "Bohater\u00f3w Wrze\u015bnia",
                "addr:housenumber": "10",
                "addr:teryt:simc": 628833,
                "addr:teryt:sym_ul": 1688,
                "contact:phone": "+48 486217034",
                "contact:email": "zsipo.magnuszew@vp.pl",
                "contact:website": "http:\/\/www.magnuszew.edu.pl\/",
                "ref:regon": "672902593",
                "operator": "Gmina Magnuszew",
                "operator:type": "government",
                "amenity": "kindergarten",
                "note": "Parent RSPO: 17257"
            }
        },
        {
            "id": 109559,
            "type": "Feature",
            "geometry": {
                "type": "Point",
                "coordinates": [
                    21.38346,
                    51.76609
                ]
            },
            "properties": {
                "isced:level": "4",
                "ref:rspo": 109559,
                "official_name": "Szko\u0142a Policealna dla Doros\u0142ych Magnuszew",
                "name": "Szko\u0142a Policealna dla Doros\u0142ych Magnuszew",
                "addr:country": "PL",
                "addr:postcode": "26-910",
                "addr:city": "Magnuszew",
                "addr:street": "Bohater\u00f3w Wrze\u015bnia",
                "addr:housenumber": "10",
                "addr:teryt:simc": 628833,
                "addr:teryt:sym_ul": 1688,
                "contact:phone": "+48 486217034",
                "contact:email": "zsipo.magnuszew@vp.pl",
                "contact:website": "http:\/\/www.magnuszew.edu.pl\/",
                "ref:regon": "141101795",
                "operator": "Gmina Magnuszew",
                "operator:type": "government",
                "amenity": "college",
                "note": "Parent RSPO: 17257"
            }
        },
        {
            "id": 86156,
            "type": "Feature",
            "geometry": {
                "type": "Point",
                "coordinates": [
                    21.29486,
                    51.8074
                ]
            },
            "properties": {
                "isced:level": "1;2",
                "ref:rspo": 86156,
                "official_name": "Szko\u0142a Podstawowa w Rozniszewie",
                "name": "Szko\u0142a Podstawowa w Rozniszewie",
                "addr:country": "PL",
                "addr:postcode": "26-910",
                "addr:place": "Rozniszew",
                "addr:housenumber": "29",
                "addr:teryt:simc": 628945,
                "contact:phone": "+48 486219005",
                "contact:email": "psprozniszew@nq.pl",
                "contact:website": "http:\/\/rozniszew.pl",
                "ref:regon": "001146349",
                "ref:vatin": "PL8121726071",
                "operator": "Gmina Magnuszew",
                "operator:type": "government",
                "amenity": "school"
            }
        },
        {
            "id": 17385,
            "type": "Feature",
            "geometry": {
                "type": "Point",
                "coordinates": [
                    21.34147,
                    51.8138099
                ]
            },
            "properties": {
                "isced:level": "1;2",
                "ref:rspo": 17385,
                "official_name": "Szko\u0142a Podstawowa w Chmielewie",
                "name": "Szko\u0142a Podstawowa w Chmielewie",
                "addr:country": "PL",
                "addr:postcode": "26-910",
                "addr:place": "Chmielew",
                "addr:housenumber": "20A",
                "addr:teryt:simc": 628661,
                "contact:phone": "+48 486219451",
                "contact:email": "psp.chmielew@wp.pl",
                "contact:website": "http:\/\/www.psp.chmielew.pl\/",
                "ref:regon": "670740436",
                "ref:vatin": "PL8121796522",
                "operator": "Gmina Magnuszew",
                "operator:type": "government",
                "amenity": "school"
            }
        },
        {
            "id": 262698,
            "type": "Feature",
            "geometry": {
                "type": "Point",
                "coordinates": [
                    21.2959299,
                    51.84013
                ]
            },
            "properties": {
                "isced:level": "1;2",
                "ref:rspo": 262698,
                "official_name": "Szko\u0142a Podstawowa w Mniszewie",
                "name": "Szko\u0142a Podstawowa w Mniszewie",
                "addr:country": "PL",
                "addr:postcode": "26-910",
                "addr:place": "Mniszew",
                "addr:housenumber": "41",
                "addr:teryt:simc": 628856,
                "contact:phone": "+48 486219054",
                "contact:email": "gimnazjum.mniszew@wp.pl",
                "contact:website": "http:\/\/spmniszew.szkolnastrona.pl",
                "ref:regon": "368054232",
                "operator": "Gmina Magnuszew",
                "operator:type": "government",
                "amenity": "school"
            }
        }
    ]
}