{
    "type": "FeatureCollection",
    "features": [
        {
            "id": 62361,
            "type": "Feature",
            "geometry": {
                "type": "Point",
                "coordinates": [
                    21.36631,
                    51.56844
                ]
            },
            "properties": {
                "isced:level": "1;2",
                "ref:rspo": 62361,
                "official_name": "Publiczna Szko\u0142a Podstawowa im. Bat.ch\u0142opskich w Ursynowie",
                "name": "Publiczna Szko\u0142a Podstawowa",
                "addr:country": "PL",
                "addr:postcode": "26-903",
                "addr:place": "Ursyn\u00f3w",
                "addr:housenumber": "38A",
                "addr:teryt:simc": 619857,
                "contact:phone": "+48 486230185",
                "contact:email": "stow.naszedzieci@onet.eu",
                "ref:regon": "001145479",
                "ref:vatin": "PL8121752789",
                "operator": "Stowarzyszenie Na Rzecz Ekorozwoju Wsi - Nasze Dzieci",
                "operator:type": "ngo",
                "amenity": "school"
            }
        },
        {
            "id": 11914,
            "type": "Feature",
            "geometry": {
                "type": "Point",
                "coordinates": [
                    21.35232,
                    51.60015
                ]
            },
            "properties": {
                "ref:rspo": 11914,
                "official_name": "Publiczne Przedszkole w Brz\u00f3zie",
                "name": "Publiczne Przedszkole w Brz\u00f3zie",
                "addr:country": "PL",
                "addr:postcode": "26-903",
                "addr:city": "Brz\u00f3za",
                "addr:street": "Aleja Lipowa",
                "addr:housenumber": "4",
                "addr:teryt:simc": 619188,
                "addr:teryt:sym_ul": 30312,
                "contact:phone": "+48 486230110",
                "contact:email": "pp67@interie.eu",
                "ref:regon": "670996443",
                "ref:vatin": "PL8121799064",
                "operator": "Gmina G\u0142owacz\u00f3w",
                "operator:type": "government",
                "amenity": "kindergarten"
            }
        },
        {
            "id": 68709,
            "type": "Feature",
            "geometry": {
                "type": "Point",
                "coordinates": [
                    21.35232,
                    51.60012
                ]
            },
            "properties": {
                "isced:level": "1;2",
                "ref:rspo": 68709,
                "official_name": "Publiczna Szko\u0142a Podstawowa Im W.b. G\u0142owackiego w Brz\u00f3zie",
                "name": "Publiczna Szko\u0142a Podstawowa Im W.b. G\u0142owackiego w Brz\u00f3zie",
                "addr:country": "PL",
                "addr:postcode": "26-903",
                "addr:city": "Brz\u00f3za",
                "addr:street": "Aleja Lipowa",
                "addr:housenumber": "4",
                "addr:teryt:simc": 619188,
                "addr:teryt:sym_ul": 30312,
                "contact:phone": "+48 486230177",
                "contact:email": "szkola.brzoza@gmail.com",
                "contact:website": "http:\/\/www.szkolabrzoza.pl",
                "ref:regon": "001146450",
                "ref:vatin": "PL8121799070",
                "operator": "Gmina G\u0142owacz\u00f3w",
                "operator:type": "government",
                "amenity": "school"
            }
        },
        {
            "id": 9225,
            "type": "Feature",
            "geometry": {
                "type": "Point",
                "coordinates": [
                    21.34589,
                    51.60171
                ]
            },
            "properties": {
                "isced:level": "1;2",
                "ref:rspo": 9225,
                "official_name": "Publiczna Szko\u0142a Podstawowa im.t. Ko\u015bciuszki w G\u0142owaczowie",
                "name": "Publiczna Szko\u0142a Podstawowa im.t. Ko\u015bciuszki w G\u0142owaczowie",
                "addr:country": "PL",
                "addr:postcode": "26-903",
                "addr:city": "G\u0142owacz\u00f3w",
                "addr:street": "Warecka",
                "addr:housenumber": "10",
                "addr:teryt:simc": 619366,
                "addr:teryt:sym_ul": 23649,
                "contact:phone": "+48 486231208",
                "contact:email": "sekretariat@pspglowaczow.pl",
                "contact:website": "http:\/\/www.pspglowaczow.pl",
                "ref:regon": "000675689",
                "ref:vatin": "PL8121798716",
                "operator": "Gmina G\u0142owacz\u00f3w",
                "operator:type": "government",
                "amenity": "school"
            }
        },
        {
            "id": 11750,
            "type": "Feature",
            "geometry": {
                "type": "Point",
                "coordinates": [
                    21.34589,
                    51.601679999999995
                ]
            },
            "properties": {
                "ref:rspo": 11750,
                "official_name": "Publiczne Przedszkole w G\u0142owaczowie",
                "name": "Publiczne Przedszkole w G\u0142owaczowie",
                "addr:country": "PL",
                "addr:postcode": "26-903",
                "addr:city": "G\u0142owacz\u00f3w",
                "addr:street": "Warecka",
                "addr:housenumber": "10",
                "addr:teryt:simc": 619366,
                "addr:teryt:sym_ul": 23649,
                "contact:phone": "+48 486233179",
                "contact:email": "przedszkoleglowaczow@wp.pl",
                "ref:regon": "670996450",
                "ref:vatin": "PL8121799058",
                "operator": "Gmina G\u0142owacz\u00f3w",
                "operator:type": "government",
                "amenity": "kindergarten"
            }
        }
    ]
}