{
    "type": "FeatureCollection",
    "features": [
        {
            "id": 5898,
            "type": "Feature",
            "geometry": {
                "type": "Point",
                "coordinates": [
                    21.62349,
                    51.55691
                ]
            },
            "properties": {
                "isced:level": "1;2",
                "ref:rspo": 5898,
                "official_name": "Publiczna Szko\u0142a Podstawowa w Brze\u017anicy",
                "name": "Publiczna Szko\u0142a Podstawowa w Brze\u017anicy",
                "addr:country": "PL",
                "addr:postcode": "26-900",
                "addr:place": "Brze\u017anica",
                "addr:housenumber": "9",
                "addr:teryt:sym_ul": 627331,
                "contact:phone": "+48 486247122",
                "contact:email": "pspbrzeznica@wp.pl",
                "contact:website": "http:\/\/www.pspbrzeznica.net",
                "ref:regon": "000837011",
                "ref:vatin": "PL8121795221",
                "operator": "Gmina Kozienice",
                "operator:type": "government",
                "amenity": "school"
            }
        },
        {
            "id": 5895,
            "type": "Feature",
            "geometry": {
                "type": "Point",
                "coordinates": [
                    21.57211,
                    51.56855
                ]
            },
            "properties": {
                "isced:level": "1;2",
                "ref:rspo": 5895,
                "official_name": "Publiczna Szko\u0142a Podstawowa w Janikowie",
                "name": "Publiczna Szko\u0142a Podstawowa w Janikowie",
                "addr:country": "PL",
                "addr:postcode": "26-900",
                "addr:place": "Janik\u00f3w",
                "addr:housenumber": "1",
                "addr:teryt:sym_ul": 627450,
                "contact:phone": "+48 486142614",
                "contact:email": "szkolajanikow@wp.pl",
                "contact:website": "http:\/\/www.pspjanikow.superszkolna.pl",
                "ref:regon": "000837005",
                "ref:vatin": "PL8121794670",
                "operator": "Gmina Kozienice",
                "operator:type": "government",
                "amenity": "school"
            }
        },
        {
            "id": 5899,
            "type": "Feature",
            "geometry": {
                "type": "Point",
                "coordinates": [
                    21.4914999,
                    51.57166
                ]
            },
            "properties": {
                "isced:level": "1;2",
                "ref:rspo": 5899,
                "official_name": "Publiczna Szko\u0142a Podstawowa w Stanis\u0142awicach",
                "name": "Publiczna Szko\u0142a Podstawowa w Stanis\u0142awicach",
                "addr:country": "PL",
                "addr:postcode": "26-900",
                "addr:place": "Stanis\u0142awice",
                "addr:housenumber": "94",
                "addr:teryt:sym_ul": 627779,
                "contact:phone": "+48 486142386",
                "contact:email": "pspstany@poczta.onet.pl",
                "ref:regon": "000836980",
                "ref:vatin": "PL8121795178",
                "operator": "Gmina Kozienice",
                "operator:type": "government",
                "amenity": "school"
            }
        },
        {
            "id": 133701,
            "type": "Feature",
            "geometry": {
                "type": "Point",
                "coordinates": [
                    21.55773,
                    51.57849
                ]
            },
            "properties": {
                "isced:level": "1;2",
                "ref:rspo": 133701,
                "official_name": "Publiczna Szko\u0142a Podstawowa Nr 4 im. Jana Paw\u0142a II w Kozienicach",
                "name": "Publiczna Szko\u0142a Podstawowa Nr 4",
                "addr:country": "PL",
                "addr:postcode": "26-900",
                "addr:city": "Kozienice",
                "addr:street": "Nowy \u015awiat",
                "addr:housenumber": "24",
                "addr:teryt:simc": 14535,
                "addr:teryt:sym_ul": 973524,
                "contact:phone": "+48 486145201",
                "contact:email": "sekretariat@psp4kozienice.pl",
                "contact:website": "http:\/\/www.psp4kozienice.pl",
                "ref:regon": "367549575",
                "ref:vatin": "PL8121919031",
                "operator": "Gmina Kozienice",
                "operator:type": "government",
                "amenity": "school"
            }
        },
        {
            "id": 74169,
            "type": "Feature",
            "geometry": {
                "type": "Point",
                "coordinates": [
                    21.55773,
                    51.57846
                ]
            },
            "properties": {
                "ref:rspo": 74169,
                "official_name": "Biblioteka Pedagogiczna w Radomiu Filia w Kozienicach",
                "name": "Biblioteka Pedagogiczna w Radomiu Filia w Kozienicach",
                "addr:country": "PL",
                "addr:postcode": "26-900",
                "addr:city": "Kozienice",
                "addr:street": "Nowy \u015awiat",
                "addr:housenumber": "24",
                "addr:teryt:simc": 14535,
                "addr:teryt:sym_ul": 973524,
                "contact:phone": "+48 486145440",
                "contact:email": "kozienice@bp.radom.pl",
                "contact:website": "http:\/\/www.kozienice.bp.radom.pl",
                "ref:regon": "930868000",
                "ref:vatin": "PL7961063028",
                "operator": "Wojew\u00f3dztwo Mazowieckie",
                "operator:type": "government",
                "amenity": "library",
                "note": "Parent RSPO: 28003"
            }
        },
        {
            "id": 5890,
            "type": "Feature",
            "geometry": {
                "type": "Point",
                "coordinates": [
                    21.54897,
                    51.58127
                ]
            },
            "properties": {
                "isced:level": "1;2",
                "ref:rspo": 5890,
                "official_name": "Publiczna Szko\u0142a Podstawowa Nr 1 Z Oddzia\u0142ami Integracyjnymi im. Urszuli Kochanowskiej w Kozienicach",
                "name": "Publiczna Szko\u0142a Podstawowa Nr 1 Z Oddzia\u0142ami Integracyjnymi",
                "addr:country": "PL",
                "addr:postcode": "26-900",
                "addr:city": "Kozienice",
                "addr:street": "Tadeusza Ko\u015bciuszki",
                "addr:housenumber": "1",
                "addr:teryt:simc": 9582,
                "addr:teryt:sym_ul": 973524,
                "contact:phone": "+48 486145370",
                "contact:email": "psp1kozienice@wp.pl",
                "contact:website": "http:\/\/www.psp1.kozienice.pl",
                "ref:regon": "000836951",
                "ref:vatin": "PL8121795238",
                "operator": "Gmina Kozienice",
                "operator:type": "government",
                "amenity": "school"
            }
        },
        {
            "id": 5897,
            "type": "Feature",
            "geometry": {
                "type": "Point",
                "coordinates": [
                    21.6134,
                    51.58508
                ]
            },
            "properties": {
                "isced:level": "1;2",
                "ref:rspo": 5897,
                "official_name": "Publiczna Szko\u0142a Podstawowa w W\u00f3lce Tyrzy\u0144skiej",
                "name": "Publiczna Szko\u0142a Podstawowa w W\u00f3lce Tyrzy\u0144skiej",
                "addr:country": "PL",
                "addr:postcode": "26-900",
                "addr:place": "W\u00f3lka Tyrzy\u0144ska",
                "addr:housenumber": "21",
                "addr:teryt:sym_ul": 627897,
                "contact:phone": "+48 486142882",
                "contact:email": "pspwolkatyrzynska@op.pl",
                "contact:website": "http:\/\/www.pspwolkatyrzyns.like.pl",
                "ref:regon": "000837028",
                "ref:vatin": "PL8121795184",
                "operator": "Gmina Kozienice",
                "operator:type": "government",
                "amenity": "school"
            }
        },
        {
            "id": 4125,
            "type": "Feature",
            "geometry": {
                "type": "Point",
                "coordinates": [
                    21.54737,
                    51.58527
                ]
            },
            "properties": {
                "ref:rspo": 4125,
                "official_name": "Publiczne Przedszkole Nr 4 w Kozienicach",
                "name": "Publiczne Przedszkole Nr 4 w Kozienicach",
                "addr:country": "PL",
                "addr:postcode": "26-900",
                "addr:city": "Kozienice",
                "addr:street": "Konstytucji 3 Maja",
                "addr:housenumber": "4",
                "addr:teryt:simc": 9213,
                "addr:teryt:sym_ul": 973524,
                "contact:phone": "+48 486142664",
                "contact:email": "dyrektor@przedszkole4kozienice.pl",
                "contact:website": "http:\/\/www.przedszkole4kozienice.pl",
                "ref:regon": "142707057",
                "ref:vatin": "PL8121907163",
                "operator": "Gmina Kozienice",
                "operator:type": "government",
                "amenity": "kindergarten"
            }
        },
        {
            "id": 4126,
            "type": "Feature",
            "geometry": {
                "type": "Point",
                "coordinates": [
                    21.55295,
                    51.58546
                ]
            },
            "properties": {
                "ref:rspo": 4126,
                "official_name": "Publiczne Przedszkole Nr 5 im. Wandy Chotomskiej w Kozienicach",
                "name": "Publiczne Przedszkole Nr 5",
                "addr:country": "PL",
                "addr:postcode": "26-900",
                "addr:city": "Kozienice",
                "addr:street": "Batalion\u00f3w Ch\u0142opskich",
                "addr:housenumber": "11",
                "addr:teryt:simc": 868,
                "addr:teryt:sym_ul": 973524,
                "contact:phone": "+48 486143880",
                "contact:email": "sekretariat@przedszkole5kozienice.pl",
                "contact:website": "http:\/\/www.przedszkole5kozienice.pl",
                "ref:regon": "142707181",
                "ref:vatin": "PL8121907186",
                "operator": "Gmina Kozienice",
                "operator:type": "government",
                "amenity": "kindergarten"
            }
        },
        {
            "id": 133702,
            "type": "Feature",
            "geometry": {
                "type": "Point",
                "coordinates": [
                    21.54411,
                    51.58558
                ]
            },
            "properties": {
                "isced:level": "1;2",
                "ref:rspo": 133702,
                "official_name": "Publiczna Szko\u0142a Podstawowa Nr 2 im. Kr\u00f3la Zygmunta Starego w Kozienicach",
                "name": "Publiczna Szko\u0142a Podstawowa Nr 2",
                "addr:country": "PL",
                "addr:postcode": "26-900",
                "addr:city": "Kozienice",
                "addr:street": "G\u0142owaczowska",
                "addr:housenumber": "33",
                "addr:teryt:simc": 5630,
                "addr:teryt:sym_ul": 973524,
                "contact:phone": "+48 486142230",
                "contact:email": "kozienicegim2@poczta.onet.pl",
                "contact:website": "http:\/\/www.psp2kozienice.pl",
                "ref:regon": "367550992",
                "ref:vatin": "PL8121919025",
                "operator": "Gmina Kozienice",
                "operator:type": "government",
                "amenity": "school"
            }
        },
        {
            "id": 4094,
            "type": "Feature",
            "geometry": {
                "type": "Point",
                "coordinates": [
                    21.54405,
                    51.5862
                ]
            },
            "properties": {
                "ref:rspo": 4094,
                "official_name": "Publiczne Przedszkole Nr 3 Z Oddzia\u0142ami Integracyjnymi w Kozienicach",
                "name": "Publiczne Przedszkole Nr 3 Z Oddzia\u0142ami Integracyjnymi w Kozienicach",
                "addr:country": "PL",
                "addr:postcode": "26-900",
                "addr:city": "Kozienice",
                "addr:street": "G\u0142owaczowska",
                "addr:housenumber": "45",
                "addr:teryt:simc": 5630,
                "addr:teryt:sym_ul": 973524,
                "contact:phone": "+48 486148561",
                "contact:email": "monika.pyc75@wp.pl",
                "contact:website": "http:\/\/www.pp3kozienice.pl",
                "ref:regon": "142706945",
                "ref:vatin": "PL8121907157",
                "operator": "Gmina Kozienice",
                "operator:type": "government",
                "amenity": "kindergarten"
            }
        },
        {
            "id": 4131,
            "type": "Feature",
            "geometry": {
                "type": "Point",
                "coordinates": [
                    21.55163,
                    51.58738
                ]
            },
            "properties": {
                "ref:rspo": 4131,
                "official_name": "Ognisko Pracy Pozaszkolnej\"Ogr\u00f3d Jordanowski\" w Kozienicach",
                "name": "Ognisko Pracy Pozaszkolnej\"Ogr\u00f3d Jordanowski\" w Kozienicach",
                "addr:country": "PL",
                "addr:postcode": "26-900",
                "addr:city": "Kozienice",
                "addr:street": "Jana Kochanowskiego",
                "addr:housenumber": "1",
                "addr:teryt:simc": 8728,
                "addr:teryt:sym_ul": 973524,
                "contact:phone": "+48 486142556",
                "contact:email": "ogrodjordanowski@wp.pl",
                "contact:website": "http:\/\/www.oppogrodjordanowski.pl",
                "ref:regon": "672749909",
                "ref:vatin": "PL8121795267",
                "operator": "Gmina Kozienice",
                "operator:type": "government",
                "amenity": "community_centre",
                "community_centre:for": "child;juvenile"
            }
        },
        {
            "id": 106221,
            "type": "Feature",
            "geometry": {
                "type": "Point",
                "coordinates": [
                    21.54788,
                    51.58744
                ]
            },
            "properties": {
                "isced:level": "4",
                "ref:rspo": 106221,
                "official_name": "Szko\u0142a Policealna dla Doros\u0142ych Towarzystwa Wiedzy Powszechnej w Kozienicach",
                "name": "Szko\u0142a Policealna dla Doros\u0142ych Towarzystwa Wiedzy Powszechnej w Kozienicach",
                "addr:country": "PL",
                "addr:postcode": "26-900",
                "addr:city": "Kozienice",
                "addr:street": "Warszawska",
                "addr:housenumber": "19",
                "addr:teryt:simc": 23682,
                "addr:teryt:sym_ul": 973524,
                "contact:phone": "+48 486142608",
                "contact:email": "lo@kozienicepowiat.pl",
                "ref:regon": "146469880",
                "ref:vatin": "PL6571748249",
                "operator": "Dane Do Uzupe\u0142nienia",
                "operator:type": "private",
                "amenity": "college"
            }
        },
        {
            "id": 20495,
            "type": "Feature",
            "geometry": {
                "type": "Point",
                "coordinates": [
                    21.5465899,
                    51.58755
                ]
            },
            "properties": {
                "isced:level": "3",
                "ref:rspo": 20495,
                "official_name": "I Liceum Og\u00f3lnokszta\u0142c\u0105ce im.stefana Czarnieckiego w Kozienicach",
                "name": "I Liceum Og\u00f3lnokszta\u0142c\u0105ce im.stefana Czarnieckiego w Kozienicach",
                "addr:country": "PL",
                "addr:postcode": "26-900",
                "addr:city": "Kozienice",
                "addr:street": "Warszawska",
                "addr:housenumber": "25",
                "addr:teryt:simc": 23682,
                "addr:teryt:sym_ul": 973524,
                "contact:phone": "+48 486142608",
                "contact:email": "lo@kozienicepowiat.pl",
                "contact:website": "http:\/\/lo-kozienice.edu.pl",
                "ref:regon": "000725163",
                "ref:vatin": "PL8121055659",
                "operator": "Powiat Kozienicki",
                "operator:type": "government",
                "amenity": "school"
            }
        },
        {
            "id": 4130,
            "type": "Feature",
            "geometry": {
                "type": "Point",
                "coordinates": [
                    21.54573,
                    51.58841
                ]
            },
            "properties": {
                "ref:rspo": 4130,
                "official_name": "Szko\u0142a Muzyczna I Stopnia w Kozienicach",
                "name": "Szko\u0142a Muzyczna I Stopnia w Kozienicach",
                "addr:country": "PL",
                "addr:postcode": "26-900",
                "addr:city": "Kozienice",
                "addr:street": "Warszawska",
                "addr:housenumber": "29",
                "addr:teryt:simc": 23682,
                "addr:teryt:sym_ul": 973524,
                "contact:phone": "+48 486145082",
                "contact:email": "sekretariat@muzycznakozienice.pl",
                "contact:website": "http:\/\/www.muzycznakozienice.pl",
                "ref:regon": "141890556",
                "ref:vatin": "PL8121889732",
                "operator": "Gmina Kozienice",
                "operator:type": "government",
                "amenity": "music_school"
            }
        },
        {
            "id": 20089,
            "type": "Feature",
            "geometry": {
                "type": "Point",
                "coordinates": [
                    21.53089,
                    51.58872
                ]
            },
            "properties": {
                "ref:rspo": 20089,
                "official_name": "Zak\u0142ad Doskonalenia Zawodowego w Kielcach Centrum Kszta\u0142cenia Zawodowego w Kozienicach",
                "name": "Zak\u0142ad Doskonalenia Zawodowego w Kielcach Centrum Kszta\u0142cenia Zawodowego w Kozienicach",
                "addr:country": "PL",
                "addr:postcode": "26-900",
                "addr:city": "Kozienice",
                "addr:street": "G\u0142owaczowska",
                "addr:housenumber": "41",
                "addr:teryt:simc": 5630,
                "addr:teryt:sym_ul": 973524,
                "contact:phone": "+48 486146772",
                "contact:email": "kozienice-szkola@zdz.kielce.pl",
                "ref:regon": "146317761",
                "operator": "Dane Do Uzupe\u0142nienia",
                "operator:type": "private"
            }
        },
        {
            "id": 22506,
            "type": "Feature",
            "geometry": {
                "type": "Point",
                "coordinates": [
                    21.53089,
                    51.58869
                ]
            },
            "properties": {
                "isced:level": "3",
                "ref:rspo": 22506,
                "official_name": "Niepubliczne Technikum Zawodowe w Kozienicach Zak\u0142adu Doskonalenia Zawodowego w Kielcach",
                "name": "Niepubliczne Technikum Zawodowe w Kozienicach Zak\u0142adu Doskonalenia Zawodowego w Kielcach",
                "addr:country": "PL",
                "addr:postcode": "26-900",
                "addr:city": "Kozienice",
                "addr:street": "G\u0142owaczowska",
                "addr:housenumber": "41",
                "addr:teryt:simc": 5630,
                "addr:teryt:sym_ul": 973524,
                "contact:phone": "+48 486146772",
                "contact:email": "kozienice-szkola@zdz.kielce.pl",
                "ref:regon": "146330282",
                "ref:vatin": "PL6570008869",
                "operator": "Zak\u0142ad Doskonalenia Zawodowego W Kielcach",
                "operator:type": "ngo",
                "amenity": "school"
            }
        },
        {
            "id": 22598,
            "type": "Feature",
            "geometry": {
                "type": "Point",
                "coordinates": [
                    21.53089,
                    51.588660000000004
                ]
            },
            "properties": {
                "isced:level": "3",
                "ref:rspo": 22598,
                "official_name": "Niepubliczne Liceum Og\u00f3lnokszta\u0142c\u0105ce dla Doros\u0142ych w Kozienicach Zak\u0142adu Doskonalenia Zawodowego w Kielcach",
                "name": "Niepubliczne Liceum Og\u00f3lnokszta\u0142c\u0105ce dla Doros\u0142ych w Kozienicach Zak\u0142adu Doskonalenia Zawodowego w Kielcach",
                "addr:country": "PL",
                "addr:postcode": "26-900",
                "addr:city": "Kozienice",
                "addr:street": "G\u0142owaczowska",
                "addr:housenumber": "41",
                "addr:teryt:simc": 5630,
                "addr:teryt:sym_ul": 973524,
                "contact:phone": "+48 486146772",
                "contact:email": "kozienice-szkola@zdz.kielce.pl",
                "contact:website": "http:\/\/www.szkolykozienice.zdz.kielce.pl",
                "ref:regon": "146330342",
                "ref:vatin": "PL6570008869",
                "operator": "Zak\u0142ad Doskonalenia Zawodowego W Kielcach",
                "operator:type": "ngo",
                "amenity": "school"
            }
        },
        {
            "id": 24343,
            "type": "Feature",
            "geometry": {
                "type": "Point",
                "coordinates": [
                    21.53089,
                    51.58863
                ]
            },
            "properties": {
                "isced:level": "3",
                "ref:rspo": 24343,
                "official_name": "Niepubliczna Bran\u017cowa Szko\u0142a I Stopnia w Kozienicach",
                "name": "Niepubliczna Bran\u017cowa Szko\u0142a I Stopnia w Kozienicach",
                "addr:country": "PL",
                "addr:postcode": "26-900",
                "addr:city": "Kozienice",
                "addr:street": "G\u0142owaczowska",
                "addr:housenumber": "41",
                "addr:teryt:simc": 5630,
                "addr:teryt:sym_ul": 973524,
                "contact:phone": "+48 486146772",
                "contact:email": "kozienice-szkola@zdz.kielce.pl",
                "contact:website": "http:\/\/www.szkolykozienice.zdz.kielce.pl",
                "ref:regon": "146331413",
                "ref:vatin": "PL6570008869",
                "operator": "Zak\u0142ad Doskonalenia Zawodowego W Kielcach",
                "operator:type": "ngo",
                "amenity": "school"
            }
        },
        {
            "id": 121329,
            "type": "Feature",
            "geometry": {
                "type": "Point",
                "coordinates": [
                    21.53089,
                    51.5886
                ]
            },
            "properties": {
                "isced:level": "4",
                "ref:rspo": 121329,
                "official_name": "Niepubliczna Szko\u0142a Policealna w Kozienicach Zak\u0142adu Doskonalenia Zawodowego w Kielcach",
                "name": "Niepubliczna Szko\u0142a Policealna w Kozienicach Zak\u0142adu Doskonalenia Zawodowego w Kielcach",
                "addr:country": "PL",
                "addr:postcode": "26-900",
                "addr:city": "Kozienice",
                "addr:street": "G\u0142owaczowska",
                "addr:housenumber": "41",
                "addr:teryt:simc": 5630,
                "addr:teryt:sym_ul": 973524,
                "contact:phone": "+48 486146772",
                "contact:email": "ikrakowiak@zdz.kielce.pl",
                "contact:website": "http:\/\/www.szkolykozienice.zdz.kielce.pl",
                "ref:regon": "146284040",
                "ref:vatin": "PL6570008869",
                "operator": "Zak\u0142ad Doskonalenia Zawodowego W Kielcach",
                "operator:type": "ngo",
                "amenity": "college"
            }
        },
        {
            "id": 263884,
            "type": "Feature",
            "geometry": {
                "type": "Point",
                "coordinates": [
                    21.53089,
                    51.588570000000004
                ]
            },
            "properties": {
                "isced:level": "1;2",
                "ref:rspo": 263884,
                "official_name": "Niepubliczna Szko\u0142a Podstawowa dla Doros\u0142ych w Kozienicach",
                "name": "Niepubliczna Szko\u0142a Podstawowa dla Doros\u0142ych w Kozienicach",
                "addr:country": "PL",
                "addr:postcode": "26-900",
                "addr:city": "Kozienice",
                "addr:street": "G\u0142owaczowska",
                "addr:housenumber": "41",
                "addr:teryt:simc": 5630,
                "addr:teryt:sym_ul": 973524,
                "contact:phone": "+48 486146772",
                "contact:email": "kozienice-szkola@zdz.kielce.pl",
                "contact:website": "http:\/\/www.szkolykozienice.zdz.kielce.pl",
                "ref:regon": "368233377",
                "ref:vatin": "PL6570008869",
                "operator": "Zak\u0142ad Doskonalenia Zawodowego W Kielcach",
                "operator:type": "ngo",
                "amenity": "school"
            }
        },
        {
            "id": 275375,
            "type": "Feature",
            "geometry": {
                "type": "Point",
                "coordinates": [
                    21.53089,
                    51.58854
                ]
            },
            "properties": {
                "isced:level": "3",
                "ref:rspo": 275375,
                "official_name": "Niepubliczna Bran\u017cowa Szko\u0142a II Stopnia w Kozienicach Zak\u0142adu Doskonalenia Zawodowego w Kielcach",
                "name": "Niepubliczna Bran\u017cowa Szko\u0142a II Stopnia w Kozienicach Zak\u0142adu Doskonalenia Zawodowego w Kielcach",
                "addr:country": "PL",
                "addr:postcode": "26-900",
                "addr:city": "Kozienice",
                "addr:street": "G\u0142owaczowska",
                "addr:housenumber": "41",
                "addr:teryt:simc": 5630,
                "addr:teryt:sym_ul": 973524,
                "contact:phone": "+48 486146772",
                "contact:email": "kozienice-szkola@zdz.kielce.pl",
                "ref:regon": "386829280",
                "ref:vatin": "PL6570008869",
                "operator": "Zak\u0142ad Doskonalenia Zawodowego W Kielcach",
                "operator:type": "ngo",
                "amenity": "school"
            }
        },
        {
            "id": 4093,
            "type": "Feature",
            "geometry": {
                "type": "Point",
                "coordinates": [
                    21.53105,
                    51.58996
                ]
            },
            "properties": {
                "ref:rspo": 4093,
                "official_name": "Publiczne Przedszkole Nr 2 w Kozienicach",
                "name": "Publiczne Przedszkole Nr 2 w Kozienicach",
                "addr:country": "PL",
                "addr:postcode": "26-900",
                "addr:city": "Kozienice",
                "addr:street": "Stefana \u017beromskiego",
                "addr:housenumber": "3",
                "addr:teryt:simc": 26469,
                "addr:teryt:sym_ul": 973524,
                "contact:phone": "+48 486144677",
                "contact:email": "mankowskalucyna@gmail.com",
                "contact:website": "http:\/\/www.pp2kozienice.pl",
                "ref:regon": "142706974",
                "ref:vatin": "PL8121907134",
                "operator": "Gmina Kozienice",
                "operator:type": "government",
                "amenity": "kindergarten"
            }
        },
        {
            "id": 5891,
            "type": "Feature",
            "geometry": {
                "type": "Point",
                "coordinates": [
                    21.53628,
                    51.5903599
                ]
            },
            "properties": {
                "isced:level": "1;2",
                "ref:rspo": 5891,
                "official_name": "Publiczna Szko\u0142a Podstawowa Nr 3 Z Oddzia\u0142ami Integracyjnymi im. Jana Kochanowskiego w Kozienicach",
                "name": "Publiczna Szko\u0142a Podstawowa Nr 3 Z Oddzia\u0142ami Integracyjnymi",
                "addr:country": "PL",
                "addr:postcode": "26-900",
                "addr:city": "Kozienice",
                "addr:street": "Stanis\u0142awa Konarskiego",
                "addr:housenumber": "4",
                "addr:teryt:simc": 9111,
                "addr:teryt:sym_ul": 973524,
                "contact:phone": "+48 486144139",
                "contact:email": "dyrektor@psp3kozienice.pl",
                "contact:website": "http:\/\/www.psp3kozienice.pl",
                "ref:regon": "000836968",
                "ref:vatin": "PL8121763505",
                "operator": "Gmina Kozienice",
                "operator:type": "government",
                "amenity": "school"
            }
        },
        {
            "id": 4141,
            "type": "Feature",
            "geometry": {
                "type": "Point",
                "coordinates": [
                    21.53677,
                    51.59149
                ]
            },
            "properties": {
                "ref:rspo": 4141,
                "official_name": "Publiczne Przedszkole Nr 1 \"Pod Topol\u0105\" w Kozienicach",
                "name": "Publiczne Przedszkole Nr 1 \"Pod Topol\u0105\" w Kozienicach",
                "addr:country": "PL",
                "addr:postcode": "26-900",
                "addr:city": "Kozienice",
                "addr:street": "Miko\u0142aja Kopernika",
                "addr:housenumber": "11",
                "addr:teryt:simc": 9282,
                "addr:teryt:sym_ul": 973524,
                "contact:phone": "+48 486113201",
                "contact:email": "przedszkole1.kozienice@wp.pl",
                "contact:website": "http:\/\/www.podtopolanr1.pl",
                "ref:regon": "142707229",
                "ref:vatin": "PL8121907128",
                "operator": "Gmina Kozienice",
                "operator:type": "government",
                "amenity": "kindergarten"
            }
        },
        {
            "id": 11826,
            "type": "Feature",
            "geometry": {
                "type": "Point",
                "coordinates": [
                    21.53688,
                    51.59544
                ]
            },
            "properties": {
                "isced:level": "3",
                "ref:rspo": 11826,
                "official_name": "Liceum Og\u00f3lnokszta\u0142c\u0105ce dla Doros\u0142ych w Kozienicach",
                "name": "Liceum Og\u00f3lnokszta\u0142c\u0105ce dla Doros\u0142ych w Kozienicach",
                "addr:country": "PL",
                "addr:postcode": "26-900",
                "addr:city": "Kozienice",
                "addr:street": "Warszawska",
                "addr:housenumber": "72",
                "addr:teryt:simc": 23682,
                "addr:teryt:sym_ul": 973524,
                "contact:phone": "+48 602122894",
                "contact:email": "kagiedyk@tlen.pl",
                "ref:regon": "146293227",
                "operator": "Dane Do Uzupe\u0142nienia",
                "operator:type": "private",
                "amenity": "school"
            }
        },
        {
            "id": 25064,
            "type": "Feature",
            "geometry": {
                "type": "Point",
                "coordinates": [
                    21.53688,
                    51.59541
                ]
            },
            "properties": {
                "ref:rspo": 25064,
                "official_name": "Zesp\u00f3\u0142 Szk\u00f3\u0142 Nr 1 im.\nLegion\u00f3w Polskich\nW Kozienicach",
                "name": "Zesp\u00f3\u0142 Szk\u00f3\u0142 Nr 1 im.\nLegion\u00f3w Polskich\nW Kozienicach",
                "addr:country": "PL",
                "addr:postcode": "26-900",
                "addr:city": "Kozienice",
                "addr:street": "Warszawska",
                "addr:housenumber": "72",
                "addr:teryt:simc": 23682,
                "addr:teryt:sym_ul": 973524,
                "contact:phone": "+48 486146783",
                "contact:email": "zs1.kozienice@wp.pl",
                "contact:website": "http:\/\/www.zslp.edu.pl",
                "ref:regon": "000183839",
                "ref:vatin": "PL8121031682",
                "operator": "Powiat Kozienicki",
                "operator:type": "government",
                "landuse": "education",
                "fixme": "amenity=school, amenity=college albo landuse=education w zale\u017cno\u015bci od tego, jakie plac\u00f3wki wchodz\u0105 w sk\u0142ad zespo\u0142u. Sprawd\u017a, kiedy stosowa\u0107 amenity=* a kiedy landuse=education.",
                "note": "Children RSPO: 25381;25474;109560;118433"
            }
        },
        {
            "id": 25381,
            "type": "Feature",
            "geometry": {
                "type": "Point",
                "coordinates": [
                    21.53688,
                    51.595380000000006
                ]
            },
            "properties": {
                "isced:level": "3",
                "ref:rspo": 25381,
                "official_name": "Ii Liceum Og\u00f3lnokszta\u0142c\u0105ce w Zespole Szk\u00f3\u0142 Nr 1 im.legion\u00f3w Polskich w Kozienicach",
                "name": "Ii Liceum Og\u00f3lnokszta\u0142c\u0105ce w Zespole Szk\u00f3\u0142 Nr 1 im.legion\u00f3w Polskich w Kozienicach",
                "addr:country": "PL",
                "addr:postcode": "26-900",
                "addr:city": "Kozienice",
                "addr:street": "Warszawska",
                "addr:housenumber": "72",
                "addr:teryt:simc": 23682,
                "addr:teryt:sym_ul": 973524,
                "contact:phone": "+48 486146783",
                "contact:email": "zs1.kozienice@wp.pl",
                "contact:website": "http:\/\/www.zslp.edu.pl",
                "ref:regon": "672967753",
                "ref:vatin": "PL8121031682",
                "operator": "Powiat Kozienicki",
                "operator:type": "government",
                "amenity": "school",
                "note": "Parent RSPO: 25064"
            }
        },
        {
            "id": 25474,
            "type": "Feature",
            "geometry": {
                "type": "Point",
                "coordinates": [
                    21.53688,
                    51.59535
                ]
            },
            "properties": {
                "isced:level": "3",
                "ref:rspo": 25474,
                "official_name": "Technikum w Zespole Szk\u00f3\u0142 Nr 1 im.legion\u00f3w Polskich w Kozienicach",
                "name": "Technikum w Zespole Szk\u00f3\u0142 Nr 1 im.legion\u00f3w Polskich w Kozienicach",
                "addr:country": "PL",
                "addr:postcode": "26-900",
                "addr:city": "Kozienice",
                "addr:street": "Warszawska",
                "addr:housenumber": "72",
                "addr:teryt:simc": 23682,
                "addr:teryt:sym_ul": 973524,
                "contact:phone": "+48 486146783",
                "contact:email": "zs1.kozienice@wp.pl",
                "contact:website": "http:\/\/www.zslp.edu.pl",
                "ref:regon": "672967799",
                "ref:vatin": "PL8121031682",
                "operator": "Powiat Kozienicki",
                "operator:type": "government",
                "amenity": "school",
                "note": "Parent RSPO: 25064"
            }
        },
        {
            "id": 109560,
            "type": "Feature",
            "geometry": {
                "type": "Point",
                "coordinates": [
                    21.53688,
                    51.59532
                ]
            },
            "properties": {
                "isced:level": "3",
                "ref:rspo": 109560,
                "official_name": "Szko\u0142a Bran\u017cowa I Stopnia w Kozienicach",
                "name": "Szko\u0142a Bran\u017cowa I Stopnia w Kozienicach",
                "addr:country": "PL",
                "addr:postcode": "26-900",
                "addr:city": "Kozienice",
                "addr:street": "Warszawska",
                "addr:housenumber": "72",
                "addr:teryt:simc": 23682,
                "addr:teryt:sym_ul": 973524,
                "contact:phone": "+48 486146783",
                "contact:email": "zs1.kozienice@wp.pl",
                "contact:website": "http:\/\/www.zslp.edu.pl",
                "ref:regon": "672967701",
                "ref:vatin": "PL8121031682",
                "operator": "Powiat Kozienicki",
                "operator:type": "government",
                "amenity": "school",
                "note": "Parent RSPO: 25064"
            }
        },
        {
            "id": 118433,
            "type": "Feature",
            "geometry": {
                "type": "Point",
                "coordinates": [
                    21.53688,
                    51.595290000000006
                ]
            },
            "properties": {
                "isced:level": "3",
                "ref:rspo": 118433,
                "official_name": "Liceum Og\u00f3lokszta\u0142c\u0105ce dla Doros\u0142ych w Zespole Szk\u00f3\u0142 w Kozienicach",
                "name": "Liceum Og\u00f3lokszta\u0142c\u0105ce dla Doros\u0142ych w Zespole Szk\u00f3\u0142 w Kozienicach",
                "addr:country": "PL",
                "addr:postcode": "26-900",
                "addr:city": "Kozienice",
                "addr:street": "Warszawska",
                "addr:housenumber": "72",
                "addr:teryt:simc": 23682,
                "addr:teryt:sym_ul": 973524,
                "contact:phone": "+48 486146783",
                "contact:email": "zs1.kozienice@wp.pl",
                "ref:regon": "672967718",
                "operator": "Powiat Kozienicki",
                "operator:type": "government",
                "amenity": "school",
                "note": "Parent RSPO: 25064"
            }
        },
        {
            "id": 23540,
            "type": "Feature",
            "geometry": {
                "type": "Point",
                "coordinates": [
                    21.60666,
                    51.60629
                ]
            },
            "properties": {
                "ref:rspo": 23540,
                "official_name": "Poradnia Psychologiczno-Pedagogiczna w Koziencach",
                "name": "Poradnia Psychologiczno-Pedagogiczna w Koziencach",
                "addr:country": "PL",
                "addr:postcode": "26-900",
                "addr:place": "Kozienice",
                "addr:housenumber": "8a",
                "addr:teryt:sym_ul": 973524,
                "contact:phone": "+48 486148936",
                "contact:email": "poradnia.psych.ped@kozienicepowiat.pl",
                "ref:regon": "671992045",
                "ref:vatin": "PL8121736017",
                "operator": "Powiat Kozienicki",
                "operator:type": "government",
                "healthcare": "counselling",
                "counselling_type": "education",
                "fixme": "w zale\u017cno\u015bci od przedmiotu dzia\u0142alno\u015bci (np. healthcare=counselling + counselling_type=education albo healthcare=psychotherapist)"
            }
        },
        {
            "id": 4129,
            "type": "Feature",
            "geometry": {
                "type": "Point",
                "coordinates": [
                    21.4806,
                    51.65527
                ]
            },
            "properties": {
                "ref:rspo": 4129,
                "official_name": "Publiczne Przedszkole Nr 6 w \u015awier\u017cach G\u00f3rnych",
                "name": "Publiczne Przedszkole Nr 6 w \u015awier\u017cach G\u00f3rnych",
                "addr:country": "PL",
                "addr:postcode": "26-900",
                "addr:place": "\u015awier\u017ce G\u00f3rne",
                "addr:housenumber": "12",
                "addr:teryt:sym_ul": 627839,
                "contact:phone": "+48 486147627",
                "contact:email": "ppnr6@vp.pl",
                "ref:regon": "142707293",
                "ref:vatin": "PL8121907192",
                "operator": "Gmina Kozienice",
                "operator:type": "government",
                "amenity": "kindergarten"
            }
        },
        {
            "id": 133703,
            "type": "Feature",
            "geometry": {
                "type": "Point",
                "coordinates": [
                    21.486,
                    51.65817
                ]
            },
            "properties": {
                "isced:level": "1;2",
                "ref:rspo": 133703,
                "official_name": "Publiczna Szko\u0142a Podstawowa im.bp.jana Chrapka w \u015awier\u017cach G\u00f3rnych",
                "name": "Publiczna Szko\u0142a Podstawowa im.bp.jana Chrapka w \u015awier\u017cach G\u00f3rnych",
                "addr:country": "PL",
                "addr:postcode": "26-900",
                "addr:place": "\u015awier\u017ce G\u00f3rne",
                "addr:housenumber": "25a",
                "addr:teryt:sym_ul": 627839,
                "contact:phone": "+48 486147525",
                "contact:email": "gim-swierze@wp.pl",
                "contact:website": "http:\/\/www.pspswierze.edu.pl",
                "ref:regon": "367551052",
                "ref:vatin": "PL8121919048",
                "operator": "Gmina Kozienice",
                "operator:type": "government",
                "amenity": "school"
            }
        },
        {
            "id": 5896,
            "type": "Feature",
            "geometry": {
                "type": "Point",
                "coordinates": [
                    21.39219,
                    51.66316
                ]
            },
            "properties": {
                "isced:level": "1;2",
                "ref:rspo": 5896,
                "official_name": "Publiczna Szko\u0142a Podstawowa im. Stefana Czarnieckiego w Woli Chodkowskiej",
                "name": "Publiczna Szko\u0142a Podstawowa",
                "addr:country": "PL",
                "addr:postcode": "26-900",
                "addr:place": "Wola Chodkowska",
                "addr:housenumber": "28",
                "addr:teryt:sym_ul": 627868,
                "contact:phone": "+48 486237381",
                "contact:email": "pspwola@op.pl",
                "contact:website": "http:\/\/www.pspwola.szkolnastrona.pl",
                "ref:regon": "670739172",
                "ref:vatin": "PL8121795244",
                "operator": "Gmina Kozienice",
                "operator:type": "government",
                "amenity": "school"
            }
        },
        {
            "id": 75774,
            "type": "Feature",
            "geometry": {
                "type": "Point",
                "coordinates": [
                    21.42476,
                    51.68973
                ]
            },
            "properties": {
                "isced:level": "1;2",
                "ref:rspo": 75774,
                "official_name": "Publiczna Szko\u0142a Podstawowa Im Chor.jana Szyma\u0144skiego w Ryczywole",
                "name": "Publiczna Szko\u0142a Podstawowa Im Chor.jana Szyma\u0144skiego w Ryczywole",
                "addr:country": "PL",
                "addr:postcode": "26-900",
                "addr:city": "Ryczyw\u00f3\u0142",
                "addr:street": "Warszawska",
                "addr:housenumber": "20",
                "addr:teryt:simc": 23682,
                "addr:teryt:sym_ul": 627756,
                "contact:phone": "+48 486237383",
                "contact:email": "pspryczywol@wp.pl",
                "contact:website": "http:\/\/www.pspryczywol.pl",
                "ref:regon": "000836974",
                "ref:vatin": "PL8121795250",
                "operator": "Gmina Kozienice",
                "operator:type": "government",
                "amenity": "school"
            }
        }
    ]
}