{"type":"FeatureCollection","features":[{"id":132133,"type":"Feature","geometry":{"type":"Point","coordinates":[23.3430399,54.10646]},"properties":{"ref:rspo":132133,"official_name":"Niepubliczne Przedszkole J\u0119zykowe Let`s Talk w Sejnach","name":"Niepubliczne Przedszkole J\u0119zykowe Let`s Talk w Sejnach","addr:country":"PL","addr:postcode":"16-500","addr:city":"Sejny","addr:street":"ul. Wojska Polskiego","addr:housenumber":"60b","addr:teryt:simc":24628,"addr:teryt:sym_ul":977918,"contact:phone":"+48 693424585","contact:email":"info@lets-talk.pl","ref:regon":"365492693","ref:vatin":"PL8461660968","operator":"O\u015brodek Edukacyjny Let's Talk A & K Kuniccy Sp\u00f3\u0142ka Cywilna","operator:type":"consortium","amenity":"kindergarten"}},{"id":66164,"type":"Feature","geometry":{"type":"Point","coordinates":[23.3456,54.10663]},"properties":{"ref:rspo":66164,"official_name":"Przedszkole Miejskie im. Marsza\u0142ka J\u00f3zefa Pi\u0142sudskiego w Sejnach","name":"Przedszkole Miejskie","addr:country":"PL","addr:postcode":"16-500","addr:city":"Sejny","addr:street":"ul. Zawadzkiego","addr:housenumber":"13","addr:teryt:simc":25817,"addr:teryt:sym_ul":977918,"contact:phone":"+48 875162264","contact:email":"szkola@spsejny.onmicrosoft.com","contact:website":"https:\/\/www.sp.sejny.pl\/","ref:regon":"001010986","ref:vatin":"PL8441839776","operator":"Miasto Sejny","operator:type":"government","amenity":"kindergarten","note":"Parent RSPO: 278034"}},{"id":278034,"type":"Feature","geometry":{"type":"Point","coordinates":[23.3416,54.10707]},"properties":{"ref:rspo":278034,"official_name":"Zesp\u00f3\u0142 Szkolno-Przedszkolny w Sejnach","name":"Zesp\u00f3\u0142 Szkolno-Przedszkolny w Sejnach","addr:country":"PL","addr:postcode":"16-500","addr:city":"Sejny","addr:street":"ul. Wojska Polskiego","addr:housenumber":"64","addr:teryt:simc":24628,"addr:teryt:sym_ul":977918,"contact:phone":"+48 875162264","contact:email":"szkola@spsejny.onmicrosoft.com","contact:website":"http:\/\/sp.sejny.pl","ref:regon":"389748435","ref:vatin":"PL8442373825","operator":"Miasto Sejny","operator:type":"government","landuse":"education","fixme":"amenity=school, amenity=college albo landuse=education w zale\u017cno\u015bci od tego, jakie plac\u00f3wki wchodz\u0105 w sk\u0142ad zespo\u0142u. Sprawd\u017a, kiedy stosowa\u0107 amenity=* a kiedy landuse=education.","note":"Children RSPO: 66164;66354"}},{"id":66354,"type":"Feature","geometry":{"type":"Point","coordinates":[23.3416,54.10704]},"properties":{"isced:level":"1;2","ref:rspo":66354,"official_name":"Szko\u0142a Podstawowa im. Mjr Henryka Dobrza\u0144skiego \"Hubala\" w Sejnach","name":"Szko\u0142a Podstawowa","addr:country":"PL","addr:postcode":"16-500","addr:city":"Sejny","addr:street":"ul. Wojska Polskiego","addr:housenumber":"64","addr:teryt:simc":24628,"addr:teryt:sym_ul":977918,"contact:phone":"+48 875162264","contact:email":"szkola@spsejny.onmicrosoft.com","contact:website":"http:\/\/www.sp.sejny.pl","ref:regon":"000261427","ref:vatin":"PL8441839517","operator":"Miasto Sejny","operator:type":"government","amenity":"school","note":"Parent RSPO: 278034"}},{"id":41287,"type":"Feature","geometry":{"type":"Point","coordinates":[23.33923,54.10813]},"properties":{"ref:rspo":41287,"official_name":"Zesp\u00f3\u0142 Szk\u00f3\u0142 Centrum Kszta\u0142cenia Rolniczego im. Stanis\u0142awa Staszica w Sejnach","name":"Zesp\u00f3\u0142 Szk\u00f3\u0142 Centrum Kszta\u0142cenia Rolniczego","addr:country":"PL","addr:postcode":"16-500","addr:city":"Sejny","addr:street":"ul. Konarskiego","addr:housenumber":"23","addr:teryt:simc":9106,"addr:teryt:sym_ul":977918,"contact:phone":"+48 875163640","contact:email":"sekretariat@zsckr.sejny.pl","contact:website":"http:\/\/www.zsckr.sejny.pl","ref:regon":"000099116","ref:vatin":"PL8441259754","operator":"Ministerstwo Rolnictwa I Rozwoju Wsi","operator:type":"public","landuse":"education","fixme":"amenity=school, amenity=college albo landuse=education w zale\u017cno\u015bci od tego, jakie plac\u00f3wki wchodz\u0105 w sk\u0142ad zespo\u0142u. Sprawd\u017a, kiedy stosowa\u0107 amenity=* a kiedy landuse=education.","note":"Children RSPO: 104670;104685;104748;104990"}},{"id":104670,"type":"Feature","geometry":{"type":"Point","coordinates":[23.33923,54.1081]},"properties":{"isced:level":"3","ref:rspo":104670,"official_name":"Technikum w Sejnach","name":"Technikum w Sejnach","addr:country":"PL","addr:postcode":"16-500","addr:city":"Sejny","addr:street":"ul. Konarskiego","addr:housenumber":"23","addr:teryt:simc":9106,"addr:teryt:sym_ul":977918,"contact:phone":"+48 875163640","contact:email":"sekretariat@zsckr.sejny.pl","contact:website":"http:\/\/www.zsckr.sejny.pl","ref:regon":"791057852","operator":"Ministerstwo Rolnictwa I Rozwoju Wsi","operator:type":"public","amenity":"school","note":"Parent RSPO: 41287"}},{"id":104685,"type":"Feature","geometry":{"type":"Point","coordinates":[23.33923,54.108070000000005]},"properties":{"isced:level":"3","ref:rspo":104685,"official_name":"Bran\u017cowa Szko\u0142a I Stopnia w Sejnach","name":"Bran\u017cowa Szko\u0142a I Stopnia w Sejnach","addr:country":"PL","addr:postcode":"16-500","addr:city":"Sejny","addr:street":"ul. Konarskiego","addr:housenumber":"23","addr:teryt:simc":9106,"addr:teryt:sym_ul":977918,"contact:phone":"+48 875163640","contact:email":"sekretariat@zsckr.sejny.pl","contact:website":"http:\/\/www.zsckr.sejny.pl","ref:regon":"791057875","operator":"Ministerstwo Rolnictwa I Rozwoju Wsi","operator:type":"public","amenity":"school","note":"Parent RSPO: 41287"}},{"id":104748,"type":"Feature","geometry":{"type":"Point","coordinates":[23.33923,54.10804]},"properties":{"isced:level":"4","ref:rspo":104748,"official_name":"Szko\u0142a Policealna w Sejnach","name":"Szko\u0142a Policealna w Sejnach","addr:country":"PL","addr:postcode":"16-500","addr:city":"Sejny","addr:street":"ul. Konarskiego","addr:housenumber":"23","addr:teryt:simc":9106,"addr:teryt:sym_ul":977918,"contact:phone":"+48 875163640","contact:email":"sekretariat@zsckr.sejny.pl","contact:website":"http:\/\/www.zsckr.sejny.pl","ref:regon":"200034211","operator":"Ministerstwo Rolnictwa I Rozwoju Wsi","operator:type":"public","amenity":"college","note":"Parent RSPO: 41287"}},{"id":104990,"type":"Feature","geometry":{"type":"Point","coordinates":[23.33923,54.10801]},"properties":{"ref:rspo":104990,"official_name":"Rolnicze Centrum Kszta\u0142cenia Ustawicznego w Sejnach","name":"Rolnicze Centrum Kszta\u0142cenia Ustawicznego w Sejnach","addr:country":"PL","addr:postcode":"16-500","addr:city":"Sejny","addr:street":"ul. Konarskiego","addr:housenumber":"23","addr:teryt:simc":9106,"addr:teryt:sym_ul":977918,"contact:phone":"+48 875163640","contact:email":"sekretariat@zsckr.sejny.pl","contact:website":"http:\/\/www.zsckr.sejny.pl","ref:regon":"200242910","operator":"Ministerstwo Rolnictwa I Rozwoju Wsi","operator:type":"public","fixme":"w zale\u017cno\u015bci od przedmiotu dzia\u0142alno\u015bci (np. amenity=training + training=*, amenity=dancing_school, amenity=language_school, amenity=music_school)","note":"Parent RSPO: 41287"}},{"id":13780,"type":"Feature","geometry":{"type":"Point","coordinates":[23.33993,54.10952]},"properties":{"ref:rspo":13780,"official_name":"Poradnia Psychologiczno - Pedagogiczna w Sejnach","name":"Poradnia Psychologiczno - Pedagogiczna w Sejnach","addr:country":"PL","addr:postcode":"16-500","addr:city":"Sejny","addr:street":"ul. \u0141\u0105kowa","addr:housenumber":"1","addr:teryt:simc":11596,"addr:teryt:sym_ul":977918,"contact:phone":"+48 875162256","contact:email":"pppsejny@wp.pl","contact:website":"http:\/\/www.pppsejny.szkolnastrona.pl","ref:regon":"000861185","operator":"Powiat Sejne\u0144ski","operator:type":"government","healthcare":"councelling","counselling_type":"education","fixme":"w zale\u017cno\u015bci od przedmiotu dzia\u0142alno\u015bci (np. healthcare=councelling + counselling_type=education albo healthcare=psychotherapist)"}},{"id":13781,"type":"Feature","geometry":{"type":"Point","coordinates":[23.33993,54.10949]},"properties":{"ref:rspo":13781,"official_name":"Zesp\u00f3\u0142 Szk\u00f3\u0142 Og\u00f3lnokszta\u0142c\u0105cych w Sejnach","name":"Zesp\u00f3\u0142 Szk\u00f3\u0142 Og\u00f3lnokszta\u0142c\u0105cych w Sejnach","addr:country":"PL","addr:postcode":"16-500","addr:city":"Sejny","addr:street":"ul. \u0141\u0105kowa","addr:housenumber":"1","addr:teryt:simc":11596,"addr:teryt:sym_ul":977918,"contact:phone":"+48 875162167","contact:email":"zso.sejny@op.pl","contact:website":"http:\/\/www.liceum.sejny.pl","ref:regon":"790751527","operator":"Powiat Sejne\u0144ski","operator:type":"government","landuse":"education","fixme":"amenity=school, amenity=college albo landuse=education w zale\u017cno\u015bci od tego, jakie plac\u00f3wki wchodz\u0105 w sk\u0142ad zespo\u0142u. Sprawd\u017a, kiedy stosowa\u0107 amenity=* a kiedy landuse=education.","note":"Children RSPO: 59022;60230;127941"}},{"id":279296,"type":"Feature","geometry":{"type":"Point","coordinates":[23.33993,54.109460000000006]},"properties":{"isced:level":"1;2","ref:rspo":279296,"official_name":"Niepubliczna Szko\u0142a Podstawowa Horyzont","name":"Niepubliczna Szko\u0142a Podstawowa Horyzont","addr:country":"PL","addr:postcode":"16-500","addr:city":"Sejny","addr:street":"ul. \u0141\u0105kowa","addr:housenumber":"1","addr:teryt:simc":11596,"addr:teryt:sym_ul":977918,"contact:email":"zofia.zdzarska@gmail.com","ref:regon":"521173728","operator":"Zofia \u017bd\u017carska","operator:type":"private","amenity":"school"}},{"id":59022,"type":"Feature","geometry":{"type":"Point","coordinates":[23.33993,54.10943]},"properties":{"isced:level":"3","ref:rspo":59022,"official_name":"Liceum Og\u00f3lnokszta\u0142c\u0105ce im. Szymona Konarskiego w Sejnach","name":"Liceum Og\u00f3lnokszta\u0142c\u0105ce","addr:country":"PL","addr:postcode":"16-500","addr:city":"Sejny","addr:street":"ul. \u0141\u0105kowa","addr:housenumber":"1","addr:teryt:simc":11596,"addr:teryt:sym_ul":977918,"contact:phone":"+48 875162167","contact:email":"zso.sejny@op.pl","contact:website":"http:\/\/www.liceum.sejny.pl","ref:regon":"000228186","operator":"Powiat Sejne\u0144ski","operator:type":"government","amenity":"school","note":"Parent RSPO: 13781"}},{"id":60230,"type":"Feature","geometry":{"type":"Point","coordinates":[23.33993,54.1094]},"properties":{"isced:level":"4","ref:rspo":60230,"official_name":"Szko\u0142a Policealna dla Doros\u0142ych Nr 2 w Sejnach","name":"Szko\u0142a Policealna dla Doros\u0142ych Nr 2 w Sejnach","addr:country":"PL","addr:postcode":"16-500","addr:city":"Sejny","addr:street":"ul. \u0141\u0105kowa","addr:housenumber":"1","addr:teryt:simc":11596,"addr:teryt:sym_ul":977918,"contact:phone":"+48 875162167","contact:email":"zso.sejny@op.pl","contact:website":"http:\/\/www.liceum.sejny.pl","ref:regon":"200140812","operator":"Powiat Sejne\u0144ski","operator:type":"government","amenity":"college","note":"Parent RSPO: 13781"}},{"id":127941,"type":"Feature","geometry":{"type":"Point","coordinates":[23.33993,54.109370000000006]},"properties":{"isced:level":"3","ref:rspo":127941,"official_name":"Technikum","name":"Technikum","addr:country":"PL","addr:postcode":"16-500","addr:city":"Sejny","addr:street":"ul. \u0141\u0105kowa","addr:housenumber":"1","addr:teryt:simc":11596,"addr:teryt:sym_ul":977918,"contact:phone":"+48 875162167","contact:email":"zso.sejny@op.pl","contact:website":"http:\/\/www.liceum.sejny.pl","ref:regon":"361987720","operator":"Powiat Sejne\u0144ski","operator:type":"government","amenity":"school","note":"Parent RSPO: 13781"}},{"id":66167,"type":"Feature","geometry":{"type":"Point","coordinates":[23.35227,54.11339]},"properties":{"ref:rspo":66167,"official_name":"Zesp\u00f3\u0142 Szk\u00f3\u0142 Z Litewskim J\u0119zykiem Nauczania \"\u017biburys\" w Sejnach","name":"Zesp\u00f3\u0142 Szk\u00f3\u0142 Z Litewskim J\u0119zykiem Nauczania \"\u017biburys\" w Sejnach","addr:country":"PL","addr:postcode":"16-500","addr:city":"Sejny","addr:street":"ul. Wile\u0144ska","addr:housenumber":"18b","addr:teryt:simc":24289,"addr:teryt:sym_ul":977918,"contact:phone":"+48 875173536","contact:email":"mokykla@ziburys.pl","contact:website":"http:\/\/www.ziburys.pl","ref:regon":"200739822","ref:vatin":"PL8442313467","operator":"Fundacja Im. Bpa Antanasa Baranauskasa \"Dom Litewski\" W Sejnach","operator:type":"ngo","landuse":"education","fixme":"amenity=school, amenity=college albo landuse=education w zale\u017cno\u015bci od tego, jakie plac\u00f3wki wchodz\u0105 w sk\u0142ad zespo\u0142u. Sprawd\u017a, kiedy stosowa\u0107 amenity=* a kiedy landuse=education.","note":"Children RSPO: 81196;81198"}},{"id":81196,"type":"Feature","geometry":{"type":"Point","coordinates":[23.35227,54.11336]},"properties":{"ref:rspo":81196,"official_name":"Przedszkole Z Litewskim J\u0119zykiem Nauczania \"\u017biburys\" w Sejnach","name":"Przedszkole Z Litewskim J\u0119zykiem Nauczania \"\u017biburys\" w Sejnach","addr:country":"PL","addr:postcode":"16-500","addr:city":"Sejny","addr:street":"ul. Wile\u0144ska","addr:housenumber":"18B","addr:teryt:simc":24289,"addr:teryt:sym_ul":977918,"contact:phone":"+48 875173536","contact:email":"mokykla@ziburys.pl","ref:regon":"200742445","operator":"Fundacja Im. Bpa Antanasa Baranauskasa \"Dom Litewski\" W Sejnach","operator:type":"ngo","amenity":"kindergarten","note":"Parent RSPO: 66167"}},{"id":81198,"type":"Feature","geometry":{"type":"Point","coordinates":[23.35227,54.113330000000005]},"properties":{"isced:level":"1;2","ref:rspo":81198,"official_name":"Szko\u0142a Podstawowa Z Litewskim J\u0119zykiem Nauczania \"\u017biburys\" w Sejnach","name":"Szko\u0142a Podstawowa Z Litewskim J\u0119zykiem Nauczania \"\u017biburys\" w Sejnach","addr:country":"PL","addr:postcode":"16-500","addr:city":"Sejny","addr:street":"ul. Wile\u0144ska","addr:housenumber":"18B","addr:teryt:simc":24289,"addr:teryt:sym_ul":977918,"contact:phone":"+48 875173536","contact:email":"mokykla@ziburys.pl","ref:regon":"200742480","operator":"Fundacja Im. Bpa Antanasa Baranauskasa \"Dom Litewski\" W Sejnach","operator:type":"ngo","amenity":"school","note":"Parent RSPO: 66167"}}]}