{
    "type": "FeatureCollection",
    "features": [
        {
            "id": 84129,
            "type": "Feature",
            "geometry": {
                "type": "Point",
                "coordinates": [
                    18.94679,
                    53.20736
                ]
            },
            "properties": {
                "isced:level": "1;2",
                "ref:rspo": 84129,
                "official_name": "Szko\u0142a Podstawowa im. Tadeusza Ko\u015bciuszki w Zieleniu",
                "name": "Szko\u0142a Podstawowa",
                "addr:postcode": "87-200",
                "addr:place": "Ziele\u0144",
                "addr:housenumber": "56",
                "addr:teryt:simc": 850276,
                "phone": "+48 566885527",
                "email": "szkola@zielen.edu.pl",
                "website": "http:\/\/www.zielen.edu.pl",
                "ref:regon": "001211740",
                "ref:vatin": "PL8781802453",
                "operator": "Gmina Ry\u0144sk",
                "operator:type": "government",
                "amenity": "school"
            }
        },
        {
            "id": 122898,
            "type": "Feature",
            "geometry": {
                "type": "Point",
                "coordinates": [
                    18.94679,
                    53.20733
                ]
            },
            "properties": {
                "ref:rspo": 122898,
                "official_name": "Punkt Przedszkolny w Zieleniu",
                "name": "Punkt Przedszkolny w Zieleniu",
                "addr:postcode": "87-200",
                "addr:place": "Ziele\u0144",
                "addr:housenumber": "56",
                "addr:teryt:simc": 850276,
                "phone": "+48 517477885",
                "email": "stowarzyszenie@naszagmina-wabrzezno.pl",
                "website": "http:\/\/www.naszagmina-wabrzezno.pl",
                "ref:regon": "341567263",
                "operator": "\"Nasza Gmina\"",
                "operator:type": "ngo",
                "amenity": "kindergarten"
            }
        },
        {
            "id": 48638,
            "type": "Feature",
            "geometry": {
                "type": "Point",
                "coordinates": [
                    18.82152,
                    53.23242
                ]
            },
            "properties": {
                "isced:level": "1;2",
                "ref:rspo": 48638,
                "official_name": "Szko\u0142a Podstawowa im.miko\u0142aja Z Ry\u0144ska w Ry\u0144sku",
                "name": "Szko\u0142a Podstawowa im.miko\u0142aja Z Ry\u0144ska w Ry\u0144sku",
                "addr:postcode": "87-213",
                "addr:city": "Ry\u0144sk",
                "addr:street": "Szkolna",
                "addr:housenumber": "4",
                "addr:teryt:simc": 850135,
                "addr:teryt:sym_ul": 21970,
                "phone": "+48 566885282",
                "email": "sprynsk@gminarynsk.pl",
                "website": "http:\/\/www.sprynsk.cba.pl",
                "ref:regon": "001211756",
                "ref:vatin": "PL8781802499",
                "operator": "Gmina Ry\u0144sk",
                "operator:type": "government",
                "amenity": "school"
            }
        },
        {
            "id": 122895,
            "type": "Feature",
            "geometry": {
                "type": "Point",
                "coordinates": [
                    18.82152,
                    53.232389999999995
                ]
            },
            "properties": {
                "ref:rspo": 122895,
                "official_name": "Punkt Przedszklny w Ry\u0144sku",
                "name": "Punkt Przedszklny w Ry\u0144sku",
                "addr:postcode": "87-213",
                "addr:city": "Ry\u0144sk",
                "addr:street": "Szkolna",
                "addr:housenumber": "4",
                "addr:teryt:simc": 850135,
                "addr:teryt:sym_ul": 21970,
                "phone": "+48 517521233",
                "email": "stowarzyszenie@naszagmina-wabrzezno.pl",
                "website": "http:\/\/www.naszagmina-wabrzezno.pl",
                "ref:regon": "341567257",
                "operator": "\"Nasza Gmina\"",
                "operator:type": "ngo",
                "amenity": "kindergarten"
            }
        },
        {
            "id": 129325,
            "type": "Feature",
            "geometry": {
                "type": "Point",
                "coordinates": [
                    18.99497,
                    53.26466
                ]
            },
            "properties": {
                "ref:rspo": 129325,
                "official_name": "Punkt Przedszkolny w Wa\u0142yczu",
                "name": "Punkt Przedszkolny w Wa\u0142yczu",
                "addr:postcode": "87-200",
                "addr:city": "Wa\u0142ycz",
                "addr:street": "Lecha M\u0105czy\u0144skiego",
                "addr:housenumber": "17",
                "addr:teryt:simc": 850230,
                "addr:teryt:sym_ul": 44254,
                "phone": "+48 517477602",
                "email": "stowarzyszenie@naszagmina-wabrzezno.pl",
                "website": "http:\/\/www.naszagmina-wabrzezno.pl",
                "ref:regon": "362561531",
                "operator": "\"Nasza Gmina\"",
                "operator:type": "ngo",
                "amenity": "kindergarten"
            }
        },
        {
            "id": 84127,
            "type": "Feature",
            "geometry": {
                "type": "Point",
                "coordinates": [
                    18.9952,
                    53.28421
                ]
            },
            "properties": {
                "isced:level": "1;2",
                "ref:rspo": 84127,
                "official_name": "Szko\u0142a Podstawowa w My\u015bliwcu",
                "name": "Szko\u0142a Podstawowa w My\u015bliwcu",
                "addr:postcode": "87-200",
                "addr:place": "My\u015bliwiec",
                "addr:housenumber": "3",
                "addr:teryt:simc": 850030,
                "phone": "+48 566882607",
                "email": "spmysliwiec@gminarynsk.pl",
                "website": "http:\/\/www.mysliwiec.szkola.pl",
                "ref:regon": "001211733",
                "ref:vatin": "PL8781802424",
                "operator": "Gmina Ry\u0144sk",
                "operator:type": "government",
                "amenity": "school"
            }
        },
        {
            "id": 129324,
            "type": "Feature",
            "geometry": {
                "type": "Point",
                "coordinates": [
                    18.9952,
                    53.28418
                ]
            },
            "properties": {
                "ref:rspo": 129324,
                "official_name": "Punkt Przedszkolny w My\u015bliwcu",
                "name": "Punkt Przedszkolny w My\u015bliwcu",
                "addr:postcode": "87-200",
                "addr:place": "My\u015bliwiec",
                "addr:housenumber": "3",
                "addr:teryt:simc": 850030,
                "phone": "+48 517521249",
                "email": "biuro@naszagmina-wabrzezno.pl",
                "website": "http:\/\/www.naszagmina-wabrzezno.pl",
                "ref:regon": "362561494",
                "operator": "\"Nasza Gmina\"",
                "operator:type": "ngo",
                "amenity": "kindergarten"
            }
        },
        {
            "id": 42022,
            "type": "Feature",
            "geometry": {
                "type": "Point",
                "coordinates": [
                    18.88929,
                    53.30122
                ]
            },
            "properties": {
                "ref:rspo": 42022,
                "official_name": "Specjalny O\u015brodek Szkolno - Wychowawczy we Wroniu",
                "name": "Specjalny O\u015brodek Szkolno - Wychowawczy we Wroniu",
                "addr:postcode": "87-200",
                "addr:place": "Wronie",
                "addr:housenumber": "28",
                "addr:teryt:simc": 849907,
                "phone": "+48 564610611",
                "email": "soszw@torun.home.pl",
                "website": "http:\/\/www.soszwdl.szkolnastrona.pl",
                "ref:regon": "000234962",
                "ref:vatin": "PL8781312192",
                "operator": "Powiat W\u0105brzeski",
                "operator:type": "government",
                "amenity": "school",
                "note": "Children RSPO: 65267;74670"
            }
        },
        {
            "id": 65267,
            "type": "Feature",
            "geometry": {
                "type": "Point",
                "coordinates": [
                    18.88929,
                    53.30119
                ]
            },
            "properties": {
                "ref:rspo": 65267,
                "official_name": "Specjalny O\u015brodek Szkolno - Wychowawczy we Wroniu - Szko\u0142a Specjalna Przysposabiaj\u0105ca Do Pracy",
                "name": "Specjalny O\u015brodek Szkolno - Wychowawczy we Wroniu - Szko\u0142a Specjalna Przysposabiaj\u0105ca Do Pracy",
                "addr:postcode": "87-200",
                "addr:place": "Wronie",
                "addr:housenumber": "28",
                "addr:teryt:simc": 849907,
                "phone": "+48 566890160",
                "email": "soszw@torun.home.pl",
                "website": "http:\/\/soszwdl.szkolnastrona.pl",
                "ref:regon": "871717367",
                "ref:vatin": "PL8781312192",
                "operator": "Powiat W\u0105brzeski",
                "operator:type": "government",
                "amenity": "school",
                "note": "Parent RSPO: 42022"
            }
        },
        {
            "id": 74670,
            "type": "Feature",
            "geometry": {
                "type": "Point",
                "coordinates": [
                    18.88929,
                    53.30116
                ]
            },
            "properties": {
                "isced:level": "1;2",
                "ref:rspo": 74670,
                "official_name": "Specjalny O\u015brodek Szkolno-Wychowawczy we Wroniu - Szko\u0142a Podstawowa",
                "name": "Specjalny O\u015brodek Szkolno-Wychowawczy we Wroniu - Szko\u0142a Podstawowa",
                "addr:postcode": "87-200",
                "addr:place": "Wronie",
                "addr:housenumber": "28",
                "addr:teryt:simc": 849907,
                "phone": "+48 566890160",
                "email": "soszw@torun.home.pl",
                "website": "http:\/\/soszwdl.szkolnastrona.pl",
                "ref:regon": "871679431",
                "ref:vatin": "PL8781312192",
                "operator": "Powiat W\u0105brzeski",
                "operator:type": "government",
                "amenity": "school",
                "note": "Parent RSPO: 42022"
            }
        },
        {
            "id": 48634,
            "type": "Feature",
            "geometry": {
                "type": "Point",
                "coordinates": [
                    18.94137,
                    53.32882
                ]
            },
            "properties": {
                "isced:level": "1;2",
                "ref:rspo": 48634,
                "official_name": "Szko\u0142a Podstawowa w Jarantowicach",
                "name": "Szko\u0142a Podstawowa w Jarantowicach",
                "addr:postcode": "87-200",
                "addr:place": "Jarantowice",
                "addr:housenumber": "84 C",
                "addr:teryt:simc": 849942,
                "phone": "+48 566886649",
                "email": "spjarantowice@gminarynsk.pl",
                "website": "http:\/\/www.spjarantowice.edu.pl",
                "ref:regon": "001211710",
                "ref:vatin": "PL8781630199",
                "operator": "Gmina Ry\u0144sk",
                "operator:type": "government",
                "amenity": "school"
            }
        },
        {
            "id": 129244,
            "type": "Feature",
            "geometry": {
                "type": "Point",
                "coordinates": [
                    18.94137,
                    53.32879
                ]
            },
            "properties": {
                "ref:rspo": 129244,
                "official_name": "Niepubliczne Przedszkole w Jarantowicach",
                "name": "Niepubliczne Przedszkole w Jarantowicach",
                "addr:postcode": "87-200",
                "addr:place": "Jarantowice",
                "addr:housenumber": "84D",
                "addr:teryt:simc": 849942,
                "email": "biuro@naszagmina-wabrzezno.pl",
                "website": "http:\/\/www.naszagmina-wabrzezno.pl",
                "ref:regon": "362524866",
                "operator": "\"Nasza Gmina\"",
                "operator:type": "ngo",
                "amenity": "kindergarten"
            }
        }
    ]
}