{
    "type": "FeatureCollection",
    "features": [
        {
            "id": 48927,
            "type": "Feature",
            "geometry": {
                "type": "Point",
                "coordinates": [
                    18.94664,
                    53.275
                ]
            },
            "properties": {
                "ref:rspo": 48927,
                "official_name": "Zesp\u00f3\u0142 Szk\u00f3\u0142 Og\u00f3lnokszta\u0142cacych w W\u0105brze\u017anie",
                "name": "Zesp\u00f3\u0142 Szk\u00f3\u0142 Og\u00f3lnokszta\u0142cacych w W\u0105brze\u017anie",
                "addr:postcode": "87-200",
                "addr:city": "W\u0105brze\u017ano",
                "addr:street": "Wolno\u015bci",
                "addr:housenumber": "35",
                "addr:city:simc": 983652,
                "addr:street:sym_ul": 24687,
                "phone": "+48 566882285",
                "email": "zsowno@wp.pl",
                "website": "http:\/\/www.liceum-wabrzezno.pl\/",
                "ref:regon": "871631016",
                "operator": "Powiat W\u0105brzeski",
                "operator:type": "government",
                "landuse": "education",
                "fixme": "amenity=school, amenity=college albo landuse=education w zale\u017cno\u015bci od tego, jakie plac\u00f3wki wchodz\u0105 w sk\u0142ad zespo\u0142u. Sprawd\u017a, kiedy stosowa\u0107 amenity=* a kiedy landuse=education.",
                "note": "Children RSPO: 62074"
            }
        },
        {
            "id": 48928,
            "type": "Feature",
            "geometry": {
                "type": "Point",
                "coordinates": [
                    18.94664,
                    53.274969999999996
                ]
            },
            "properties": {
                "ref:rspo": 48928,
                "official_name": "Poradnia Psychologiczno Pedagogiczna w W\u0105brze\u017anie",
                "name": "Poradnia Psychologiczno Pedagogiczna w W\u0105brze\u017anie",
                "addr:postcode": "87-200",
                "addr:city": "W\u0105brze\u017ano",
                "addr:street": "Wolno\u015bci",
                "addr:housenumber": "35",
                "addr:city:simc": 983652,
                "addr:street:sym_ul": 24687,
                "phone": "+48 566882175",
                "email": "poradnia.wabrzezno@data.pl",
                "website": "http:\/\/poradnia-wab.szkolnastrona.pl",
                "ref:regon": "001082260",
                "operator": "Powiat W\u0105brzeski",
                "operator:type": "government",
                "healthcare": "counselling",
                "counselling_type": "education",
                "fixme": "w zale\u017cno\u015bci od przedmiotu dzia\u0142alno\u015bci (np. healthcare=counselling + counselling_type=education albo healthcare=psychotherapist)"
            }
        },
        {
            "id": 62074,
            "type": "Feature",
            "geometry": {
                "type": "Point",
                "coordinates": [
                    18.94664,
                    53.27494
                ]
            },
            "properties": {
                "isced:level": "3",
                "ref:rspo": 62074,
                "official_name": "Zesp\u00f3\u0142 Szk\u00f3\u0142 Og\u00f3lnokszta\u0142c\u0105cych w W\u0105brze\u017anie - Liceum Og\u00f3lnokszta\u0142c\u0105ce",
                "name": "Zesp\u00f3\u0142 Szk\u00f3\u0142 Og\u00f3lnokszta\u0142c\u0105cych w W\u0105brze\u017anie - Liceum Og\u00f3lnokszta\u0142c\u0105ce",
                "addr:postcode": "87-200",
                "addr:city": "W\u0105brze\u017ano",
                "addr:street": "Wolno\u015bci",
                "addr:housenumber": "35",
                "addr:city:simc": 983652,
                "addr:street:sym_ul": 24687,
                "phone": "+48 566882285",
                "email": "zsowno@wp.pl",
                "website": "http:\/\/www.liceum-wabrzezno.pl\/",
                "ref:regon": "000228358",
                "operator": "Powiat W\u0105brzeski",
                "operator:type": "government",
                "amenity": "school",
                "note": "Parent RSPO: 48927"
            }
        },
        {
            "id": 118975,
            "type": "Feature",
            "geometry": {
                "type": "Point",
                "coordinates": [
                    18.95248,
                    53.2751
                ]
            },
            "properties": {
                "ref:rspo": 118975,
                "official_name": "Przedszkole Niepubliczne \"Alpido\"",
                "name": "Przedszkole Niepubliczne \"Alpido\"",
                "addr:postcode": "87-200",
                "addr:city": "W\u0105brze\u017ano",
                "addr:street": "Marii Konopnickiej",
                "addr:housenumber": "21",
                "addr:city:simc": 983652,
                "addr:street:sym_ul": 9186,
                "phone": "+48 604238767",
                "email": "przedszkolealpido@gmail.com",
                "website": "http:\/\/www.alpido.eu",
                "ref:regon": "341469951",
                "operator": "Dane Do Uzupe\u0142nienia",
                "operator:type": "private",
                "amenity": "kindergarten"
            }
        },
        {
            "id": 274819,
            "type": "Feature",
            "geometry": {
                "type": "Point",
                "coordinates": [
                    18.95264,
                    53.27606
                ]
            },
            "properties": {
                "ref:rspo": 274819,
                "official_name": "Zesp\u00f3\u0142 Szk\u00f3\u0142 w W\u0105brze\u017anie",
                "name": "Zesp\u00f3\u0142 Szk\u00f3\u0142 w W\u0105brze\u017anie",
                "addr:postcode": "87-200",
                "addr:city": "W\u0105brze\u017ano",
                "addr:street": "Stefana \u017beromskiego",
                "addr:housenumber": "6",
                "addr:city:simc": 983652,
                "addr:street:sym_ul": 26464,
                "phone": "+48 566881352",
                "email": "zswabrzezno@gmail.com",
                "ref:regon": "386321073",
                "operator": "Powiat W\u0105brzeski",
                "operator:type": "government",
                "landuse": "education",
                "fixme": "amenity=school, amenity=college albo landuse=education w zale\u017cno\u015bci od tego, jakie plac\u00f3wki wchodz\u0105 w sk\u0142ad zespo\u0142u. Sprawd\u017a, kiedy stosowa\u0107 amenity=* a kiedy landuse=education.",
                "note": "Children RSPO: 60986;61301;61488;61917;118514;274269;274270;275680"
            }
        },
        {
            "id": 60986,
            "type": "Feature",
            "geometry": {
                "type": "Point",
                "coordinates": [
                    18.95264,
                    53.27603
                ]
            },
            "properties": {
                "isced:level": "3",
                "ref:rspo": 60986,
                "official_name": "Technikum w W\u0105brze\u017anie",
                "name": "Technikum w W\u0105brze\u017anie",
                "addr:postcode": "87-200",
                "addr:city": "W\u0105brze\u017ano",
                "addr:street": "Stefana \u017beromskiego",
                "addr:housenumber": "6",
                "addr:city:simc": 983652,
                "addr:street:sym_ul": 26464,
                "phone": "+48 566881352",
                "email": "zswabrzezno@gmail.com",
                "website": "http:\/\/www.zszwabrzezno.com",
                "ref:regon": "871668700",
                "operator": "Powiat W\u0105brzeski",
                "operator:type": "government",
                "amenity": "school",
                "note": "Parent RSPO: 274819"
            }
        },
        {
            "id": 61301,
            "type": "Feature",
            "geometry": {
                "type": "Point",
                "coordinates": [
                    18.95264,
                    53.276
                ]
            },
            "properties": {
                "isced:level": "3",
                "ref:rspo": 61301,
                "official_name": "Bran\u017cowa Szko\u0142a I Stopnia w W\u0105brze\u017anie",
                "name": "Bran\u017cowa Szko\u0142a I Stopnia w W\u0105brze\u017anie",
                "addr:postcode": "87-200",
                "addr:city": "W\u0105brze\u017ano",
                "addr:street": "Stefana \u017beromskiego",
                "addr:housenumber": "6",
                "addr:city:simc": 983652,
                "addr:street:sym_ul": 26464,
                "phone": "+48 566881352",
                "email": "zswabrzezno@gmail.com",
                "website": "http:\/\/www.zszwabrzezno.com",
                "ref:regon": "871668746",
                "operator": "Powiat W\u0105brzeski",
                "operator:type": "government",
                "amenity": "school",
                "note": "Parent RSPO: 274819"
            }
        },
        {
            "id": 61488,
            "type": "Feature",
            "geometry": {
                "type": "Point",
                "coordinates": [
                    18.95264,
                    53.27597
                ]
            },
            "properties": {
                "isced:level": "4",
                "ref:rspo": 61488,
                "official_name": "Szko\u0142a Policealna dla Doros\u0142ych w W\u0105brze\u017anie",
                "name": "Szko\u0142a Policealna dla Doros\u0142ych w W\u0105brze\u017anie",
                "addr:postcode": "87-200",
                "addr:city": "W\u0105brze\u017ano",
                "addr:street": "Stefana \u017beromskiego",
                "addr:housenumber": "6",
                "addr:city:simc": 983652,
                "addr:street:sym_ul": 26464,
                "phone": "+48 566881352",
                "email": "zswabrzezno@gmail.com",
                "website": "http:\/\/www.zszwabrzezno.com",
                "ref:regon": "340330375",
                "operator": "Powiat W\u0105brzeski",
                "operator:type": "government",
                "amenity": "college",
                "note": "Parent RSPO: 274819"
            }
        },
        {
            "id": 61917,
            "type": "Feature",
            "geometry": {
                "type": "Point",
                "coordinates": [
                    18.95264,
                    53.27594
                ]
            },
            "properties": {
                "isced:level": "3",
                "ref:rspo": 61917,
                "official_name": "Zesp\u00f3\u0142 Szk\u00f3\u0142 w W\u0105brze\u017anie - Liceum Og\u00f3lnokszta\u0142c\u0105ce",
                "name": "Zesp\u00f3\u0142 Szk\u00f3\u0142 w W\u0105brze\u017anie - Liceum Og\u00f3lnokszta\u0142c\u0105ce",
                "addr:postcode": "87-200",
                "addr:city": "W\u0105brze\u017ano",
                "addr:street": "Stefana \u017beromskiego",
                "addr:housenumber": "6",
                "addr:city:simc": 983652,
                "addr:street:sym_ul": 26464,
                "phone": "+48 566881352",
                "email": "zswabrzezno@gmail.com",
                "website": "http:\/\/www.zszwabrzezno.com",
                "ref:regon": "340735735",
                "operator": "Powiat W\u0105brzeski",
                "operator:type": "government",
                "amenity": "school",
                "note": "Parent RSPO: 274819"
            }
        },
        {
            "id": 118514,
            "type": "Feature",
            "geometry": {
                "type": "Point",
                "coordinates": [
                    18.95264,
                    53.27591
                ]
            },
            "properties": {
                "isced:level": "3",
                "ref:rspo": 118514,
                "official_name": "Liceum Og\u00f3lnokszta\u0142c\u0105ce dla Doros\u0142ych",
                "name": "Liceum Og\u00f3lnokszta\u0142c\u0105ce dla Doros\u0142ych",
                "addr:postcode": "87-200",
                "addr:city": "W\u0105brze\u017ano",
                "addr:street": "Stefana \u017beromskiego",
                "addr:housenumber": "6",
                "addr:city:simc": 983652,
                "addr:street:sym_ul": 26464,
                "phone": "+48 566881352",
                "email": "zswabrzezno@gmail.com",
                "website": "http:\/\/www.zszwabrzezno.com",
                "ref:regon": "341464327",
                "operator": "Powiat W\u0105brzeski",
                "operator:type": "government",
                "amenity": "school",
                "note": "Parent RSPO: 274819"
            }
        },
        {
            "id": 274269,
            "type": "Feature",
            "geometry": {
                "type": "Point",
                "coordinates": [
                    18.95264,
                    53.27588
                ]
            },
            "properties": {
                "ref:rspo": 274269,
                "official_name": "Centrum Kszta\u0142cenia Zawodowego w W\u0105brze\u017anie",
                "name": "Centrum Kszta\u0142cenia Zawodowego w W\u0105brze\u017anie",
                "addr:postcode": "87-200",
                "addr:city": "W\u0105brze\u017ano",
                "addr:street": "Stefana \u017beromskiego",
                "addr:housenumber": "6",
                "addr:city:simc": 983652,
                "addr:street:sym_ul": 26464,
                "phone": "+48 566881352",
                "email": "zswabrzezno@gmail.com",
                "ref:regon": "385506416",
                "operator": "Powiat W\u0105brzeski",
                "operator:type": "government",
                "fixme": "w zale\u017cno\u015bci od przedmiotu dzia\u0142alno\u015bci (np. amenity=training + training=*, amenity=dancing_school, amenity=language_school, amenity=music_school) albo amenity=school, amenity=college, albo landuse=education w zale\u017cno\u015bci od tego, jakie plac\u00f3wki wchodz\u0105 w sk\u0142ad zespo\u0142u. Sprawd\u017a, kiedy stosowa\u0107 amenity=* a kiedy landuse=education.",
                "note": "Parent RSPO: 274819"
            }
        },
        {
            "id": 274270,
            "type": "Feature",
            "geometry": {
                "type": "Point",
                "coordinates": [
                    18.95264,
                    53.27585
                ]
            },
            "properties": {
                "ref:rspo": 274270,
                "official_name": "Centrum Kszta\u0142cenia Ustawicznego w W\u0105brze\u017anie",
                "name": "Centrum Kszta\u0142cenia Ustawicznego w W\u0105brze\u017anie",
                "addr:postcode": "87-200",
                "addr:city": "W\u0105brze\u017ano",
                "addr:street": "Stefana \u017beromskiego",
                "addr:housenumber": "6",
                "addr:city:simc": 983652,
                "addr:street:sym_ul": 26464,
                "phone": "+48 566881352",
                "email": "zswabrzezno@gmail.com",
                "ref:regon": "385551635",
                "operator": "Powiat W\u0105brzeski",
                "operator:type": "government",
                "fixme": "w zale\u017cno\u015bci od przedmiotu dzia\u0142alno\u015bci (np. amenity=training + training=*, amenity=dancing_school, amenity=language_school, amenity=music_school)",
                "note": "Parent RSPO: 274819"
            }
        },
        {
            "id": 275680,
            "type": "Feature",
            "geometry": {
                "type": "Point",
                "coordinates": [
                    18.95264,
                    53.27582
                ]
            },
            "properties": {
                "isced:level": "3",
                "ref:rspo": 275680,
                "official_name": "Bran\u017cowa Szko\u0142a II Stopnia w W\u0105brze\u017anie",
                "name": "Bran\u017cowa Szko\u0142a II Stopnia w W\u0105brze\u017anie",
                "addr:postcode": "87-200",
                "addr:city": "W\u0105brze\u017ano",
                "addr:street": "Stefana \u017beromskiego",
                "addr:housenumber": "6",
                "addr:city:simc": 983652,
                "addr:street:sym_ul": 26464,
                "phone": "+48 566881352",
                "email": "zswabrzezno@gmail.com",
                "website": "http:\/\/www.zszwabrzezno.com",
                "ref:regon": "386934083",
                "operator": "Powiat W\u0105brzeski",
                "operator:type": "government",
                "amenity": "school",
                "note": "Parent RSPO: 274819"
            }
        },
        {
            "id": 273547,
            "type": "Feature",
            "geometry": {
                "type": "Point",
                "coordinates": [
                    18.94644,
                    53.27608
                ]
            },
            "properties": {
                "ref:rspo": 273547,
                "official_name": "Przedszkole Terapeutyczne \"Jedno S\u0142o\u0144ce\"",
                "name": "Przedszkole Terapeutyczne \"Jedno S\u0142o\u0144ce\"",
                "addr:postcode": "87-200",
                "addr:city": "W\u0105brze\u017ano",
                "addr:street": "Wolno\u015bci",
                "addr:housenumber": "38",
                "addr:city:simc": 983652,
                "addr:street:sym_ul": 24687,
                "email": "katarzynapilat3@wp.pl",
                "ref:regon": "384488923",
                "operator": "Fundacja \"Jedno S\u0142o\u0144ce\"",
                "operator:type": "ngo",
                "amenity": "kindergarten"
            }
        },
        {
            "id": 27294,
            "type": "Feature",
            "geometry": {
                "type": "Point",
                "coordinates": [
                    18.94653,
                    53.27659
                ]
            },
            "properties": {
                "isced:level": "1;2",
                "ref:rspo": 27294,
                "official_name": "Szko\u0142a Podstawowa Nr 2 im. Jana Paw\u0142a Ii",
                "name": "Szko\u0142a Podstawowa Nr 2",
                "addr:postcode": "87-200",
                "addr:city": "W\u0105brze\u017ano",
                "addr:street": "Wolno\u015bci",
                "addr:housenumber": "30",
                "addr:city:simc": 983652,
                "addr:street:sym_ul": 24687,
                "phone": "+48 566881823",
                "email": "sp2@wabrzezno.com",
                "website": "https:\/\/sp2wabrzezno.edupage.org",
                "ref:regon": "000271118",
                "ref:vatin": "PL8781631589",
                "operator": "Gmina Miasto W\u0105brze\u017ano",
                "operator:type": "government",
                "amenity": "school"
            }
        },
        {
            "id": 5055,
            "type": "Feature",
            "geometry": {
                "type": "Point",
                "coordinates": [
                    18.95355,
                    53.27705
                ]
            },
            "properties": {
                "ref:rspo": 5055,
                "official_name": "Przedszkole Miejskie \"Bajka\"",
                "name": "Przedszkole Miejskie \"Bajka\"",
                "addr:postcode": "87-200",
                "addr:city": "W\u0105brze\u017ano",
                "addr:street": "Stefana \u017beromskiego",
                "addr:housenumber": "11",
                "addr:city:simc": 983652,
                "addr:street:sym_ul": 26464,
                "phone": "+48 566882092",
                "email": "pmbajka@wabrzezno.com",
                "website": "http:\/\/www.przedszkole.wabrzezno.com",
                "ref:regon": "870275571",
                "ref:vatin": "PL8781631626",
                "operator": "Gmina Miasto W\u0105brze\u017ano",
                "operator:type": "government",
                "amenity": "kindergarten"
            }
        },
        {
            "id": 54082,
            "type": "Feature",
            "geometry": {
                "type": "Point",
                "coordinates": [
                    18.94715,
                    53.2781499
                ]
            },
            "properties": {
                "isced:level": "3",
                "ref:rspo": 54082,
                "official_name": "Niepubliczne Liceum Og\u00f3lnokszta\u0142c\u0105ce dla Doros\u0142ych w W\u0105brze\u017anie",
                "name": "Niepubliczne Liceum Og\u00f3lnokszta\u0142c\u0105ce dla Doros\u0142ych w W\u0105brze\u017anie",
                "addr:postcode": "87-200",
                "addr:city": "W\u0105brze\u017ano",
                "addr:street": "Wolno\u015bci",
                "addr:housenumber": "11",
                "addr:city:simc": 983652,
                "addr:street:sym_ul": 24687,
                "phone": "+48 566882097",
                "email": "ckd@gog.pl",
                "ref:regon": "341346830",
                "operator": "Bernard Morkowski",
                "operator:type": "private",
                "amenity": "school"
            }
        },
        {
            "id": 21535,
            "type": "Feature",
            "geometry": {
                "type": "Point",
                "coordinates": [
                    18.9448,
                    53.28575
                ]
            },
            "properties": {
                "isced:level": "1;2",
                "ref:rspo": 21535,
                "official_name": "Szko\u0142a Podstawowa Nr 3 im. Edmunda Wojnowskiego",
                "name": "Szko\u0142a Podstawowa Nr 3",
                "addr:postcode": "87-200",
                "addr:city": "W\u0105brze\u017ano",
                "addr:street": "Tysi\u0105clecia",
                "addr:housenumber": "1",
                "addr:city:simc": 983652,
                "addr:street:sym_ul": 23270,
                "phone": "+48 566882019",
                "email": "sp3@wabrzezno.com",
                "website": "http:\/\/sp3wabrzezno.edupage.org",
                "ref:regon": "001271853",
                "ref:vatin": "PL8781631595",
                "operator": "Gmina Miasto W\u0105brze\u017ano",
                "operator:type": "government",
                "amenity": "school"
            }
        },
        {
            "id": 115279,
            "type": "Feature",
            "geometry": {
                "type": "Point",
                "coordinates": [
                    18.9448,
                    53.28572
                ]
            },
            "properties": {
                "ref:rspo": 115279,
                "official_name": "Szko\u0142a Muzyczna I St. w W\u0105brze\u017anie",
                "name": "Szko\u0142a Muzyczna I St. w W\u0105brze\u017anie",
                "addr:postcode": "87-200",
                "addr:city": "W\u0105brze\u017ano",
                "addr:street": "Tysi\u0105clecia",
                "addr:housenumber": "1",
                "addr:city:simc": 983652,
                "addr:street:sym_ul": 23270,
                "email": "resfacta@poczta.onet.pl",
                "website": "http:\/\/www.resfactamusica.republika.pl",
                "ref:regon": "341447754",
                "operator": "Mt Group Sp\u00f3\u0142ka Z Ograniczon\u0105 Odpowiedzialno\u015bci\u0105",
                "operator:type": "private",
                "amenity": "music_school"
            }
        }
    ]
}