{"type":"FeatureCollection","features":[{"id":10638,"type":"Feature","geometry":{"type":"Point","coordinates":[17.75324,51.01109]},"properties":{"ref:rspo":10638,"official_name":"Zesp\u00f3\u0142 Szkolno-Przedszkolny w Jastrz\u0119biu","name":"Zesp\u00f3\u0142 Szkolno-Przedszkolny w Jastrz\u0119biu","addr:country":"PL","addr:postcode":"46-100","addr:city":"Jastrz\u0119bie","addr:street":"ul. Opolska","addr:housenumber":"68","addr:teryt:simc":15095,"addr:teryt:sym_ul":499502,"contact:phone":"+48 774193450","contact:email":"zspjastrzebie@poczta.onet.pl","contact:website":"http:\/\/www.zspjastrzebie.szkolnastrona.pl","ref:regon":"532216366","ref:vatin":"PL7521356312","operator":"Gmina Namys\u0142\u00f3w","operator:type":"government","landuse":"education","fixme":"amenity=school, amenity=college albo landuse=education w zale\u017cno\u015bci od tego, jakie plac\u00f3wki wchodz\u0105 w sk\u0142ad zespo\u0142u. Sprawd\u017a, kiedy stosowa\u0107 amenity=* a kiedy landuse=education.","note":"Children RSPO: 19816;19817"}},{"id":19816,"type":"Feature","geometry":{"type":"Point","coordinates":[17.75324,51.01106]},"properties":{"ref:rspo":19816,"official_name":"Przedszkole w Jastrz\u0119biu","name":"Przedszkole w Jastrz\u0119biu","addr:country":"PL","addr:postcode":"46-100","addr:city":"Jastrz\u0119bie","addr:street":"ul. Opolska","addr:housenumber":"68","addr:teryt:simc":15095,"addr:teryt:sym_ul":499502,"contact:phone":"+48 774193450","contact:email":"zspjastrzebie@poczta.onet.pl","contact:website":"http:\/\/www.zspjastrzebie.szkolnastrona.pl","ref:regon":"530577692","operator":"Gmina Namys\u0142\u00f3w","operator:type":"government","amenity":"kindergarten","note":"Parent RSPO: 10638"}},{"id":19817,"type":"Feature","geometry":{"type":"Point","coordinates":[17.75324,51.011030000000005]},"properties":{"isced:level":"1;2","ref:rspo":19817,"official_name":"Szko\u0142a Podstawowa w Jastrz\u0119biu","name":"Szko\u0142a Podstawowa w Jastrz\u0119biu","addr:country":"PL","addr:postcode":"46-100","addr:city":"Jastrz\u0119bie","addr:street":"ul. Opolska","addr:housenumber":"68","addr:teryt:simc":15095,"addr:teryt:sym_ul":499502,"contact:phone":"+48 774193450","contact:email":"zspjastrzebie@poczta.onet.pl","contact:website":"http:\/\/www.zspjastrzebie.szkolnastrona.pl","ref:regon":"001200445","operator":"Gmina Namys\u0142\u00f3w","operator:type":"government","amenity":"school","note":"Parent RSPO: 10638"}},{"id":19671,"type":"Feature","geometry":{"type":"Point","coordinates":[17.56725,51.01949]},"properties":{"ref:rspo":19671,"official_name":"Przedszkole w Ligocie Ksi\u0105\u017c\u0119cej","name":"Przedszkole w Ligocie Ksi\u0105\u017c\u0119cej","addr:country":"PL","addr:postcode":"46-100","addr:place":"Ligota Ksi\u0105\u017c\u0119ca","addr:housenumber":"86b","addr:teryt:sym_ul":499590,"contact:phone":"+48 774192449","contact:email":"zspligotaks@gmail.com","ref:regon":"530577717","operator":"Gmina Namys\u0142\u00f3w","operator:type":"government","amenity":"kindergarten","note":"Parent RSPO: 10636"}},{"id":10636,"type":"Feature","geometry":{"type":"Point","coordinates":[17.56624,51.02011]},"properties":{"ref:rspo":10636,"official_name":"Zesp\u00f3\u0142 Szkolno-Przedszkolny w Ligocie Ksi\u0105\u017c\u0119cej","name":"Zesp\u00f3\u0142 Szkolno-Przedszkolny w Ligocie Ksi\u0105\u017c\u0119cej","addr:country":"PL","addr:postcode":"46-100","addr:place":"Ligota Ksi\u0105\u017c\u0119ca","addr:housenumber":"87B","addr:teryt:sym_ul":499590,"contact:phone":"+48 774192403","contact:email":"zspligota_sekretariat@eszkola.opolskie.pl","ref:regon":"160203940","ref:vatin":"PL7521425415","operator":"Gmina Namys\u0142\u00f3w","operator:type":"government","landuse":"education","fixme":"amenity=school, amenity=college albo landuse=education w zale\u017cno\u015bci od tego, jakie plac\u00f3wki wchodz\u0105 w sk\u0142ad zespo\u0142u. Sprawd\u017a, kiedy stosowa\u0107 amenity=* a kiedy landuse=education.","note":"Children RSPO: 19671;19672"}},{"id":19672,"type":"Feature","geometry":{"type":"Point","coordinates":[17.56624,51.02008]},"properties":{"isced:level":"1;2","ref:rspo":19672,"official_name":"Szko\u0142a Podstawowa im. Boles\u0142awa Chrobrego w Ligocie Ksi\u0105\u017c\u0119cej","name":"Szko\u0142a Podstawowa","addr:country":"PL","addr:postcode":"46-100","addr:place":"Ligota Ksi\u0105\u017c\u0119ca","addr:housenumber":"87b","addr:teryt:sym_ul":499590,"contact:phone":"+48 774192403","contact:email":"zspligotaks@gmail.com","contact:website":"http:\/\/www.sp_ligotaks.republika.pl","ref:regon":"001199558","operator":"Gmina Namys\u0142\u00f3w","operator:type":"government","amenity":"school","note":"Parent RSPO: 10636"}},{"id":11856,"type":"Feature","geometry":{"type":"Point","coordinates":[17.68818,51.04255]},"properties":{"ref:rspo":11856,"official_name":"Zesp\u00f3\u0142 Szkolno-Przedszkolny w Smarchowicach Wielkich","name":"Zesp\u00f3\u0142 Szkolno-Przedszkolny w Smarchowicach Wielkich","addr:country":"PL","addr:postcode":"46-100","addr:city":"Smarchowice Wielkie","addr:street":"ul. Brzegowa","addr:housenumber":"58","addr:teryt:simc":2229,"addr:teryt:sym_ul":499844,"contact:phone":"+48 774100788","contact:email":"smarchowice.zsp@wp.pl","contact:website":"http:\/\/www.zsp-smarchowice.pl","ref:regon":"532324736","ref:vatin":"PL7521365340","operator":"Gmina Namys\u0142\u00f3w","operator:type":"government","landuse":"education","fixme":"amenity=school, amenity=college albo landuse=education w zale\u017cno\u015bci od tego, jakie plac\u00f3wki wchodz\u0105 w sk\u0142ad zespo\u0142u. Sprawd\u017a, kiedy stosowa\u0107 amenity=* a kiedy landuse=education.","note":"Children RSPO: 22419;22420"}},{"id":22419,"type":"Feature","geometry":{"type":"Point","coordinates":[17.68818,51.042519999999996]},"properties":{"ref:rspo":22419,"official_name":"Przedszkole w Smarchowicach Wielkich","name":"Przedszkole w Smarchowicach Wielkich","addr:country":"PL","addr:postcode":"46-100","addr:city":"Smarchowice Wielkie","addr:street":"ul. Brzegowa","addr:housenumber":"58","addr:teryt:simc":2229,"addr:teryt:sym_ul":499844,"contact:phone":"+48 774100788","contact:email":"smarchowice.zsp@wp.pl","contact:website":"http:\/\/www.zsp-smarchowice.pl","ref:regon":"530577746","operator":"Gmina Namys\u0142\u00f3w","operator:type":"government","amenity":"kindergarten","note":"Parent RSPO: 11856"}},{"id":22420,"type":"Feature","geometry":{"type":"Point","coordinates":[17.68818,51.04249]},"properties":{"isced:level":"1;2","ref:rspo":22420,"official_name":"Szko\u0142a Podstawowa im. Tadeusza Ko\u015bciuszki w Smarchowicach Wielkich","name":"Szko\u0142a Podstawowa","addr:country":"PL","addr:postcode":"46-100","addr:city":"Smarchowice Wielkie","addr:street":"ul. Brzegowa","addr:housenumber":"58","addr:teryt:simc":2229,"addr:teryt:sym_ul":499844,"contact:phone":"+48 774100788","contact:email":"smarchowice.zsp@wp.pl","contact:website":"http:\/\/www.zsp-smarchowice.pl","ref:regon":"001200451","operator":"Gmina Namys\u0142\u00f3w","operator:type":"government","amenity":"school","note":"Parent RSPO: 11856"}},{"id":29402,"type":"Feature","geometry":{"type":"Point","coordinates":[17.71422,51.07193]},"properties":{"isced:level":"1;2","ref:rspo":29402,"official_name":"Szko\u0142a Podstawowa Nr 4 Z Oddzia\u0142ami Integracyjnymi im. W\u0142adys\u0142awa Stanis\u0142awa Reymonta w Namys\u0142owie","name":"Szko\u0142a Podstawowa Nr 4 Z Oddzia\u0142ami Integracyjnymi","addr:country":"PL","addr:postcode":"46-100","addr:city":"Namys\u0142\u00f3w","addr:street":"ul. W\u0142adys\u0142awa Stanis\u0142awa Reymonta","addr:housenumber":"56","addr:teryt:simc":18652,"addr:teryt:sym_ul":965743,"contact:phone":"+48 774100266","contact:email":"sp4.namyslow@interia.pl","contact:website":"http:\/\/www.sp4namyslow.pl","ref:regon":"001200528","ref:vatin":"PL7521292411","operator":"Gmina Namys\u0142\u00f3w","operator:type":"government","amenity":"school"}},{"id":83990,"type":"Feature","geometry":{"type":"Point","coordinates":[17.71422,51.0719]},"properties":{"isced:level":"4","ref:rspo":83990,"official_name":"Niepubliczna Szko\u0142a Policealna w Namys\u0142owie","name":"Niepubliczna Szko\u0142a Policealna w Namys\u0142owie","addr:country":"PL","addr:postcode":"46-100","addr:city":"Namys\u0142\u00f3w","addr:street":"ul. W\u0142adys\u0142awa Stanis\u0142awa Reymonta","addr:housenumber":"56","addr:teryt:simc":18652,"addr:teryt:sym_ul":965743,"contact:phone":"+48 791547678","contact:email":"plo.namyslow@wp.pl","ref:regon":"161494402","ref:vatin":"PL7541144872","operator":"Patrycja Bartnicka","operator:type":"private","amenity":"college"}},{"id":83991,"type":"Feature","geometry":{"type":"Point","coordinates":[17.71422,51.071870000000004]},"properties":{"isced:level":"3","ref:rspo":83991,"official_name":"Prywatne Liceum Og\u00f3lnokszta\u0142c\u0105cych dla Doros\u0142ych w Namys\u0142owie","name":"Prywatne Liceum Og\u00f3lnokszta\u0142c\u0105cych dla Doros\u0142ych w Namys\u0142owie","addr:country":"PL","addr:postcode":"46-100","addr:city":"Namys\u0142\u00f3w","addr:street":"ul. W\u0142adys\u0142awa Stanis\u0142awa Reymonta","addr:housenumber":"56","addr:teryt:simc":18652,"addr:teryt:sym_ul":965743,"contact:email":"plo.namyslow@wp.pl","ref:regon":"161494419","ref:vatin":"PL7521279238","operator":"Patrycja Bartnicka","operator:type":"private","amenity":"school"}},{"id":86090,"type":"Feature","geometry":{"type":"Point","coordinates":[17.7277999,51.07255]},"properties":{"ref:rspo":86090,"official_name":"Poradnia Psychologiczno - Pedagogiczna w Namys\u0142owie","name":"Poradnia Psychologiczno - Pedagogiczna w Namys\u0142owie","addr:country":"PL","addr:postcode":"46-100","addr:city":"Namys\u0142\u00f3w","addr:street":"ul. Adama Mickiewicza","addr:housenumber":"14","addr:teryt:simc":12740,"addr:teryt:sym_ul":965743,"contact:phone":"+48 774101267","contact:email":"sekretariat@poradnia-namyslow.pl","contact:website":"http:\/\/www.poradnia-namyslow.pl","ref:regon":"000742983","ref:vatin":"PL7521020687","operator":"Powiat Namys\u0142owski","operator:type":"government","healthcare":"councelling","counselling_type":"education","fixme":"w zale\u017cno\u015bci od przedmiotu dzia\u0142alno\u015bci (np. healthcare=councelling + counselling_type=education albo healthcare=psychotherapist)"}},{"id":85927,"type":"Feature","geometry":{"type":"Point","coordinates":[17.72684,51.07257]},"properties":{"isced:level":"3","ref:rspo":85927,"official_name":"I Liceum Og\u00f3lnokszta\u0142c\u0105ce Im Jaros\u0142awa Iwaszkiewicza w Namys\u0142owie","name":"I Liceum Og\u00f3lnokszta\u0142c\u0105ce Im Jaros\u0142awa Iwaszkiewicza w Namys\u0142owie","addr:country":"PL","addr:postcode":"46-100","addr:city":"Namys\u0142\u00f3w","addr:street":"ul. Adama Mickiewicza","addr:housenumber":"12","addr:teryt:simc":12740,"addr:teryt:sym_ul":965743,"contact:phone":"+48 774107060","contact:email":"lonamyslow@wodip.opole.pl","contact:website":"http:\/\/lonamyslow.wodip.opole.pl\/old\/","ref:regon":"532401247","ref:vatin":"PL7521024107","operator":"Powiat Namys\u0142owski","operator:type":"government","amenity":"school"}},{"id":134001,"type":"Feature","geometry":{"type":"Point","coordinates":[17.7128799,51.07289]},"properties":{"ref:rspo":134001,"official_name":"Niepubliczne Przedszkole \"Rodzinny Klub S\u0142oneczko\"","name":"Niepubliczne Przedszkole \"Rodzinny Klub S\u0142oneczko\"","addr:country":"PL","addr:postcode":"46-100","addr:city":"Namys\u0142\u00f3w","addr:street":"ul. W\u0142adys\u0142awa Stanis\u0142awa Reymonta","addr:housenumber":"6 A-B","addr:teryt:simc":18652,"addr:teryt:sym_ul":965743,"contact:phone":"+48 734412954","contact:email":"b.piech@wp.pl","contact:website":"https:\/\/www.facebook.com\/sloneczkonamyslow\/?ref=settings","ref:regon":"367770570","operator":"Bo\u017cena Piech-Kania","operator:type":"private","amenity":"kindergarten"}},{"id":75577,"type":"Feature","geometry":{"type":"Point","coordinates":[17.7244,51.0735]},"properties":{"ref:rspo":75577,"official_name":"Pa\u0144stwowa Szko\u0142a Muzyczna I St. im. Andrzeja Kurylewicza w Namys\u0142owie","name":"Pa\u0144stwowa Szko\u0142a Muzyczna I St.","addr:country":"PL","addr:postcode":"46-100","addr:city":"Namys\u0142\u00f3w","addr:street":"ul. J\u00f3zefa Pi\u0142sudskiego","addr:housenumber":"11","addr:teryt:simc":16264,"addr:teryt:sym_ul":965743,"contact:phone":"+48 774101261","contact:email":"psmnamyslow@poczta.fm","contact:website":"http:\/\/psmnamyslow.pl","ref:regon":"000286137","operator":"Ministerstwo Kultury I Dziedzictwa Narodowego","operator:type":"public","amenity":"music_school"}},{"id":10460,"type":"Feature","geometry":{"type":"Point","coordinates":[17.72338,51.07399]},"properties":{"ref:rspo":10460,"official_name":"Przedszkole Nr 3 w Namys\u0142owie","name":"Przedszkole Nr 3 w Namys\u0142owie","addr:country":"PL","addr:postcode":"46-100","addr:city":"Namys\u0142\u00f3w","addr:street":"ul. Partyzant\u00f3w","addr:housenumber":"3","addr:teryt:simc":15733,"addr:teryt:sym_ul":965743,"contact:phone":"+48 774100292","contact:email":"przedszkole33@op.pl","ref:regon":"160233585","ref:vatin":"PL7521277759","operator":"Gmina Namys\u0142\u00f3w","operator:type":"government","amenity":"kindergarten"}},{"id":10461,"type":"Feature","geometry":{"type":"Point","coordinates":[17.7096899,51.07437]},"properties":{"ref:rspo":10461,"official_name":"Przedszkole Nr 4 w Namys\u0142owie","name":"Przedszkole Nr 4 w Namys\u0142owie","addr:country":"PL","addr:postcode":"46-100","addr:city":"Namys\u0142\u00f3w","addr:street":"ul. W\u0142adys\u0142awa Stanis\u0142awa Reymonta","addr:housenumber":"5B","addr:teryt:simc":18652,"addr:teryt:sym_ul":965743,"contact:phone":"+48 774101167","contact:email":"p4namyslow@wp.pl","ref:regon":"160232054","ref:vatin":"PL7521280862","operator":"Gmina Namys\u0142\u00f3w","operator:type":"government","amenity":"kindergarten"}},{"id":262217,"type":"Feature","geometry":{"type":"Point","coordinates":[17.7096899,51.07434]},"properties":{"isced:level":"1;2","ref:rspo":262217,"official_name":"Szko\u0142a Podstawowa Nr 2 Z Oddzia\u0142ami Dwuj\u0119zycznymi im.marii Sk\u0142odowskiej-Curie w Namys\u0142owie","name":"Szko\u0142a Podstawowa Nr 2 Z Oddzia\u0142ami Dwuj\u0119zycznymi im.marii Sk\u0142odowskiej-Curie w Namys\u0142owie","addr:country":"PL","addr:postcode":"46-100","addr:city":"Namys\u0142\u00f3w","addr:street":"ul. W\u0142adys\u0142awa Stanis\u0142awa Reymonta","addr:housenumber":"5","addr:teryt:simc":18652,"addr:teryt:sym_ul":965743,"contact:phone":"+48 774101377","contact:email":"sp2namyslow@wodip.opole.pl","contact:website":"http:\/\/sp2namyslow.pl","ref:regon":"367992690","operator":"Gmina Namys\u0142\u00f3w","operator:type":"government","amenity":"school"}},{"id":10459,"type":"Feature","geometry":{"type":"Point","coordinates":[17.72327,51.07441]},"properties":{"ref:rspo":10459,"official_name":"Przedszkole Nr 1 w Namys\u0142owie","name":"Przedszkole Nr 1 w Namys\u0142owie","addr:country":"PL","addr:postcode":"46-100","addr:city":"Namys\u0142\u00f3w","addr:street":"ul. Partyzant\u00f3w","addr:housenumber":"2","addr:teryt:simc":15733,"addr:teryt:sym_ul":965743,"contact:phone":"+48 774100240","contact:email":"p1namyslow@wp.pl","ref:regon":"160232203","ref:vatin":"PL7521280827","operator":"Gmina Namys\u0142\u00f3w","operator:type":"government","amenity":"kindergarten"}},{"id":27927,"type":"Feature","geometry":{"type":"Point","coordinates":[17.72873,51.07453]},"properties":{"isced:level":"1;2","ref:rspo":27927,"official_name":"Szko\u0142a Podstawowa Nr 3 im. Boles\u0142awa Prusa w Namys\u0142owie","name":"Szko\u0142a Podstawowa Nr 3","addr:country":"PL","addr:postcode":"46-100","addr:city":"Namys\u0142\u00f3w","addr:street":"ul. \u0141\u0105cza\u0144ska","addr:housenumber":"1","addr:teryt:simc":11573,"addr:teryt:sym_ul":965743,"contact:phone":"+48 774100574","contact:email":"sp3prus@o2.pl","contact:website":"http:\/\/www.sp3namyslow.pl","ref:regon":"001200511","ref:vatin":"PL7521274028","operator":"Gmina Namys\u0142\u00f3w","operator:type":"government","amenity":"school"}},{"id":262212,"type":"Feature","geometry":{"type":"Point","coordinates":[17.7351,51.07589]},"properties":{"isced:level":"1;2","ref:rspo":262212,"official_name":"Szko\u0142a Podstawowa Nr 1 im. Szarych Szereg\u00f3w w Namys\u0142owie","name":"Szko\u0142a Podstawowa Nr 1","addr:country":"PL","addr:postcode":"46-100","addr:city":"Namys\u0142\u00f3w","addr:street":"ul. 3 Maja","addr:housenumber":"21","addr:teryt:simc":11937,"addr:teryt:sym_ul":965743,"contact:phone":"+48 774100264","contact:email":"g1namyslow@wodip.opole.pl","contact:website":"http:\/\/www.sp1namyslow.szkolnastrona.pl\/","ref:regon":"367992069","operator":"Gmina Namys\u0142\u00f3w","operator:type":"government","amenity":"school"}},{"id":268441,"type":"Feature","geometry":{"type":"Point","coordinates":[17.70916,51.0767499]},"properties":{"ref:rspo":268441,"official_name":"Integracyjny Punkt Przedszkolny \"Wsp\u00f3lny \u015awiat\"","name":"Integracyjny Punkt Przedszkolny \"Wsp\u00f3lny \u015awiat\"","addr:country":"PL","addr:postcode":"46-100","addr:city":"Namys\u0142\u00f3w","addr:street":"ul. O\u0142awska","addr:housenumber":"2a","addr:teryt:simc":15031,"addr:teryt:sym_ul":965743,"ref:regon":"381162813","ref:vatin":"PL8970032594","operator":"Marek Dr\u00f3\u017ad\u017a","operator:type":"private","amenity":"kindergarten"}},{"id":91621,"type":"Feature","geometry":{"type":"Point","coordinates":[17.71617,51.07782]},"properties":{"ref:rspo":91621,"official_name":"Modzie\u017cowy O\u015brodek Wychowawczy Towarzystwa Spo\u0142ecznych Dzia\u0142a\u0144 Na Rzecz Dzieci I M\u0142odzie\u017cy \"Razem w Przysz\u0142o\u015b\u0107\" w Namys\u0142owie","name":"Modzie\u017cowy O\u015brodek Wychowawczy Towarzystwa Spo\u0142ecznych Dzia\u0142a\u0144 Na Rzecz Dzieci I M\u0142odzie\u017cy \"Razem w Przysz\u0142o\u015b\u0107\" w Namys\u0142owie","addr:country":"PL","addr:postcode":"46-100","addr:city":"Namys\u0142\u00f3w","addr:street":"ul. Piastowska","addr:housenumber":"8","addr:teryt:simc":16046,"addr:teryt:sym_ul":965743,"contact:phone":"+48 774100530","contact:email":"annagrognet@gmail.com","ref:regon":"161496720","operator":"Towarzystwo Spo\u0142ecznych Dzia\u0142a\u0144 Na Rzecz Dzieci I M\u0142odzie\u017cy \"Razem W Przysz\u0142o\u015b\u0107\"","operator:type":"ngo","fixme":"amenity=social facility + social_facility=group_home + social_facility:for=juvenile","note":"Children RSPO: 91622"}},{"id":91622,"type":"Feature","geometry":{"type":"Point","coordinates":[17.71617,51.07779]},"properties":{"isced:level":"3","ref:rspo":91622,"official_name":"Niepubliczna Bran\u017cowa Szko\u0142a I Stopnia Specjalna dla Uczni\u00f3w Niedostosowanych Spo\u0142ecznie Towarzystwa Spo\u0142ecznych Dzia\u0142a\u0144 Na Rzecz Dzieci I M\u0142odzie\u017cy \"Razem w Przysz\u0142o\u015b\u0107\" w Namys\u0142owie","name":"Niepubliczna Bran\u017cowa Szko\u0142a I Stopnia Specjalna dla Uczni\u00f3w Niedostosowanych Spo\u0142ecznie Towarzystwa Spo\u0142ecznych Dzia\u0142a\u0144 Na Rzecz Dzieci I M\u0142odzie\u017cy \"Razem w Przysz\u0142o\u015b\u0107\" w Namys\u0142owie","addr:country":"PL","addr:postcode":"46-100","addr:city":"Namys\u0142\u00f3w","addr:street":"ul. Piastowska","addr:housenumber":"8","addr:teryt:simc":16046,"addr:teryt:sym_ul":965743,"contact:phone":"+48 774100530","contact:email":"annagrognet@gmail.com","ref:regon":"161496743","operator":"Towarzystwo Spo\u0142ecznych Dzia\u0142a\u0144 Na Rzecz Dzieci I M\u0142odzie\u017cy \"Razem W Przysz\u0142o\u015b\u0107\"","operator:type":"ngo","amenity":"school","note":"Parent RSPO: 91621"}},{"id":85926,"type":"Feature","geometry":{"type":"Point","coordinates":[17.71838,51.07783]},"properties":{"ref:rspo":85926,"official_name":"Zesp\u00f3\u0142 Szk\u00f3\u0142 Specjalnych im. Adama Mickiewicza w Namys\u0142owie","name":"Zesp\u00f3\u0142 Szk\u00f3\u0142 Specjalnych","addr:country":"PL","addr:postcode":"46-100","addr:city":"Namys\u0142\u00f3w","addr:street":"ul. Stanis\u0142awa Staszica","addr:housenumber":"8","addr:teryt:simc":21071,"addr:teryt:sym_ul":965743,"contact:phone":"+48 774100522","contact:email":"sekretariat@zssnamyslow.pl","ref:regon":"000703820","ref:vatin":"PL7521299502","operator":"Powiat Namys\u0142owski","operator:type":"government","landuse":"education","fixme":"amenity=school, amenity=college albo landuse=education w zale\u017cno\u015bci od tego, jakie plac\u00f3wki wchodz\u0105 w sk\u0142ad zespo\u0142u. Sprawd\u017a, kiedy stosowa\u0107 amenity=* a kiedy landuse=education.","note":"Children RSPO: 89930;89932;89933"}},{"id":89930,"type":"Feature","geometry":{"type":"Point","coordinates":[17.71838,51.077799999999996]},"properties":{"isced:level":"1;2","ref:rspo":89930,"official_name":"Szko\u0142a Podstawowa Specjalna Przy Zespole Szk\u00f3\u0142 Specialnych Im Adama Micikewicza w Namys\u0142owie","name":"Szko\u0142a Podstawowa Specjalna Przy Zespole Szk\u00f3\u0142 Specialnych Im Adama Micikewicza w Namys\u0142owie","addr:country":"PL","addr:postcode":"46-100","addr:city":"Namys\u0142\u00f3w","addr:street":"ul. Stanis\u0142awa Staszica","addr:housenumber":"8","addr:teryt:simc":21071,"addr:teryt:sym_ul":965743,"contact:phone":"+48 774100522","contact:email":"sekretariat@zssnamyslow.pl","ref:regon":"532210961","operator":"Powiat Namys\u0142owski","operator:type":"government","amenity":"school","note":"Parent RSPO: 85926"}},{"id":89932,"type":"Feature","geometry":{"type":"Point","coordinates":[17.71838,51.07777]},"properties":{"isced:level":"3","ref:rspo":89932,"official_name":"Specjalna Bran\u017cowa Szko\u0142a I Stopnia Przy Zespole Szk\u00f3\u0142 Specjalnych Im Adama Miciewicza w Namys\u0142owie","name":"Specjalna Bran\u017cowa Szko\u0142a I Stopnia Przy Zespole Szk\u00f3\u0142 Specjalnych Im Adama Miciewicza w Namys\u0142owie","addr:country":"PL","addr:postcode":"46-100","addr:city":"Namys\u0142\u00f3w","addr:street":"ul. Stanis\u0142awa Staszica","addr:housenumber":"8","addr:teryt:simc":21071,"addr:teryt:sym_ul":965743,"contact:phone":"+48 774100522","contact:email":"sekretariat@zssnamyslow.pl","ref:regon":"532210978","operator":"Powiat Namys\u0142owski","operator:type":"government","amenity":"school","note":"Parent RSPO: 85926"}},{"id":89933,"type":"Feature","geometry":{"type":"Point","coordinates":[17.71838,51.07774]},"properties":{"ref:rspo":89933,"official_name":"Szko\u0142a Specjalna Przysposobiaj\u0105ca Do Pracy w Zespole Szk\u00f3\u0142 Specjalnych im. Adama Mickiewicza w Namys\u0142owie","name":"Szko\u0142a Specjalna Przysposobiaj\u0105ca Do Pracy w Zespole Szk\u00f3\u0142 Specjalnych","addr:country":"PL","addr:postcode":"46-100","addr:city":"Namys\u0142\u00f3w","addr:street":"ul. Stanis\u0142awa Staszica","addr:housenumber":"8","addr:teryt:simc":21071,"addr:teryt:sym_ul":965743,"contact:phone":"+48 774100522","contact:email":"sekretariat@zssnamyslow.pl","ref:regon":"160148282","operator":"Powiat Namys\u0142owski","operator:type":"government","amenity":"school","note":"Parent RSPO: 85926"}},{"id":11858,"type":"Feature","geometry":{"type":"Point","coordinates":[17.76961,51.07871]},"properties":{"isced:level":"1;2","ref:rspo":11858,"official_name":"Szko\u0142a Podstawowa im. Wojska Polskiego w Kamiennej","name":"Szko\u0142a Podstawowa","addr:country":"PL","addr:postcode":"46-100","addr:place":"Kamienna","addr:housenumber":"26","addr:teryt:sym_ul":499531,"contact:phone":"+48 774100782","contact:email":"spkamienna@op.pl","contact:website":"http:\/\/www.spkamienna.szkolnastrona.pl","ref:regon":"001199541","ref:vatin":"PL7521292440","operator":"Gmina Namys\u0142\u00f3w","operator:type":"government","amenity":"school"}},{"id":10467,"type":"Feature","geometry":{"type":"Point","coordinates":[17.72188,51.0805]},"properties":{"ref:rspo":10467,"official_name":"Niepubliczne Przedszkole Delfinek w Namys\u0142owie","name":"Niepubliczne Przedszkole Delfinek w Namys\u0142owie","addr:country":"PL","addr:postcode":"46-100","addr:city":"Namys\u0142\u00f3w","addr:street":"ul. Marii Konopnickiej","addr:housenumber":"2","addr:teryt:simc":9186,"addr:teryt:sym_ul":965743,"contact:phone":"+48 533705533","contact:email":"delfinek.namyslow@gmail.com","ref:regon":"161479012","ref:vatin":"PL7521303528","operator":"Anna Markiewicz","operator:type":"private","amenity":"kindergarten"}},{"id":10463,"type":"Feature","geometry":{"type":"Point","coordinates":[17.72122,51.08083]},"properties":{"ref:rspo":10463,"official_name":"Przedszkole Integracyjne w Namys\u0142owie","name":"Przedszkole Integracyjne w Namys\u0142owie","addr:country":"PL","addr:postcode":"46-100","addr:city":"Namys\u0142\u00f3w","addr:street":"ul. Parkowa","addr:housenumber":"3","addr:teryt:simc":15710,"addr:teryt:sym_ul":965743,"contact:phone":"+48 774100770","contact:email":"integracja@pinamyslow.szkolnastrona.pl","contact:website":"http:\/\/www.pinamyslow.szkolnastrona.pl","ref:regon":"160231830","ref:vatin":"PL7521282944","operator":"Gmina Namys\u0142\u00f3w","operator:type":"government","amenity":"kindergarten"}},{"id":85925,"type":"Feature","geometry":{"type":"Point","coordinates":[17.71822,51.08388]},"properties":{"ref:rspo":85925,"official_name":"Zesp\u00f3\u0142 Szk\u00f3\u0142 Mechanicznych w Namys\u0142owie im. \"\u017bo\u0142nierzy Wrze\u015bnia 1939 Roku\"","name":"Zesp\u00f3\u0142 Szk\u00f3\u0142 Mechanicznych w Namys\u0142owie","addr:country":"PL","addr:postcode":"46-100","addr:city":"Namys\u0142\u00f3w","addr:street":"ul. Kazimierza Pu\u0142askiego","addr:housenumber":"10","addr:teryt:simc":18099,"addr:teryt:sym_ul":965743,"contact:phone":"+48 774101683","contact:email":"sekretariat@mechanik-namyslow.pl","contact:website":"http:\/\/www.mechanik-namyslow.pl\/news.php","ref:regon":"007006744","ref:vatin":"PL7521008195","operator":"Powiat Namys\u0142owski","operator:type":"government","landuse":"education","fixme":"amenity=school, amenity=college albo landuse=education w zale\u017cno\u015bci od tego, jakie plac\u00f3wki wchodz\u0105 w sk\u0142ad zespo\u0142u. Sprawd\u017a, kiedy stosowa\u0107 amenity=* a kiedy landuse=education.","note":"Children RSPO: 89934;89935"}},{"id":89934,"type":"Feature","geometry":{"type":"Point","coordinates":[17.71822,51.08385]},"properties":{"isced:level":"3","ref:rspo":89934,"official_name":"Technikum Nr 1 w Zespole Szk\u00f3\u0142 Mechanicznych w Namys\u0142owie im. \"\u017bo\u0142nierzy Wrze\u015bnia 1939 Roku\"","name":"Technikum Nr 1 w Zespole Szk\u00f3\u0142 Mechanicznych w Namys\u0142owie","addr:country":"PL","addr:postcode":"46-100","addr:city":"Namys\u0142\u00f3w","addr:street":"ul. Kazimierza Pu\u0142askiego","addr:housenumber":"10","addr:teryt:simc":18099,"addr:teryt:sym_ul":965743,"contact:phone":"+48 774101627","contact:email":"sekretariat@mechanik-namyslow.pl","ref:regon":"532325836","ref:vatin":"PL7521008195","operator":"Powiat Namys\u0142owski","operator:type":"government","amenity":"school","note":"Parent RSPO: 85925"}},{"id":89935,"type":"Feature","geometry":{"type":"Point","coordinates":[17.71822,51.08382]},"properties":{"isced:level":"3","ref:rspo":89935,"official_name":"Bran\u017cowa Szko\u0142a I Stopnia Nr 1 w Zespole Szk\u00f3\u0142 Mechanicznych w Namys\u0142owie im. \"\u017bo\u0142nierzy Wrze\u015bnia 1939 Roku\"","name":"Bran\u017cowa Szko\u0142a I Stopnia Nr 1 w Zespole Szk\u00f3\u0142 Mechanicznych w Namys\u0142owie","addr:country":"PL","addr:postcode":"46-100","addr:city":"Namys\u0142\u00f3w","addr:street":"ul. Kazimierza Pu\u0142askiego","addr:housenumber":"10","addr:teryt:simc":18099,"addr:teryt:sym_ul":965743,"contact:phone":"+48 774101627","contact:email":"sekretariat@mechanik-namyslow.pl","ref:regon":"532325842","ref:vatin":"PL7521008195","operator":"Powiat Namys\u0142owski","operator:type":"government","amenity":"school","note":"Parent RSPO: 85925"}},{"id":29404,"type":"Feature","geometry":{"type":"Point","coordinates":[17.72329,51.0841]},"properties":{"isced:level":"1;2","ref:rspo":29404,"official_name":"Szko\u0142a Podstawowa Nr 5 im. \u015awi\u0119tego Jana Paw\u0142a II w Namys\u0142owie","name":"Szko\u0142a Podstawowa Nr 5","addr:country":"PL","addr:postcode":"46-100","addr:city":"Namys\u0142\u00f3w","addr:street":"ul. Kazimierza Pu\u0142askiego","addr:housenumber":"22","addr:teryt:simc":18099,"addr:teryt:sym_ul":965743,"contact:phone":"+48 774101365","contact:email":"sp5@op.pl","contact:website":"http:\/\/sp5namyslow.szkolnastrona.pl\/","ref:regon":"001200534","ref:vatin":"PL7521292428","operator":"Gmina Namys\u0142\u00f3w","operator:type":"government","amenity":"school"}},{"id":85928,"type":"Feature","geometry":{"type":"Point","coordinates":[17.72107,51.08448]},"properties":{"ref:rspo":85928,"official_name":"Zesp\u00f3\u0142 Szk\u00f3\u0142 Rolniczych im. Tadeusza Ko\u015bciuszki w Namys\u0142owie","name":"Zesp\u00f3\u0142 Szk\u00f3\u0142 Rolniczych","addr:country":"PL","addr:postcode":"46-100","addr:city":"Namys\u0142\u00f3w","addr:street":"ul. Kazimierza Pu\u0142askiego","addr:housenumber":"3","addr:teryt:simc":18099,"addr:teryt:sym_ul":965743,"contact:phone":"+48 774100432","contact:email":"zsr@op.home.pl","ref:regon":"000097809","ref:vatin":"PL7521017432","operator":"Powiat Namys\u0142owski","operator:type":"government","landuse":"education","fixme":"amenity=school, amenity=college albo landuse=education w zale\u017cno\u015bci od tego, jakie plac\u00f3wki wchodz\u0105 w sk\u0142ad zespo\u0142u. Sprawd\u017a, kiedy stosowa\u0107 amenity=* a kiedy landuse=education.","note":"Children RSPO: 91908;91909;91910"}},{"id":126962,"type":"Feature","geometry":{"type":"Point","coordinates":[17.72107,51.08445]},"properties":{"ref:rspo":126962,"official_name":"Rolnicze Centrum Kszta\u0142cenia Ustawicznego w Namys\u0142owie","name":"Rolnicze Centrum Kszta\u0142cenia Ustawicznego w Namys\u0142owie","addr:country":"PL","addr:postcode":"46-100","addr:city":"Namys\u0142\u00f3w","addr:street":"ul. Kazimierza Pu\u0142askiego","addr:housenumber":"3","addr:door":"C","addr:teryt:simc":18099,"addr:teryt:sym_ul":965743,"contact:phone":"+48 774100802","contact:email":"rcku@epoczta.pl","contact:website":"http:\/\/rcku-namyslow.home.pl\/","ref:regon":"532382969","ref:vatin":"PL7521407529","operator":"Powiat Namys\u0142owski","operator:type":"government","amenity":"school","fixme":"amenity=school lub amenity=college","note":"Children RSPO: 91911;91913;263125"}},{"id":91908,"type":"Feature","geometry":{"type":"Point","coordinates":[17.72107,51.08442]},"properties":{"isced:level":"3","ref:rspo":91908,"official_name":"Technikum Nr 2 w Zespole Szk\u00f3\u0142 Rolniczych Im Tadeusza Ko\u015bciuszki w Namys\u0142owie","name":"Technikum Nr 2 w Zespole Szk\u00f3\u0142 Rolniczych Im Tadeusza Ko\u015bciuszki w Namys\u0142owie","addr:country":"PL","addr:postcode":"46-100","addr:city":"Namys\u0142\u00f3w","addr:street":"ul. Kazimierza Pu\u0142askiego","addr:housenumber":"3","addr:teryt:simc":18099,"addr:teryt:sym_ul":965743,"contact:phone":"+48 774100432","contact:email":"zsr@op.home.pl","ref:regon":"532328088","operator":"Powiat Namys\u0142owski","operator:type":"government","amenity":"school","note":"Parent RSPO: 85928"}},{"id":91909,"type":"Feature","geometry":{"type":"Point","coordinates":[17.72107,51.08439]},"properties":{"isced:level":"3","ref:rspo":91909,"official_name":"Bran\u017cowa Szko\u0142a I Stopnia Nr 2 w Zespole Szk\u00f3\u0142 Rolniczych Im Taduesza Ko\u015bciuszki w Namys\u0142owie","name":"Bran\u017cowa Szko\u0142a I Stopnia Nr 2 w Zespole Szk\u00f3\u0142 Rolniczych Im Taduesza Ko\u015bciuszki w Namys\u0142owie","addr:country":"PL","addr:postcode":"46-100","addr:city":"Namys\u0142\u00f3w","addr:street":"ul. Kazimierza Pu\u0142askiego","addr:housenumber":"3","addr:teryt:simc":18099,"addr:teryt:sym_ul":965743,"contact:phone":"+48 774100432","ref:regon":"532328125","operator":"Powiat Namys\u0142owski","operator:type":"government","amenity":"school","note":"Parent RSPO: 85928"}},{"id":91910,"type":"Feature","geometry":{"type":"Point","coordinates":[17.72107,51.08436]},"properties":{"isced:level":"3","ref:rspo":91910,"official_name":"Ii Liceum Og\u00f3lnokszta\u0142c\u0105ce w Zsespole Szk\u00f3\u0142 Im Tadeusza Ko\u015bciuszki w Namys\u0142owie","name":"Ii Liceum Og\u00f3lnokszta\u0142c\u0105ce w Zsespole Szk\u00f3\u0142 Im Tadeusza Ko\u015bciuszki w Namys\u0142owie","addr:country":"PL","addr:postcode":"46-100","addr:city":"Namys\u0142\u00f3w","addr:street":"ul. Kazimierza Pu\u0142askiego","addr:housenumber":"3","addr:teryt:simc":18099,"addr:teryt:sym_ul":965743,"contact:phone":"+48 774100432","ref:regon":"532454746","operator":"Powiat Namys\u0142owski","operator:type":"government","amenity":"school","note":"Parent RSPO: 85928"}},{"id":91911,"type":"Feature","geometry":{"type":"Point","coordinates":[17.72107,51.08433]},"properties":{"isced:level":"4","ref:rspo":91911,"official_name":"Szko\u0142a Policealna w Namys\u0142owie","name":"Szko\u0142a Policealna w Namys\u0142owie","addr:country":"PL","addr:postcode":"46-100","addr:city":"Namys\u0142\u00f3w","addr:street":"ul. Kazimierza Pu\u0142askiego","addr:housenumber":"3C","addr:teryt:simc":18099,"addr:teryt:sym_ul":965743,"contact:phone":"+48 774100802","contact:email":"rcku@epoczta.pl","ref:regon":"532230550","operator":"Powiat Namys\u0142owski","operator:type":"government","amenity":"college","note":"Parent RSPO: 126962"}},{"id":91913,"type":"Feature","geometry":{"type":"Point","coordinates":[17.72107,51.0843]},"properties":{"isced:level":"3","ref:rspo":91913,"official_name":"Publiczne Liceum Og\u00f3lnokszta\u0142c\u0105ce dla Doros\u0142ych","name":"Publiczne Liceum Og\u00f3lnokszta\u0142c\u0105ce dla Doros\u0142ych","addr:country":"PL","addr:postcode":"46-100","addr:city":"Namys\u0142\u00f3w","addr:street":"ul. Kazimierza Pu\u0142askiego","addr:housenumber":"3C","addr:teryt:simc":18099,"addr:teryt:sym_ul":965743,"contact:phone":"+48 774100802","contact:email":"rcku@epoczta.pl","contact:website":"http:\/\/www.rcku-namyslow.pl","ref:regon":"160265361","operator":"Powiat Namys\u0142owski","operator:type":"government","amenity":"school","note":"Parent RSPO: 126962"}},{"id":263125,"type":"Feature","geometry":{"type":"Point","coordinates":[17.72107,51.08427]},"properties":{"isced:level":"1;2","ref:rspo":263125,"official_name":"Szko\u0142a Podstawowa dla Doros\u0142ych","name":"Szko\u0142a Podstawowa dla Doros\u0142ych","addr:country":"PL","addr:postcode":"46-100","addr:city":"Namys\u0142\u00f3w","addr:street":"ul. Kazimierza Pu\u0142askiego","addr:housenumber":"3","addr:door":"c","addr:teryt:simc":18099,"addr:teryt:sym_ul":965743,"contact:phone":"+48 774100802","contact:email":"rcku@epoczta.pl","contact:website":"http:\/\/www.rcku-namyslow.pl","ref:regon":"368107572","operator":"Powiat Namys\u0142owski","operator:type":"government","amenity":"school","note":"Parent RSPO: 126962"}},{"id":276455,"type":"Feature","geometry":{"type":"Point","coordinates":[17.71423,51.08556]},"properties":{"ref:rspo":276455,"official_name":"Niepubliczne Przedszkole \"Elementarz Przyjazny Rodzinie\" w Namys\u0142owie","name":"Niepubliczne Przedszkole \"Elementarz Przyjazny Rodzinie\" w Namys\u0142owie","addr:country":"PL","addr:postcode":"46-100","addr:city":"Namys\u0142\u00f3w","addr:street":"ul. Braterska","addr:housenumber":"7","addr:teryt:simc":2048,"addr:teryt:sym_ul":965743,"contact:email":"zlobek.namyslow@epr.edu.pl","contact:website":"http:\/\/www.epr.edu.pl","ref:regon":"387144584","ref:vatin":"PL7521461753","operator":"Fundacja Ekologiczna - Wychowanie I Sztuka \"Elementarz\"","operator:type":"ngo","amenity":"kindergarten"}},{"id":10465,"type":"Feature","geometry":{"type":"Point","coordinates":[17.80634,51.09952]},"properties":{"ref:rspo":10465,"official_name":"Przedszkole w Bukowie \u015aL\u0105skiej","name":"Przedszkole w Bukowie \u015aL\u0105skiej","addr:country":"PL","addr:postcode":"46-100","addr:place":"Bukowa \u015al\u0105ska","addr:housenumber":"7B","addr:teryt:sym_ul":499471,"contact:phone":"+48 774191192","contact:email":"przedszkolewbukowieslaskiej@wp.pl","ref:regon":"160231920","ref:vatin":"PL7521282950","operator":"Gmina Namys\u0142\u00f3w","operator:type":"government","amenity":"kindergarten"}},{"id":10462,"type":"Feature","geometry":{"type":"Point","coordinates":[17.77059,51.1308099]},"properties":{"ref:rspo":10462,"official_name":"Przedszkole Nr 5 w Namys\u0142owie","name":"Przedszkole Nr 5 w Namys\u0142owie","addr:country":"PL","addr:postcode":"46-100","addr:city":"Namys\u0142\u00f3w","addr:street":"ul. S\u0142oneczna","addr:housenumber":"1","addr:teryt:simc":20254,"addr:teryt:sym_ul":965743,"contact:phone":"+48 774100488","contact:email":"p5namyslow@gmail.com","contact:website":"http:\/\/www.przedszkole-sloneczne.pl","ref:regon":"160231965","ref:vatin":"PL7521277765","operator":"Gmina Namys\u0142\u00f3w","operator:type":"government","amenity":"kindergarten"}},{"id":11857,"type":"Feature","geometry":{"type":"Point","coordinates":[17.82189,51.1626]},"properties":{"ref:rspo":11857,"official_name":"Zesp\u00f3\u0142 Szkolno-Przedszkolny w G\u0142uszynie","name":"Zesp\u00f3\u0142 Szkolno-Przedszkolny w G\u0142uszynie","addr:country":"PL","addr:postcode":"46-100","addr:city":"G\u0142uszyna","addr:street":"ul. G\u0142\u00f3wna","addr:housenumber":"115","addr:teryt:simc":5635,"addr:teryt:sym_ul":499488,"contact:phone":"+48 774191410","contact:email":"sekretariat@zspgluszyna.szkolnastrona.pl","ref:regon":"001201172","ref:vatin":"PL7521315129","operator":"Gmina Namys\u0142\u00f3w","operator:type":"government","landuse":"education","fixme":"amenity=school, amenity=college albo landuse=education w zale\u017cno\u015bci od tego, jakie plac\u00f3wki wchodz\u0105 w sk\u0142ad zespo\u0142u. Sprawd\u017a, kiedy stosowa\u0107 amenity=* a kiedy landuse=education.","note":"Children RSPO: 19669;19670"}},{"id":19669,"type":"Feature","geometry":{"type":"Point","coordinates":[17.82189,51.162569999999995]},"properties":{"ref:rspo":19669,"official_name":"Przedszkole w G\u0142uszynie","name":"Przedszkole w G\u0142uszynie","addr:country":"PL","addr:postcode":"46-100","addr:city":"G\u0142uszyna","addr:street":"ul. G\u0142\u00f3wna","addr:housenumber":"115","addr:teryt:simc":5635,"addr:teryt:sym_ul":499488,"contact:phone":"+48 774191410","contact:email":"zspgluszyna@wp.pl","ref:regon":"532210688","operator":"Gmina Namys\u0142\u00f3w","operator:type":"government","amenity":"kindergarten","note":"Parent RSPO: 11857"}},{"id":19670,"type":"Feature","geometry":{"type":"Point","coordinates":[17.82189,51.16254]},"properties":{"isced:level":"1;2","ref:rspo":19670,"official_name":"Szko\u0142a Podstawowa im. Jana Kochanowskiego w G\u0142uszynie","name":"Szko\u0142a Podstawowa","addr:country":"PL","addr:postcode":"46-100","addr:city":"G\u0142uszyna","addr:street":"ul. G\u0142\u00f3wna","addr:housenumber":"115","addr:teryt:simc":5635,"addr:teryt:sym_ul":499488,"contact:phone":"+48 774191692","contact:email":"zspgluszyna@wp.pl","contact:website":"http:\/\/zspgluszyna.szkolnastrona.pl","ref:regon":"532210694","operator":"Gmina Namys\u0142\u00f3w","operator:type":"government","amenity":"school","note":"Parent RSPO: 11857"}}]}