{"type":"FeatureCollection","features":[{"id":115085,"type":"Feature","geometry":{"type":"Point","coordinates":[17.8393,50.90491]},"properties":{"ref:rspo":115085,"official_name":"Zesp\u00f3\u0142 Szkolno- Przedszkolny","name":"Zesp\u00f3\u0142 Szkolno- Przedszkolny","addr:country":"PL","addr:postcode":"46-034","addr:city":"Pok\u00f3j","addr:street":"ul. 1 Maja","addr:housenumber":"15","addr:teryt:simc":11926,"addr:teryt:sym_ul":502026,"contact:phone":"+48 774693107","contact:email":"pspp@poczta.fm","ref:regon":"161536112","operator":"Gmina Pok\u00f3j","operator:type":"government","landuse":"education","fixme":"amenity=school, amenity=college albo landuse=education w zale\u017cno\u015bci od tego, jakie plac\u00f3wki wchodz\u0105 w sk\u0142ad zespo\u0142u. Sprawd\u017a, kiedy stosowa\u0107 amenity=* a kiedy landuse=education.","note":"Children RSPO: 66476;74021"}},{"id":74021,"type":"Feature","geometry":{"type":"Point","coordinates":[17.8393,50.90488]},"properties":{"isced:level":"1;2","ref:rspo":74021,"official_name":"Publiczna Szko\u0142a Podstawowa im.wincentego Witosa w Pokoju","name":"Publiczna Szko\u0142a Podstawowa im.wincentego Witosa w Pokoju","addr:country":"PL","addr:postcode":"46-034","addr:city":"Pok\u00f3j","addr:street":"ul. 1 Maja","addr:housenumber":"15","addr:teryt:simc":11926,"addr:teryt:sym_ul":502026,"contact:phone":"+48 774693107","contact:email":"pspp@poczta.fm","contact:website":"http:\/\/psppokoj.pl","ref:regon":"000273382","ref:vatin":"PL7521356039","operator":"Gmina Pok\u00f3j","operator:type":"government","amenity":"school","note":"Parent RSPO: 115085"}},{"id":66476,"type":"Feature","geometry":{"type":"Point","coordinates":[17.8388,50.90563]},"properties":{"ref:rspo":66476,"official_name":"Publiczne Przedszkole w Pokoju","name":"Publiczne Przedszkole w Pokoju","addr:country":"PL","addr:postcode":"46-034","addr:city":"Pok\u00f3j","addr:street":"ul. Sienkiewicza","addr:housenumber":"10","addr:teryt:simc":19830,"addr:teryt:sym_ul":502026,"contact:phone":"+48 774693096","contact:email":"pspp@poczta.fm","ref:regon":"530583273","ref:vatin":"PL7521421972","operator":"Gmina Pok\u00f3j","operator:type":"government","amenity":"kindergarten","note":"Parent RSPO: 115085"}},{"id":66282,"type":"Feature","geometry":{"type":"Point","coordinates":[17.8642,50.94704]},"properties":{"isced:level":"1;2","ref:rspo":66282,"official_name":"Szko\u0142a Podstawowa Z Oddzia\u0142em Przedszkolnym im. Jakuba Kani w Domaradzu","name":"Szko\u0142a Podstawowa Z Oddzia\u0142em Przedszkolnym","addr:country":"PL","addr:postcode":"46-034","addr:place":"Domaradz","addr:housenumber":"3","addr:teryt:sym_ul":501877,"contact:phone":"+48 774698031","contact:email":"sp-domaradz@wp.pl","contact:website":"http:\/\/www.spdomaradz.szkolnastrona.pl","ref:regon":"001189413","ref:vatin":"PL7521346029","operator":"Gmina Pok\u00f3j","operator:type":"government","amenity":"school"}},{"id":91620,"type":"Feature","geometry":{"type":"Point","coordinates":[17.95385,50.97829]},"properties":{"ref:rspo":91620,"official_name":"Niepubliczny M\u0142odzie\u017cowy O\u015brodek Wychowawczy Towarzystwa Spo\u0142ecznych Dzia\u0142a\u0144 Na Rzecz Dzieci I M\u0142odzie\u017cy \" Razem w Przysz\u0142o\u015b\u0107\" w Namys\u0142owie","name":"Niepubliczny M\u0142odzie\u017cowy O\u015brodek Wychowawczy Towarzystwa Spo\u0142ecznych Dzia\u0142a\u0144 Na Rzecz Dzieci I M\u0142odzie\u017cy \" Razem w Przysz\u0142o\u015b\u0107\" w Namys\u0142owie","addr:country":"PL","addr:postcode":"46-034","addr:city":"Zawi\u015b\u0107","addr:street":"ul. Odrodzenia Polski","addr:housenumber":"1","addr:teryt:simc":14757,"addr:teryt:sym_ul":502049,"contact:phone":"+48 774360064","contact:email":"annagrognet@gmail.com","ref:regon":"161496737","operator":"Towarzystwo Spo\u0142ecznych Dzia\u0142a\u0144 Na Rzecz Dzieci I M\u0142odzie\u017cy \"Razem W Przysz\u0142o\u015b\u0107\"","operator:type":"ngo","fixme":"amenity=social facility + social_facility=group_home + social_facility:for=juvenile","note":"Children RSPO: 268218"}},{"id":268218,"type":"Feature","geometry":{"type":"Point","coordinates":[17.95385,50.97826]},"properties":{"isced:level":"1;2","ref:rspo":268218,"official_name":"Niepubliczna Szko\u0142a Podstawowa Specjalna dla Uczni\u00f3w Niedostosowanych Spo\u0142ecznie Towarzystwa Spo\u0142ecznych Dzia\u0142a\u0144 Na Rzecz Dzieci I M\u0142odzie\u017cy ''Razem w Przysz\u0142o\u015b\u0107'' w Zawi\u015bci","name":"Niepubliczna Szko\u0142a Podstawowa Specjalna dla Uczni\u00f3w Niedostosowanych Spo\u0142ecznie Towarzystwa Spo\u0142ecznych Dzia\u0142a\u0144 Na Rzecz Dzieci I M\u0142odzie\u017cy ''Razem w Przysz\u0142o\u015b\u0107'' w Zawi\u015bci","addr:country":"PL","addr:postcode":"46-034","addr:city":"Zawi\u015b\u0107","addr:street":"ul. Odrodzenia Polski","addr:housenumber":"1","addr:teryt:simc":14757,"addr:teryt:sym_ul":502049,"contact:phone":"+48 774360064","contact:email":"annagrognet@gmail.com","ref:regon":"381029066","operator":"Towarzystwo Spo\u0142ecznych Dzia\u0142a\u0144 Na Rzecz Dzieci I M\u0142odzie\u017cy \"Razem W Przysz\u0142o\u015b\u0107\"","operator:type":"ngo","amenity":"school","note":"Parent RSPO: 91620"}}]}