{
    "type": "FeatureCollection",
    "features": [
        {
            "id": 128187,
            "type": "Feature",
            "geometry": {
                "type": "Point",
                "coordinates": [
                    16.86423,
                    52.5936
                ]
            },
            "properties": {
                "ref:rspo": 128187,
                "official_name": "Zesp\u00f3\u0142 Szkolno-Przedszkolny w Maniewie",
                "name": "Zesp\u00f3\u0142 Szkolno-Przedszkolny w Maniewie",
                "addr:country": "PL",
                "addr:postcode": "64-605",
                "addr:place": "Maniewo",
                "addr:housenumber": "60",
                "addr:teryt:simc": 591509,
                "contact:phone": "+48 612972512",
                "contact:email": "spmaniewo@gmail.com",
                "contact:website": "http:\/\/www.spmaniewo.oborniki.pl",
                "ref:regon": "362155601",
                "ref:vatin": "PL6060094982",
                "operator": "Gmina Oborniki",
                "operator:type": "government",
                "landuse": "education",
                "fixme": "amenity=school, amenity=college albo landuse=education w zale\u017cno\u015bci od tego, jakie plac\u00f3wki wchodz\u0105 w sk\u0142ad zespo\u0142u. Sprawd\u017a, kiedy stosowa\u0107 amenity=* a kiedy landuse=education.",
                "note": "Children RSPO: 83182;127486"
            }
        },
        {
            "id": 83182,
            "type": "Feature",
            "geometry": {
                "type": "Point",
                "coordinates": [
                    16.86423,
                    52.59357
                ]
            },
            "properties": {
                "isced:level": "1;2",
                "ref:rspo": 83182,
                "official_name": "Szko\u0142a Podstawowa im. Or\u0142a Bia\u0142ego w Maniewie",
                "name": "Szko\u0142a Podstawowa",
                "addr:country": "PL",
                "addr:postcode": "64-605",
                "addr:place": "Maniewo",
                "addr:housenumber": "60",
                "addr:teryt:simc": 591509,
                "contact:phone": "+48 612972512",
                "contact:email": "sp.maniewo@gmail.com",
                "contact:website": "http:\/\/www.spmaniewo.oborniki.pl",
                "ref:regon": "000940803",
                "ref:vatin": "PL7661725962",
                "operator": "Gmina Oborniki",
                "operator:type": "government",
                "amenity": "school",
                "note": "Parent RSPO: 128187"
            }
        },
        {
            "id": 127486,
            "type": "Feature",
            "geometry": {
                "type": "Point",
                "coordinates": [
                    16.86423,
                    52.593540000000004
                ]
            },
            "properties": {
                "ref:rspo": 127486,
                "official_name": "Publiczne Przedszkole w Maniewie",
                "name": "Publiczne Przedszkole w Maniewie",
                "addr:country": "PL",
                "addr:postcode": "64-605",
                "addr:place": "Maniewo",
                "addr:housenumber": "60",
                "addr:teryt:simc": 591509,
                "contact:phone": "+48 642972512",
                "contact:email": "spmaniewo@gmail.com",
                "contact:website": "http:\/\/www.spmaniewo.oborniki.pl",
                "ref:regon": "361663666",
                "operator": "Gmina Oborniki",
                "operator:type": "government",
                "amenity": "kindergarten",
                "note": "Parent RSPO: 128187"
            }
        },
        {
            "id": 51933,
            "type": "Feature",
            "geometry": {
                "type": "Point",
                "coordinates": [
                    16.7643099,
                    52.60205
                ]
            },
            "properties": {
                "ref:rspo": 51933,
                "official_name": "Zesp\u00f3\u0142 Szk\u00f3\u0142 im. Adama Mickiewicza w Objezierzu",
                "name": "Zesp\u00f3\u0142 Szk\u00f3\u0142",
                "addr:country": "PL",
                "addr:postcode": "64-600",
                "addr:place": "Objezierze",
                "addr:housenumber": "3",
                "addr:teryt:simc": 591580,
                "contact:phone": "+48 612966276",
                "contact:email": "zs@objezierze.pl",
                "contact:website": "http:\/\/www.zs.objezierze.pl",
                "ref:regon": "000099613",
                "ref:vatin": "PL7871141523",
                "operator": "Gmina Oborniki",
                "operator:type": "government",
                "landuse": "education",
                "fixme": "amenity=school, amenity=college albo landuse=education w zale\u017cno\u015bci od tego, jakie plac\u00f3wki wchodz\u0105 w sk\u0142ad zespo\u0142u. Sprawd\u017a, kiedy stosowa\u0107 amenity=* a kiedy landuse=education.",
                "note": "Children RSPO: 71077;71078"
            }
        },
        {
            "id": 71077,
            "type": "Feature",
            "geometry": {
                "type": "Point",
                "coordinates": [
                    16.7643099,
                    52.602019999999996
                ]
            },
            "properties": {
                "isced:level": "3",
                "ref:rspo": 71077,
                "official_name": "Technikum w Zespole Szk\u00f3\u0142 im. Adama Mickiewicza w Objezierzu",
                "name": "Technikum w Zespole Szk\u00f3\u0142",
                "addr:country": "PL",
                "addr:postcode": "64-600",
                "addr:place": "Objezierze",
                "addr:housenumber": "3",
                "addr:teryt:simc": 591580,
                "contact:phone": "+48 612966276",
                "contact:email": "zs@objezierze.pl",
                "contact:website": "http:\/\/www.zs.objezierze.pl",
                "ref:regon": "634384656",
                "operator": "Gmina Oborniki",
                "operator:type": "government",
                "amenity": "school",
                "note": "Parent RSPO: 51933"
            }
        },
        {
            "id": 71078,
            "type": "Feature",
            "geometry": {
                "type": "Point",
                "coordinates": [
                    16.7643099,
                    52.60199
                ]
            },
            "properties": {
                "isced:level": "3",
                "ref:rspo": 71078,
                "official_name": "Bran\u017cowa Szko\u0142a I Stopnia Z Oddzia\u0142ami Integracyjnymi w Zespole Szk\u00f3\u0142 im. Adama Mickiewicza w Objezierzu",
                "name": "Bran\u017cowa Szko\u0142a I Stopnia Z Oddzia\u0142ami Integracyjnymi w Zespole Szk\u00f3\u0142",
                "addr:country": "PL",
                "addr:postcode": "64-600",
                "addr:place": "Objezierze",
                "addr:housenumber": "3",
                "addr:teryt:simc": 591580,
                "contact:phone": "+48 612966276",
                "contact:email": "zs@objezierze.pl",
                "contact:website": "http:\/\/www.zs.objezierze.pl",
                "ref:regon": "634354744",
                "operator": "Gmina Oborniki",
                "operator:type": "government",
                "amenity": "school",
                "note": "Parent RSPO: 51933"
            }
        },
        {
            "id": 128186,
            "type": "Feature",
            "geometry": {
                "type": "Point",
                "coordinates": [
                    16.76479,
                    52.6043499
                ]
            },
            "properties": {
                "ref:rspo": 128186,
                "official_name": "Zesp\u00f3\u0142 Szkolno-Przedszkolny w Objezierzu",
                "name": "Zesp\u00f3\u0142 Szkolno-Przedszkolny w Objezierzu",
                "addr:country": "PL",
                "addr:postcode": "64-600",
                "addr:place": "Objezierze",
                "addr:housenumber": "8",
                "addr:teryt:simc": 591580,
                "contact:phone": "+48 612966280",
                "contact:email": "spobjezierze@poczta.onet.pl",
                "contact:website": "http:\/\/www.spobjezierze.oborniki.pl",
                "ref:regon": "362155676",
                "ref:vatin": "PL6060095007",
                "operator": "Gmina Oborniki",
                "operator:type": "government",
                "landuse": "education",
                "fixme": "amenity=school, amenity=college albo landuse=education w zale\u017cno\u015bci od tego, jakie plac\u00f3wki wchodz\u0105 w sk\u0142ad zespo\u0142u. Sprawd\u017a, kiedy stosowa\u0107 amenity=* a kiedy landuse=education.",
                "note": "Children RSPO: 58455;127487"
            }
        },
        {
            "id": 58455,
            "type": "Feature",
            "geometry": {
                "type": "Point",
                "coordinates": [
                    16.76479,
                    52.6043199
                ]
            },
            "properties": {
                "isced:level": "1;2",
                "ref:rspo": 58455,
                "official_name": "Szko\u0142a Podstawowa im. J\u00f3zefa Ignacego Kraszewskiego w Objezierzu",
                "name": "Szko\u0142a Podstawowa",
                "addr:country": "PL",
                "addr:postcode": "64-600",
                "addr:place": "Objezierze",
                "addr:housenumber": "8",
                "addr:teryt:simc": 591580,
                "contact:phone": "+48 612966280",
                "contact:email": "spobjezierze@poczta.onet.pl",
                "contact:website": "http:\/\/www.spobjezierze.oborniki.pl",
                "ref:regon": "000940772",
                "ref:vatin": "PL7661725838",
                "operator": "Gmina Oborniki",
                "operator:type": "government",
                "amenity": "school",
                "note": "Parent RSPO: 128186"
            }
        },
        {
            "id": 127487,
            "type": "Feature",
            "geometry": {
                "type": "Point",
                "coordinates": [
                    16.76479,
                    52.604289900000005
                ]
            },
            "properties": {
                "ref:rspo": 127487,
                "official_name": "Publiczne Przedszkole w Objezierzu",
                "name": "Publiczne Przedszkole w Objezierzu",
                "addr:country": "PL",
                "addr:postcode": "64-600",
                "addr:place": "Objezierze",
                "addr:housenumber": "8",
                "addr:teryt:simc": 591580,
                "contact:phone": "+48 612966280",
                "contact:email": "spobjezierze@poczta.onet.pl",
                "contact:website": "http:\/\/www.spobjezierze.oborniki.pl",
                "ref:regon": "361663755",
                "operator": "Gmina Oborniki",
                "operator:type": "government",
                "amenity": "kindergarten",
                "note": "Parent RSPO: 128186"
            }
        },
        {
            "id": 62610,
            "type": "Feature",
            "geometry": {
                "type": "Point",
                "coordinates": [
                    16.81202,
                    52.62285
                ]
            },
            "properties": {
                "ref:rspo": 62610,
                "official_name": "Przedszkole Niepubliczne Ekoraj",
                "name": "Przedszkole Niepubliczne Ekoraj",
                "addr:country": "PL",
                "addr:postcode": "64-600",
                "addr:place": "Bogdanowo",
                "addr:housenumber": "39",
                "addr:teryt:simc": 591314,
                "contact:email": "biuro@przedszkole-ekoraj.pl",
                "contact:website": "http:\/\/www.przedszkole-ekoraj.pl",
                "ref:regon": "302256585",
                "ref:vatin": "PL8842646787",
                "operator": "Violetta Rychli\u0144ska",
                "operator:type": "private",
                "amenity": "kindergarten"
            }
        },
        {
            "id": 276522,
            "type": "Feature",
            "geometry": {
                "type": "Point",
                "coordinates": [
                    16.8105,
                    52.62708
                ]
            },
            "properties": {
                "ref:rspo": 276522,
                "official_name": "Niepubliczny O\u015brodek Doskonalenia Nauczycieli Zyta Czechowska Specjalni.pl",
                "name": "Niepubliczny O\u015brodek Doskonalenia Nauczycieli Zyta Czechowska Specjalni.pl",
                "addr:country": "PL",
                "addr:postcode": "64-600",
                "addr:place": "Bogdanowo",
                "addr:housenumber": "32",
                "addr:teryt:simc": 591314,
                "ref:regon": "387174987",
                "operator": "Zyta Czechowska",
                "operator:type": "private",
                "amenity": "training"
            }
        },
        {
            "id": 275973,
            "type": "Feature",
            "geometry": {
                "type": "Point",
                "coordinates": [
                    16.80895,
                    52.62984
                ]
            },
            "properties": {
                "ref:rspo": 275973,
                "official_name": "Przedszkole Edu Kids Nr 1 w Bogdanowie",
                "name": "Przedszkole Edu Kids Nr 1 w Bogdanowie",
                "addr:country": "PL",
                "addr:postcode": "64-600",
                "addr:place": "Bogdanowo",
                "addr:housenumber": "13J",
                "addr:teryt:simc": 591314,
                "contact:phone": "+48 691305085",
                "contact:email": "edukids-bogdanowo@wp.pl",
                "contact:website": "http:\/\/www.edukids-bogdanowo.pl",
                "ref:regon": "386959976",
                "ref:vatin": "PL7661831434",
                "operator": "Natalia Tysowska",
                "operator:type": "private",
                "amenity": "kindergarten"
            }
        },
        {
            "id": 128185,
            "type": "Feature",
            "geometry": {
                "type": "Point",
                "coordinates": [
                    16.71426,
                    52.6323099
                ]
            },
            "properties": {
                "ref:rspo": 128185,
                "official_name": "Zesp\u00f3\u0142 Szkolno-Przedszkolny w Chrustowie",
                "name": "Zesp\u00f3\u0142 Szkolno-Przedszkolny w Chrustowie",
                "addr:country": "PL",
                "addr:postcode": "64-600",
                "addr:place": "Chrustowo",
                "addr:housenumber": "13",
                "addr:teryt:simc": 591320,
                "contact:phone": "+48 612971127",
                "contact:email": "spchrustowo1@wp.pl",
                "contact:website": "http:\/\/www.spchrustowo.oborniki.pl",
                "ref:regon": "362155788",
                "ref:vatin": "PL6060095059",
                "operator": "Gmina Oborniki",
                "operator:type": "government",
                "landuse": "education",
                "fixme": "amenity=school, amenity=college albo landuse=education w zale\u017cno\u015bci od tego, jakie plac\u00f3wki wchodz\u0105 w sk\u0142ad zespo\u0142u. Sprawd\u017a, kiedy stosowa\u0107 amenity=* a kiedy landuse=education.",
                "note": "Children RSPO: 58451;127489"
            }
        },
        {
            "id": 58451,
            "type": "Feature",
            "geometry": {
                "type": "Point",
                "coordinates": [
                    16.71426,
                    52.6322799
                ]
            },
            "properties": {
                "isced:level": "1;2",
                "ref:rspo": 58451,
                "official_name": "Szko\u0142a Podstawowa im. Bronis\u0142awa Malinowskiego w Chrustowie",
                "name": "Szko\u0142a Podstawowa",
                "addr:country": "PL",
                "addr:postcode": "64-600",
                "addr:place": "Chrustowo",
                "addr:housenumber": "13",
                "addr:teryt:simc": 591320,
                "contact:phone": "+48 612971127",
                "contact:email": "spchrustowo1@wp.pl",
                "contact:website": "http:\/\/www.spchrustowo.oborniki.pl",
                "ref:regon": "000940766",
                "ref:vatin": "PL7661640527",
                "operator": "Gmina Oborniki",
                "operator:type": "government",
                "amenity": "school",
                "note": "Parent RSPO: 128185"
            }
        },
        {
            "id": 127489,
            "type": "Feature",
            "geometry": {
                "type": "Point",
                "coordinates": [
                    16.71426,
                    52.632249900000005
                ]
            },
            "properties": {
                "ref:rspo": 127489,
                "official_name": "Publiczne Przedszkole w Chrustowie",
                "name": "Publiczne Przedszkole w Chrustowie",
                "addr:country": "PL",
                "addr:postcode": "64-606",
                "addr:place": "Chrustowo",
                "addr:housenumber": "13",
                "addr:teryt:simc": 591320,
                "contact:phone": "+48 612971127",
                "contact:email": "spchrustowo1@wp.pl",
                "contact:website": "http:\/\/www.spchrustowo.oborniki.pl",
                "ref:regon": "361664654",
                "operator": "Gmina Oborniki",
                "operator:type": "government",
                "amenity": "kindergarten",
                "note": "Parent RSPO: 128185"
            }
        },
        {
            "id": 273190,
            "type": "Feature",
            "geometry": {
                "type": "Point",
                "coordinates": [
                    16.81117,
                    52.64506
                ]
            },
            "properties": {
                "ref:rspo": 273190,
                "official_name": "Plus Plac\u00f3wka Kszta\u0142cenia Ustawicznego w Obornikach",
                "name": "Plus Plac\u00f3wka Kszta\u0142cenia Ustawicznego w Obornikach",
                "addr:country": "PL",
                "addr:postcode": "64-600",
                "addr:city": "Oborniki",
                "addr:street": "Rynek",
                "addr:housenumber": "11",
                "addr:teryt:simc": 971181,
                "addr:teryt:sym_ul": 19252,
                "ref:regon": "384392502",
                "operator": "Plus Edukacja Centrum Kszta\u0142cenia Sp\u00f3\u0142ka Z Ograniczon\u0105 Odpowiedzialno\u015bci\u0105",
                "operator:type": "private",
                "fixme": "w zale\u017cno\u015bci od przedmiotu dzia\u0142alno\u015bci (np. amenity=training + training=*, amenity=dancing_school, amenity=language_school, amenity=music_school)"
            }
        },
        {
            "id": 83184,
            "type": "Feature",
            "geometry": {
                "type": "Point",
                "coordinates": [
                    16.81232,
                    52.64672
                ]
            },
            "properties": {
                "ref:rspo": 83184,
                "official_name": "Przedszkole Prywatne Nr 1 Rupaki",
                "name": "Przedszkole Prywatne Nr 1 Rupaki",
                "addr:country": "PL",
                "addr:postcode": "64-600",
                "addr:city": "Oborniki",
                "addr:street": "Kowalska",
                "addr:housenumber": "10",
                "addr:teryt:simc": 971181,
                "addr:teryt:sym_ul": 9665,
                "contact:email": "przedszkole.oborniki@wp.pl",
                "contact:website": "http:\/\/www.przedszkole-oborniki.com.pl",
                "ref:regon": "302268648",
                "ref:vatin": "PL8891340686",
                "operator": "Agnieszka Gapi\u0144ska",
                "operator:type": "private",
                "amenity": "kindergarten"
            }
        },
        {
            "id": 43785,
            "type": "Feature",
            "geometry": {
                "type": "Point",
                "coordinates": [
                    16.809,
                    52.6477099
                ]
            },
            "properties": {
                "ref:rspo": 43785,
                "official_name": "Zesp\u00f3\u0142 Szk\u00f3\u0142 im. Gen. Tadeusza Kutrzeby w Obornikach",
                "name": "Zesp\u00f3\u0142 Szk\u00f3\u0142",
                "addr:country": "PL",
                "addr:postcode": "64-600",
                "addr:city": "Oborniki",
                "addr:street": "Ksi\u0119dza Stefana Szyma\u0144skiego",
                "addr:housenumber": "5",
                "addr:teryt:simc": 971181,
                "addr:teryt:sym_ul": 39536,
                "contact:phone": "+48 612970486",
                "contact:email": "zespolszkoloborniki@gmail.com",
                "contact:website": "http:\/\/www.zs.oborniki.info",
                "ref:regon": "000234488",
                "operator": "Powiat Obornicki",
                "operator:type": "government",
                "landuse": "education",
                "fixme": "amenity=school, amenity=college albo landuse=education w zale\u017cno\u015bci od tego, jakie plac\u00f3wki wchodz\u0105 w sk\u0142ad zespo\u0142u. Sprawd\u017a, kiedy stosowa\u0107 amenity=* a kiedy landuse=education.",
                "note": "Children RSPO: 58957;58958;58961;58964"
            }
        },
        {
            "id": 58957,
            "type": "Feature",
            "geometry": {
                "type": "Point",
                "coordinates": [
                    16.809,
                    52.6476799
                ]
            },
            "properties": {
                "isced:level": "3",
                "ref:rspo": 58957,
                "official_name": "Bran\u017cowa Szko\u0142a I Stopnia Zesp\u00f3\u0142 Szk\u00f3\u0142 im. Gen. Tadeusza Kutrzeby w Obornikach",
                "name": "Bran\u017cowa Szko\u0142a I Stopnia Zesp\u00f3\u0142 Szk\u00f3\u0142",
                "addr:country": "PL",
                "addr:postcode": "64-600",
                "addr:city": "Oborniki",
                "addr:street": "Ksi\u0119dza Stefana Szyma\u0144skiego",
                "addr:housenumber": "5",
                "addr:teryt:simc": 971181,
                "addr:teryt:sym_ul": 39536,
                "contact:phone": "+48 612970486",
                "contact:email": "zespolszkoloborniki@gmail.com",
                "contact:website": "http:\/\/www.zs.oborniki.info",
                "ref:regon": "639823178",
                "operator": "Powiat Obornicki",
                "operator:type": "government",
                "amenity": "school",
                "note": "Parent RSPO: 43785"
            }
        },
        {
            "id": 58958,
            "type": "Feature",
            "geometry": {
                "type": "Point",
                "coordinates": [
                    16.809,
                    52.647649900000005
                ]
            },
            "properties": {
                "isced:level": "3",
                "ref:rspo": 58958,
                "official_name": "Technikum Zesp\u00f3\u0142 Szk\u00f3\u0142 im. Gen. Tadeusza Kutrzeby w Obornikach",
                "name": "Technikum Zesp\u00f3\u0142 Szk\u00f3\u0142",
                "addr:country": "PL",
                "addr:postcode": "64-600",
                "addr:city": "Oborniki",
                "addr:street": "Ksi\u0119dza Stefana Szyma\u0144skiego",
                "addr:housenumber": "5",
                "addr:teryt:simc": 971181,
                "addr:teryt:sym_ul": 39536,
                "contact:phone": "+48 612970486",
                "contact:email": "zespolszkoloborniki@gmail.com",
                "contact:website": "http:\/\/www.zs.oborniki.info",
                "ref:regon": "634291564",
                "operator": "Powiat Obornicki",
                "operator:type": "government",
                "amenity": "school",
                "note": "Parent RSPO: 43785"
            }
        },
        {
            "id": 58961,
            "type": "Feature",
            "geometry": {
                "type": "Point",
                "coordinates": [
                    16.809,
                    52.6476199
                ]
            },
            "properties": {
                "isced:level": "4",
                "ref:rspo": 58961,
                "official_name": "Szko\u0142a Policealna Zesp\u00f3\u0142 Szk\u00f3\u0142 im. Gen. Tadeusza Kutrzeby w Obornikach",
                "name": "Szko\u0142a Policealna Zesp\u00f3\u0142 Szk\u00f3\u0142",
                "addr:country": "PL",
                "addr:postcode": "64-600",
                "addr:city": "Oborniki",
                "addr:street": "Ksi\u0119dza Stefana Szyma\u0144skiego",
                "addr:housenumber": "5",
                "addr:teryt:simc": 971181,
                "addr:teryt:sym_ul": 39536,
                "contact:phone": "+48 612970486",
                "contact:email": "zespolszkoloborniki@gmail.com",
                "contact:website": "http:\/\/www.zs.oborniki.info",
                "ref:regon": "639823250",
                "operator": "Powiat Obornicki",
                "operator:type": "government",
                "amenity": "college",
                "note": "Parent RSPO: 43785"
            }
        },
        {
            "id": 58964,
            "type": "Feature",
            "geometry": {
                "type": "Point",
                "coordinates": [
                    16.809,
                    52.6475899
                ]
            },
            "properties": {
                "isced:level": "3",
                "ref:rspo": 58964,
                "official_name": "Liceum Og\u00f3lnokszta\u0142c\u0105ce dla Doros\u0142ych Zesp\u00f3\u0142 Szk\u00f3\u0142 im. Gen. Tadeusza Kutrzeby w Obornikach",
                "name": "Liceum Og\u00f3lnokszta\u0142c\u0105ce dla Doros\u0142ych Zesp\u00f3\u0142 Szk\u00f3\u0142",
                "addr:country": "PL",
                "addr:postcode": "64-600",
                "addr:city": "Oborniki",
                "addr:street": "Ksi\u0119dza Stefana Szyma\u0144skiego",
                "addr:housenumber": "5",
                "addr:teryt:simc": 971181,
                "addr:teryt:sym_ul": 39536,
                "contact:phone": "+48 612970486",
                "contact:email": "zespolszkoloborniki@gmail.com",
                "contact:website": "http:\/\/www.zs.oborniki.info",
                "ref:regon": "634506504",
                "operator": "Powiat Obornicki",
                "operator:type": "government",
                "amenity": "school",
                "note": "Parent RSPO: 43785"
            }
        },
        {
            "id": 38842,
            "type": "Feature",
            "geometry": {
                "type": "Point",
                "coordinates": [
                    16.81249,
                    52.64792
                ]
            },
            "properties": {
                "isced:level": "3",
                "ref:rspo": 38842,
                "official_name": "Liceum Og\u00f3lnokszta\u0142c\u0105ce im. Stanis\u0142awa Wyspia\u0144skiego w Obornikach",
                "name": "Liceum Og\u00f3lnokszta\u0142c\u0105ce",
                "addr:country": "PL",
                "addr:postcode": "64-600",
                "addr:city": "Oborniki",
                "addr:street": "Adama Mickiewicza",
                "addr:housenumber": "3",
                "addr:teryt:simc": 971181,
                "addr:teryt:sym_ul": 12740,
                "contact:phone": "+48 612961569",
                "contact:email": "sekretariat@lo-oborniki.info",
                "contact:website": "http:\/\/www.lo-oborniki.info",
                "ref:regon": "000229085",
                "ref:vatin": "PL7871141546",
                "operator": "Powiat Obornicki",
                "operator:type": "government",
                "amenity": "school"
            }
        },
        {
            "id": 23206,
            "type": "Feature",
            "geometry": {
                "type": "Point",
                "coordinates": [
                    16.81257,
                    52.64869
                ]
            },
            "properties": {
                "ref:rspo": 23206,
                "official_name": "Poradnia Psychologiczno-Pedagogiczna w Obornikach",
                "name": "Poradnia Psychologiczno-Pedagogiczna w Obornikach",
                "addr:country": "PL",
                "addr:postcode": "64-600",
                "addr:city": "Oborniki",
                "addr:street": "Adama Mickiewicza",
                "addr:housenumber": "4",
                "addr:teryt:simc": 971181,
                "addr:teryt:sym_ul": 12740,
                "contact:phone": "+48 612960439",
                "contact:email": "poradnia.oborniki@wp.pl",
                "contact:website": "http:\/\/www.poradnia.oborniki.pl",
                "ref:regon": "639734428",
                "ref:vatin": "PL7661708751",
                "operator": "Powiat Obornicki",
                "operator:type": "government",
                "healthcare": "counselling",
                "counselling_type": "education",
                "fixme": "w zale\u017cno\u015bci od przedmiotu dzia\u0142alno\u015bci (np. healthcare=counselling + counselling_type=education albo healthcare=psychotherapist)"
            }
        },
        {
            "id": 115167,
            "type": "Feature",
            "geometry": {
                "type": "Point",
                "coordinates": [
                    16.81257,
                    52.64866
                ]
            },
            "properties": {
                "ref:rspo": 115167,
                "official_name": "Publiczna Biblioteka Pedagogiczna w Poznaniu Filia w Obornikach",
                "name": "Publiczna Biblioteka Pedagogiczna w Poznaniu Filia w Obornikach",
                "addr:country": "PL",
                "addr:postcode": "64-600",
                "addr:city": "Oborniki",
                "addr:street": "Adama Mickiewicza",
                "addr:housenumber": "4",
                "addr:teryt:simc": 971181,
                "addr:teryt:sym_ul": 12740,
                "contact:phone": "+48 577001328",
                "contact:email": "biblioteka@oborniki.pbp.poznan.pl",
                "contact:website": "http:\/\/oborniki.pbp.poznan.pl",
                "ref:regon": "639810550",
                "operator": "Wojew\u00f3dztwo Wielkopolskie",
                "operator:type": "government",
                "amenity": "library",
                "note": "Parent RSPO: 30977"
            }
        },
        {
            "id": 85062,
            "type": "Feature",
            "geometry": {
                "type": "Point",
                "coordinates": [
                    16.79545,
                    52.64887
                ]
            },
            "properties": {
                "isced:level": "1;2",
                "ref:rspo": 85062,
                "official_name": "Szko\u0142a Podstawowa Nr 4 im. Unicef w Obornikach",
                "name": "Szko\u0142a Podstawowa Nr 4",
                "addr:country": "PL",
                "addr:postcode": "64-600",
                "addr:city": "Oborniki",
                "addr:street": "Obrzycka",
                "addr:housenumber": "88",
                "addr:teryt:simc": 971181,
                "addr:teryt:sym_ul": 14674,
                "contact:phone": "+48 612970273",
                "contact:email": "unicef@o2.pl",
                "contact:website": "http:\/\/www.zs.oborniki.pl",
                "ref:regon": "001394515",
                "ref:vatin": "PL7661871480",
                "operator": "Gmina Oborniki",
                "operator:type": "government",
                "amenity": "school"
            }
        },
        {
            "id": 58460,
            "type": "Feature",
            "geometry": {
                "type": "Point",
                "coordinates": [
                    16.81111,
                    52.64956
                ]
            },
            "properties": {
                "isced:level": "1;2",
                "ref:rspo": 58460,
                "official_name": "Szko\u0142a Podstawowa Nr 2 im. Wojska Polskiego w Obornikach",
                "name": "Szko\u0142a Podstawowa Nr 2",
                "addr:country": "PL",
                "addr:postcode": "64-600",
                "addr:city": "Oborniki",
                "addr:street": "Szkolna",
                "addr:housenumber": "7",
                "addr:teryt:simc": 971181,
                "addr:teryt:sym_ul": 21970,
                "contact:phone": "+48 612960382",
                "contact:email": "sp2-sekretariat@o2.pl",
                "contact:website": "http:\/\/www.sp2.oborniki.pl",
                "ref:regon": "000716974",
                "ref:vatin": "PL7871735234",
                "operator": "Gmina Oborniki",
                "operator:type": "government",
                "amenity": "school"
            }
        },
        {
            "id": 125485,
            "type": "Feature",
            "geometry": {
                "type": "Point",
                "coordinates": [
                    16.81546,
                    52.64983
                ]
            },
            "properties": {
                "ref:rspo": 125485,
                "official_name": "Zesp\u00f3\u0142 Przedszkoli w Obornikach",
                "name": "Zesp\u00f3\u0142 Przedszkoli w Obornikach",
                "addr:country": "PL",
                "addr:postcode": "64-600",
                "addr:city": "Oborniki",
                "addr:street": "M\u0142y\u0144ska",
                "addr:housenumber": "2B",
                "addr:teryt:simc": 971181,
                "addr:teryt:sym_ul": 13132,
                "contact:phone": "+48 612960277",
                "contact:email": "zp.oborniki@gmail.com",
                "contact:website": "http:\/\/zespolprzedszkolioborniki.szkolnastrona.pl\/",
                "ref:regon": "302838560",
                "ref:vatin": "PL6060093793",
                "operator": "Gmina Oborniki",
                "operator:type": "government",
                "landuse": "education",
                "fixme": "amenity=school, amenity=college albo landuse=education w zale\u017cno\u015bci od tego, jakie plac\u00f3wki wchodz\u0105 w sk\u0142ad zespo\u0142u. Sprawd\u017a, kiedy stosowa\u0107 amenity=* a kiedy landuse=education.",
                "note": "Children RSPO: 58463;58464"
            }
        },
        {
            "id": 58463,
            "type": "Feature",
            "geometry": {
                "type": "Point",
                "coordinates": [
                    16.81546,
                    52.6498
                ]
            },
            "properties": {
                "ref:rspo": 58463,
                "official_name": "Przedszkole Nr 2 \"S\u0142oneczny \u015awiat\" w Obornikach",
                "name": "Przedszkole Nr 2 \"S\u0142oneczny \u015awiat\" w Obornikach",
                "addr:country": "PL",
                "addr:postcode": "64-600",
                "addr:city": "Oborniki",
                "addr:street": "M\u0142y\u0144ska",
                "addr:housenumber": "2b",
                "addr:teryt:simc": 971181,
                "addr:teryt:sym_ul": 13132,
                "contact:phone": "+48 612960428",
                "contact:email": "zp.oborniki@gmail.com",
                "contact:website": "http:\/\/zespolprzedszkolioborniki.szkolnastrona.pl\/",
                "ref:regon": "301184760",
                "operator": "Gmina Oborniki",
                "operator:type": "government",
                "amenity": "kindergarten",
                "note": "Parent RSPO: 125485"
            }
        },
        {
            "id": 275697,
            "type": "Feature",
            "geometry": {
                "type": "Point",
                "coordinates": [
                    16.79145,
                    52.65019
                ]
            },
            "properties": {
                "ref:rspo": 275697,
                "official_name": "Przedszkole Akademia Wiedzy I Zabawy Nr 3 w Obornikach",
                "name": "Przedszkole Akademia Wiedzy I Zabawy Nr 3 w Obornikach",
                "addr:country": "PL",
                "addr:postcode": "64-600",
                "addr:city": "Oborniki",
                "addr:street": "Obrzycka",
                "addr:housenumber": "76",
                "addr:teryt:simc": 971181,
                "addr:teryt:sym_ul": 14674,
                "contact:phone": "+48 503574105",
                "contact:email": "biuro@akademiaoborniki.pl",
                "ref:regon": "386932492",
                "ref:vatin": "PL7661868638",
                "operator": "Alicja Helbik",
                "operator:type": "private",
                "amenity": "kindergarten"
            }
        },
        {
            "id": 58464,
            "type": "Feature",
            "geometry": {
                "type": "Point",
                "coordinates": [
                    16.81624,
                    52.65052
                ]
            },
            "properties": {
                "ref:rspo": 58464,
                "official_name": "Przedszkole Nr 5 \"Kolorowe Nutki\" w Obornikach",
                "name": "Przedszkole Nr 5 \"Kolorowe Nutki\" w Obornikach",
                "addr:country": "PL",
                "addr:postcode": "64-600",
                "addr:city": "Oborniki",
                "addr:street": "M\u0142y\u0144ska",
                "addr:housenumber": "2a",
                "addr:teryt:simc": 971181,
                "addr:teryt:sym_ul": 13132,
                "contact:phone": "+48 612960428",
                "contact:email": "zp.oborniki@gmail.com",
                "contact:website": "http:\/\/zespolprzedszkolioborniki.szkolnastrona.pl\/",
                "ref:regon": "632054452",
                "operator": "Gmina Oborniki",
                "operator:type": "government",
                "amenity": "kindergarten",
                "note": "Parent RSPO: 125485"
            }
        },
        {
            "id": 113774,
            "type": "Feature",
            "geometry": {
                "type": "Point",
                "coordinates": [
                    16.81697,
                    52.65108
                ]
            },
            "properties": {
                "ref:rspo": 113774,
                "official_name": "Publiczne Przedszkole \"Zaczarowane Przedszkole\" w Obornikach",
                "name": "Publiczne Przedszkole \"Zaczarowane Przedszkole\" w Obornikach",
                "addr:country": "PL",
                "addr:postcode": "64-600",
                "addr:city": "Oborniki",
                "addr:street": "M\u0142y\u0144ska",
                "addr:housenumber": "5 B",
                "addr:teryt:simc": 971181,
                "addr:teryt:sym_ul": 13132,
                "contact:email": "biuro@zaczarowane.com",
                "contact:website": "http:\/\/zaczarowane-przedszkole.com",
                "ref:regon": "302401320",
                "ref:vatin": "PL7661868638",
                "operator": "Alicja Helbik",
                "operator:type": "private",
                "amenity": "kindergarten"
            }
        },
        {
            "id": 58462,
            "type": "Feature",
            "geometry": {
                "type": "Point",
                "coordinates": [
                    16.7953,
                    52.65121
                ]
            },
            "properties": {
                "ref:rspo": 58462,
                "official_name": "Przedszkole Nr 1 \"Bajeczka\" w Obornikach",
                "name": "Przedszkole Nr 1 \"Bajeczka\" w Obornikach",
                "addr:country": "PL",
                "addr:postcode": "64-600",
                "addr:city": "Oborniki",
                "addr:street": "Droga Le\u015bna",
                "addr:housenumber": "29",
                "addr:teryt:simc": 971181,
                "addr:teryt:sym_ul": 4220,
                "contact:phone": "+48 612960932",
                "contact:email": "bajeczka.ob@interia.pl",
                "contact:website": "http:\/\/www.bajeczka.oborniki.net.pl",
                "ref:regon": "631048596",
                "ref:vatin": "PL7871740502",
                "operator": "Gmina Oborniki",
                "operator:type": "government",
                "amenity": "kindergarten"
            }
        },
        {
            "id": 83187,
            "type": "Feature",
            "geometry": {
                "type": "Point",
                "coordinates": [
                    16.8173,
                    52.65126
                ]
            },
            "properties": {
                "isced:level": "1;2",
                "ref:rspo": 83187,
                "official_name": "Niepubliczna Polsko-Angielska Szko\u0142a Podstawowa im. Johna Deweya w Obornikach",
                "name": "Niepubliczna Polsko-Angielska Szko\u0142a Podstawowa",
                "addr:country": "PL",
                "addr:postcode": "64-600",
                "addr:city": "Oborniki",
                "addr:street": "M\u0142y\u0144ska",
                "addr:housenumber": "5 A",
                "addr:teryt:simc": 971181,
                "addr:teryt:sym_ul": 13132,
                "contact:phone": "+48 728359424",
                "contact:email": "jdsoborniki.sekretariat@gmail.com",
                "contact:website": "http:\/\/www.jds.edu.pl",
                "ref:regon": "302266419",
                "ref:vatin": "PL7661868638",
                "operator": "Alicja Helbik",
                "operator:type": "private",
                "amenity": "school"
            }
        },
        {
            "id": 58459,
            "type": "Feature",
            "geometry": {
                "type": "Point",
                "coordinates": [
                    16.80379,
                    52.6516499
                ]
            },
            "properties": {
                "isced:level": "1;2",
                "ref:rspo": 58459,
                "official_name": "Szko\u0142a Podstawowa Nr 3 im. Adama Mickiewicza w Obornikach",
                "name": "Szko\u0142a Podstawowa Nr 3",
                "addr:country": "PL",
                "addr:postcode": "64-600",
                "addr:city": "Oborniki",
                "addr:street": "Czarnkowska",
                "addr:housenumber": "57",
                "addr:teryt:simc": 971181,
                "addr:teryt:sym_ul": 3284,
                "contact:phone": "+48 612960805",
                "contact:email": "sp3oborniki@wp.pl",
                "contact:website": "http:\/\/www.sp3.oborniki.pl",
                "ref:regon": "000940750",
                "ref:vatin": "PL7871728843",
                "operator": "Gmina Oborniki",
                "operator:type": "government",
                "amenity": "school"
            }
        },
        {
            "id": 132476,
            "type": "Feature",
            "geometry": {
                "type": "Point",
                "coordinates": [
                    16.80379,
                    52.6516199
                ]
            },
            "properties": {
                "isced:level": "3",
                "ref:rspo": 132476,
                "official_name": "Plus - Liceum Og\u00f3lnokszta\u0142c\u0105ce dla Doros\u0142ych w Obornikach",
                "name": "Plus - Liceum Og\u00f3lnokszta\u0142c\u0105ce dla Doros\u0142ych w Obornikach",
                "addr:country": "PL",
                "addr:postcode": "64-600",
                "addr:city": "Oborniki",
                "addr:street": "Czarnkowska",
                "addr:housenumber": "57",
                "addr:teryt:simc": 971181,
                "addr:teryt:sym_ul": 3284,
                "contact:phone": "+48 616746081",
                "contact:email": "oborniki@plusedukacja.pl",
                "contact:website": "http:\/\/www.plusedukacja.pl",
                "ref:regon": "365651708",
                "operator": "Plus Edukacja Centrum Kszta\u0142cenia Sp\u00f3\u0142ka Z Ograniczon\u0105 Odpowiedzialno\u015bci\u0105",
                "operator:type": "private",
                "amenity": "school"
            }
        },
        {
            "id": 132477,
            "type": "Feature",
            "geometry": {
                "type": "Point",
                "coordinates": [
                    16.80379,
                    52.651589900000005
                ]
            },
            "properties": {
                "isced:level": "4",
                "ref:rspo": 132477,
                "official_name": "Plus - Szko\u0142a Policealna w Obornikach",
                "name": "Plus - Szko\u0142a Policealna w Obornikach",
                "addr:country": "PL",
                "addr:postcode": "64-600",
                "addr:city": "Oborniki",
                "addr:street": "Czarnkowska",
                "addr:housenumber": "57",
                "addr:teryt:simc": 971181,
                "addr:teryt:sym_ul": 3284,
                "contact:phone": "+48 616746081",
                "contact:email": "oborniki@plusedukacja.pl",
                "contact:website": "http:\/\/www.plusedukacja.pl",
                "ref:regon": "365651772",
                "operator": "Plus Edukacja Centrum Kszta\u0142cenia Sp\u00f3\u0142ka Z Ograniczon\u0105 Odpowiedzialno\u015bci\u0105",
                "operator:type": "private",
                "amenity": "college"
            }
        },
        {
            "id": 275674,
            "type": "Feature",
            "geometry": {
                "type": "Point",
                "coordinates": [
                    16.81048,
                    52.65171
                ]
            },
            "properties": {
                "ref:rspo": 275674,
                "official_name": "Przedszkole im. Ksi\u0119cia Szaranka Nr 6 w Obornikach",
                "name": "Przedszkole",
                "addr:country": "PL",
                "addr:postcode": "64-600",
                "addr:city": "Oborniki",
                "addr:street": "Ch\u0142opska",
                "addr:housenumber": "12",
                "addr:teryt:simc": 971181,
                "addr:teryt:sym_ul": 2750,
                "contact:phone": "+48 739431069",
                "contact:email": "biuro.ksiazeszaranek@gmail.com",
                "ref:regon": "386931446",
                "operator": "Edus  Sp\u00f3\u0142ka Z Ograniczon\u0105 Odpowiedzialno\u015bci\u0105",
                "operator:type": "private",
                "amenity": "kindergarten"
            }
        },
        {
            "id": 272517,
            "type": "Feature",
            "geometry": {
                "type": "Point",
                "coordinates": [
                    16.63827,
                    52.6533
                ]
            },
            "properties": {
                "ref:rspo": 272517,
                "official_name": "Zesp\u00f3\u0142 Szkolno-Przedszkolny w Sycynie",
                "name": "Zesp\u00f3\u0142 Szkolno-Przedszkolny w Sycynie",
                "addr:country": "PL",
                "addr:postcode": "64-606",
                "addr:place": "Sycyn",
                "addr:housenumber": "26a",
                "addr:teryt:simc": 591751,
                "contact:phone": "+48 612971879",
                "contact:email": "sycyn@vp.pl",
                "contact:website": "http:\/\/www.spsycyn.pl",
                "ref:regon": "384263259",
                "ref:vatin": "PL6060107756",
                "operator": "Gmina Oborniki",
                "operator:type": "government",
                "landuse": "education",
                "fixme": "amenity=school, amenity=college albo landuse=education w zale\u017cno\u015bci od tego, jakie plac\u00f3wki wchodz\u0105 w sk\u0142ad zespo\u0142u. Sprawd\u017a, kiedy stosowa\u0107 amenity=* a kiedy landuse=education.",
                "note": "Children RSPO: 58457;271897"
            }
        },
        {
            "id": 58457,
            "type": "Feature",
            "geometry": {
                "type": "Point",
                "coordinates": [
                    16.63827,
                    52.65327
                ]
            },
            "properties": {
                "isced:level": "1;2",
                "ref:rspo": 58457,
                "official_name": "Szko\u0142a Podstawowa im. Jana Paw\u0142a II w Sycynie",
                "name": "Szko\u0142a Podstawowa",
                "addr:country": "PL",
                "addr:postcode": "64-606",
                "addr:place": "Sycyn",
                "addr:housenumber": "26A",
                "addr:teryt:simc": 591751,
                "contact:phone": "+48 612971879",
                "contact:email": "sycyn@vp.pl",
                "contact:website": "http:\/\/www.spsycyn.pl",
                "ref:regon": "001076614",
                "ref:vatin": "PL7661726022",
                "operator": "Gmina Oborniki",
                "operator:type": "government",
                "amenity": "school",
                "note": "Parent RSPO: 272517"
            }
        },
        {
            "id": 271897,
            "type": "Feature",
            "geometry": {
                "type": "Point",
                "coordinates": [
                    16.63827,
                    52.653240000000004
                ]
            },
            "properties": {
                "ref:rspo": 271897,
                "official_name": "Publiczne Przedszkole w Sycynie",
                "name": "Publiczne Przedszkole w Sycynie",
                "addr:country": "PL",
                "addr:postcode": "64-606",
                "addr:place": "Sycyn",
                "addr:housenumber": "26a",
                "addr:teryt:simc": 591751,
                "contact:phone": "+48 612971879",
                "contact:email": "sycyn@vp.pl",
                "ref:regon": "383755612",
                "ref:vatin": "PL6060107294",
                "operator": "Gmina Oborniki",
                "operator:type": "government",
                "amenity": "kindergarten",
                "note": "Parent RSPO: 272517"
            }
        },
        {
            "id": 58465,
            "type": "Feature",
            "geometry": {
                "type": "Point",
                "coordinates": [
                    16.8265,
                    52.65762
                ]
            },
            "properties": {
                "ref:rspo": 58465,
                "official_name": "Przedszkole Nr 4 \"Bajka\" w Obornikach",
                "name": "Przedszkole Nr 4 \"Bajka\" w Obornikach",
                "addr:country": "PL",
                "addr:postcode": "64-600",
                "addr:city": "Oborniki",
                "addr:street": "Stanis\u0142awa Staszica",
                "addr:housenumber": "23",
                "addr:teryt:simc": 971181,
                "addr:teryt:sym_ul": 21071,
                "contact:phone": "+48 612960114",
                "contact:email": "przedszkole4@oborniki.pl",
                "contact:website": "http:\/\/www.przedszkole4.oborniki.pl",
                "ref:regon": "632054481",
                "ref:vatin": "PL7871729618",
                "operator": "Gmina Oborniki",
                "operator:type": "government",
                "amenity": "kindergarten"
            }
        },
        {
            "id": 43783,
            "type": "Feature",
            "geometry": {
                "type": "Point",
                "coordinates": [
                    16.84664,
                    52.6702
                ]
            },
            "properties": {
                "ref:rspo": 43783,
                "official_name": "Zesp\u00f3\u0142 Szk\u00f3\u0142 Specjalnych w Kowan\u00f3wku",
                "name": "Zesp\u00f3\u0142 Szk\u00f3\u0142 Specjalnych w Kowan\u00f3wku",
                "addr:country": "PL",
                "addr:postcode": "64-600",
                "addr:city": "Kowan\u00f3wko",
                "addr:street": "Mi\u0142owody",
                "addr:housenumber": "2",
                "addr:teryt:simc": 591455,
                "addr:teryt:sym_ul": 12971,
                "contact:phone": "+48 612961592",
                "contact:email": "sekretariat@zss-kowanowko.edu.pl",
                "contact:website": "http:\/\/www.zss-kowanowko.edu.pl",
                "ref:regon": "639640561",
                "operator": "Powiat Obornicki",
                "operator:type": "government",
                "landuse": "education",
                "fixme": "amenity=school, amenity=college albo landuse=education w zale\u017cno\u015bci od tego, jakie plac\u00f3wki wchodz\u0105 w sk\u0142ad zespo\u0142u. Sprawd\u017a, kiedy stosowa\u0107 amenity=* a kiedy landuse=education.",
                "note": "Children RSPO: 58449;58450"
            }
        },
        {
            "id": 58449,
            "type": "Feature",
            "geometry": {
                "type": "Point",
                "coordinates": [
                    16.84664,
                    52.67017
                ]
            },
            "properties": {
                "isced:level": "1;2",
                "ref:rspo": 58449,
                "official_name": "Szko\u0142a Podstawowa Specjalna",
                "name": "Szko\u0142a Podstawowa Specjalna",
                "addr:country": "PL",
                "addr:postcode": "64-600",
                "addr:city": "Kowan\u00f3wko",
                "addr:street": "Mi\u0142owody",
                "addr:housenumber": "2",
                "addr:teryt:simc": 591455,
                "addr:teryt:sym_ul": 12971,
                "contact:phone": "+48 612961592",
                "contact:email": "sekretariat@zss-kowanowko.edu.pl",
                "contact:website": "http:\/\/zss-kowanowko.edu.pl",
                "ref:regon": "634353058",
                "operator": "Powiat Obornicki",
                "operator:type": "government",
                "amenity": "school",
                "note": "Parent RSPO: 43783"
            }
        },
        {
            "id": 58450,
            "type": "Feature",
            "geometry": {
                "type": "Point",
                "coordinates": [
                    16.84664,
                    52.67014
                ]
            },
            "properties": {
                "ref:rspo": 58450,
                "official_name": "Szko\u0142a Przysposabiaj\u0105ca Do Pracy",
                "name": "Szko\u0142a Przysposabiaj\u0105ca Do Pracy",
                "addr:country": "PL",
                "addr:postcode": "64-600",
                "addr:city": "Kowan\u00f3wko",
                "addr:street": "Mi\u0142owody",
                "addr:housenumber": "2",
                "addr:teryt:simc": 591455,
                "addr:teryt:sym_ul": 12971,
                "contact:phone": "+48 612961592",
                "contact:email": "sekretariat@zss-kowanowko.edu.pl",
                "contact:website": "http:\/\/zss-kowanowko.edu.pl",
                "ref:regon": "300385812",
                "operator": "Powiat Obornicki",
                "operator:type": "government",
                "amenity": "school",
                "note": "Parent RSPO: 43783"
            }
        },
        {
            "id": 128189,
            "type": "Feature",
            "geometry": {
                "type": "Point",
                "coordinates": [
                    16.87527,
                    52.67477
                ]
            },
            "properties": {
                "ref:rspo": 128189,
                "official_name": "Zesp\u00f3\u0142 Szkolno-Przedszkolny w Ro\u017cnowie",
                "name": "Zesp\u00f3\u0142 Szkolno-Przedszkolny w Ro\u017cnowie",
                "addr:country": "PL",
                "addr:postcode": "64-600",
                "addr:city": "Ro\u017cnowo",
                "addr:street": "Dworcowa",
                "addr:housenumber": "42",
                "addr:teryt:simc": 591685,
                "addr:teryt:sym_ul": 4434,
                "contact:phone": "+48 612971422",
                "contact:email": "zsroznowo@oborniki.pl",
                "contact:website": "http:\/\/www.szkola-roznowo.pl",
                "ref:regon": "362155446",
                "ref:vatin": "PL6060095042",
                "operator": "Gmina Oborniki",
                "operator:type": "government",
                "landuse": "education",
                "fixme": "amenity=school, amenity=college albo landuse=education w zale\u017cno\u015bci od tego, jakie plac\u00f3wki wchodz\u0105 w sk\u0142ad zespo\u0142u. Sprawd\u017a, kiedy stosowa\u0107 amenity=* a kiedy landuse=education.",
                "note": "Children RSPO: 84702;127490"
            }
        },
        {
            "id": 84702,
            "type": "Feature",
            "geometry": {
                "type": "Point",
                "coordinates": [
                    16.87527,
                    52.67474
                ]
            },
            "properties": {
                "isced:level": "1;2",
                "ref:rspo": 84702,
                "official_name": "Szko\u0142a Podstawowa im. Franciszka Mickiewicza w Ro\u017cnowie",
                "name": "Szko\u0142a Podstawowa",
                "addr:country": "PL",
                "addr:postcode": "64-600",
                "addr:city": "Ro\u017cnowo",
                "addr:street": "Dworcowa",
                "addr:housenumber": "42",
                "addr:teryt:simc": 591685,
                "addr:teryt:sym_ul": 4434,
                "contact:phone": "+48 612971422",
                "contact:email": "zsroznowo@oborniki.pl",
                "contact:website": "http:\/\/www.roznowo.oborniki.pl",
                "ref:regon": "000940789",
                "ref:vatin": "PL7871809659",
                "operator": "Gmina Oborniki",
                "operator:type": "government",
                "amenity": "school",
                "note": "Parent RSPO: 128189"
            }
        },
        {
            "id": 127490,
            "type": "Feature",
            "geometry": {
                "type": "Point",
                "coordinates": [
                    16.87527,
                    52.674710000000005
                ]
            },
            "properties": {
                "ref:rspo": 127490,
                "official_name": "Publiczne Przedszkole w Ro\u017cnowie",
                "name": "Publiczne Przedszkole w Ro\u017cnowie",
                "addr:country": "PL",
                "addr:postcode": "64-600",
                "addr:city": "Ro\u017cnowo",
                "addr:street": "Dworcowa",
                "addr:housenumber": "42",
                "addr:teryt:simc": 591685,
                "addr:teryt:sym_ul": 4434,
                "contact:phone": "+48 612971422",
                "contact:email": "zsroznowo@oborniki.pl",
                "contact:website": "http:\/\/www.szkola-roznowo.pl",
                "ref:regon": "361666720",
                "operator": "Gmina Oborniki",
                "operator:type": "government",
                "amenity": "kindergarten",
                "note": "Parent RSPO: 128189"
            }
        },
        {
            "id": 128188,
            "type": "Feature",
            "geometry": {
                "type": "Point",
                "coordinates": [
                    16.67311,
                    52.68016
                ]
            },
            "properties": {
                "ref:rspo": 128188,
                "official_name": "Zesp\u00f3\u0142 Szkolno-Przedszkolny w Kiszewie",
                "name": "Zesp\u00f3\u0142 Szkolno-Przedszkolny w Kiszewie",
                "addr:country": "PL",
                "addr:postcode": "64-607",
                "addr:place": "Kiszewo",
                "addr:housenumber": "51",
                "addr:teryt:simc": 591410,
                "contact:phone": "+48 612971096",
                "contact:email": "kiszewo@tlen.pl",
                "ref:regon": "362155512",
                "ref:vatin": "PL6060095013",
                "operator": "Gmina Oborniki",
                "operator:type": "government",
                "landuse": "education",
                "fixme": "amenity=school, amenity=college albo landuse=education w zale\u017cno\u015bci od tego, jakie plac\u00f3wki wchodz\u0105 w sk\u0142ad zespo\u0142u. Sprawd\u017a, kiedy stosowa\u0107 amenity=* a kiedy landuse=education.",
                "note": "Children RSPO: 84627;127488"
            }
        },
        {
            "id": 84627,
            "type": "Feature",
            "geometry": {
                "type": "Point",
                "coordinates": [
                    16.67311,
                    52.68013
                ]
            },
            "properties": {
                "isced:level": "1;2",
                "ref:rspo": 84627,
                "official_name": "Szko\u0142a Podstawowa im. Powsta\u0144c\u00f3w Wielkopolskich w Kiszewie",
                "name": "Szko\u0142a Podstawowa",
                "addr:country": "PL",
                "addr:postcode": "64-607",
                "addr:place": "Kiszewo",
                "addr:housenumber": "51",
                "addr:teryt:simc": 591410,
                "contact:phone": "+48 612971096",
                "contact:email": "kiszewo@tlen.pl",
                "contact:website": "http:\/\/zskiszewo.oborniki.pl",
                "ref:regon": "639774089",
                "ref:vatin": "PL7661730650",
                "operator": "Gmina Oborniki",
                "operator:type": "government",
                "amenity": "school",
                "note": "Parent RSPO: 128188"
            }
        },
        {
            "id": 127488,
            "type": "Feature",
            "geometry": {
                "type": "Point",
                "coordinates": [
                    16.67311,
                    52.6801
                ]
            },
            "properties": {
                "ref:rspo": 127488,
                "official_name": "Publiczne Przedszkole w Kiszewie",
                "name": "Publiczne Przedszkole w Kiszewie",
                "addr:country": "PL",
                "addr:postcode": "64-607",
                "addr:place": "Kiszewo",
                "addr:housenumber": "51",
                "addr:teryt:simc": 591410,
                "contact:phone": "+48 612971096",
                "contact:email": "kiszewo@tlen.pl",
                "contact:website": "http:\/\/www.spkiszewo.oborniki.pl",
                "ref:regon": "361664559",
                "operator": "Gmina Oborniki",
                "operator:type": "government",
                "amenity": "kindergarten",
                "note": "Parent RSPO: 128188"
            }
        }
    ]
}