{
    "type": "FeatureCollection",
    "features": [
        {
            "id": 58179,
            "type": "Feature",
            "geometry": {
                "type": "Point",
                "coordinates": [
                    16.7213559,
                    52.6367198
                ]
            },
            "properties": {
                "isced:level": "1;2",
                "ref:rspo": 58179,
                "official_name": "Szko\u0142a Podstawowa w Pru\u015bcach im. Jana Paw\u0142a Ii",
                "name": "Szko\u0142a Podstawowa w Pru\u015bcach",
                "addr:postcode": "64-610",
                "addr:place": "Pru\u015bce",
                "addr:housenumber": "30",
                "addr:city:simc": 529090,
                "phone": "+48 672610097",
                "email": "spprusce@op.pl",
                "website": "http:\/\/spprusce.pl",
                "ref:regon": "001130555",
                "ref:vatin": "PL7661774156",
                "operator": "Gmina Rogo\u017ano",
                "operator:type": "government",
                "amenity": "school"
            }
        },
        {
            "id": 58982,
            "type": "Feature",
            "geometry": {
                "type": "Point",
                "coordinates": [
                    16.86901,
                    52.68082
                ]
            },
            "properties": {
                "isced:level": "1;2",
                "ref:rspo": 58982,
                "official_name": "Szko\u0142a Podstawowa im. J\u00f3zefa Wybickiego w Parkowie",
                "name": "Szko\u0142a Podstawowa",
                "addr:postcode": "64-608",
                "addr:place": "Parkowo",
                "addr:housenumber": "6",
                "addr:city:simc": 529060,
                "phone": "+48 672610505",
                "email": "zsparkowo@wp.pl",
                "website": "http:\/\/www.spparkowo.pl",
                "ref:regon": "001130561",
                "ref:vatin": "PL7661774185",
                "operator": "Gmina Rogo\u017ano",
                "operator:type": "government",
                "amenity": "school"
            }
        },
        {
            "id": 58214,
            "type": "Feature",
            "geometry": {
                "type": "Point",
                "coordinates": [
                    17.06284,
                    52.69327
                ]
            },
            "properties": {
                "isced:level": "1;2",
                "ref:rspo": 58214,
                "official_name": "Szko\u0142a Podstawowa im. Adama Mickiewicza w Budziszewku",
                "name": "Szko\u0142a Podstawowa",
                "addr:postcode": "64-612",
                "addr:place": "Budziszewko",
                "addr:housenumber": "57",
                "addr:door": "A",
                "addr:city:simc": 528899,
                "phone": "+48 672682953",
                "email": "szkola_budziszewko@o2.pl",
                "website": "http:\/\/www.spbudziszewko.pl",
                "ref:regon": "001130348",
                "ref:vatin": "PL7661774179",
                "operator": "Gmina Rogo\u017ano",
                "operator:type": "government",
                "amenity": "school"
            }
        },
        {
            "id": 58337,
            "type": "Feature",
            "geometry": {
                "type": "Point",
                "coordinates": [
                    16.9217799,
                    52.70107
                ]
            },
            "properties": {
                "ref:rspo": 58337,
                "official_name": "Przedszkole w Parkowie im.\"S\u0142oneczne Skrzaty\"",
                "name": "Przedszkole w Parkowie im.\"S\u0142oneczne Skrzaty\"",
                "addr:postcode": "64-608",
                "addr:place": "Parkowo",
                "addr:housenumber": "114",
                "addr:door": "A",
                "addr:city:simc": 529060,
                "phone": "+48 672610548",
                "email": "sloneczneskrzaty@vp.pl",
                "ref:regon": "639732582",
                "ref:vatin": "PL7661774110",
                "operator": "Gmina Rogo\u017ano",
                "operator:type": "government",
                "amenity": "kindergarten"
            }
        },
        {
            "id": 124750,
            "type": "Feature",
            "geometry": {
                "type": "Point",
                "coordinates": [
                    16.97795,
                    52.74404
                ]
            },
            "properties": {
                "ref:rspo": 124750,
                "official_name": "Pierwsze Polsko-Angielskie Niepubliczne Przedszkole z Oddzia\u0142em \u017b\u0142obkowym w Rogo\u017anie \" Akademia Ma\u0142ych Odkrywc\u00f3w\"",
                "name": "Pierwsze Polsko-Angielskie Niepubliczne Przedszkole z Oddzia\u0142em \u017b\u0142obkowym w Rogo\u017anie \" Akademia Ma\u0142ych Odkrywc\u00f3w\"",
                "addr:postcode": "64-610",
                "addr:city": "Rogo\u017ano",
                "addr:street": "Konieczy\u0144skich",
                "addr:housenumber": "53",
                "addr:city:simc": 967080,
                "addr:street:sym_ul": 37723,
                "phone": "+48 606824170",
                "email": "krupczynska@przedszkolerogozno.pl",
                "website": "http:\/\/www.przedszkolerogozno.pl",
                "ref:regon": "302817061",
                "operator": "Zak\u0142ad Produkcyjno-Us\u0142ugowo-Handlowy \"Stamp\" Magdalena Krupczy\u0144ska",
                "operator:type": "consortium",
                "amenity": "kindergarten"
            }
        },
        {
            "id": 43642,
            "type": "Feature",
            "geometry": {
                "type": "Point",
                "coordinates": [
                    17.0057,
                    52.7449
                ]
            },
            "properties": {
                "isced:level": "3",
                "ref:rspo": 43642,
                "official_name": "Liceum Og\u00f3lnokszta\u0142c\u0105ce im. Przemys\u0142awa II w Rogo\u017anie",
                "name": "Liceum Og\u00f3lnokszta\u0142c\u0105ce",
                "addr:postcode": "64-610",
                "addr:city": "Rogo\u017ano",
                "addr:street": "Wielka Pozna\u0144ska",
                "addr:housenumber": "61",
                "addr:city:simc": 967080,
                "addr:street:sym_ul": 24070,
                "phone": "+48 672617031",
                "email": "sekretariat@lorogozno.pl",
                "website": "http:\/\/www.lorogozno.pl",
                "ref:regon": "000231455",
                "ref:vatin": "PL7661095857",
                "operator": "Powiat Obornicki",
                "operator:type": "government",
                "amenity": "school"
            }
        },
        {
            "id": 58352,
            "type": "Feature",
            "geometry": {
                "type": "Point",
                "coordinates": [
                    17.0056,
                    52.7468
                ]
            },
            "properties": {
                "isced:level": "1;2",
                "ref:rspo": 58352,
                "official_name": "Szko\u0142a Podstawowa nr 2 w Rogo\u017anie",
                "name": "Szko\u0142a Podstawowa nr 2 w Rogo\u017anie",
                "addr:postcode": "64-610",
                "addr:city": "Rogo\u017ano",
                "addr:street": "Ma\u0142a Pozna\u0144ska",
                "addr:housenumber": "1",
                "addr:city:simc": 967080,
                "addr:street:sym_ul": 12113,
                "phone": "+48 672617005",
                "email": "sp2rogozno@vp.pl",
                "website": "http:\/\/www.sp2rogozno.pl",
                "ref:regon": "001130331",
                "ref:vatin": "PL7661774104",
                "operator": "Gmina Rogo\u017ano",
                "operator:type": "government",
                "amenity": "school"
            }
        },
        {
            "id": 272965,
            "type": "Feature",
            "geometry": {
                "type": "Point",
                "coordinates": [
                    16.99951,
                    52.74924
                ]
            },
            "properties": {
                "ref:rspo": 272965,
                "official_name": "Przedszkole nr 3 \"Stra\u017cak Sam\" w Rogo\u017anie",
                "name": "Przedszkole nr 3 \"Stra\u017cak Sam\" w Rogo\u017anie",
                "addr:postcode": "64-610",
                "addr:city": "Rogo\u017ano",
                "addr:street": "Nowa",
                "addr:housenumber": "4",
                "addr:city:simc": 967080,
                "addr:street:sym_ul": 14330,
                "email": "sam@przedszkolerogozno.pl",
                "website": "http:\/\/sam.przedszkolerogozno.pl",
                "ref:regon": "384342094",
                "operator": "Magdalena Krupczy\u0144ska",
                "operator:type": "private",
                "amenity": "kindergarten"
            }
        },
        {
            "id": 58223,
            "type": "Feature",
            "geometry": {
                "type": "Point",
                "coordinates": [
                    16.98978,
                    52.74942
                ]
            },
            "properties": {
                "ref:rspo": 58223,
                "official_name": "Przedszkole nr 2 w Rogo\u017anie",
                "name": "Przedszkole nr 2 w Rogo\u017anie",
                "addr:postcode": "64-610",
                "addr:city": "Rogo\u017ano",
                "addr:street": "Seminarialna",
                "addr:housenumber": "11",
                "addr:city:simc": 967080,
                "addr:street:sym_ul": 19664,
                "phone": "+48 672618426",
                "email": "przedszkole2rog@wp.pl",
                "website": "http:\/\/www.przedszkole2.rogozno.pl",
                "ref:regon": "639732560",
                "ref:vatin": "PL7661774127",
                "operator": "Gmina Rogo\u017ano",
                "operator:type": "government",
                "amenity": "kindergarten"
            }
        },
        {
            "id": 58369,
            "type": "Feature",
            "geometry": {
                "type": "Point",
                "coordinates": [
                    16.9904699,
                    52.7498
                ]
            },
            "properties": {
                "isced:level": "1;2",
                "ref:rspo": 58369,
                "official_name": "Szko\u0142a Podstawowa nr 3 im. Powsta\u0144c\u00f3w Wielkopolskich w Rogo\u017anie",
                "name": "Szko\u0142a Podstawowa nr 3",
                "addr:postcode": "64-610",
                "addr:city": "Rogo\u017ano",
                "addr:street": "Seminarialna",
                "addr:housenumber": "16",
                "addr:city:simc": 967080,
                "addr:street:sym_ul": 19664,
                "phone": "+48 672617561",
                "email": "sp3rogozno@wp.pl",
                "website": "http:\/\/www.sp3.rogozno.pl",
                "ref:regon": "000777480",
                "ref:vatin": "PL7661774216",
                "operator": "Gmina Rogo\u017ano",
                "operator:type": "government",
                "amenity": "school"
            }
        },
        {
            "id": 56383,
            "type": "Feature",
            "geometry": {
                "type": "Point",
                "coordinates": [
                    16.98598,
                    52.74992
                ]
            },
            "properties": {
                "ref:rspo": 56383,
                "official_name": "Przedszkole nr 1 w Rogo\u017anie Im \"Kubusia Puchatka\"",
                "name": "Przedszkole nr 1 w Rogo\u017anie Im \"Kubusia Puchatka\"",
                "addr:postcode": "64-610",
                "addr:city": "Rogo\u017ano",
                "addr:street": "Kr\u00f3tka",
                "addr:housenumber": "7",
                "addr:city:simc": 967080,
                "addr:street:sym_ul": 10009,
                "phone": "+48 672617323",
                "email": "przedszkolerogozno@wp.pl",
                "ref:regon": "639723689",
                "operator": "Gmina Rogo\u017ano",
                "operator:type": "government",
                "amenity": "kindergarten"
            }
        },
        {
            "id": 130723,
            "type": "Feature",
            "geometry": {
                "type": "Point",
                "coordinates": [
                    16.995,
                    52.75126
                ]
            },
            "properties": {
                "ref:rspo": 130723,
                "official_name": "Spo\u0142eczna Szko\u0142a Muzyczna I St. w Rogo\u017anie",
                "name": "Spo\u0142eczna Szko\u0142a Muzyczna I St. w Rogo\u017anie",
                "addr:postcode": "64-610",
                "addr:city": "Rogo\u017ano",
                "addr:street": "Tadeusza Ko\u015bciuszki",
                "addr:housenumber": "41",
                "addr:city:simc": 967080,
                "addr:street:sym_ul": 9572,
                "phone": "+48 693447760",
                "email": "szkolamuz.rogozno@wp.pl",
                "ref:regon": "364416537",
                "operator": "Stowarzyszenie Przyjaci\u00f3\u0142 Spo\u0142ecznej Szko\u0142y Muzycznej I Stopnia W Rogo\u017anie",
                "operator:type": "ngo",
                "amenity": "music_school"
            }
        },
        {
            "id": 60211,
            "type": "Feature",
            "geometry": {
                "type": "Point",
                "coordinates": [
                    16.99271,
                    52.75159
                ]
            },
            "properties": {
                "ref:rspo": 60211,
                "official_name": "Niepubliczne Przedszkole \"Przemys\u0142aw\" w Rogo\u017anie",
                "name": "Niepubliczne Przedszkole \"Przemys\u0142aw\" w Rogo\u017anie",
                "addr:postcode": "64-610",
                "addr:city": "Rogo\u017ano",
                "addr:street": "Tadeusza Ko\u015bciuszki",
                "addr:housenumber": "51",
                "addr:door": "a",
                "addr:city:simc": 967080,
                "addr:street:sym_ul": 9572,
                "phone": "+48 672610242",
                "email": "przemyslaw51a@wp.pl",
                "website": "http:\/\/www.przedszkoleprzemyslaw.pl",
                "ref:regon": "302256450",
                "operator": "Gra\u017cyna Czarnecka",
                "operator:type": "private",
                "amenity": "kindergarten"
            }
        },
        {
            "id": 23207,
            "type": "Feature",
            "geometry": {
                "type": "Point",
                "coordinates": [
                    16.9906599,
                    52.75181
                ]
            },
            "properties": {
                "ref:rspo": 23207,
                "official_name": "Poradnia Psychologiczno-Pedagogiczna w Rogo\u017anie",
                "name": "Poradnia Psychologiczno-Pedagogiczna w Rogo\u017anie",
                "addr:postcode": "64-610",
                "addr:city": "Rogo\u017ano",
                "addr:street": "Wojska Polskiego",
                "addr:housenumber": "1",
                "addr:city:simc": 967080,
                "addr:street:sym_ul": 24628,
                "phone": "+48 672618316",
                "email": "ppprogozno@poczta.onet.pl",
                "website": "http:\/\/www.ppprogozno.szkolnastrona.pl",
                "ref:regon": "001238755",
                "ref:vatin": "PL7661773091",
                "operator": "Powiat Obornicki",
                "operator:type": "government",
                "healthcare": "counselling",
                "counselling_type": "education",
                "fixme": "w zale\u017cno\u015bci od przedmiotu dzia\u0142alno\u015bci (np. healthcare=counselling + counselling_type=education albo healthcare=psychotherapist)"
            }
        },
        {
            "id": 43784,
            "type": "Feature",
            "geometry": {
                "type": "Point",
                "coordinates": [
                    16.9906599,
                    52.75178
                ]
            },
            "properties": {
                "ref:rspo": 43784,
                "official_name": "Zesp\u00f3\u0142 Szk\u00f3\u0142 im.hipolita Cegielskiego w Rogo\u017anie",
                "name": "Zesp\u00f3\u0142 Szk\u00f3\u0142 im.hipolita Cegielskiego w Rogo\u017anie",
                "addr:postcode": "64-610",
                "addr:city": "Rogo\u017ano",
                "addr:street": "Wojska Polskiego",
                "addr:housenumber": "1",
                "addr:city:simc": 967080,
                "addr:street:sym_ul": 24628,
                "phone": "+48 672618096",
                "email": "zs_rogozno@poczta.onet.pl",
                "website": "http:\/\/www.zsrogozno.pl",
                "ref:regon": "639787761",
                "ref:vatin": "PL7661768960",
                "operator": "Powiat Obornicki",
                "operator:type": "government",
                "landuse": "education",
                "fixme": "amenity=school, amenity=college albo landuse=education w zale\u017cno\u015bci od tego, jakie plac\u00f3wki wchodz\u0105 w sk\u0142ad zespo\u0142u. Sprawd\u017a, kiedy stosowa\u0107 amenity=* a kiedy landuse=education.",
                "note": "Children RSPO: 72592;72593"
            }
        },
        {
            "id": 72592,
            "type": "Feature",
            "geometry": {
                "type": "Point",
                "coordinates": [
                    16.9906599,
                    52.75175
                ]
            },
            "properties": {
                "isced:level": "3",
                "ref:rspo": 72592,
                "official_name": "Technikum Hipolita Cegielskiego w Rogo\u017anie",
                "name": "Technikum Hipolita Cegielskiego w Rogo\u017anie",
                "addr:postcode": "64-610",
                "addr:city": "Rogo\u017ano",
                "addr:street": "Wojska Polskiego",
                "addr:housenumber": "1",
                "addr:city:simc": 967080,
                "addr:street:sym_ul": 24628,
                "phone": "+48 672618096",
                "email": "zs_rogozno@poczta.onet.pl",
                "website": "http:\/\/www.zsrogozno.pl",
                "ref:regon": "634383421",
                "ref:vatin": "PL7661839097",
                "operator": "Powiat Obornicki",
                "operator:type": "government",
                "amenity": "school",
                "note": "Parent RSPO: 43784"
            }
        },
        {
            "id": 72593,
            "type": "Feature",
            "geometry": {
                "type": "Point",
                "coordinates": [
                    16.9906599,
                    52.75172
                ]
            },
            "properties": {
                "isced:level": "3",
                "ref:rspo": 72593,
                "official_name": "Bran\u017cowa Szko\u0142a I Stopnia Zesp\u00f3\u0142 Szk\u00f3\u0142 im. Hipolita Cegielskiego w Rogo\u017anie",
                "name": "Bran\u017cowa Szko\u0142a I Stopnia Zesp\u00f3\u0142 Szk\u00f3\u0142",
                "addr:postcode": "64-610",
                "addr:city": "Rogo\u017ano",
                "addr:street": "Wojska Polskiego",
                "addr:housenumber": "1",
                "addr:city:simc": 967080,
                "addr:street:sym_ul": 24628,
                "phone": "+48 672618096",
                "email": "zs_rogozno@poczta.onet.pl",
                "website": "http:\/\/www.zsrogozno.pl",
                "ref:regon": "639787867",
                "ref:vatin": "PL7661768925",
                "operator": "Powiat Obornicki",
                "operator:type": "government",
                "amenity": "school",
                "note": "Parent RSPO: 43784"
            }
        },
        {
            "id": 60853,
            "type": "Feature",
            "geometry": {
                "type": "Point",
                "coordinates": [
                    16.9577199,
                    52.77531
                ]
            },
            "properties": {
                "isced:level": "1;2",
                "ref:rspo": 60853,
                "official_name": "Szko\u0142a Podstawowa im. Noblist\u00f3w Polskich w Go\u015bciejewie",
                "name": "Szko\u0142a Podstawowa",
                "addr:postcode": "64-611",
                "addr:place": "Go\u015bciejewo",
                "addr:housenumber": "14",
                "addr:city:simc": 528936,
                "phone": "+48 672619292",
                "email": "zs.gosciejewo@op.pl",
                "website": "http:\/\/www.zsgosciejewo.pl",
                "ref:regon": "001130549",
                "ref:vatin": "PL6060006452",
                "operator": "Gmina Rogo\u017ano",
                "operator:type": "government",
                "amenity": "school"
            }
        }
    ]
}