{
    "type": "FeatureCollection",
    "features": [
        {
            "id": 71915,
            "type": "Feature",
            "geometry": {
                "type": "Point",
                "coordinates": [
                    21.66212,
                    50.56046
                ]
            },
            "properties": {
                "isced:level": "1;2",
                "ref:rspo": 71915,
                "official_name": "Szko\u0142a Podstawowa Nr 6 w Tarnobrzegu",
                "name": "Szko\u0142a Podstawowa Nr 6 w Tarnobrzegu",
                "addr:country": "PL",
                "addr:postcode": "39-400",
                "addr:city": "Tarnobrzeg",
                "addr:street": "Adama Mickiewicza",
                "addr:housenumber": "86",
                "addr:teryt:simc": 980085,
                "addr:teryt:sym_ul": 12740,
                "contact:phone": "+48 158227279",
                "contact:email": "sp6tbg@poczta.onet.pl",
                "contact:website": "http:\/\/www.sp6.tbg.net.pl",
                "ref:regon": "000837494",
                "ref:vatin": "PL8672104661",
                "operator": "Tarnobrzeg-Miasto Na Prawach Powiatu",
                "operator:type": "government",
                "amenity": "school"
            }
        },
        {
            "id": 274926,
            "type": "Feature",
            "geometry": {
                "type": "Point",
                "coordinates": [
                    21.67783,
                    50.56712
                ]
            },
            "properties": {
                "isced:level": "3",
                "ref:rspo": 274926,
                "official_name": "Bran\u017cowa Szko\u0142a II Stopnia w Tarnobrzegu",
                "name": "Bran\u017cowa Szko\u0142a II Stopnia w Tarnobrzegu",
                "addr:country": "PL",
                "addr:postcode": "39-400",
                "addr:city": "Tarnobrzeg",
                "addr:street": "\u015awi\u0119tej Barbary",
                "addr:housenumber": "1",
                "addr:door": "C",
                "addr:teryt:simc": 980085,
                "addr:teryt:sym_ul": 729,
                "contact:phone": "+48 158231036",
                "contact:email": "biuro@euroszkola-bis.pl",
                "contact:website": "http:\/\/euroszkola-bis.pl",
                "ref:regon": "386409282",
                "operator": "Jacek Sadraku\u0142a",
                "operator:type": "private",
                "amenity": "school"
            }
        },
        {
            "id": 11506,
            "type": "Feature",
            "geometry": {
                "type": "Point",
                "coordinates": [
                    21.6811599,
                    50.56724
                ]
            },
            "properties": {
                "isced:level": "4",
                "ref:rspo": 11506,
                "official_name": "Niepubliczne Policealne Studium Zawodowe Us\u0142ug Kosmetycznych",
                "name": "Niepubliczne Policealne Studium Zawodowe Us\u0142ug Kosmetycznych",
                "addr:country": "PL",
                "addr:postcode": "39-400",
                "addr:city": "Tarnobrzeg",
                "addr:street": "\u015awi\u0119tej Barbary",
                "addr:housenumber": "1c",
                "addr:teryt:simc": 980085,
                "addr:teryt:sym_ul": 729,
                "contact:phone": "+48 158231036",
                "contact:email": "krzysiek@sadrakula.com",
                "contact:website": "http:\/\/euroszkola-bis.pl",
                "ref:regon": "180885071",
                "ref:vatin": "PL8671651390",
                "operator": "Krzysztof Sadraku\u0142a",
                "operator:type": "private",
                "amenity": "college"
            }
        },
        {
            "id": 13524,
            "type": "Feature",
            "geometry": {
                "type": "Point",
                "coordinates": [
                    21.6811599,
                    50.567209999999996
                ]
            },
            "properties": {
                "ref:rspo": 13524,
                "official_name": "Euro-Szko\u0142a Bis Zesp\u00f3\u0142 Szk\u00f3\u0142 Prywatnych Sebastian Sadraku\u0142a",
                "name": "Euro-Szko\u0142a Bis Zesp\u00f3\u0142 Szk\u00f3\u0142 Prywatnych Sebastian Sadraku\u0142a",
                "addr:country": "PL",
                "addr:postcode": "39-400",
                "addr:city": "Tarnobrzeg",
                "addr:street": "\u015awi\u0119tej Barbary",
                "addr:housenumber": "1c",
                "addr:teryt:simc": 980085,
                "addr:teryt:sym_ul": 729,
                "contact:phone": "+48 158231036",
                "contact:email": "sebastian@sadrakula.com",
                "contact:website": "http:\/\/euroszkola-bis.pl",
                "ref:regon": "180886840",
                "ref:vatin": "PL8671651384",
                "operator": "Sebastian Sadraku\u0142a",
                "operator:type": "private",
                "landuse": "education",
                "fixme": "amenity=school, amenity=college albo landuse=education w zale\u017cno\u015bci od tego, jakie plac\u00f3wki wchodz\u0105 w sk\u0142ad zespo\u0142u. Sprawd\u017a, kiedy stosowa\u0107 amenity=* a kiedy landuse=education.",
                "note": "Children RSPO: 11501;11503;20797;20798;20800;129247"
            }
        },
        {
            "id": 13525,
            "type": "Feature",
            "geometry": {
                "type": "Point",
                "coordinates": [
                    21.6811599,
                    50.56718
                ]
            },
            "properties": {
                "ref:rspo": 13525,
                "official_name": "Euro-Szko\u0142a Bis Zesp\u00f3\u0142 Niepublicznych Szk\u00f3\u0142 dla Doros\u0142ych Jacka Sadraku\u0142y",
                "name": "Euro-Szko\u0142a Bis Zesp\u00f3\u0142 Niepublicznych Szk\u00f3\u0142 dla Doros\u0142ych Jacka Sadraku\u0142y",
                "addr:country": "PL",
                "addr:postcode": "39-400",
                "addr:city": "Tarnobrzeg",
                "addr:street": "\u015awi\u0119tej Barbary",
                "addr:housenumber": "1c",
                "addr:teryt:simc": 980085,
                "addr:teryt:sym_ul": 729,
                "contact:phone": "+48 158231036",
                "contact:email": "biuro@euroszkola-bis.pl",
                "contact:website": "http:\/\/euroszkola-bis.pl",
                "ref:regon": "180886857",
                "ref:vatin": "PL8671225003",
                "operator": "Jacek Sadraku\u0142a",
                "operator:type": "private",
                "landuse": "education",
                "fixme": "amenity=school, amenity=college albo landuse=education w zale\u017cno\u015bci od tego, jakie plac\u00f3wki wchodz\u0105 w sk\u0142ad zespo\u0142u. Sprawd\u017a, kiedy stosowa\u0107 amenity=* a kiedy landuse=education.",
                "note": "Children RSPO: 18749;20732;20739;125818;264013"
            }
        },
        {
            "id": 113544,
            "type": "Feature",
            "geometry": {
                "type": "Point",
                "coordinates": [
                    21.6811599,
                    50.56715
                ]
            },
            "properties": {
                "ref:rspo": 113544,
                "official_name": "Euro-Szko\u0142a Bis Zesp\u00f3\u0142 Szk\u00f3\u0142 Zawodowych Krzysztofa Sadraku\u0142y",
                "name": "Euro-Szko\u0142a Bis Zesp\u00f3\u0142 Szk\u00f3\u0142 Zawodowych Krzysztofa Sadraku\u0142y",
                "addr:country": "PL",
                "addr:postcode": "39-400",
                "addr:city": "Tarnobrzeg",
                "addr:street": "\u015awi\u0119tej Barbary",
                "addr:housenumber": "1C",
                "addr:teryt:simc": 980085,
                "addr:teryt:sym_ul": 729,
                "contact:phone": "+48 158231036",
                "contact:email": "krzysiek@sadrakula.com",
                "contact:website": "http:\/\/euroszkola-bis.pl",
                "ref:regon": "180962050",
                "ref:vatin": "PL8671651390",
                "operator": "Krzysztof Sadraku\u0142a",
                "operator:type": "private",
                "landuse": "education",
                "fixme": "amenity=school, amenity=college albo landuse=education w zale\u017cno\u015bci od tego, jakie plac\u00f3wki wchodz\u0105 w sk\u0142ad zespo\u0142u. Sprawd\u017a, kiedy stosowa\u0107 amenity=* a kiedy landuse=education.",
                "note": "Children RSPO: 11505;124794"
            }
        },
        {
            "id": 20797,
            "type": "Feature",
            "geometry": {
                "type": "Point",
                "coordinates": [
                    21.6811599,
                    50.567119999999996
                ]
            },
            "properties": {
                "isced:level": "4",
                "ref:rspo": 20797,
                "official_name": "Niepubliczne Policealne Studium Administracji",
                "name": "Niepubliczne Policealne Studium Administracji",
                "addr:country": "PL",
                "addr:postcode": "39-400",
                "addr:city": "Tarnobrzeg",
                "addr:street": "\u015awi\u0119tej Barbary",
                "addr:housenumber": "1c",
                "addr:teryt:simc": 980085,
                "addr:teryt:sym_ul": 729,
                "contact:phone": "+48 158231036",
                "contact:email": "sebastian@sadrakula.com",
                "contact:website": "http:\/\/euroszkola-bis.pl",
                "ref:regon": "180893171",
                "ref:vatin": "PL8671651384",
                "operator": "Sebastian Sadraku\u0142a",
                "operator:type": "private",
                "amenity": "college",
                "note": "Parent RSPO: 13524"
            }
        },
        {
            "id": 20798,
            "type": "Feature",
            "geometry": {
                "type": "Point",
                "coordinates": [
                    21.6811599,
                    50.56709
                ]
            },
            "properties": {
                "isced:level": "3",
                "ref:rspo": 20798,
                "official_name": "I Niepubliczne Liceum Og\u00f3lnokszta\u0142c\u0105ce dla Doros\u0142ych w Tarnobrzegu",
                "name": "I Niepubliczne Liceum Og\u00f3lnokszta\u0142c\u0105ce dla Doros\u0142ych w Tarnobrzegu",
                "addr:country": "PL",
                "addr:postcode": "39-400",
                "addr:city": "Tarnobrzeg",
                "addr:street": "\u015awi\u0119tej Barbary",
                "addr:housenumber": "1c",
                "addr:teryt:simc": 980085,
                "addr:teryt:sym_ul": 729,
                "contact:phone": "+48 158231036",
                "contact:email": "sebastian@sadrakula.com",
                "contact:website": "http:\/\/euroszkola-bis.pl",
                "ref:regon": "180893202",
                "ref:vatin": "PL8671651384",
                "operator": "Sebastian Sadraku\u0142a",
                "operator:type": "private",
                "amenity": "school",
                "note": "Parent RSPO: 13524"
            }
        },
        {
            "id": 20800,
            "type": "Feature",
            "geometry": {
                "type": "Point",
                "coordinates": [
                    21.6811599,
                    50.56706
                ]
            },
            "properties": {
                "isced:level": "3",
                "ref:rspo": 20800,
                "official_name": "Prywatne Technikum Fryzjerskie w Tarnobrzegu",
                "name": "Prywatne Technikum Fryzjerskie w Tarnobrzegu",
                "addr:country": "PL",
                "addr:postcode": "39-400",
                "addr:city": "Tarnobrzeg",
                "addr:street": "\u015awi\u0119tej Barbary",
                "addr:housenumber": "1c",
                "addr:teryt:simc": 980085,
                "addr:teryt:sym_ul": 729,
                "contact:phone": "+48 158231036",
                "contact:email": "sebastian@sadrakula.com",
                "contact:website": "http:\/\/euroszkola-bis.pl",
                "ref:regon": "180893194",
                "ref:vatin": "PL8671651384",
                "operator": "Sebastian Sadraku\u0142a",
                "operator:type": "private",
                "amenity": "school",
                "note": "Parent RSPO: 13524"
            }
        },
        {
            "id": 129247,
            "type": "Feature",
            "geometry": {
                "type": "Point",
                "coordinates": [
                    21.6811599,
                    50.567029999999995
                ]
            },
            "properties": {
                "isced:level": "3",
                "ref:rspo": 129247,
                "official_name": "Publiczne Technikum Ch\u0142odnictwa I Klimatyzacji w Tarnobrzegu",
                "name": "Publiczne Technikum Ch\u0142odnictwa I Klimatyzacji w Tarnobrzegu",
                "addr:country": "PL",
                "addr:postcode": "39-400",
                "addr:city": "Tarnobrzeg",
                "addr:street": "\u015awi\u0119tej Barbary",
                "addr:housenumber": "1c",
                "addr:teryt:simc": 980085,
                "addr:teryt:sym_ul": 729,
                "contact:phone": "+48 608063642",
                "contact:email": "zeb007@poczta.fm",
                "contact:website": "http:\/\/euroszkola-bis.pl\/",
                "ref:regon": "362525854",
                "operator": "Sebastian Sadraku\u0142a",
                "operator:type": "private",
                "amenity": "school",
                "note": "Parent RSPO: 13524"
            }
        },
        {
            "id": 18749,
            "type": "Feature",
            "geometry": {
                "type": "Point",
                "coordinates": [
                    21.6811599,
                    50.567
                ]
            },
            "properties": {
                "isced:level": "4",
                "ref:rspo": 18749,
                "official_name": "Niepubliczne Policealne Studium Zawodowe Informatyki",
                "name": "Niepubliczne Policealne Studium Zawodowe Informatyki",
                "addr:country": "PL",
                "addr:postcode": "39-400",
                "addr:city": "Tarnobrzeg",
                "addr:street": "\u015awi\u0119tej Barbary",
                "addr:housenumber": "1c",
                "addr:teryt:simc": 980085,
                "addr:teryt:sym_ul": 729,
                "contact:phone": "+48 158231036",
                "contact:email": "biuro@euroszkola-bis.pl",
                "contact:website": "http:\/\/euroszkola-bis.pl",
                "ref:regon": "180892183",
                "ref:vatin": "PL8671225003",
                "operator": "Jacek Sadraku\u0142a",
                "operator:type": "private",
                "amenity": "college",
                "note": "Parent RSPO: 13525"
            }
        },
        {
            "id": 20732,
            "type": "Feature",
            "geometry": {
                "type": "Point",
                "coordinates": [
                    21.6811599,
                    50.56697
                ]
            },
            "properties": {
                "isced:level": "3",
                "ref:rspo": 20732,
                "official_name": "Policyjne Liceum Og\u00f3lnokszta\u0142c\u0105ce w Tarnobrzegu",
                "name": "Policyjne Liceum Og\u00f3lnokszta\u0142c\u0105ce w Tarnobrzegu",
                "addr:country": "PL",
                "addr:postcode": "39-400",
                "addr:city": "Tarnobrzeg",
                "addr:street": "\u015awi\u0119tej Barbary",
                "addr:housenumber": "1c",
                "addr:teryt:simc": 980085,
                "addr:teryt:sym_ul": 729,
                "contact:phone": "+48 158231036",
                "contact:email": "biuro@euroszkola-bis.pl",
                "contact:website": "http:\/\/euroszkola-bis.pl",
                "ref:regon": "180893113",
                "ref:vatin": "PL8671225003",
                "operator": "Jacek Sadraku\u0142a",
                "operator:type": "private",
                "amenity": "school",
                "note": "Parent RSPO: 13525"
            }
        },
        {
            "id": 20739,
            "type": "Feature",
            "geometry": {
                "type": "Point",
                "coordinates": [
                    21.6811599,
                    50.566939999999995
                ]
            },
            "properties": {
                "isced:level": "3",
                "ref:rspo": 20739,
                "official_name": "Publiczna Bran\u017cowa Szko\u0142a I Stopnia w Tarnobrzegu",
                "name": "Publiczna Bran\u017cowa Szko\u0142a I Stopnia w Tarnobrzegu",
                "addr:country": "PL",
                "addr:postcode": "39-400",
                "addr:city": "Tarnobrzeg",
                "addr:street": "\u015awi\u0119tej Barbary",
                "addr:housenumber": "1c",
                "addr:teryt:simc": 980085,
                "addr:teryt:sym_ul": 729,
                "contact:phone": "+48 158231036",
                "contact:email": "biuro@euroszkola-bis.pl",
                "contact:website": "http:\/\/euroszkola-bis.pl",
                "ref:regon": "180893225",
                "ref:vatin": "PL8671225003",
                "operator": "Jacek Sadraku\u0142a",
                "operator:type": "private",
                "amenity": "school",
                "note": "Parent RSPO: 13525"
            }
        },
        {
            "id": 125818,
            "type": "Feature",
            "geometry": {
                "type": "Point",
                "coordinates": [
                    21.6811599,
                    50.56691
                ]
            },
            "properties": {
                "isced:level": "3",
                "ref:rspo": 125818,
                "official_name": "Publiczne Technikum Gazownictwa w Tarnobrzegu",
                "name": "Publiczne Technikum Gazownictwa w Tarnobrzegu",
                "addr:country": "PL",
                "addr:postcode": "39-400",
                "addr:city": "Tarnobrzeg",
                "addr:street": "\u015awi\u0119tej Barbary",
                "addr:housenumber": "1c",
                "addr:teryt:simc": 980085,
                "addr:teryt:sym_ul": 729,
                "contact:phone": "+48 158231036",
                "contact:email": "biuro@euroszkola-bis.pl",
                "contact:website": "http:\/\/euroszkola-bis.pl",
                "ref:regon": "181167461",
                "operator": "Jacek Sadraku\u0142a",
                "operator:type": "private",
                "amenity": "school",
                "note": "Parent RSPO: 13525"
            }
        },
        {
            "id": 264013,
            "type": "Feature",
            "geometry": {
                "type": "Point",
                "coordinates": [
                    21.6811599,
                    50.56688
                ]
            },
            "properties": {
                "isced:level": "1;2",
                "ref:rspo": 264013,
                "official_name": "Publiczna Szko\u0142a Podstawowa dla Doros\u0142ych",
                "name": "Publiczna Szko\u0142a Podstawowa dla Doros\u0142ych",
                "addr:country": "PL",
                "addr:postcode": "39-400",
                "addr:city": "Tarnobrzeg",
                "addr:street": "\u015awi\u0119tej Barbary",
                "addr:housenumber": "1c",
                "addr:teryt:simc": 980085,
                "addr:teryt:sym_ul": 729,
                "contact:phone": "+48 158231036",
                "contact:email": "biuro@euroszkola-bis.pl",
                "contact:website": "http:\/\/euroszkola-bis.pl\/",
                "ref:regon": "368250507",
                "operator": "Jacek Sadraku\u0142a",
                "operator:type": "private",
                "amenity": "school",
                "note": "Parent RSPO: 13525"
            }
        },
        {
            "id": 11505,
            "type": "Feature",
            "geometry": {
                "type": "Point",
                "coordinates": [
                    21.6811599,
                    50.566849999999995
                ]
            },
            "properties": {
                "isced:level": "3",
                "ref:rspo": 11505,
                "official_name": "I Technikum Informatyczne",
                "name": "I Technikum Informatyczne",
                "addr:country": "PL",
                "addr:postcode": "39-400",
                "addr:city": "Tarnobrzeg",
                "addr:street": "\u015awi\u0119tej Barbary",
                "addr:housenumber": "1c",
                "addr:teryt:simc": 980085,
                "addr:teryt:sym_ul": 729,
                "contact:phone": "+48 158231036",
                "contact:email": "krzysiek@sadrakula.com",
                "contact:website": "http:\/\/euroszkola-bis.pl",
                "ref:regon": "180885444",
                "ref:vatin": "PL8671651390",
                "operator": "Krzysztof Sadraku\u0142a",
                "operator:type": "private",
                "amenity": "school",
                "note": "Parent RSPO: 113544"
            }
        },
        {
            "id": 124794,
            "type": "Feature",
            "geometry": {
                "type": "Point",
                "coordinates": [
                    21.6811599,
                    50.56682
                ]
            },
            "properties": {
                "isced:level": "3",
                "ref:rspo": 124794,
                "official_name": "Publiczna Bran\u017cowa Szko\u0142a I Stopnia Nr 1 w Tarnobrzegu",
                "name": "Publiczna Bran\u017cowa Szko\u0142a I Stopnia Nr 1 w Tarnobrzegu",
                "addr:country": "PL",
                "addr:postcode": "39-400",
                "addr:city": "Tarnobrzeg",
                "addr:street": "\u015awi\u0119tej Barbary",
                "addr:housenumber": "1c",
                "addr:teryt:simc": 980085,
                "addr:teryt:sym_ul": 729,
                "contact:phone": "+48 158231036",
                "contact:email": "krzysiek@sadrakula.com",
                "contact:website": "http:\/\/www.euroszkola-bis.pl",
                "ref:regon": "181150816",
                "operator": "Krzysztof Sadraku\u0142a",
                "operator:type": "private",
                "amenity": "school",
                "note": "Parent RSPO: 113544"
            }
        },
        {
            "id": 17923,
            "type": "Feature",
            "geometry": {
                "type": "Point",
                "coordinates": [
                    21.683,
                    50.5673
                ]
            },
            "properties": {
                "ref:rspo": 17923,
                "official_name": "Przedszkole Nr 15 w Tarnobrzegu",
                "name": "Przedszkole Nr 15 w Tarnobrzegu",
                "addr:country": "PL",
                "addr:postcode": "39-400",
                "addr:city": "Tarnobrzeg",
                "addr:street": "\u015awi\u0119tej Barbary",
                "addr:housenumber": "9",
                "addr:teryt:simc": 980085,
                "addr:teryt:sym_ul": 729,
                "contact:phone": "+48 158233396",
                "contact:email": "p15@oswiata.tarnobrzeg.pl",
                "contact:website": "http:\/\/p15tarnobrzeg.szkolnastrona.pl",
                "ref:regon": "180644628",
                "ref:vatin": "PL8671662637",
                "operator": "Tarnobrzeg-Miasto Na Prawach Powiatu",
                "operator:type": "government",
                "amenity": "kindergarten"
            }
        },
        {
            "id": 17922,
            "type": "Feature",
            "geometry": {
                "type": "Point",
                "coordinates": [
                    21.66409,
                    50.56731
                ]
            },
            "properties": {
                "ref:rspo": 17922,
                "official_name": "Przedszkole Nr 6 w Tarnobrzegu",
                "name": "Przedszkole Nr 6 w Tarnobrzegu",
                "addr:country": "PL",
                "addr:postcode": "39-400",
                "addr:city": "Tarnobrzeg",
                "addr:street": "1 Maja",
                "addr:housenumber": "14",
                "addr:teryt:simc": 980085,
                "addr:teryt:sym_ul": 11926,
                "contact:phone": "+48 158220086",
                "contact:email": "p6@oswiata.tarnobrzeg.pl",
                "contact:website": "http:\/\/www.przedszkole6.tbg.net.pl",
                "ref:regon": "180644500",
                "ref:vatin": "PL8671852763",
                "operator": "Tarnobrzeg-Miasto Na Prawach Powiatu",
                "operator:type": "government",
                "amenity": "kindergarten"
            }
        },
        {
            "id": 18198,
            "type": "Feature",
            "geometry": {
                "type": "Point",
                "coordinates": [
                    21.67946,
                    50.56733
                ]
            },
            "properties": {
                "ref:rspo": 18198,
                "official_name": "Zesp\u00f3\u0142 Szk\u00f3\u0142 Nr 3 w Tarnobrzegu",
                "name": "Zesp\u00f3\u0142 Szk\u00f3\u0142 Nr 3 w Tarnobrzegu",
                "addr:country": "PL",
                "addr:postcode": "39-400",
                "addr:city": "Tarnobrzeg",
                "addr:street": "\u015awi\u0119tej Barbary",
                "addr:housenumber": "1B",
                "addr:teryt:simc": 980085,
                "addr:teryt:sym_ul": 729,
                "contact:phone": "+48 158223655",
                "contact:email": "zsbtbg@pro.onet.pl",
                "contact:website": "http:\/\/budowlanka.tbg.net.pl",
                "ref:regon": "180640820",
                "ref:vatin": "PL8671617499",
                "operator": "Tarnobrzeg-Miasto Na Prawach Powiatu",
                "operator:type": "government",
                "landuse": "education",
                "fixme": "amenity=school, amenity=college albo landuse=education w zale\u017cno\u015bci od tego, jakie plac\u00f3wki wchodz\u0105 w sk\u0142ad zespo\u0142u. Sprawd\u017a, kiedy stosowa\u0107 amenity=* a kiedy landuse=education.",
                "note": "Children RSPO: 24679;24680;24681;78072;115616"
            }
        },
        {
            "id": 24679,
            "type": "Feature",
            "geometry": {
                "type": "Point",
                "coordinates": [
                    21.67946,
                    50.567299999999996
                ]
            },
            "properties": {
                "isced:level": "3",
                "ref:rspo": 24679,
                "official_name": "Bran\u017cowa Szko\u0142a I Stopnia",
                "name": "Bran\u017cowa Szko\u0142a I Stopnia",
                "addr:country": "PL",
                "addr:postcode": "39-400",
                "addr:city": "Tarnobrzeg",
                "addr:street": "\u015awi\u0119tej Barbary",
                "addr:housenumber": "1B",
                "addr:teryt:simc": 980085,
                "addr:teryt:sym_ul": 729,
                "contact:phone": "+48 158223655",
                "contact:email": "zsbtbg@pro.onet.pl",
                "contact:website": "http:\/\/budowlanka.tbg.net.pl",
                "ref:regon": "180640748",
                "ref:vatin": "PL8671617499",
                "operator": "Tarnobrzeg-Miasto Na Prawach Powiatu",
                "operator:type": "government",
                "amenity": "school",
                "note": "Parent RSPO: 18198"
            }
        },
        {
            "id": 24680,
            "type": "Feature",
            "geometry": {
                "type": "Point",
                "coordinates": [
                    21.67946,
                    50.56727
                ]
            },
            "properties": {
                "isced:level": "3",
                "ref:rspo": 24680,
                "official_name": "Liceum Og\u00f3lnokszta\u0142c\u0105ce",
                "name": "Liceum Og\u00f3lnokszta\u0142c\u0105ce",
                "addr:country": "PL",
                "addr:postcode": "39-400",
                "addr:city": "Tarnobrzeg",
                "addr:street": "\u015awi\u0119tej Barbary",
                "addr:housenumber": "1B",
                "addr:teryt:simc": 980085,
                "addr:teryt:sym_ul": 729,
                "contact:phone": "+48 158223655",
                "contact:email": "zsbtbg@pro.onet.pl",
                "contact:website": "http:\/\/budowlanka.tbg.net.pl",
                "ref:regon": "180640783",
                "ref:vatin": "PL8671617499",
                "operator": "Tarnobrzeg-Miasto Na Prawach Powiatu",
                "operator:type": "government",
                "amenity": "school",
                "note": "Parent RSPO: 18198"
            }
        },
        {
            "id": 24681,
            "type": "Feature",
            "geometry": {
                "type": "Point",
                "coordinates": [
                    21.67946,
                    50.56724
                ]
            },
            "properties": {
                "isced:level": "3",
                "ref:rspo": 24681,
                "official_name": "Technikum",
                "name": "Technikum",
                "addr:country": "PL",
                "addr:postcode": "39-400",
                "addr:city": "Tarnobrzeg",
                "addr:street": "\u015awi\u0119tej Barbary",
                "addr:housenumber": "1B",
                "addr:teryt:simc": 980085,
                "addr:teryt:sym_ul": 729,
                "contact:phone": "+48 158223655",
                "contact:email": "zsbtbg@pro.onet.pl",
                "contact:website": "http:\/\/budowlanka.tbg.net.pl",
                "ref:regon": "180640760",
                "ref:vatin": "PL8671617499",
                "operator": "Tarnobrzeg-Miasto Na Prawach Powiatu",
                "operator:type": "government",
                "amenity": "school",
                "note": "Parent RSPO: 18198"
            }
        },
        {
            "id": 78072,
            "type": "Feature",
            "geometry": {
                "type": "Point",
                "coordinates": [
                    21.67946,
                    50.567209999999996
                ]
            },
            "properties": {
                "ref:rspo": 78072,
                "official_name": "Szkolne Schronisko M\u0142odzie\u017cowe",
                "name": "Szkolne Schronisko M\u0142odzie\u017cowe",
                "addr:country": "PL",
                "addr:postcode": "39-400",
                "addr:city": "Tarnobrzeg",
                "addr:street": "\u015awi\u0119tej Barbary",
                "addr:housenumber": "1B",
                "addr:teryt:simc": 980085,
                "addr:teryt:sym_ul": 729,
                "contact:phone": "+48 158223655",
                "contact:email": "zsbtbg@pro.onet.pl",
                "contact:website": "http:\/\/budowlanka.tbg.net.pl",
                "ref:regon": "180225877",
                "ref:vatin": "PL8671617499",
                "operator": "Tarnobrzeg-Miasto Na Prawach Powiatu",
                "operator:type": "government",
                "tourism": "hostel",
                "note": "Parent RSPO: 18198"
            }
        },
        {
            "id": 115616,
            "type": "Feature",
            "geometry": {
                "type": "Point",
                "coordinates": [
                    21.67946,
                    50.56718
                ]
            },
            "properties": {
                "isced:level": "3",
                "ref:rspo": 115616,
                "official_name": "Liceum Og\u00f3lnokszta\u0142c\u0105ce dla Doros\u0142ych",
                "name": "Liceum Og\u00f3lnokszta\u0142c\u0105ce dla Doros\u0142ych",
                "addr:country": "PL",
                "addr:postcode": "39-400",
                "addr:city": "Tarnobrzeg",
                "addr:street": "\u015awi\u0119tej Barbary",
                "addr:housenumber": "1B",
                "addr:teryt:simc": 980085,
                "addr:teryt:sym_ul": 729,
                "contact:phone": "+48 158223655",
                "contact:email": "zsbtbg@pro.onet.pl",
                "contact:website": "http:\/\/budowlanka.tbg.net.pl",
                "ref:regon": "180997290",
                "ref:vatin": "PL8671617499",
                "operator": "Tarnobrzeg-Miasto Na Prawach Powiatu",
                "operator:type": "government",
                "amenity": "school",
                "note": "Parent RSPO: 18198"
            }
        },
        {
            "id": 17916,
            "type": "Feature",
            "geometry": {
                "type": "Point",
                "coordinates": [
                    21.67487,
                    50.56755
                ]
            },
            "properties": {
                "ref:rspo": 17916,
                "official_name": "Przedszkole Nr 4 w Tarnobrzegu",
                "name": "Przedszkole Nr 4 w Tarnobrzegu",
                "addr:country": "PL",
                "addr:postcode": "39-400",
                "addr:city": "Tarnobrzeg",
                "addr:street": "por. Jana Tracza",
                "addr:housenumber": "2",
                "addr:teryt:simc": 980085,
                "addr:teryt:sym_ul": 29440,
                "contact:phone": "+48 158222836",
                "contact:email": "przedszkole4.niezapominajka@gmail.com",
                "contact:website": "http:\/\/www.przedszkole4tbg.prv.pl",
                "ref:regon": "180641080",
                "ref:vatin": "PL8671621288",
                "operator": "Tarnobrzeg-Miasto Na Prawach Powiatu",
                "operator:type": "government",
                "amenity": "kindergarten"
            }
        },
        {
            "id": 91743,
            "type": "Feature",
            "geometry": {
                "type": "Point",
                "coordinates": [
                    21.6662217,
                    50.5677506
                ]
            },
            "properties": {
                "ref:rspo": 91743,
                "official_name": "O\u015brodek Rehabilitacyjno-Edukacyjno-Wychowawczy",
                "name": "O\u015brodek Rehabilitacyjno-Edukacyjno-Wychowawczy",
                "addr:country": "PL",
                "addr:postcode": "39-400",
                "addr:city": "Tarnobrzeg",
                "addr:street": "al. Niepodleg\u0142o\u015bci",
                "addr:housenumber": "2",
                "addr:teryt:simc": 980085,
                "addr:teryt:sym_ul": 14199,
                "contact:phone": "+48 158225304",
                "contact:email": "orew_tarnobrzeg@poczta.onet.pl",
                "contact:website": "http:\/\/www.orew.tarnobrzeg.pl",
                "ref:regon": "180917598",
                "ref:vatin": "PL8671899196",
                "operator": "Polskie Stowarzyszenie Na Rzecz Os\u00f3b Z Niepe\u0142nosprawno\u015bci\u0105 Intelektualn\u0105 Ko\u0142o W Tarnobrzegu",
                "operator:type": "ngo",
                "amenity": "school"
            }
        },
        {
            "id": 17931,
            "type": "Feature",
            "geometry": {
                "type": "Point",
                "coordinates": [
                    21.72017,
                    50.56842
                ]
            },
            "properties": {
                "isced:level": "1;2",
                "ref:rspo": 17931,
                "official_name": "Szko\u0142a Podstawowa Nr 7 im. Gen. Leopolda Okulickiego",
                "name": "Szko\u0142a Podstawowa Nr 7",
                "addr:country": "PL",
                "addr:postcode": "39-400",
                "addr:city": "Tarnobrzeg",
                "addr:street": "Henryka Sienkiewicza",
                "addr:housenumber": "215",
                "addr:teryt:simc": 980085,
                "addr:teryt:sym_ul": 19834,
                "contact:phone": "+48 158233529",
                "contact:email": "sp7@oswiata.tarnobrzeg.pl",
                "contact:website": "http:\/\/sp7tarnobrzeg.edupage.org",
                "ref:regon": "180643497",
                "ref:vatin": "PL8671611700",
                "operator": "Tarnobrzeg-Miasto Na Prawach Powiatu",
                "operator:type": "government",
                "amenity": "school"
            }
        },
        {
            "id": 17929,
            "type": "Feature",
            "geometry": {
                "type": "Point",
                "coordinates": [
                    21.68391,
                    50.56844
                ]
            },
            "properties": {
                "ref:rspo": 17929,
                "official_name": "Zesp\u00f3\u0142 Szk\u00f3\u0142 Specjalnych w Tarnobrzegu",
                "name": "Zesp\u00f3\u0142 Szk\u00f3\u0142 Specjalnych w Tarnobrzegu",
                "addr:country": "PL",
                "addr:postcode": "39-400",
                "addr:city": "Tarnobrzeg",
                "addr:street": "Miko\u0142aja Kopernika",
                "addr:housenumber": "18",
                "addr:teryt:simc": 980085,
                "addr:teryt:sym_ul": 9282,
                "contact:phone": "+48 158228975",
                "contact:email": "zss@zss.tarnobrzeg.pl",
                "contact:website": "http:\/\/www.zss.tarnobrzeg.pl",
                "ref:regon": "180640151",
                "ref:vatin": "PL8671918769",
                "operator": "Tarnobrzeg-Miasto Na Prawach Powiatu",
                "operator:type": "government",
                "landuse": "education",
                "fixme": "amenity=school, amenity=college albo landuse=education w zale\u017cno\u015bci od tego, jakie plac\u00f3wki wchodz\u0105 w sk\u0142ad zespo\u0142u. Sprawd\u017a, kiedy stosowa\u0107 amenity=* a kiedy landuse=education.",
                "note": "Children RSPO: 24674;24678"
            }
        },
        {
            "id": 24674,
            "type": "Feature",
            "geometry": {
                "type": "Point",
                "coordinates": [
                    21.68391,
                    50.56841
                ]
            },
            "properties": {
                "isced:level": "1;2",
                "ref:rspo": 24674,
                "official_name": "Szko\u0142a Podstawowa Specjalna",
                "name": "Szko\u0142a Podstawowa Specjalna",
                "addr:country": "PL",
                "addr:postcode": "39-400",
                "addr:city": "Tarnobrzeg",
                "addr:street": "Miko\u0142aja Kopernika",
                "addr:housenumber": "18",
                "addr:teryt:simc": 980085,
                "addr:teryt:sym_ul": 9282,
                "contact:phone": "+48 158228975",
                "contact:email": "zss@zss.tarnobrzeg.pl",
                "contact:website": "http:\/\/www.zss.tarnobrzeg.pl",
                "ref:regon": "831202140",
                "ref:vatin": "PL8671918769",
                "operator": "Tarnobrzeg-Miasto Na Prawach Powiatu",
                "operator:type": "government",
                "amenity": "school",
                "note": "Parent RSPO: 17929"
            }
        },
        {
            "id": 24678,
            "type": "Feature",
            "geometry": {
                "type": "Point",
                "coordinates": [
                    21.68391,
                    50.568380000000005
                ]
            },
            "properties": {
                "ref:rspo": 24678,
                "official_name": "Szko\u0142a Specjalna Przysposabiaj\u0105ca Do Pracy",
                "name": "Szko\u0142a Specjalna Przysposabiaj\u0105ca Do Pracy",
                "addr:country": "PL",
                "addr:postcode": "39-400",
                "addr:city": "Tarnobrzeg",
                "addr:street": "Miko\u0142aja Kopernika",
                "addr:housenumber": "18",
                "addr:teryt:simc": 980085,
                "addr:teryt:sym_ul": 9282,
                "contact:phone": "+48 158228975",
                "contact:email": "zss@zss.tarnobrzeg.pl",
                "contact:website": "http:\/\/www.zss.tarnobrzeg.pl",
                "ref:regon": "180640100",
                "ref:vatin": "PL8671918769",
                "operator": "Tarnobrzeg-Miasto Na Prawach Powiatu",
                "operator:type": "government",
                "amenity": "school",
                "note": "Parent RSPO: 17929"
            }
        },
        {
            "id": 13535,
            "type": "Feature",
            "geometry": {
                "type": "Point",
                "coordinates": [
                    21.68806,
                    50.56881
                ]
            },
            "properties": {
                "isced:level": "4",
                "ref:rspo": 13535,
                "official_name": "Szko\u0142a Policealna - Akademia Kreowania Wizerunku",
                "name": "Szko\u0142a Policealna - Akademia Kreowania Wizerunku",
                "addr:country": "PL",
                "addr:postcode": "39-400",
                "addr:city": "Tarnobrzeg",
                "addr:street": "Miko\u0142aja Kopernika",
                "addr:housenumber": "21",
                "addr:door": "1A",
                "addr:teryt:simc": 980085,
                "addr:teryt:sym_ul": 9282,
                "contact:phone": "+48 158233145",
                "contact:email": "akw@akwszkola.pl",
                "contact:website": "http:\/\/www.akwszkola.pl",
                "ref:regon": "180887087",
                "ref:vatin": "PL6762494676",
                "operator": "Akw-Team Sp\u00f3\u0142ka Z Ograniczon\u0105 Odpowiedzialno\u015bci\u0105",
                "operator:type": "private",
                "amenity": "college"
            }
        },
        {
            "id": 13533,
            "type": "Feature",
            "geometry": {
                "type": "Point",
                "coordinates": [
                    21.67438,
                    50.56902
                ]
            },
            "properties": {
                "isced:level": "4",
                "ref:rspo": 13533,
                "official_name": "Niepubliczna Szko\u0142a Policealna w Profesjonalnej Szkole Biznesu",
                "name": "Niepubliczna Szko\u0142a Policealna w Profesjonalnej Szkole Biznesu",
                "addr:country": "PL",
                "addr:postcode": "39-400",
                "addr:city": "Tarnobrzeg",
                "addr:street": "Stanis\u0142awa Wyspia\u0144skiego",
                "addr:housenumber": "12",
                "addr:teryt:simc": 980085,
                "addr:teryt:sym_ul": 25084,
                "contact:phone": "+48 158232635",
                "contact:email": "sekretariat@psb.tarnobrzeg.pl",
                "contact:website": "http:\/\/www.psb.tarnobrzeg.pl",
                "ref:regon": "180887064",
                "ref:vatin": "PL8641257079",
                "operator": "Anna Baran",
                "operator:type": "private",
                "amenity": "college"
            }
        },
        {
            "id": 13534,
            "type": "Feature",
            "geometry": {
                "type": "Point",
                "coordinates": [
                    21.67438,
                    50.56899
                ]
            },
            "properties": {
                "isced:level": "4",
                "ref:rspo": 13534,
                "official_name": "Profesjonalna Szko\u0142a Biznesu",
                "name": "Profesjonalna Szko\u0142a Biznesu",
                "addr:country": "PL",
                "addr:postcode": "39-400",
                "addr:city": "Tarnobrzeg",
                "addr:street": "Stanis\u0142awa Wyspia\u0144skiego",
                "addr:housenumber": "12",
                "addr:teryt:simc": 980085,
                "addr:teryt:sym_ul": 25084,
                "contact:phone": "+48 158232635",
                "contact:email": "sekretariat@psb.tarnobrzeg.pl",
                "contact:website": "http:\/\/www.psb.tarnobrzeg.pl",
                "ref:regon": "180887070",
                "ref:vatin": "PL8641257079",
                "operator": "Anna Baran",
                "operator:type": "private",
                "amenity": "college"
            }
        },
        {
            "id": 78069,
            "type": "Feature",
            "geometry": {
                "type": "Point",
                "coordinates": [
                    21.67438,
                    50.568960000000004
                ]
            },
            "properties": {
                "isced:level": "3",
                "ref:rspo": 78069,
                "official_name": "Spo\u0142eczne Liceum Og\u00f3lnokszta\u0142c\u0105ce Z Oddzia\u0142ami Dwuj\u0119zycznymi im.ma\u0142ego Ksi\u0119cia",
                "name": "Spo\u0142eczne Liceum Og\u00f3lnokszta\u0142c\u0105ce Z Oddzia\u0142ami Dwuj\u0119zycznymi im.ma\u0142ego Ksi\u0119cia",
                "addr:country": "PL",
                "addr:postcode": "39-400",
                "addr:city": "Tarnobrzeg",
                "addr:street": "Stanis\u0142awa Wyspia\u0144skiego",
                "addr:housenumber": "12",
                "addr:teryt:simc": 980085,
                "addr:teryt:sym_ul": 25084,
                "contact:phone": "+48 158222323",
                "contact:email": "szkolad@op.pl",
                "contact:website": "http:\/\/www.szkola.tbg.net.pl",
                "ref:regon": "180910886",
                "ref:vatin": "PL8672155279",
                "operator": "Spo\u0142eczne Towarzystwo O\u015bwiatowo-Naukowe Imienia Ma\u0142ego Ksi\u0119cia W Tarnobrzegu",
                "operator:type": "ngo",
                "amenity": "school",
                "note": "Parent RSPO: 13523"
            }
        },
        {
            "id": 17914,
            "type": "Feature",
            "geometry": {
                "type": "Point",
                "coordinates": [
                    21.66288,
                    50.56911
                ]
            },
            "properties": {
                "ref:rspo": 17914,
                "official_name": "Przedszkole Nr 1 w Tarnobrzegu",
                "name": "Przedszkole Nr 1 w Tarnobrzegu",
                "addr:country": "PL",
                "addr:postcode": "39-400",
                "addr:city": "Tarnobrzeg",
                "addr:street": "Kosmonaut\u00f3w",
                "addr:housenumber": "4",
                "addr:teryt:simc": 980085,
                "addr:teryt:sym_ul": 9440,
                "contact:phone": "+48 158227410",
                "contact:email": "p1@oswiata.tarnobrzeg.pl",
                "contact:website": "http:\/\/www.przedszkole1.tarnobrzeg.pl",
                "ref:regon": "180642500",
                "ref:vatin": "PL8671618808",
                "operator": "Tarnobrzeg-Miasto Na Prawach Powiatu",
                "operator:type": "government",
                "amenity": "kindergarten"
            }
        },
        {
            "id": 17926,
            "type": "Feature",
            "geometry": {
                "type": "Point",
                "coordinates": [
                    21.67363,
                    50.5692
                ]
            },
            "properties": {
                "isced:level": "1;2",
                "ref:rspo": 17926,
                "official_name": "Szko\u0142a Podstawowa Nr 4 im. Miko\u0142aja Kopernika",
                "name": "Szko\u0142a Podstawowa Nr 4",
                "addr:country": "PL",
                "addr:postcode": "39-400",
                "addr:city": "Tarnobrzeg",
                "addr:street": "Stanis\u0142awa Wyspia\u0144skiego",
                "addr:housenumber": "10",
                "addr:teryt:simc": 980085,
                "addr:teryt:sym_ul": 25084,
                "contact:phone": "+48 158227441",
                "contact:email": "sp4tbg@wp.pl",
                "contact:website": "http:\/\/sp4tbg.pl",
                "ref:regon": "180641802",
                "ref:vatin": "PL8671615454",
                "operator": "Tarnobrzeg-Miasto Na Prawach Powiatu",
                "operator:type": "government",
                "amenity": "school"
            }
        },
        {
            "id": 17910,
            "type": "Feature",
            "geometry": {
                "type": "Point",
                "coordinates": [
                    21.66864,
                    50.56923
                ]
            },
            "properties": {
                "isced:level": "1;2",
                "ref:rspo": 17910,
                "official_name": "Szko\u0142a Podstawowa Nr 3 im. Alfreda Freyera",
                "name": "Szko\u0142a Podstawowa Nr 3",
                "addr:country": "PL",
                "addr:postcode": "39-400",
                "addr:city": "Tarnobrzeg",
                "addr:street": "Jana Kochanowskiego",
                "addr:housenumber": "1",
                "addr:teryt:simc": 980085,
                "addr:teryt:sym_ul": 8728,
                "contact:phone": "+48 158233511",
                "contact:email": "sekretariatsp3@op.pl",
                "contact:website": "http:\/\/sp3.tarnobrzeg.pl\/",
                "ref:regon": "180640837",
                "ref:vatin": "PL8671613225",
                "operator": "Tarnobrzeg-Miasto Na Prawach Powiatu",
                "operator:type": "government",
                "amenity": "school"
            }
        },
        {
            "id": 92410,
            "type": "Feature",
            "geometry": {
                "type": "Point",
                "coordinates": [
                    21.67105,
                    50.56926
                ]
            },
            "properties": {
                "ref:rspo": 92410,
                "official_name": "Biblioteka Pedagogiczna w Tarnobrzegu",
                "name": "Biblioteka Pedagogiczna w Tarnobrzegu",
                "addr:country": "PL",
                "addr:postcode": "39-400",
                "addr:city": "Tarnobrzeg",
                "addr:street": "Stanis\u0142awa Wyspia\u0144skiego",
                "addr:housenumber": "2A",
                "addr:teryt:simc": 980085,
                "addr:teryt:sym_ul": 25084,
                "contact:phone": "+48 158221373",
                "contact:email": "tarnobrzeg@pbw.org.pl",
                "ref:regon": "000719091",
                "ref:vatin": "PL8671867262",
                "operator": "Wojew\u00f3dztwo Podkarpackie",
                "operator:type": "government",
                "amenity": "library",
                "note": "Children RSPO: 128405;128406"
            }
        },
        {
            "id": 11486,
            "type": "Feature",
            "geometry": {
                "type": "Point",
                "coordinates": [
                    21.69239,
                    50.5693
                ]
            },
            "properties": {
                "ref:rspo": 11486,
                "official_name": "Zesp\u00f3\u0142 Szk\u00f3\u0142 Nr 1 w Tarnobrzegu",
                "name": "Zesp\u00f3\u0142 Szk\u00f3\u0142 Nr 1 w Tarnobrzegu",
                "addr:country": "PL",
                "addr:postcode": "39-400",
                "addr:city": "Tarnobrzeg",
                "addr:street": "Miko\u0142aja Kopernika",
                "addr:housenumber": "49",
                "addr:teryt:simc": 980085,
                "addr:teryt:sym_ul": 9282,
                "contact:phone": "+48 158233151",
                "contact:email": "zsp1tarnobrzeg@poczta.onet.pl",
                "contact:website": "http:\/\/www.zsp1.tarnobrzeg.pl",
                "ref:regon": "180641854",
                "ref:vatin": "PL8671818513",
                "operator": "Tarnobrzeg-Miasto Na Prawach Powiatu",
                "operator:type": "government",
                "landuse": "education",
                "fixme": "amenity=school, amenity=college albo landuse=education w zale\u017cno\u015bci od tego, jakie plac\u00f3wki wchodz\u0105 w sk\u0142ad zespo\u0142u. Sprawd\u017a, kiedy stosowa\u0107 amenity=* a kiedy landuse=education.",
                "note": "Children RSPO: 70116;70118;91735;113542;115615"
            }
        },
        {
            "id": 70116,
            "type": "Feature",
            "geometry": {
                "type": "Point",
                "coordinates": [
                    21.69239,
                    50.569269999999996
                ]
            },
            "properties": {
                "isced:level": "3",
                "ref:rspo": 70116,
                "official_name": "Bran\u017cowa Szko\u0142a I Stopnia",
                "name": "Bran\u017cowa Szko\u0142a I Stopnia",
                "addr:country": "PL",
                "addr:postcode": "39-400",
                "addr:city": "Tarnobrzeg",
                "addr:street": "Miko\u0142aja Kopernika",
                "addr:housenumber": "49",
                "addr:teryt:simc": 980085,
                "addr:teryt:sym_ul": 9282,
                "contact:phone": "+48 158233151",
                "contact:email": "zsp1tarnobrzeg@poczta.onet.pl",
                "contact:website": "http:\/\/www.zsp1.tarnobrzeg.pl",
                "ref:regon": "180641848",
                "ref:vatin": "PL8671818513",
                "operator": "Tarnobrzeg-Miasto Na Prawach Powiatu",
                "operator:type": "government",
                "amenity": "school",
                "note": "Parent RSPO: 11486"
            }
        },
        {
            "id": 70118,
            "type": "Feature",
            "geometry": {
                "type": "Point",
                "coordinates": [
                    21.69239,
                    50.56924
                ]
            },
            "properties": {
                "isced:level": "3",
                "ref:rspo": 70118,
                "official_name": "Technikum",
                "name": "Technikum",
                "addr:country": "PL",
                "addr:postcode": "39-400",
                "addr:city": "Tarnobrzeg",
                "addr:street": "Miko\u0142aja Kopernika",
                "addr:housenumber": "49",
                "addr:teryt:simc": 980085,
                "addr:teryt:sym_ul": 9282,
                "contact:phone": "+48 158233151",
                "contact:email": "zsp1tarnobrzeg@poczta.onet.pl",
                "contact:website": "http:\/\/www.zsp1.tarnobrzeg.pl",
                "ref:regon": "831205463",
                "ref:vatin": "PL8671818513",
                "operator": "Tarnobrzeg-Miasto Na Prawach Powiatu",
                "operator:type": "government",
                "amenity": "school",
                "note": "Parent RSPO: 11486"
            }
        },
        {
            "id": 91735,
            "type": "Feature",
            "geometry": {
                "type": "Point",
                "coordinates": [
                    21.69239,
                    50.56921
                ]
            },
            "properties": {
                "isced:level": "3",
                "ref:rspo": 91735,
                "official_name": "Liceum Og\u00f3lnokszta\u0142c\u0105ce dla Doros\u0142ych",
                "name": "Liceum Og\u00f3lnokszta\u0142c\u0105ce dla Doros\u0142ych",
                "addr:country": "PL",
                "addr:postcode": "39-400",
                "addr:city": "Tarnobrzeg",
                "addr:street": "Miko\u0142aja Kopernika",
                "addr:housenumber": "49",
                "addr:teryt:simc": 980085,
                "addr:teryt:sym_ul": 9282,
                "contact:phone": "+48 158233151",
                "contact:email": "zsp1tarnobrzeg@poczta.onet.pl",
                "contact:website": "http:\/\/www.zsp1.tarnobrzeg.pl",
                "ref:regon": "180917049",
                "operator": "Tarnobrzeg-Miasto Na Prawach Powiatu",
                "operator:type": "government",
                "amenity": "school",
                "note": "Parent RSPO: 11486"
            }
        },
        {
            "id": 113542,
            "type": "Feature",
            "geometry": {
                "type": "Point",
                "coordinates": [
                    21.69239,
                    50.569179999999996
                ]
            },
            "properties": {
                "isced:level": "4",
                "ref:rspo": 113542,
                "official_name": "Szko\u0142a Policealna",
                "name": "Szko\u0142a Policealna",
                "addr:country": "PL",
                "addr:postcode": "39-400",
                "addr:city": "Tarnobrzeg",
                "addr:street": "Miko\u0142aja Kopernika",
                "addr:housenumber": "49",
                "addr:teryt:simc": 980085,
                "addr:teryt:sym_ul": 9282,
                "contact:phone": "+48 158233151",
                "contact:email": "zsp1tarnobrzeg@poczta.onet.pl",
                "contact:website": "http:\/\/www.zsp1.tarnobrzeg.pl",
                "ref:regon": "180961961",
                "ref:vatin": "PL8671818513",
                "operator": "Tarnobrzeg-Miasto Na Prawach Powiatu",
                "operator:type": "government",
                "amenity": "college",
                "note": "Parent RSPO: 11486"
            }
        },
        {
            "id": 115615,
            "type": "Feature",
            "geometry": {
                "type": "Point",
                "coordinates": [
                    21.69239,
                    50.56915
                ]
            },
            "properties": {
                "isced:level": "3",
                "ref:rspo": 115615,
                "official_name": "Liceum Og\u00f3lnokszta\u0142c\u0105ce",
                "name": "Liceum Og\u00f3lnokszta\u0142c\u0105ce",
                "addr:country": "PL",
                "addr:postcode": "39-400",
                "addr:city": "Tarnobrzeg",
                "addr:street": "Miko\u0142aja Kopernika",
                "addr:housenumber": "49",
                "addr:teryt:simc": 980085,
                "addr:teryt:sym_ul": 9282,
                "contact:phone": "+48 158233151",
                "contact:email": "zsp1tarnobrzeg@poczta.onet.pl",
                "contact:website": "http:\/\/www.zsp1.tarnobrzeg.pl",
                "ref:regon": "180997284",
                "ref:vatin": "PL8671818513",
                "operator": "Tarnobrzeg-Miasto Na Prawach Powiatu",
                "operator:type": "government",
                "amenity": "school",
                "note": "Parent RSPO: 11486"
            }
        },
        {
            "id": 17927,
            "type": "Feature",
            "geometry": {
                "type": "Point",
                "coordinates": [
                    21.68148,
                    50.56933
                ]
            },
            "properties": {
                "ref:rspo": 17927,
                "official_name": "Centrum Kszta\u0142cenia Zawodowego w Tarnobrzegu",
                "name": "Centrum Kszta\u0142cenia Zawodowego w Tarnobrzegu",
                "addr:country": "PL",
                "addr:postcode": "39-400",
                "addr:city": "Tarnobrzeg",
                "addr:street": "Miko\u0142aja Kopernika",
                "addr:housenumber": "5",
                "addr:teryt:simc": 980085,
                "addr:teryt:sym_ul": 9282,
                "contact:phone": "+48 158221839",
                "contact:email": "ckp_tbg@poczta.onet.pl",
                "contact:website": "http:\/\/ckp.tbg.net.pl",
                "ref:regon": "180641096",
                "ref:vatin": "PL8671974377",
                "operator": "Tarnobrzeg-Miasto Na Prawach Powiatu",
                "operator:type": "government",
                "fixme": "w zale\u017cno\u015bci od przedmiotu dzia\u0142alno\u015bci (np. amenity=training + training=*, amenity=dancing_school, amenity=language_school, amenity=music_school) albo amenity=school, amenity=college, albo landuse=education w zale\u017cno\u015bci od tego, jakie plac\u00f3wki wchodz\u0105 w sk\u0142ad zespo\u0142u. Sprawd\u017a, kiedy stosowa\u0107 amenity=* a kiedy landuse=education."
            }
        },
        {
            "id": 13523,
            "type": "Feature",
            "geometry": {
                "type": "Point",
                "coordinates": [
                    21.66702,
                    50.5694
                ]
            },
            "properties": {
                "ref:rspo": 13523,
                "official_name": "Zesp\u00f3\u0142 Szk\u00f3\u0142 Spo\u0142ecznych Nr 2",
                "name": "Zesp\u00f3\u0142 Szk\u00f3\u0142 Spo\u0142ecznych Nr 2",
                "addr:country": "PL",
                "addr:postcode": "39-400",
                "addr:city": "Tarnobrzeg",
                "addr:street": "Jana Kochanowskiego",
                "addr:housenumber": "3",
                "addr:teryt:simc": 980085,
                "addr:teryt:sym_ul": 8728,
                "contact:phone": "+48 158234175",
                "contact:email": "szkolad@op.pl",
                "contact:website": "http:\/\/www.szkola.tbg.net.pl",
                "ref:regon": "180886828",
                "ref:vatin": "PL8672155279",
                "operator": "Spo\u0142eczne Towarzystwo O\u015bwiatowo-Naukowe Imienia Ma\u0142ego Ksi\u0119cia W Tarnobrzegu",
                "operator:type": "ngo",
                "landuse": "education",
                "fixme": "amenity=school, amenity=college albo landuse=education w zale\u017cno\u015bci od tego, jakie plac\u00f3wki wchodz\u0105 w sk\u0142ad zespo\u0142u. Sprawd\u017a, kiedy stosowa\u0107 amenity=* a kiedy landuse=education.",
                "note": "Children RSPO: 78067;78069"
            }
        },
        {
            "id": 78067,
            "type": "Feature",
            "geometry": {
                "type": "Point",
                "coordinates": [
                    21.66702,
                    50.56937
                ]
            },
            "properties": {
                "isced:level": "1;2",
                "ref:rspo": 78067,
                "official_name": "Spo\u0142eczna Szko\u0142a Podstawowa Z Oddzia\u0142ami Dwuj\u0119zycznymi im. Ma\u0142ego Ksi\u0119cia",
                "name": "Spo\u0142eczna Szko\u0142a Podstawowa Z Oddzia\u0142ami Dwuj\u0119zycznymi",
                "addr:country": "PL",
                "addr:postcode": "39-400",
                "addr:city": "Tarnobrzeg",
                "addr:street": "Jana Kochanowskiego",
                "addr:housenumber": "3",
                "addr:teryt:simc": 980085,
                "addr:teryt:sym_ul": 8728,
                "contact:phone": "+48 158234175",
                "contact:email": "szkolad@op.pl",
                "contact:website": "http:\/\/www.szkola.tbg.net.pl",
                "ref:regon": "180910863",
                "ref:vatin": "PL8672155279",
                "operator": "Spo\u0142eczne Towarzystwo O\u015bwiatowo-Naukowe Imienia Ma\u0142ego Ksi\u0119cia W Tarnobrzegu",
                "operator:type": "ngo",
                "amenity": "school",
                "note": "Parent RSPO: 13523"
            }
        },
        {
            "id": 18196,
            "type": "Feature",
            "geometry": {
                "type": "Point",
                "coordinates": [
                    21.6785,
                    50.56948
                ]
            },
            "properties": {
                "ref:rspo": 18196,
                "official_name": "Zesp\u00f3\u0142 Szk\u00f3\u0142 im. Ks. Stanis\u0142awa Staszica",
                "name": "Zesp\u00f3\u0142 Szk\u00f3\u0142",
                "addr:country": "PL",
                "addr:postcode": "39-400",
                "addr:city": "Tarnobrzeg",
                "addr:street": "Miko\u0142aja Kopernika",
                "addr:housenumber": "1",
                "addr:teryt:simc": 980085,
                "addr:teryt:sym_ul": 9282,
                "contact:phone": "+48 158221216",
                "contact:email": "gornik@oswiata.tarnobrzeg.pl",
                "contact:website": "http:\/\/www.gornik.tbg.net.pl",
                "ref:regon": "000041855",
                "ref:vatin": "PL8671829706",
                "operator": "Tarnobrzeg-Miasto Na Prawach Powiatu",
                "operator:type": "government",
                "landuse": "education",
                "fixme": "amenity=school, amenity=college albo landuse=education w zale\u017cno\u015bci od tego, jakie plac\u00f3wki wchodz\u0105 w sk\u0142ad zespo\u0142u. Sprawd\u017a, kiedy stosowa\u0107 amenity=* a kiedy landuse=education.",
                "note": "Children RSPO: 78075;78076;80334;81125;113543"
            }
        },
        {
            "id": 78075,
            "type": "Feature",
            "geometry": {
                "type": "Point",
                "coordinates": [
                    21.6785,
                    50.569449999999996
                ]
            },
            "properties": {
                "isced:level": "3",
                "ref:rspo": 78075,
                "official_name": "Bran\u017cowa Szko\u0142a I Stopnia",
                "name": "Bran\u017cowa Szko\u0142a I Stopnia",
                "addr:country": "PL",
                "addr:postcode": "39-400",
                "addr:city": "Tarnobrzeg",
                "addr:street": "Miko\u0142aja Kopernika",
                "addr:housenumber": "1",
                "addr:teryt:simc": 980085,
                "addr:teryt:sym_ul": 9282,
                "contact:phone": "+48 158221216",
                "contact:email": "gornik@oswiata.tarnobrzeg.pl",
                "contact:website": "http:\/\/www.gornik.tbg.net.pl",
                "ref:regon": "180642799",
                "ref:vatin": "PL8671829706",
                "operator": "Tarnobrzeg-Miasto Na Prawach Powiatu",
                "operator:type": "government",
                "amenity": "school",
                "note": "Parent RSPO: 18196"
            }
        },
        {
            "id": 78076,
            "type": "Feature",
            "geometry": {
                "type": "Point",
                "coordinates": [
                    21.6785,
                    50.56942
                ]
            },
            "properties": {
                "isced:level": "3",
                "ref:rspo": 78076,
                "official_name": "Liceum Og\u00f3lnokszta\u0142c\u0105ce",
                "name": "Liceum Og\u00f3lnokszta\u0142c\u0105ce",
                "addr:country": "PL",
                "addr:postcode": "39-400",
                "addr:city": "Tarnobrzeg",
                "addr:street": "Miko\u0142aja Kopernika",
                "addr:housenumber": "1",
                "addr:teryt:simc": 980085,
                "addr:teryt:sym_ul": 9282,
                "contact:phone": "+48 158221216",
                "contact:email": "gornik@oswiata.tarnobrzeg.pl",
                "contact:website": "http:\/\/www.gornik.tbg.net.pl",
                "ref:regon": "180642776",
                "ref:vatin": "PL8671829706",
                "operator": "Tarnobrzeg-Miasto Na Prawach Powiatu",
                "operator:type": "government",
                "amenity": "school",
                "note": "Parent RSPO: 18196"
            }
        },
        {
            "id": 80334,
            "type": "Feature",
            "geometry": {
                "type": "Point",
                "coordinates": [
                    21.6785,
                    50.56939
                ]
            },
            "properties": {
                "isced:level": "3",
                "ref:rspo": 80334,
                "official_name": "Technikum",
                "name": "Technikum",
                "addr:country": "PL",
                "addr:postcode": "39-400",
                "addr:city": "Tarnobrzeg",
                "addr:street": "Miko\u0142aja Kopernika",
                "addr:housenumber": "1",
                "addr:teryt:simc": 980085,
                "addr:teryt:sym_ul": 9282,
                "contact:phone": "+48 158221216",
                "contact:email": "gornik@oswiata.tarnobrzeg.pl",
                "contact:website": "http:\/\/www.gornik.tbg.net.pl",
                "ref:regon": "180642820",
                "ref:vatin": "PL8671829706",
                "operator": "Tarnobrzeg-Miasto Na Prawach Powiatu",
                "operator:type": "government",
                "amenity": "school",
                "note": "Parent RSPO: 18196"
            }
        },
        {
            "id": 81125,
            "type": "Feature",
            "geometry": {
                "type": "Point",
                "coordinates": [
                    21.6785,
                    50.569359999999996
                ]
            },
            "properties": {
                "isced:level": "3",
                "ref:rspo": 81125,
                "official_name": "Liceum Og\u00f3lnokszta\u0142c\u0105ce dla Doros\u0142ych",
                "name": "Liceum Og\u00f3lnokszta\u0142c\u0105ce dla Doros\u0142ych",
                "addr:country": "PL",
                "addr:postcode": "39-400",
                "addr:city": "Tarnobrzeg",
                "addr:street": "Miko\u0142aja Kopernika",
                "addr:housenumber": "1",
                "addr:teryt:simc": 980085,
                "addr:teryt:sym_ul": 9282,
                "contact:phone": "+48 158221216",
                "contact:email": "zstarnob@poczta.neostrada.pl",
                "contact:website": "http:\/\/www.gornik.tbg.net.pl",
                "ref:regon": "180909469",
                "ref:vatin": "PL8671829706",
                "operator": "Tarnobrzeg-Miasto Na Prawach Powiatu",
                "operator:type": "government",
                "amenity": "school",
                "note": "Parent RSPO: 18196"
            }
        },
        {
            "id": 113543,
            "type": "Feature",
            "geometry": {
                "type": "Point",
                "coordinates": [
                    21.6785,
                    50.56933
                ]
            },
            "properties": {
                "isced:level": "4",
                "ref:rspo": 113543,
                "official_name": "Szko\u0142a Policealna",
                "name": "Szko\u0142a Policealna",
                "addr:country": "PL",
                "addr:postcode": "39-400",
                "addr:city": "Tarnobrzeg",
                "addr:street": "Miko\u0142aja Kopernika",
                "addr:housenumber": "1",
                "addr:teryt:simc": 980085,
                "addr:teryt:sym_ul": 9282,
                "contact:phone": "+48 158221216",
                "contact:email": "zstarnob@poczta.neostrada.pl",
                "contact:website": "http:\/\/www.gornik.tbg.net.pl",
                "ref:regon": "180961990",
                "ref:vatin": "PL8671829706",
                "operator": "Tarnobrzeg-Miasto Na Prawach Powiatu",
                "operator:type": "government",
                "amenity": "college",
                "note": "Parent RSPO: 18196"
            }
        },
        {
            "id": 17915,
            "type": "Feature",
            "geometry": {
                "type": "Point",
                "coordinates": [
                    21.66618,
                    50.56956
                ]
            },
            "properties": {
                "ref:rspo": 17915,
                "official_name": "Przedszkole Nr 2 w Tarnobrzegu",
                "name": "Przedszkole Nr 2 w Tarnobrzegu",
                "addr:country": "PL",
                "addr:postcode": "39-400",
                "addr:city": "Tarnobrzeg",
                "addr:street": "Jana Kochanowskiego",
                "addr:housenumber": "7",
                "addr:teryt:simc": 980085,
                "addr:teryt:sym_ul": 8728,
                "contact:phone": "+48 158223718",
                "contact:email": "p2@oswiata.tarnobrzeg.pl",
                "contact:website": "http:\/\/www.przedszkole2tbg.pl",
                "ref:regon": "180640116",
                "ref:vatin": "PL8671609991",
                "operator": "Tarnobrzeg-Miasto Na Prawach Powiatu",
                "operator:type": "government",
                "amenity": "kindergarten"
            }
        },
        {
            "id": 268968,
            "type": "Feature",
            "geometry": {
                "type": "Point",
                "coordinates": [
                    21.66673,
                    50.56965
                ]
            },
            "properties": {
                "ref:rspo": 268968,
                "official_name": "Bursa Szkolna",
                "name": "Bursa Szkolna",
                "addr:country": "PL",
                "addr:postcode": "39-400",
                "addr:city": "Tarnobrzeg",
                "addr:street": "Jana Kochanowskiego",
                "addr:housenumber": "5",
                "addr:teryt:simc": 980085,
                "addr:teryt:sym_ul": 8728,
                "contact:phone": "+48 167334136",
                "contact:email": "wssg@vp.pl",
                "contact:website": "http:\/\/www.wssgprzeworsk.edu.pl\/",
                "ref:regon": "381316200",
                "operator": "Wy\u017csza Szko\u0142a Spo\u0142eczno-Gospodarcza Z Siedzib\u0105 W Przeworsku",
                "operator:type": "private",
                "building": "dormitory"
            }
        },
        {
            "id": 122568,
            "type": "Feature",
            "geometry": {
                "type": "Point",
                "coordinates": [
                    21.67012,
                    50.56996
                ]
            },
            "properties": {
                "ref:rspo": 122568,
                "official_name": "Tarbonus Niepubliczna Plac\u00f3wka Kszta\u0142cenia Ustawicznego",
                "name": "Tarbonus Niepubliczna Plac\u00f3wka Kszta\u0142cenia Ustawicznego",
                "addr:country": "PL",
                "addr:postcode": "39-400",
                "addr:city": "Tarnobrzeg",
                "addr:street": "Stanis\u0142awa Moniuszki",
                "addr:housenumber": "1",
                "addr:teryt:simc": 980085,
                "addr:teryt:sym_ul": 13246,
                "contact:phone": "+48 158236920",
                "contact:email": "szkolenia.tarnobrzeg@tarbonus.pl",
                "contact:website": "http:\/\/www.tarbonus.pl\/",
                "ref:regon": "181089123",
                "operator": "\"Tarbonus\" Sp\u00f3\u0142ka Z Ograniczon\u0105 Odpowiedzialno\u015bci\u0105",
                "operator:type": "private",
                "fixme": "w zale\u017cno\u015bci od przedmiotu dzia\u0142alno\u015bci (np. amenity=training + training=*, amenity=dancing_school, amenity=language_school, amenity=music_school)"
            }
        },
        {
            "id": 120542,
            "type": "Feature",
            "geometry": {
                "type": "Point",
                "coordinates": [
                    21.7027,
                    50.57015
                ]
            },
            "properties": {
                "isced:level": "3",
                "ref:rspo": 120542,
                "official_name": "Liceum Og\u00f3lnokszta\u0142c\u0105ce Mistrzostwa Sportowego Siarka w Tarnobrzegu",
                "name": "Liceum Og\u00f3lnokszta\u0142c\u0105ce Mistrzostwa Sportowego Siarka w Tarnobrzegu",
                "addr:country": "PL",
                "addr:postcode": "39-400",
                "addr:city": "Tarnobrzeg",
                "addr:street": "Henryka Sienkiewicza",
                "addr:housenumber": "159A",
                "addr:teryt:simc": 980085,
                "addr:teryt:sym_ul": 19834,
                "contact:phone": "+48 158143823",
                "contact:email": "sekretariat.sms@wp.pl",
                "contact:website": "http:\/\/www.sms.siarka-tarnobrzeg.pl",
                "ref:regon": "181031359",
                "operator": "Klub Sportowy \"Siarka\"",
                "operator:type": "ngo",
                "amenity": "school"
            }
        },
        {
            "id": 125207,
            "type": "Feature",
            "geometry": {
                "type": "Point",
                "coordinates": [
                    21.7156999,
                    50.57015
                ]
            },
            "properties": {
                "ref:rspo": 125207,
                "official_name": "Niepubliczne Przedszkole \"Bajkowa Chatka\"",
                "name": "Niepubliczne Przedszkole \"Bajkowa Chatka\"",
                "addr:country": "PL",
                "addr:postcode": "39-400",
                "addr:city": "Tarnobrzeg",
                "addr:street": "Zakrzowska",
                "addr:housenumber": "12A",
                "addr:teryt:simc": 980085,
                "addr:teryt:sym_ul": 25478,
                "contact:phone": "+48 691397577",
                "contact:email": "jajmar@go2.pl",
                "contact:website": "http:\/\/www.bajkowa-chatka.pl",
                "ref:regon": "180932497",
                "ref:vatin": "PL8132825405",
                "operator": "Simonetta Chraba\u0144ska-Jajko",
                "operator:type": "private",
                "amenity": "kindergarten"
            }
        },
        {
            "id": 121270,
            "type": "Feature",
            "geometry": {
                "type": "Point",
                "coordinates": [
                    21.66488,
                    50.57042
                ]
            },
            "properties": {
                "ref:rspo": 121270,
                "official_name": "Niepubliczna Plac\u00f3wka Doskonalenia Nauczycieli Cogito",
                "name": "Niepubliczna Plac\u00f3wka Doskonalenia Nauczycieli Cogito",
                "addr:country": "PL",
                "addr:postcode": "39-400",
                "addr:city": "Tarnobrzeg",
                "addr:street": "1 Maja",
                "addr:housenumber": "6",
                "addr:teryt:simc": 980085,
                "addr:teryt:sym_ul": 11926,
                "contact:email": "biuro@npdncogito.pl",
                "ref:regon": "181058016",
                "ref:vatin": "PL6751381017",
                "operator": "Anna Suszczy\u0144ska",
                "operator:type": "private",
                "amenity": "training"
            }
        },
        {
            "id": 124753,
            "type": "Feature",
            "geometry": {
                "type": "Point",
                "coordinates": [
                    21.6685899,
                    50.57059
                ]
            },
            "properties": {
                "isced:level": "3",
                "ref:rspo": 124753,
                "official_name": "Niepubliczne Liceum Og\u00f3lnokszta\u0142c\u0105ce w Tarnobrzegu",
                "name": "Niepubliczne Liceum Og\u00f3lnokszta\u0142c\u0105ce w Tarnobrzegu",
                "addr:country": "PL",
                "addr:postcode": "39-400",
                "addr:city": "Tarnobrzeg",
                "addr:street": "Stanis\u0142awa Moniuszki",
                "addr:housenumber": "6",
                "addr:teryt:simc": 980085,
                "addr:teryt:sym_ul": 13246,
                "contact:phone": "+48 158142480",
                "contact:email": "tarnobrzeg@medyk.net.pl",
                "contact:website": "http:\/\/www.medyk.net.pl",
                "ref:regon": "181150762",
                "operator": "Medyk Szko\u0142a Sp\u00f3\u0142ka Z Ograniczon\u0105 Odpowiedzialno\u015bci\u0105",
                "operator:type": "private",
                "amenity": "school"
            }
        },
        {
            "id": 124762,
            "type": "Feature",
            "geometry": {
                "type": "Point",
                "coordinates": [
                    21.6685899,
                    50.57056
                ]
            },
            "properties": {
                "isced:level": "4",
                "ref:rspo": 124762,
                "official_name": "Policealna Szko\u0142a w Tarnobrzegu",
                "name": "Policealna Szko\u0142a w Tarnobrzegu",
                "addr:country": "PL",
                "addr:postcode": "39-400",
                "addr:city": "Tarnobrzeg",
                "addr:street": "Stanis\u0142awa Moniuszki",
                "addr:housenumber": "6",
                "addr:teryt:simc": 980085,
                "addr:teryt:sym_ul": 13246,
                "contact:phone": "+48 158142480",
                "contact:email": "tarnobrzeg@medyk.net.pl",
                "contact:website": "http:\/\/www.medyk.net.pl",
                "ref:regon": "181150785",
                "operator": "Medyk Szko\u0142a Sp\u00f3\u0142ka Z Ograniczon\u0105 Odpowiedzialno\u015bci\u0105",
                "operator:type": "private",
                "amenity": "college"
            }
        },
        {
            "id": 106683,
            "type": "Feature",
            "geometry": {
                "type": "Point",
                "coordinates": [
                    21.69824,
                    50.57166
                ]
            },
            "properties": {
                "ref:rspo": 106683,
                "official_name": "Niepubliczny O\u015brodek Dokszta\u0142cania I Doskonalenia Zawodowego w Tarnobrzegu",
                "name": "Niepubliczny O\u015brodek Dokszta\u0142cania I Doskonalenia Zawodowego w Tarnobrzegu",
                "addr:country": "PL",
                "addr:postcode": "39-400",
                "addr:city": "Tarnobrzeg",
                "addr:street": "Henryka Sienkiewicza",
                "addr:housenumber": "145",
                "addr:teryt:simc": 980085,
                "addr:teryt:sym_ul": 19834,
                "contact:phone": "+48 158231922",
                "contact:email": "biuro@szkola-zarzadzania.eu",
                "ref:regon": "180933114",
                "ref:vatin": "PL8671001404",
                "operator": "Szko\u0142a Zarz\u0105dzania Sp\u00f3\u0142ka Z Ograniczon\u0105 Odpowiedzialno\u015bci\u0105",
                "operator:type": "private"
            }
        },
        {
            "id": 17924,
            "type": "Feature",
            "geometry": {
                "type": "Point",
                "coordinates": [
                    21.66789,
                    50.57197
                ]
            },
            "properties": {
                "ref:rspo": 17924,
                "official_name": "Przedszkole Nr 13 w Tarnobrzegu",
                "name": "Przedszkole Nr 13 w Tarnobrzegu",
                "addr:country": "PL",
                "addr:postcode": "39-400",
                "addr:city": "Tarnobrzeg",
                "addr:street": "Sokola",
                "addr:housenumber": "8",
                "addr:teryt:simc": 980085,
                "addr:teryt:sym_ul": 20478,
                "contact:phone": "+48 158232811",
                "contact:email": "przedszkole13tbg@wp.pl",
                "contact:website": "http:\/\/www.przedszkole13.tarnobrzeg.pl",
                "ref:regon": "180642061",
                "ref:vatin": "PL8671611031",
                "operator": "Tarnobrzeg-Miasto Na Prawach Powiatu",
                "operator:type": "government",
                "amenity": "kindergarten"
            }
        },
        {
            "id": 17921,
            "type": "Feature",
            "geometry": {
                "type": "Point",
                "coordinates": [
                    21.67224,
                    50.5721
                ]
            },
            "properties": {
                "ref:rspo": 17921,
                "official_name": "Przedszkole Nr 3",
                "name": "Przedszkole Nr 3",
                "addr:country": "PL",
                "addr:postcode": "39-400",
                "addr:city": "Tarnobrzeg",
                "addr:street": "Hieronima Dekutowskiego",
                "addr:housenumber": "2",
                "addr:teryt:simc": 980085,
                "addr:teryt:sym_ul": 3732,
                "contact:phone": "+48 158222528",
                "contact:email": "p3@oswiata.tarnobrzeg.pl",
                "contact:website": "http:\/\/tarnobrzeg.przyjdz.com",
                "ref:regon": "180642380",
                "ref:vatin": "PL8671615371",
                "operator": "Tarnobrzeg-Miasto Na Prawach Powiatu",
                "operator:type": "government",
                "amenity": "kindergarten"
            }
        },
        {
            "id": 14112,
            "type": "Feature",
            "geometry": {
                "type": "Point",
                "coordinates": [
                    21.66665,
                    50.57221
                ]
            },
            "properties": {
                "ref:rspo": 14112,
                "official_name": "O\u015brodek Szkolenia I Doskonalenia Kadr Przedsi\u0119biorstwa \"Karabela\"",
                "name": "O\u015brodek Szkolenia I Doskonalenia Kadr Przedsi\u0119biorstwa \"Karabela\"",
                "addr:country": "PL",
                "addr:postcode": "39-400",
                "addr:city": "Tarnobrzeg",
                "addr:street": "Sokola",
                "addr:housenumber": "14",
                "addr:teryt:simc": 980085,
                "addr:teryt:sym_ul": 20478,
                "contact:phone": "+48 158222822",
                "contact:email": "biuro@karabela.com.pl",
                "contact:website": "http:\/\/www.karabela.com.pl",
                "ref:regon": "180887584",
                "ref:vatin": "PL8670010269",
                "operator": "Przedsi\u0119biorstwo Wielobran\u017cowe \"Karabela\" Sp\u00f3\u0142ka Z Ograniczon\u0105 Odpowiedzialno\u015bci\u0105",
                "operator:type": "private"
            }
        },
        {
            "id": 17918,
            "type": "Feature",
            "geometry": {
                "type": "Point",
                "coordinates": [
                    21.67716,
                    50.57235
                ]
            },
            "properties": {
                "ref:rspo": 17918,
                "official_name": "Przedszkole Nr 5 w Tarnobrzegu",
                "name": "Przedszkole Nr 5 w Tarnobrzegu",
                "addr:country": "PL",
                "addr:postcode": "39-400",
                "addr:city": "Tarnobrzeg",
                "addr:street": "Hieronima Dekutowskiego",
                "addr:housenumber": "19",
                "addr:teryt:simc": 980085,
                "addr:teryt:sym_ul": 3732,
                "contact:phone": "+48 158224071",
                "contact:email": "przedszkole5tarnobrzeg@gmail.com",
                "contact:website": "http:\/\/www.przedszkole5tarnobrzeg.pl",
                "ref:regon": "180642405",
                "ref:vatin": "PL8671621325",
                "operator": "Tarnobrzeg-Miasto Na Prawach Powiatu",
                "operator:type": "government",
                "amenity": "kindergarten"
            }
        },
        {
            "id": 17928,
            "type": "Feature",
            "geometry": {
                "type": "Point",
                "coordinates": [
                    21.66976,
                    50.57237
                ]
            },
            "properties": {
                "ref:rspo": 17928,
                "official_name": "Poradnia Psychologiczno-Pedagogiczna w Tarnobrzegu",
                "name": "Poradnia Psychologiczno-Pedagogiczna w Tarnobrzegu",
                "addr:country": "PL",
                "addr:postcode": "39-400",
                "addr:city": "Tarnobrzeg",
                "addr:street": "Tadeusza Ko\u015bciuszki",
                "addr:housenumber": "30",
                "addr:teryt:simc": 980085,
                "addr:teryt:sym_ul": 9582,
                "contact:phone": "+48 158479410",
                "contact:email": "poradniatbg@poczta.onet.pl",
                "contact:website": "http:\/\/www.poradnia.tarnobrzeg.pl",
                "ref:regon": "180641073",
                "ref:vatin": "PL8672185079",
                "operator": "Tarnobrzeg-Miasto Na Prawach Powiatu",
                "operator:type": "government",
                "healthcare": "counselling",
                "counselling_type": "education",
                "fixme": "w zale\u017cno\u015bci od przedmiotu dzia\u0142alno\u015bci (np. healthcare=counselling + counselling_type=education albo healthcare=psychotherapist)"
            }
        },
        {
            "id": 127009,
            "type": "Feature",
            "geometry": {
                "type": "Point",
                "coordinates": [
                    21.67992,
                    50.57261
                ]
            },
            "properties": {
                "ref:rspo": 127009,
                "official_name": "Niepubliczne Przedszkole Artystyczno-J\u0119zykowe \"Bajka\" w Tarnobrzegu",
                "name": "Niepubliczne Przedszkole Artystyczno-J\u0119zykowe \"Bajka\" w Tarnobrzegu",
                "addr:country": "PL",
                "addr:postcode": "39-400",
                "addr:city": "Tarnobrzeg",
                "addr:street": "Henryka Sienkiewicza",
                "addr:housenumber": "24",
                "addr:teryt:simc": 980085,
                "addr:teryt:sym_ul": 19834,
                "contact:phone": "+48 600591657",
                "contact:email": "rekrutacja@nova.szkola.pl",
                "contact:website": "http:\/\/nova.szkola.pl\/",
                "ref:regon": "361015559",
                "operator": "Stowarzyszenie Nova Edukacja",
                "operator:type": "ngo",
                "amenity": "kindergarten"
            }
        },
        {
            "id": 17932,
            "type": "Feature",
            "geometry": {
                "type": "Point",
                "coordinates": [
                    21.66861,
                    50.57268
                ]
            },
            "properties": {
                "isced:level": "3",
                "ref:rspo": 17932,
                "official_name": "Liceum Og\u00f3lnokszta\u0142c\u0105ce im. Miko\u0142aja Kopernika",
                "name": "Liceum Og\u00f3lnokszta\u0142c\u0105ce",
                "addr:country": "PL",
                "addr:postcode": "39-400",
                "addr:city": "Tarnobrzeg",
                "addr:street": "Stanis\u0142awa Jachowicza",
                "addr:housenumber": "13",
                "addr:teryt:simc": 980085,
                "addr:teryt:sym_ul": 6990,
                "contact:phone": "+48 158221604",
                "contact:email": "lo@oswiata.tarnobrzeg.pl",
                "ref:regon": "180643037",
                "ref:vatin": "PL8671023156",
                "operator": "Tarnobrzeg-Miasto Na Prawach Powiatu",
                "operator:type": "government",
                "amenity": "school"
            }
        },
        {
            "id": 277371,
            "type": "Feature",
            "geometry": {
                "type": "Point",
                "coordinates": [
                    21.68219,
                    50.57287
                ]
            },
            "properties": {
                "ref:rspo": 277371,
                "official_name": "Centrum Edukacyjne -Efekt",
                "name": "Centrum Edukacyjne -Efekt",
                "addr:country": "PL",
                "addr:postcode": "39-400",
                "addr:city": "Tarnobrzeg",
                "addr:street": "Henryka Sienkiewicza",
                "addr:housenumber": "61",
                "addr:door": "40",
                "addr:teryt:simc": 980085,
                "addr:teryt:sym_ul": 19834,
                "contact:phone": "+48 512389895",
                "contact:email": "sekretariat@cee.info.pl",
                "contact:website": "http:\/\/www.cee.info.pl",
                "ref:regon": "388713400",
                "operator": "Piotr Wa\u0142cerz",
                "operator:type": "private",
                "fixme": "w zale\u017cno\u015bci od przedmiotu dzia\u0142alno\u015bci (np. amenity=training + training=*, amenity=dancing_school, amenity=language_school, amenity=music_school)"
            }
        },
        {
            "id": 13526,
            "type": "Feature",
            "geometry": {
                "type": "Point",
                "coordinates": [
                    21.6805999,
                    50.57314
                ]
            },
            "properties": {
                "isced:level": "4",
                "ref:rspo": 13526,
                "official_name": "Niepubliczna Szko\u0142a Policealna \"Nova' Nr 2 w Tarnobrzegu",
                "name": "Niepubliczna Szko\u0142a Policealna \"Nova' Nr 2 w Tarnobrzegu",
                "addr:country": "PL",
                "addr:postcode": "39-400",
                "addr:city": "Tarnobrzeg",
                "addr:street": "Henryka Sienkiewicza",
                "addr:housenumber": "55A",
                "addr:teryt:simc": 980085,
                "addr:teryt:sym_ul": 19834,
                "contact:phone": "+48 793684733",
                "contact:email": "rekrutacja@nova.szkola.pl",
                "contact:website": "http:\/\/www.nova.szkola.pl",
                "ref:regon": "180886870",
                "ref:vatin": "PL8672236983",
                "operator": "Stowarzyszenie Nova Edukacja",
                "operator:type": "ngo",
                "amenity": "college"
            }
        },
        {
            "id": 13527,
            "type": "Feature",
            "geometry": {
                "type": "Point",
                "coordinates": [
                    21.6805999,
                    50.57311
                ]
            },
            "properties": {
                "isced:level": "4",
                "ref:rspo": 13527,
                "official_name": "Niepubliczna Szko\u0142a Policealna \"Nova\" Nr 1 w Tarnobrzegu",
                "name": "Niepubliczna Szko\u0142a Policealna \"Nova\" Nr 1 w Tarnobrzegu",
                "addr:country": "PL",
                "addr:postcode": "39-400",
                "addr:city": "Tarnobrzeg",
                "addr:street": "Henryka Sienkiewicza",
                "addr:housenumber": "55A",
                "addr:teryt:simc": 980085,
                "addr:teryt:sym_ul": 19834,
                "contact:phone": "+48 793684733",
                "contact:email": "rekrutacja@nova.szkola.pl",
                "contact:website": "http:\/\/www.nova.szkola.pl",
                "ref:regon": "180886886",
                "ref:vatin": "PL8672236983",
                "operator": "Stowarzyszenie Nova Edukacja",
                "operator:type": "ngo",
                "amenity": "college"
            }
        },
        {
            "id": 115065,
            "type": "Feature",
            "geometry": {
                "type": "Point",
                "coordinates": [
                    21.6805999,
                    50.573080000000004
                ]
            },
            "properties": {
                "isced:level": "3",
                "ref:rspo": 115065,
                "official_name": "Niepubliczne Liceum Og\u00f3lnokszta\u0142c\u0105ce dla Doros\u0142ych Nr 2 w Tarnobrzegu",
                "name": "Niepubliczne Liceum Og\u00f3lnokszta\u0142c\u0105ce dla Doros\u0142ych Nr 2 w Tarnobrzegu",
                "addr:country": "PL",
                "addr:postcode": "39-400",
                "addr:city": "Tarnobrzeg",
                "addr:street": "Henryka Sienkiewicza",
                "addr:housenumber": "55A",
                "addr:teryt:simc": 980085,
                "addr:teryt:sym_ul": 19834,
                "contact:phone": "+48 793684733",
                "contact:email": "rekrutacja@nova.szkola.pl",
                "contact:website": "http:\/\/www.nova.szkola.pl",
                "ref:regon": "180988026",
                "ref:vatin": "PL8672236983",
                "operator": "Stowarzyszenie Nova Edukacja",
                "operator:type": "ngo",
                "amenity": "school"
            }
        },
        {
            "id": 128763,
            "type": "Feature",
            "geometry": {
                "type": "Point",
                "coordinates": [
                    21.6805999,
                    50.57305
                ]
            },
            "properties": {
                "ref:rspo": 128763,
                "official_name": "Niepubliczna Plac\u00f3wka O\u015bwiatowo- Wychowawcza \"\u0179r\u00f3d\u0142o Pasji\"",
                "name": "Niepubliczna Plac\u00f3wka O\u015bwiatowo- Wychowawcza \"\u0179r\u00f3d\u0142o Pasji\"",
                "addr:country": "PL",
                "addr:postcode": "39-400",
                "addr:city": "Tarnobrzeg",
                "addr:street": "Henryka Sienkiewicza",
                "addr:housenumber": "55A",
                "addr:teryt:simc": 980085,
                "addr:teryt:sym_ul": 19834,
                "contact:phone": "+48 158225882",
                "contact:email": "biuro@biuroefekt.pl",
                "ref:regon": "362382082",
                "operator": "Dorota Chwa\u0142ka",
                "operator:type": "private",
                "fixme": "w zale\u017cno\u015bci od przedmiotu dzia\u0142alno\u015bci (np. amenity=training + training=*, amenity=dancing_school, amenity=language_school, amenity=music_school)"
            }
        },
        {
            "id": 3477,
            "type": "Feature",
            "geometry": {
                "type": "Point",
                "coordinates": [
                    21.66834,
                    50.5731899
                ]
            },
            "properties": {
                "isced:level": "3",
                "ref:rspo": 3477,
                "official_name": "Katolickie Liceum Og\u00f3lnokszta\u0142c\u0105ce im. \u015aw. Jana Paw\u0142a Ii",
                "name": "Katolickie Liceum Og\u00f3lnokszta\u0142c\u0105ce",
                "addr:country": "PL",
                "addr:postcode": "39-400",
                "addr:city": "Tarnobrzeg",
                "addr:street": "Stanis\u0142awa Jachowicza",
                "addr:housenumber": "4b",
                "addr:teryt:simc": 980085,
                "addr:teryt:sym_ul": 6990,
                "contact:phone": "+48 158237554",
                "contact:email": "sekretariat.katoliktbg@gmail.com",
                "contact:website": "http:\/\/www.katolik.tarnobrzeg.pl",
                "ref:regon": "180876758",
                "operator": "Parafia Matki Bo\u017cej Nieustaj\u0105cej Pomocy",
                "operator:type": "religious",
                "amenity": "school"
            }
        },
        {
            "id": 18197,
            "type": "Feature",
            "geometry": {
                "type": "Point",
                "coordinates": [
                    21.66834,
                    50.5731599
                ]
            },
            "properties": {
                "ref:rspo": 18197,
                "official_name": "Zesp\u00f3\u0142 Szk\u00f3\u0142 Nr 2 w Tarnobrzegu",
                "name": "Zesp\u00f3\u0142 Szk\u00f3\u0142 Nr 2 w Tarnobrzegu",
                "addr:country": "PL",
                "addr:postcode": "39-400",
                "addr:city": "Tarnobrzeg",
                "addr:street": "Stanis\u0142awa Jachowicza",
                "addr:housenumber": "4",
                "addr:teryt:simc": 980085,
                "addr:teryt:sym_ul": 6990,
                "contact:phone": "+48 158225557",
                "contact:email": "zsrtbg@poczta.wp.pl",
                "contact:website": "http:\/\/rolnik.tbg.net.pl",
                "ref:regon": "180642990",
                "ref:vatin": "PL8671822377",
                "operator": "Tarnobrzeg-Miasto Na Prawach Powiatu",
                "operator:type": "government",
                "landuse": "education",
                "fixme": "amenity=school, amenity=college albo landuse=education w zale\u017cno\u015bci od tego, jakie plac\u00f3wki wchodz\u0105 w sk\u0142ad zespo\u0142u. Sprawd\u017a, kiedy stosowa\u0107 amenity=* a kiedy landuse=education.",
                "note": "Children RSPO: 78071;113545"
            }
        },
        {
            "id": 91623,
            "type": "Feature",
            "geometry": {
                "type": "Point",
                "coordinates": [
                    21.66834,
                    50.573129900000005
                ]
            },
            "properties": {
                "isced:level": "1;2",
                "ref:rspo": 91623,
                "official_name": "Publiczna Katolicka Szko\u0142a Podstawowa",
                "name": "Publiczna Katolicka Szko\u0142a Podstawowa",
                "addr:country": "PL",
                "addr:postcode": "39-400",
                "addr:city": "Tarnobrzeg",
                "addr:street": "Stanis\u0142awa Jachowicza",
                "addr:housenumber": "4a",
                "addr:teryt:simc": 980085,
                "addr:teryt:sym_ul": 6990,
                "contact:phone": "+48 158237554",
                "contact:email": "sekretariat.katoliktbg@gmail.com",
                "contact:website": "http:\/\/katoliksp.tbg.net.pl",
                "ref:regon": "180917552",
                "ref:vatin": "PL8672168974",
                "operator": "Parafia Matki Bo\u017cej Nieustaj\u0105cej Pomocy",
                "operator:type": "religious",
                "amenity": "school"
            }
        },
        {
            "id": 78071,
            "type": "Feature",
            "geometry": {
                "type": "Point",
                "coordinates": [
                    21.66834,
                    50.5730999
                ]
            },
            "properties": {
                "isced:level": "3",
                "ref:rspo": 78071,
                "official_name": "Technikum",
                "name": "Technikum",
                "addr:country": "PL",
                "addr:postcode": "39-400",
                "addr:city": "Tarnobrzeg",
                "addr:street": "Stanis\u0142awa Jachowicza",
                "addr:housenumber": "4",
                "addr:teryt:simc": 980085,
                "addr:teryt:sym_ul": 6990,
                "contact:phone": "+48 158225557",
                "contact:email": "zsrtbg@wp.pl",
                "contact:website": "http:\/\/rolnik.tbg.net.pl",
                "ref:regon": "180642977",
                "ref:vatin": "PL8671822377",
                "operator": "Tarnobrzeg-Miasto Na Prawach Powiatu",
                "operator:type": "government",
                "amenity": "school",
                "note": "Parent RSPO: 18197"
            }
        },
        {
            "id": 113545,
            "type": "Feature",
            "geometry": {
                "type": "Point",
                "coordinates": [
                    21.66834,
                    50.5730699
                ]
            },
            "properties": {
                "isced:level": "4",
                "ref:rspo": 113545,
                "official_name": "Szko\u0142a Policealna",
                "name": "Szko\u0142a Policealna",
                "addr:country": "PL",
                "addr:postcode": "39-400",
                "addr:city": "Tarnobrzeg",
                "addr:street": "Stanis\u0142awa Jachowicza",
                "addr:housenumber": "4",
                "addr:teryt:simc": 980085,
                "addr:teryt:sym_ul": 6990,
                "contact:phone": "+48 158225557",
                "contact:email": "zsrtbg@wp.pl",
                "contact:website": "http:\/\/rolnik.tbg.net.pl",
                "ref:regon": "180962067",
                "ref:vatin": "PL8671822377",
                "operator": "Tarnobrzeg-Miasto Na Prawach Powiatu",
                "operator:type": "government",
                "amenity": "college",
                "note": "Parent RSPO: 18197"
            }
        },
        {
            "id": 69927,
            "type": "Feature",
            "geometry": {
                "type": "Point",
                "coordinates": [
                    21.6749699,
                    50.57369
                ]
            },
            "properties": {
                "ref:rspo": 69927,
                "official_name": "Pa\u0144stwowa Szko\u0142a Muzyczna I St. w Tarnobrzegu",
                "name": "Pa\u0144stwowa Szko\u0142a Muzyczna I St. w Tarnobrzegu",
                "addr:country": "PL",
                "addr:postcode": "39-400",
                "addr:city": "Tarnobrzeg",
                "addr:street": "kard. Stefana Wyszy\u0144skiego",
                "addr:housenumber": "1",
                "addr:teryt:simc": 980085,
                "addr:teryt:sym_ul": 25107,
                "contact:phone": "+48 158223561",
                "contact:email": "psm.tg@wp.pl",
                "contact:website": "https:\/\/tarnobrzeg.muzyczna.com.pl",
                "ref:regon": "000707886",
                "operator": "Ministerstwo Kultury I Dziedzictwa Narodowego",
                "operator:type": "public",
                "amenity": "music_school"
            }
        },
        {
            "id": 17911,
            "type": "Feature",
            "geometry": {
                "type": "Point",
                "coordinates": [
                    21.68695,
                    50.57408
                ]
            },
            "properties": {
                "isced:level": "1;2",
                "ref:rspo": 17911,
                "official_name": "Szko\u0142a Podstawowa Nr 10 im. Janusza Korczaka",
                "name": "Szko\u0142a Podstawowa Nr 10",
                "addr:country": "PL",
                "addr:postcode": "39-400",
                "addr:city": "Tarnobrzeg",
                "addr:street": "Marii D\u0105browskiej",
                "addr:housenumber": "10",
                "addr:teryt:simc": 980085,
                "addr:teryt:sym_ul": 3691,
                "contact:phone": "+48 158225889",
                "contact:email": "sp10tbg@gmail.com",
                "contact:website": "http:\/\/www.sp10tbg.pl",
                "ref:regon": "180640458",
                "ref:vatin": "PL8671615388",
                "operator": "Tarnobrzeg-Miasto Na Prawach Powiatu",
                "operator:type": "government",
                "amenity": "school"
            }
        },
        {
            "id": 17917,
            "type": "Feature",
            "geometry": {
                "type": "Point",
                "coordinates": [
                    21.68695,
                    50.57405
                ]
            },
            "properties": {
                "ref:rspo": 17917,
                "official_name": "Przedszkole Nr 12 w Tarnobrzegu",
                "name": "Przedszkole Nr 12 w Tarnobrzegu",
                "addr:country": "PL",
                "addr:postcode": "39-400",
                "addr:city": "Tarnobrzeg",
                "addr:street": "Marii D\u0105browskiej",
                "addr:housenumber": "10",
                "addr:teryt:simc": 980085,
                "addr:teryt:sym_ul": 3691,
                "contact:phone": "+48 158226248",
                "contact:email": "przedszkole12@onet.eu",
                "contact:website": "http:\/\/www.przedszkole12.tarnobrzeg.pl",
                "ref:regon": "180642397",
                "ref:vatin": "PL8671615365",
                "operator": "Tarnobrzeg-Miasto Na Prawach Powiatu",
                "operator:type": "government",
                "amenity": "kindergarten"
            }
        },
        {
            "id": 17919,
            "type": "Feature",
            "geometry": {
                "type": "Point",
                "coordinates": [
                    21.68226,
                    50.57442
                ]
            },
            "properties": {
                "ref:rspo": 17919,
                "official_name": "Przedszkole Nr 17 w Tarnobrzegu",
                "name": "Przedszkole Nr 17 w Tarnobrzegu",
                "addr:country": "PL",
                "addr:postcode": "39-400",
                "addr:city": "Tarnobrzeg",
                "addr:street": "Elizy Orzeszkowej",
                "addr:housenumber": "7",
                "addr:teryt:simc": 980085,
                "addr:teryt:sym_ul": 15211,
                "contact:phone": "+48 158226828",
                "contact:email": "annrew72@gmail.com",
                "contact:website": "http:\/\/www.przedszkole17tarnobrzeg.pl",
                "ref:regon": "180640375",
                "ref:vatin": "PL8671611775",
                "operator": "Tarnobrzeg-Miasto Na Prawach Powiatu",
                "operator:type": "government",
                "amenity": "kindergarten"
            }
        },
        {
            "id": 91712,
            "type": "Feature",
            "geometry": {
                "type": "Point",
                "coordinates": [
                    21.6733699,
                    50.57454
                ]
            },
            "properties": {
                "ref:rspo": 91712,
                "official_name": "Zak\u0142ad Doskonalenia Zawodowego w Rzeszowie O\u015brodek Kszta\u0142cenia Zawodowego w Tarnobrzegu",
                "name": "Zak\u0142ad Doskonalenia Zawodowego w Rzeszowie O\u015brodek Kszta\u0142cenia Zawodowego w Tarnobrzegu",
                "addr:country": "PL",
                "addr:postcode": "39-400",
                "addr:city": "Tarnobrzeg",
                "addr:street": "pl. Bartosza G\u0142owackiego",
                "addr:housenumber": "2",
                "addr:teryt:simc": 980085,
                "addr:teryt:sym_ul": 5626,
                "contact:phone": "+48 510998017",
                "contact:email": "tarnobrzeg@zdz.rzeszow.pl",
                "contact:website": "http:\/\/www.zdz.rzeszow.pl",
                "ref:regon": "180916972",
                "ref:vatin": "PL8130268194",
                "operator": "Zak\u0142ad Doskonalenia Zawodowego W Rzeszowie",
                "operator:type": "ngo"
            }
        },
        {
            "id": 128724,
            "type": "Feature",
            "geometry": {
                "type": "Point",
                "coordinates": [
                    21.67323,
                    50.57484
                ]
            },
            "properties": {
                "isced:level": "4",
                "ref:rspo": 128724,
                "official_name": "Medyczna Szko\u0142a Policealna w Tarnobrzegu",
                "name": "Medyczna Szko\u0142a Policealna w Tarnobrzegu",
                "addr:country": "PL",
                "addr:postcode": "39-400",
                "addr:city": "Tarnobrzeg",
                "addr:street": "Henryka Sienkiewicza",
                "addr:housenumber": "1",
                "addr:teryt:simc": 980085,
                "addr:teryt:sym_ul": 19834,
                "contact:phone": "+48 158142480",
                "contact:email": "tarnobrzeg@medyk.net.pl",
                "contact:website": "http:\/\/www.medyk.net.pl",
                "ref:regon": "362364730",
                "operator": "Medyk Szko\u0142a Sp\u00f3\u0142ka Z Ograniczon\u0105 Odpowiedzialno\u015bci\u0105",
                "operator:type": "private",
                "amenity": "college"
            }
        },
        {
            "id": 78066,
            "type": "Feature",
            "geometry": {
                "type": "Point",
                "coordinates": [
                    21.67615,
                    50.57506
                ]
            },
            "properties": {
                "isced:level": "3",
                "ref:rspo": 78066,
                "official_name": "I Spo\u0142eczne Liceum Og\u00f3lnokszta\u0142c\u0105ce im.hetmana Jana Tarnowskiego",
                "name": "I Spo\u0142eczne Liceum Og\u00f3lnokszta\u0142c\u0105ce im.hetmana Jana Tarnowskiego",
                "addr:country": "PL",
                "addr:postcode": "39-400",
                "addr:city": "Tarnobrzeg",
                "addr:street": "Dominika\u0144ska",
                "addr:housenumber": "7",
                "addr:teryt:simc": 980085,
                "addr:teryt:sym_ul": 4102,
                "contact:phone": "+48 158227984",
                "contact:email": "dyrslo@wp.pl",
                "contact:website": "http:\/\/www.hetman.edu.pl",
                "ref:regon": "180910857",
                "ref:vatin": "PL8671035739",
                "operator": "Tarnobrzeskie Spo\u0142eczne Towarzystwo O\u015bwiatowe",
                "operator:type": "ngo",
                "amenity": "school"
            }
        },
        {
            "id": 273839,
            "type": "Feature",
            "geometry": {
                "type": "Point",
                "coordinates": [
                    21.67615,
                    50.57503
                ]
            },
            "properties": {
                "isced:level": "3",
                "ref:rspo": 273839,
                "official_name": "Liceum Og\u00f3lnokszta\u0142c\u0105ce dla Doros\u0142ych \u201ePascal\u201d w Tarnobrzegu",
                "name": "Liceum Og\u00f3lnokszta\u0142c\u0105ce dla Doros\u0142ych \u201ePascal\u201d w Tarnobrzegu",
                "addr:country": "PL",
                "addr:postcode": "39-400",
                "addr:city": "Tarnobrzeg",
                "addr:street": "Dominika\u0144ska",
                "addr:housenumber": "7",
                "addr:teryt:simc": 980085,
                "addr:teryt:sym_ul": 4102,
                "contact:phone": "+48 223784630",
                "contact:email": "federacja@fnpo.pl",
                "contact:website": "http:\/\/fnpo.pl\/",
                "ref:regon": "384711692",
                "operator": "Federacja Niepublicznych Plac\u00f3wek O\u015bwiatowych Sp\u00f3\u0142ka Z Ograniczon\u0105 Odpowiedzialno\u015bci\u0105",
                "operator:type": "private",
                "amenity": "school"
            }
        },
        {
            "id": 276601,
            "type": "Feature",
            "geometry": {
                "type": "Point",
                "coordinates": [
                    21.67615,
                    50.575
                ]
            },
            "properties": {
                "isced:level": "4",
                "ref:rspo": 276601,
                "official_name": "Zaoczna Policealna Szko\u0142a Zawodowa \"Pascal\" w Tarnobrzegu",
                "name": "Zaoczna Policealna Szko\u0142a Zawodowa \"Pascal\" w Tarnobrzegu",
                "addr:country": "PL",
                "addr:postcode": "39-400",
                "addr:city": "Tarnobrzeg",
                "addr:street": "Dominika\u0144ska",
                "addr:housenumber": "7",
                "addr:teryt:simc": 980085,
                "addr:teryt:sym_ul": 4102,
                "contact:phone": "+48 223784630",
                "contact:email": "federacja@fnpo.pl",
                "contact:website": "https:\/\/pascal.edu.pl\/",
                "ref:regon": "387266442",
                "operator": "Federacja Niepublicznych Plac\u00f3wek O\u015bwiatowych Sp\u00f3\u0142ka Z Ograniczon\u0105 Odpowiedzialno\u015bci\u0105",
                "operator:type": "private",
                "amenity": "college"
            }
        },
        {
            "id": 17920,
            "type": "Feature",
            "geometry": {
                "type": "Point",
                "coordinates": [
                    21.68378,
                    50.57714
                ]
            },
            "properties": {
                "ref:rspo": 17920,
                "official_name": "Przedszkole Nr 7",
                "name": "Przedszkole Nr 7",
                "addr:country": "PL",
                "addr:postcode": "39-400",
                "addr:city": "Tarnobrzeg",
                "addr:street": "Zwierzyniecka",
                "addr:housenumber": "4",
                "addr:teryt:simc": 980085,
                "addr:teryt:sym_ul": 26305,
                "contact:phone": "+48 158226576",
                "contact:email": "p7@oswiata.tarnobrzeg.pl",
                "ref:regon": "180641819",
                "ref:vatin": "PL8671613260",
                "operator": "Tarnobrzeg-Miasto Na Prawach Powiatu",
                "operator:type": "government",
                "amenity": "kindergarten"
            }
        },
        {
            "id": 14109,
            "type": "Feature",
            "geometry": {
                "type": "Point",
                "coordinates": [
                    21.68452,
                    50.5791899
                ]
            },
            "properties": {
                "ref:rspo": 14109,
                "official_name": "Katolickie Przedszkole im. \u015awi\u0119tego J\u00f3zefa",
                "name": "Katolickie Przedszkole",
                "addr:country": "PL",
                "addr:postcode": "39-400",
                "addr:city": "Tarnobrzeg",
                "addr:street": "Konstytucji 3 Maja",
                "addr:housenumber": "11",
                "addr:teryt:simc": 980085,
                "addr:teryt:sym_ul": 9213,
                "contact:phone": "+48 797592193",
                "contact:email": "ochronkambnp@gmail.com",
                "contact:website": "http:\/\/ochronka.tbg.net.pl",
                "ref:regon": "180887549",
                "ref:vatin": "PL8672069864",
                "operator": "Parafia Matki Bo\u017cej Nieustaj\u0105cej Pomocy",
                "operator:type": "religious",
                "amenity": "kindergarten"
            }
        },
        {
            "id": 17909,
            "type": "Feature",
            "geometry": {
                "type": "Point",
                "coordinates": [
                    21.68615,
                    50.5858
                ]
            },
            "properties": {
                "isced:level": "1;2",
                "ref:rspo": 17909,
                "official_name": "Szko\u0142a Podstawowa Nr 9 Im Jana Paw\u0142a Ii",
                "name": "Szko\u0142a Podstawowa Nr 9 Im Jana Paw\u0142a Ii",
                "addr:country": "PL",
                "addr:postcode": "39-400",
                "addr:city": "Tarnobrzeg",
                "addr:street": "Wiejska",
                "addr:housenumber": "4",
                "addr:teryt:simc": 980085,
                "addr:teryt:sym_ul": 24048,
                "contact:phone": "+48 158237585",
                "contact:email": "sp9tarnobrzeg@wp.pl",
                "contact:website": "http:\/\/www.sp9.tbg.net.pl",
                "ref:regon": "830337145",
                "ref:vatin": "PL8671722894",
                "operator": "Tarnobrzeg-Miasto Na Prawach Powiatu",
                "operator:type": "government",
                "amenity": "school"
            }
        },
        {
            "id": 18200,
            "type": "Feature",
            "geometry": {
                "type": "Point",
                "coordinates": [
                    21.68615,
                    50.58577
                ]
            },
            "properties": {
                "ref:rspo": 18200,
                "official_name": "Przedszkole Integracyjne Nr 9",
                "name": "Przedszkole Integracyjne Nr 9",
                "addr:country": "PL",
                "addr:postcode": "39-400",
                "addr:city": "Tarnobrzeg",
                "addr:street": "Wiejska",
                "addr:housenumber": "4",
                "addr:teryt:simc": 980085,
                "addr:teryt:sym_ul": 24048,
                "contact:phone": "+48 158222684",
                "contact:email": "pi9tarnobrzeg@gmail.com",
                "contact:website": "http:\/\/pi9.tarnobrzeg.pl",
                "ref:regon": "180642010",
                "ref:vatin": "PL8671617482",
                "operator": "Tarnobrzeg-Miasto Na Prawach Powiatu",
                "operator:type": "government",
                "amenity": "kindergarten"
            }
        },
        {
            "id": 104091,
            "type": "Feature",
            "geometry": {
                "type": "Point",
                "coordinates": [
                    21.69043,
                    50.58582
                ]
            },
            "properties": {
                "ref:rspo": 104091,
                "official_name": "Niepubliczna Plac\u00f3wka Doskonalenia Nauczycieli w Tarnobrzegu",
                "name": "Niepubliczna Plac\u00f3wka Doskonalenia Nauczycieli w Tarnobrzegu",
                "addr:country": "PL",
                "addr:postcode": "39-400",
                "addr:city": "Tarnobrzeg",
                "addr:street": "gen. W\u0142adys\u0142awa Sikorskiego",
                "addr:housenumber": "82",
                "addr:teryt:simc": 980085,
                "addr:teryt:sym_ul": 19907,
                "contact:email": "npdn_tarnobrzeg@poczta.onet.pl",
                "ref:regon": "180921654",
                "ref:vatin": "PL8671244584",
                "operator": "Dane Do Uzupe\u0142nienia",
                "operator:type": "private",
                "amenity": "training"
            }
        },
        {
            "id": 124749,
            "type": "Feature",
            "geometry": {
                "type": "Point",
                "coordinates": [
                    21.69309,
                    50.58966
                ]
            },
            "properties": {
                "ref:rspo": 124749,
                "official_name": "Przedszkole Akademia Malucha",
                "name": "Przedszkole Akademia Malucha",
                "addr:country": "PL",
                "addr:postcode": "39-400",
                "addr:city": "Tarnobrzeg",
                "addr:street": "al. Warszawska",
                "addr:housenumber": "17",
                "addr:teryt:simc": 980085,
                "addr:teryt:sym_ul": 23680,
                "contact:phone": "+48 539693220",
                "contact:email": "akademia.tbg@wp.pl",
                "ref:regon": "181150756",
                "operator": "El\u017cbieta Smykla",
                "operator:type": "private",
                "amenity": "kindergarten"
            }
        },
        {
            "id": 17913,
            "type": "Feature",
            "geometry": {
                "type": "Point",
                "coordinates": [
                    21.7574648,
                    50.6035946
                ]
            },
            "properties": {
                "isced:level": "1;2",
                "ref:rspo": 17913,
                "official_name": "Szko\u0142a Podstawowa Nr 11 im. Wincentego Buczka",
                "name": "Szko\u0142a Podstawowa Nr 11",
                "addr:country": "PL",
                "addr:postcode": "39-400",
                "addr:city": "Tarnobrzeg",
                "addr:street": "Olszowa",
                "addr:housenumber": "1",
                "addr:teryt:simc": 980085,
                "addr:teryt:sym_ul": 15012,
                "contact:phone": "+48 158220603",
                "contact:email": "szpod11@poczta.onet.pl",
                "contact:website": "http:\/\/www.szpod11.republika.pl",
                "ref:regon": "180645059",
                "ref:vatin": "PL8671613076",
                "operator": "Tarnobrzeg-Miasto Na Prawach Powiatu",
                "operator:type": "government",
                "amenity": "school"
            }
        },
        {
            "id": 17925,
            "type": "Feature",
            "geometry": {
                "type": "Point",
                "coordinates": [
                    21.75853,
                    50.60408
                ]
            },
            "properties": {
                "ref:rspo": 17925,
                "official_name": "Przedszkole Nr 18 w Tarnobrzegu",
                "name": "Przedszkole Nr 18 w Tarnobrzegu",
                "addr:country": "PL",
                "addr:postcode": "39-400",
                "addr:city": "Tarnobrzeg",
                "addr:street": "Ko\u015bcielna",
                "addr:housenumber": "3",
                "addr:teryt:simc": 980085,
                "addr:teryt:sym_ul": 9546,
                "contact:phone": "+48 158220615",
                "contact:email": "p18@oswiata.tarnobrzeg.pl",
                "contact:website": "http:\/\/www.p18tbg.republika.pl",
                "ref:regon": "180643103",
                "ref:vatin": "PL8671612869",
                "operator": "Tarnobrzeg-Miasto Na Prawach Powiatu",
                "operator:type": "government",
                "amenity": "kindergarten"
            }
        },
        {
            "id": 14108,
            "type": "Feature",
            "geometry": {
                "type": "Point",
                "coordinates": [
                    21.70735,
                    50.60709
                ]
            },
            "properties": {
                "ref:rspo": 14108,
                "official_name": "Niepubliczne Przedszkole \"Bociania Kraina\" w Tarnobrzegu",
                "name": "Niepubliczne Przedszkole \"Bociania Kraina\" w Tarnobrzegu",
                "addr:country": "PL",
                "addr:postcode": "39-400",
                "addr:city": "Tarnobrzeg",
                "addr:street": "Przemys\u0142owa",
                "addr:housenumber": "1",
                "addr:teryt:simc": 980085,
                "addr:teryt:sym_ul": 17742,
                "contact:phone": "+48 784086391",
                "contact:email": "bocianiakraina@interia.pl",
                "ref:regon": "180887510",
                "ref:vatin": "PL8671766012",
                "operator": "Joanna Gr\u0119bowiec",
                "operator:type": "private",
                "amenity": "kindergarten"
            }
        },
        {
            "id": 11501,
            "type": "Feature",
            "geometry": {
                "type": "Point",
                "coordinates": [
                    21.73055,
                    50.62485
                ]
            },
            "properties": {
                "isced:level": "4",
                "ref:rspo": 11501,
                "official_name": "I Niepubliczne Policealne Studium Zawodowe Bhp dla Doros\u0142ych w Tarnobrzegu",
                "name": "I Niepubliczne Policealne Studium Zawodowe Bhp dla Doros\u0142ych w Tarnobrzegu",
                "addr:country": "PL",
                "addr:postcode": "39-400",
                "addr:city": "Tarnobrzeg",
                "addr:street": "Sp\u00f3\u0142dzielcza",
                "addr:housenumber": "29",
                "addr:teryt:simc": 980085,
                "addr:teryt:sym_ul": 20696,
                "contact:phone": "+48 158231036",
                "contact:email": "sebastian@sadrakula.com",
                "contact:website": "http:\/\/euroszkola-bis.pl",
                "ref:regon": "180886679",
                "ref:vatin": "PL8671651390",
                "operator": "Sebastian Sadraku\u0142a",
                "operator:type": "private",
                "amenity": "college",
                "note": "Parent RSPO: 13524"
            }
        },
        {
            "id": 11503,
            "type": "Feature",
            "geometry": {
                "type": "Point",
                "coordinates": [
                    21.73055,
                    50.62482
                ]
            },
            "properties": {
                "isced:level": "4",
                "ref:rspo": 11503,
                "official_name": "Niepubliczne Policealne Studium Zawodowe Geodezyjne dla Doros\u0142ych w Tarnobrzegu",
                "name": "Niepubliczne Policealne Studium Zawodowe Geodezyjne dla Doros\u0142ych w Tarnobrzegu",
                "addr:country": "PL",
                "addr:postcode": "39-400",
                "addr:city": "Tarnobrzeg",
                "addr:street": "Sp\u00f3\u0142dzielcza",
                "addr:housenumber": "29",
                "addr:teryt:simc": 980085,
                "addr:teryt:sym_ul": 20696,
                "contact:phone": "+48 158231036",
                "contact:email": "sebastian@sadrakula.com",
                "contact:website": "http:\/\/euroszkola-bis.pl",
                "ref:regon": "180885409",
                "ref:vatin": "PL8671651390",
                "operator": "Sebastian Sadraku\u0142a",
                "operator:type": "private",
                "amenity": "college",
                "note": "Parent RSPO: 13524"
            }
        },
        {
            "id": 14107,
            "type": "Feature",
            "geometry": {
                "type": "Point",
                "coordinates": [
                    21.72263,
                    50.62492
                ]
            },
            "properties": {
                "ref:rspo": 14107,
                "official_name": "Niepubliczne Przedszkole Nr 1",
                "name": "Niepubliczne Przedszkole Nr 1",
                "addr:country": "PL",
                "addr:postcode": "39-400",
                "addr:city": "Tarnobrzeg",
                "addr:street": "Sielecka",
                "addr:housenumber": "26",
                "addr:teryt:simc": 980085,
                "addr:teryt:sym_ul": 19801,
                "contact:phone": "+48 158235977",
                "contact:email": "agatap71@o2.pl",
                "ref:regon": "180887503",
                "ref:vatin": "PL8671059496",
                "operator": "Agata Piwowar",
                "operator:type": "private",
                "amenity": "kindergarten"
            }
        },
        {
            "id": 91614,
            "type": "Feature",
            "geometry": {
                "type": "Point",
                "coordinates": [
                    21.75285,
                    50.6312799
                ]
            },
            "properties": {
                "ref:rspo": 91614,
                "official_name": "Przedszkole Nr 8",
                "name": "Przedszkole Nr 8",
                "addr:country": "PL",
                "addr:postcode": "39-400",
                "addr:city": "Tarnobrzeg",
                "addr:street": "Sobowska",
                "addr:housenumber": "1",
                "addr:teryt:simc": 980085,
                "addr:teryt:sym_ul": 20456,
                "contact:phone": "+48 158220514",
                "contact:email": "p8@oswiata.tarnobrzeg.pl",
                "contact:website": "http:\/\/p8tbg.edupage.org",
                "ref:regon": "180640731",
                "ref:vatin": "PL8671611752",
                "operator": "Tarnobrzeg-Miasto Na Prawach Powiatu",
                "operator:type": "government",
                "amenity": "kindergarten"
            }
        },
        {
            "id": 17912,
            "type": "Feature",
            "geometry": {
                "type": "Point",
                "coordinates": [
                    21.7485399,
                    50.63542
                ]
            },
            "properties": {
                "isced:level": "1;2",
                "ref:rspo": 17912,
                "official_name": "Szko\u0142a Podstawowa Nr 8 im. Stanis\u0142awa Pi\u0119taka",
                "name": "Szko\u0142a Podstawowa Nr 8",
                "addr:country": "PL",
                "addr:postcode": "39-400",
                "addr:city": "Tarnobrzeg",
                "addr:street": "Stanis\u0142awa Pi\u0119taka",
                "addr:housenumber": "53",
                "addr:teryt:simc": 980085,
                "addr:teryt:sym_ul": 16194,
                "contact:phone": "+48 158220593",
                "contact:email": "sp8tarnobrzeg@op.pl",
                "contact:website": "http:\/\/www.sp8tarnobrzeg.edupage.org",
                "ref:regon": "180643043",
                "ref:vatin": "PL8671613107",
                "operator": "Tarnobrzeg-Miasto Na Prawach Powiatu",
                "operator:type": "government",
                "amenity": "school"
            }
        }
    ]
}