{
    "type": "FeatureCollection",
    "features": [
        {
            "id": 120563,
            "type": "Feature",
            "geometry": {
                "type": "Point",
                "coordinates": [
                    21.01248,
                    53.54959
                ]
            },
            "properties": {
                "ref:rspo": 120563,
                "official_name": "\"Ja\u015b I Ma\u0142gosia\" Przedszkole Niepubliczne Urszula Wielk",
                "name": "\"Ja\u015b I Ma\u0142gosia\" Przedszkole Niepubliczne Urszula Wielk",
                "addr:postcode": "12-100",
                "addr:city": "Szczytno",
                "addr:street": "W\u0142adys\u0142awa IV",
                "addr:housenumber": "52A",
                "addr:teryt:simc": 964991,
                "addr:teryt:sym_ul": 24490,
                "phone": "+48 784704556",
                "email": "urszula.wielk@o2.pl",
                "ref:regon": "281540738",
                "ref:vatin": "PL7451615960",
                "operator": "Urszula Wielk",
                "operator:type": "private",
                "amenity": "kindergarten"
            }
        },
        {
            "id": 87831,
            "type": "Feature",
            "geometry": {
                "type": "Point",
                "coordinates": [
                    21.00937,
                    53.55274
                ]
            },
            "properties": {
                "ref:rspo": 87831,
                "official_name": "Niepubliczna Poradnia Psychologiczno Pedagogiczna Halina Chor\u0105\u017cewicz 12-100 Szczytno Ul. Lidzbarska6",
                "name": "Niepubliczna Poradnia Psychologiczno Pedagogiczna Halina Chor\u0105\u017cewicz 12-100 Szczytno Ul. Lidzbarska6",
                "addr:postcode": "12-100",
                "addr:city": "Szczytno",
                "addr:street": "Lidzbarska",
                "addr:housenumber": "6",
                "addr:teryt:simc": 964991,
                "addr:teryt:sym_ul": 11044,
                "phone": "+48 896232733",
                "email": "poradnia.niepubliczna@gmail.com",
                "website": "http:\/\/poradniaszczytno.manifo.com",
                "ref:regon": "281448240",
                "operator": "Dane Do Uzupe\u0142nienia",
                "operator:type": "private",
                "healthcare": "counselling",
                "counselling_type": "education",
                "fixme": "w zale\u017cno\u015bci od przedmiotu dzia\u0142alno\u015bci (np. healthcare=counselling + counselling_type=education albo healthcare=psychotherapist)"
            }
        },
        {
            "id": 30526,
            "type": "Feature",
            "geometry": {
                "type": "Point",
                "coordinates": [
                    20.99368,
                    53.55964
                ]
            },
            "properties": {
                "ref:rspo": 30526,
                "official_name": "Miejskie Przedszkole Nr 9 \"Kubu\u015b Puchatek\"",
                "name": "Miejskie Przedszkole Nr 9 \"Kubu\u015b Puchatek\"",
                "addr:postcode": "12-100",
                "addr:city": "Szczytno",
                "addr:street": "Polna",
                "addr:housenumber": "16",
                "addr:teryt:simc": 964991,
                "addr:teryt:sym_ul": 17011,
                "phone": "+48 896760950",
                "email": "mp9@um.szczytno.pl",
                "website": "http:\/\/szczytno-pm9.bip-wm.pl",
                "ref:regon": "511006820",
                "ref:vatin": "PL7451629028",
                "operator": "Gmina Miejska Szczytno",
                "operator:type": "government",
                "amenity": "kindergarten"
            }
        },
        {
            "id": 30520,
            "type": "Feature",
            "geometry": {
                "type": "Point",
                "coordinates": [
                    21.00616,
                    53.56049
                ]
            },
            "properties": {
                "ref:rspo": 30520,
                "official_name": "Miejskie Przedszkole Nr 2 \"Fantazja\"",
                "name": "Miejskie Przedszkole Nr 2 \"Fantazja\"",
                "addr:postcode": "12-100",
                "addr:city": "Szczytno",
                "addr:street": "Polska",
                "addr:housenumber": "42",
                "addr:teryt:simc": 964991,
                "addr:teryt:sym_ul": 17030,
                "phone": "+48 896760830",
                "email": "mp2@um.szczytno.pl",
                "website": "http:\/\/mp2.miastoszczytno.pl",
                "ref:regon": "511006620",
                "ref:vatin": "PL7451628773",
                "operator": "Gmina Miejska Szczytno",
                "operator:type": "government",
                "amenity": "kindergarten"
            }
        },
        {
            "id": 27954,
            "type": "Feature",
            "geometry": {
                "type": "Point",
                "coordinates": [
                    20.99092,
                    53.56082
                ]
            },
            "properties": {
                "isced:level": "1;2",
                "ref:rspo": 27954,
                "official_name": "Szko\u0142a Podstawowa Nr 3 im. Marii Sk\u0142odowskiej-Curie",
                "name": "Szko\u0142a Podstawowa Nr 3",
                "addr:postcode": "12-100",
                "addr:city": "Szczytno",
                "addr:street": "Marii Curie-Sk\u0142odowskiej",
                "addr:housenumber": "2",
                "addr:teryt:simc": 964991,
                "addr:teryt:sym_ul": 3148,
                "phone": "+48 896760960",
                "email": "sekretariat@sp3.miastoszczytno.pl",
                "website": "http:\/\/www.sp3.miastoszczytno.pl",
                "ref:regon": "000707461",
                "ref:vatin": "PL7451016886",
                "operator": "Gmina Miejska Szczytno",
                "operator:type": "government",
                "amenity": "school"
            }
        },
        {
            "id": 87689,
            "type": "Feature",
            "geometry": {
                "type": "Point",
                "coordinates": [
                    20.99092,
                    53.56079
                ]
            },
            "properties": {
                "isced:level": "3",
                "ref:rspo": 87689,
                "official_name": "Liceum Og\u00f3lnokszta\u0142c\u0105ce dla Doros\u0142ych w Szczytnie",
                "name": "Liceum Og\u00f3lnokszta\u0142c\u0105ce dla Doros\u0142ych w Szczytnie",
                "addr:postcode": "12-100",
                "addr:city": "Szczytno",
                "addr:street": "Marii Curie-Sk\u0142odowskiej",
                "addr:housenumber": "2",
                "addr:teryt:simc": 964991,
                "addr:teryt:sym_ul": 3148,
                "phone": "+48 896248108",
                "ref:regon": "281448613",
                "operator": "Dane Do Uzupe\u0142nienia",
                "operator:type": "private",
                "amenity": "school"
            }
        },
        {
            "id": 87685,
            "type": "Feature",
            "geometry": {
                "type": "Point",
                "coordinates": [
                    20.9971,
                    53.5618399
                ]
            },
            "properties": {
                "ref:rspo": 87685,
                "official_name": "Zesp\u00f3\u0142 Szk\u00f3\u0142 Nr 2 im. J\u0119drzeja \u015aniadeckiego w Szczytnie",
                "name": "Zesp\u00f3\u0142 Szk\u00f3\u0142 Nr 2",
                "addr:postcode": "12-100",
                "addr:city": "Szczytno",
                "addr:street": "Polska",
                "addr:housenumber": "18",
                "addr:teryt:simc": 964991,
                "addr:teryt:sym_ul": 17030,
                "phone": "+48 896242824",
                "email": "zs2szczytno@poczta.onet.pl",
                "website": "http:\/\/zs2powiatszczycienski.pl",
                "ref:regon": "511346220",
                "operator": "Powiat Szczycie\u0144ski",
                "operator:type": "government",
                "landuse": "education",
                "fixme": "amenity=school, amenity=college albo landuse=education w zale\u017cno\u015bci od tego, jakie plac\u00f3wki wchodz\u0105 w sk\u0142ad zespo\u0142u. Sprawd\u017a, kiedy stosowa\u0107 amenity=* a kiedy landuse=education.",
                "note": "Children RSPO: 115434;115436;115438;115439"
            }
        },
        {
            "id": 115434,
            "type": "Feature",
            "geometry": {
                "type": "Point",
                "coordinates": [
                    20.9971,
                    53.5618099
                ]
            },
            "properties": {
                "isced:level": "3",
                "ref:rspo": 115434,
                "official_name": "Liceum Og\u00f3lnokszta\u0142c\u0105ce",
                "name": "Liceum Og\u00f3lnokszta\u0142c\u0105ce",
                "addr:postcode": "12-100",
                "addr:city": "Szczytno",
                "addr:street": "Polska",
                "addr:housenumber": "18",
                "addr:teryt:simc": 964991,
                "addr:teryt:sym_ul": 17030,
                "phone": "+48 896242824",
                "email": "zs2szczytno@poczta.onet.pl",
                "website": "http:\/\/zs2.powiatszczycienski.pl\/",
                "ref:regon": "519458898",
                "operator": "Powiat Szczycie\u0144ski",
                "operator:type": "government",
                "amenity": "school",
                "note": "Parent RSPO: 87685"
            }
        },
        {
            "id": 115436,
            "type": "Feature",
            "geometry": {
                "type": "Point",
                "coordinates": [
                    20.9971,
                    53.561779900000005
                ]
            },
            "properties": {
                "isced:level": "3",
                "ref:rspo": 115436,
                "official_name": "Technikum",
                "name": "Technikum",
                "addr:postcode": "12-100",
                "addr:city": "Szczytno",
                "addr:street": "Polska",
                "addr:housenumber": "18",
                "addr:teryt:simc": 964991,
                "addr:teryt:sym_ul": 17030,
                "phone": "+48 896242824",
                "email": "zs2szczytno@poczta.onet.pl",
                "website": "http:\/\/zs2.powiatszczycienski.pl\/",
                "ref:regon": "519458830",
                "operator": "Powiat Szczycie\u0144ski",
                "operator:type": "government",
                "amenity": "school",
                "note": "Parent RSPO: 87685"
            }
        },
        {
            "id": 115438,
            "type": "Feature",
            "geometry": {
                "type": "Point",
                "coordinates": [
                    20.9971,
                    53.5617499
                ]
            },
            "properties": {
                "isced:level": "3",
                "ref:rspo": 115438,
                "official_name": "Bran\u017cowa Szko\u0142a I Stopnia w Szczytnie",
                "name": "Bran\u017cowa Szko\u0142a I Stopnia w Szczytnie",
                "addr:postcode": "12-100",
                "addr:city": "Szczytno",
                "addr:street": "Polska",
                "addr:housenumber": "18",
                "addr:teryt:simc": 964991,
                "addr:teryt:sym_ul": 17030,
                "phone": "+48 896242824",
                "email": "zs2szczytno@poczta.onet.pl",
                "website": "http:\/\/zs2.powiatszczycienski.pl\/",
                "ref:regon": "519458964",
                "operator": "Powiat Szczycie\u0144ski",
                "operator:type": "government",
                "amenity": "school",
                "note": "Parent RSPO: 87685"
            }
        },
        {
            "id": 115439,
            "type": "Feature",
            "geometry": {
                "type": "Point",
                "coordinates": [
                    20.9971,
                    53.5617199
                ]
            },
            "properties": {
                "isced:level": "3",
                "ref:rspo": 115439,
                "official_name": "Liceum Og\u00f3lnokszta\u0142c\u0105ce dla Doros\u0142ych",
                "name": "Liceum Og\u00f3lnokszta\u0142c\u0105ce dla Doros\u0142ych",
                "addr:postcode": "12-100",
                "addr:city": "Szczytno",
                "addr:street": "Polska",
                "addr:housenumber": "18",
                "addr:teryt:simc": 964991,
                "addr:teryt:sym_ul": 17030,
                "phone": "+48 896242824",
                "email": "zs2szczytno@poczta.onet.pl",
                "website": "http:\/\/zs2.powiatszczycienski.pl",
                "ref:regon": "519638436",
                "operator": "Powiat Szczycie\u0144ski",
                "operator:type": "government",
                "amenity": "school",
                "note": "Parent RSPO: 87685"
            }
        },
        {
            "id": 87698,
            "type": "Feature",
            "geometry": {
                "type": "Point",
                "coordinates": [
                    20.9908499,
                    53.56208
                ]
            },
            "properties": {
                "isced:level": "4",
                "ref:rspo": 87698,
                "official_name": "Policealne Studium Zawodowe w Szczytnie",
                "name": "Policealne Studium Zawodowe w Szczytnie",
                "addr:postcode": "12-100",
                "addr:city": "Szczytno",
                "addr:street": "Boles\u0142awa Chrobrego",
                "addr:housenumber": "4",
                "addr:teryt:simc": 964991,
                "addr:teryt:sym_ul": 1742,
                "phone": "+48 896248155",
                "ref:regon": "281448636",
                "operator": "Dane Do Uzupe\u0142nienia",
                "operator:type": "private",
                "amenity": "college"
            }
        },
        {
            "id": 87712,
            "type": "Feature",
            "geometry": {
                "type": "Point",
                "coordinates": [
                    20.9908499,
                    53.56205
                ]
            },
            "properties": {
                "ref:rspo": 87712,
                "official_name": "Centrum Edukacji w Szczytnie",
                "name": "Centrum Edukacji w Szczytnie",
                "addr:postcode": "12-100",
                "addr:city": "Szczytno",
                "addr:street": "Boles\u0142awa Chrobrego",
                "addr:housenumber": "4",
                "addr:teryt:simc": 964991,
                "addr:teryt:sym_ul": 1742,
                "phone": "+48 896248155",
                "ref:regon": "281448659",
                "operator": "Warmi\u0144sko - Mazurski Zak\u0142ad Doskonalenia Zawodowego W Olsztynie",
                "operator:type": "ngo",
                "fixme": "w zale\u017cno\u015bci od przedmiotu dzia\u0142alno\u015bci (np. amenity=training + training=*, amenity=dancing_school, amenity=language_school, amenity=music_school)"
            }
        },
        {
            "id": 87828,
            "type": "Feature",
            "geometry": {
                "type": "Point",
                "coordinates": [
                    20.9908499,
                    53.562020000000004
                ]
            },
            "properties": {
                "isced:level": "3",
                "ref:rspo": 87828,
                "official_name": "Liceum Og\u00f3lnokszta\u0142cace dla Doros\u0142ych w Szczytnie",
                "name": "Liceum Og\u00f3lnokszta\u0142cace dla Doros\u0142ych w Szczytnie",
                "addr:postcode": "12-100",
                "addr:city": "Szczytno",
                "addr:street": "Boles\u0142awa Chrobrego",
                "addr:housenumber": "4",
                "addr:teryt:simc": 964991,
                "addr:teryt:sym_ul": 1742,
                "phone": "+48 896248155",
                "email": "szczytno@wmzdz.pl",
                "ref:regon": "281449854",
                "operator": "Dane Do Uzupe\u0142nienia",
                "operator:type": "private",
                "amenity": "school"
            }
        },
        {
            "id": 31432,
            "type": "Feature",
            "geometry": {
                "type": "Point",
                "coordinates": [
                    21.00418,
                    53.56245
                ]
            },
            "properties": {
                "ref:rspo": 31432,
                "official_name": "Przedszkole Niepubliczne Kinderland",
                "name": "Przedszkole Niepubliczne Kinderland",
                "addr:postcode": "12-100",
                "addr:city": "Szczytno",
                "addr:street": "Fryderyka Leyka",
                "addr:housenumber": "34c",
                "addr:teryt:simc": 964991,
                "addr:teryt:sym_ul": 11004,
                "phone": "+48 508334636",
                "email": "lenardaneta@tlen.pl",
                "website": "http:\/\/kinderland.szczytno.pl\/",
                "ref:regon": "281436290",
                "ref:vatin": "PL5842516557",
                "operator": "Aneta Lenard",
                "operator:type": "private",
                "amenity": "kindergarten"
            }
        },
        {
            "id": 87692,
            "type": "Feature",
            "geometry": {
                "type": "Point",
                "coordinates": [
                    21.00809,
                    53.5631
                ]
            },
            "properties": {
                "ref:rspo": 87692,
                "official_name": "Zesp\u00f3\u0142 Szk\u00f3\u0142 Nr 3 im. Jana III Sobieskiego w Szczytnie",
                "name": "Zesp\u00f3\u0142 Szk\u00f3\u0142 Nr 3",
                "addr:postcode": "12-100",
                "addr:city": "Szczytno",
                "addr:street": "Jerzego Lanca",
                "addr:housenumber": "10",
                "addr:teryt:simc": 964991,
                "addr:teryt:sym_ul": 10622,
                "phone": "+48 896242818",
                "email": "zsnr3@loszczytno.edu.pl",
                "website": "http:\/\/www.loszczytno.edu.pl",
                "ref:regon": "519547188",
                "operator": "Powiat Szczycie\u0144ski",
                "operator:type": "government",
                "landuse": "education",
                "fixme": "amenity=school, amenity=college albo landuse=education w zale\u017cno\u015bci od tego, jakie plac\u00f3wki wchodz\u0105 w sk\u0142ad zespo\u0142u. Sprawd\u017a, kiedy stosowa\u0107 amenity=* a kiedy landuse=education.",
                "note": "Children RSPO: 112272"
            }
        },
        {
            "id": 87826,
            "type": "Feature",
            "geometry": {
                "type": "Point",
                "coordinates": [
                    21.00809,
                    53.563069999999996
                ]
            },
            "properties": {
                "ref:rspo": 87826,
                "official_name": "Poradnia Psychologiczno - Pedagogiczna w Szczytnie",
                "name": "Poradnia Psychologiczno - Pedagogiczna w Szczytnie",
                "addr:postcode": "12-100",
                "addr:city": "Szczytno",
                "addr:street": "Jerzego Lanca",
                "addr:housenumber": "10",
                "addr:teryt:simc": 964991,
                "addr:teryt:sym_ul": 10622,
                "phone": "+48 896242592",
                "email": "sekretariat.ppp@powiat.szczytno.pl",
                "ref:regon": "000707478",
                "operator": "Powiat Szczycie\u0144ski",
                "operator:type": "government",
                "healthcare": "counselling",
                "counselling_type": "education",
                "fixme": "w zale\u017cno\u015bci od przedmiotu dzia\u0142alno\u015bci (np. healthcare=counselling + counselling_type=education albo healthcare=psychotherapist)"
            }
        },
        {
            "id": 112272,
            "type": "Feature",
            "geometry": {
                "type": "Point",
                "coordinates": [
                    21.00809,
                    53.56304
                ]
            },
            "properties": {
                "isced:level": "3",
                "ref:rspo": 112272,
                "official_name": "Liceum Og\u00f3lnokszta\u0142c\u0105ce",
                "name": "Liceum Og\u00f3lnokszta\u0142c\u0105ce",
                "addr:postcode": "12-100",
                "addr:city": "Szczytno",
                "addr:street": "Jerzego Lanca",
                "addr:housenumber": "10",
                "addr:teryt:simc": 964991,
                "addr:teryt:sym_ul": 10622,
                "phone": "+48 896242818",
                "email": "zsnr3@loszczytno.edu.pl",
                "website": "http:\/\/www.loszczytno.edu.pl",
                "ref:regon": "510906680",
                "operator": "Powiat Szczycie\u0144ski",
                "operator:type": "government",
                "amenity": "school",
                "note": "Parent RSPO: 87692"
            }
        },
        {
            "id": 275014,
            "type": "Feature",
            "geometry": {
                "type": "Point",
                "coordinates": [
                    21.00777,
                    53.56357
                ]
            },
            "properties": {
                "isced:level": "1;2",
                "ref:rspo": 275014,
                "official_name": "Sportowa Szko\u0142a Podstawowa Nr 4",
                "name": "Sportowa Szko\u0142a Podstawowa Nr 4",
                "addr:postcode": "12-100",
                "addr:city": "Szczytno",
                "addr:street": "Jerzego Lanca",
                "addr:housenumber": "1",
                "addr:teryt:simc": 964991,
                "addr:teryt:sym_ul": 10622,
                "phone": "+48 896760850",
                "email": "sekretariat@ssp4.miastoszczytno.pl",
                "website": "https:\/\/ssp4.miastoszczytno.pl\/",
                "ref:regon": "386499500",
                "operator": "Gmina Miejska Szczytno",
                "operator:type": "government",
                "amenity": "school"
            }
        },
        {
            "id": 82831,
            "type": "Feature",
            "geometry": {
                "type": "Point",
                "coordinates": [
                    20.99733,
                    53.5636
                ]
            },
            "properties": {
                "ref:rspo": 82831,
                "official_name": "Plac\u00f3wka Kszta\u0142cenia Zawodowego \"Al-Bit\"",
                "name": "Plac\u00f3wka Kszta\u0142cenia Zawodowego \"Al-Bit\"",
                "addr:postcode": "12-100",
                "addr:city": "Szczytno",
                "addr:street": "Stefana \u017beromskiego",
                "addr:housenumber": "9A",
                "addr:teryt:simc": 964991,
                "addr:teryt:sym_ul": 26469,
                "phone": "+48 896240880",
                "ref:regon": "281445684",
                "operator": "Dane Do Uzupe\u0142nienia",
                "operator:type": "private"
            }
        },
        {
            "id": 87696,
            "type": "Feature",
            "geometry": {
                "type": "Point",
                "coordinates": [
                    20.98007,
                    53.56477
                ]
            },
            "properties": {
                "isced:level": "1;2",
                "ref:rspo": 87696,
                "official_name": "Niepubliczna Podstawowa Szko\u0142a Specjalna Towarzystwa Przyjaci\u00f3\u0142 Dzieci w Szczytnie",
                "name": "Niepubliczna Podstawowa Szko\u0142a Specjalna Towarzystwa Przyjaci\u00f3\u0142 Dzieci w Szczytnie",
                "addr:postcode": "12-100",
                "addr:city": "Szczytno",
                "addr:street": "Pasymska",
                "addr:housenumber": "21a",
                "addr:teryt:simc": 964991,
                "addr:teryt:sym_ul": 15790,
                "phone": "+48 896243437",
                "ref:regon": "281448607",
                "operator": "Dane Do Uzupe\u0142nienia",
                "operator:type": "private",
                "amenity": "school"
            }
        },
        {
            "id": 128526,
            "type": "Feature",
            "geometry": {
                "type": "Point",
                "coordinates": [
                    20.98007,
                    53.56474
                ]
            },
            "properties": {
                "ref:rspo": 128526,
                "official_name": "Niepubliczny Zesp\u00f3\u0142 Plac\u00f3wek Specjalnych w Szczytnie",
                "name": "Niepubliczny Zesp\u00f3\u0142 Plac\u00f3wek Specjalnych w Szczytnie",
                "addr:postcode": "12-100",
                "addr:city": "Szczytno",
                "addr:street": "Pasymska",
                "addr:housenumber": "21A",
                "addr:teryt:simc": 964991,
                "addr:teryt:sym_ul": 15790,
                "phone": "+48 896243437",
                "email": "stowarzyszenie@promyk.org.pl",
                "ref:regon": "362306649",
                "operator": "Stowarzyszenie Na Rzecz Pomocy Dzieciom I M\u0142odzie\u017cy Niepe\u0142nosprawnej I Os\u00f3b Pokrzywdzonych W Wyniku Wypadk\u00f3w Komunikacyjnych \"Promyk\"",
                "operator:type": "ngo",
                "landuse": "education",
                "fixme": "amenity=school, amenity=college albo landuse=education w zale\u017cno\u015bci od tego, jakie plac\u00f3wki wchodz\u0105 w sk\u0142ad zespo\u0142u. Sprawd\u017a, kiedy stosowa\u0107 amenity=* a kiedy landuse=education.",
                "note": "Children RSPO: 31435;128325"
            }
        },
        {
            "id": 31435,
            "type": "Feature",
            "geometry": {
                "type": "Point",
                "coordinates": [
                    20.98007,
                    53.564710000000005
                ]
            },
            "properties": {
                "ref:rspo": 31435,
                "official_name": "Niepubliczne Przedszkole Specjalne \"Kraina Promyka\"",
                "name": "Niepubliczne Przedszkole Specjalne \"Kraina Promyka\"",
                "addr:postcode": "12-100",
                "addr:city": "Szczytno",
                "addr:street": "Pasymska",
                "addr:housenumber": "21a",
                "addr:teryt:simc": 964991,
                "addr:teryt:sym_ul": 15790,
                "phone": "+48 896243437",
                "email": "pcre@op.pl",
                "ref:regon": "281438572",
                "ref:vatin": "PL7451840734",
                "operator": "Stowarzyszenie Na Rzecz Pomocy Dzieciom I M\u0142odzie\u017cy Niepe\u0142nosprawnej I Os\u00f3b Pokrzywdzonych W Wyniku Wypadk\u00f3w Komunikacyjnych \"Promyk\"",
                "operator:type": "ngo",
                "amenity": "kindergarten",
                "note": "Parent RSPO: 128526"
            }
        },
        {
            "id": 128325,
            "type": "Feature",
            "geometry": {
                "type": "Point",
                "coordinates": [
                    20.98007,
                    53.56468
                ]
            },
            "properties": {
                "isced:level": "1;2",
                "ref:rspo": 128325,
                "official_name": "Niepubliczna Podstawowa Szko\u0142a Specjalna Stowarzyszenia \"Promyk\" w Szczytnie",
                "name": "Niepubliczna Podstawowa Szko\u0142a Specjalna Stowarzyszenia \"Promyk\" w Szczytnie",
                "addr:postcode": "12-100",
                "addr:city": "Szczytno",
                "addr:street": "Pasymska",
                "addr:housenumber": "21a",
                "addr:teryt:simc": 964991,
                "addr:teryt:sym_ul": 15790,
                "phone": "+48 896243437",
                "email": "sekretariat@zss-promyk.pl",
                "ref:regon": "362233057",
                "operator": "Stowarzyszenie Na Rzecz Pomocy Dzieciom I M\u0142odzie\u017cy Niepe\u0142nosprawnej I Os\u00f3b Pokrzywdzonych W Wyniku Wypadk\u00f3w Komunikacyjnych \"Promyk\"",
                "operator:type": "ngo",
                "amenity": "school",
                "note": "Parent RSPO: 128526"
            }
        },
        {
            "id": 31430,
            "type": "Feature",
            "geometry": {
                "type": "Point",
                "coordinates": [
                    20.98403,
                    53.56482
                ]
            },
            "properties": {
                "ref:rspo": 31430,
                "official_name": "Przedszkole Niepubliczne Nr 1 \"Pod Topol\u0105\"",
                "name": "Przedszkole Niepubliczne Nr 1 \"Pod Topol\u0105\"",
                "addr:postcode": "12-100",
                "addr:city": "Szczytno",
                "addr:street": "Pasymska",
                "addr:housenumber": "7",
                "addr:teryt:simc": 964991,
                "addr:teryt:sym_ul": 15790,
                "phone": "+48 896242611",
                "email": "pod.topola@wp.pl",
                "website": "http:\/\/www.pod-topola.pl\/",
                "ref:regon": "281436283",
                "ref:vatin": "PL7450000972",
                "operator": "Bo\u017cenna Mikielewicz",
                "operator:type": "private",
                "amenity": "kindergarten"
            }
        },
        {
            "id": 88060,
            "type": "Feature",
            "geometry": {
                "type": "Point",
                "coordinates": [
                    20.99092,
                    53.56501
                ]
            },
            "properties": {
                "ref:rspo": 88060,
                "official_name": "O\u015brodek Kszta\u0142cenia Zawodowego Uniwers",
                "name": "O\u015brodek Kszta\u0142cenia Zawodowego Uniwers",
                "addr:postcode": "12-100",
                "addr:city": "Szczytno",
                "addr:street": "Tadeusza Ko\u015bciuszki",
                "addr:housenumber": "1",
                "addr:teryt:simc": 964991,
                "addr:teryt:sym_ul": 9582,
                "phone": "+48 896248108",
                "ref:regon": "281448257",
                "operator": "Dane Do Uzupe\u0142nienia",
                "operator:type": "private"
            }
        },
        {
            "id": 30514,
            "type": "Feature",
            "geometry": {
                "type": "Point",
                "coordinates": [
                    20.98074,
                    53.56533
                ]
            },
            "properties": {
                "ref:rspo": 30514,
                "official_name": "Miejskie Przedszkole Nr 1 \"Bajka\"",
                "name": "Miejskie Przedszkole Nr 1 \"Bajka\"",
                "addr:postcode": "12-100",
                "addr:city": "Szczytno",
                "addr:street": "Pasymska",
                "addr:housenumber": "21",
                "addr:teryt:simc": 964991,
                "addr:teryt:sym_ul": 15790,
                "phone": "+48 896760860",
                "email": "mp1@um.szczytno.pl",
                "website": "http:\/\/mp1.bip.um.szczytno.pl\/public\/",
                "ref:regon": "511006808",
                "ref:vatin": "PL7451628804",
                "operator": "Gmina Miejska Szczytno",
                "operator:type": "government",
                "amenity": "kindergarten"
            }
        },
        {
            "id": 27944,
            "type": "Feature",
            "geometry": {
                "type": "Point",
                "coordinates": [
                    21.00793,
                    53.56579
                ]
            },
            "properties": {
                "isced:level": "1;2",
                "ref:rspo": 27944,
                "official_name": "Szko\u0142a Podstawowa Nr 6 im. Or\u0142a Bia\u0142ego",
                "name": "Szko\u0142a Podstawowa Nr 6",
                "addr:postcode": "12-100",
                "addr:city": "Szczytno",
                "addr:street": "Bohater\u00f3w Wrze\u015bnia 1939 roku",
                "addr:housenumber": "2",
                "addr:teryt:simc": 964991,
                "addr:teryt:sym_ul": 1689,
                "phone": "+48 896760910",
                "email": "sekretariat@sp6.miastoszczytno.pl",
                "website": "http:\/\/sp6.bip.um.szczytno.pl\/public\/",
                "ref:regon": "510040329",
                "ref:vatin": "PL7451122832",
                "operator": "Gmina Miejska Szczytno",
                "operator:type": "government",
                "amenity": "school"
            }
        },
        {
            "id": 31434,
            "type": "Feature",
            "geometry": {
                "type": "Point",
                "coordinates": [
                    20.99856,
                    53.56671
                ]
            },
            "properties": {
                "ref:rspo": 31434,
                "official_name": "Przedszkole Niepubliczne \u201eSmyk\u201d",
                "name": "Przedszkole Niepubliczne \u201eSmyk\u201d",
                "addr:postcode": "12-100",
                "addr:city": "Szczytno",
                "addr:street": "Marii Konopnickiej",
                "addr:housenumber": "15",
                "addr:teryt:simc": 964991,
                "addr:teryt:sym_ul": 9186,
                "phone": "+48 662495646",
                "email": "przedszkole.smyk@wp.pl",
                "ref:regon": "281436308",
                "ref:vatin": "PL7451604181",
                "operator": "Monika Kerber",
                "operator:type": "private",
                "amenity": "kindergarten"
            }
        },
        {
            "id": 75620,
            "type": "Feature",
            "geometry": {
                "type": "Point",
                "coordinates": [
                    20.99025,
                    53.56752
                ]
            },
            "properties": {
                "ref:rspo": 75620,
                "official_name": "Pa\u0144stwowa Szko\u0142a Muzyczna I St. im. Fryderyka Chopina w Szczytnie",
                "name": "Pa\u0144stwowa Szko\u0142a Muzyczna I St.",
                "addr:postcode": "12-100",
                "addr:city": "Szczytno",
                "addr:street": "Henryka Sienkiewicza",
                "addr:housenumber": "5",
                "addr:teryt:simc": 964991,
                "addr:teryt:sym_ul": 19834,
                "phone": "+48 896242509",
                "email": "sekretariat@psmszczytno.pl",
                "website": "http:\/\/www.psmszczytno.pl",
                "ref:regon": "000705380",
                "operator": "Ministerstwo Kultury I Dziedzictwa Narodowego",
                "operator:type": "public",
                "amenity": "music_school"
            }
        },
        {
            "id": 87691,
            "type": "Feature",
            "geometry": {
                "type": "Point",
                "coordinates": [
                    21.00081,
                    53.56892
                ]
            },
            "properties": {
                "ref:rspo": 87691,
                "official_name": "Specjalny O\u015brodek Szkolno-Wychowawczy im. Janusza Korczaka w Szczytnie",
                "name": "Specjalny O\u015brodek Szkolno-Wychowawczy",
                "addr:postcode": "12-100",
                "addr:city": "Szczytno",
                "addr:street": "Janusza Korczaka",
                "addr:housenumber": "4",
                "addr:teryt:simc": 964991,
                "addr:teryt:sym_ul": 9329,
                "phone": "+48 896242106",
                "email": "sosw.szczytno@wp.pl",
                "ref:regon": "511353160",
                "operator": "Powiat Szczycie\u0144ski",
                "operator:type": "government",
                "amenity": "school",
                "note": "Children RSPO: 115473;115474;115476;115477"
            }
        },
        {
            "id": 115473,
            "type": "Feature",
            "geometry": {
                "type": "Point",
                "coordinates": [
                    21.00081,
                    53.568889999999996
                ]
            },
            "properties": {
                "ref:rspo": 115473,
                "official_name": "Przedszkole Przy O\u015brodku Szkolno-Wychowawczym w Szczytnie",
                "name": "Przedszkole Przy O\u015brodku Szkolno-Wychowawczym w Szczytnie",
                "addr:postcode": "12-100",
                "addr:city": "Szczytno",
                "addr:street": "Janusza Korczaka",
                "addr:housenumber": "4",
                "addr:teryt:simc": 964991,
                "addr:teryt:sym_ul": 9329,
                "phone": "+48 896242106",
                "ref:regon": "281136670",
                "operator": "Powiat Szczycie\u0144ski",
                "operator:type": "government",
                "amenity": "kindergarten",
                "note": "Parent RSPO: 87691"
            }
        },
        {
            "id": 115474,
            "type": "Feature",
            "geometry": {
                "type": "Point",
                "coordinates": [
                    21.00081,
                    53.56886
                ]
            },
            "properties": {
                "isced:level": "1;2",
                "ref:rspo": 115474,
                "official_name": "Szko\u0142a Podstawowa Nr 5",
                "name": "Szko\u0142a Podstawowa Nr 5",
                "addr:postcode": "12-100",
                "addr:city": "Szczytno",
                "addr:street": "Janusza Korczaka",
                "addr:housenumber": "4",
                "addr:teryt:simc": 964991,
                "addr:teryt:sym_ul": 9329,
                "phone": "+48 896242106",
                "email": "sosw.szczytno@wp.pl",
                "ref:regon": "519550799",
                "operator": "Powiat Szczycie\u0144ski",
                "operator:type": "government",
                "amenity": "school",
                "note": "Parent RSPO: 87691"
            }
        },
        {
            "id": 115476,
            "type": "Feature",
            "geometry": {
                "type": "Point",
                "coordinates": [
                    21.00081,
                    53.56883
                ]
            },
            "properties": {
                "isced:level": "3",
                "ref:rspo": 115476,
                "official_name": "Bran\u017cowa Szko\u0142a I Stopnia Specjalna",
                "name": "Bran\u017cowa Szko\u0142a I Stopnia Specjalna",
                "addr:postcode": "12-100",
                "addr:city": "Szczytno",
                "addr:street": "Janusza Korczaka",
                "addr:housenumber": "4",
                "addr:teryt:simc": 964991,
                "addr:teryt:sym_ul": 9329,
                "phone": "+48 896242106",
                "ref:regon": "519550807",
                "operator": "Powiat Szczycie\u0144ski",
                "operator:type": "government",
                "amenity": "school",
                "note": "Parent RSPO: 87691"
            }
        },
        {
            "id": 115477,
            "type": "Feature",
            "geometry": {
                "type": "Point",
                "coordinates": [
                    21.00081,
                    53.568799999999996
                ]
            },
            "properties": {
                "ref:rspo": 115477,
                "official_name": "Szko\u0142a Specjalna Przysposabiaj\u0105ca Do Pracy",
                "name": "Szko\u0142a Specjalna Przysposabiaj\u0105ca Do Pracy",
                "addr:postcode": "12-100",
                "addr:city": "Szczytno",
                "addr:street": "Janusza Korczaka",
                "addr:housenumber": "4",
                "addr:teryt:simc": 964991,
                "addr:teryt:sym_ul": 9329,
                "phone": "+48 896242106",
                "ref:regon": "280053090",
                "operator": "Powiat Szczycie\u0144ski",
                "operator:type": "government",
                "amenity": "school",
                "note": "Parent RSPO: 87691"
            }
        },
        {
            "id": 87690,
            "type": "Feature",
            "geometry": {
                "type": "Point",
                "coordinates": [
                    20.99248,
                    53.57004
                ]
            },
            "properties": {
                "ref:rspo": 87690,
                "official_name": "Zesp\u00f3\u0142 Szk\u00f3\u0142 Nr 1 im. Stanis\u0142awa Staszica w Szczytnie",
                "name": "Zesp\u00f3\u0142 Szk\u00f3\u0142 Nr 1",
                "addr:postcode": "12-100",
                "addr:city": "Szczytno",
                "addr:street": "Adama Mickiewicza",
                "addr:housenumber": "10",
                "addr:teryt:simc": 964991,
                "addr:teryt:sym_ul": 12740,
                "phone": "+48 896242838",
                "email": "zs1sekretariat@powiat.szczytno.pl",
                "website": "http:\/\/zs1.powiatszczycienski.pl\/",
                "ref:regon": "000192057",
                "operator": "Powiat Szczycie\u0144ski",
                "operator:type": "government",
                "landuse": "education",
                "fixme": "amenity=school, amenity=college albo landuse=education w zale\u017cno\u015bci od tego, jakie plac\u00f3wki wchodz\u0105 w sk\u0142ad zespo\u0142u. Sprawd\u017a, kiedy stosowa\u0107 amenity=* a kiedy landuse=education.",
                "note": "Children RSPO: 115449;115453;115458;115461;115462"
            }
        },
        {
            "id": 115449,
            "type": "Feature",
            "geometry": {
                "type": "Point",
                "coordinates": [
                    20.99248,
                    53.570009999999996
                ]
            },
            "properties": {
                "isced:level": "3",
                "ref:rspo": 115449,
                "official_name": "Liceum Og\u00f3lnokszta\u0142c\u0105ce",
                "name": "Liceum Og\u00f3lnokszta\u0142c\u0105ce",
                "addr:postcode": "12-100",
                "addr:city": "Szczytno",
                "addr:street": "Adama Mickiewicza",
                "addr:housenumber": "10",
                "addr:teryt:simc": 964991,
                "addr:teryt:sym_ul": 12740,
                "phone": "+48 896242838",
                "email": "zs1sekretariat@powiat.szczytno.pl",
                "website": "http:\/\/zs1.powiatszczycienski",
                "ref:regon": "519479742",
                "operator": "Powiat Szczycie\u0144ski",
                "operator:type": "government",
                "amenity": "school",
                "note": "Parent RSPO: 87690"
            }
        },
        {
            "id": 115453,
            "type": "Feature",
            "geometry": {
                "type": "Point",
                "coordinates": [
                    20.99248,
                    53.56998
                ]
            },
            "properties": {
                "ref:rspo": 115453,
                "official_name": "Centrum Kszta\u0142cenia Zawodowego",
                "name": "Centrum Kszta\u0142cenia Zawodowego",
                "addr:postcode": "12-100",
                "addr:city": "Szczytno",
                "addr:street": "Adama Mickiewicza",
                "addr:housenumber": "10",
                "addr:teryt:simc": 964991,
                "addr:teryt:sym_ul": 12740,
                "phone": "+48 896242838",
                "email": "zs1sekretariat@powiat.szczytno.pl",
                "website": "http:\/\/zs1.powiatszczycienski.pl",
                "ref:regon": "280260913",
                "operator": "Powiat Szczycie\u0144ski",
                "operator:type": "government",
                "fixme": "w zale\u017cno\u015bci od przedmiotu dzia\u0142alno\u015bci (np. amenity=training + training=*, amenity=dancing_school, amenity=language_school, amenity=music_school) albo amenity=school, amenity=college, albo landuse=education w zale\u017cno\u015bci od tego, jakie plac\u00f3wki wchodz\u0105 w sk\u0142ad zespo\u0142u. Sprawd\u017a, kiedy stosowa\u0107 amenity=* a kiedy landuse=education.",
                "note": "Parent RSPO: 87690"
            }
        },
        {
            "id": 115458,
            "type": "Feature",
            "geometry": {
                "type": "Point",
                "coordinates": [
                    20.99248,
                    53.56995
                ]
            },
            "properties": {
                "isced:level": "3",
                "ref:rspo": 115458,
                "official_name": "Technikum",
                "name": "Technikum",
                "addr:postcode": "12-100",
                "addr:city": "Szczytno",
                "addr:street": "Adama Mickiewicza",
                "addr:housenumber": "10",
                "addr:teryt:simc": 964991,
                "addr:teryt:sym_ul": 12740,
                "phone": "+48 896242838",
                "email": "zs1sekretariat@powiat.szczytno.pl",
                "website": "http:\/\/zs1.powiatszczycienski.pl",
                "ref:regon": "519479794",
                "operator": "Powiat Szczycie\u0144ski",
                "operator:type": "government",
                "amenity": "school",
                "note": "Parent RSPO: 87690"
            }
        },
        {
            "id": 115461,
            "type": "Feature",
            "geometry": {
                "type": "Point",
                "coordinates": [
                    20.99248,
                    53.569919999999996
                ]
            },
            "properties": {
                "isced:level": "3",
                "ref:rspo": 115461,
                "official_name": "Liceum Og\u00f3lnokszta\u0142c\u0105ce dla Doros\u0142ych",
                "name": "Liceum Og\u00f3lnokszta\u0142c\u0105ce dla Doros\u0142ych",
                "addr:postcode": "12-100",
                "addr:city": "Szczytno",
                "addr:street": "Adama Mickiewicza",
                "addr:housenumber": "10",
                "addr:teryt:simc": 964991,
                "addr:teryt:sym_ul": 12740,
                "phone": "+48 896242838",
                "email": "zs1sekretariat@powiat.szczytno.pl",
                "website": "http:\/\/zs1.powiatszczycienski.pl",
                "ref:regon": "519629555",
                "operator": "Powiat Szczycie\u0144ski",
                "operator:type": "government",
                "amenity": "school",
                "note": "Parent RSPO: 87690"
            }
        },
        {
            "id": 115462,
            "type": "Feature",
            "geometry": {
                "type": "Point",
                "coordinates": [
                    20.99248,
                    53.56989
                ]
            },
            "properties": {
                "isced:level": "3",
                "ref:rspo": 115462,
                "official_name": "Bran\u017cowa Szko\u0142a I Stopnia w Szczytnie",
                "name": "Bran\u017cowa Szko\u0142a I Stopnia w Szczytnie",
                "addr:postcode": "12-100",
                "addr:city": "Szczytno",
                "addr:street": "Adama Mickiewicza",
                "addr:housenumber": "10",
                "addr:teryt:simc": 964991,
                "addr:teryt:sym_ul": 12740,
                "phone": "+48 896242838",
                "email": "zs1sekretariat@powiat.szczytno.pl",
                "website": "http:\/\/zs1.powiatszczycienski.pl",
                "ref:regon": "519461848",
                "operator": "Powiat Szczycie\u0144ski",
                "operator:type": "government",
                "amenity": "school",
                "note": "Parent RSPO: 87690"
            }
        },
        {
            "id": 30523,
            "type": "Feature",
            "geometry": {
                "type": "Point",
                "coordinates": [
                    20.99463,
                    53.5703
                ]
            },
            "properties": {
                "ref:rspo": 30523,
                "official_name": "Miejskie Przedszkole Z Oddzia\u0142ami Integracyjnymi Nr 3 \"Promyczek\"",
                "name": "Miejskie Przedszkole Z Oddzia\u0142ami Integracyjnymi Nr 3 \"Promyczek\"",
                "addr:postcode": "12-100",
                "addr:city": "Szczytno",
                "addr:street": "Marii Konopnickiej",
                "addr:housenumber": "70",
                "addr:teryt:simc": 964991,
                "addr:teryt:sym_ul": 9186,
                "phone": "+48 896760880",
                "email": "mp3@um.szczytno.pl",
                "website": "http:\/\/mp3.bip.um.szczytno.pl\/public\/",
                "ref:regon": "510563412",
                "ref:vatin": "PL7451628796",
                "operator": "Gmina Miejska Szczytno",
                "operator:type": "government",
                "amenity": "kindergarten"
            }
        },
        {
            "id": 27942,
            "type": "Feature",
            "geometry": {
                "type": "Point",
                "coordinates": [
                    20.99661,
                    53.57127
                ]
            },
            "properties": {
                "isced:level": "1;2",
                "ref:rspo": 27942,
                "official_name": "Szko\u0142a Podstawowa Z Oddzia\u0142ami Integracyjnymi Nr 2 im. Wojciecha K\u0119trzy\u0144skiego",
                "name": "Szko\u0142a Podstawowa Z Oddzia\u0142ami Integracyjnymi Nr 2",
                "addr:postcode": "12-100",
                "addr:city": "Szczytno",
                "addr:street": "Wojciecha K\u0119trzy\u0144skiego",
                "addr:housenumber": "6",
                "addr:teryt:simc": 964991,
                "addr:teryt:sym_ul": 8360,
                "phone": "+48 896760890",
                "email": "sp2@um.szczytno.pl",
                "website": "http:\/\/spzoi2.republika.pl\/pracownicy.html",
                "ref:regon": "000707455",
                "ref:vatin": "PL7451026034",
                "operator": "Gmina Miejska Szczytno",
                "operator:type": "government",
                "amenity": "school"
            }
        }
    ]
}