{
    "type": "FeatureCollection",
    "features": [
        {
            "id": 79262,
            "type": "Feature",
            "geometry": {
                "type": "Point",
                "coordinates": [
                    21.13631,
                    53.46294
                ]
            },
            "properties": {
                "ref:rspo": 79262,
                "official_name": "Gminne Przedszkole w Lipowcu \"Jasia I Ma\u0142gosi\"",
                "name": "Gminne Przedszkole w Lipowcu \"Jasia I Ma\u0142gosi\"",
                "addr:postcode": "12-100",
                "addr:place": "Lipowiec",
                "addr:housenumber": "15",
                "addr:teryt:simc": 489283,
                "phone": "+48 896220030",
                "email": "gp.lipowiec@ug.szczytno.pl",
                "ref:regon": "511350180",
                "ref:vatin": "PL7451743592",
                "operator": "Gmina Szczytno",
                "operator:type": "government",
                "amenity": "kindergarten"
            }
        },
        {
            "id": 277768,
            "type": "Feature",
            "geometry": {
                "type": "Point",
                "coordinates": [
                    21.13813,
                    53.46573
                ]
            },
            "properties": {
                "ref:rspo": 277768,
                "official_name": "Zespo\u0142u Szkolno-Przedszkolnego w Lipowcu",
                "name": "Zespo\u0142u Szkolno-Przedszkolnego w Lipowcu",
                "addr:postcode": "12-100",
                "addr:place": "Lipowiec",
                "addr:housenumber": "48",
                "addr:teryt:simc": 489283,
                "phone": "+48 896220027",
                "email": "zsp.lipowiec@ug.szczytno.pl",
                "ref:regon": "389463106",
                "ref:vatin": "PL7451856238",
                "operator": "Gmina Szczytno",
                "operator:type": "government",
                "landuse": "education",
                "fixme": "amenity=school, amenity=college albo landuse=education w zale\u017cno\u015bci od tego, jakie plac\u00f3wki wchodz\u0105 w sk\u0142ad zespo\u0142u. Sprawd\u017a, kiedy stosowa\u0107 amenity=* a kiedy landuse=education.",
                "note": "Children RSPO: 84416;277767"
            }
        },
        {
            "id": 84416,
            "type": "Feature",
            "geometry": {
                "type": "Point",
                "coordinates": [
                    21.13813,
                    53.4657
                ]
            },
            "properties": {
                "isced:level": "1;2",
                "ref:rspo": 84416,
                "official_name": "Szko\u0142a Podstawowa im.konstantego Ildefonsa Ga\u0142czy\u0144skiego w Lipowcu",
                "name": "Szko\u0142a Podstawowa im.konstantego Ildefonsa Ga\u0142czy\u0144skiego w Lipowcu",
                "addr:postcode": "12-100",
                "addr:place": "Lipowiec",
                "addr:housenumber": "48",
                "addr:teryt:simc": 489283,
                "phone": "+48 896220027",
                "email": "zsp.lipowiec@ug.szczytno.pl",
                "ref:regon": "519564962",
                "ref:vatin": "PL7451743623",
                "operator": "Gmina Szczytno",
                "operator:type": "government",
                "amenity": "school",
                "note": "Parent RSPO: 277768"
            }
        },
        {
            "id": 277767,
            "type": "Feature",
            "geometry": {
                "type": "Point",
                "coordinates": [
                    21.13813,
                    53.46567
                ]
            },
            "properties": {
                "ref:rspo": 277767,
                "official_name": "Gminne Przedszkole w Lipowcu",
                "name": "Gminne Przedszkole w Lipowcu",
                "addr:postcode": "12-100",
                "addr:place": "Lipowiec",
                "addr:housenumber": "48",
                "addr:teryt:simc": 489283,
                "phone": "+48 896220027",
                "email": "zsp.lipowiec@ug.szczytno.pl",
                "ref:regon": "389462644",
                "operator": "Gmina Szczytno",
                "operator:type": "government",
                "amenity": "kindergarten",
                "note": "Parent RSPO: 277768"
            }
        },
        {
            "id": 80053,
            "type": "Feature",
            "geometry": {
                "type": "Point",
                "coordinates": [
                    20.96175,
                    53.4853
                ]
            },
            "properties": {
                "isced:level": "1;2",
                "ref:rspo": 80053,
                "official_name": "Szko\u0142a Podstawowa im. Miko\u0142aja Kopernika w Szymanach",
                "name": "Szko\u0142a Podstawowa",
                "addr:postcode": "12-100",
                "addr:place": "Szymany",
                "addr:housenumber": "21",
                "addr:teryt:simc": 489538,
                "phone": "+48 896221153",
                "email": "sp.szymany@ug.szczytno.pl",
                "ref:regon": "519460263",
                "ref:vatin": "PL7451743652",
                "operator": "Gmina Szczytno",
                "operator:type": "government",
                "amenity": "school"
            }
        },
        {
            "id": 79261,
            "type": "Feature",
            "geometry": {
                "type": "Point",
                "coordinates": [
                    20.96923,
                    53.50324
                ]
            },
            "properties": {
                "ref:rspo": 79261,
                "official_name": "Gminne Przedszkole w Nowinach",
                "name": "Gminne Przedszkole w Nowinach",
                "addr:postcode": "12-100",
                "addr:place": "Nowiny",
                "addr:housenumber": "30",
                "addr:teryt:simc": 489350,
                "phone": "+48 896221159",
                "email": "gp.nowiny@ug.szczytno.pl",
                "ref:regon": "511350204",
                "ref:vatin": "PL7451743675",
                "operator": "Gmina Szczytno",
                "operator:type": "government",
                "amenity": "kindergarten"
            }
        },
        {
            "id": 79266,
            "type": "Feature",
            "geometry": {
                "type": "Point",
                "coordinates": [
                    21.17019,
                    53.50651
                ]
            },
            "properties": {
                "ref:rspo": 79266,
                "official_name": "Niepubliczny Zesp\u00f3\u0142 Szkolno-Przedszkolny w Gawrzyja\u0142kach",
                "name": "Niepubliczny Zesp\u00f3\u0142 Szkolno-Przedszkolny w Gawrzyja\u0142kach",
                "addr:postcode": "12-100",
                "addr:place": "Gawrzyja\u0142ki",
                "addr:housenumber": "26",
                "addr:teryt:simc": 489120,
                "phone": "+48 896220039",
                "email": "nsp_gawrzyjalki@poczta.onet.pl",
                "ref:regon": "281444934",
                "ref:vatin": "PL7451189167",
                "operator": "Alicja Chmieli\u0144ska",
                "operator:type": "private",
                "landuse": "education",
                "fixme": "amenity=school, amenity=college albo landuse=education w zale\u017cno\u015bci od tego, jakie plac\u00f3wki wchodz\u0105 w sk\u0142ad zespo\u0142u. Sprawd\u017a, kiedy stosowa\u0107 amenity=* a kiedy landuse=education.",
                "note": "Children RSPO: 88205;88209"
            }
        },
        {
            "id": 88205,
            "type": "Feature",
            "geometry": {
                "type": "Point",
                "coordinates": [
                    21.17019,
                    53.506479999999996
                ]
            },
            "properties": {
                "ref:rspo": 88205,
                "official_name": "Niepubliczne Przedszkole w Gawrzyja\u0142kach",
                "name": "Niepubliczne Przedszkole w Gawrzyja\u0142kach",
                "addr:postcode": "12-100",
                "addr:place": "Gawrzyja\u0142ki",
                "addr:housenumber": "26",
                "addr:teryt:simc": 489120,
                "phone": "+48 896220039",
                "email": "nsp_gawrzyjalki@poczta.onet.pl",
                "ref:regon": "281448317",
                "ref:vatin": "PL7451189167",
                "operator": "Alicja Chmieli\u0144ska",
                "operator:type": "private",
                "amenity": "kindergarten",
                "note": "Parent RSPO: 79266"
            }
        },
        {
            "id": 88209,
            "type": "Feature",
            "geometry": {
                "type": "Point",
                "coordinates": [
                    21.17019,
                    53.50645
                ]
            },
            "properties": {
                "isced:level": "1;2",
                "ref:rspo": 88209,
                "official_name": "Niepubliczna Szko\u0142a Podstawowa w Gawrzyja\u0142kach",
                "name": "Niepubliczna Szko\u0142a Podstawowa w Gawrzyja\u0142kach",
                "addr:postcode": "12-100",
                "addr:place": "Gawrzyja\u0142ki",
                "addr:housenumber": "26",
                "addr:teryt:simc": 489120,
                "phone": "+48 896220039",
                "email": "nsp_gawrzyjalki@poczta.onet.pl",
                "ref:regon": "281448346",
                "ref:vatin": "PL7451189167",
                "operator": "Alicja Chmieli\u0144ska",
                "operator:type": "private",
                "amenity": "school",
                "note": "Parent RSPO: 79266"
            }
        },
        {
            "id": 64922,
            "type": "Feature",
            "geometry": {
                "type": "Point",
                "coordinates": [
                    21.03893,
                    53.53032
                ]
            },
            "properties": {
                "isced:level": "1;2",
                "ref:rspo": 64922,
                "official_name": "Szko\u0142a Podstawowa w Rudce",
                "name": "Szko\u0142a Podstawowa w Rudce",
                "addr:postcode": "12-100",
                "addr:place": "Rudka",
                "addr:housenumber": "10",
                "addr:teryt:simc": 489432,
                "phone": "+48 896243057",
                "email": "sp.rudka@ug.szczytno.pl",
                "ref:regon": "001209452",
                "ref:vatin": "PL7451743600",
                "operator": "Gmina Szczytno",
                "operator:type": "government",
                "amenity": "school"
            }
        },
        {
            "id": 79263,
            "type": "Feature",
            "geometry": {
                "type": "Point",
                "coordinates": [
                    21.017349243164,
                    53.542846679688
                ]
            },
            "properties": {
                "isced:level": "1;2",
                "ref:rspo": 79263,
                "official_name": "Szko\u0142a Podstawowa w Wawrochach",
                "name": "Szko\u0142a Podstawowa w Wawrochach",
                "addr:postcode": "12-100",
                "addr:place": "Wawrochy",
                "addr:housenumber": "12",
                "addr:teryt:simc": 489596,
                "phone": "+48 896243108",
                "email": "sp.wawrochy@ug.szczytno.pl",
                "ref:regon": "001209475",
                "ref:vatin": "PL7451743669",
                "operator": "Gmina Szczytno",
                "operator:type": "government",
                "amenity": "school"
            }
        },
        {
            "id": 84491,
            "type": "Feature",
            "geometry": {
                "type": "Point",
                "coordinates": [
                    21.10987,
                    53.55767
                ]
            },
            "properties": {
                "isced:level": "1;2",
                "ref:rspo": 84491,
                "official_name": "Szko\u0142a Podstawowa w Olszynach",
                "name": "Szko\u0142a Podstawowa w Olszynach",
                "addr:postcode": "12-100",
                "addr:place": "Olszyny",
                "addr:housenumber": "30",
                "addr:teryt:simc": 489366,
                "phone": "+48 896241626",
                "email": "sp.olszyny@ug.szczytno.pl",
                "ref:regon": "519473426",
                "ref:vatin": "PL7451743617",
                "operator": "Gmina Szczytno",
                "operator:type": "government",
                "amenity": "school"
            }
        },
        {
            "id": 277766,
            "type": "Feature",
            "geometry": {
                "type": "Point",
                "coordinates": [
                    20.97219,
                    53.57498
                ]
            },
            "properties": {
                "ref:rspo": 277766,
                "official_name": "Gminne Przedszkole w Kamionku \u201eJasia I Ma\u0142gosi\u201d",
                "name": "Gminne Przedszkole w Kamionku \u201eJasia I Ma\u0142gosi\u201d",
                "addr:postcode": "12-100",
                "addr:place": "Kamionek",
                "addr:housenumber": "1",
                "addr:teryt:simc": 489188,
                "phone": "+48 896245013",
                "email": "gp.kamionek@ug.szczytno.pl",
                "ref:regon": "389462638",
                "ref:vatin": "PL7451856244",
                "operator": "Gmina Szczytno",
                "operator:type": "government",
                "amenity": "kindergarten"
            }
        },
        {
            "id": 79265,
            "type": "Feature",
            "geometry": {
                "type": "Point",
                "coordinates": [
                    20.99832,
                    53.6027
                ]
            },
            "properties": {
                "ref:rspo": 79265,
                "official_name": "Niepubliczny Zesp\u00f3\u0142 Szkolno-Przedszkolny w Romanach",
                "name": "Niepubliczny Zesp\u00f3\u0142 Szkolno-Przedszkolny w Romanach",
                "addr:postcode": "12-100",
                "addr:place": "Romany",
                "addr:housenumber": "20B",
                "addr:teryt:simc": 489426,
                "phone": "+48 896242704",
                "email": "szkolaromany@poczta.onet.pl",
                "ref:regon": "281444928",
                "ref:vatin": "PL7451189167",
                "operator": "Alicja Chmieli\u0144ska",
                "operator:type": "private",
                "landuse": "education",
                "fixme": "amenity=school, amenity=college albo landuse=education w zale\u017cno\u015bci od tego, jakie plac\u00f3wki wchodz\u0105 w sk\u0142ad zespo\u0142u. Sprawd\u017a, kiedy stosowa\u0107 amenity=* a kiedy landuse=education.",
                "note": "Children RSPO: 88204;88208"
            }
        },
        {
            "id": 88204,
            "type": "Feature",
            "geometry": {
                "type": "Point",
                "coordinates": [
                    20.99832,
                    53.602669999999996
                ]
            },
            "properties": {
                "ref:rspo": 88204,
                "official_name": "Niepubliczne Przedszkole w Romanach",
                "name": "Niepubliczne Przedszkole w Romanach",
                "addr:postcode": "12-100",
                "addr:place": "Romany",
                "addr:housenumber": "20B",
                "addr:teryt:simc": 489426,
                "phone": "+48 896242704",
                "email": "szkolaromany@poczta.onet.pl",
                "ref:regon": "281448300",
                "ref:vatin": "PL7451189167",
                "operator": "Alicja Chmieli\u0144ska",
                "operator:type": "private",
                "amenity": "kindergarten",
                "note": "Parent RSPO: 79265"
            }
        },
        {
            "id": 88208,
            "type": "Feature",
            "geometry": {
                "type": "Point",
                "coordinates": [
                    20.99832,
                    53.60264
                ]
            },
            "properties": {
                "isced:level": "1;2",
                "ref:rspo": 88208,
                "official_name": "Niepubliczna Szko\u0142a Podstawowa w Romanach",
                "name": "Niepubliczna Szko\u0142a Podstawowa w Romanach",
                "addr:postcode": "12-100",
                "addr:place": "Romany",
                "addr:housenumber": "20B",
                "addr:teryt:simc": 489426,
                "phone": "+48 896242704",
                "email": "szkolaromany@poczta.onet.pl",
                "ref:regon": "281448330",
                "ref:vatin": "PL7451189167",
                "operator": "Alicja Chmieli\u0144ska",
                "operator:type": "private",
                "amenity": "school",
                "note": "Parent RSPO: 79265"
            }
        },
        {
            "id": 79264,
            "type": "Feature",
            "geometry": {
                "type": "Point",
                "coordinates": [
                    20.98116,
                    53.63047
                ]
            },
            "properties": {
                "ref:rspo": 79264,
                "official_name": "Niepubliczny Zesp\u00f3\u0142 Szkolno-Przedszkolny im. Wandy Chotomskiej w Trelkowie",
                "name": "Niepubliczny Zesp\u00f3\u0142 Szkolno-Przedszkolny",
                "addr:postcode": "12-100",
                "addr:place": "Trelkowo",
                "addr:housenumber": "1",
                "addr:teryt:simc": 489550,
                "phone": "+48 896211474",
                "email": "trelkowo@poczta.onet.pl",
                "ref:regon": "281444911",
                "ref:vatin": "PL7451189167",
                "operator": "Alicja Chmieli\u0144ska",
                "operator:type": "private",
                "landuse": "education",
                "fixme": "amenity=school, amenity=college albo landuse=education w zale\u017cno\u015bci od tego, jakie plac\u00f3wki wchodz\u0105 w sk\u0142ad zespo\u0142u. Sprawd\u017a, kiedy stosowa\u0107 amenity=* a kiedy landuse=education.",
                "note": "Children RSPO: 88203;88207"
            }
        },
        {
            "id": 88203,
            "type": "Feature",
            "geometry": {
                "type": "Point",
                "coordinates": [
                    20.98116,
                    53.63044
                ]
            },
            "properties": {
                "ref:rspo": 88203,
                "official_name": "Niepubliczne Przedszkole w Trelkowie",
                "name": "Niepubliczne Przedszkole w Trelkowie",
                "addr:postcode": "12-100",
                "addr:place": "Trelkowo",
                "addr:housenumber": "1",
                "addr:teryt:simc": 489550,
                "phone": "+48 896211474",
                "email": "trelkowo@poczta.onet.pl",
                "ref:regon": "281448286",
                "ref:vatin": "PL7451189167",
                "operator": "Alicja Chmieli\u0144ska",
                "operator:type": "private",
                "amenity": "kindergarten",
                "note": "Parent RSPO: 79264"
            }
        },
        {
            "id": 88207,
            "type": "Feature",
            "geometry": {
                "type": "Point",
                "coordinates": [
                    20.98116,
                    53.630410000000005
                ]
            },
            "properties": {
                "isced:level": "1;2",
                "ref:rspo": 88207,
                "official_name": "Niepubliczna Szko\u0142a Podstawowa im. Wandy Chotomskiej w Trelkowie",
                "name": "Niepubliczna Szko\u0142a Podstawowa",
                "addr:postcode": "12-100",
                "addr:place": "Trelkowo",
                "addr:housenumber": "1",
                "addr:teryt:simc": 489550,
                "phone": "+48 896211474",
                "email": "trelkowo@poczta.onet.pl",
                "ref:regon": "281448323",
                "ref:vatin": "PL7451189167",
                "operator": "Alicja Chmieli\u0144ska",
                "operator:type": "private",
                "amenity": "school",
                "note": "Parent RSPO: 79264"
            }
        }
    ]
}