{
    "type": "FeatureCollection",
    "features": [
        {
            "id": 4297,
            "type": "Feature",
            "geometry": {
                "type": "Point",
                "coordinates": [
                    21.06978,
                    53.6770799
                ]
            },
            "properties": {
                "ref:rspo": 4297,
                "official_name": "Zesp\u00f3\u0142 Szkolno-Przedszkolny im. Ziemi Mazurskiej w Orzynach",
                "name": "Zesp\u00f3\u0142 Szkolno-Przedszkolny",
                "addr:postcode": "12-120",
                "addr:place": "Orzyny",
                "addr:housenumber": "34",
                "addr:city:simc": 473388,
                "phone": "+48 896211503",
                "email": "szkola-orzyny@wp.pl",
                "ref:regon": "281420589",
                "operator": "Gmina D\u017awierzuty",
                "operator:type": "government",
                "landuse": "education",
                "fixme": "amenity=school, amenity=college albo landuse=education w zale\u017cno\u015bci od tego, jakie plac\u00f3wki wchodz\u0105 w sk\u0142ad zespo\u0142u. Sprawd\u017a, kiedy stosowa\u0107 amenity=* a kiedy landuse=education.",
                "note": "Children RSPO: 5236;5257"
            }
        },
        {
            "id": 5236,
            "type": "Feature",
            "geometry": {
                "type": "Point",
                "coordinates": [
                    21.06978,
                    53.6770499
                ]
            },
            "properties": {
                "isced:level": "1;2",
                "ref:rspo": 5236,
                "official_name": "Szko\u0142a Podstawowa w Orzynach",
                "name": "Szko\u0142a Podstawowa w Orzynach",
                "addr:postcode": "12-120",
                "addr:place": "Orzyny",
                "addr:housenumber": "34",
                "addr:city:simc": 473388,
                "phone": "+48 896211503",
                "email": "szkola-orzyny@wp.pl",
                "ref:regon": "001125761",
                "ref:vatin": "PL7451776887",
                "operator": "Gmina D\u017awierzuty",
                "operator:type": "government",
                "amenity": "school",
                "note": "Parent RSPO: 4297"
            }
        },
        {
            "id": 5257,
            "type": "Feature",
            "geometry": {
                "type": "Point",
                "coordinates": [
                    21.06744,
                    53.67781
                ]
            },
            "properties": {
                "ref:rspo": 5257,
                "official_name": "Publiczne Przedszkole w Orzynach",
                "name": "Publiczne Przedszkole w Orzynach",
                "addr:postcode": "12-120",
                "addr:place": "Orzyny",
                "addr:housenumber": "47",
                "addr:city:simc": 473388,
                "phone": "+48 896211465",
                "ref:regon": "519482655",
                "ref:vatin": "PL7451776858",
                "operator": "Gmina D\u017awierzuty",
                "operator:type": "government",
                "amenity": "kindergarten",
                "note": "Parent RSPO: 4297"
            }
        },
        {
            "id": 4293,
            "type": "Feature",
            "geometry": {
                "type": "Point",
                "coordinates": [
                    20.96074,
                    53.70287
                ]
            },
            "properties": {
                "ref:rspo": 4293,
                "official_name": "Zesp\u00f3\u0142 Szkolno-Przedszkolny w D\u017awierzutach",
                "name": "Zesp\u00f3\u0142 Szkolno-Przedszkolny w D\u017awierzutach",
                "addr:postcode": "12-120",
                "addr:city": "D\u017awierzuty",
                "addr:street": "Henryka Sienkiewicza",
                "addr:housenumber": "2A",
                "addr:city:simc": 473164,
                "addr:street:sym_ul": 19834,
                "phone": "+48 896211216",
                "email": "szkola_dzwierzuty@wp.pl",
                "ref:regon": "281420572",
                "operator": "Gmina D\u017awierzuty",
                "operator:type": "government",
                "landuse": "education",
                "fixme": "amenity=school, amenity=college albo landuse=education w zale\u017cno\u015bci od tego, jakie plac\u00f3wki wchodz\u0105 w sk\u0142ad zespo\u0142u. Sprawd\u017a, kiedy stosowa\u0107 amenity=* a kiedy landuse=education.",
                "note": "Children RSPO: 4542;5252"
            }
        },
        {
            "id": 4542,
            "type": "Feature",
            "geometry": {
                "type": "Point",
                "coordinates": [
                    20.96074,
                    53.702839999999995
                ]
            },
            "properties": {
                "isced:level": "1;2",
                "ref:rspo": 4542,
                "official_name": "Szko\u0142a Podstawowa im. Bogumi\u0142a Linki w D\u017awierzutach",
                "name": "Szko\u0142a Podstawowa",
                "addr:postcode": "12-120",
                "addr:city": "D\u017awierzuty",
                "addr:street": "Henryka Sienkiewicza",
                "addr:housenumber": "2A",
                "addr:city:simc": 473164,
                "addr:street:sym_ul": 19834,
                "phone": "+48 896211216",
                "email": "szkola_dzwierzuty@wp.pl",
                "website": "http:\/\/www.zspdzwierzuty.pl",
                "ref:regon": "000584231",
                "ref:vatin": "PL7451776864",
                "operator": "Gmina D\u017awierzuty",
                "operator:type": "government",
                "amenity": "school",
                "note": "Parent RSPO: 4293"
            }
        },
        {
            "id": 5252,
            "type": "Feature",
            "geometry": {
                "type": "Point",
                "coordinates": [
                    20.96074,
                    53.70281
                ]
            },
            "properties": {
                "ref:rspo": 5252,
                "official_name": "Publiczne Przedszkole w D\u017awierzutach",
                "name": "Publiczne Przedszkole w D\u017awierzutach",
                "addr:postcode": "12-120",
                "addr:city": "D\u017awierzuty",
                "addr:street": "Henryka Sienkiewicza",
                "addr:housenumber": "2A",
                "addr:city:simc": 473164,
                "addr:street:sym_ul": 19834,
                "phone": "+48 896211247",
                "ref:regon": "519481957",
                "ref:vatin": "PL7451776924",
                "operator": "Gmina D\u017awierzuty",
                "operator:type": "government",
                "amenity": "kindergarten",
                "note": "Parent RSPO: 4293"
            }
        },
        {
            "id": 119750,
            "type": "Feature",
            "geometry": {
                "type": "Point",
                "coordinates": [
                    21.07015,
                    53.71887
                ]
            },
            "properties": {
                "isced:level": "1;2",
                "ref:rspo": 119750,
                "official_name": "Szko\u0142a Podstawowa w Ka\u0142\u0119czynie",
                "name": "Szko\u0142a Podstawowa w Ka\u0142\u0119czynie",
                "addr:postcode": "12-120",
                "addr:place": "Ka\u0142\u0119czyn",
                "addr:housenumber": "17",
                "addr:city:simc": 473299,
                "phone": "+48 896240474",
                "email": "kaleczynszkola@wp.pl",
                "website": "http:\/\/spkaleczyn.pl",
                "ref:regon": "281529240",
                "operator": "Stowarzyszenie Konik Na Biegunach",
                "operator:type": "ngo",
                "amenity": "school"
            }
        },
        {
            "id": 8639,
            "type": "Feature",
            "geometry": {
                "type": "Point",
                "coordinates": [
                    20.9226,
                    53.76087
                ]
            },
            "properties": {
                "isced:level": "1;2",
                "ref:rspo": 8639,
                "official_name": "Szko\u0142a Podstawowa w Rumach",
                "name": "Szko\u0142a Podstawowa w Rumach",
                "addr:postcode": "12-120",
                "addr:place": "Rumy",
                "addr:housenumber": "19",
                "addr:city:simc": 473454,
                "phone": "+48 896211304",
                "email": "szkola-rumy@wp.pl",
                "ref:regon": "001125778",
                "ref:vatin": "PL7451776870",
                "operator": "Gmina D\u017awierzuty",
                "operator:type": "government",
                "amenity": "school"
            }
        }
    ]
}