{
    "type": "FeatureCollection",
    "features": [
        {
            "id": 50264,
            "type": "Feature",
            "geometry": {
                "type": "Point",
                "coordinates": [
                    21.16626,
                    53.54441
                ]
            },
            "properties": {
                "isced:level": "1;2",
                "ref:rspo": 50264,
                "official_name": "Szko\u0142a Podstawowa im. Kornela Makuszy\u0144skiego w Jerutach",
                "name": "Szko\u0142a Podstawowa",
                "addr:country": "PL",
                "addr:postcode": "12-140",
                "addr:place": "Jeruty",
                "addr:housenumber": "41",
                "addr:teryt:sym_ul": 489930,
                "contact:phone": "+48 896226635",
                "contact:email": "s.p.jeruty@poczta.fm",
                "ref:regon": "001209044",
                "ref:vatin": "PL7451844554",
                "operator": "Gmina \u015awi\u0119tajno",
                "operator:type": "government",
                "amenity": "school"
            }
        },
        {
            "id": 74213,
            "type": "Feature",
            "geometry": {
                "type": "Point",
                "coordinates": [
                    20.787902832031,
                    53.545383453369
                ]
            },
            "properties": {
                "ref:rspo": 74213,
                "official_name": "Przedszkole Samorz\u0105dowe Akademia Bajek w \u015awi\u0119tajnie",
                "name": "Przedszkole Samorz\u0105dowe Akademia Bajek w \u015awi\u0119tajnie",
                "addr:country": "PL",
                "addr:postcode": "12-140",
                "addr:city": "\u015awi\u0119tajno",
                "addr:street": "ul. Parkowa",
                "addr:housenumber": "48",
                "addr:teryt:simc": 15710,
                "addr:teryt:sym_ul": 490145,
                "contact:phone": "+48 690525396",
                "contact:email": "przedszkoleswietajno@gmail.com",
                "ref:regon": "519573381",
                "ref:vatin": "PL7451852559",
                "operator": "Gmina \u015awi\u0119tajno",
                "operator:type": "government",
                "amenity": "kindergarten"
            }
        },
        {
            "id": 74223,
            "type": "Feature",
            "geometry": {
                "type": "Point",
                "coordinates": [
                    20.787902832031,
                    53.545353453368996
                ]
            },
            "properties": {
                "isced:level": "1;2",
                "ref:rspo": 74223,
                "official_name": "Szko\u0142a Podstawowa Imienia Ignacego Krasickiego w \u015awi\u0119tajnie",
                "name": "Szko\u0142a Podstawowa Imienia Ignacego Krasickiego w \u015awi\u0119tajnie",
                "addr:country": "PL",
                "addr:postcode": "12-140",
                "addr:city": "\u015awi\u0119tajno",
                "addr:street": "ul. M\u0142odzie\u017cowa",
                "addr:housenumber": "2",
                "addr:teryt:simc": 13096,
                "addr:teryt:sym_ul": 490145,
                "contact:phone": "+48 896226077",
                "contact:email": "zspswietajno@gmail.com",
                "ref:regon": "000586750",
                "ref:vatin": "PL7451852542",
                "operator": "Gmina \u015awi\u0119tajno",
                "operator:type": "government",
                "amenity": "school"
            }
        },
        {
            "id": 272945,
            "type": "Feature",
            "geometry": {
                "type": "Point",
                "coordinates": [
                    20.787902832031,
                    53.545323453369
                ]
            },
            "properties": {
                "isced:level": "3",
                "ref:rspo": 272945,
                "official_name": "Zaoczne Liceum Og\u00f3lnokszta\u0142c\u0105ce w \u015awietajnie",
                "name": "Zaoczne Liceum Og\u00f3lnokszta\u0142c\u0105ce w \u015awietajnie",
                "addr:country": "PL",
                "addr:postcode": "12-140",
                "addr:city": "\u015awi\u0119tajno",
                "addr:street": "ul. M\u0142odzie\u017cowa",
                "addr:housenumber": "2",
                "addr:teryt:simc": 13096,
                "addr:teryt:sym_ul": 490145,
                "contact:email": "marcin_matusiak111@wp.pl",
                "ref:regon": "384331423",
                "ref:vatin": "PL8471550922",
                "operator": "Marcin Matusiak",
                "operator:type": "private",
                "amenity": "school"
            }
        },
        {
            "id": 87827,
            "type": "Feature",
            "geometry": {
                "type": "Point",
                "coordinates": [
                    21.21955,
                    53.5639899
                ]
            },
            "properties": {
                "isced:level": "3",
                "ref:rspo": 87827,
                "official_name": "Liceum Og\u00f3lnokszta\u0142c\u0105ce dla Doros\u0142ych w \u015awi\u0119tajnie",
                "name": "Liceum Og\u00f3lnokszta\u0142c\u0105ce dla Doros\u0142ych w \u015awi\u0119tajnie",
                "addr:country": "PL",
                "addr:postcode": "12-140",
                "addr:city": "\u015awi\u0119tajno",
                "addr:street": "ul. Adama Mickiewicza",
                "addr:housenumber": "13",
                "addr:teryt:simc": 12740,
                "addr:teryt:sym_ul": 490145,
                "contact:phone": "+48 896226145",
                "ref:regon": "281451130",
                "operator": "Dane Do Uzupe\u0142nienia",
                "operator:type": "private",
                "amenity": "school"
            }
        },
        {
            "id": 50265,
            "type": "Feature",
            "geometry": {
                "type": "Point",
                "coordinates": [
                    21.26943,
                    53.57457
                ]
            },
            "properties": {
                "isced:level": "1;2",
                "ref:rspo": 50265,
                "official_name": "Szko\u0142a Podstawowa im. Jana Paw\u0142a II w Kolonii",
                "name": "Szko\u0142a Podstawowa",
                "addr:country": "PL",
                "addr:postcode": "12-140",
                "addr:place": "Kolonia",
                "addr:housenumber": "71",
                "addr:teryt:sym_ul": 489969,
                "contact:phone": "+48 896226029",
                "contact:email": "spkolonia@op.pl",
                "ref:regon": "001209038",
                "ref:vatin": "PL7451844560",
                "operator": "Gmina \u015awi\u0119tajno",
                "operator:type": "government",
                "amenity": "school"
            }
        },
        {
            "id": 119779,
            "type": "Feature",
            "geometry": {
                "type": "Point",
                "coordinates": [
                    21.13834,
                    53.59171
                ]
            },
            "properties": {
                "ref:rspo": 119779,
                "official_name": "Publiczny Punkt Przedszkolny\n\"Nasza Nadzieja\"\nW Jerutkach",
                "name": "Publiczny Punkt Przedszkolny\n\"Nasza Nadzieja\"\nW Jerutkach",
                "addr:country": "PL",
                "addr:postcode": "12-140",
                "addr:place": "Jerutki",
                "addr:housenumber": "81",
                "addr:teryt:sym_ul": 489923,
                "contact:phone": "+48 604801551",
                "contact:email": "kreolia@wp.pl",
                "ref:regon": "281529694",
                "ref:vatin": "PL7451831698",
                "operator": "Fundacja Na Rzecz Wspierania Rozwoju Kreatywno\u015bci Oraz Rozwoju Tw\u00f3rczo\u015bci Dzieci, M\u0142odzie\u017cy I Doros\u0142ych Kreolia - Kraina Kreatywno\u015bci, Jerutki 81, 12-140 \u015awi\u0119tajno",
                "operator:type": "ngo",
                "amenity": "kindergarten"
            }
        },
        {
            "id": 74214,
            "type": "Feature",
            "geometry": {
                "type": "Point",
                "coordinates": [
                    21.346,
                    53.59841
                ]
            },
            "properties": {
                "isced:level": "1;2",
                "ref:rspo": 74214,
                "official_name": "Szko\u0142a Podstawowa Imienia Marii Zientary Malewskiej w Spychowie",
                "name": "Szko\u0142a Podstawowa Imienia Marii Zientary Malewskiej w Spychowie",
                "addr:country": "PL",
                "addr:postcode": "12-150",
                "addr:city": "Spychowo",
                "addr:street": "ul. Mazurska",
                "addr:housenumber": "5",
                "addr:teryt:simc": 12555,
                "addr:teryt:sym_ul": 490062,
                "contact:phone": "+48 896225081",
                "contact:email": "spspychowo@wp.pl",
                "ref:regon": "001209021",
                "ref:vatin": "PL7451844577",
                "operator": "Gmina \u015awi\u0119tajno",
                "operator:type": "government",
                "amenity": "school"
            }
        }
    ]
}