{
    "type": "FeatureCollection",
    "features": [
        {
            "id": 91151,
            "type": "Feature",
            "geometry": {
                "type": "Point",
                "coordinates": [
                    21.06652,
                    53.39417
                ]
            },
            "properties": {
                "isced:level": "1;2",
                "ref:rspo": 91151,
                "official_name": "Szko\u0142a Podstawowa im. Marii Konopnickiej w \u0141atanej Wielkiej",
                "name": "Szko\u0142a Podstawowa",
                "addr:country": "PL",
                "addr:postcode": "12-160",
                "addr:place": "\u0141atana Wielka",
                "addr:housenumber": "14",
                "addr:teryt:simc": 490292,
                "contact:phone": "+48 896218508",
                "contact:email": "splatana1@wp.pl",
                "contact:website": "http:\/\/www.splatana.edupage.org",
                "ref:regon": "001209311",
                "ref:vatin": "PL7451597363",
                "operator": "Gmina Wielbark",
                "operator:type": "government",
                "amenity": "school"
            }
        },
        {
            "id": 91165,
            "type": "Feature",
            "geometry": {
                "type": "Point",
                "coordinates": [
                    20.94441,
                    53.4044
                ]
            },
            "properties": {
                "isced:level": "1;2",
                "ref:rspo": 91165,
                "official_name": "Szko\u0142a Podstawowa im.kr\u00f3lowej Jadwigi w Wielbarku",
                "name": "Szko\u0142a Podstawowa im.kr\u00f3lowej Jadwigi w Wielbarku",
                "addr:country": "PL",
                "addr:postcode": "12-160",
                "addr:city": "Wielbark",
                "addr:street": "Miko\u0142aja Kopernika",
                "addr:housenumber": "10",
                "addr:teryt:simc": 490470,
                "addr:teryt:sym_ul": 9282,
                "contact:phone": "+48 896218433",
                "contact:email": "spwielbark@wp.pl",
                "contact:website": "http:\/\/www.spwielbark.pl",
                "ref:regon": "000272448",
                "ref:vatin": "PL7451792515",
                "operator": "Gmina Wielbark",
                "operator:type": "government",
                "amenity": "school"
            }
        },
        {
            "id": 91152,
            "type": "Feature",
            "geometry": {
                "type": "Point",
                "coordinates": [
                    20.9457684,
                    53.4075354
                ]
            },
            "properties": {
                "ref:rspo": 91152,
                "official_name": "Przedszkole Samorz\u0105dowe \nIm. Jana Brzechwy \nW Wielbarku",
                "name": "Przedszkole Samorz\u0105dowe \nIm. Jana Brzechwy \nW Wielbarku",
                "addr:country": "PL",
                "addr:postcode": "12-160",
                "addr:city": "Wielbark",
                "addr:street": "Miko\u0142aja Kopernika",
                "addr:housenumber": "47",
                "addr:teryt:simc": 490470,
                "addr:teryt:sym_ul": 9282,
                "contact:phone": "+48 896218041",
                "contact:website": "http:\/\/www.psbrzechwawielbark.edupage.org",
                "ref:regon": "510931092",
                "ref:vatin": "PL7451597481",
                "operator": "Gmina Wielbark",
                "operator:type": "government",
                "amenity": "kindergarten"
            }
        },
        {
            "id": 91150,
            "type": "Feature",
            "geometry": {
                "type": "Point",
                "coordinates": [
                    21.03652,
                    53.45539
                ]
            },
            "properties": {
                "isced:level": "1;2",
                "ref:rspo": 91150,
                "official_name": "Szko\u0142a Podstawowa im. Or\u0142a Bia\u0142ego w Zabielach",
                "name": "Szko\u0142a Podstawowa",
                "addr:country": "PL",
                "addr:postcode": "12-160",
                "addr:place": "Zabiele",
                "addr:housenumber": "4",
                "addr:teryt:simc": 490493,
                "contact:phone": "+48 896218402",
                "contact:email": "spzabiele_xl@wp.pl",
                "contact:website": "http:\/\/spzabiele.edupage.org",
                "ref:regon": "001209340",
                "ref:vatin": "PL7451597469",
                "operator": "Gmina Wielbark",
                "operator:type": "government",
                "amenity": "school"
            }
        },
        {
            "id": 121877,
            "type": "Feature",
            "geometry": {
                "type": "Point",
                "coordinates": [
                    21.017349243164,
                    53.542846679688
                ]
            },
            "properties": {
                "ref:rspo": 121877,
                "official_name": "Niepubliczne Przedszkole \"Akademia Malucha\"",
                "name": "Niepubliczne Przedszkole \"Akademia Malucha\"",
                "addr:country": "PL",
                "addr:postcode": "12-160",
                "addr:place": "Wielbark",
                "addr:housenumber": "29",
                "addr:teryt:simc": 490470,
                "contact:phone": "+48 606905798",
                "contact:email": "przedszkole@akademiamalucha.info",
                "ref:regon": "281565744",
                "ref:vatin": "PL6442792219",
                "operator": "Aneta \u015alusarczyk",
                "operator:type": "private",
                "amenity": "kindergarten"
            }
        }
    ]
}