{
    "type": "FeatureCollection",
    "features": [
        {
            "id": 74383,
            "type": "Feature",
            "geometry": {
                "type": "Point",
                "coordinates": [
                    15.00805,
                    52.58238
                ]
            },
            "properties": {
                "ref:rspo": 74383,
                "official_name": "Przedszkole Gminne Imienia Misia Uszatka w Krzeszycach",
                "name": "Przedszkole Gminne Imienia Misia Uszatka w Krzeszycach",
                "addr:country": "PL",
                "addr:postcode": "66-435",
                "addr:city": "Krzeszyce",
                "addr:street": "Skwierzy\u0144ska",
                "addr:housenumber": "4",
                "addr:teryt:simc": 20189,
                "addr:teryt:sym_ul": 182107,
                "contact:phone": "+48 957573168",
                "contact:email": "pgk_krzeszyce@neostrada.pl",
                "contact:website": "http:\/\/pgk-krzeszyce.edupage.org",
                "ref:regon": "080495999",
                "ref:vatin": "PL4290064995",
                "operator": "Gmina Krzeszyce",
                "operator:type": "government",
                "amenity": "kindergarten"
            }
        },
        {
            "id": 83645,
            "type": "Feature",
            "geometry": {
                "type": "Point",
                "coordinates": [
                    15.00805,
                    52.58235
                ]
            },
            "properties": {
                "isced:level": "1;2",
                "ref:rspo": 83645,
                "official_name": "Szko\u0142a Podstawowa im. Wincentego Witosa w Krzeszycach",
                "name": "Szko\u0142a Podstawowa",
                "addr:country": "PL",
                "addr:postcode": "66-435",
                "addr:city": "Krzeszyce",
                "addr:street": "Skwierzy\u0144ska",
                "addr:housenumber": "4",
                "addr:teryt:simc": 20189,
                "addr:teryt:sym_ul": 182107,
                "contact:phone": "+48 957573118",
                "contact:email": "zsskrzeszyce@interia.pl",
                "contact:website": "http:\/\/zsskrzeszyce.edupage.org",
                "ref:regon": "210039353",
                "ref:vatin": "PL9271831226",
                "operator": "Gmina Krzeszyce",
                "operator:type": "government",
                "amenity": "school"
            }
        },
        {
            "id": 60476,
            "type": "Feature",
            "geometry": {
                "type": "Point",
                "coordinates": [
                    15.11894,
                    52.61188
                ]
            },
            "properties": {
                "ref:rspo": 60476,
                "official_name": "Zesp\u00f3\u0142 Edukacyjny w Ko\u0142czynie",
                "name": "Zesp\u00f3\u0142 Edukacyjny w Ko\u0142czynie",
                "addr:country": "PL",
                "addr:postcode": "66-435",
                "addr:city": "Ko\u0142czyn",
                "addr:street": "Sul\u0119ci\u0144ska",
                "addr:housenumber": "29",
                "addr:teryt:simc": 21550,
                "addr:teryt:sym_ul": 182060,
                "contact:phone": "+48 957574814",
                "contact:email": "spkolczyn@wp.pl",
                "contact:website": "http:\/\/zekolczyn.cba.pl",
                "ref:regon": "081083158",
                "ref:vatin": "PL4290069366",
                "operator": "Gmina Krzeszyce",
                "operator:type": "government",
                "landuse": "education",
                "fixme": "amenity=school, amenity=college albo landuse=education w zale\u017cno\u015bci od tego, jakie plac\u00f3wki wchodz\u0105 w sk\u0142ad zespo\u0142u. Sprawd\u017a, kiedy stosowa\u0107 amenity=* a kiedy landuse=education.",
                "note": "Children RSPO: 74731;75367"
            }
        },
        {
            "id": 74731,
            "type": "Feature",
            "geometry": {
                "type": "Point",
                "coordinates": [
                    15.11894,
                    52.61185
                ]
            },
            "properties": {
                "isced:level": "1;2",
                "ref:rspo": 74731,
                "official_name": "Szko\u0142a Podstawowa im. Bohater\u00f3w Warszawy w Ko\u0142czynie",
                "name": "Szko\u0142a Podstawowa",
                "addr:country": "PL",
                "addr:postcode": "66-435",
                "addr:city": "Ko\u0142czyn",
                "addr:street": "Sul\u0119ci\u0144ska",
                "addr:housenumber": "29",
                "addr:teryt:simc": 21550,
                "addr:teryt:sym_ul": 182060,
                "contact:phone": "+48 957574814",
                "contact:email": "spkolczyn@wp.pl",
                "contact:website": "http:\/\/zekolczyn.cba.pl",
                "ref:regon": "210039376",
                "operator": "Gmina Krzeszyce",
                "operator:type": "government",
                "amenity": "school",
                "note": "Parent RSPO: 60476"
            }
        },
        {
            "id": 75367,
            "type": "Feature",
            "geometry": {
                "type": "Point",
                "coordinates": [
                    15.11894,
                    52.61344
                ]
            },
            "properties": {
                "ref:rspo": 75367,
                "official_name": "Przedszkole Gminne w Ko\u0142czynie",
                "name": "Przedszkole Gminne w Ko\u0142czynie",
                "addr:country": "PL",
                "addr:postcode": "66-435",
                "addr:city": "Ko\u0142czyn",
                "addr:street": "Sul\u0119ci\u0144ska",
                "addr:housenumber": "27",
                "addr:teryt:simc": 21550,
                "addr:teryt:sym_ul": 182060,
                "contact:phone": "+48 957574825",
                "contact:email": "spkolczyn@wp.pl",
                "ref:regon": "080496020",
                "operator": "Gmina Krzeszyce",
                "operator:type": "government",
                "amenity": "kindergarten",
                "note": "Parent RSPO: 60476"
            }
        }
    ]
}