{
    "type": "FeatureCollection",
    "features": [
        {
            "id": 35364,
            "type": "Feature",
            "geometry": {
                "type": "Point",
                "coordinates": [
                    14.97844,
                    52.24458
                ]
            },
            "properties": {
                "ref:rspo": 35364,
                "official_name": "Zesp\u00f3\u0142 Edukacyjny w G\u0105dkowie Wielkim",
                "name": "Zesp\u00f3\u0142 Edukacyjny w G\u0105dkowie Wielkim",
                "addr:postcode": "66-235",
                "addr:city": "G\u0105dk\u00f3w Wielki",
                "addr:street": "Tadeusza Ko\u015bciuszki",
                "addr:housenumber": "47",
                "addr:teryt:simc": 915372,
                "addr:teryt:sym_ul": 9572,
                "phone": "+48 683414487",
                "email": "zespol_edukacyjny@op.pl",
                "ref:regon": "211303480",
                "ref:vatin": "PL4290007158",
                "operator": "Gmina Torzym",
                "operator:type": "government",
                "landuse": "education",
                "fixme": "amenity=school, amenity=college albo landuse=education w zale\u017cno\u015bci od tego, jakie plac\u00f3wki wchodz\u0105 w sk\u0142ad zespo\u0142u. Sprawd\u017a, kiedy stosowa\u0107 amenity=* a kiedy landuse=education.",
                "note": "Children RSPO: 55383;55642"
            }
        },
        {
            "id": 55383,
            "type": "Feature",
            "geometry": {
                "type": "Point",
                "coordinates": [
                    14.97844,
                    52.24455
                ]
            },
            "properties": {
                "isced:level": "1;2",
                "ref:rspo": 55383,
                "official_name": "Szko\u0142a Podstawowa w G\u0105dkowie Wielkim",
                "name": "Szko\u0142a Podstawowa w G\u0105dkowie Wielkim",
                "addr:postcode": "66-235",
                "addr:city": "G\u0105dk\u00f3w Wielki",
                "addr:street": "Tadeusza Ko\u015bciuszki",
                "addr:housenumber": "47",
                "addr:teryt:simc": 915372,
                "addr:teryt:sym_ul": 9572,
                "phone": "+48 683414487",
                "email": "zespol_edukacyjny@op.pl",
                "ref:regon": "970594540",
                "ref:vatin": "PL9271777001",
                "operator": "Gmina Torzym",
                "operator:type": "government",
                "amenity": "school",
                "note": "Parent RSPO: 35364"
            }
        },
        {
            "id": 55642,
            "type": "Feature",
            "geometry": {
                "type": "Point",
                "coordinates": [
                    14.97844,
                    52.24452
                ]
            },
            "properties": {
                "ref:rspo": 55642,
                "official_name": "Przedszkole w G\u0105dkowie Wielkim",
                "name": "Przedszkole w G\u0105dkowie Wielkim",
                "addr:postcode": "66-235",
                "addr:city": "G\u0105dk\u00f3w Wielki",
                "addr:street": "Tadeusza Ko\u015bciuszki",
                "addr:housenumber": "47",
                "addr:teryt:simc": 915372,
                "addr:teryt:sym_ul": 9572,
                "phone": "+48 683414485",
                "email": "zespol_edukacyjny@op.pl",
                "ref:regon": "970594801",
                "ref:vatin": "PL9271777024",
                "operator": "Gmina Torzym",
                "operator:type": "government",
                "amenity": "kindergarten",
                "note": "Parent RSPO: 35364"
            }
        },
        {
            "id": 35249,
            "type": "Feature",
            "geometry": {
                "type": "Point",
                "coordinates": [
                    15.07428,
                    52.3106
                ]
            },
            "properties": {
                "isced:level": "1;2",
                "ref:rspo": 35249,
                "official_name": "Szko\u0142a Podstawowa im. Bohater\u00f3w Westerplatte w Torzymiu",
                "name": "Szko\u0142a Podstawowa",
                "addr:postcode": "66-235",
                "addr:city": "Torzym",
                "addr:street": "W\u0142adys\u0142awa Reymonta",
                "addr:housenumber": "6",
                "addr:teryt:simc": 915484,
                "addr:teryt:sym_ul": 32548,
                "phone": "+48 683413122",
                "email": "szkola@szkolatorzym.pl",
                "website": "http:\/\/szkolatorzym.edupage.org",
                "ref:regon": "970594511",
                "ref:vatin": "PL4290071854",
                "operator": "Gmina Torzym",
                "operator:type": "government",
                "amenity": "school"
            }
        },
        {
            "id": 47678,
            "type": "Feature",
            "geometry": {
                "type": "Point",
                "coordinates": [
                    15.05462,
                    52.31382
                ]
            },
            "properties": {
                "ref:rspo": 47678,
                "official_name": "Przedszkole im. Pszcz\u00f3\u0142ki Mai w Torzymiu",
                "name": "Przedszkole",
                "addr:postcode": "66-235",
                "addr:city": "Torzym",
                "addr:street": "Saperska",
                "addr:housenumber": "10",
                "addr:teryt:simc": 915484,
                "addr:teryt:sym_ul": 19509,
                "phone": "+48 683413887",
                "email": "pptorzym@tlen.pl",
                "ref:regon": "000907817",
                "ref:vatin": "PL9271776964",
                "operator": "Gmina Torzym",
                "operator:type": "government",
                "amenity": "kindergarten"
            }
        },
        {
            "id": 47679,
            "type": "Feature",
            "geometry": {
                "type": "Point",
                "coordinates": [
                    14.9375,
                    52.32179
                ]
            },
            "properties": {
                "ref:rspo": 47679,
                "official_name": "Przedszkole w Boczowie",
                "name": "Przedszkole w Boczowie",
                "addr:postcode": "66-235",
                "addr:city": "Bocz\u00f3w",
                "addr:street": "Zak\u0142adowa",
                "addr:housenumber": "1",
                "addr:teryt:simc": 915290,
                "addr:teryt:sym_ul": 25449,
                "phone": "+48 683414046",
                "email": "przedszkole.boczow@wp.pl",
                "ref:regon": "970594824",
                "ref:vatin": "PL9271776987",
                "operator": "Gmina Torzym",
                "operator:type": "government",
                "amenity": "kindergarten"
            }
        },
        {
            "id": 35250,
            "type": "Feature",
            "geometry": {
                "type": "Point",
                "coordinates": [
                    14.94532,
                    52.3225399
                ]
            },
            "properties": {
                "isced:level": "1;2",
                "ref:rspo": 35250,
                "official_name": "Szko\u0142a Podstawowa w Boczowie im. Le\u015bnik\u00f3w Lubuskich",
                "name": "Szko\u0142a Podstawowa w Boczowie",
                "addr:postcode": "66-235",
                "addr:city": "Bocz\u00f3w",
                "addr:street": "Genera\u0142a W\u0142adys\u0142awa Sikorskiego",
                "addr:housenumber": "4",
                "addr:teryt:simc": 915290,
                "addr:teryt:sym_ul": 19901,
                "phone": "+48 683414023",
                "email": "psp.boczow@wp.pl",
                "website": "http:\/\/www.spboczow.pl",
                "ref:regon": "970594557",
                "ref:vatin": "PL9271776958",
                "operator": "Gmina Torzym",
                "operator:type": "government",
                "amenity": "school"
            }
        },
        {
            "id": 35251,
            "type": "Feature",
            "geometry": {
                "type": "Point",
                "coordinates": [
                    15.17635,
                    52.33776
                ]
            },
            "properties": {
                "isced:level": "1;2",
                "ref:rspo": 35251,
                "official_name": "Szko\u0142a Podstawowa w Walewicach",
                "name": "Szko\u0142a Podstawowa w Walewicach",
                "addr:postcode": "66-235",
                "addr:place": "Walewice",
                "addr:housenumber": "25",
                "addr:teryt:simc": 915567,
                "phone": "+48 683413028",
                "email": "szkola.walewice@o2.pl",
                "ref:regon": "970594534",
                "ref:vatin": "PL9271776993",
                "operator": "Gmina Torzym",
                "operator:type": "government",
                "amenity": "school"
            }
        }
    ]
}