{"type":"FeatureCollection","features":[{"id":18182,"type":"Feature","geometry":{"type":"Point","coordinates":[15.24507,52.50989]},"properties":{"ref:rspo":18182,"official_name":"Szkolne Schronisko M\u0142odzie\u017cowe","name":"Szkolne Schronisko M\u0142odzie\u017cowe","addr:country":"PL","addr:postcode":"69-210","addr:city":"Lubniewice","addr:street":"os. S\u0142owia\u0144skie","addr:housenumber":"4","addr:teryt:simc":20296,"addr:teryt:sym_ul":182969,"contact:phone":"+48 957557557","contact:email":"gimlubnie@interia.pl","contact:website":"http:\/\/www.schroniskolubniewice.pl","ref:regon":"211243021","ref:vatin":"PL9271809793","operator":"Powiat Sul\u0119ci\u0144ski","operator:type":"government","tourism":"hostel"}},{"id":272227,"type":"Feature","geometry":{"type":"Point","coordinates":[15.24507,52.509859999999996]},"properties":{"ref:rspo":272227,"official_name":"Zesp\u00f3\u0142 Szkolno - Przedszkolny w Lubniewicach","name":"Zesp\u00f3\u0142 Szkolno - Przedszkolny w Lubniewicach","addr:country":"PL","addr:postcode":"69-210","addr:city":"Lubniewice","addr:street":"os. S\u0142owia\u0144skie","addr:housenumber":"4","addr:teryt:simc":20296,"addr:teryt:sym_ul":182969,"contact:phone":"+48 957557557","contact:email":"splubniewice@interia.pl","contact:website":"http:\/\/www.szkolalubniewice.pl","ref:regon":"384049750","ref:vatin":"PL4290082119","operator":"Gmina Lubniewice","operator:type":"government","landuse":"education","fixme":"amenity=school, amenity=college albo landuse=education w zale\u017cno\u015bci od tego, jakie plac\u00f3wki wchodz\u0105 w sk\u0142ad zespo\u0142u. Sprawd\u017a, kiedy stosowa\u0107 amenity=* a kiedy landuse=education.","note":"Children RSPO: 24205;27816"}},{"id":24205,"type":"Feature","geometry":{"type":"Point","coordinates":[15.24507,52.50983]},"properties":{"ref:rspo":24205,"official_name":"Samorz\u0105dowe Przedszkole","name":"Samorz\u0105dowe Przedszkole","addr:country":"PL","addr:postcode":"69-210","addr:city":"Lubniewice","addr:street":"os. S\u0142owia\u0144skie","addr:housenumber":"4","addr:teryt:simc":20296,"addr:teryt:sym_ul":182969,"contact:phone":"+48 957557568","contact:email":"pglub@o2.pl","contact:website":"http:\/\/www.przedszkolelubniewice.edukage.org","ref:regon":"210013709","ref:vatin":"PL9271682878","operator":"Gmina Lubniewice","operator:type":"government","amenity":"kindergarten","note":"Parent RSPO: 272227"}},{"id":27816,"type":"Feature","geometry":{"type":"Point","coordinates":[15.24507,52.5098]},"properties":{"isced:level":"1;2","ref:rspo":27816,"official_name":"Szko\u0142a Podstawowa im. Janusza Korczaka w Lubniewicach","name":"Szko\u0142a Podstawowa","addr:country":"PL","addr:postcode":"69-210","addr:city":"Lubniewice","addr:street":"os. S\u0142owia\u0144skie","addr:housenumber":"4","addr:teryt:simc":20296,"addr:teryt:sym_ul":182969,"contact:phone":"+48 957557557","contact:email":"splubniewice@interia.pl","contact:website":"http:\/\/www.szkolalubniewice.pl","ref:regon":"210205120","ref:vatin":"PL4290018073","operator":"Gmina Lubniewice","operator:type":"government","amenity":"school","note":"Parent RSPO: 272227"}}]}