{
    "type": "FeatureCollection",
    "features": [
        {
            "id": 83704,
            "type": "Feature",
            "geometry": {
                "type": "Point",
                "coordinates": [
                    18.55449,
                    51.17423
                ]
            },
            "properties": {
                "isced:level": "1;2",
                "ref:rspo": 83704,
                "official_name": "Publiczna Szko\u0142a Podstawowa Stowarzyszenia Przyjaci\u00f3\u0142 Szk\u00f3\u0142 Katolickich im. \u015aw. Jana Paw\u0142a II w Kad\u0142ubie",
                "name": "Publiczna Szko\u0142a Podstawowa Stowarzyszenia Przyjaci\u00f3\u0142 Szk\u00f3\u0142 Katolickich",
                "addr:postcode": "98-300",
                "addr:place": "Kad\u0142ub",
                "addr:housenumber": "91",
                "addr:teryt:simc": 718039,
                "phone": "+48 438427526",
                "email": "kadlub@spsk.info.pl",
                "website": "http:\/\/www.kadlub.spsk.info.pl",
                "ref:regon": "101500658",
                "ref:vatin": "PL8321818435",
                "operator": "Stowarzyszenie Przyjaci\u00f3\u0142 Szk\u00f3\u0142 Katolickich",
                "operator:type": "ngo",
                "amenity": "school"
            }
        },
        {
            "id": 83680,
            "type": "Feature",
            "geometry": {
                "type": "Point",
                "coordinates": [
                    18.61318,
                    51.19788
                ]
            },
            "properties": {
                "isced:level": "1;2",
                "ref:rspo": 83680,
                "official_name": "Szko\u0142a Podstawowa im. Wincentego Witosa w Rudzie",
                "name": "Szko\u0142a Podstawowa",
                "addr:postcode": "98-300",
                "addr:city": "Ruda",
                "addr:street": "D\u0142uga",
                "addr:housenumber": "31",
                "addr:teryt:simc": 718200,
                "addr:teryt:sym_ul": 3839,
                "phone": "+48 438428528",
                "email": "sp13ruda@wp.pl",
                "ref:regon": "000734618",
                "ref:vatin": "PL8321847827",
                "operator": "Gmina Wielu\u0144",
                "operator:type": "government",
                "amenity": "school"
            }
        },
        {
            "id": 48217,
            "type": "Feature",
            "geometry": {
                "type": "Point",
                "coordinates": [
                    18.55895,
                    51.1988399
                ]
            },
            "properties": {
                "isced:level": "1;2",
                "ref:rspo": 48217,
                "official_name": "Szko\u0142a Podstawowa im. Jana Jarczaka w Gaszynie",
                "name": "Szko\u0142a Podstawowa",
                "addr:postcode": "98-300",
                "addr:city": "Gaszyn",
                "addr:street": "Harcerska",
                "addr:housenumber": "1",
                "addr:teryt:simc": 717910,
                "addr:teryt:sym_ul": 6523,
                "phone": "+48 438427569",
                "email": "ustyniak@poczta.onet.pl",
                "website": "http:\/\/www.szkola.gaszyn.pl",
                "ref:regon": "000734794",
                "ref:vatin": "PL8321847916",
                "operator": "Gmina Wielu\u0144",
                "operator:type": "government",
                "amenity": "school"
            }
        },
        {
            "id": 127923,
            "type": "Feature",
            "geometry": {
                "type": "Point",
                "coordinates": [
                    18.56762,
                    51.21208
                ]
            },
            "properties": {
                "ref:rspo": 127923,
                "official_name": "Powiatowy M\u0142odzie\u017cowy Dom Kultury I Sportu w Wieluniu",
                "name": "Powiatowy M\u0142odzie\u017cowy Dom Kultury I Sportu w Wieluniu",
                "addr:postcode": "98-300",
                "addr:city": "Wielu\u0144",
                "addr:street": "3 Maja",
                "addr:housenumber": "29",
                "addr:teryt:simc": 976586,
                "addr:teryt:sym_ul": 11937,
                "phone": "+48 438438780",
                "email": "mdkwielun@wp.pl",
                "website": "http:\/\/www.pmdkis-wielun.pl",
                "ref:regon": "361974076",
                "ref:vatin": "PL8322076303",
                "operator": "Powiat Wielu\u0144ski",
                "operator:type": "government",
                "landuse": "education",
                "fixme": "amenity=school, amenity=college albo landuse=education w zale\u017cno\u015bci od tego, jakie plac\u00f3wki wchodz\u0105 w sk\u0142ad zespo\u0142u. Sprawd\u017a, kiedy stosowa\u0107 amenity=* a kiedy landuse=education.",
                "note": "Children RSPO: 10357;14101"
            }
        },
        {
            "id": 10357,
            "type": "Feature",
            "geometry": {
                "type": "Point",
                "coordinates": [
                    18.56762,
                    51.21205
                ]
            },
            "properties": {
                "ref:rspo": 10357,
                "official_name": "M\u0142odzie\u017cowy Dom Kultury w Wieluniu",
                "name": "M\u0142odzie\u017cowy Dom Kultury w Wieluniu",
                "addr:postcode": "98-300",
                "addr:city": "Wielu\u0144",
                "addr:street": "3 Maja",
                "addr:housenumber": "29",
                "addr:teryt:simc": 976586,
                "addr:teryt:sym_ul": 11937,
                "phone": "+48 438438780",
                "email": "mdkwielun@wp.pl",
                "website": "http:\/\/www.pmdkis-wielun.pl",
                "ref:regon": "730219354",
                "ref:vatin": "PL8321033390",
                "operator": "Powiat Wielu\u0144ski",
                "operator:type": "government",
                "amenity": "community_centre",
                "community_centre:for": "juvenile",
                "note": "Parent RSPO: 127923"
            }
        },
        {
            "id": 14101,
            "type": "Feature",
            "geometry": {
                "type": "Point",
                "coordinates": [
                    18.56762,
                    51.21202
                ]
            },
            "properties": {
                "ref:rspo": 14101,
                "official_name": "Mi\u0119dzyszkolny O\u015brodek Sportowy w Wieluniu",
                "name": "Mi\u0119dzyszkolny O\u015brodek Sportowy w Wieluniu",
                "addr:postcode": "98-300",
                "addr:city": "Wielu\u0144",
                "addr:street": "3 Maja",
                "addr:housenumber": "29",
                "addr:teryt:simc": 976586,
                "addr:teryt:sym_ul": 11937,
                "phone": "+48 438438780",
                "email": "mdkwielun@wp.pl",
                "website": "http:\/\/www.pmdkis-wielun.pl",
                "ref:regon": "001060903",
                "ref:vatin": "PL8321846785",
                "operator": "Powiat Wielu\u0144ski",
                "operator:type": "government",
                "leisure": "sports_centre",
                "note": "Parent RSPO: 127923"
            }
        },
        {
            "id": 14082,
            "type": "Feature",
            "geometry": {
                "type": "Point",
                "coordinates": [
                    18.58081,
                    51.21435
                ]
            },
            "properties": {
                "isced:level": "3",
                "ref:rspo": 14082,
                "official_name": "I Liceum Og\u00f3lnokszta\u0142c\u0105ce im. Tadeusza Ko\u015bciuszki w Wieluniu",
                "name": "I Liceum Og\u00f3lnokszta\u0142c\u0105ce",
                "addr:postcode": "98-300",
                "addr:city": "Wielu\u0144",
                "addr:street": "Nadodrza\u0144ska",
                "addr:housenumber": "4",
                "addr:teryt:simc": 976586,
                "addr:teryt:sym_ul": 13894,
                "phone": "+48 438860464",
                "email": "sekretariat@1.lowielun.eu",
                "website": "http:\/\/lowielun.eu",
                "ref:regon": "000204530",
                "ref:vatin": "PL8321019071",
                "operator": "Powiat Wielu\u0144ski",
                "operator:type": "government",
                "amenity": "school"
            }
        },
        {
            "id": 50337,
            "type": "Feature",
            "geometry": {
                "type": "Point",
                "coordinates": [
                    18.58956,
                    51.21514
                ]
            },
            "properties": {
                "isced:level": "1;2",
                "ref:rspo": 50337,
                "official_name": "Szko\u0142a Podstawowa Nr 2 im. Henryka Sienkiewicza w Wieluniu",
                "name": "Szko\u0142a Podstawowa Nr 2",
                "addr:postcode": "98-300",
                "addr:city": "Wielu\u0144",
                "addr:street": "os. kard. Stefana Wyszy\u0144skiego",
                "addr:housenumber": "30A",
                "addr:teryt:simc": 976586,
                "addr:teryt:sym_ul": 25105,
                "phone": "+48 438435898",
                "email": "sp2wielun@onet.pl",
                "website": "http:\/\/sp2wielun.edupage.org",
                "ref:regon": "001325715",
                "ref:vatin": "PL8321847922",
                "operator": "Gmina Wielu\u0144",
                "operator:type": "government",
                "amenity": "school"
            }
        },
        {
            "id": 47953,
            "type": "Feature",
            "geometry": {
                "type": "Point",
                "coordinates": [
                    18.58872,
                    51.21617
                ]
            },
            "properties": {
                "ref:rspo": 47953,
                "official_name": "Publiczne Przedszkole Nr 4 w Wieluniu",
                "name": "Publiczne Przedszkole Nr 4 w Wieluniu",
                "addr:postcode": "98-300",
                "addr:city": "Wielu\u0144",
                "addr:street": "os. kard. Stefana Wyszy\u0144skiego",
                "addr:housenumber": "44",
                "addr:teryt:simc": 976586,
                "addr:teryt:sym_ul": 25105,
                "phone": "+48 438435862",
                "email": "sekretariat@przedszkole4.wielun.pl",
                "ref:regon": "731012900",
                "ref:vatin": "PL8321847796",
                "operator": "Gmina Wielu\u0144",
                "operator:type": "government",
                "amenity": "kindergarten"
            }
        },
        {
            "id": 62590,
            "type": "Feature",
            "geometry": {
                "type": "Point",
                "coordinates": [
                    18.56877,
                    51.21638
                ]
            },
            "properties": {
                "ref:rspo": 62590,
                "official_name": "Niepubliczne Przedszkole Si\u00f3str Antoninek im.matki Za\u0142o\u017cycielki Katarzyny Innocenty Rzadkiej",
                "name": "Niepubliczne Przedszkole Si\u00f3str Antoninek im.matki Za\u0142o\u017cycielki Katarzyny Innocenty Rzadkiej",
                "addr:postcode": "98-300",
                "addr:city": "Wielu\u0144",
                "addr:street": "3 Maja",
                "addr:housenumber": "5",
                "addr:teryt:simc": 976586,
                "addr:teryt:sym_ul": 11937,
                "phone": "+48 438418044",
                "email": "przedszkoleantoninki@vp.pl",
                "ref:regon": "101493680",
                "operator": "Zgromadzenie Si\u00f3str Opieki Spolecznej P.w. \u015aw. Antoniego",
                "operator:type": "religious",
                "amenity": "kindergarten"
            }
        },
        {
            "id": 8575,
            "type": "Feature",
            "geometry": {
                "type": "Point",
                "coordinates": [
                    18.5774,
                    51.21649
                ]
            },
            "properties": {
                "isced:level": "4",
                "ref:rspo": 8575,
                "official_name": "Policealna Szko\u0142a Zawodowa \"Edukator\" w Wieluniu",
                "name": "Policealna Szko\u0142a Zawodowa \"Edukator\" w Wieluniu",
                "addr:postcode": "98-300",
                "addr:city": "Wielu\u0144",
                "addr:street": "18 Stycznia",
                "addr:housenumber": "24",
                "addr:teryt:simc": 976586,
                "addr:teryt:sym_ul": 21447,
                "phone": "+48 436595417",
                "email": "wielun@szkolyedukator.pl",
                "website": "http:\/\/www.szkolyedukator.pl",
                "ref:regon": "101461473",
                "operator": "Miros\u0142aw Pinek",
                "operator:type": "private",
                "amenity": "college"
            }
        },
        {
            "id": 8595,
            "type": "Feature",
            "geometry": {
                "type": "Point",
                "coordinates": [
                    18.5774,
                    51.21646
                ]
            },
            "properties": {
                "isced:level": "3",
                "ref:rspo": 8595,
                "official_name": "Liceum Og\u00f3lnokszta\u0142cace dla Doros\u0142ych \"Edukator\" w Wieluniu",
                "name": "Liceum Og\u00f3lnokszta\u0142cace dla Doros\u0142ych \"Edukator\" w Wieluniu",
                "addr:postcode": "98-300",
                "addr:city": "Wielu\u0144",
                "addr:street": "18 Stycznia",
                "addr:housenumber": "24",
                "addr:teryt:simc": 976586,
                "addr:teryt:sym_ul": 21447,
                "phone": "+48 436595417",
                "email": "wielun@szkolyedukator.pl",
                "website": "http:\/\/www.szkolyedukator.pl",
                "ref:regon": "101461467",
                "operator": "Miros\u0142aw Pinek",
                "operator:type": "private",
                "amenity": "school"
            }
        },
        {
            "id": 83678,
            "type": "Feature",
            "geometry": {
                "type": "Point",
                "coordinates": [
                    18.5774,
                    51.21643
                ]
            },
            "properties": {
                "isced:level": "1;2",
                "ref:rspo": 83678,
                "official_name": "Szko\u0142a Podstawowa Nr 4 im. Kr\u00f3lowej Jadwigi w Wieluniu",
                "name": "Szko\u0142a Podstawowa Nr 4",
                "addr:postcode": "98-300",
                "addr:city": "Wielu\u0144",
                "addr:street": "18 Stycznia",
                "addr:housenumber": "24",
                "addr:teryt:simc": 976586,
                "addr:teryt:sym_ul": 21447,
                "phone": "+48 438438357",
                "email": "sp4wielun@poczta.onet.pl",
                "website": "http:\/\/www.sp4.wielun.pl",
                "ref:regon": "000259471",
                "ref:vatin": "PL8321847980",
                "operator": "Gmina Wielu\u0144",
                "operator:type": "government",
                "amenity": "school"
            }
        },
        {
            "id": 60878,
            "type": "Feature",
            "geometry": {
                "type": "Point",
                "coordinates": [
                    18.5604,
                    51.21723
                ]
            },
            "properties": {
                "ref:rspo": 60878,
                "official_name": "O\u015brodek Kszta\u0142cenia I Doskonalenia Zawodowego w Wieluniu",
                "name": "O\u015brodek Kszta\u0142cenia I Doskonalenia Zawodowego w Wieluniu",
                "addr:postcode": "98-300",
                "addr:city": "Wielu\u0144",
                "addr:street": "Zielona",
                "addr:housenumber": "45",
                "addr:teryt:simc": 976586,
                "addr:teryt:sym_ul": 26081,
                "phone": "+48 605065795",
                "email": "osk.adam.nawrocki@wp.pl",
                "ref:regon": "101489945",
                "ref:vatin": "PL8321916014",
                "operator": "Adam Nawrocki",
                "operator:type": "private",
                "fixme": "w zale\u017cno\u015bci od przedmiotu dzia\u0142alno\u015bci (np. amenity=training + training=*, amenity=dancing_school, amenity=language_school, amenity=music_school) albo amenity=school, amenity=college, albo landuse=education w zale\u017cno\u015bci od tego, jakie plac\u00f3wki wchodz\u0105 w sk\u0142ad zespo\u0142u. Sprawd\u017a, kiedy stosowa\u0107 amenity=* a kiedy landuse=education."
            }
        },
        {
            "id": 10231,
            "type": "Feature",
            "geometry": {
                "type": "Point",
                "coordinates": [
                    18.56877,
                    51.2177099
                ]
            },
            "properties": {
                "ref:rspo": 10231,
                "official_name": "Poradnia Psychologiczno Pedagogiczna",
                "name": "Poradnia Psychologiczno Pedagogiczna",
                "addr:postcode": "98-300",
                "addr:city": "Wielu\u0144",
                "addr:street": "\u015al\u0105ska",
                "addr:housenumber": "23",
                "addr:teryt:simc": 976586,
                "addr:teryt:sym_ul": 22308,
                "phone": "+48 438434520",
                "email": "sekretariat@poradnia.wielun.pl",
                "website": "http:\/\/www.poradnia.wielun.pl",
                "ref:regon": "000734950",
                "ref:vatin": "PL8321846472",
                "operator": "Powiat Wielu\u0144ski",
                "operator:type": "government",
                "healthcare": "counselling",
                "counselling_type": "education",
                "fixme": "w zale\u017cno\u015bci od przedmiotu dzia\u0142alno\u015bci (np. healthcare=counselling + counselling_type=education albo healthcare=psychotherapist)"
            }
        },
        {
            "id": 59688,
            "type": "Feature",
            "geometry": {
                "type": "Point",
                "coordinates": [
                    18.56877,
                    51.2176799
                ]
            },
            "properties": {
                "isced:level": "3",
                "ref:rspo": 59688,
                "official_name": "Katolickie Liceum Og\u00f3lnokszta\u0142c\u0105ce im. Bp. Teodora Kubiny w Wieluniu",
                "name": "Katolickie Liceum Og\u00f3lnokszta\u0142c\u0105ce",
                "addr:postcode": "98-300",
                "addr:city": "Wielu\u0144",
                "addr:street": "\u015al\u0105ska",
                "addr:housenumber": "23",
                "addr:teryt:simc": 976586,
                "addr:teryt:sym_ul": 22308,
                "phone": "+48 438435576",
                "email": "klo@wielun.spsk.pl",
                "website": "http:\/\/www.klowielun.pl",
                "ref:regon": "101517966",
                "ref:vatin": "PL8321864406",
                "operator": "Stowarzyszenie Przyjaci\u00f3\u0142 Szk\u00f3\u0142 Katolickich",
                "operator:type": "ngo",
                "amenity": "school"
            }
        },
        {
            "id": 131178,
            "type": "Feature",
            "geometry": {
                "type": "Point",
                "coordinates": [
                    18.56877,
                    51.217649900000005
                ]
            },
            "properties": {
                "isced:level": "3",
                "ref:rspo": 131178,
                "official_name": "Technikum Stowarzyszenia Przyjaci\u00f3\u0142 Szk\u00f3\u0142 Katolickich",
                "name": "Technikum Stowarzyszenia Przyjaci\u00f3\u0142 Szk\u00f3\u0142 Katolickich",
                "addr:postcode": "98-300",
                "addr:city": "Wielu\u0144",
                "addr:street": "\u015al\u0105ska",
                "addr:housenumber": "23",
                "addr:teryt:simc": 976586,
                "addr:teryt:sym_ul": 22308,
                "phone": "+48 438435576",
                "email": "tech@wielun.spsk.pl",
                "website": "http:\/\/www.klowielun.pl",
                "ref:regon": "364999906",
                "operator": "Stowarzyszenie Przyjaci\u00f3\u0142 Szk\u00f3\u0142 Katolickich",
                "operator:type": "ngo",
                "amenity": "school"
            }
        },
        {
            "id": 263982,
            "type": "Feature",
            "geometry": {
                "type": "Point",
                "coordinates": [
                    18.56877,
                    51.2176199
                ]
            },
            "properties": {
                "isced:level": "1;2",
                "ref:rspo": 263982,
                "official_name": "Publiczna Szko\u0142a Podstawowa Stowarzyszenia Przyjaci\u00f3\u0142 Szk\u00f3\u0142 Katolickich im. B\u0142. Ks. Maksymiliana Binkiewicza",
                "name": "Publiczna Szko\u0142a Podstawowa Stowarzyszenia Przyjaci\u00f3\u0142 Szk\u00f3\u0142 Katolickich",
                "addr:postcode": "98-300",
                "addr:city": "Wielu\u0144",
                "addr:street": "\u015al\u0105ska",
                "addr:housenumber": "23",
                "addr:teryt:simc": 976586,
                "addr:teryt:sym_ul": 22308,
                "phone": "+48 438435576",
                "email": "spwielun@spsk.info.pl",
                "website": "http:\/\/www.spwielun.spsk.info.pl",
                "ref:regon": "368247356",
                "operator": "Stowarzyszenie Przyjaci\u00f3\u0142 Szk\u00f3\u0142 Katolickich",
                "operator:type": "ngo",
                "amenity": "school"
            }
        },
        {
            "id": 10213,
            "type": "Feature",
            "geometry": {
                "type": "Point",
                "coordinates": [
                    18.57063,
                    51.2182
                ]
            },
            "properties": {
                "isced:level": "3",
                "ref:rspo": 10213,
                "official_name": "Ii Liceum Og\u00f3lnokszta\u0142c\u0105ce im. Janusza Korczaka w Wieluniu",
                "name": "Ii Liceum Og\u00f3lnokszta\u0142c\u0105ce",
                "addr:postcode": "98-300",
                "addr:city": "Wielu\u0144",
                "addr:street": "J\u00f3zefa Pi\u0142sudskiego",
                "addr:housenumber": "6",
                "addr:teryt:simc": 976586,
                "addr:teryt:sym_ul": 16264,
                "phone": "+48 438430475",
                "email": "sekretariat@korczak.wielun.pl",
                "website": "http:\/\/www.korczak.wielun.pl",
                "ref:regon": "730222913",
                "ref:vatin": "PL8321726377",
                "operator": "Powiat Wielu\u0144ski",
                "operator:type": "government",
                "amenity": "school"
            }
        },
        {
            "id": 19570,
            "type": "Feature",
            "geometry": {
                "type": "Point",
                "coordinates": [
                    18.57063,
                    51.21817
                ]
            },
            "properties": {
                "ref:rspo": 19570,
                "official_name": "Biblioteka Pedagogiczna w Sieradzu Filia w Wieluniu",
                "name": "Biblioteka Pedagogiczna w Sieradzu Filia w Wieluniu",
                "addr:postcode": "98-300",
                "addr:city": "Wielu\u0144",
                "addr:street": "J\u00f3zefa Pi\u0142sudskiego",
                "addr:housenumber": "6",
                "addr:teryt:simc": 976586,
                "addr:teryt:sym_ul": 16264,
                "phone": "+48 438434119",
                "email": "filiawielun@bpsieradz.pl",
                "ref:regon": "734920000",
                "operator": "Wojew\u00f3dztwo \u0141\u00f3dzkie",
                "operator:type": "government",
                "amenity": "library",
                "note": "Parent RSPO: 12847"
            }
        },
        {
            "id": 58914,
            "type": "Feature",
            "geometry": {
                "type": "Point",
                "coordinates": [
                    18.57538,
                    51.22017
                ]
            },
            "properties": {
                "ref:rspo": 58914,
                "official_name": "O\u015brodek Kszta\u0142cenia Zawodowego Przy Cechu w Wieluniu",
                "name": "O\u015brodek Kszta\u0142cenia Zawodowego Przy Cechu w Wieluniu",
                "addr:postcode": "98-300",
                "addr:city": "Wielu\u0144",
                "addr:street": "Targowa",
                "addr:housenumber": "1",
                "addr:teryt:simc": 976586,
                "addr:teryt:sym_ul": 22659,
                "phone": "+48 438438284",
                "email": "cechwielun@wp.pl",
                "ref:regon": "101489448",
                "ref:vatin": "PL8321013625",
                "operator": "Cech Rzemios\u0142 R\u00f3\u017cnych I Przedsi\u0119biorc\u00f3w",
                "operator:type": "cooperative",
                "fixme": "w zale\u017cno\u015bci od przedmiotu dzia\u0142alno\u015bci (np. amenity=training + training=*, amenity=dancing_school, amenity=language_school, amenity=music_school)"
            }
        },
        {
            "id": 88240,
            "type": "Feature",
            "geometry": {
                "type": "Point",
                "coordinates": [
                    18.56236,
                    51.22139
                ]
            },
            "properties": {
                "ref:rspo": 88240,
                "official_name": "Lexon - Nauka J\u0119zyk\u00f3w - Plac\u00f3wka Kszta\u0142cenia Ustawicznego",
                "name": "Lexon - Nauka J\u0119zyk\u00f3w - Plac\u00f3wka Kszta\u0142cenia Ustawicznego",
                "addr:postcode": "98-300",
                "addr:city": "Wielu\u0144",
                "addr:street": "Wojska Polskiego",
                "addr:housenumber": "7",
                "addr:teryt:simc": 976586,
                "addr:teryt:sym_ul": 24628,
                "phone": "+48 438438031",
                "email": "lexon.edu.pl@gmail.com",
                "ref:regon": "101502284",
                "ref:vatin": "PL8321112126",
                "operator": "Anna B\u0142aszczyk",
                "operator:type": "private",
                "fixme": "w zale\u017cno\u015bci od przedmiotu dzia\u0142alno\u015bci (np. amenity=training + training=*, amenity=dancing_school, amenity=language_school, amenity=music_school)"
            }
        },
        {
            "id": 83670,
            "type": "Feature",
            "geometry": {
                "type": "Point",
                "coordinates": [
                    18.4847,
                    51.22183
                ]
            },
            "properties": {
                "isced:level": "1;2",
                "ref:rspo": 83670,
                "official_name": "Szko\u0142a Podstawowa im. Komisji Edukacji Narodowej w Kurowie",
                "name": "Szko\u0142a Podstawowa",
                "addr:postcode": "98-300",
                "addr:city": "Kur\u00f3w",
                "addr:street": "Wielu\u0144ska",
                "addr:housenumber": "11",
                "addr:teryt:simc": 718051,
                "addr:teryt:sym_ul": 24117,
                "phone": "+48 438433604",
                "email": "spkurow@o2.pl",
                "website": "http:\/\/www.sp-kurow.pl",
                "ref:regon": "000655793",
                "ref:vatin": "PL8321847968",
                "operator": "Gmina Wielu\u0144",
                "operator:type": "government",
                "amenity": "school"
            }
        },
        {
            "id": 83642,
            "type": "Feature",
            "geometry": {
                "type": "Point",
                "coordinates": [
                    18.57200050354,
                    51.221939086914
                ]
            },
            "properties": {
                "ref:rspo": 83642,
                "official_name": "Publiczne Przedszkole Nr 2 w Wieluniu",
                "name": "Publiczne Przedszkole Nr 2 w Wieluniu",
                "addr:postcode": "98-300",
                "addr:city": "Wielu\u0144",
                "addr:street": "Polskiej Organizacji Wojskowej",
                "addr:housenumber": "14",
                "addr:teryt:simc": 976586,
                "addr:teryt:sym_ul": 17049,
                "phone": "+48 438438577",
                "email": "dyrektor-pp2@oswiata.wielun.pl",
                "website": "http:\/\/pp2.wielun.pl",
                "ref:regon": "731012885",
                "ref:vatin": "PL8321847833",
                "operator": "Gmina Wielu\u0144",
                "operator:type": "government",
                "amenity": "kindergarten"
            }
        },
        {
            "id": 133238,
            "type": "Feature",
            "geometry": {
                "type": "Point",
                "coordinates": [
                    18.57200050354,
                    51.221909086913996
                ]
            },
            "properties": {
                "ref:rspo": 133238,
                "official_name": "Niepubliczny Punkt Przedszkolny 'Odkrywcy Wiedzy'",
                "name": "Niepubliczny Punkt Przedszkolny 'Odkrywcy Wiedzy'",
                "addr:postcode": "98-300",
                "addr:city": "Wielu\u0144",
                "addr:street": "Polskiej Organizacji Wojskowej",
                "addr:housenumber": "30",
                "addr:teryt:simc": 976586,
                "addr:teryt:sym_ul": 17049,
                "phone": "+48 668281746",
                "email": "kontakt@odkrywcy-wiedzy.pl",
                "ref:regon": "366874066",
                "operator": "Edukacyjna Baza Montessori - Ma\u0142gorzata Kalemba",
                "operator:type": "consortium",
                "amenity": "kindergarten"
            }
        },
        {
            "id": 10262,
            "type": "Feature",
            "geometry": {
                "type": "Point",
                "coordinates": [
                    18.55683,
                    51.22195
                ]
            },
            "properties": {
                "ref:rspo": 10262,
                "official_name": "Mi\u0119dzyszkolna Bursa",
                "name": "Mi\u0119dzyszkolna Bursa",
                "addr:postcode": "98-300",
                "addr:city": "Wielu\u0144",
                "addr:street": "Wojska Polskiego",
                "addr:housenumber": "32",
                "addr:teryt:simc": 976586,
                "addr:teryt:sym_ul": 24628,
                "phone": "+48 438439932",
                "email": "bursa.wielun@poczta.fm",
                "website": "http:\/\/www.bursawielun.cba.pl",
                "ref:regon": "731582789",
                "ref:vatin": "PL8321908428",
                "operator": "Powiat Wielu\u0144ski",
                "operator:type": "government",
                "building": "dormitory"
            }
        },
        {
            "id": 15602,
            "type": "Feature",
            "geometry": {
                "type": "Point",
                "coordinates": [
                    18.55683,
                    51.22192
                ]
            },
            "properties": {
                "ref:rspo": 15602,
                "official_name": "Zesp\u00f3\u0142 Szk\u00f3\u0142 Nr 1 w Wieluniu",
                "name": "Zesp\u00f3\u0142 Szk\u00f3\u0142 Nr 1 w Wieluniu",
                "addr:postcode": "98-300",
                "addr:city": "Wielu\u0144",
                "addr:street": "Wojska Polskiego",
                "addr:housenumber": "32",
                "addr:teryt:simc": 976586,
                "addr:teryt:sym_ul": 24628,
                "phone": "+48 438433556",
                "email": "zs1@zs1.wielun.pl",
                "website": "http:\/\/zs1.wielun.pl",
                "ref:regon": "000191572",
                "ref:vatin": "PL8321025321",
                "operator": "Powiat Wielu\u0144ski",
                "operator:type": "government",
                "landuse": "education",
                "fixme": "amenity=school, amenity=college albo landuse=education w zale\u017cno\u015bci od tego, jakie plac\u00f3wki wchodz\u0105 w sk\u0142ad zespo\u0142u. Sprawd\u017a, kiedy stosowa\u0107 amenity=* a kiedy landuse=education.",
                "note": "Children RSPO: 107591;107610;274876"
            }
        },
        {
            "id": 107591,
            "type": "Feature",
            "geometry": {
                "type": "Point",
                "coordinates": [
                    18.55683,
                    51.22189
                ]
            },
            "properties": {
                "isced:level": "3",
                "ref:rspo": 107591,
                "official_name": "Technikum w Zespole Szk\u00f3\u0142 Nr 1 w Wieluniu",
                "name": "Technikum w Zespole Szk\u00f3\u0142 Nr 1 w Wieluniu",
                "addr:postcode": "98-300",
                "addr:city": "Wielu\u0144",
                "addr:street": "Wojska Polskiego",
                "addr:housenumber": "32",
                "addr:teryt:simc": 976586,
                "addr:teryt:sym_ul": 24628,
                "phone": "+48 438433556",
                "email": "zs1@zs1.wielun.pl",
                "website": "http:\/\/www.zs1.wielun.pl",
                "ref:regon": "731626966",
                "operator": "Powiat Wielu\u0144ski",
                "operator:type": "government",
                "amenity": "school",
                "note": "Parent RSPO: 15602"
            }
        },
        {
            "id": 107610,
            "type": "Feature",
            "geometry": {
                "type": "Point",
                "coordinates": [
                    18.55683,
                    51.22186
                ]
            },
            "properties": {
                "isced:level": "3",
                "ref:rspo": 107610,
                "official_name": "Bran\u017cowa Szko\u0142a I Stopnia w Zespole Szk\u00f3\u0142 Nr 1 w Wieluniu",
                "name": "Bran\u017cowa Szko\u0142a I Stopnia w Zespole Szk\u00f3\u0142 Nr 1 w Wieluniu",
                "addr:postcode": "98-300",
                "addr:city": "Wielu\u0144",
                "addr:street": "Wojska Polskiego",
                "addr:housenumber": "32",
                "addr:teryt:simc": 976586,
                "addr:teryt:sym_ul": 24628,
                "phone": "+48 438433556",
                "email": "zs1@zs1.wielun.pl",
                "website": "http:\/\/www.zs1.wielun.pl",
                "ref:regon": "731502098",
                "operator": "Powiat Wielu\u0144ski",
                "operator:type": "government",
                "amenity": "school",
                "note": "Parent RSPO: 15602"
            }
        },
        {
            "id": 274876,
            "type": "Feature",
            "geometry": {
                "type": "Point",
                "coordinates": [
                    18.55683,
                    51.22183
                ]
            },
            "properties": {
                "isced:level": "3",
                "ref:rspo": 274876,
                "official_name": "Bran\u017cowa Szko\u0142a II Stopnia",
                "name": "Bran\u017cowa Szko\u0142a II Stopnia",
                "addr:postcode": "98-300",
                "addr:city": "Wielu\u0144",
                "addr:street": "Wojska Polskiego",
                "addr:housenumber": "32",
                "addr:teryt:simc": 976586,
                "addr:teryt:sym_ul": 24628,
                "phone": "+48 438433556",
                "email": "zs1@zs1.wielun.pl",
                "website": "https:\/\/zs1.wielun.pl",
                "ref:regon": "386362008",
                "operator": "Powiat Wielu\u0144ski",
                "operator:type": "government",
                "amenity": "school",
                "note": "Parent RSPO: 15602"
            }
        },
        {
            "id": 47641,
            "type": "Feature",
            "geometry": {
                "type": "Point",
                "coordinates": [
                    18.57057,
                    51.22379
                ]
            },
            "properties": {
                "ref:rspo": 47641,
                "official_name": "Publiczne Przedszkole Nr 1 w Wieluniu",
                "name": "Publiczne Przedszkole Nr 1 w Wieluniu",
                "addr:postcode": "98-300",
                "addr:city": "Wielu\u0144",
                "addr:street": "Wodna",
                "addr:housenumber": "4",
                "addr:teryt:simc": 976586,
                "addr:teryt:sym_ul": 24550,
                "phone": "+48 438434252",
                "email": "public.przedszkole_nr1@poczta.onet.pl",
                "ref:regon": "731012879",
                "operator": "Gmina Wielu\u0144",
                "operator:type": "government",
                "amenity": "kindergarten"
            }
        },
        {
            "id": 11795,
            "type": "Feature",
            "geometry": {
                "type": "Point",
                "coordinates": [
                    18.5668,
                    51.22484
                ]
            },
            "properties": {
                "ref:rspo": 11795,
                "official_name": "Us\u0142ugi dla Firm w Zakresie Bhp Ppo\u017c Kadr, Dokumentacja , Szkolenia. Urszula Chudecka",
                "name": "Us\u0142ugi dla Firm w Zakresie Bhp Ppo\u017c Kadr, Dokumentacja , Szkolenia. Urszula Chudecka",
                "addr:postcode": "98-300",
                "addr:city": "Wielu\u0144",
                "addr:street": "Jana Kochanowskiego",
                "addr:housenumber": "18",
                "addr:teryt:simc": 976586,
                "addr:teryt:sym_ul": 8728,
                "phone": "+48 10936649",
                "email": "urszula-chudecka@o2.pl",
                "ref:regon": "101464951",
                "ref:vatin": "PL8321013996",
                "operator": "Urszula Chudecka",
                "operator:type": "private",
                "fixme": "w zale\u017cno\u015bci od przedmiotu dzia\u0142alno\u015bci (np. amenity=training + training=*, amenity=dancing_school, amenity=language_school, amenity=music_school)"
            }
        },
        {
            "id": 15551,
            "type": "Feature",
            "geometry": {
                "type": "Point",
                "coordinates": [
                    18.5595399,
                    51.22669
                ]
            },
            "properties": {
                "ref:rspo": 15551,
                "official_name": "Zesp\u00f3\u0142 Szk\u00f3\u0142 Nr 2 im. Jana D\u0142ugosza w Wieluniu",
                "name": "Zesp\u00f3\u0142 Szk\u00f3\u0142 Nr 2",
                "addr:postcode": "98-300",
                "addr:city": "Wielu\u0144",
                "addr:street": "Romualda Traugutta",
                "addr:housenumber": "12",
                "addr:teryt:simc": 976586,
                "addr:teryt:sym_ul": 22965,
                "phone": "+48 438434980",
                "email": "dlugosz.wielun@wp.pl",
                "website": "http:\/\/dlugosz.wielun.pl",
                "ref:regon": "000191810",
                "ref:vatin": "PL8321033390",
                "operator": "Powiat Wielu\u0144ski",
                "operator:type": "government",
                "landuse": "education",
                "fixme": "amenity=school, amenity=college albo landuse=education w zale\u017cno\u015bci od tego, jakie plac\u00f3wki wchodz\u0105 w sk\u0142ad zespo\u0142u. Sprawd\u017a, kiedy stosowa\u0107 amenity=* a kiedy landuse=education.",
                "note": "Children RSPO: 107607;107614;277209"
            }
        },
        {
            "id": 15656,
            "type": "Feature",
            "geometry": {
                "type": "Point",
                "coordinates": [
                    18.5595399,
                    51.226659999999995
                ]
            },
            "properties": {
                "ref:rspo": 15656,
                "official_name": "Zesp\u00f3\u0142 Szk\u00f3\u0142 Specjalnych w Wieluniu",
                "name": "Zesp\u00f3\u0142 Szk\u00f3\u0142 Specjalnych w Wieluniu",
                "addr:postcode": "98-300",
                "addr:city": "Wielu\u0144",
                "addr:street": "Romualda Traugutta",
                "addr:housenumber": "12",
                "addr:teryt:simc": 976586,
                "addr:teryt:sym_ul": 22965,
                "phone": "+48 438218986",
                "email": "zs5wielun@op.pl",
                "website": "http:\/\/www.zsswielun.szkolnastrona.pl",
                "ref:regon": "731645573",
                "ref:vatin": "PL8321847804",
                "operator": "Powiat Wielu\u0144ski",
                "operator:type": "government",
                "landuse": "education",
                "fixme": "amenity=school, amenity=college albo landuse=education w zale\u017cno\u015bci od tego, jakie plac\u00f3wki wchodz\u0105 w sk\u0142ad zespo\u0142u. Sprawd\u017a, kiedy stosowa\u0107 amenity=* a kiedy landuse=education.",
                "note": "Children RSPO: 107690;107696;267204"
            }
        },
        {
            "id": 107607,
            "type": "Feature",
            "geometry": {
                "type": "Point",
                "coordinates": [
                    18.5595399,
                    51.22663
                ]
            },
            "properties": {
                "isced:level": "3",
                "ref:rspo": 107607,
                "official_name": "Technikum w Zespole Szk\u00f3\u0142 Nr 2 im. Jana D\u0142ugosza w Wieluniu",
                "name": "Technikum w Zespole Szk\u00f3\u0142 Nr 2",
                "addr:postcode": "98-300",
                "addr:city": "Wielu\u0144",
                "addr:street": "Romualda Traugutta",
                "addr:housenumber": "12",
                "addr:teryt:simc": 976586,
                "addr:teryt:sym_ul": 22965,
                "phone": "+48 438434980",
                "email": "dlugosz.sekret@wp.pl",
                "website": "http:\/\/dlugosz.wielun.pl",
                "ref:regon": "100029555",
                "operator": "Powiat Wielu\u0144ski",
                "operator:type": "government",
                "amenity": "school",
                "note": "Parent RSPO: 15551"
            }
        },
        {
            "id": 107614,
            "type": "Feature",
            "geometry": {
                "type": "Point",
                "coordinates": [
                    18.5595399,
                    51.2266
                ]
            },
            "properties": {
                "isced:level": "3",
                "ref:rspo": 107614,
                "official_name": "Bran\u017cowa Szko\u0142a I Stopnia w Zespole Szk\u00f3\u0142 Nr 2 im. Jana D\u0142ugosza w Wieluniu",
                "name": "Bran\u017cowa Szko\u0142a I Stopnia w Zespole Szk\u00f3\u0142 Nr 2",
                "addr:postcode": "98-300",
                "addr:city": "Wielu\u0144",
                "addr:street": "Romualda Traugutta",
                "addr:housenumber": "12",
                "addr:teryt:simc": 976586,
                "addr:teryt:sym_ul": 22965,
                "phone": "+48 438434980",
                "email": "dlugosz.sekret@wp.pl",
                "website": "http:\/\/dlugosz.wielun.pl",
                "ref:regon": "731501443",
                "operator": "Powiat Wielu\u0144ski",
                "operator:type": "government",
                "amenity": "school",
                "note": "Parent RSPO: 15551"
            }
        },
        {
            "id": 277209,
            "type": "Feature",
            "geometry": {
                "type": "Point",
                "coordinates": [
                    18.5595399,
                    51.226569999999995
                ]
            },
            "properties": {
                "isced:level": "3",
                "ref:rspo": 277209,
                "official_name": "Bran\u017cowa Szko\u0142a II Stopnia w Wieluniu",
                "name": "Bran\u017cowa Szko\u0142a II Stopnia w Wieluniu",
                "addr:postcode": "98-300",
                "addr:city": "Wielu\u0144",
                "addr:street": "Romualda Traugutta",
                "addr:housenumber": "12",
                "addr:teryt:simc": 976586,
                "addr:teryt:sym_ul": 22965,
                "phone": "+48 438434980",
                "email": "dlugosz.wielun@wp.pl",
                "ref:regon": "388363390",
                "operator": "Powiat Wielu\u0144ski",
                "operator:type": "government",
                "amenity": "school",
                "note": "Parent RSPO: 15551"
            }
        },
        {
            "id": 107690,
            "type": "Feature",
            "geometry": {
                "type": "Point",
                "coordinates": [
                    18.5595399,
                    51.22654
                ]
            },
            "properties": {
                "isced:level": "3",
                "ref:rspo": 107690,
                "official_name": "Bran\u017cowa Szko\u0142a Specjalna I Stopnia w Zespole Szk\u00f3\u0142 Specjalnych w Wieluniu",
                "name": "Bran\u017cowa Szko\u0142a Specjalna I Stopnia w Zespole Szk\u00f3\u0142 Specjalnych w Wieluniu",
                "addr:postcode": "98-300",
                "addr:city": "Wielu\u0144",
                "addr:street": "Romualda Traugutta",
                "addr:housenumber": "12",
                "addr:teryt:simc": 976586,
                "addr:teryt:sym_ul": 22965,
                "phone": "+48 438218986",
                "email": "zs5wielun@op.pl",
                "website": "http:\/\/www.zsswielun.szkolnastrona.pl",
                "ref:regon": "731584920",
                "operator": "Powiat Wielu\u0144ski",
                "operator:type": "government",
                "amenity": "school",
                "note": "Parent RSPO: 15656"
            }
        },
        {
            "id": 107696,
            "type": "Feature",
            "geometry": {
                "type": "Point",
                "coordinates": [
                    18.5595399,
                    51.22651
                ]
            },
            "properties": {
                "isced:level": "1;2",
                "ref:rspo": 107696,
                "official_name": "Szko\u0142a Podstawowa Specjalna Nr 3 w Zespole Szk\u00f3\u0142 Specjalnych w Wieluniu",
                "name": "Szko\u0142a Podstawowa Specjalna Nr 3 w Zespole Szk\u00f3\u0142 Specjalnych w Wieluniu",
                "addr:postcode": "98-300",
                "addr:city": "Wielu\u0144",
                "addr:street": "Romualda Traugutta",
                "addr:housenumber": "12",
                "addr:teryt:simc": 976586,
                "addr:teryt:sym_ul": 22965,
                "phone": "+48 438218986",
                "email": "zs5wielun@op.pl",
                "website": "http:\/\/zsswielun.szkolnastrona.pl",
                "ref:regon": "000733493",
                "operator": "Powiat Wielu\u0144ski",
                "operator:type": "government",
                "amenity": "school",
                "note": "Parent RSPO: 15656"
            }
        },
        {
            "id": 267204,
            "type": "Feature",
            "geometry": {
                "type": "Point",
                "coordinates": [
                    18.5595399,
                    51.226479999999995
                ]
            },
            "properties": {
                "ref:rspo": 267204,
                "official_name": "Szko\u0142a Specjalna Przysposabiaj\u0105ca Do Pracy w Wieluniu",
                "name": "Szko\u0142a Specjalna Przysposabiaj\u0105ca Do Pracy w Wieluniu",
                "addr:postcode": "98-300",
                "addr:city": "Wielu\u0144",
                "addr:street": "Romualda Traugutta",
                "addr:housenumber": "12",
                "addr:teryt:simc": 976586,
                "addr:teryt:sym_ul": 22965,
                "phone": "+48 438218986",
                "email": "zs5wielun@op.pl",
                "website": "http:\/\/www.zsswielun.szkolnastrona.pl",
                "ref:regon": "380008978",
                "operator": "Powiat Wielu\u0144ski",
                "operator:type": "government",
                "amenity": "school",
                "note": "Parent RSPO: 15656"
            }
        },
        {
            "id": 83651,
            "type": "Feature",
            "geometry": {
                "type": "Point",
                "coordinates": [
                    18.56045,
                    51.22758
                ]
            },
            "properties": {
                "ref:rspo": 83651,
                "official_name": "Publiczne Przedszkole Nr 3 w Wieluniu",
                "name": "Publiczne Przedszkole Nr 3 w Wieluniu",
                "addr:postcode": "98-300",
                "addr:city": "Wielu\u0144",
                "addr:street": "os. Armii Krajowej",
                "addr:housenumber": "11",
                "addr:teryt:simc": 976586,
                "addr:teryt:sym_ul": 429,
                "phone": "+48 438434932",
                "email": "publiczneprzedszkole3@wp.pl",
                "ref:regon": "731012891",
                "ref:vatin": "PL8321847885",
                "operator": "Gmina Wielu\u0144",
                "operator:type": "government",
                "amenity": "kindergarten"
            }
        },
        {
            "id": 15584,
            "type": "Feature",
            "geometry": {
                "type": "Point",
                "coordinates": [
                    18.56322,
                    51.2276
                ]
            },
            "properties": {
                "ref:rspo": 15584,
                "official_name": "Zesp\u00f3\u0142 Szk\u00f3\u0142 Nr 3 im. Miko\u0142aja Kopernika w Wieluniu",
                "name": "Zesp\u00f3\u0142 Szk\u00f3\u0142 Nr 3",
                "addr:postcode": "98-300",
                "addr:city": "Wielu\u0144",
                "addr:street": "Sieradzka",
                "addr:housenumber": "54",
                "addr:teryt:simc": 976586,
                "addr:teryt:sym_ul": 19844,
                "phone": "+48 438434632",
                "email": "szkola@kopernik.wielun.pl",
                "website": "http:\/\/www.kopernik.wielun.pl",
                "ref:regon": "730007988",
                "ref:vatin": "PL8321014234",
                "operator": "Powiat Wielu\u0144ski",
                "operator:type": "government",
                "landuse": "education",
                "fixme": "amenity=school, amenity=college albo landuse=education w zale\u017cno\u015bci od tego, jakie plac\u00f3wki wchodz\u0105 w sk\u0142ad zespo\u0142u. Sprawd\u017a, kiedy stosowa\u0107 amenity=* a kiedy landuse=education.",
                "note": "Children RSPO: 8668;107584;107660"
            }
        },
        {
            "id": 8668,
            "type": "Feature",
            "geometry": {
                "type": "Point",
                "coordinates": [
                    18.56322,
                    51.22757
                ]
            },
            "properties": {
                "isced:level": "3",
                "ref:rspo": 8668,
                "official_name": "Liceum Og\u00f3lnokszta\u0142cace dla Doros\u0142ych w Wieluniu",
                "name": "Liceum Og\u00f3lnokszta\u0142cace dla Doros\u0142ych w Wieluniu",
                "addr:postcode": "98-300",
                "addr:city": "Wielu\u0144",
                "addr:street": "Sieradzka",
                "addr:housenumber": "54",
                "addr:teryt:simc": 976586,
                "addr:teryt:sym_ul": 19844,
                "phone": "+48 438434632",
                "email": "szkola@kopernik.wielun.pl",
                "ref:regon": "101461496",
                "operator": "Powiat Wielu\u0144ski",
                "operator:type": "government",
                "amenity": "school",
                "note": "Parent RSPO: 15584"
            }
        },
        {
            "id": 107584,
            "type": "Feature",
            "geometry": {
                "type": "Point",
                "coordinates": [
                    18.56322,
                    51.227540000000005
                ]
            },
            "properties": {
                "isced:level": "3",
                "ref:rspo": 107584,
                "official_name": "Technikum w Zespole Szk\u00f3\u0142 Nr 3 im. Miko\u0142aja Kopernika w Wieluniu",
                "name": "Technikum w Zespole Szk\u00f3\u0142 Nr 3",
                "addr:postcode": "98-300",
                "addr:city": "Wielu\u0144",
                "addr:street": "Sieradzka",
                "addr:housenumber": "54",
                "addr:teryt:simc": 976586,
                "addr:teryt:sym_ul": 19844,
                "phone": "+48 438434632",
                "email": "szkola@kopernik.wielun.pl",
                "website": "http:\/\/www.kopernik.wielun.pl",
                "ref:regon": "100403284",
                "operator": "Powiat Wielu\u0144ski",
                "operator:type": "government",
                "amenity": "school",
                "note": "Parent RSPO: 15584"
            }
        },
        {
            "id": 107660,
            "type": "Feature",
            "geometry": {
                "type": "Point",
                "coordinates": [
                    18.56322,
                    51.22751
                ]
            },
            "properties": {
                "isced:level": "3",
                "ref:rspo": 107660,
                "official_name": "Bran\u017cowa Szko\u0142a I Stopnia w Zespole Szk\u00f3\u0142 Nr 3 w Wieluniu",
                "name": "Bran\u017cowa Szko\u0142a I Stopnia w Zespole Szk\u00f3\u0142 Nr 3 w Wieluniu",
                "addr:postcode": "98-300",
                "addr:city": "Wielu\u0144",
                "addr:street": "Sieradzka",
                "addr:housenumber": "54",
                "addr:teryt:simc": 976586,
                "addr:teryt:sym_ul": 19844,
                "phone": "+48 438434632",
                "email": "szkola@kopernik.wielun.pl",
                "website": "http:\/\/www.kopernik.wieun.pl",
                "ref:regon": "000197770",
                "operator": "Powiat Wielu\u0144ski",
                "operator:type": "government",
                "amenity": "school",
                "note": "Parent RSPO: 15584"
            }
        },
        {
            "id": 23914,
            "type": "Feature",
            "geometry": {
                "type": "Point",
                "coordinates": [
                    18.55185,
                    51.22812
                ]
            },
            "properties": {
                "ref:rspo": 23914,
                "official_name": "O\u015brodek Kszta\u0142cenia Zawodowego Andrzej Kalemba",
                "name": "O\u015brodek Kszta\u0142cenia Zawodowego Andrzej Kalemba",
                "addr:postcode": "98-300",
                "addr:city": "Wielu\u0144",
                "addr:street": "Romualda Traugutta",
                "addr:housenumber": "53",
                "addr:teryt:simc": 976586,
                "addr:teryt:sym_ul": 22965,
                "phone": "+48 438432186",
                "email": "biuro@kursy-wielun.pl",
                "website": "http:\/\/www.kursy-wielun.pl",
                "ref:regon": "101477161",
                "ref:vatin": "PL8321874043",
                "operator": "Andrzej Kalemba",
                "operator:type": "private",
                "fixme": "w zale\u017cno\u015bci od przedmiotu dzia\u0142alno\u015bci (np. amenity=training + training=*, amenity=dancing_school, amenity=language_school, amenity=music_school)"
            }
        },
        {
            "id": 49079,
            "type": "Feature",
            "geometry": {
                "type": "Point",
                "coordinates": [
                    18.55227,
                    51.22887
                ]
            },
            "properties": {
                "isced:level": "1;2",
                "ref:rspo": 49079,
                "official_name": "Szko\u0142a Podstawowa Nr 5 Z Oddzia\u0142ami Integracyjnymi im. Powsta\u0144c\u00f3w \u015aL\u0105skich w Wieluniu",
                "name": "Szko\u0142a Podstawowa Nr 5 Z Oddzia\u0142ami Integracyjnymi",
                "addr:postcode": "98-300",
                "addr:city": "Wielu\u0144",
                "addr:street": "Romualda Traugutta",
                "addr:housenumber": "38",
                "addr:teryt:simc": 976586,
                "addr:teryt:sym_ul": 22965,
                "phone": "+48 438434275",
                "email": "sp5wielun@gmail.com",
                "website": "http:\/\/www.sp5wielun.edupage.org",
                "ref:regon": "000259376",
                "ref:vatin": "PL8321847891",
                "operator": "Gmina Wielu\u0144",
                "operator:type": "government",
                "amenity": "school"
            }
        },
        {
            "id": 133239,
            "type": "Feature",
            "geometry": {
                "type": "Point",
                "coordinates": [
                    18.54534,
                    51.22973
                ]
            },
            "properties": {
                "ref:rspo": 133239,
                "official_name": "Niepubliczny Punt Przedszkolny 'Zielony Listek\"",
                "name": "Niepubliczny Punt Przedszkolny 'Zielony Listek\"",
                "addr:postcode": "98-300",
                "addr:city": "D\u0105browa",
                "addr:street": "Wroc\u0142awska",
                "addr:housenumber": "33",
                "addr:teryt:simc": 717896,
                "addr:teryt:sym_ul": 24806,
                "phone": "+48 692666125",
                "email": "annaszkudlarek@przedszkolezielonylistek.pl",
                "ref:regon": "366874126",
                "operator": "Niepubliczny Punkt Przedszkolny \"Zielony Listek\" Anna Szkudlarek",
                "operator:type": "consortium",
                "amenity": "kindergarten"
            }
        },
        {
            "id": 127561,
            "type": "Feature",
            "geometry": {
                "type": "Point",
                "coordinates": [
                    18.56657,
                    51.2299999
                ]
            },
            "properties": {
                "ref:rspo": 127561,
                "official_name": "O\u015brodek Dokszta\u0142cania I Doskonalenia Zawodowego w Wieluniu",
                "name": "O\u015brodek Dokszta\u0142cania I Doskonalenia Zawodowego w Wieluniu",
                "addr:postcode": "98-300",
                "addr:city": "Wielu\u0144",
                "addr:street": "Ciep\u0142ownicza",
                "addr:housenumber": "27",
                "addr:teryt:simc": 976586,
                "addr:teryt:sym_ul": 3034,
                "phone": "+48 438437580",
                "email": "ocynkownia@cynkowniawielun.pl",
                "ref:regon": "361697257",
                "operator": "Cynkownia Wielu\u0144 Sp\u00f3\u0142ka Z Ograniczon\u0105 Odpowiedzialno\u015bci\u0105",
                "operator:type": "private",
                "fixme": "w zale\u017cno\u015bci od przedmiotu dzia\u0142alno\u015bci (np. amenity=training + training=*, amenity=dancing_school, amenity=language_school, amenity=music_school)"
            }
        },
        {
            "id": 75607,
            "type": "Feature",
            "geometry": {
                "type": "Point",
                "coordinates": [
                    18.57174,
                    51.23023
                ]
            },
            "properties": {
                "ref:rspo": 75607,
                "official_name": "Pa\u0144stwowa Szko\u0142a Muzyczna I Stopnia",
                "name": "Pa\u0144stwowa Szko\u0142a Muzyczna I Stopnia",
                "addr:postcode": "98-300",
                "addr:city": "Wielu\u0144",
                "addr:street": "Ciep\u0142ownicza",
                "addr:housenumber": "22",
                "addr:teryt:simc": 976586,
                "addr:teryt:sym_ul": 3034,
                "phone": "+48 438433682",
                "email": "psmwielun@poczta.onet.pl",
                "ref:regon": "000832150",
                "operator": "Ministerstwo Kultury I Dziedzictwa Narodowego",
                "operator:type": "public",
                "amenity": "music_school"
            }
        },
        {
            "id": 48203,
            "type": "Feature",
            "geometry": {
                "type": "Point",
                "coordinates": [
                    18.67865,
                    51.23946
                ]
            },
            "properties": {
                "isced:level": "1;2",
                "ref:rspo": 48203,
                "official_name": "Szko\u0142a Podstawowa w Sie\u0144cu",
                "name": "Szko\u0142a Podstawowa w Sie\u0144cu",
                "addr:postcode": "98-300",
                "addr:place": "Sieniec",
                "addr:housenumber": "81B",
                "addr:teryt:simc": 718223,
                "email": "sp.sieniec@wp.pl",
                "ref:regon": "000734819",
                "ref:vatin": "PL8321847856",
                "operator": "Gmina Wielu\u0144",
                "operator:type": "government",
                "amenity": "school"
            }
        },
        {
            "id": 48199,
            "type": "Feature",
            "geometry": {
                "type": "Point",
                "coordinates": [
                    18.57819,
                    51.24518
                ]
            },
            "properties": {
                "isced:level": "1;2",
                "ref:rspo": 48199,
                "official_name": "Szko\u0142a Podstawowa im. W\u0142adys\u0142awa Be\u0142zy w Bieni\u0105dzicach",
                "name": "Szko\u0142a Podstawowa",
                "addr:postcode": "98-300",
                "addr:place": "Bieni\u0105dzice",
                "addr:housenumber": "50",
                "addr:teryt:simc": 717873,
                "phone": "+48 438433091",
                "email": "dyrektor-spb@oswiata.wielun.pl",
                "ref:regon": "000734788",
                "ref:vatin": "PL8321847945",
                "operator": "Gmina Wielu\u0144",
                "operator:type": "government",
                "amenity": "school"
            }
        },
        {
            "id": 48202,
            "type": "Feature",
            "geometry": {
                "type": "Point",
                "coordinates": [
                    18.63723,
                    51.25385
                ]
            },
            "properties": {
                "isced:level": "1;2",
                "ref:rspo": 48202,
                "official_name": "Szko\u0142a Podstawowa im. Marii Konopnickiej w Mas\u0142owicach",
                "name": "Szko\u0142a Podstawowa",
                "addr:postcode": "98-300",
                "addr:place": "Mas\u0142owice",
                "addr:housenumber": "1",
                "addr:teryt:simc": 718111,
                "phone": "+48 438428195",
                "email": "dyrektor-spm@oswiata.wielun.pl",
                "website": "http:\/\/bip-sp.maslowice.um.wielun.pl",
                "ref:regon": "000734802",
                "ref:vatin": "PL8321847939",
                "operator": "Gmina Wielu\u0144",
                "operator:type": "government",
                "amenity": "school"
            }
        }
    ]
}