{
    "type": "FeatureCollection",
    "features": [
        {
            "id": 90013,
            "type": "Feature",
            "geometry": {
                "type": "Point",
                "coordinates": [
                    18.75867,
                    51.35053
                ]
            },
            "properties": {
                "isced:level": "1;2",
                "ref:rspo": 90013,
                "official_name": "Szko\u0142a Podstawowa w Szynkielowie",
                "name": "Szko\u0142a Podstawowa w Szynkielowie",
                "addr:postcode": "98-313",
                "addr:place": "Szynkiel\u00f3w",
                "addr:housenumber": "53",
                "addr:city:simc": 705367,
                "phone": "+48 438424086",
                "email": "szynkiel@vp.pl",
                "ref:regon": "001150109",
                "ref:vatin": "PL8321853532",
                "operator": "Gmina Konopnica",
                "operator:type": "government",
                "amenity": "school"
            }
        },
        {
            "id": 90015,
            "type": "Feature",
            "geometry": {
                "type": "Point",
                "coordinates": [
                    18.8182,
                    51.3533199
                ]
            },
            "properties": {
                "isced:level": "1;2",
                "ref:rspo": 90015,
                "official_name": "Szko\u0142a Podstawowa im. 72 Pp \"Radom\" w Konopnicy",
                "name": "Szko\u0142a Podstawowa",
                "addr:postcode": "98-313",
                "addr:city": "Konopnica",
                "addr:street": "Szkolna",
                "addr:housenumber": "18",
                "addr:city:simc": 705137,
                "addr:street:sym_ul": 21970,
                "phone": "+48 438424469",
                "email": "sp.konopnica1@wp.pl",
                "website": "http:\/\/spkonopnica.eu",
                "ref:regon": "000642170",
                "ref:vatin": "PL8321853526",
                "operator": "Gmina Konopnica",
                "operator:type": "government",
                "amenity": "school"
            }
        },
        {
            "id": 90012,
            "type": "Feature",
            "geometry": {
                "type": "Point",
                "coordinates": [
                    18.82169,
                    51.39384
                ]
            },
            "properties": {
                "isced:level": "1;2",
                "ref:rspo": 90012,
                "official_name": "Szko\u0142a Podstawowa im. Jana Paw\u0142a II w Rych\u0142ocicach",
                "name": "Szko\u0142a Podstawowa",
                "addr:postcode": "98-313",
                "addr:place": "Rych\u0142ocice",
                "addr:housenumber": "108a",
                "addr:city:simc": 705210,
                "phone": "+48 438424718",
                "email": "sprych@poczta.onet.pl",
                "ref:regon": "001150090",
                "ref:vatin": "PL8321853495",
                "operator": "Gmina Konopnica",
                "operator:type": "government",
                "amenity": "school"
            }
        }
    ]
}