{
    "type": "FeatureCollection",
    "features": [
        {
            "id": 30160,
            "type": "Feature",
            "geometry": {
                "type": "Point",
                "coordinates": [
                    18.73771,
                    51.08233
                ]
            },
            "properties": {
                "ref:rspo": 30160,
                "official_name": "Zesp\u00f3\u0142 Szk\u00f3\u0142 Samorz\u0105dowych im. Jana Paw\u0142a II Wielkiego w Za\u0142\u0119czu Ma\u0142ym",
                "name": "Zesp\u00f3\u0142 Szk\u00f3\u0142 Samorz\u0105dowych",
                "addr:country": "PL",
                "addr:postcode": "98-335",
                "addr:place": "Za\u0142\u0119cze Ma\u0142e",
                "addr:housenumber": "35",
                "addr:teryt:simc": 709589,
                "contact:phone": "+48 438865008",
                "contact:email": "spzaleczemale@oswiata.org.pl",
                "contact:website": "http:\/\/www.zss-zaleczemale.wielun.pl\/",
                "ref:regon": "100030311",
                "operator": "Gmina P\u0105tn\u00f3w",
                "operator:type": "government",
                "landuse": "education",
                "fixme": "amenity=school, amenity=college albo landuse=education w zale\u017cno\u015bci od tego, jakie plac\u00f3wki wchodz\u0105 w sk\u0142ad zespo\u0142u. Sprawd\u017a, kiedy stosowa\u0107 amenity=* a kiedy landuse=education.",
                "note": "Children RSPO: 40832;40835;275549"
            }
        },
        {
            "id": 40832,
            "type": "Feature",
            "geometry": {
                "type": "Point",
                "coordinates": [
                    18.73771,
                    51.0823
                ]
            },
            "properties": {
                "isced:level": "1;2",
                "ref:rspo": 40832,
                "official_name": "Publiczna Szko\u0142a Podstawowa w Za\u0142\u0119czu Ma\u0142ym",
                "name": "Publiczna Szko\u0142a Podstawowa w Za\u0142\u0119czu Ma\u0142ym",
                "addr:country": "PL",
                "addr:postcode": "98-335",
                "addr:place": "Za\u0142\u0119cze Ma\u0142e",
                "addr:housenumber": "35",
                "addr:teryt:simc": 709589,
                "contact:phone": "+48 438865008",
                "contact:email": "spzaleczemale@oswiata.org.pl",
                "contact:website": "http:\/\/zss-zaleczemale.wielun.pl",
                "ref:regon": "001150279",
                "operator": "Gmina P\u0105tn\u00f3w",
                "operator:type": "government",
                "amenity": "school",
                "note": "Parent RSPO: 30160"
            }
        },
        {
            "id": 40835,
            "type": "Feature",
            "geometry": {
                "type": "Point",
                "coordinates": [
                    18.73771,
                    51.08227
                ]
            },
            "properties": {
                "ref:rspo": 40835,
                "official_name": "Publiczne Przedszkole w Za\u0142\u0119czu Ma\u0142ym",
                "name": "Publiczne Przedszkole w Za\u0142\u0119czu Ma\u0142ym",
                "addr:country": "PL",
                "addr:postcode": "98-335",
                "addr:place": "Za\u0142\u0119cze Ma\u0142e",
                "addr:housenumber": "35",
                "addr:teryt:simc": 709589,
                "contact:phone": "+48 438865008",
                "contact:email": "spzaleczemale@oswiata.org.pl",
                "ref:regon": "100030334",
                "operator": "Gmina P\u0105tn\u00f3w",
                "operator:type": "government",
                "amenity": "kindergarten",
                "note": "Parent RSPO: 30160"
            }
        },
        {
            "id": 59884,
            "type": "Feature",
            "geometry": {
                "type": "Point",
                "coordinates": [
                    18.6945799,
                    51.08281
                ]
            },
            "properties": {
                "ref:rspo": 59884,
                "official_name": "O\u015brodek Szkoleniowo-Wypoczynkowy Zhp \"Nadwarcia\u0144ski Gr\u00f3d\" w Za\u0142eczu Wielkim",
                "name": "O\u015brodek Szkoleniowo-Wypoczynkowy Zhp \"Nadwarcia\u0144ski Gr\u00f3d\" w Za\u0142eczu Wielkim",
                "addr:country": "PL",
                "addr:postcode": "98-335",
                "addr:place": "Za\u0142\u0119cze Wielkie",
                "addr:housenumber": "89",
                "addr:teryt:simc": 709649,
                "contact:phone": "+48 438412081",
                "contact:email": "zalecze@zalecze.pl",
                "ref:regon": "101493674",
                "ref:vatin": "PL8321957208",
                "operator": "Zwi\u0105zek Harcerstwa Polskiego",
                "operator:type": "ngo",
                "fixme": "w zale\u017cno\u015bci od przedmiotu dzia\u0142alno\u015bci (np. amenity=training + training=*, amenity=dancing_school, amenity=language_school, amenity=music_school)"
            }
        },
        {
            "id": 275549,
            "type": "Feature",
            "geometry": {
                "type": "Point",
                "coordinates": [
                    18.68271,
                    51.08688
                ]
            },
            "properties": {
                "ref:rspo": 275549,
                "official_name": "Publiczne Przedszkole w Za\u0142\u0119czu Wielkim",
                "name": "Publiczne Przedszkole w Za\u0142\u0119czu Wielkim",
                "addr:country": "PL",
                "addr:postcode": "98-335",
                "addr:place": "Za\u0142\u0119cze Wielkie",
                "addr:housenumber": "76",
                "addr:teryt:simc": 709649,
                "contact:phone": "+48 438865008",
                "contact:email": "spzaleczemale@oswiata.org.pl",
                "ref:regon": "386924825",
                "operator": "Gmina P\u0105tn\u00f3w",
                "operator:type": "government",
                "amenity": "kindergarten",
                "note": "Parent RSPO: 30160"
            }
        },
        {
            "id": 30283,
            "type": "Feature",
            "geometry": {
                "type": "Point",
                "coordinates": [
                    18.60893,
                    51.1175799
                ]
            },
            "properties": {
                "ref:rspo": 30283,
                "official_name": "Zesp\u00f3\u0142 Szk\u00f3\u0142 Samorz\u0105dowych im. Kr\u00f3la W\u0142adys\u0142awa Jagie\u0142\u0142y w Dzietrznikach",
                "name": "Zesp\u00f3\u0142 Szk\u00f3\u0142 Samorz\u0105dowych",
                "addr:country": "PL",
                "addr:postcode": "98-335",
                "addr:place": "Dzietrzniki",
                "addr:housenumber": "105",
                "addr:teryt:simc": 709282,
                "contact:phone": "+48 438865650",
                "contact:email": "sekretariat@zss-dzietrzniki.szkolnastrona.pl",
                "ref:regon": "100030274",
                "operator": "Gmina P\u0105tn\u00f3w",
                "operator:type": "government",
                "landuse": "education",
                "fixme": "amenity=school, amenity=college albo landuse=education w zale\u017cno\u015bci od tego, jakie plac\u00f3wki wchodz\u0105 w sk\u0142ad zespo\u0142u. Sprawd\u017a, kiedy stosowa\u0107 amenity=* a kiedy landuse=education.",
                "note": "Children RSPO: 40789;40942;275553"
            }
        },
        {
            "id": 40789,
            "type": "Feature",
            "geometry": {
                "type": "Point",
                "coordinates": [
                    18.60893,
                    51.1175499
                ]
            },
            "properties": {
                "ref:rspo": 40789,
                "official_name": "Publiczne Przedszkole w Dzietrznikach",
                "name": "Publiczne Przedszkole w Dzietrznikach",
                "addr:country": "PL",
                "addr:postcode": "98-335",
                "addr:place": "Dzietrzniki",
                "addr:housenumber": "105",
                "addr:teryt:simc": 709282,
                "contact:phone": "+48 438865650",
                "contact:email": "sekretariat@zss-dzietrzniki.szkolnastrona.pl",
                "ref:regon": "100030297",
                "operator": "Gmina P\u0105tn\u00f3w",
                "operator:type": "government",
                "amenity": "kindergarten",
                "note": "Parent RSPO: 30283"
            }
        },
        {
            "id": 40942,
            "type": "Feature",
            "geometry": {
                "type": "Point",
                "coordinates": [
                    18.60893,
                    51.117519900000005
                ]
            },
            "properties": {
                "isced:level": "1;2",
                "ref:rspo": 40942,
                "official_name": "Publiczna Szko\u0142a Podstawowa w Dzietrznikach",
                "name": "Publiczna Szko\u0142a Podstawowa w Dzietrznikach",
                "addr:country": "PL",
                "addr:postcode": "98-335",
                "addr:place": "Dzietrzniki",
                "addr:housenumber": "105",
                "addr:teryt:simc": 709282,
                "contact:phone": "+48 438865650",
                "contact:email": "sekretariat@zss-dzietrzniki.szkolnastrona.pl",
                "ref:regon": "001150233",
                "operator": "Gmina P\u0105tn\u00f3w",
                "operator:type": "government",
                "amenity": "school",
                "note": "Parent RSPO: 30283"
            }
        },
        {
            "id": 60201,
            "type": "Feature",
            "geometry": {
                "type": "Point",
                "coordinates": [
                    18.64652,
                    51.11927
                ]
            },
            "properties": {
                "isced:level": "1;2",
                "ref:rspo": 60201,
                "official_name": "Publiczna Szko\u0142a Podstawowa Stowarzyszenia Przyjaci\u00f3\u0142 Szk\u00f3\u0142 Katolickich im. \u015awi\u0119tego Stanis\u0142awa Kostki w Bie\u0144cu",
                "name": "Publiczna Szko\u0142a Podstawowa Stowarzyszenia Przyjaci\u00f3\u0142 Szk\u00f3\u0142 Katolickich",
                "addr:country": "PL",
                "addr:postcode": "98-335",
                "addr:place": "Bieniec",
                "addr:housenumber": "9",
                "addr:teryt:simc": 709230,
                "contact:phone": "+48 438865661",
                "contact:email": "bieniec@spsk.info.pl",
                "contact:website": "http:\/\/bieniec.spsk.info.pl",
                "ref:regon": "101492551",
                "operator": "Stowarzyszenie Przyjaci\u00f3\u0142 Szk\u00f3\u0142 Katolickich",
                "operator:type": "ngo",
                "amenity": "school"
            }
        },
        {
            "id": 111924,
            "type": "Feature",
            "geometry": {
                "type": "Point",
                "coordinates": [
                    18.64652,
                    51.11924
                ]
            },
            "properties": {
                "ref:rspo": 111924,
                "official_name": "Punkt Przedszkolny Stowarzyszenia Przyjaci\u00f3\u0142 Szk\u00f3\u0142 Katolickich",
                "name": "Punkt Przedszkolny Stowarzyszenia Przyjaci\u00f3\u0142 Szk\u00f3\u0142 Katolickich",
                "addr:country": "PL",
                "addr:postcode": "98-335",
                "addr:place": "Bieniec",
                "addr:housenumber": "9",
                "addr:teryt:simc": 709230,
                "contact:phone": "+48 438865661",
                "contact:email": "bieniec@spsk.info.pl",
                "ref:regon": "101573396",
                "operator": "Stowarzyszenie Przyjaci\u00f3\u0142 Szk\u00f3\u0142 Katolickich",
                "operator:type": "ngo",
                "amenity": "kindergarten"
            }
        },
        {
            "id": 275553,
            "type": "Feature",
            "geometry": {
                "type": "Point",
                "coordinates": [
                    18.57609,
                    51.14055
                ]
            },
            "properties": {
                "ref:rspo": 275553,
                "official_name": "Publiczne Przedszkole w Gr\u0119bieniu",
                "name": "Publiczne Przedszkole w Gr\u0119bieniu",
                "addr:country": "PL",
                "addr:postcode": "98-335",
                "addr:place": "Gr\u0119bie\u0144",
                "addr:housenumber": "107",
                "addr:teryt:simc": 709394,
                "contact:phone": "+48 438865650",
                "contact:email": "sekretariat@zss-dzietrzniki.szkolnastrona.pl",
                "ref:regon": "386924883",
                "operator": "Gmina P\u0105tn\u00f3w",
                "operator:type": "government",
                "amenity": "kindergarten",
                "note": "Parent RSPO: 30283"
            }
        },
        {
            "id": 30159,
            "type": "Feature",
            "geometry": {
                "type": "Point",
                "coordinates": [
                    18.61603,
                    51.145
                ]
            },
            "properties": {
                "ref:rspo": 30159,
                "official_name": "Zesp\u00f3\u0142 Szk\u00f3\u0142 Samorz\u0105dowych im. W\u0142. St. Reymonta w P\u0105tnowie",
                "name": "Zesp\u00f3\u0142 Szk\u00f3\u0142 Samorz\u0105dowych",
                "addr:country": "PL",
                "addr:postcode": "98-335",
                "addr:place": "P\u0105tn\u00f3w",
                "addr:housenumber": "105",
                "addr:teryt:simc": 709490,
                "contact:phone": "+48 438865340",
                "contact:email": "sekretariat@szkolapatnow.pl",
                "contact:website": "http:\/\/www.szkolapatnow.pl",
                "ref:regon": "100030239",
                "operator": "Gmina P\u0105tn\u00f3w",
                "operator:type": "government",
                "landuse": "education",
                "fixme": "amenity=school, amenity=college albo landuse=education w zale\u017cno\u015bci od tego, jakie plac\u00f3wki wchodz\u0105 w sk\u0142ad zespo\u0142u. Sprawd\u017a, kiedy stosowa\u0107 amenity=* a kiedy landuse=education.",
                "note": "Children RSPO: 40923;40931;40932;275519"
            }
        },
        {
            "id": 40923,
            "type": "Feature",
            "geometry": {
                "type": "Point",
                "coordinates": [
                    18.61603,
                    51.14497
                ]
            },
            "properties": {
                "isced:level": "1;2",
                "ref:rspo": 40923,
                "official_name": "Publiczna Szko\u0142a Podstawowa w P\u0105tnowie",
                "name": "Publiczna Szko\u0142a Podstawowa w P\u0105tnowie",
                "addr:country": "PL",
                "addr:postcode": "98-335",
                "addr:place": "P\u0105tn\u00f3w",
                "addr:housenumber": "105",
                "addr:teryt:simc": 709490,
                "contact:phone": "+48 438865340",
                "contact:email": "sekretariat@szkolapatnow.pl",
                "contact:website": "http:\/\/www.szkolapatnow.pl",
                "ref:regon": "000273040",
                "operator": "Gmina P\u0105tn\u00f3w",
                "operator:type": "government",
                "amenity": "school",
                "note": "Parent RSPO: 30159"
            }
        },
        {
            "id": 40931,
            "type": "Feature",
            "geometry": {
                "type": "Point",
                "coordinates": [
                    18.61603,
                    51.144940000000005
                ]
            },
            "properties": {
                "ref:rspo": 40931,
                "official_name": "Publiczne Przedszkole w P\u0105tnowie",
                "name": "Publiczne Przedszkole w P\u0105tnowie",
                "addr:country": "PL",
                "addr:postcode": "98-335",
                "addr:place": "P\u0105tn\u00f3w",
                "addr:housenumber": "105",
                "addr:teryt:simc": 709490,
                "contact:phone": "+48 438865340",
                "contact:email": "sekretariat@szkolapatnow.pl",
                "ref:regon": "100030245",
                "operator": "Gmina P\u0105tn\u00f3w",
                "operator:type": "government",
                "amenity": "kindergarten",
                "note": "Parent RSPO: 30159"
            }
        },
        {
            "id": 275519,
            "type": "Feature",
            "geometry": {
                "type": "Point",
                "coordinates": [
                    18.5603,
                    51.15425
                ]
            },
            "properties": {
                "ref:rspo": 275519,
                "official_name": "Publiczne Przedszkole w Popowicach",
                "name": "Publiczne Przedszkole w Popowicach",
                "addr:country": "PL",
                "addr:postcode": "98-335",
                "addr:place": "Popowice",
                "addr:housenumber": "57B",
                "addr:teryt:simc": 709550,
                "contact:phone": "+48 438865340",
                "contact:email": "sekretariat@szkolapatnow.pl",
                "ref:regon": "386923470",
                "operator": "Gmina P\u0105tn\u00f3w",
                "operator:type": "government",
                "amenity": "kindergarten",
                "note": "Parent RSPO: 30159"
            }
        },
        {
            "id": 40932,
            "type": "Feature",
            "geometry": {
                "type": "Point",
                "coordinates": [
                    18.6093914,
                    51.1685885
                ]
            },
            "properties": {
                "ref:rspo": 40932,
                "official_name": "Publiczne Przedszkole w Kamionce",
                "name": "Publiczne Przedszkole w Kamionce",
                "addr:country": "PL",
                "addr:postcode": "98-335",
                "addr:place": "Kamionka",
                "addr:housenumber": "38a",
                "addr:teryt:simc": 709477,
                "contact:phone": "+48 438865130",
                "contact:email": "sekretariat@szkolapatnow.pl",
                "ref:regon": "100563540",
                "operator": "Gmina P\u0105tn\u00f3w",
                "operator:type": "government",
                "amenity": "kindergarten",
                "note": "Parent RSPO: 30159"
            }
        },
        {
            "id": 60200,
            "type": "Feature",
            "geometry": {
                "type": "Point",
                "coordinates": [
                    18.60845,
                    51.16862
                ]
            },
            "properties": {
                "isced:level": "1;2",
                "ref:rspo": 60200,
                "official_name": "Publiczna Szko\u0142a Podstawowa Stowarzyszenia Przyjaci\u00f3\u0142 Szk\u00f3\u0142 Katolickich",
                "name": "Publiczna Szko\u0142a Podstawowa Stowarzyszenia Przyjaci\u00f3\u0142 Szk\u00f3\u0142 Katolickich",
                "addr:country": "PL",
                "addr:postcode": "98-335",
                "addr:place": "Kamionka",
                "addr:housenumber": "41",
                "addr:teryt:simc": 709477,
                "contact:phone": "+48 438865661",
                "ref:regon": "101492545",
                "operator": "Stowarzyszenie Przyjaci\u00f3\u0142 Szk\u00f3\u0142 Katolickich",
                "operator:type": "ngo",
                "amenity": "school"
            }
        }
    ]
}