{
    "type": "FeatureCollection",
    "features": [
        {
            "id": 66485,
            "type": "Feature",
            "geometry": {
                "type": "Point",
                "coordinates": [
                    15.23304,
                    51.79739
                ]
            },
            "properties": {
                "ref:rspo": 66485,
                "official_name": "Miejsko-Gminne Przedszkole Samorz\u0105dowe w Nowogrodzie Bobrza\u0144skim",
                "name": "Miejsko-Gminne Przedszkole Samorz\u0105dowe w Nowogrodzie Bobrza\u0144skim",
                "addr:postcode": "66-010",
                "addr:city": "Nowogr\u00f3d Bobrza\u0144ski",
                "addr:street": "Szkolna",
                "addr:housenumber": "6",
                "addr:teryt:simc": 988572,
                "addr:teryt:sym_ul": 21970,
                "phone": "+48 683276508",
                "email": "przedszkole@nowogrodbobrz.pl",
                "ref:regon": "970023620",
                "ref:vatin": "PL9730412145",
                "operator": "Gmina Nowogr\u00f3d Bobrza\u0144ski",
                "operator:type": "government",
                "amenity": "kindergarten"
            }
        },
        {
            "id": 104587,
            "type": "Feature",
            "geometry": {
                "type": "Point",
                "coordinates": [
                    15.23283,
                    51.80057
                ]
            },
            "properties": {
                "isced:level": "1;2",
                "ref:rspo": 104587,
                "official_name": "Szko\u0142a Podstawowa Nr 1 im. Janusza Korczaka w Nowogrodzie Bobrza\u0144skim",
                "name": "Szko\u0142a Podstawowa Nr 1",
                "addr:postcode": "66-010",
                "addr:city": "Nowogr\u00f3d Bobrza\u0144ski",
                "addr:street": "Marcinkowskiego",
                "addr:housenumber": "2",
                "addr:teryt:simc": 988572,
                "addr:teryt:sym_ul": 12294,
                "phone": "+48 683276535",
                "email": "spnowogrod1@nowogrodbobrz.pl",
                "website": "http:\/\/sp-nowogrod.pl",
                "ref:regon": "970570670",
                "ref:vatin": "PL9730409108",
                "operator": "Gmina Nowogr\u00f3d Bobrza\u0144ski",
                "operator:type": "government",
                "amenity": "school"
            }
        },
        {
            "id": 262769,
            "type": "Feature",
            "geometry": {
                "type": "Point",
                "coordinates": [
                    15.2438,
                    51.8071
                ]
            },
            "properties": {
                "isced:level": "1;2",
                "ref:rspo": 262769,
                "official_name": "Szko\u0142a Podstawowa Nr 2 im. Henryka Brodatego w Nowogrodzie Bobrza\u0144skim",
                "name": "Szko\u0142a Podstawowa Nr 2",
                "addr:postcode": "66-010",
                "addr:city": "Nowogr\u00f3d Bobrza\u0144ski",
                "addr:street": "Tadeusza Ko\u015bciuszki",
                "addr:housenumber": "41",
                "addr:teryt:simc": 988572,
                "addr:teryt:sym_ul": 9572,
                "phone": "+48 683276613",
                "email": "sp2@nowogrodbobrz.pl",
                "website": "http:\/\/www.pgnb.szkolnastrona.pl\/",
                "ref:regon": "368056142",
                "ref:vatin": "PL9731044436",
                "operator": "Gmina Nowogr\u00f3d Bobrza\u0144ski",
                "operator:type": "government",
                "amenity": "school"
            }
        },
        {
            "id": 104585,
            "type": "Feature",
            "geometry": {
                "type": "Point",
                "coordinates": [
                    15.38748,
                    51.81904
                ]
            },
            "properties": {
                "isced:level": "1;2",
                "ref:rspo": 104585,
                "official_name": "Szko\u0142a Podstawowa w Niwiskach im. Jana Paw\u0142a Ii",
                "name": "Szko\u0142a Podstawowa w Niwiskach",
                "addr:postcode": "66-010",
                "addr:city": "Niwiska",
                "addr:street": "Akacjowa",
                "addr:housenumber": "1",
                "addr:teryt:simc": 912630,
                "addr:teryt:sym_ul": 157,
                "phone": "+48 683211991",
                "email": "spniwiska@nowogrodbobrz.pl",
                "website": "http:\/\/nowogrodbobrz.pl\/sp-niwiska",
                "ref:regon": "970570746",
                "ref:vatin": "PL9730408847",
                "operator": "Gmina Nowogr\u00f3d Bobrza\u0144ski",
                "operator:type": "government",
                "amenity": "school"
            }
        },
        {
            "id": 119000,
            "type": "Feature",
            "geometry": {
                "type": "Point",
                "coordinates": [
                    15.26294,
                    51.84851
                ]
            },
            "properties": {
                "ref:rspo": 119000,
                "official_name": "Niepubliczny Zesp\u00f3\u0142 Szkolno-Przedszkolny Pro Novo Bogacz\u00f3wul. Szkolna 4",
                "name": "Niepubliczny Zesp\u00f3\u0142 Szkolno-Przedszkolny Pro Novo Bogacz\u00f3wul. Szkolna 4",
                "addr:postcode": "66-010",
                "addr:city": "Bogacz\u00f3w",
                "addr:street": "Szkolna",
                "addr:housenumber": "4",
                "addr:teryt:simc": 912497,
                "addr:teryt:sym_ul": 21970,
                "phone": "+48 602351001",
                "email": "pronovo.org.pl@gmail.com",
                "website": "http:\/\/pronovo.or.pl",
                "ref:regon": "081156265",
                "operator": "Fundacja Na Rzecz Wspierania Wszechstronnego Rozwoju Pro Novo",
                "operator:type": "ngo",
                "landuse": "education",
                "fixme": "amenity=school, amenity=college albo landuse=education w zale\u017cno\u015bci od tego, jakie plac\u00f3wki wchodz\u0105 w sk\u0142ad zespo\u0142u. Sprawd\u017a, kiedy stosowa\u0107 amenity=* a kiedy landuse=education.",
                "note": "Children RSPO: 115643;115644"
            }
        },
        {
            "id": 115643,
            "type": "Feature",
            "geometry": {
                "type": "Point",
                "coordinates": [
                    15.26294,
                    51.848479999999995
                ]
            },
            "properties": {
                "ref:rspo": 115643,
                "official_name": "Niepubliczne Przedszkole Pro Novo w Bogaczowie",
                "name": "Niepubliczne Przedszkole Pro Novo w Bogaczowie",
                "addr:postcode": "66-010",
                "addr:city": "Bogacz\u00f3w",
                "addr:street": "Szkolna",
                "addr:housenumber": "4",
                "addr:teryt:simc": 912497,
                "addr:teryt:sym_ul": 21970,
                "phone": "+48 602351001",
                "email": "a.ziolkowska@pronovo.org.pl",
                "website": "http:\/\/pronovo.org.pl",
                "ref:regon": "081148001",
                "operator": "Fundacja Na Rzecz Wspierania Wszechstronnego Rozwoju Pro Novo",
                "operator:type": "ngo",
                "amenity": "kindergarten",
                "note": "Parent RSPO: 119000"
            }
        },
        {
            "id": 115644,
            "type": "Feature",
            "geometry": {
                "type": "Point",
                "coordinates": [
                    15.26294,
                    51.84845
                ]
            },
            "properties": {
                "isced:level": "1;2",
                "ref:rspo": 115644,
                "official_name": "Niepubliczna Szko\u0142a Podstawowa Pro Novo w Bogaczowie",
                "name": "Niepubliczna Szko\u0142a Podstawowa Pro Novo w Bogaczowie",
                "addr:postcode": "66-010",
                "addr:city": "Bogacz\u00f3w",
                "addr:street": "Szkolna",
                "addr:housenumber": "4",
                "addr:teryt:simc": 912497,
                "addr:teryt:sym_ul": 21970,
                "phone": "+48 602351001",
                "email": "pronovo.org.pl@gmail.com",
                "website": "http:\/\/pronovo.org.pl",
                "ref:regon": "081147987",
                "operator": "Fundacja Na Rzecz Wspierania Wszechstronnego Rozwoju Pro Novo",
                "operator:type": "ngo",
                "amenity": "school",
                "note": "Parent RSPO: 119000"
            }
        }
    ]
}