{
    "type": "FeatureCollection",
    "features": [
        {
            "id": 4269,
            "type": "Feature",
            "geometry": {
                "type": "Point",
                "coordinates": [
                    15.61508,
                    52.0336799
                ]
            },
            "properties": {
                "isced:level": "1;2",
                "ref:rspo": 4269,
                "official_name": "Szko\u0142a Podstawowa im. Melchiora Wa\u0144kowicza w Cigacicach",
                "name": "Szko\u0142a Podstawowa",
                "addr:postcode": "66-131",
                "addr:city": "Cigacice",
                "addr:street": "Plac Szkolny",
                "addr:housenumber": "10",
                "addr:city:simc": 914154,
                "addr:street:sym_ul": 21972,
                "phone": "+48 693859383",
                "email": "sp-cigacice@jog.sulechow.pl",
                "website": "http:\/\/www.sp-cigacice.pl",
                "ref:regon": "000701872",
                "ref:vatin": "PL9271658667",
                "operator": "Gmina Sulech\u00f3w",
                "operator:type": "government",
                "amenity": "school"
            }
        },
        {
            "id": 4750,
            "type": "Feature",
            "geometry": {
                "type": "Point",
                "coordinates": [
                    15.4329,
                    52.06306
                ]
            },
            "properties": {
                "isced:level": "1;2",
                "ref:rspo": 4750,
                "official_name": "Szko\u0142a Podstawowa w Brodach",
                "name": "Szko\u0142a Podstawowa w Brodach",
                "addr:postcode": "66-100",
                "addr:city": "Brody",
                "addr:street": "Jagielnicka",
                "addr:housenumber": "97",
                "addr:city:simc": 914088,
                "addr:street:sym_ul": 7035,
                "phone": "+48 683851478",
                "email": "sp-brody@jog.sulechow.pl",
                "website": "http:\/\/www.spbrody.szkolnastrona.pl",
                "ref:regon": "001103251",
                "ref:vatin": "PL9271659129",
                "operator": "Gmina Sulech\u00f3w",
                "operator:type": "government",
                "amenity": "school"
            }
        },
        {
            "id": 4162,
            "type": "Feature",
            "geometry": {
                "type": "Point",
                "coordinates": [
                    15.61512,
                    52.0780699
                ]
            },
            "properties": {
                "ref:rspo": 4162,
                "official_name": "Przedszkole Nr 5 w Sulechowie",
                "name": "Przedszkole Nr 5 w Sulechowie",
                "addr:postcode": "66-100",
                "addr:city": "Sulech\u00f3w",
                "addr:street": "Osiedle Nadodrza\u0144skie",
                "addr:housenumber": "3B",
                "addr:city:simc": 988595,
                "addr:street:sym_ul": 13895,
                "phone": "+48 506350003",
                "email": "bajkowe@o2.pl",
                "website": "http:\/\/www.misuszatek5.pl\/",
                "ref:regon": "978117756",
                "ref:vatin": "PL9271661652",
                "operator": "Gmina Sulech\u00f3w",
                "operator:type": "government",
                "amenity": "kindergarten"
            }
        },
        {
            "id": 119959,
            "type": "Feature",
            "geometry": {
                "type": "Point",
                "coordinates": [
                    15.6162794,
                    52.0793252
                ]
            },
            "properties": {
                "ref:rspo": 119959,
                "official_name": "Niepubliczne Przedszkole \"Gucio\"",
                "name": "Niepubliczne Przedszkole \"Gucio\"",
                "addr:postcode": "66-100",
                "addr:city": "Sulech\u00f3w",
                "addr:street": "Osiedle Nadodrza\u0144skie",
                "addr:housenumber": "3A",
                "addr:city:simc": 988595,
                "addr:street:sym_ul": 13895,
                "phone": "+48 667394812",
                "email": "monika_koscielniak@interia.pl",
                "ref:regon": "081162136",
                "operator": "Monika Ha\u0107",
                "operator:type": "private",
                "amenity": "kindergarten"
            }
        },
        {
            "id": 16552,
            "type": "Feature",
            "geometry": {
                "type": "Point",
                "coordinates": [
                    15.62428,
                    52.0795699
                ]
            },
            "properties": {
                "ref:rspo": 16552,
                "official_name": "Specjalny O\u015brodek Szkolno - Wychowawczy w Sulechowie",
                "name": "Specjalny O\u015brodek Szkolno - Wychowawczy w Sulechowie",
                "addr:postcode": "66-100",
                "addr:city": "Sulech\u00f3w",
                "addr:street": "\u0141\u0105czna",
                "addr:housenumber": "1",
                "addr:city:simc": 988595,
                "addr:street:sym_ul": 11577,
                "phone": "+48 683852649",
                "email": "osw_sulechow@poczta.fm",
                "website": "http:\/\/soswsulechow.edupage.org",
                "ref:regon": "970779742",
                "ref:vatin": "PL9271415700",
                "operator": "Powiat Zielonog\u00f3rski",
                "operator:type": "government",
                "amenity": "school",
                "note": "Children RSPO: 73645;73794;73836;73862"
            }
        },
        {
            "id": 73645,
            "type": "Feature",
            "geometry": {
                "type": "Point",
                "coordinates": [
                    15.62428,
                    52.0795399
                ]
            },
            "properties": {
                "isced:level": "1;2",
                "ref:rspo": 73645,
                "official_name": "Szko\u0142a Podstawowa Specjalna w Specjalnym O\u015brodku Szkolno - Wychowawczym w Sulechowie",
                "name": "Szko\u0142a Podstawowa Specjalna w Specjalnym O\u015brodku Szkolno - Wychowawczym w Sulechowie",
                "addr:postcode": "66-100",
                "addr:city": "Sulech\u00f3w",
                "addr:street": "\u0141\u0105czna",
                "addr:housenumber": "1",
                "addr:city:simc": 988595,
                "addr:street:sym_ul": 11577,
                "phone": "+48 683852649",
                "email": "osw_sulechow@poczta.fm",
                "website": "http:\/\/soswsulechow.edupage.org",
                "ref:regon": "970779736",
                "operator": "Powiat Zielonog\u00f3rski",
                "operator:type": "government",
                "amenity": "school",
                "note": "Parent RSPO: 16552"
            }
        },
        {
            "id": 73794,
            "type": "Feature",
            "geometry": {
                "type": "Point",
                "coordinates": [
                    15.62428,
                    52.079509900000005
                ]
            },
            "properties": {
                "isced:level": "3",
                "ref:rspo": 73794,
                "official_name": "Bran\u017cowa Szko\u0142a I Stopnia Specjalna w Specjalnym O\u015brodku Szkolno - Wychowawczym w Sulechowie",
                "name": "Bran\u017cowa Szko\u0142a I Stopnia Specjalna w Specjalnym O\u015brodku Szkolno - Wychowawczym w Sulechowie",
                "addr:postcode": "66-100",
                "addr:city": "Sulech\u00f3w",
                "addr:street": "\u0141\u0105czna",
                "addr:housenumber": "1",
                "addr:city:simc": 988595,
                "addr:street:sym_ul": 11577,
                "phone": "+48 683852649",
                "email": "osw_sulechow@poczta.fm",
                "website": "http:\/\/soswsulechow.edupage.org",
                "ref:regon": "978040746",
                "operator": "Powiat Zielonog\u00f3rski",
                "operator:type": "government",
                "amenity": "school",
                "note": "Parent RSPO: 16552"
            }
        },
        {
            "id": 73836,
            "type": "Feature",
            "geometry": {
                "type": "Point",
                "coordinates": [
                    15.62428,
                    52.0794799
                ]
            },
            "properties": {
                "ref:rspo": 73836,
                "official_name": "Szko\u0142a Specjalna Przysposabiaj\u0105ca Do Pracy w Specjalnym O\u015brodku Szkolno Wychowawczym w Sulechowie",
                "name": "Szko\u0142a Specjalna Przysposabiaj\u0105ca Do Pracy w Specjalnym O\u015brodku Szkolno Wychowawczym w Sulechowie",
                "addr:postcode": "66-100",
                "addr:city": "Sulech\u00f3w",
                "addr:street": "\u0141\u0105czna",
                "addr:housenumber": "1",
                "addr:city:simc": 988595,
                "addr:street:sym_ul": 11577,
                "phone": "+48 683852649",
                "email": "osw_sulechow@poczta.fm",
                "website": "http:\/\/soswsulechow.edupage.org",
                "ref:regon": "080097135",
                "operator": "Powiat Zielonog\u00f3rski",
                "operator:type": "government",
                "amenity": "school",
                "note": "Parent RSPO: 16552"
            }
        },
        {
            "id": 73862,
            "type": "Feature",
            "geometry": {
                "type": "Point",
                "coordinates": [
                    15.62428,
                    52.0794499
                ]
            },
            "properties": {
                "ref:rspo": 73862,
                "official_name": "Przedszkole Specjalne \"Bajka\" w Specjalnym O\u015brodku Szkolno - Wychowawczym w Sulechowie",
                "name": "Przedszkole Specjalne \"Bajka\" w Specjalnym O\u015brodku Szkolno - Wychowawczym w Sulechowie",
                "addr:postcode": "66-100",
                "addr:city": "Sulech\u00f3w",
                "addr:street": "\u0141\u0105czna",
                "addr:housenumber": "1",
                "addr:city:simc": 988595,
                "addr:street:sym_ul": 11577,
                "phone": "+48 683852649",
                "email": "osw_sulechow@poczta.fm",
                "website": "http:\/\/soswsulechow.edupage.org",
                "ref:regon": "080465700",
                "operator": "Powiat Zielonog\u00f3rski",
                "operator:type": "government",
                "amenity": "kindergarten",
                "note": "Parent RSPO: 16552"
            }
        },
        {
            "id": 130848,
            "type": "Feature",
            "geometry": {
                "type": "Point",
                "coordinates": [
                    15.61751,
                    52.0799
                ]
            },
            "properties": {
                "ref:rspo": 130848,
                "official_name": "Centrum Kszta\u0142cenia Zawodowego I Ustawicznego w Sulechowie",
                "name": "Centrum Kszta\u0142cenia Zawodowego I Ustawicznego w Sulechowie",
                "addr:postcode": "66-100",
                "addr:city": "Sulech\u00f3w",
                "addr:street": "Piaskowa",
                "addr:housenumber": "53",
                "addr:city:simc": 988595,
                "addr:street:sym_ul": 16033,
                "phone": "+48 683852686",
                "email": "sekretariat@cksulechow.pl",
                "website": "http:\/\/www.cksulechow.pl",
                "ref:regon": "364605669",
                "operator": "Powiat Zielonog\u00f3rski",
                "operator:type": "government",
                "landuse": "education",
                "fixme": "amenity=school, amenity=college albo landuse=education w zale\u017cno\u015bci od tego, jakie plac\u00f3wki wchodz\u0105 w sk\u0142ad zespo\u0142u. Sprawd\u017a, kiedy stosowa\u0107 amenity=* a kiedy landuse=education.",
                "note": "Children RSPO: 16809;81180;82615"
            }
        },
        {
            "id": 16809,
            "type": "Feature",
            "geometry": {
                "type": "Point",
                "coordinates": [
                    15.61751,
                    52.07987
                ]
            },
            "properties": {
                "isced:level": "3",
                "ref:rspo": 16809,
                "official_name": "Liceum Og\u00f3lnokszta\u0142c\u0105ce dla Doros\u0142ych w Centrum Kszta\u0142cenia Zawodowego I Ustawicznego w Sulechowie",
                "name": "Liceum Og\u00f3lnokszta\u0142c\u0105ce dla Doros\u0142ych w Centrum Kszta\u0142cenia Zawodowego I Ustawicznego w Sulechowie",
                "addr:postcode": "66-100",
                "addr:city": "Sulech\u00f3w",
                "addr:street": "Piaskowa",
                "addr:housenumber": "53",
                "addr:city:simc": 988595,
                "addr:street:sym_ul": 16033,
                "phone": "+48 683852686",
                "email": "sekretariat@cksulechow.pl.pl",
                "website": "http:\/\/www.cksulechow.pl",
                "ref:regon": "081073881",
                "operator": "Powiat Zielonog\u00f3rski",
                "operator:type": "government",
                "amenity": "school",
                "note": "Parent RSPO: 130848"
            }
        },
        {
            "id": 81180,
            "type": "Feature",
            "geometry": {
                "type": "Point",
                "coordinates": [
                    15.61751,
                    52.079840000000004
                ]
            },
            "properties": {
                "isced:level": "3",
                "ref:rspo": 81180,
                "official_name": "Technikum im. Gen. W\u0142adys\u0142awa Sikorskiego w Centrum Kszta\u0142cenia Zawodowego I Ustawicznego w Sulechowie",
                "name": "Technikum",
                "addr:postcode": "66-100",
                "addr:city": "Sulech\u00f3w",
                "addr:street": "Piaskowa",
                "addr:housenumber": "53",
                "addr:city:simc": 988595,
                "addr:street:sym_ul": 16033,
                "phone": "+48 683852686",
                "email": "sekretariat@cksulechow.pl",
                "website": "http:\/\/www.cksulechow.pl.pl",
                "ref:regon": "977990776",
                "operator": "Powiat Zielonog\u00f3rski",
                "operator:type": "government",
                "amenity": "school",
                "note": "Parent RSPO: 130848"
            }
        },
        {
            "id": 82615,
            "type": "Feature",
            "geometry": {
                "type": "Point",
                "coordinates": [
                    15.61751,
                    52.07981
                ]
            },
            "properties": {
                "isced:level": "3",
                "ref:rspo": 82615,
                "official_name": "Bran\u017cowa Szko\u0142a I Stopnia im. Gen. W\u0142adys\u0142awa Sikorskiego w Centrum Kszta\u0142cenia Zawodowego I Ustawicznego w Sulechowie",
                "name": "Bran\u017cowa Szko\u0142a I Stopnia",
                "addr:postcode": "66-100",
                "addr:city": "Sulech\u00f3w",
                "addr:street": "Piaskowa",
                "addr:housenumber": "53",
                "addr:city:simc": 988595,
                "addr:street:sym_ul": 16033,
                "phone": "+48 683852686",
                "email": "sekretariat@cksulechow.pl",
                "website": "http:\/\/www.cksulechow.pl",
                "ref:regon": "977990760",
                "operator": "Powiat Zielonog\u00f3rski",
                "operator:type": "government",
                "amenity": "school",
                "note": "Parent RSPO: 130848"
            }
        },
        {
            "id": 10008,
            "type": "Feature",
            "geometry": {
                "type": "Point",
                "coordinates": [
                    15.61648,
                    52.08076
                ]
            },
            "properties": {
                "isced:level": "1;2",
                "ref:rspo": 10008,
                "official_name": "Szko\u0142a Podstawowa Nr 3 im. Janusza Kusoci\u0144skiego w Sulechowie",
                "name": "Szko\u0142a Podstawowa Nr 3",
                "addr:postcode": "66-100",
                "addr:city": "Sulech\u00f3w",
                "addr:street": "Piaskowa",
                "addr:housenumber": "52",
                "addr:city:simc": 988595,
                "addr:street:sym_ul": 16033,
                "phone": "+48 683852866",
                "email": "sekretariat@zs3-sulechow.pl",
                "website": "http:\/\/www.zs3-sulechow.pl",
                "ref:regon": "978063144",
                "operator": "Gmina Sulech\u00f3w",
                "operator:type": "government",
                "amenity": "school"
            }
        },
        {
            "id": 16192,
            "type": "Feature",
            "geometry": {
                "type": "Point",
                "coordinates": [
                    15.63072,
                    52.08457
                ]
            },
            "properties": {
                "isced:level": "3",
                "ref:rspo": 16192,
                "official_name": "Liceum Og\u00f3lnokszta\u0142c\u0105ce im. Rotmistrza Witolda Pileckiego w Sulechowie",
                "name": "Liceum Og\u00f3lnokszta\u0142c\u0105ce",
                "addr:postcode": "66-100",
                "addr:city": "Sulech\u00f3w",
                "addr:street": "Licealna",
                "addr:housenumber": "10",
                "addr:city:simc": 988595,
                "addr:street:sym_ul": 11033,
                "phone": "+48 683852619",
                "email": "losulechow@wp.pl",
                "website": "http:\/\/losulechow.pl",
                "ref:regon": "978051224",
                "ref:vatin": "PL9271434399",
                "operator": "Powiat Zielonog\u00f3rski",
                "operator:type": "government",
                "amenity": "school"
            }
        },
        {
            "id": 133721,
            "type": "Feature",
            "geometry": {
                "type": "Point",
                "coordinates": [
                    15.6284,
                    52.08537
                ]
            },
            "properties": {
                "isced:level": "1;2",
                "ref:rspo": 133721,
                "official_name": "Szko\u0142a Podstawowa Nr 2 im. Jana Paw\u0142a II w Sulechowie",
                "name": "Szko\u0142a Podstawowa Nr 2",
                "addr:postcode": "66-100",
                "addr:city": "Sulech\u00f3w",
                "addr:street": "1 Maja",
                "addr:housenumber": "7",
                "addr:city:simc": 988595,
                "addr:street:sym_ul": 11926,
                "phone": "+48 684595939",
                "email": "sp2@jog.sulechow.pl",
                "website": "http:\/\/www.sp2.sulechow.pl",
                "ref:regon": "367558611",
                "operator": "Gmina Sulech\u00f3w",
                "operator:type": "government",
                "amenity": "school"
            }
        },
        {
            "id": 4168,
            "type": "Feature",
            "geometry": {
                "type": "Point",
                "coordinates": [
                    15.61992,
                    52.0859
                ]
            },
            "properties": {
                "ref:rspo": 4168,
                "official_name": "Przedszkole Nr 6 \"T\u0119czowa Sz\u00f3stka\" w Sulechowie",
                "name": "Przedszkole Nr 6 \"T\u0119czowa Sz\u00f3stka\" w Sulechowie",
                "addr:postcode": "66-100",
                "addr:city": "Sulech\u00f3w",
                "addr:street": "Tadeusza Ko\u015bciuszki",
                "addr:housenumber": "16",
                "addr:city:simc": 988595,
                "addr:street:sym_ul": 9572,
                "phone": "+48 683853411",
                "email": "p6sulechow@gmail.com",
                "website": "http:\/\/p6.bip.sulechow.pl",
                "ref:regon": "978117740",
                "ref:vatin": "PL9271663094",
                "operator": "Gmina Sulech\u00f3w",
                "operator:type": "government",
                "amenity": "kindergarten"
            }
        },
        {
            "id": 16343,
            "type": "Feature",
            "geometry": {
                "type": "Point",
                "coordinates": [
                    15.62154,
                    52.08997
                ]
            },
            "properties": {
                "ref:rspo": 16343,
                "official_name": "Poradnia Psychologiczno - Pedagogiczna w Sulechowie",
                "name": "Poradnia Psychologiczno - Pedagogiczna w Sulechowie",
                "addr:postcode": "66-100",
                "addr:city": "Sulech\u00f3w",
                "addr:street": "Aleja Niepodleg\u0142o\u015bci",
                "addr:housenumber": "15",
                "addr:city:simc": 988595,
                "addr:street:sym_ul": 14199,
                "phone": "+48 683852205",
                "email": "pppsulechow@wp.pl",
                "website": "http:\/\/pppsulechow.edupage.org",
                "ref:regon": "970779564",
                "ref:vatin": "PL9730730187",
                "operator": "Powiat Zielonog\u00f3rski",
                "operator:type": "government",
                "healthcare": "counselling",
                "counselling_type": "education",
                "fixme": "w zale\u017cno\u015bci od przedmiotu dzia\u0142alno\u015bci (np. healthcare=counselling + counselling_type=education albo healthcare=psychotherapist)"
            }
        },
        {
            "id": 3847,
            "type": "Feature",
            "geometry": {
                "type": "Point",
                "coordinates": [
                    15.62648,
                    52.09181
                ]
            },
            "properties": {
                "ref:rspo": 3847,
                "official_name": "Przedszkole Nr 7 \"Pod Muchomorkiem\" w Sulechowie",
                "name": "Przedszkole Nr 7 \"Pod Muchomorkiem\" w Sulechowie",
                "addr:postcode": "66-100",
                "addr:city": "Sulech\u00f3w",
                "addr:street": "Osiedle Zacisze",
                "addr:housenumber": "3",
                "addr:city:simc": 988595,
                "addr:street:sym_ul": 25313,
                "email": "p7podmuchomorkiem@o2.pl",
                "website": "https:\/\/p7sulechow.edupage.org\/",
                "ref:regon": "978117733",
                "ref:vatin": "PL9271663071",
                "operator": "Gmina Sulech\u00f3w",
                "operator:type": "government",
                "amenity": "kindergarten"
            }
        },
        {
            "id": 4950,
            "type": "Feature",
            "geometry": {
                "type": "Point",
                "coordinates": [
                    15.62245,
                    52.09182
                ]
            },
            "properties": {
                "ref:rspo": 4950,
                "official_name": "Niepubliczne Przedszkole \"Dobra Wr\u00f3\u017cka\"",
                "name": "Niepubliczne Przedszkole \"Dobra Wr\u00f3\u017cka\"",
                "addr:postcode": "66-100",
                "addr:city": "Sulech\u00f3w",
                "addr:street": "Marii Konopnickiej",
                "addr:housenumber": "5",
                "addr:city:simc": 988595,
                "addr:street:sym_ul": 9182,
                "phone": "+48 512380616",
                "email": "dyrektor@przedszkole-sulechow.pl",
                "website": "http:\/\/www.przedszkole-sulechow.pl",
                "ref:regon": "081066295",
                "ref:vatin": "PL9271236794",
                "operator": "Agnieszka Brodzikowska",
                "operator:type": "private",
                "amenity": "kindergarten"
            }
        },
        {
            "id": 4797,
            "type": "Feature",
            "geometry": {
                "type": "Point",
                "coordinates": [
                    15.6222,
                    52.09331
                ]
            },
            "properties": {
                "isced:level": "1;2",
                "ref:rspo": 4797,
                "official_name": "Szko\u0142a Podstawowa Nr 1 im. Gen. J\u00f3zefa Bema",
                "name": "Szko\u0142a Podstawowa Nr 1",
                "addr:postcode": "66-100",
                "addr:city": "Sulech\u00f3w",
                "addr:street": "Styczniowa",
                "addr:housenumber": "23",
                "addr:city:simc": 988595,
                "addr:street:sym_ul": 21474,
                "phone": "+48 683852794",
                "email": "sekretariat@psp1sulechow.pl",
                "website": "http:\/\/www.sp1.sulechow.pl",
                "ref:regon": "000270745",
                "ref:vatin": "PL9271659313",
                "operator": "Gmina Sulech\u00f3w",
                "operator:type": "government",
                "amenity": "school"
            }
        },
        {
            "id": 4081,
            "type": "Feature",
            "geometry": {
                "type": "Point",
                "coordinates": [
                    15.54005,
                    52.09696
                ]
            },
            "properties": {
                "isced:level": "1;2",
                "ref:rspo": 4081,
                "official_name": "Szko\u0142a Podstawowa w Kijach",
                "name": "Szko\u0142a Podstawowa w Kijach",
                "addr:postcode": "66-100",
                "addr:place": "Kije",
                "addr:housenumber": "141A",
                "addr:city:simc": 914237,
                "phone": "+48 683852241",
                "email": "kikola@op.pl",
                "website": "http:\/\/www.spwkijach.edupage.org",
                "ref:regon": "000701889",
                "ref:vatin": "PL9271658710",
                "operator": "Gmina Sulech\u00f3w",
                "operator:type": "government",
                "amenity": "school"
            }
        },
        {
            "id": 264476,
            "type": "Feature",
            "geometry": {
                "type": "Point",
                "coordinates": [
                    15.61247,
                    52.1006
                ]
            },
            "properties": {
                "ref:rspo": 264476,
                "official_name": "Niepubliczne Przedszkole S\u0142oneczko Z Oddzia\u0142em Integracyjnym",
                "name": "Niepubliczne Przedszkole S\u0142oneczko Z Oddzia\u0142em Integracyjnym",
                "addr:postcode": "66-100",
                "addr:city": "Brzezie k. Sulechowa",
                "addr:street": "Adama Mickiewicza",
                "addr:housenumber": "2",
                "addr:city:simc": 914102,
                "addr:street:sym_ul": 12740,
                "phone": "+48 573975526",
                "email": "renata.spychala-zok@norlandia.com",
                "website": "http:\/\/norlandiaprzedszkola.pl\/",
                "ref:regon": "368359569",
                "operator": "Norlandia Polska Sp\u00f3\u0142ka Z Ograniczon\u0105 Odpowiedzialno\u015bci\u0105",
                "operator:type": "private",
                "amenity": "kindergarten"
            }
        },
        {
            "id": 4074,
            "type": "Feature",
            "geometry": {
                "type": "Point",
                "coordinates": [
                    15.59209,
                    52.12493
                ]
            },
            "properties": {
                "isced:level": "1;2",
                "ref:rspo": 4074,
                "official_name": "Szko\u0142a Podstawowa w Kalsku",
                "name": "Szko\u0142a Podstawowa w Kalsku",
                "addr:postcode": "66-100",
                "addr:place": "Kalsk",
                "addr:housenumber": "65",
                "addr:city:simc": 914208,
                "phone": "+48 683857430",
                "email": "sp-kalsk@jog.sulechow.pl",
                "website": "http:\/\/www.spkalsk.edupage.org",
                "ref:regon": "001103133",
                "ref:vatin": "PL9271658696",
                "operator": "Gmina Sulech\u00f3w",
                "operator:type": "government",
                "amenity": "school"
            }
        },
        {
            "id": 3955,
            "type": "Feature",
            "geometry": {
                "type": "Point",
                "coordinates": [
                    15.6359,
                    52.14538
                ]
            },
            "properties": {
                "isced:level": "1;2",
                "ref:rspo": 3955,
                "official_name": "Szko\u0142a Podstawowa w Bukowie",
                "name": "Szko\u0142a Podstawowa w Bukowie",
                "addr:postcode": "66-100",
                "addr:place": "Buk\u00f3w",
                "addr:housenumber": "53",
                "addr:city:simc": 914148,
                "phone": "+48 693852616",
                "email": "szkolabukow@gmail.com",
                "website": "http:\/\/spbukow.edupage.org",
                "ref:regon": "001103110",
                "ref:vatin": "PL9271659098",
                "operator": "Gmina Sulech\u00f3w",
                "operator:type": "government",
                "amenity": "school"
            }
        }
    ]
}