{
    "type": "FeatureCollection",
    "features": [
        {
            "id": 16781,
            "type": "Feature",
            "geometry": {
                "type": "Point",
                "coordinates": [
                    15.35875,
                    51.80254
                ]
            },
            "properties": {
                "ref:rspo": 16781,
                "official_name": "Szkolne Schronisko M\u0142odzie\u017cowe Przy M\u0142odzie\u017cowym O\u015brodku Socjoterapii im. Ireny Sendlerowej w Przytoku",
                "name": "Szkolne Schronisko M\u0142odzie\u017cowe Przy M\u0142odzie\u017cowym O\u015brodku Socjoterapii",
                "addr:country": "PL",
                "addr:postcode": "66-003",
                "addr:city": "Przytok",
                "addr:street": "Pa\u0142acowa",
                "addr:housenumber": "2",
                "addr:teryt:simc": 916839,
                "addr:teryt:sym_ul": 15590,
                "contact:phone": "+48 683274410",
                "contact:email": "mosprzytok@o2.pl",
                "contact:website": "http:\/\/mos-przytok.edupage.org",
                "ref:regon": "978051514",
                "ref:vatin": "PL9730386979",
                "operator": "Powiat Zielonog\u00f3rski",
                "operator:type": "government",
                "tourism": "hostel"
            }
        },
        {
            "id": 130299,
            "type": "Feature",
            "geometry": {
                "type": "Point",
                "coordinates": [
                    15.6604,
                    51.92944
                ]
            },
            "properties": {
                "ref:rspo": 130299,
                "official_name": "Zesp\u00f3\u0142 Szkolno-Przedszkolny w Droszkowie",
                "name": "Zesp\u00f3\u0142 Szkolno-Przedszkolny w Droszkowie",
                "addr:country": "PL",
                "addr:postcode": "66-003",
                "addr:city": "Droszk\u00f3w",
                "addr:street": "D\u0119bowa",
                "addr:housenumber": "6",
                "addr:teryt:simc": 916791,
                "addr:teryt:sym_ul": 3811,
                "contact:email": "zarzad.przyjaznaszkola@gmail.com",
                "ref:regon": "363794444",
                "operator": "Stowarzyszenie O\u015bwiatowe \" Przyjazna Szko\u0142a\"",
                "operator:type": "ngo",
                "landuse": "education",
                "fixme": "amenity=school, amenity=college albo landuse=education w zale\u017cno\u015bci od tego, jakie plac\u00f3wki wchodz\u0105 w sk\u0142ad zespo\u0142u. Sprawd\u017a, kiedy stosowa\u0107 amenity=* a kiedy landuse=education.",
                "note": "Children RSPO: 128372;128380"
            }
        },
        {
            "id": 128372,
            "type": "Feature",
            "geometry": {
                "type": "Point",
                "coordinates": [
                    15.6604,
                    51.92941
                ]
            },
            "properties": {
                "ref:rspo": 128372,
                "official_name": "Spo\u0142eczne Przedszkole w Droszkowie",
                "name": "Spo\u0142eczne Przedszkole w Droszkowie",
                "addr:country": "PL",
                "addr:postcode": "66-003",
                "addr:city": "Droszk\u00f3w",
                "addr:street": "D\u0119bowa",
                "addr:housenumber": "6",
                "addr:teryt:simc": 916791,
                "addr:teryt:sym_ul": 3811,
                "contact:phone": "+48 794065533",
                "ref:regon": "362256160",
                "operator": "Stowarzyszenie O\u015bwiatowe \" Przyjazna Szko\u0142a\"",
                "operator:type": "ngo",
                "amenity": "kindergarten",
                "note": "Parent RSPO: 130299"
            }
        },
        {
            "id": 128380,
            "type": "Feature",
            "geometry": {
                "type": "Point",
                "coordinates": [
                    15.6604,
                    51.92938
                ]
            },
            "properties": {
                "isced:level": "1;2",
                "ref:rspo": 128380,
                "official_name": "Spo\u0142eczna Szko\u0142a Podstawowa w Droszkowie",
                "name": "Spo\u0142eczna Szko\u0142a Podstawowa w Droszkowie",
                "addr:country": "PL",
                "addr:postcode": "66-003",
                "addr:city": "Droszk\u00f3w",
                "addr:street": "D\u0119bowa",
                "addr:housenumber": "6",
                "addr:teryt:simc": 916791,
                "addr:teryt:sym_ul": 3811,
                "contact:phone": "+48 784104557",
                "contact:email": "zarzad.przyjaznaszkola@gmail.com",
                "ref:regon": "362259571",
                "operator": "Stowarzyszenie O\u015bwiatowe \" Przyjazna Szko\u0142a\"",
                "operator:type": "ngo",
                "amenity": "school",
                "note": "Parent RSPO: 130299"
            }
        },
        {
            "id": 87548,
            "type": "Feature",
            "geometry": {
                "type": "Point",
                "coordinates": [
                    15.65533,
                    51.93264
                ]
            },
            "properties": {
                "ref:rspo": 87548,
                "official_name": "Niepubliczne Przedszkole w Zaborze \"Zielona Nutka\"",
                "name": "Niepubliczne Przedszkole w Zaborze \"Zielona Nutka\"",
                "addr:country": "PL",
                "addr:postcode": "66-003",
                "addr:city": "Zab\u00f3r",
                "addr:street": "Akacjowa",
                "addr:housenumber": "1",
                "addr:teryt:simc": 916880,
                "addr:teryt:sym_ul": 157,
                "contact:phone": "+48 512790572",
                "contact:email": "zielona.nutka@wp.pl",
                "ref:regon": "081088919",
                "ref:vatin": "PL9730631918",
                "operator": "Beata Senyk",
                "operator:type": "private",
                "amenity": "kindergarten"
            }
        },
        {
            "id": 92472,
            "type": "Feature",
            "geometry": {
                "type": "Point",
                "coordinates": [
                    15.71531,
                    51.94911
                ]
            },
            "properties": {
                "ref:rspo": 92472,
                "official_name": "M\u0142odzie\u017cowy O\u015brodek Socjoterapii",
                "name": "M\u0142odzie\u017cowy O\u015brodek Socjoterapii",
                "addr:country": "PL",
                "addr:postcode": "66-003",
                "addr:city": "Zab\u00f3r",
                "addr:street": "Zamkowa",
                "addr:housenumber": "1F",
                "addr:teryt:simc": 916880,
                "addr:teryt:sym_ul": 25547,
                "contact:phone": "+48 683523527",
                "contact:email": "mos.sekretariat@moszabor.pl",
                "contact:website": "http:\/\/www.moszabor.szkolnastrona.pl",
                "ref:regon": "970780113",
                "ref:vatin": "PL9251470860",
                "operator": "Wojew\u00f3dztwo Lubuskie",
                "operator:type": "government",
                "fixme": "amenity=social_facility + social_facility=group_home + social_facility:for=juvenile",
                "note": "Children RSPO: 268085"
            }
        },
        {
            "id": 268085,
            "type": "Feature",
            "geometry": {
                "type": "Point",
                "coordinates": [
                    15.71531,
                    51.949079999999995
                ]
            },
            "properties": {
                "isced:level": "1;2",
                "ref:rspo": 268085,
                "official_name": "Szko\u0142a Podstawowa Specjalna w Zaborze",
                "name": "Szko\u0142a Podstawowa Specjalna w Zaborze",
                "addr:country": "PL",
                "addr:postcode": "66-003",
                "addr:city": "Zab\u00f3r",
                "addr:street": "Zamkowa",
                "addr:housenumber": "1F",
                "addr:teryt:simc": 916880,
                "addr:teryt:sym_ul": 25547,
                "contact:phone": "+48 683523527",
                "contact:email": "mos.sekretariat@moszabor.pl",
                "contact:website": "http:\/\/www.moszabor.szkolnastrona.pl",
                "ref:regon": "380928839",
                "operator": "Wojew\u00f3dztwo Lubuskie",
                "operator:type": "government",
                "amenity": "school",
                "note": "Parent RSPO: 92472"
            }
        },
        {
            "id": 15895,
            "type": "Feature",
            "geometry": {
                "type": "Point",
                "coordinates": [
                    15.71602,
                    51.94952
                ]
            },
            "properties": {
                "ref:rspo": 15895,
                "official_name": "Zesp\u00f3\u0142 Szk\u00f3\u0142 Specjalnych im. Kawaler\u00f3w Malta\u0144skich w Zaborze Przy Centrum Leczenia Dzieci I M\u0142odzie\u017cy",
                "name": "Zesp\u00f3\u0142 Szk\u00f3\u0142 Specjalnych",
                "addr:country": "PL",
                "addr:postcode": "66-003",
                "addr:city": "Zab\u00f3r",
                "addr:street": "Zamkowa",
                "addr:housenumber": "1",
                "addr:teryt:simc": 916880,
                "addr:teryt:sym_ul": 25547,
                "contact:phone": "+48 683274094",
                "contact:email": "zss-zabor@o2.pl",
                "ref:regon": "978049902",
                "ref:vatin": "PL9730371848",
                "operator": "Powiat Zielonog\u00f3rski",
                "operator:type": "government",
                "landuse": "education",
                "fixme": "amenity=school, amenity=college albo landuse=education w zale\u017cno\u015bci od tego, jakie plac\u00f3wki wchodz\u0105 w sk\u0142ad zespo\u0142u. Sprawd\u017a, kiedy stosowa\u0107 amenity=* a kiedy landuse=education.",
                "note": "Children RSPO: 72847;131882"
            }
        },
        {
            "id": 72847,
            "type": "Feature",
            "geometry": {
                "type": "Point",
                "coordinates": [
                    15.71602,
                    51.94949
                ]
            },
            "properties": {
                "isced:level": "1;2",
                "ref:rspo": 72847,
                "official_name": "Szko\u0142a Podstawowa Specjalna w Zespole Szk\u00f3\u0142 Specjalnych im. Kawaler\u00f3w Malta\u0144skich w Zaborze Przy Centrum Leczenia Dzieci I M\u0142odzie\u017cy",
                "name": "Szko\u0142a Podstawowa Specjalna w Zespole Szk\u00f3\u0142 Specjalnych",
                "addr:country": "PL",
                "addr:postcode": "66-003",
                "addr:city": "Zab\u00f3r",
                "addr:street": "Zamkowa",
                "addr:housenumber": "1",
                "addr:teryt:simc": 916880,
                "addr:teryt:sym_ul": 25547,
                "contact:phone": "+48 683274094",
                "contact:email": "zss-zabor@o2.pl",
                "ref:regon": "970779771",
                "ref:vatin": "PL9730371848",
                "operator": "Powiat Zielonog\u00f3rski",
                "operator:type": "government",
                "amenity": "school",
                "note": "Parent RSPO: 15895"
            }
        },
        {
            "id": 131882,
            "type": "Feature",
            "geometry": {
                "type": "Point",
                "coordinates": [
                    15.71602,
                    51.94946
                ]
            },
            "properties": {
                "isced:level": "3",
                "ref:rspo": 131882,
                "official_name": "Liceum Og\u00f3lnokszta\u0142c\u0105ce Specjalne w Zespole Szk\u00f3\u0142 Specjalnych im. Kawaler\u00f3w Malta\u0144skich w Zaborze Przy Centrum Leczenia Dzieci I M\u0142odzie\u017cy",
                "name": "Liceum Og\u00f3lnokszta\u0142c\u0105ce Specjalne w Zespole Szk\u00f3\u0142 Specjalnych",
                "addr:country": "PL",
                "addr:postcode": "66-003",
                "addr:city": "Zab\u00f3r",
                "addr:street": "Zamkowa",
                "addr:housenumber": "1",
                "addr:teryt:simc": 916880,
                "addr:teryt:sym_ul": 25547,
                "contact:phone": "+48 683274094",
                "contact:email": "zss-zabor@o2.pl",
                "ref:regon": "365371185",
                "operator": "Powiat Zielonog\u00f3rski",
                "operator:type": "government",
                "amenity": "school",
                "note": "Parent RSPO: 15895"
            }
        },
        {
            "id": 87545,
            "type": "Feature",
            "geometry": {
                "type": "Point",
                "coordinates": [
                    15.71801,
                    51.95569
                ]
            },
            "properties": {
                "isced:level": "1;2",
                "ref:rspo": 87545,
                "official_name": "Szko\u0142a Podstawowa im.jana Paw\u0142a II w Zaborze",
                "name": "Szko\u0142a Podstawowa im.jana Paw\u0142a II w Zaborze",
                "addr:country": "PL",
                "addr:postcode": "66-003",
                "addr:city": "Zab\u00f3r",
                "addr:street": "Wincentego Witosa",
                "addr:housenumber": "30",
                "addr:teryt:simc": 916880,
                "addr:teryt:sym_ul": 24454,
                "contact:phone": "+48 683274015",
                "contact:email": "spzabor1@wp.pl",
                "ref:regon": "970573182",
                "ref:vatin": "PL9730601691",
                "operator": "Gmina Zab\u00f3r",
                "operator:type": "government",
                "amenity": "school"
            }
        },
        {
            "id": 16444,
            "type": "Feature",
            "geometry": {
                "type": "Point",
                "coordinates": [
                    15.62532,
                    51.95832
                ]
            },
            "properties": {
                "ref:rspo": 16444,
                "official_name": "M\u0142odzie\u017cowy O\u015brodek Socjoterapii im. Ireny Sendlerowej w Przytoku",
                "name": "M\u0142odzie\u017cowy O\u015brodek Socjoterapii",
                "addr:country": "PL",
                "addr:postcode": "66-003",
                "addr:city": "Przytok",
                "addr:street": "Pa\u0142acowa",
                "addr:housenumber": "1",
                "addr:teryt:simc": 916839,
                "addr:teryt:sym_ul": 15590,
                "contact:phone": "+48 683274410",
                "contact:email": "mosprzytok@o2.pl",
                "contact:website": "http:\/\/mos-przytok.edupage.org",
                "ref:regon": "970779794",
                "ref:vatin": "PL9730386979",
                "operator": "Powiat Zielonog\u00f3rski",
                "operator:type": "government",
                "fixme": "amenity=social_facility + social_facility=group_home + social_facility:for=juvenile",
                "note": "Children RSPO: 22079"
            }
        },
        {
            "id": 22079,
            "type": "Feature",
            "geometry": {
                "type": "Point",
                "coordinates": [
                    15.62532,
                    51.95829
                ]
            },
            "properties": {
                "isced:level": "1;2",
                "ref:rspo": 22079,
                "official_name": "Szko\u0142a Podstawowa Specjalna w M\u0142odzie\u017cowym O\u015brodku Socjoterapii im. Ireny Sendlerowej w Przytoku",
                "name": "Szko\u0142a Podstawowa Specjalna w M\u0142odzie\u017cowym O\u015brodku Socjoterapii",
                "addr:country": "PL",
                "addr:postcode": "66-003",
                "addr:city": "Przytok",
                "addr:street": "Pa\u0142acowa",
                "addr:housenumber": "1",
                "addr:teryt:simc": 916839,
                "addr:teryt:sym_ul": 15590,
                "contact:phone": "+48 683274410",
                "contact:email": "mosprzytok@o2.pl",
                "contact:website": "http:\/\/mos-przytok.edupage.org",
                "ref:regon": "978051520",
                "ref:vatin": "PL9730386979",
                "operator": "Powiat Zielonog\u00f3rski",
                "operator:type": "government",
                "amenity": "school",
                "note": "Parent RSPO: 16444"
            }
        }
    ]
}