{
    "type": "FeatureCollection",
    "features": [
        {
            "id": 58637,
            "type": "Feature",
            "geometry": {
                "type": "Point",
                "coordinates": [
                    20.08501,
                    50.11351
                ]
            },
            "properties": {
                "isced:level": "1;2",
                "ref:rspo": 58637,
                "official_name": "Szko\u0142a Podstawowa im. Marsza\u0142ka J\u00f3zefa Pi\u0142sudskiego w Prusach",
                "name": "Szko\u0142a Podstawowa",
                "addr:postcode": "32-010",
                "addr:city": "Prusy",
                "addr:street": "Niepodleg\u0142o\u015bci",
                "addr:housenumber": "-12",
                "addr:teryt:simc": 322583,
                "addr:teryt:sym_ul": 14203,
                "phone": "+48 123871408",
                "email": "spprusy@interia.pl",
                "website": "http:\/\/www.spprusy.pl\/",
                "ref:regon": "001233700",
                "ref:vatin": "PL6821603665",
                "operator": "Gmina Kocmyrz\u00f3w-Luborzyca",
                "operator:type": "government",
                "amenity": "school"
            }
        },
        {
            "id": 121713,
            "type": "Feature",
            "geometry": {
                "type": "Point",
                "coordinates": [
                    20.0908993,
                    50.1176363
                ]
            },
            "properties": {
                "ref:rspo": 121713,
                "official_name": "Niepubliczne Przedszkole Z Oddzia\u0142em Integracyjnym\n ,,Chata Weso\u0142ego Szkrzata\"",
                "name": "Niepubliczne Przedszkole Z Oddzia\u0142em Integracyjnym\n ,,Chata Weso\u0142ego Szkrzata\"",
                "addr:postcode": "32-010",
                "addr:place": "Kocmyrz\u00f3w",
                "addr:housenumber": "237",
                "addr:door": "237",
                "addr:teryt:simc": 322293,
                "phone": "+48 662167009",
                "email": "info@chata-skrzata.edu.pl",
                "website": "http:\/\/www.chata-wesolego-skrzata.edu.pl",
                "ref:regon": "123035718",
                "ref:vatin": "PL5130238062",
                "operator": "Chaty Skrzata Sp\u00f3\u0142ka Z Ograniczon\u0105 Odpowiedzialno\u015bci\u0105",
                "operator:type": "consortium",
                "amenity": "kindergarten"
            }
        },
        {
            "id": 58675,
            "type": "Feature",
            "geometry": {
                "type": "Point",
                "coordinates": [
                    20.10245,
                    50.12623
                ]
            },
            "properties": {
                "ref:rspo": 58675,
                "official_name": "Przedszkole Samorz\u0105dowe ,,Weso\u0142a Gromadka\" w Dojazdowie",
                "name": "Przedszkole Samorz\u0105dowe ,,Weso\u0142a Gromadka\" w Dojazdowie",
                "addr:postcode": "32-010",
                "addr:city": "Dojazd\u00f3w",
                "addr:street": "Krakowska",
                "addr:housenumber": "130",
                "addr:teryt:simc": 322169,
                "addr:teryt:sym_ul": 9796,
                "phone": "+48 123871055",
                "email": "wesolagromadka.dojazdow@interia.pl",
                "website": "http:\/\/www.przedszkole-dojazdow.przedszkolowo.pl",
                "ref:regon": "350018546",
                "ref:vatin": "PL6821603671",
                "operator": "Gmina Kocmyrz\u00f3w-Luborzyca",
                "operator:type": "government",
                "amenity": "kindergarten"
            }
        },
        {
            "id": 58890,
            "type": "Feature",
            "geometry": {
                "type": "Point",
                "coordinates": [
                    20.11377,
                    50.13575
                ]
            },
            "properties": {
                "isced:level": "1;2",
                "ref:rspo": 58890,
                "official_name": "Szko\u0142a Podstawowa im. Noblist\u00f3w Polskich w Luborzycy",
                "name": "Szko\u0142a Podstawowa",
                "addr:postcode": "32-010",
                "addr:city": "Luborzyca",
                "addr:street": "Jagiello\u0144ska",
                "addr:housenumber": "11",
                "addr:teryt:simc": 322347,
                "addr:teryt:sym_ul": 7029,
                "phone": "+48 123128401",
                "email": "spkocmyrzow1@op.pl",
                "website": "https:\/\/spkocmyrzow1.edupage.org\/",
                "ref:regon": "001233960",
                "ref:vatin": "PL6821603702",
                "operator": "Gmina Kocmyrz\u00f3w-Luborzyca",
                "operator:type": "government",
                "amenity": "school"
            }
        },
        {
            "id": 58678,
            "type": "Feature",
            "geometry": {
                "type": "Point",
                "coordinates": [
                    20.17369,
                    50.13606
                ]
            },
            "properties": {
                "isced:level": "1;2",
                "ref:rspo": 58678,
                "official_name": "Szko\u0142a Podstawowa im. Adama Mickiewicza w Karniowie",
                "name": "Szko\u0142a Podstawowa",
                "addr:postcode": "32-010",
                "addr:place": "Karni\u00f3w",
                "addr:housenumber": "11",
                "addr:teryt:simc": 322258,
                "phone": "+48 123871079",
                "email": "szkolakarniow@vp.pl",
                "website": "http:\/\/www.spkarniow.edupage.org",
                "ref:regon": "001233730",
                "ref:vatin": "PL6821603725",
                "operator": "Gmina Kocmyrz\u00f3w-Luborzyca",
                "operator:type": "government",
                "amenity": "school"
            }
        },
        {
            "id": 58666,
            "type": "Feature",
            "geometry": {
                "type": "Point",
                "coordinates": [
                    20.07251,
                    50.14228
                ]
            },
            "properties": {
                "isced:level": "1;2",
                "ref:rspo": 58666,
                "official_name": "Szko\u0142a Podstawowa w Maciejowicach",
                "name": "Szko\u0142a Podstawowa w Maciejowicach",
                "addr:postcode": "32-010",
                "addr:place": "Maciejowice",
                "addr:housenumber": "25",
                "addr:teryt:simc": 322436,
                "phone": "+48 123877028",
                "email": "spmaciejowice@onet.pl",
                "website": "https:\/\/spmaciejowice.edupage.org\/",
                "ref:regon": "001233717",
                "ref:vatin": "PL6821603719",
                "operator": "Gmina Kocmyrz\u00f3w-Luborzyca",
                "operator:type": "government",
                "amenity": "school"
            }
        },
        {
            "id": 267926,
            "type": "Feature",
            "geometry": {
                "type": "Point",
                "coordinates": [
                    20.10929,
                    50.14525
                ]
            },
            "properties": {
                "ref:rspo": 267926,
                "official_name": "Przedszkole Samorz\u0105dowe,, Akademia Przedszkolaka\"",
                "name": "Przedszkole Samorz\u0105dowe,, Akademia Przedszkolaka\"",
                "addr:postcode": "32-010",
                "addr:place": "Wysio\u0142ek Luborzycki",
                "addr:housenumber": "160B",
                "addr:teryt:simc": 322749,
                "phone": "+48 123871042",
                "email": "dyrektor@akademiaprzedszkolakawluborzycy.pl",
                "website": "http:\/\/akademiaprzedszkolakawluborzycy.pl",
                "ref:regon": "380753943",
                "operator": "Gmina Kocmyrz\u00f3w-Luborzyca",
                "operator:type": "government",
                "amenity": "kindergarten"
            }
        },
        {
            "id": 58679,
            "type": "Feature",
            "geometry": {
                "type": "Point",
                "coordinates": [
                    20.1378291,
                    50.149873
                ]
            },
            "properties": {
                "isced:level": "1;2",
                "ref:rspo": 58679,
                "official_name": "Szko\u0142a Podstawowa w Pietrzejowicach",
                "name": "Szko\u0142a Podstawowa w Pietrzejowicach",
                "addr:postcode": "32-010",
                "addr:place": "Pietrzejowice",
                "addr:housenumber": "52",
                "addr:teryt:simc": 322548,
                "phone": "+48 123870200",
                "email": "sppietrzejowice@poczta.fm",
                "website": "http:\/\/www.pietrzejowice.wordpress.com",
                "ref:regon": "001233723",
                "ref:vatin": "PL6821603642",
                "operator": "Gmina Kocmyrz\u00f3w-Luborzyca",
                "operator:type": "government",
                "amenity": "school"
            }
        },
        {
            "id": 58656,
            "type": "Feature",
            "geometry": {
                "type": "Point",
                "coordinates": [
                    20.08247,
                    50.15957
                ]
            },
            "properties": {
                "isced:level": "1;2",
                "ref:rspo": 58656,
                "official_name": "Szko\u0142a Podstawowa im. Jana Paw\u0142a II w \u0141uczycach",
                "name": "Szko\u0142a Podstawowa",
                "addr:postcode": "32-010",
                "addr:city": "\u0141uczyce",
                "addr:street": "Szkolna",
                "addr:housenumber": "11",
                "addr:teryt:simc": 322413,
                "addr:teryt:sym_ul": 21970,
                "phone": "+48 123871601",
                "email": "spluczyce@op.pl",
                "website": "http:\/\/spluczyce.edupage.org\/",
                "ref:regon": "001233769",
                "ref:vatin": "PL6821603688",
                "operator": "Gmina Kocmyrz\u00f3w-Luborzyca",
                "operator:type": "government",
                "amenity": "school"
            }
        },
        {
            "id": 59121,
            "type": "Feature",
            "geometry": {
                "type": "Point",
                "coordinates": [
                    20.0833423,
                    50.1608514
                ]
            },
            "properties": {
                "isced:level": "1;2",
                "ref:rspo": 59121,
                "official_name": "Szko\u0142a Podstawowa im. 600-Lecia Uniwersytetu Jagiello\u0144skiego",
                "name": "Szko\u0142a Podstawowa",
                "addr:postcode": "32-010",
                "addr:place": "Wysio\u0142ek Luborzycki",
                "addr:housenumber": "160",
                "addr:teryt:simc": 322749,
                "phone": "+48 123872140",
                "email": "spluborz@wp.pl",
                "website": "http:\/\/www.spluborzyca.szkolnastrona.pl",
                "ref:regon": "000703546",
                "ref:vatin": "PL6821603636",
                "operator": "Gmina Kocmyrz\u00f3w-Luborzyca",
                "operator:type": "government",
                "amenity": "school"
            }
        },
        {
            "id": 58622,
            "type": "Feature",
            "geometry": {
                "type": "Point",
                "coordinates": [
                    20.13784,
                    50.177
                ]
            },
            "properties": {
                "isced:level": "1;2",
                "ref:rspo": 58622,
                "official_name": "Szko\u0142a Podstawowa im. T. Ko\u015bciuszki w Goszycach",
                "name": "Szko\u0142a Podstawowa",
                "addr:postcode": "32-010",
                "addr:city": "Goszyce",
                "addr:street": "Tadeusza Ko\u015bciuszki",
                "addr:housenumber": "95",
                "addr:teryt:simc": 322235,
                "addr:teryt:sym_ul": 9582,
                "phone": "+48 123872189",
                "email": "goszyce@poczta.onet.pl",
                "website": "http:\/\/spgoszyce.edupage.org\/",
                "ref:regon": "001233752",
                "ref:vatin": "PL6821603694",
                "operator": "Gmina Kocmyrz\u00f3w-Luborzyca",
                "operator:type": "government",
                "amenity": "school"
            }
        },
        {
            "id": 58654,
            "type": "Feature",
            "geometry": {
                "type": "Point",
                "coordinates": [
                    20.07173,
                    50.18555
                ]
            },
            "properties": {
                "isced:level": "1;2",
                "ref:rspo": 58654,
                "official_name": "Szko\u0142a Podstawowa im. Gen. Mariana Langiewicza w Goszczy",
                "name": "Szko\u0142a Podstawowa",
                "addr:postcode": "32-010",
                "addr:city": "Goszcza",
                "addr:street": "Szkolna",
                "addr:housenumber": "1",
                "addr:teryt:simc": 322181,
                "addr:teryt:sym_ul": 21970,
                "phone": "+48 123871506",
                "email": "sp_lang@wp.pl",
                "website": "http:\/\/www.spgoszcza.szkolnastrona.pl\/",
                "ref:regon": "001233746",
                "ref:vatin": "PL6821603613",
                "operator": "Gmina Kocmyrz\u00f3w-Luborzyca",
                "operator:type": "government",
                "amenity": "school"
            }
        }
    ]
}