{
    "type": "FeatureCollection",
    "features": [
        {
            "id": 48958,
            "type": "Feature",
            "geometry": {
                "type": "Point",
                "coordinates": [
                    19.90302,
                    49.91423
                ]
            },
            "properties": {
                "isced:level": "1;2",
                "ref:rspo": 48958,
                "official_name": "Szko\u0142a Podstawowa Imienia \u015awi\u0119tej Faustyny Kowalskiej we W\u0142osani",
                "name": "Szko\u0142a Podstawowa Imienia \u015awi\u0119tej Faustyny Kowalskiej we W\u0142osani",
                "addr:postcode": "32-031",
                "addr:city": "W\u0142osa\u0144",
                "addr:street": "Kr\u00f3lowej Polski",
                "addr:housenumber": "142",
                "addr:city:simc": 327238,
                "addr:street:sym_ul": 37953,
                "phone": "+48 122701003",
                "email": "spwlosan@gmail.com",
                "website": "http:\/\/spwlosan.mogilany.pl\/",
                "ref:regon": "001234310",
                "ref:vatin": "PL9441834118",
                "operator": "Gmina Mogilany",
                "operator:type": "government",
                "amenity": "school"
            }
        },
        {
            "id": 60722,
            "type": "Feature",
            "geometry": {
                "type": "Point",
                "coordinates": [
                    19.88127,
                    49.92553
                ]
            },
            "properties": {
                "ref:rspo": 60722,
                "official_name": "Niepubliczne Przedszkole \"Zielona Polanka\"",
                "name": "Niepubliczne Przedszkole \"Zielona Polanka\"",
                "addr:postcode": "32-031",
                "addr:city": "Mogilany",
                "addr:street": "\u017bary",
                "addr:housenumber": "22",
                "addr:door": "a",
                "addr:city:simc": 327095,
                "addr:street:sym_ul": 33412,
                "phone": "+48 124445550",
                "email": "biuro@przedszkole-zielonapolanka.pl",
                "website": "http:\/\/www.przedszkole-zielonapolanka.pl\/",
                "ref:regon": "122693951",
                "ref:vatin": "PL6792834645",
                "operator": "Artur Walig\u00f3ra",
                "operator:type": "private",
                "amenity": "kindergarten"
            }
        },
        {
            "id": 278317,
            "type": "Feature",
            "geometry": {
                "type": "Point",
                "coordinates": [
                    19.90222,
                    49.93601
                ]
            },
            "properties": {
                "ref:rspo": 278317,
                "official_name": "Niepubliczne Przedszkole Sportowo-J\u0119zykowe Fair Play",
                "name": "Niepubliczne Przedszkole Sportowo-J\u0119zykowe Fair Play",
                "addr:postcode": "32-031",
                "addr:city": "Mogilany",
                "addr:street": "\u015awi\u0105tnicka",
                "addr:housenumber": "71a",
                "addr:city:simc": 327095,
                "addr:street:sym_ul": 22451,
                "email": "biuro@fairplay-mogilany.pl",
                "website": "http:\/\/www.fairplay-mogilany.pl",
                "ref:regon": "389859235",
                "operator": "Krzysztof Kusia",
                "operator:type": "private",
                "amenity": "kindergarten"
            }
        },
        {
            "id": 58208,
            "type": "Feature",
            "geometry": {
                "type": "Point",
                "coordinates": [
                    19.93364,
                    49.93645
                ]
            },
            "properties": {
                "ref:rspo": 58208,
                "official_name": "Przedszkole Samorz\u0105dowe w Mogilanach Iskierka z Oddzia\u0142em w Libertowie",
                "name": "Przedszkole Samorz\u0105dowe w Mogilanach Iskierka z Oddzia\u0142em w Libertowie",
                "addr:postcode": "32-031",
                "addr:city": "Mogilany",
                "addr:street": "Szkolna",
                "addr:housenumber": "1",
                "addr:city:simc": 327095,
                "addr:street:sym_ul": 21970,
                "phone": "+48 122701039",
                "email": "ps.iskierka@interia.pl",
                "website": "http:\/\/przedszkole-iskierka.com",
                "ref:regon": "351623858",
                "ref:vatin": "PL9441834124",
                "operator": "Gmina Mogilany",
                "operator:type": "government",
                "amenity": "kindergarten"
            }
        },
        {
            "id": 47217,
            "type": "Feature",
            "geometry": {
                "type": "Point",
                "coordinates": [
                    19.9324,
                    49.93813
                ]
            },
            "properties": {
                "isced:level": "1;2",
                "ref:rspo": 47217,
                "official_name": "Szko\u0142a Podstawowa im. Marii Konopnickiej w Konarach",
                "name": "Szko\u0142a Podstawowa",
                "addr:postcode": "32-031",
                "addr:city": "Konary",
                "addr:street": "Szkolna",
                "addr:housenumber": "13",
                "addr:city:simc": 326813,
                "addr:street:sym_ul": 21970,
                "phone": "+48 122704142",
                "email": "spkonary@poczta.onet.pl",
                "website": "http:\/\/spkonary.edupage.org\/",
                "ref:regon": "001234332",
                "ref:vatin": "PL9441834058",
                "operator": "Gmina Mogilany",
                "operator:type": "government",
                "amenity": "school"
            }
        },
        {
            "id": 48957,
            "type": "Feature",
            "geometry": {
                "type": "Point",
                "coordinates": [
                    19.8893099,
                    49.94189
                ]
            },
            "properties": {
                "isced:level": "1;2",
                "ref:rspo": 48957,
                "official_name": "Szko\u0142a Podstawowa im. J\u00f3zefa Nowina Konopki w Mogilanach",
                "name": "Szko\u0142a Podstawowa",
                "addr:postcode": "32-031",
                "addr:city": "Mogilany",
                "addr:street": "\u015awi\u0119tego Bart\u0142omieja Aposto\u0142a",
                "addr:housenumber": "16",
                "addr:city:simc": 327095,
                "addr:street:sym_ul": 33411,
                "phone": "+48 122701610",
                "email": "spmogilany@op.pl",
                "website": "http:\/\/spmogilany.edupage.org\/",
                "ref:regon": "000703440",
                "ref:vatin": "PL9441834070",
                "operator": "Gmina Mogilany",
                "operator:type": "government",
                "amenity": "school"
            }
        },
        {
            "id": 263580,
            "type": "Feature",
            "geometry": {
                "type": "Point",
                "coordinates": [
                    19.88947,
                    49.94303
                ]
            },
            "properties": {
                "ref:rspo": 263580,
                "official_name": "Niepubliczne Przedszkole Montessori \"Dzieci \u015awiata\"",
                "name": "Niepubliczne Przedszkole Montessori \"Dzieci \u015awiata\"",
                "addr:postcode": "32-031",
                "addr:city": "Mogilany",
                "addr:street": "S\u0142owia\u0144ska",
                "addr:housenumber": "3",
                "addr:city:simc": 327095,
                "addr:street:sym_ul": 20294,
                "phone": "+48 509769035",
                "email": "montessoridzieciswiata@gmail.com",
                "website": "http:\/\/montessoridzieciswiata.pl",
                "ref:regon": "368210360",
                "ref:vatin": "PL9442109170",
                "operator": "Marta Grzesik",
                "operator:type": "private",
                "amenity": "kindergarten"
            }
        },
        {
            "id": 130758,
            "type": "Feature",
            "geometry": {
                "type": "Point",
                "coordinates": [
                    19.87843,
                    49.94316
                ]
            },
            "properties": {
                "ref:rspo": 130758,
                "official_name": "Niepubliczne Przedszkole \"Dooko\u0142a \u015awiata\"",
                "name": "Niepubliczne Przedszkole \"Dooko\u0142a \u015awiata\"",
                "addr:postcode": "32-031",
                "addr:city": "Mogilany",
                "addr:street": "Osiedle Parkowe Wzg\u00f3rze",
                "addr:housenumber": "100",
                "addr:city:simc": 327095,
                "addr:street:sym_ul": 38738,
                "ref:regon": "364476798",
                "operator": "Mistar Micha\u0142 Szczur",
                "operator:type": "consortium",
                "amenity": "kindergarten"
            }
        },
        {
            "id": 47208,
            "type": "Feature",
            "geometry": {
                "type": "Point",
                "coordinates": [
                    19.848565,
                    49.944483
                ]
            },
            "properties": {
                "isced:level": "1;2",
                "ref:rspo": 47208,
                "official_name": "Szko\u0142a Podstawowa im. Oskara Kolberga w Bukowie",
                "name": "Szko\u0142a Podstawowa",
                "addr:postcode": "32-031",
                "addr:place": "Buk\u00f3w",
                "addr:housenumber": "1",
                "addr:city:simc": 326530,
                "phone": "+48 122701069",
                "email": "spbukow@interia.pl",
                "website": "http:\/\/spbukow-mogilany.edupage.org\/",
                "ref:regon": "001234361",
                "ref:vatin": "PL9441834087",
                "operator": "Gmina Mogilany",
                "operator:type": "government",
                "amenity": "school"
            }
        },
        {
            "id": 84795,
            "type": "Feature",
            "geometry": {
                "type": "Point",
                "coordinates": [
                    19.90001,
                    49.96067
                ]
            },
            "properties": {
                "isced:level": "1;2",
                "ref:rspo": 84795,
                "official_name": "Szko\u0142a Podstawowa im. Jana Paw\u0142a II w Gaju",
                "name": "Szko\u0142a Podstawowa",
                "addr:postcode": "32-031",
                "addr:city": "Gaj",
                "addr:street": "Szkolna",
                "addr:housenumber": "73",
                "addr:city:simc": 326670,
                "addr:street:sym_ul": 21970,
                "phone": "+48 122701135",
                "email": "zsgaj@mogilany.pl",
                "website": "http:\/\/zsgaj.edupage.org\/",
                "ref:regon": "001234355",
                "operator": "Gmina Mogilany",
                "operator:type": "government",
                "amenity": "school"
            }
        },
        {
            "id": 47219,
            "type": "Feature",
            "geometry": {
                "type": "Point",
                "coordinates": [
                    19.92942,
                    49.96761
                ]
            },
            "properties": {
                "isced:level": "1;2",
                "ref:rspo": 47219,
                "official_name": "Szko\u0142a Podstawowa im. \u015awi\u0119tej Jadwigi Kr\u00f3lowej w Lusinie",
                "name": "Szko\u0142a Podstawowa",
                "addr:postcode": "30-698",
                "addr:city": "Lusina",
                "addr:street": "Zdrojowa",
                "addr:housenumber": "68",
                "addr:city:simc": 327014,
                "addr:street:sym_ul": 25944,
                "phone": "+48 122701704",
                "email": "splusina@g.pl",
                "website": "http:\/\/www.splusina.szkolnastrona.pl",
                "ref:regon": "001234349",
                "ref:vatin": "PL9441834101",
                "operator": "Gmina Mogilany",
                "operator:type": "government",
                "amenity": "school"
            }
        },
        {
            "id": 47218,
            "type": "Feature",
            "geometry": {
                "type": "Point",
                "coordinates": [
                    19.9054992,
                    49.9731397
                ]
            },
            "properties": {
                "isced:level": "1;2",
                "ref:rspo": 47218,
                "official_name": "Szko\u0142a Podstawowa im. Janusza Korczaka w Libertowie",
                "name": "Szko\u0142a Podstawowa",
                "addr:postcode": "30-444",
                "addr:city": "Libert\u00f3w",
                "addr:street": "Jana Paw\u0142a II",
                "addr:housenumber": "43",
                "addr:city:simc": 326902,
                "addr:street:sym_ul": 7123,
                "phone": "+48 122703033",
                "email": "sp.libertow@interia.pl",
                "website": "http:\/\/splibertow.edupage.org\/",
                "ref:regon": "001234326",
                "ref:vatin": "PL9441834093",
                "operator": "Gmina Mogilany",
                "operator:type": "government",
                "amenity": "school"
            }
        }
    ]
}