{
    "type": "FeatureCollection",
    "features": [
        {
            "id": 74274,
            "type": "Feature",
            "geometry": {
                "type": "Point",
                "coordinates": [
                    20.02884,
                    50.11535
                ]
            },
            "properties": {
                "ref:rspo": 74274,
                "official_name": "Niepubliczne Przedszkole Caritas Archidiecezji Krakowskiej im. Marii Montessori",
                "name": "Niepubliczne Przedszkole Caritas Archidiecezji Krakowskiej",
                "addr:country": "PL",
                "addr:postcode": "32-091",
                "addr:city": "Raciborowice",
                "addr:street": "ul. Wawelska",
                "addr:housenumber": "13",
                "addr:teryt:simc": 23749,
                "addr:teryt:sym_ul": 326173,
                "contact:phone": "+48 123877528",
                "contact:email": "raciborowice2@gmail.com",
                "ref:regon": "122702845",
                "operator": "Caritas Archidiecezji Krakowskiej",
                "operator:type": "religious",
                "amenity": "kindergarten"
            }
        },
        {
            "id": 60552,
            "type": "Feature",
            "geometry": {
                "type": "Point",
                "coordinates": [
                    20.04001,
                    50.11842
                ]
            },
            "properties": {
                "isced:level": "1;2",
                "ref:rspo": 60552,
                "official_name": "Szko\u0142a Podstawowa im. Ks. Jana D\u0142ugosza w Raciborowicach",
                "name": "Szko\u0142a Podstawowa",
                "addr:country": "PL",
                "addr:postcode": "32-091",
                "addr:city": "Raciborowice",
                "addr:street": "ul. Jana D\u0142ugosza",
                "addr:housenumber": "36",
                "addr:teryt:simc": 3851,
                "addr:teryt:sym_ul": 326173,
                "contact:phone": "+48 123877044",
                "contact:email": "raciborowice@interia.pl",
                "contact:website": "https:\/\/raciborowice.edupage.org\/",
                "ref:regon": "001233999",
                "ref:vatin": "PL5130063906",
                "operator": "Gmina Micha\u0142owice",
                "operator:type": "government",
                "amenity": "school"
            }
        },
        {
            "id": 60554,
            "type": "Feature",
            "geometry": {
                "type": "Point",
                "coordinates": [
                    20.03363,
                    50.14932
                ]
            },
            "properties": {
                "isced:level": "1;2",
                "ref:rspo": 60554,
                "official_name": "Szko\u0142a Podstawowa im. \u015aw. Kr\u00f3lowej Jadwigi w Wi\u0119c\u0142awicach Starych",
                "name": "Szko\u0142a Podstawowa",
                "addr:country": "PL",
                "addr:postcode": "32-091",
                "addr:city": "Wi\u0119c\u0142awice Stare",
                "addr:street": "ul. \u015bw. Jakuba",
                "addr:housenumber": "94",
                "addr:teryt:simc": 7078,
                "addr:teryt:sym_ul": 326291,
                "contact:phone": "+48 123885056",
                "contact:email": "szkola@spwieclawice.pl",
                "contact:website": "http:\/\/spwieclawice.pl",
                "ref:regon": "001233982",
                "ref:vatin": "PL5130063912",
                "operator": "Gmina Micha\u0142owice",
                "operator:type": "government",
                "amenity": "school"
            }
        },
        {
            "id": 49950,
            "type": "Feature",
            "geometry": {
                "type": "Point",
                "coordinates": [
                    20.01222,
                    50.15343
                ]
            },
            "properties": {
                "ref:rspo": 49950,
                "official_name": "Niepubliczne Przedszkole \"Kubusiowa Dolina\" w Zdzi\u0119s\u0142awicach",
                "name": "Niepubliczne Przedszkole \"Kubusiowa Dolina\" w Zdzi\u0119s\u0142awicach",
                "addr:country": "PL",
                "addr:postcode": "32-091",
                "addr:city": "Zdzi\u0119s\u0142awice",
                "addr:street": "ul. Zgody",
                "addr:housenumber": "1",
                "addr:teryt:simc": 26026,
                "addr:teryt:sym_ul": 326440,
                "contact:phone": "+48 123888129",
                "contact:email": "kubusiowadolina@ekangu.eu",
                "contact:website": "http:\/\/kubusiowadolina.pl",
                "ref:regon": "122690906",
                "operator": "Katarzyna Le\u0144czowska \"Nuki\"",
                "operator:type": "consortium",
                "amenity": "kindergarten"
            }
        },
        {
            "id": 49952,
            "type": "Feature",
            "geometry": {
                "type": "Point",
                "coordinates": [
                    19.95535,
                    50.15642
                ]
            },
            "properties": {
                "isced:level": "1;2",
                "ref:rspo": 49952,
                "official_name": "Szko\u0142a Podstawowa im. Jana Paw\u0142a II w Micha\u0142owicach",
                "name": "Szko\u0142a Podstawowa",
                "addr:country": "PL",
                "addr:postcode": "32-091",
                "addr:city": "Micha\u0142owice",
                "addr:street": "ul. Jana Paw\u0142a II",
                "addr:housenumber": "1",
                "addr:teryt:simc": 7123,
                "addr:teryt:sym_ul": 326010,
                "contact:phone": "+48 123885016",
                "contact:email": "sekretariat@michalowice.edu.pl",
                "contact:website": "http:\/\/michalowice.edu.pl",
                "ref:regon": "000703581",
                "ref:vatin": "PL5130119452",
                "operator": "Gmina Micha\u0142owice",
                "operator:type": "government",
                "amenity": "school"
            }
        },
        {
            "id": 264566,
            "type": "Feature",
            "geometry": {
                "type": "Point",
                "coordinates": [
                    19.98094,
                    50.15767
                ]
            },
            "properties": {
                "ref:rspo": 264566,
                "official_name": "Niepubliczne Przedszkole J\u0119zykowe \"Be Happy\"",
                "name": "Niepubliczne Przedszkole J\u0119zykowe \"Be Happy\"",
                "addr:country": "PL",
                "addr:postcode": "32-091",
                "addr:city": "Micha\u0142owice",
                "addr:street": "ul. Krakowska",
                "addr:housenumber": "152A",
                "addr:teryt:simc": 9796,
                "addr:teryt:sym_ul": 326010,
                "contact:email": "biuro@przedszkole-behappy.pl",
                "contact:website": "http:\/\/www.przedszkole-behappy.pl",
                "ref:regon": "368379655",
                "operator": "\"Be Happy\" Sp\u00f3\u0142ka Z Ograniczon\u0105 Odpowiedzialno\u015bci\u0105",
                "operator:type": "private",
                "amenity": "kindergarten"
            }
        },
        {
            "id": 49948,
            "type": "Feature",
            "geometry": {
                "type": "Point",
                "coordinates": [
                    19.98175,
                    50.15784
                ]
            },
            "properties": {
                "ref:rspo": 49948,
                "official_name": "Niepubliczne Przedszkole \"Promyczek\"",
                "name": "Niepubliczne Przedszkole \"Promyczek\"",
                "addr:country": "PL",
                "addr:postcode": "32-091",
                "addr:city": "Micha\u0142owice",
                "addr:street": "ul. Krakowska",
                "addr:housenumber": "154",
                "addr:teryt:simc": 9796,
                "addr:teryt:sym_ul": 326010,
                "contact:phone": "+48 123885006",
                "contact:email": "promyczek@promyczekprzedszkole.pl",
                "contact:website": "http:\/\/www.promyczekprzedszkole.pl\/",
                "ref:regon": "122701952",
                "operator": "Gminna Sp\u00f3\u0142dzielnia Samopomoc Ch\u0142opska W Micha\u0142owicach",
                "operator:type": "cooperative",
                "amenity": "kindergarten"
            }
        },
        {
            "id": 268410,
            "type": "Feature",
            "geometry": {
                "type": "Point",
                "coordinates": [
                    19.94469,
                    50.17893
                ]
            },
            "properties": {
                "ref:rspo": 268410,
                "official_name": "Niepubliczne Przedszkole \"Morska Kraina\"",
                "name": "Niepubliczne Przedszkole \"Morska Kraina\"",
                "addr:country": "PL",
                "addr:postcode": "32-091",
                "addr:city": "Kozier\u00f3w",
                "addr:street": "ul. Graniczna",
                "addr:housenumber": "294",
                "addr:teryt:simc": 6075,
                "addr:teryt:sym_ul": 325920,
                "contact:email": "morskakrainakozierow@gmail.com",
                "contact:website": "http:\/\/www.morskakrainakozierow.pl",
                "ref:regon": "381151130",
                "operator": "Anna Calik",
                "operator:type": "private",
                "amenity": "kindergarten"
            }
        }
    ]
}