{
    "type": "FeatureCollection",
    "features": [
        {
            "id": 115010,
            "type": "Feature",
            "geometry": {
                "type": "Point",
                "coordinates": [
                    19.8085099,
                    49.93844
                ]
            },
            "properties": {
                "isced:level": "1;2",
                "ref:rspo": 115010,
                "official_name": "Szko\u0142a Podstawowa im. Tadeusza Ko\u015bciuszki w Czernichowie",
                "name": "Szko\u0142a Podstawowa",
                "addr:postcode": "32-070",
                "addr:city": "Czernich\u00f3w",
                "addr:street": "Ko\u015bcielna",
                "addr:housenumber": "8",
                "addr:city:simc": 315548,
                "addr:street:sym_ul": 9546,
                "phone": "+48 122702021",
                "email": "spczernichow@poczta.fm",
                "website": "http:\/\/www.szkola.czernichow.pl",
                "ref:regon": "000698986",
                "ref:vatin": "PL9442128641",
                "operator": "Gmina Czernich\u00f3w",
                "operator:type": "government",
                "amenity": "school"
            }
        },
        {
            "id": 106924,
            "type": "Feature",
            "geometry": {
                "type": "Point",
                "coordinates": [
                    19.82874,
                    49.97619
                ]
            },
            "properties": {
                "isced:level": "1;2",
                "ref:rspo": 106924,
                "official_name": "Publiczna Szko\u0142a Podstawowa w Czu\u0142\u00f3wku",
                "name": "Publiczna Szko\u0142a Podstawowa w Czu\u0142\u00f3wku",
                "addr:postcode": "32-061",
                "addr:city": "Czu\u0142\u00f3wek",
                "addr:street": "Jana III Sobieskiego",
                "addr:housenumber": "25",
                "addr:city:simc": 315666,
                "addr:street:sym_ul": 20431,
                "phone": "+48 122702771",
                "email": "pspcz@wp.pl",
                "website": "http:\/\/www.szkolaczulowek.czernichow.pl",
                "ref:regon": "122761782",
                "ref:vatin": "PL9442024781",
                "operator": "Stowarzyszenie Na Rzecz Rozwoju Wsi Im. Jana Iii Sobieskiego W Czu\u0142\u00f3wku",
                "operator:type": "ngo",
                "amenity": "school"
            }
        },
        {
            "id": 129355,
            "type": "Feature",
            "geometry": {
                "type": "Point",
                "coordinates": [
                    19.66895,
                    49.98496
                ]
            },
            "properties": {
                "ref:rspo": 129355,
                "official_name": "Prywatne Przedszkole J\u0119zykowe \"Ma\u0142y Europejczyk\"",
                "name": "Prywatne Przedszkole J\u0119zykowe \"Ma\u0142y Europejczyk\"",
                "addr:postcode": "32-070",
                "addr:city": "Czernich\u00f3w",
                "addr:street": "Franciszka Stefczyka",
                "addr:housenumber": "29",
                "addr:city:simc": 315548,
                "addr:street:sym_ul": 21123,
                "phone": "+48 504420714",
                "email": "alecka21@wp.pl",
                "ref:regon": "362570369",
                "ref:vatin": "PL9442072018",
                "operator": "Agnieszka \u0141\u0119cka-Chwa\u0142a",
                "operator:type": "private",
                "amenity": "kindergarten"
            }
        },
        {
            "id": 106906,
            "type": "Feature",
            "geometry": {
                "type": "Point",
                "coordinates": [
                    19.67282,
                    49.98609
                ]
            },
            "properties": {
                "ref:rspo": 106906,
                "official_name": "Samorz\u0105dowe Przedszkole w Czernichowie",
                "name": "Samorz\u0105dowe Przedszkole w Czernichowie",
                "addr:postcode": "32-070",
                "addr:city": "Czernich\u00f3w",
                "addr:street": "Rynek",
                "addr:housenumber": "3",
                "addr:city:simc": 315548,
                "addr:street:sym_ul": 19253,
                "phone": "+48 122702058",
                "email": "przedszkoleczer@o2.pl",
                "website": "http:\/\/www.przedszkole.czernichow.pl",
                "ref:regon": "350530280",
                "ref:vatin": "PL9441798049",
                "operator": "Gmina Czernich\u00f3w",
                "operator:type": "government",
                "amenity": "kindergarten"
            }
        },
        {
            "id": 18162,
            "type": "Feature",
            "geometry": {
                "type": "Point",
                "coordinates": [
                    19.66638,
                    49.99011
                ]
            },
            "properties": {
                "ref:rspo": 18162,
                "official_name": "Zesp\u00f3\u0142 Szk\u00f3\u0142 Rolnicze Centrum Kszta\u0142cenia Ustawicznego im. Franciszka Stefczyka w Czernichowie",
                "name": "Zesp\u00f3\u0142 Szk\u00f3\u0142 Rolnicze Centrum Kszta\u0142cenia Ustawicznego",
                "addr:postcode": "32-070",
                "addr:city": "Czernich\u00f3w",
                "addr:street": "Rynek",
                "addr:housenumber": "17",
                "addr:city:simc": 315548,
                "addr:street:sym_ul": 19253,
                "phone": "+48 122702016",
                "email": "czernichow.edu@gmail.com",
                "website": "http:\/\/czernichow.edu.pl",
                "ref:regon": "000096187",
                "ref:vatin": "PL6750006375",
                "operator": "Powiat Krakowski",
                "operator:type": "government",
                "landuse": "education",
                "fixme": "amenity=school, amenity=college albo landuse=education w zale\u017cno\u015bci od tego, jakie plac\u00f3wki wchodz\u0105 w sk\u0142ad zespo\u0142u. Sprawd\u017a, kiedy stosowa\u0107 amenity=* a kiedy landuse=education.",
                "note": "Children RSPO: 59987;59989;59991;59993;130417;130418"
            }
        },
        {
            "id": 59987,
            "type": "Feature",
            "geometry": {
                "type": "Point",
                "coordinates": [
                    19.66638,
                    49.99008
                ]
            },
            "properties": {
                "isced:level": "3",
                "ref:rspo": 59987,
                "official_name": "Liceum Og\u00f3lnokszta\u0142c\u0105ce w Czernichowie w Zespole Szk\u00f3\u0142 Rolnicze Centrum Kszta\u0142cenia Ustawicznego im. Franciszka Stefczyka w Czernichowie",
                "name": "Liceum Og\u00f3lnokszta\u0142c\u0105ce w Czernichowie w Zespole Szk\u00f3\u0142 Rolnicze Centrum Kszta\u0142cenia Ustawicznego",
                "addr:postcode": "32-070",
                "addr:city": "Czernich\u00f3w",
                "addr:street": "Rynek",
                "addr:housenumber": "17",
                "addr:city:simc": 315548,
                "addr:street:sym_ul": 19253,
                "phone": "+48 122702016",
                "email": "czernichow.edu@gmail.com",
                "website": "http:\/\/www.czernichow.edu.pl",
                "ref:regon": "356864621",
                "operator": "Powiat Krakowski",
                "operator:type": "government",
                "amenity": "school",
                "note": "Parent RSPO: 18162"
            }
        },
        {
            "id": 59989,
            "type": "Feature",
            "geometry": {
                "type": "Point",
                "coordinates": [
                    19.66638,
                    49.990050000000004
                ]
            },
            "properties": {
                "isced:level": "3",
                "ref:rspo": 59989,
                "official_name": "Technikum w Czernichowie w Zespole Szk\u00f3\u0142 Rolnicze Centrum Kszta\u0142cenia Ustawicznego im. Franciszka Stefczyka w Czernichowie",
                "name": "Technikum w Czernichowie w Zespole Szk\u00f3\u0142 Rolnicze Centrum Kszta\u0142cenia Ustawicznego",
                "addr:postcode": "32-070",
                "addr:city": "Czernich\u00f3w",
                "addr:street": "Rynek",
                "addr:housenumber": "17",
                "addr:city:simc": 315548,
                "addr:street:sym_ul": 19253,
                "phone": "+48 122702016",
                "email": "czernichow.edu@gmail.com",
                "website": "http:\/\/www.czernichow.edu.pl",
                "ref:regon": "356566770",
                "operator": "Powiat Krakowski",
                "operator:type": "government",
                "amenity": "school",
                "note": "Parent RSPO: 18162"
            }
        },
        {
            "id": 59991,
            "type": "Feature",
            "geometry": {
                "type": "Point",
                "coordinates": [
                    19.66638,
                    49.99002
                ]
            },
            "properties": {
                "isced:level": "4",
                "ref:rspo": 59991,
                "official_name": "Szko\u0142a Policealna w Czernichowie w Zespole Szk\u00f3\u0142 Rolnicze Centrum Kszta\u0142cenia Ustawicznego im. Franciszka Stefczyka w Czernichowie",
                "name": "Szko\u0142a Policealna w Czernichowie w Zespole Szk\u00f3\u0142 Rolnicze Centrum Kszta\u0142cenia Ustawicznego",
                "addr:postcode": "32-070",
                "addr:city": "Czernich\u00f3w",
                "addr:street": "Rynek",
                "addr:housenumber": "17",
                "addr:city:simc": 315548,
                "addr:street:sym_ul": 19253,
                "phone": "+48 122702016",
                "email": "czernichow.edu@gmail.com",
                "website": "http:\/\/www.czernichow.edu.pl",
                "ref:regon": "120315966",
                "operator": "Powiat Krakowski",
                "operator:type": "government",
                "amenity": "college",
                "note": "Parent RSPO: 18162"
            }
        },
        {
            "id": 59993,
            "type": "Feature",
            "geometry": {
                "type": "Point",
                "coordinates": [
                    19.66638,
                    49.98999
                ]
            },
            "properties": {
                "isced:level": "3",
                "ref:rspo": 59993,
                "official_name": "Zaoczne Liceum Og\u00f3lnokszta\u0142c\u0105ce dla Doros\u0142ych w Czernichowie w Zespole Szk\u00f3\u0142 Rolnicze Centrum Kszta\u0142cenia Ustawicznego im. Franciszka Stefczyka w Czernichowie",
                "name": "Zaoczne Liceum Og\u00f3lnokszta\u0142c\u0105ce dla Doros\u0142ych w Czernichowie w Zespole Szk\u00f3\u0142 Rolnicze Centrum Kszta\u0142cenia Ustawicznego",
                "addr:postcode": "32-070",
                "addr:city": "Czernich\u00f3w",
                "addr:street": "Rynek",
                "addr:housenumber": "17",
                "addr:city:simc": 315548,
                "addr:street:sym_ul": 19253,
                "phone": "+48 122702016",
                "email": "czernichow.edu@gmail.com",
                "website": "http:\/\/www.czernichow.edu.pl",
                "ref:regon": "120542461",
                "operator": "Powiat Krakowski",
                "operator:type": "government",
                "amenity": "school",
                "note": "Parent RSPO: 18162"
            }
        },
        {
            "id": 130417,
            "type": "Feature",
            "geometry": {
                "type": "Point",
                "coordinates": [
                    19.66638,
                    49.98996
                ]
            },
            "properties": {
                "ref:rspo": 130417,
                "official_name": "Centrum Kszta\u0142cenia Zawodowego w Czernichowie",
                "name": "Centrum Kszta\u0142cenia Zawodowego w Czernichowie",
                "addr:postcode": "32-070",
                "addr:city": "Czernich\u00f3w",
                "addr:street": "Rynek",
                "addr:housenumber": "17",
                "addr:city:simc": 315548,
                "addr:street:sym_ul": 19253,
                "phone": "+48 122702016",
                "email": "czernichow.edu@gmail.com",
                "website": "http:\/\/www.czernichow.edu.pl",
                "ref:regon": "364003500",
                "operator": "Powiat Krakowski",
                "operator:type": "government",
                "fixme": "w zale\u017cno\u015bci od przedmiotu dzia\u0142alno\u015bci (np. amenity=training + training=*, amenity=dancing_school, amenity=language_school, amenity=music_school) albo amenity=school, amenity=college, albo landuse=education w zale\u017cno\u015bci od tego, jakie plac\u00f3wki wchodz\u0105 w sk\u0142ad zespo\u0142u. Sprawd\u017a, kiedy stosowa\u0107 amenity=* a kiedy landuse=education.",
                "note": "Parent RSPO: 18162"
            }
        },
        {
            "id": 130418,
            "type": "Feature",
            "geometry": {
                "type": "Point",
                "coordinates": [
                    19.66638,
                    49.98993
                ]
            },
            "properties": {
                "isced:level": "3",
                "ref:rspo": 130418,
                "official_name": "Bran\u017cowa Szko\u0142a I Stopnia w Czernichowie w Zespole Szk\u00f3\u0142 Rolnicze Centrum Kszta\u0142cenia Ustawicznego im. Franciszka Stefczyka w Czernichowie",
                "name": "Bran\u017cowa Szko\u0142a I Stopnia w Czernichowie w Zespole Szk\u00f3\u0142 Rolnicze Centrum Kszta\u0142cenia Ustawicznego",
                "addr:postcode": "32-070",
                "addr:city": "Czernich\u00f3w",
                "addr:street": "Rynek",
                "addr:housenumber": "17",
                "addr:city:simc": 315548,
                "addr:street:sym_ul": 19253,
                "phone": "+48 122702016",
                "email": "czernichow.edu@gmail.com",
                "website": "http:\/\/www.czernichow.edu.pl",
                "ref:regon": "364003516",
                "operator": "Powiat Krakowski",
                "operator:type": "government",
                "amenity": "school",
                "note": "Parent RSPO: 18162"
            }
        },
        {
            "id": 106907,
            "type": "Feature",
            "geometry": {
                "type": "Point",
                "coordinates": [
                    19.726433,
                    49.9935031
                ]
            },
            "properties": {
                "ref:rspo": 106907,
                "official_name": "Samorz\u0105dowe Przedszkole w Wo\u0142owicach",
                "name": "Samorz\u0105dowe Przedszkole w Wo\u0142owicach",
                "addr:postcode": "32-070",
                "addr:place": "Wo\u0142owice",
                "addr:housenumber": "1",
                "addr:city:simc": 316281,
                "phone": "+48 122802079",
                "email": "sprzedszkole@wp.pl",
                "ref:regon": "350530296",
                "ref:vatin": "PL9441798032",
                "operator": "Gmina Czernich\u00f3w",
                "operator:type": "government",
                "amenity": "kindergarten"
            }
        },
        {
            "id": 263278,
            "type": "Feature",
            "geometry": {
                "type": "Point",
                "coordinates": [
                    19.63946,
                    49.99407
                ]
            },
            "properties": {
                "ref:rspo": 263278,
                "official_name": "Zesp\u00f3\u0142 Szkolno-Przedszkolny w K\u0142okoczynie",
                "name": "Zesp\u00f3\u0142 Szkolno-Przedszkolny w K\u0142okoczynie",
                "addr:postcode": "32-070",
                "addr:city": "K\u0142okoczyn",
                "addr:street": "Czernichowska",
                "addr:housenumber": "28",
                "addr:city:simc": 315896,
                "addr:street:sym_ul": 3388,
                "phone": "+48 122702126",
                "email": "szkola.klokoczyn@vp.pl",
                "website": "http:\/\/www.szkolaklokoczyn.pl",
                "ref:regon": "368179086",
                "operator": "Stowarzyszenie Na Rzecz Rozwoju Wsi Im. Juliana Tuwima W K\u0142okoczynie",
                "operator:type": "ngo",
                "landuse": "education",
                "fixme": "amenity=school, amenity=college albo landuse=education w zale\u017cno\u015bci od tego, jakie plac\u00f3wki wchodz\u0105 w sk\u0142ad zespo\u0142u. Sprawd\u017a, kiedy stosowa\u0107 amenity=* a kiedy landuse=education.",
                "note": "Children RSPO: 106754;263384"
            }
        },
        {
            "id": 106754,
            "type": "Feature",
            "geometry": {
                "type": "Point",
                "coordinates": [
                    19.63946,
                    49.99404
                ]
            },
            "properties": {
                "isced:level": "1;2",
                "ref:rspo": 106754,
                "official_name": "Publiczna Szko\u0142a Podstawowa im. I.j. Paderewskiego w K\u0142okoczynie",
                "name": "Publiczna Szko\u0142a Podstawowa",
                "addr:postcode": "32-070",
                "addr:city": "K\u0142okoczyn",
                "addr:street": "Czernichowska",
                "addr:housenumber": "28",
                "addr:city:simc": 315896,
                "addr:street:sym_ul": 3388,
                "phone": "+48 122702126",
                "email": "szkola.klokoczyn@vp.pl",
                "ref:regon": "122759615",
                "ref:vatin": "PL9442059667",
                "operator": "Stowarzyszenie Na Rzecz Rozwoju Wsi Im. Juliana Tuwima W K\u0142okoczynie",
                "operator:type": "ngo",
                "amenity": "school",
                "note": "Parent RSPO: 263278"
            }
        },
        {
            "id": 263384,
            "type": "Feature",
            "geometry": {
                "type": "Point",
                "coordinates": [
                    19.63946,
                    49.99401
                ]
            },
            "properties": {
                "ref:rspo": 263384,
                "official_name": "Publiczne Przedszkole \"Zaczarowany Ogr\u00f3d\"",
                "name": "Publiczne Przedszkole \"Zaczarowany Ogr\u00f3d\"",
                "addr:postcode": "32-070",
                "addr:city": "K\u0142okoczyn",
                "addr:street": "Czernichowska",
                "addr:housenumber": "28",
                "addr:city:simc": 315896,
                "addr:street:sym_ul": 3388,
                "phone": "+48 122702126",
                "email": "szkola.klokoczyn@vp.pl",
                "ref:regon": "368191420",
                "operator": "Stowarzyszenie Na Rzecz Rozwoju Wsi Im. Juliana Tuwima W K\u0142okoczynie",
                "operator:type": "ngo",
                "amenity": "kindergarten",
                "note": "Parent RSPO: 263278"
            }
        },
        {
            "id": 277877,
            "type": "Feature",
            "geometry": {
                "type": "Point",
                "coordinates": [
                    19.60694,
                    49.99419
                ]
            },
            "properties": {
                "ref:rspo": 277877,
                "official_name": "Zesp\u00f3\u0142 Szkolno-Przedszkolny z Oddzia\u0142ami Integracyjnymi w Rusocicach",
                "name": "Zesp\u00f3\u0142 Szkolno-Przedszkolny z Oddzia\u0142ami Integracyjnymi w Rusocicach",
                "addr:postcode": "32-071",
                "addr:city": "Rusocice",
                "addr:street": "Krakowska",
                "addr:housenumber": "100",
                "addr:city:simc": 316111,
                "addr:street:sym_ul": 9796,
                "phone": "+48 122803057",
                "ref:regon": "389616930",
                "ref:vatin": "PL9442272935",
                "operator": "Gmina Czernich\u00f3w",
                "operator:type": "government",
                "landuse": "education",
                "fixme": "amenity=school, amenity=college albo landuse=education w zale\u017cno\u015bci od tego, jakie plac\u00f3wki wchodz\u0105 w sk\u0142ad zespo\u0142u. Sprawd\u017a, kiedy stosowa\u0107 amenity=* a kiedy landuse=education.",
                "note": "Children RSPO: 106751;277880"
            }
        },
        {
            "id": 106751,
            "type": "Feature",
            "geometry": {
                "type": "Point",
                "coordinates": [
                    19.60694,
                    49.99416
                ]
            },
            "properties": {
                "isced:level": "1;2",
                "ref:rspo": 106751,
                "official_name": "Szko\u0142a Podstawowa w Rusocicach",
                "name": "Szko\u0142a Podstawowa w Rusocicach",
                "addr:postcode": "32-071",
                "addr:city": "Rusocice",
                "addr:street": "Krakowska",
                "addr:housenumber": "100",
                "addr:city:simc": 316111,
                "addr:street:sym_ul": 9796,
                "phone": "+48 122803057",
                "email": "szkola.rusocice@poczta.fm",
                "website": "http:\/\/www.szkolarusocice.czernichow.pl",
                "ref:regon": "000699030",
                "operator": "Gmina Czernich\u00f3w",
                "operator:type": "government",
                "amenity": "school",
                "note": "Parent RSPO: 277877"
            }
        },
        {
            "id": 277880,
            "type": "Feature",
            "geometry": {
                "type": "Point",
                "coordinates": [
                    19.60694,
                    49.994130000000006
                ]
            },
            "properties": {
                "ref:rspo": 277880,
                "official_name": "Samorz\u0105dowe Przedszkole w Rusocicach",
                "name": "Samorz\u0105dowe Przedszkole w Rusocicach",
                "addr:postcode": "32-071",
                "addr:city": "Rusocice",
                "addr:street": "Krakowska",
                "addr:housenumber": "100",
                "addr:city:simc": 316111,
                "addr:street:sym_ul": 9796,
                "phone": "+48 122803057",
                "ref:regon": "389617118",
                "operator": "Gmina Czernich\u00f3w",
                "operator:type": "government",
                "amenity": "kindergarten",
                "note": "Parent RSPO: 277877"
            }
        },
        {
            "id": 114211,
            "type": "Feature",
            "geometry": {
                "type": "Point",
                "coordinates": [
                    19.7309576,
                    49.9942047
                ]
            },
            "properties": {
                "isced:level": "1;2",
                "ref:rspo": 114211,
                "official_name": "Szko\u0142a Podstawowa im. Jana Paw\u0142a II w Wo\u0142owicach",
                "name": "Szko\u0142a Podstawowa",
                "addr:postcode": "32-070",
                "addr:place": "Wo\u0142owice",
                "addr:housenumber": "10",
                "addr:city:simc": 316281,
                "phone": "+48 122802206",
                "email": "wolowicesp@wp.pl",
                "website": "http:\/\/www.spwolowice.pl",
                "ref:regon": "000699000",
                "operator": "Gmina Czernich\u00f3w",
                "operator:type": "government",
                "amenity": "school"
            }
        },
        {
            "id": 277876,
            "type": "Feature",
            "geometry": {
                "type": "Point",
                "coordinates": [
                    19.58646,
                    50.01475
                ]
            },
            "properties": {
                "ref:rspo": 277876,
                "official_name": "Samorz\u0105dowe Przedszkole w Kamieniu",
                "name": "Samorz\u0105dowe Przedszkole w Kamieniu",
                "addr:postcode": "32-071",
                "addr:city": "Kamie\u0144",
                "addr:street": "Piaski",
                "addr:housenumber": "2",
                "addr:city:simc": 315761,
                "addr:street:sym_ul": 16027,
                "phone": "+48 122803005",
                "ref:regon": "389616627",
                "operator": "Gmina Czernich\u00f3w",
                "operator:type": "government",
                "amenity": "kindergarten",
                "note": "Parent RSPO: 277874"
            }
        },
        {
            "id": 277874,
            "type": "Feature",
            "geometry": {
                "type": "Point",
                "coordinates": [
                    19.5867,
                    50.01639
                ]
            },
            "properties": {
                "ref:rspo": 277874,
                "official_name": "Zesp\u00f3\u0142 Szkolno-Przedszkolny w Kamieniu",
                "name": "Zesp\u00f3\u0142 Szkolno-Przedszkolny w Kamieniu",
                "addr:postcode": "32-071",
                "addr:city": "Kamie\u0144",
                "addr:street": "Piaski",
                "addr:housenumber": "2A",
                "addr:city:simc": 315761,
                "addr:street:sym_ul": 16027,
                "phone": "+48 122803005",
                "ref:regon": "389616449",
                "ref:vatin": "PL9442272823",
                "operator": "Gmina Czernich\u00f3w",
                "operator:type": "government",
                "landuse": "education",
                "fixme": "amenity=school, amenity=college albo landuse=education w zale\u017cno\u015bci od tego, jakie plac\u00f3wki wchodz\u0105 w sk\u0142ad zespo\u0142u. Sprawd\u017a, kiedy stosowa\u0107 amenity=* a kiedy landuse=education.",
                "note": "Children RSPO: 115008;277876"
            }
        },
        {
            "id": 115008,
            "type": "Feature",
            "geometry": {
                "type": "Point",
                "coordinates": [
                    19.5867,
                    50.01636
                ]
            },
            "properties": {
                "isced:level": "1;2",
                "ref:rspo": 115008,
                "official_name": "Szko\u0142a Podstawowa im. Ks.stanis\u0142awa S\u0142otwi\u0144skiego w Kamieniu",
                "name": "Szko\u0142a Podstawowa",
                "addr:postcode": "32-071",
                "addr:city": "Kamie\u0144",
                "addr:street": "Piaski",
                "addr:housenumber": "2A",
                "addr:city:simc": 315761,
                "addr:street:sym_ul": 16027,
                "phone": "+48 122803005",
                "email": "kontakt@szkolakamien.pl",
                "website": "http:\/\/www.szkolakamien.pl",
                "ref:regon": "000699023",
                "operator": "Gmina Czernich\u00f3w",
                "operator:type": "government",
                "amenity": "school",
                "note": "Parent RSPO: 277874"
            }
        },
        {
            "id": 262536,
            "type": "Feature",
            "geometry": {
                "type": "Point",
                "coordinates": [
                    19.63553,
                    50.03179
                ]
            },
            "properties": {
                "ref:rspo": 262536,
                "official_name": "Zesp\u00f3\u0142 Szkolno-Przedszkolny z Oddzia\u0142ami Integracyjnymi w Przegini Duchownej",
                "name": "Zesp\u00f3\u0142 Szkolno-Przedszkolny z Oddzia\u0142ami Integracyjnymi w Przegini Duchownej",
                "addr:postcode": "32-061",
                "addr:city": "Przeginia Duchowna",
                "addr:street": "Kajas\u00f3wka",
                "addr:housenumber": "22",
                "addr:city:simc": 315991,
                "addr:street:sym_ul": 57319,
                "phone": "+48 122702410",
                "email": "przedszkoleintegracyjne@czernichow.pl",
                "website": "http:\/\/www.spprzeginiaduchowna.pl",
                "ref:regon": "368030591",
                "operator": "Gmina Czernich\u00f3w",
                "operator:type": "government",
                "landuse": "education",
                "fixme": "amenity=school, amenity=college albo landuse=education w zale\u017cno\u015bci od tego, jakie plac\u00f3wki wchodz\u0105 w sk\u0142ad zespo\u0142u. Sprawd\u017a, kiedy stosowa\u0107 amenity=* a kiedy landuse=education.",
                "note": "Children RSPO: 106910;107057"
            }
        },
        {
            "id": 106910,
            "type": "Feature",
            "geometry": {
                "type": "Point",
                "coordinates": [
                    19.63553,
                    50.03176
                ]
            },
            "properties": {
                "ref:rspo": 106910,
                "official_name": "Przedszkole z Oddzia\u0142ami Integracyjnymi w Przegini Duchownej",
                "name": "Przedszkole z Oddzia\u0142ami Integracyjnymi w Przegini Duchownej",
                "addr:postcode": "32-061",
                "addr:city": "Przeginia Duchowna",
                "addr:street": "Kajas\u00f3wka",
                "addr:housenumber": "22",
                "addr:city:simc": 315991,
                "addr:street:sym_ul": 57319,
                "phone": "+48 122702410",
                "email": "przedszkoleintegracyjne@czernichow.pl",
                "website": "http:\/\/spprzeginiaduchowna.pl",
                "ref:regon": "121272147",
                "ref:vatin": "PL9442221300",
                "operator": "Gmina Czernich\u00f3w",
                "operator:type": "government",
                "amenity": "kindergarten",
                "note": "Parent RSPO: 262536"
            }
        },
        {
            "id": 107057,
            "type": "Feature",
            "geometry": {
                "type": "Point",
                "coordinates": [
                    19.63553,
                    50.03173
                ]
            },
            "properties": {
                "isced:level": "1;2",
                "ref:rspo": 107057,
                "official_name": "Szko\u0142a Podstawowa z Oddzia\u0142ami Integracyjnymi im. Ksi\u0119cia J\u00f3zefa Poniatowskiego w Przegini Duchownej",
                "name": "Szko\u0142a Podstawowa z Oddzia\u0142ami Integracyjnymi",
                "addr:postcode": "32-061",
                "addr:city": "Przeginia Duchowna",
                "addr:street": "Kajas\u00f3wka",
                "addr:housenumber": "22",
                "addr:city:simc": 315991,
                "addr:street:sym_ul": 57319,
                "phone": "+48 122702410",
                "email": "przedszkoleintegracyjne@czernichow.pl",
                "ref:regon": "000879989",
                "ref:vatin": "PL9442158234",
                "operator": "Gmina Czernich\u00f3w",
                "operator:type": "government",
                "amenity": "school",
                "note": "Parent RSPO: 262536"
            }
        },
        {
            "id": 107051,
            "type": "Feature",
            "geometry": {
                "type": "Point",
                "coordinates": [
                    19.71062,
                    50.03288
                ]
            },
            "properties": {
                "isced:level": "1;2",
                "ref:rspo": 107051,
                "official_name": "Szko\u0142a Podstawowa im. \u015aw. Stanis\u0142awa Kostki w Nowej Wsi Szlacheckiej",
                "name": "Szko\u0142a Podstawowa",
                "addr:postcode": "32-060",
                "addr:city": "Nowa Wie\u015b Szlachecka",
                "addr:street": "Szkolna",
                "addr:housenumber": "2",
                "addr:city:simc": 315979,
                "addr:street:sym_ul": 21970,
                "phone": "+48 122702581",
                "email": "spszlachecka@interia.pl",
                "website": "http:\/\/spszlachecka.pl",
                "ref:regon": "000699046",
                "ref:vatin": "PL9442158228",
                "operator": "Gmina Czernich\u00f3w",
                "operator:type": "government",
                "amenity": "school"
            }
        },
        {
            "id": 126045,
            "type": "Feature",
            "geometry": {
                "type": "Point",
                "coordinates": [
                    19.64551,
                    50.04505
                ]
            },
            "properties": {
                "ref:rspo": 126045,
                "official_name": "Przedszkole Niepubliczne Kraina U\u015bmiechu w Rybnej",
                "name": "Przedszkole Niepubliczne Kraina U\u015bmiechu w Rybnej",
                "addr:postcode": "32-061",
                "addr:city": "Rybna",
                "addr:street": "Lawendowa",
                "addr:housenumber": "2",
                "addr:city:simc": 316217,
                "addr:street:sym_ul": 10718,
                "email": "dyrektor@krainausmiechu",
                "website": "http:\/\/www.krainausmiechu.pl",
                "ref:regon": "360145946",
                "ref:vatin": "PL6781167062",
                "operator": "Ma\u0142gorzata Stastny",
                "operator:type": "private",
                "amenity": "kindergarten"
            }
        },
        {
            "id": 114313,
            "type": "Feature",
            "geometry": {
                "type": "Point",
                "coordinates": [
                    19.64889,
                    50.04953
                ]
            },
            "properties": {
                "isced:level": "1;2",
                "ref:rspo": 114313,
                "official_name": "Szko\u0142a Podstawowa im. Kr\u00f3lowej Jadwigi",
                "name": "Szko\u0142a Podstawowa",
                "addr:postcode": "32-061",
                "addr:city": "Rybna",
                "addr:street": "Szkolna",
                "addr:housenumber": "4",
                "addr:city:simc": 316217,
                "addr:street:sym_ul": 21970,
                "phone": "+48 122804005",
                "email": "mojaszkola@wp.pl",
                "website": "http:\/\/www.szkolarybna.czernichow.pl",
                "ref:regon": "000698992",
                "operator": "Gmina Czernich\u00f3w",
                "operator:type": "government",
                "amenity": "school"
            }
        },
        {
            "id": 106740,
            "type": "Feature",
            "geometry": {
                "type": "Point",
                "coordinates": [
                    19.64721,
                    50.05303
                ]
            },
            "properties": {
                "ref:rspo": 106740,
                "official_name": "Niepubliczne Przedszkole \"Opieku\u0144cze Misie\"",
                "name": "Niepubliczne Przedszkole \"Opieku\u0144cze Misie\"",
                "addr:postcode": "32-061",
                "addr:city": "Rybna",
                "addr:street": "Dolna",
                "addr:housenumber": "42",
                "addr:city:simc": 316217,
                "addr:street:sym_ul": 4034,
                "phone": "+48 122561025",
                "email": "opiekuncze.misie@interia.pl",
                "website": "http:\/\/opiekunczemisie.pl",
                "ref:regon": "122758610",
                "ref:vatin": "PL9441770660",
                "operator": "Ma\u0142gorzata Mi\u015b-Juszczyk",
                "operator:type": "private",
                "amenity": "kindergarten"
            }
        },
        {
            "id": 127551,
            "type": "Feature",
            "geometry": {
                "type": "Point",
                "coordinates": [
                    19.65538,
                    50.05956
                ]
            },
            "properties": {
                "ref:rspo": 127551,
                "official_name": "Niepubliczne Przedszkole J\u0119zykowe Akademia Ma\u0142ych Tygrysk\u00f3w",
                "name": "Niepubliczne Przedszkole J\u0119zykowe Akademia Ma\u0142ych Tygrysk\u00f3w",
                "addr:postcode": "32-061",
                "addr:city": "Rybna",
                "addr:street": "Nowy \u015awiat",
                "addr:housenumber": "3",
                "addr:city:simc": 316217,
                "addr:street:sym_ul": 14535,
                "phone": "+48 603452426",
                "email": "rybna@maletygryski.pl",
                "website": "http:\/\/www.maletygryski.pl",
                "ref:regon": "361667842",
                "ref:vatin": "PL6782835488",
                "operator": "Kinga Grzybowska",
                "operator:type": "private",
                "amenity": "kindergarten"
            }
        }
    ]
}