{
    "type": "FeatureCollection",
    "features": [
        {
            "id": 114631,
            "type": "Feature",
            "geometry": {
                "type": "Point",
                "coordinates": [
                    20.018189,
                    50.0214492
                ]
            },
            "properties": {
                "ref:rspo": 114631,
                "official_name": "Szkolne Schronisko M\u0142odzie\u017cowe w Skale -Filia w \u0141azach",
                "name": "Szkolne Schronisko M\u0142odzie\u017cowe w Skale -Filia w \u0141azach",
                "addr:postcode": "32-048",
                "addr:place": "\u0141azy",
                "addr:housenumber": "37",
                "addr:teryt:simc": 321170,
                "phone": "+48 123895208",
                "email": "schronisko@ceti.pl",
                "website": "http:\/\/www.schroniskolazy.pl",
                "ref:regon": "120295838",
                "operator": "Powiat Krakowski",
                "operator:type": "government",
                "tourism": "hostel",
                "note": "Parent RSPO: 59969"
            }
        },
        {
            "id": 48858,
            "type": "Feature",
            "geometry": {
                "type": "Point",
                "coordinates": [
                    19.673551,
                    50.204754
                ]
            },
            "properties": {
                "isced:level": "1;2",
                "ref:rspo": 48858,
                "official_name": "Szko\u0142a Podstawowa im. Marii Konopnickiej w Rac\u0142awicach",
                "name": "Szko\u0142a Podstawowa",
                "addr:postcode": "32-049",
                "addr:place": "Rac\u0142awice",
                "addr:housenumber": "329",
                "addr:teryt:simc": 321342,
                "phone": "+48 122586050",
                "email": "spraclawice@spraclawice.com.pl",
                "website": "http:\/\/www.spraclawice.edupage.org",
                "ref:regon": "001234941",
                "operator": "Gmina Jerzmanowice-Przeginia",
                "operator:type": "government",
                "amenity": "school"
            }
        },
        {
            "id": 48699,
            "type": "Feature",
            "geometry": {
                "type": "Point",
                "coordinates": [
                    19.72444,
                    50.20758
                ]
            },
            "properties": {
                "ref:rspo": 48699,
                "official_name": "Zesp\u00f3\u0142 Szk\u00f3\u0142 w Jerzmanowicach",
                "name": "Zesp\u00f3\u0142 Szk\u00f3\u0142 w Jerzmanowicach",
                "addr:postcode": "32-048",
                "addr:city": "Jerzmanowice",
                "addr:street": "Szkolna",
                "addr:housenumber": "2",
                "addr:teryt:simc": 321069,
                "addr:teryt:sym_ul": 21970,
                "phone": "+48 123890960",
                "email": "zs@szkolajerzmanowice.pl",
                "website": "http:\/\/www.szkolajerzmanowice.pl",
                "ref:regon": "120750053",
                "operator": "Gmina Jerzmanowice-Przeginia",
                "operator:type": "government",
                "landuse": "education",
                "fixme": "amenity=school, amenity=college albo landuse=education w zale\u017cno\u015bci od tego, jakie plac\u00f3wki wchodz\u0105 w sk\u0142ad zespo\u0142u. Sprawd\u017a, kiedy stosowa\u0107 amenity=* a kiedy landuse=education.",
                "note": "Children RSPO: 119436;119439"
            }
        },
        {
            "id": 119436,
            "type": "Feature",
            "geometry": {
                "type": "Point",
                "coordinates": [
                    19.72444,
                    50.20755
                ]
            },
            "properties": {
                "isced:level": "1;2",
                "ref:rspo": 119436,
                "official_name": "Szko\u0142a Podstawowa im. \u015aw.kr\u00f3lowej Jadwigi",
                "name": "Szko\u0142a Podstawowa",
                "addr:postcode": "32-048",
                "addr:city": "Jerzmanowice",
                "addr:street": "Szkolna",
                "addr:housenumber": "2",
                "addr:teryt:simc": 321069,
                "addr:teryt:sym_ul": 21970,
                "phone": "+48 123890960",
                "email": "zs@szkolajerzmanowice.pl",
                "website": "http:\/\/www.szkolajerzmanowice.pl",
                "ref:regon": "000703575",
                "ref:vatin": "PL9442013659",
                "operator": "Gmina Jerzmanowice-Przeginia",
                "operator:type": "government",
                "amenity": "school",
                "note": "Children RSPO: 271623Parent RSPO: 48699"
            }
        },
        {
            "id": 119439,
            "type": "Feature",
            "geometry": {
                "type": "Point",
                "coordinates": [
                    19.72444,
                    50.20752
                ]
            },
            "properties": {
                "ref:rspo": 119439,
                "official_name": "Przedszkole Samorz\u0105dowe w Jerzmanowicach",
                "name": "Przedszkole Samorz\u0105dowe w Jerzmanowicach",
                "addr:postcode": "32-048",
                "addr:city": "Jerzmanowice",
                "addr:street": "Szkolna",
                "addr:housenumber": "2",
                "addr:teryt:simc": 321069,
                "addr:teryt:sym_ul": 21970,
                "phone": "+48 123890960",
                "email": "zs@szkolajerzmanowice.pl",
                "website": "http:\/\/szkolajerzmanowice.pl",
                "ref:regon": "357218857",
                "ref:vatin": "PL9442006027",
                "operator": "Gmina Jerzmanowice-Przeginia",
                "operator:type": "government",
                "amenity": "kindergarten",
                "note": "Parent RSPO: 48699"
            }
        },
        {
            "id": 271621,
            "type": "Feature",
            "geometry": {
                "type": "Point",
                "coordinates": [
                    19.616698,
                    50.2080399
                ]
            },
            "properties": {
                "ref:rspo": 271621,
                "official_name": "Zesp\u00f3\u0142 Szkolno - Przedszkolny w Czubrowicach",
                "name": "Zesp\u00f3\u0142 Szkolno - Przedszkolny w Czubrowicach",
                "addr:postcode": "32-049",
                "addr:place": "Czubrowice",
                "addr:housenumber": "85",
                "addr:teryt:simc": 320986,
                "phone": "+48 123898045",
                "email": "spczubrowice@spczubrowice.edu.pl",
                "website": "https:\/\/spczubrowice.edupage.org",
                "ref:regon": "383457381",
                "operator": "Gmina Jerzmanowice-Przeginia",
                "operator:type": "government",
                "landuse": "education",
                "fixme": "amenity=school, amenity=college albo landuse=education w zale\u017cno\u015bci od tego, jakie plac\u00f3wki wchodz\u0105 w sk\u0142ad zespo\u0142u. Sprawd\u017a, kiedy stosowa\u0107 amenity=* a kiedy landuse=education.",
                "note": "Children RSPO: 271616;271620"
            }
        },
        {
            "id": 271616,
            "type": "Feature",
            "geometry": {
                "type": "Point",
                "coordinates": [
                    19.616698,
                    50.2080099
                ]
            },
            "properties": {
                "isced:level": "1;2",
                "ref:rspo": 271616,
                "official_name": "Szko\u0142a Podstawowa w Czubrowicach",
                "name": "Szko\u0142a Podstawowa w Czubrowicach",
                "addr:postcode": "32-049",
                "addr:place": "Czubrowice",
                "addr:housenumber": "85",
                "addr:teryt:simc": 320986,
                "phone": "+48 123898045",
                "email": "spczubrowice@op.pl",
                "website": "https:\/\/spczubrowice.edupage.org\/",
                "ref:regon": "383452165",
                "operator": "Gmina Jerzmanowice-Przeginia",
                "operator:type": "government",
                "amenity": "school",
                "note": "Parent RSPO: 271621"
            }
        },
        {
            "id": 271620,
            "type": "Feature",
            "geometry": {
                "type": "Point",
                "coordinates": [
                    19.616698,
                    50.207979900000005
                ]
            },
            "properties": {
                "ref:rspo": 271620,
                "official_name": "Przedszkole Publiczne w Czubrowicach",
                "name": "Przedszkole Publiczne w Czubrowicach",
                "addr:postcode": "32-049",
                "addr:place": "Czubrowice",
                "addr:housenumber": "85",
                "addr:teryt:simc": 320986,
                "phone": "+48 123898045",
                "email": "spczubrowice@op.pl",
                "ref:regon": "383457375",
                "operator": "Gmina Jerzmanowice-Przeginia",
                "operator:type": "government",
                "amenity": "kindergarten",
                "note": "Parent RSPO: 271621"
            }
        },
        {
            "id": 49759,
            "type": "Feature",
            "geometry": {
                "type": "Point",
                "coordinates": [
                    19.75678062439,
                    50.218181610107
                ]
            },
            "properties": {
                "ref:rspo": 49759,
                "official_name": "Domowe Przedszkole Niepubliczne",
                "name": "Domowe Przedszkole Niepubliczne",
                "addr:postcode": "32-048",
                "addr:city": "Jerzmanowice",
                "addr:street": "Centralna",
                "addr:housenumber": "80",
                "addr:teryt:simc": 321069,
                "addr:teryt:sym_ul": 2614,
                "email": "niedziolka@op.pl",
                "ref:regon": "122689240",
                "operator": "Renata Niedzi\u00f3\u0142ka",
                "operator:type": "private",
                "amenity": "kindergarten"
            }
        },
        {
            "id": 113893,
            "type": "Feature",
            "geometry": {
                "type": "Point",
                "coordinates": [
                    19.75678062439,
                    50.218151610107
                ]
            },
            "properties": {
                "ref:rspo": 113893,
                "official_name": "Przedszkole Niepubliczne \"Skrzat\"",
                "name": "Przedszkole Niepubliczne \"Skrzat\"",
                "addr:postcode": "32-048",
                "addr:city": "Jerzmanowice",
                "addr:street": "Centralna",
                "addr:housenumber": "52",
                "addr:teryt:simc": 321069,
                "addr:teryt:sym_ul": 2614,
                "phone": "+48 734835315",
                "email": "wkoruba@gmail.com",
                "ref:regon": "122832298",
                "operator": "Wanda Koruba",
                "operator:type": "private",
                "amenity": "kindergarten"
            }
        },
        {
            "id": 131925,
            "type": "Feature",
            "geometry": {
                "type": "Point",
                "coordinates": [
                    19.75678062439,
                    50.218121610107005
                ]
            },
            "properties": {
                "ref:rspo": 131925,
                "official_name": "Prywatne Przedszkole I \u017b\u0142obek Mali Odkrywcy Sp. Z O.o.",
                "name": "Prywatne Przedszkole I \u017b\u0142obek Mali Odkrywcy Sp. Z O.o.",
                "addr:postcode": "32-048",
                "addr:city": "Jerzmanowice",
                "addr:street": "Ojcowska",
                "addr:housenumber": "9",
                "addr:teryt:simc": 321069,
                "addr:teryt:sym_ul": 14862,
                "phone": "+48 606253153",
                "email": "ppmaliodkrywcy@interia.pl",
                "ref:regon": "365379666",
                "operator": "Anna Mrozowska",
                "operator:type": "private",
                "amenity": "kindergarten"
            }
        },
        {
            "id": 271623,
            "type": "Feature",
            "geometry": {
                "type": "Point",
                "coordinates": [
                    19.7342884,
                    50.2258458
                ]
            },
            "properties": {
                "isced:level": "1;2",
                "ref:rspo": 271623,
                "official_name": "Szko\u0142a Filialna Szko\u0142y Podstawowej im. \u015aw. Kr\u00f3lowej Jadwigi w Jerzmanowicach",
                "name": "Szko\u0142a Filialna Szko\u0142y Podstawowej",
                "addr:postcode": "32-048",
                "addr:place": "Gotkowice",
                "addr:housenumber": "56",
                "addr:teryt:simc": 321030,
                "phone": "+48 123890960",
                "email": "zs@szkolajerzmanowice.pl",
                "website": "http:\/\/www.szkolajerzmanowice.pl",
                "ref:regon": "703575000",
                "operator": "Gmina Jerzmanowice-Przeginia",
                "operator:type": "government",
                "amenity": "school",
                "note": "Parent RSPO: 119436"
            }
        },
        {
            "id": 272380,
            "type": "Feature",
            "geometry": {
                "type": "Point",
                "coordinates": [
                    19.7677127,
                    50.227576
                ]
            },
            "properties": {
                "ref:rspo": 272380,
                "official_name": "Zesp\u00f3\u0142 Szkolno - Przedszkolny w S\u0105spowie",
                "name": "Zesp\u00f3\u0142 Szkolno - Przedszkolny w S\u0105spowie",
                "addr:postcode": "32-048",
                "addr:place": "S\u0105sp\u00f3w",
                "addr:housenumber": "32",
                "addr:teryt:simc": 321419,
                "phone": "+48 123895025",
                "email": "sekretariat@sps.jerzmanowice-przeginia.pl",
                "website": "http:\/\/zspsaspow.pl",
                "ref:regon": "384156144",
                "operator": "Gmina Jerzmanowice-Przeginia",
                "operator:type": "government",
                "landuse": "education",
                "fixme": "amenity=school, amenity=college albo landuse=education w zale\u017cno\u015bci od tego, jakie plac\u00f3wki wchodz\u0105 w sk\u0142ad zespo\u0142u. Sprawd\u017a, kiedy stosowa\u0107 amenity=* a kiedy landuse=education.",
                "note": "Children RSPO: 271631;271632"
            }
        },
        {
            "id": 271631,
            "type": "Feature",
            "geometry": {
                "type": "Point",
                "coordinates": [
                    19.7677127,
                    50.227546
                ]
            },
            "properties": {
                "isced:level": "1;2",
                "ref:rspo": 271631,
                "official_name": "Szko\u0142a Podstawowa w S\u0105spowie",
                "name": "Szko\u0142a Podstawowa w S\u0105spowie",
                "addr:postcode": "32-048",
                "addr:place": "S\u0105sp\u00f3w",
                "addr:housenumber": "32",
                "addr:teryt:simc": 321419,
                "phone": "+48 123895025",
                "email": "sekretariat@sps.jerzmanowice-przeginia.pl",
                "ref:regon": "383458038",
                "operator": "Gmina Jerzmanowice-Przeginia",
                "operator:type": "government",
                "amenity": "school",
                "note": "Parent RSPO: 272380"
            }
        },
        {
            "id": 271632,
            "type": "Feature",
            "geometry": {
                "type": "Point",
                "coordinates": [
                    19.7677127,
                    50.227516
                ]
            },
            "properties": {
                "ref:rspo": 271632,
                "official_name": "Publiczne Przedszkole w S\u0105spowie",
                "name": "Publiczne Przedszkole w S\u0105spowie",
                "addr:postcode": "32-048",
                "addr:place": "S\u0105sp\u00f3w",
                "addr:housenumber": "32",
                "addr:teryt:simc": 321419,
                "phone": "+48 123895025",
                "email": "sekretariat@sps.jerzmanowice-przeginia.pl",
                "website": "http:\/\/zspsaspow.pl",
                "ref:regon": "383457949",
                "operator": "Gmina Jerzmanowice-Przeginia",
                "operator:type": "government",
                "amenity": "kindergarten",
                "note": "Parent RSPO: 272380"
            }
        },
        {
            "id": 48735,
            "type": "Feature",
            "geometry": {
                "type": "Point",
                "coordinates": [
                    19.689304,
                    50.2359699
                ]
            },
            "properties": {
                "ref:rspo": 48735,
                "official_name": "Zesp\u00f3\u0142 Szk\u00f3\u0142 w Przegini",
                "name": "Zesp\u00f3\u0142 Szk\u00f3\u0142 w Przegini",
                "addr:postcode": "32-049",
                "addr:place": "Przeginia",
                "addr:housenumber": "403",
                "addr:teryt:simc": 321247,
                "phone": "+48 123898014",
                "email": "szkola@zsprzeginia.pl",
                "ref:regon": "120750283",
                "operator": "Gmina Jerzmanowice-Przeginia",
                "operator:type": "government",
                "landuse": "education",
                "fixme": "amenity=school, amenity=college albo landuse=education w zale\u017cno\u015bci od tego, jakie plac\u00f3wki wchodz\u0105 w sk\u0142ad zespo\u0142u. Sprawd\u017a, kiedy stosowa\u0107 amenity=* a kiedy landuse=education.",
                "note": "Children RSPO: 119479;119487"
            }
        },
        {
            "id": 119479,
            "type": "Feature",
            "geometry": {
                "type": "Point",
                "coordinates": [
                    19.689304,
                    50.2359399
                ]
            },
            "properties": {
                "isced:level": "1;2",
                "ref:rspo": 119479,
                "official_name": "Szko\u0142a Podstawowa im. Kr\u00f3la Jana III Sobieskiego w Przegini",
                "name": "Szko\u0142a Podstawowa",
                "addr:postcode": "32-049",
                "addr:place": "Przeginia",
                "addr:housenumber": "403",
                "addr:teryt:simc": 321247,
                "phone": "+48 123898014",
                "email": "szkola@zsprzeginia.pl",
                "website": "http:\/\/www.sp.zsprzeginia.pl",
                "ref:regon": "001234987",
                "ref:vatin": "PL5130013653",
                "operator": "Gmina Jerzmanowice-Przeginia",
                "operator:type": "government",
                "amenity": "school",
                "note": "Parent RSPO: 48735"
            }
        },
        {
            "id": 119487,
            "type": "Feature",
            "geometry": {
                "type": "Point",
                "coordinates": [
                    19.689304,
                    50.2359099
                ]
            },
            "properties": {
                "ref:rspo": 119487,
                "official_name": "Przedszkole Samorz\u0105dowe w Przegini",
                "name": "Przedszkole Samorz\u0105dowe w Przegini",
                "addr:postcode": "32-049",
                "addr:place": "Przeginia",
                "addr:housenumber": "403",
                "addr:teryt:simc": 321247,
                "phone": "+48 123898014",
                "email": "przedszkole@zsprzeginia.pl",
                "ref:regon": "350018569",
                "ref:vatin": "PL5130013653",
                "operator": "Gmina Jerzmanowice-Przeginia",
                "operator:type": "government",
                "amenity": "kindergarten",
                "note": "Parent RSPO: 48735"
            }
        }
    ]
}