{
    "type": "FeatureCollection",
    "features": [
        {
            "id": 70582,
            "type": "Feature",
            "geometry": {
                "type": "Point",
                "coordinates": [
                    19.78159,
                    49.90675
                ]
            },
            "properties": {
                "ref:rspo": 70582,
                "official_name": "Zesp\u00f3\u0142 Plac\u00f3wek O\u015bwiatowych w Woli Radziszowskiej 32-053 Wola Radziszowska",
                "name": "Zesp\u00f3\u0142 Plac\u00f3wek O\u015bwiatowych w Woli Radziszowskiej 32-053 Wola Radziszowska",
                "addr:postcode": "32-053",
                "addr:city": "Wola Radziszowska",
                "addr:street": "Szkolna",
                "addr:housenumber": "10",
                "addr:city:simc": 335628,
                "addr:street:sym_ul": 21970,
                "phone": "+48 122754232",
                "email": "sekretariat@wr.edu.pl",
                "ref:regon": "001043939",
                "ref:vatin": "PL9442013375",
                "operator": "Gmina Skawina",
                "operator:type": "government",
                "landuse": "education",
                "fixme": "amenity=school, amenity=college albo landuse=education w zale\u017cno\u015bci od tego, jakie plac\u00f3wki wchodz\u0105 w sk\u0142ad zespo\u0142u. Sprawd\u017a, kiedy stosowa\u0107 amenity=* a kiedy landuse=education.",
                "note": "Children RSPO: 122174;122175"
            }
        },
        {
            "id": 122174,
            "type": "Feature",
            "geometry": {
                "type": "Point",
                "coordinates": [
                    19.78159,
                    49.90672
                ]
            },
            "properties": {
                "isced:level": "1;2",
                "ref:rspo": 122174,
                "official_name": "Szko\u0142a Podstawowa w Woli Radziszowskiej 32-053 Wola Radziszowska 500",
                "name": "Szko\u0142a Podstawowa w Woli Radziszowskiej 32-053 Wola Radziszowska 500",
                "addr:postcode": "32-053",
                "addr:city": "Wola Radziszowska",
                "addr:street": "Szkolna",
                "addr:housenumber": "10",
                "addr:city:simc": 335628,
                "addr:street:sym_ul": 21970,
                "phone": "+48 122754232",
                "email": "sekretariat@wr.edu.pl",
                "ref:regon": "356278047",
                "ref:vatin": "PL9442013375",
                "operator": "Gmina Skawina",
                "operator:type": "government",
                "amenity": "school",
                "note": "Parent RSPO: 70582"
            }
        },
        {
            "id": 130257,
            "type": "Feature",
            "geometry": {
                "type": "Point",
                "coordinates": [
                    19.82719,
                    49.90913
                ]
            },
            "properties": {
                "ref:rspo": 130257,
                "official_name": "Niepubliczne Przedszkole Pod Lasem",
                "name": "Niepubliczne Przedszkole Pod Lasem",
                "addr:postcode": "32-052",
                "addr:city": "Radzisz\u00f3w",
                "addr:street": "Podlesie",
                "addr:housenumber": "188",
                "addr:city:simc": 335396,
                "addr:street:sym_ul": 16795,
                "phone": "+48 733399805",
                "email": "biuro@przedszkolepodlasem.pl",
                "website": "http:\/\/www.przedszkolepodlasem.pl",
                "ref:regon": "363725822",
                "operator": "Dawid Jamr\u00f3z",
                "operator:type": "private",
                "amenity": "kindergarten"
            }
        },
        {
            "id": 20776,
            "type": "Feature",
            "geometry": {
                "type": "Point",
                "coordinates": [
                    19.82253,
                    49.91133
                ]
            },
            "properties": {
                "ref:rspo": 20776,
                "official_name": "Zesp\u00f3\u0142 Plac\u00f3wek O\u015bwiatowych im. Ks. Prof. J. Tischnera Przy Ma\u0142opolskim Centrum Rehabilitacji Dzieci \"Solidarno\u015b\u0107\" w Radziszowie",
                "name": "Zesp\u00f3\u0142 Plac\u00f3wek O\u015bwiatowych",
                "addr:postcode": "32-050",
                "addr:city": "Radzisz\u00f3w",
                "addr:street": "Podlesie",
                "addr:housenumber": "173",
                "addr:city:simc": 335396,
                "addr:street:sym_ul": 16795,
                "phone": "+48 122751488",
                "email": "zpo@zpo-radziszow.org",
                "website": "http:\/\/www.zpo-radziszow.org",
                "ref:regon": "357190840",
                "ref:vatin": "PL9441934239",
                "operator": "Wojew\u00f3dztwo Ma\u0142opolskie",
                "operator:type": "government",
                "landuse": "education",
                "fixme": "amenity=school, amenity=college albo landuse=education w zale\u017cno\u015bci od tego, jakie plac\u00f3wki wchodz\u0105 w sk\u0142ad zespo\u0142u. Sprawd\u017a, kiedy stosowa\u0107 amenity=* a kiedy landuse=education.",
                "note": "Children RSPO: 24936;24937;263083"
            }
        },
        {
            "id": 24936,
            "type": "Feature",
            "geometry": {
                "type": "Point",
                "coordinates": [
                    19.82253,
                    49.9113
                ]
            },
            "properties": {
                "ref:rspo": 24936,
                "official_name": "Przedszkole Specjalne w Radziszowie",
                "name": "Przedszkole Specjalne w Radziszowie",
                "addr:postcode": "32-052",
                "addr:city": "Radzisz\u00f3w",
                "addr:street": "Podlesie",
                "addr:housenumber": "173",
                "addr:city:simc": 335396,
                "addr:street:sym_ul": 16795,
                "phone": "+48 122751488",
                "email": "zpo@zpo-radziszow.org",
                "website": "http:\/\/www.zpo-radziszow.org",
                "ref:regon": "356847189",
                "operator": "Wojew\u00f3dztwo Ma\u0142opolskie",
                "operator:type": "government",
                "amenity": "kindergarten",
                "note": "Parent RSPO: 20776"
            }
        },
        {
            "id": 24937,
            "type": "Feature",
            "geometry": {
                "type": "Point",
                "coordinates": [
                    19.82253,
                    49.91127
                ]
            },
            "properties": {
                "isced:level": "1;2",
                "ref:rspo": 24937,
                "official_name": "Szko\u0142a Podstawowa Specjalna w Radziszowie",
                "name": "Szko\u0142a Podstawowa Specjalna w Radziszowie",
                "addr:postcode": "32-052",
                "addr:city": "Radzisz\u00f3w",
                "addr:street": "Podlesie",
                "addr:housenumber": "173",
                "addr:city:simc": 335396,
                "addr:street:sym_ul": 16795,
                "phone": "+48 122751488",
                "email": "zpo@zpo-radziszow.org",
                "website": "http:\/\/www.zpo-radziszow.org",
                "ref:regon": "000707395",
                "operator": "Wojew\u00f3dztwo Ma\u0142opolskie",
                "operator:type": "government",
                "amenity": "school",
                "note": "Parent RSPO: 20776"
            }
        },
        {
            "id": 263083,
            "type": "Feature",
            "geometry": {
                "type": "Point",
                "coordinates": [
                    19.82253,
                    49.91124
                ]
            },
            "properties": {
                "isced:level": "3",
                "ref:rspo": 263083,
                "official_name": "Liceum Og\u00f3lnokszta\u0142c\u0105ce Specjalne w Radziszowie",
                "name": "Liceum Og\u00f3lnokszta\u0142c\u0105ce Specjalne w Radziszowie",
                "addr:postcode": "32-052",
                "addr:city": "Radzisz\u00f3w",
                "addr:street": "Podlesie",
                "addr:housenumber": "173",
                "addr:city:simc": 335396,
                "addr:street:sym_ul": 16795,
                "phone": "+48 122751488",
                "email": "zpo@zpo-radziszow.org",
                "website": "http:\/\/www.zpo-radziszow.org",
                "ref:regon": "368103025",
                "operator": "Wojew\u00f3dztwo Ma\u0142opolskie",
                "operator:type": "government",
                "amenity": "school",
                "note": "Parent RSPO: 20776"
            }
        },
        {
            "id": 119883,
            "type": "Feature",
            "geometry": {
                "type": "Point",
                "coordinates": [
                    19.7682805,
                    49.9329134
                ]
            },
            "properties": {
                "ref:rspo": 119883,
                "official_name": "Przedszkole Samorz\u0105dowe w Polance Hallera, 32-052 Polanka Hallera 37",
                "name": "Przedszkole Samorz\u0105dowe w Polance Hallera, 32-052 Polanka Hallera 37",
                "addr:postcode": "32-052",
                "addr:place": "Polanka Hallera",
                "addr:housenumber": "37",
                "addr:city:simc": 335278,
                "phone": "+48 122757191",
                "email": "spkrzecin@interia.pl",
                "ref:regon": "122943773",
                "operator": "Gmina Skawina",
                "operator:type": "government",
                "amenity": "kindergarten",
                "note": "Parent RSPO: 118790"
            }
        },
        {
            "id": 70627,
            "type": "Feature",
            "geometry": {
                "type": "Point",
                "coordinates": [
                    19.81351,
                    49.93853
                ]
            },
            "properties": {
                "ref:rspo": 70627,
                "official_name": "Przedszkole Samorz\u0105dowe 32-052 Radzisz\u00f3w Ul. Szkolna 9",
                "name": "Przedszkole Samorz\u0105dowe 32-052 Radzisz\u00f3w Ul. Szkolna 9",
                "addr:postcode": "32-052",
                "addr:city": "Radzisz\u00f3w",
                "addr:street": "Szkolna",
                "addr:housenumber": "9",
                "addr:city:simc": 335396,
                "addr:street:sym_ul": 21970,
                "phone": "+48 122751266",
                "email": "przedszkole_radziszow@wp.pl",
                "ref:regon": "350530333",
                "ref:vatin": "PL9442010425",
                "operator": "Gmina Skawina",
                "operator:type": "government",
                "amenity": "kindergarten"
            }
        },
        {
            "id": 109491,
            "type": "Feature",
            "geometry": {
                "type": "Point",
                "coordinates": [
                    19.8129199,
                    49.93874
                ]
            },
            "properties": {
                "isced:level": "1;2",
                "ref:rspo": 109491,
                "official_name": "Szko\u0142a Podstawowa im. \u015aw. Jana Paw\u0142a II w Radziszowie 32-052 Radzisz\u00f3w, Ul. Szkolna 7",
                "name": "Szko\u0142a Podstawowa",
                "addr:postcode": "32-052",
                "addr:city": "Radzisz\u00f3w",
                "addr:street": "Szkolna",
                "addr:housenumber": "7",
                "addr:city:simc": 335396,
                "addr:street:sym_ul": 21970,
                "phone": "+48 122751500",
                "email": "szkola@radziszow.edu.pl",
                "website": "http:\/\/www.radziszow.edu.pl",
                "ref:regon": "001043916",
                "ref:vatin": "PL9442166630",
                "operator": "Gmina Skawina",
                "operator:type": "government",
                "amenity": "school"
            }
        },
        {
            "id": 120692,
            "type": "Feature",
            "geometry": {
                "type": "Point",
                "coordinates": [
                    19.80941,
                    49.93887
                ]
            },
            "properties": {
                "ref:rspo": 120692,
                "official_name": "Niepubliczne Przedszkole \"T\u0119czowe Przedszkole\" 32-052 Radzisz\u00f3w, Ul. Jana Paw\u0142a II 12",
                "name": "Niepubliczne Przedszkole \"T\u0119czowe Przedszkole\" 32-052 Radzisz\u00f3w, Ul. Jana Paw\u0142a II 12",
                "addr:postcode": "32-052",
                "addr:city": "Radzisz\u00f3w",
                "addr:street": "Jana Paw\u0142a II",
                "addr:housenumber": "12",
                "addr:city:simc": 335396,
                "addr:street:sym_ul": 7123,
                "phone": "+48 510348985",
                "email": "wikulina.etc@gmail.com",
                "ref:regon": "122972622",
                "ref:vatin": "PL9442226131",
                "operator": "Katarzyna Dro\u017cd\u017c",
                "operator:type": "private",
                "amenity": "kindergarten"
            }
        },
        {
            "id": 118790,
            "type": "Feature",
            "geometry": {
                "type": "Point",
                "coordinates": [
                    19.74464,
                    49.94531
                ]
            },
            "properties": {
                "ref:rspo": 118790,
                "official_name": "Zesp\u00f3\u0142 Szkolno-Przedszkolny w Krz\u0119cinie 32-051 Krz\u0119cin, Ul. \u015aw. Floriana 75",
                "name": "Zesp\u00f3\u0142 Szkolno-Przedszkolny w Krz\u0119cinie 32-051 Krz\u0119cin, Ul. \u015aw. Floriana 75",
                "addr:postcode": "32-051",
                "addr:city": "Krz\u0119cin",
                "addr:street": "\u015awi\u0119tego Floriana",
                "addr:housenumber": "75",
                "addr:city:simc": 335166,
                "addr:street:sym_ul": 5083,
                "phone": "+48 122706029",
                "email": "spkrzecin@interia.pl",
                "ref:regon": "122921300",
                "operator": "Gmina Skawina",
                "operator:type": "government",
                "landuse": "education",
                "fixme": "amenity=school, amenity=college albo landuse=education w zale\u017cno\u015bci od tego, jakie plac\u00f3wki wchodz\u0105 w sk\u0142ad zespo\u0142u. Sprawd\u017a, kiedy stosowa\u0107 amenity=* a kiedy landuse=education.",
                "note": "Children RSPO: 84707;119883"
            }
        },
        {
            "id": 84707,
            "type": "Feature",
            "geometry": {
                "type": "Point",
                "coordinates": [
                    19.74464,
                    49.94528
                ]
            },
            "properties": {
                "isced:level": "1;2",
                "ref:rspo": 84707,
                "official_name": "Szko\u0142a Podstawowa im. Batalion\u00f3w Ch\u0142opskich w Krz\u0119cinie, 32-051 Krz\u0119cin, Ul. \u015aw. Floriana 75",
                "name": "Szko\u0142a Podstawowa",
                "addr:postcode": "32-051",
                "addr:city": "Krz\u0119cin",
                "addr:street": "\u015awi\u0119tego Floriana",
                "addr:housenumber": "75",
                "addr:city:simc": 335166,
                "addr:street:sym_ul": 5083,
                "phone": "+48 122706029",
                "email": "spkrzecin@interia.pl",
                "ref:regon": "001043922",
                "ref:vatin": "PL9442012335",
                "operator": "Gmina Skawina",
                "operator:type": "government",
                "amenity": "school",
                "note": "Parent RSPO: 118790"
            }
        },
        {
            "id": 68851,
            "type": "Feature",
            "geometry": {
                "type": "Point",
                "coordinates": [
                    19.7301392,
                    49.9511533
                ]
            },
            "properties": {
                "isced:level": "1;2",
                "ref:rspo": 68851,
                "official_name": "Szko\u0142a Podstawowa im. Oskara Kolberga w Pozowicach, 32-051 Pozowice 170",
                "name": "Szko\u0142a Podstawowa",
                "addr:postcode": "32-051",
                "addr:place": "Pozowice",
                "addr:housenumber": "170",
                "addr:city:simc": 335309,
                "phone": "+48 122706165",
                "email": "sppozowice@gmail.com",
                "website": "http:\/\/sppozowice.edupage.org",
                "ref:regon": "001098343",
                "ref:vatin": "PL9442011933",
                "operator": "Gmina Skawina",
                "operator:type": "government",
                "amenity": "school"
            }
        },
        {
            "id": 84713,
            "type": "Feature",
            "geometry": {
                "type": "Point",
                "coordinates": [
                    19.7951804,
                    49.9526475
                ]
            },
            "properties": {
                "isced:level": "1;2",
                "ref:rspo": 84713,
                "official_name": "Szko\u0142a Podstawowa im. \u015aw. Jadwigi Kr\u00f3lowej w Rzozowie, 32-052 Rzoz\u00f3w 90",
                "name": "Szko\u0142a Podstawowa",
                "addr:postcode": "32-052",
                "addr:place": "Rzoz\u00f3w",
                "addr:housenumber": "90",
                "addr:city:simc": 335462,
                "phone": "+48 122757046",
                "email": "sprzozow@skawina.eu",
                "website": "http:\/\/sprzozow.skawina.eu\/",
                "ref:regon": "001043945",
                "ref:vatin": "PL9442013493",
                "operator": "Gmina Skawina",
                "operator:type": "government",
                "amenity": "school"
            }
        },
        {
            "id": 85353,
            "type": "Feature",
            "geometry": {
                "type": "Point",
                "coordinates": [
                    19.7283514,
                    49.9576788
                ]
            },
            "properties": {
                "isced:level": "1;2",
                "ref:rspo": 85353,
                "official_name": "Szko\u0142a Podstawowa im. Walerego Goetla w Zelczynie, 32-051 Zelczyna 120",
                "name": "Szko\u0142a Podstawowa",
                "addr:postcode": "32-051",
                "addr:place": "Zelczyna",
                "addr:housenumber": "120",
                "addr:city:simc": 335798,
                "phone": "+48 122706021",
                "email": "spzelczyna@wp.pl",
                "website": "http:\/\/zelczyna.eu",
                "ref:regon": "001043900",
                "ref:vatin": "PL9442011867",
                "operator": "Gmina Skawina",
                "operator:type": "government",
                "amenity": "school"
            }
        },
        {
            "id": 69451,
            "type": "Feature",
            "geometry": {
                "type": "Point",
                "coordinates": [
                    19.66969,
                    49.96055
                ]
            },
            "properties": {
                "isced:level": "1;2",
                "ref:rspo": 69451,
                "official_name": "Szko\u0142a Podstawowa im. Kornela Makuszy\u0144skiego w Ja\u015bkowicach , Ul. Krakowska 41, 32-051 Ja\u015bkowice",
                "name": "Szko\u0142a Podstawowa",
                "addr:postcode": "32-051",
                "addr:city": "Ja\u015bkowice",
                "addr:street": "Krakowska",
                "addr:housenumber": "41",
                "addr:city:simc": 334971,
                "addr:street:sym_ul": 9796,
                "phone": "+48 122706202",
                "email": "sjaskowice@interia.pl",
                "website": "http:\/\/www.spjaskowice.superszkolna.pl",
                "ref:regon": "001098337",
                "ref:vatin": "PL9442012329",
                "operator": "Gmina Skawina",
                "operator:type": "government",
                "amenity": "school"
            }
        },
        {
            "id": 20783,
            "type": "Feature",
            "geometry": {
                "type": "Point",
                "coordinates": [
                    19.71399,
                    49.96101
                ]
            },
            "properties": {
                "ref:rspo": 20783,
                "official_name": "Zesp\u00f3\u0142 Plac\u00f3wek Edukacyjno-Opieku\u0144czo-Wychowawczych w Wielkich Drogach",
                "name": "Zesp\u00f3\u0142 Plac\u00f3wek Edukacyjno-Opieku\u0144czo-Wychowawczych w Wielkich Drogach",
                "addr:postcode": "32-051",
                "addr:city": "Wielkie Drogi",
                "addr:street": "Jana Brandysa",
                "addr:housenumber": "8",
                "addr:city:simc": 335545,
                "addr:street:sym_ul": 57333,
                "phone": "+48 122706016",
                "email": "poczta@zpeow.internetdsl.pl",
                "website": "http:\/\/www.mow-wielkiedrogi.pl",
                "ref:regon": "356517109",
                "ref:vatin": "PL9441591259",
                "operator": "Wojew\u00f3dztwo Ma\u0142opolskie",
                "operator:type": "government",
                "fixme": "amenity=social_facility + social_facility=group_home + social_facility:for=juvenile",
                "note": "Children RSPO: 41158;263078"
            }
        },
        {
            "id": 68852,
            "type": "Feature",
            "geometry": {
                "type": "Point",
                "coordinates": [
                    19.68442,
                    49.96109
                ]
            },
            "properties": {
                "isced:level": "1;2",
                "ref:rspo": 68852,
                "official_name": "Szko\u0142a Podstawowa im. Armii Krajowej w Wielkich Drogach, 32-051 Wielkie Drogi",
                "name": "Szko\u0142a Podstawowa",
                "addr:postcode": "32-051",
                "addr:city": "Wielkie Drogi",
                "addr:street": "Szkolna",
                "addr:housenumber": "3",
                "addr:city:simc": 335545,
                "addr:street:sym_ul": 21970,
                "phone": "+48 122706002",
                "email": "spwielkiedrogi@vp.pl",
                "website": "http:\/\/szkola.wielkiedrogi.eu",
                "ref:regon": "001061179",
                "ref:vatin": "PL9442013464",
                "operator": "Gmina Skawina",
                "operator:type": "government",
                "amenity": "school"
            }
        },
        {
            "id": 70628,
            "type": "Feature",
            "geometry": {
                "type": "Point",
                "coordinates": [
                    19.68442,
                    49.961059999999996
                ]
            },
            "properties": {
                "ref:rspo": 70628,
                "official_name": "Przedszkole Samorz\u0105dowe w Wielkich Drogach z Oddzia\u0142ami Przedszkolnymi w Facimiechu",
                "name": "Przedszkole Samorz\u0105dowe w Wielkich Drogach z Oddzia\u0142ami Przedszkolnymi w Facimiechu",
                "addr:postcode": "32-051",
                "addr:city": "Wielkie Drogi",
                "addr:street": "Jana Brandysa",
                "addr:housenumber": "3",
                "addr:city:simc": 335545,
                "addr:street:sym_ul": 57333,
                "phone": "+48 122706132",
                "email": "przedszkole.wielkiedrogi@wp.pl",
                "website": "http:\/\/www.wielkiedrogi.eprzedszkola.pl",
                "ref:regon": "350530304",
                "ref:vatin": "PL9442012312",
                "operator": "Gmina Skawina",
                "operator:type": "government",
                "amenity": "kindergarten"
            }
        },
        {
            "id": 41158,
            "type": "Feature",
            "geometry": {
                "type": "Point",
                "coordinates": [
                    19.7562239,
                    49.9615766
                ]
            },
            "properties": {
                "isced:level": "1;2",
                "ref:rspo": 41158,
                "official_name": "Szko\u0142a Podstawowa Specjalna w Wielkich Drogach",
                "name": "Szko\u0142a Podstawowa Specjalna w Wielkich Drogach",
                "addr:postcode": "32-051",
                "addr:place": "Wielkie Drogi",
                "addr:housenumber": "192",
                "addr:city:simc": 335545,
                "phone": "+48 122706016",
                "email": "poczta@zpeow.internetdsl.pl",
                "website": "http:\/\/www.mow-wielkiedrogi.pl",
                "ref:regon": "356517144",
                "operator": "Wojew\u00f3dztwo Ma\u0142opolskie",
                "operator:type": "government",
                "amenity": "school",
                "note": "Parent RSPO: 20783"
            }
        },
        {
            "id": 263078,
            "type": "Feature",
            "geometry": {
                "type": "Point",
                "coordinates": [
                    19.7562239,
                    49.9615466
                ]
            },
            "properties": {
                "isced:level": "3",
                "ref:rspo": 263078,
                "official_name": "Bran\u017cowa Szko\u0142a I Stopnia Specjalna w Wielkich Drogach",
                "name": "Bran\u017cowa Szko\u0142a I Stopnia Specjalna w Wielkich Drogach",
                "addr:postcode": "32-050",
                "addr:place": "Wielkie Drogi",
                "addr:housenumber": "192",
                "addr:city:simc": 335545,
                "phone": "+48 122706016",
                "email": "poczta@zpeow.internetdsl.pl",
                "website": "http:\/\/www.mow-wielkiedrogi.pl",
                "ref:regon": "368103031",
                "operator": "Wojew\u00f3dztwo Ma\u0142opolskie",
                "operator:type": "government",
                "amenity": "school",
                "note": "Parent RSPO: 20783"
            }
        },
        {
            "id": 276787,
            "type": "Feature",
            "geometry": {
                "type": "Point",
                "coordinates": [
                    19.77996,
                    49.96423
                ]
            },
            "properties": {
                "ref:rspo": 276787,
                "official_name": "Prywatne Przedszkole \"Royal Baby\"",
                "name": "Prywatne Przedszkole \"Royal Baby\"",
                "addr:postcode": "32-050",
                "addr:city": "Skawina",
                "addr:street": "Le\u015bna",
                "addr:housenumber": "74",
                "addr:door": "U1",
                "addr:city:simc": 951876,
                "addr:street:sym_ul": 10898,
                "email": "office@royalschool.eu",
                "website": "http:\/\/www.royalbaby.com.pl",
                "ref:regon": "387576409",
                "operator": "Royal Edukacja Sp\u00f3\u0142ka Z Ograniczon\u0105 Odpowiedzialno\u015bci\u0105",
                "operator:type": "private",
                "amenity": "kindergarten"
            }
        },
        {
            "id": 70580,
            "type": "Feature",
            "geometry": {
                "type": "Point",
                "coordinates": [
                    19.77087,
                    49.965
                ]
            },
            "properties": {
                "ref:rspo": 70580,
                "official_name": "Zesp\u00f3\u0142 Plac\u00f3wek O\u015bwiatowych w Borku Szlacheckim, 32-050 Borek Szlachecki, Ul. Szkolna 20",
                "name": "Zesp\u00f3\u0142 Plac\u00f3wek O\u015bwiatowych w Borku Szlacheckim, 32-050 Borek Szlachecki, Ul. Szkolna 20",
                "addr:postcode": "32-050",
                "addr:city": "Borek Szlachecki",
                "addr:street": "Szkolna",
                "addr:housenumber": "20",
                "addr:city:simc": 334830,
                "addr:street:sym_ul": 21970,
                "phone": "+48 122762898",
                "email": "zpo_borekszlachecki@op.pl",
                "ref:regon": "001061162",
                "ref:vatin": "PL9442012364",
                "operator": "Gmina Skawina",
                "operator:type": "government",
                "landuse": "education",
                "fixme": "amenity=school, amenity=college albo landuse=education w zale\u017cno\u015bci od tego, jakie plac\u00f3wki wchodz\u0105 w sk\u0142ad zespo\u0142u. Sprawd\u017a, kiedy stosowa\u0107 amenity=* a kiedy landuse=education.",
                "note": "Children RSPO: 108938;109487"
            }
        },
        {
            "id": 108938,
            "type": "Feature",
            "geometry": {
                "type": "Point",
                "coordinates": [
                    19.77087,
                    49.96497
                ]
            },
            "properties": {
                "isced:level": "1;2",
                "ref:rspo": 108938,
                "official_name": "Szko\u0142a Podstawowa w Borku Szlacheckim, 32-050 Borek Szlachecki, Ul. Szkolna 20",
                "name": "Szko\u0142a Podstawowa w Borku Szlacheckim, 32-050 Borek Szlachecki, Ul. Szkolna 20",
                "addr:postcode": "32-050",
                "addr:city": "Borek Szlachecki",
                "addr:street": "Szkolna",
                "addr:housenumber": "20",
                "addr:city:simc": 334830,
                "addr:street:sym_ul": 21970,
                "phone": "+48 122762898",
                "email": "zpo_borekszlachecki@op.pl",
                "ref:regon": "356277728",
                "ref:vatin": "PL9442012364",
                "operator": "Gmina Skawina",
                "operator:type": "government",
                "amenity": "school",
                "note": "Parent RSPO: 70580"
            }
        },
        {
            "id": 109487,
            "type": "Feature",
            "geometry": {
                "type": "Point",
                "coordinates": [
                    19.77087,
                    49.964940000000006
                ]
            },
            "properties": {
                "ref:rspo": 109487,
                "official_name": "Przedszkole Samorz\u0105dowe w Borku Szlacheckim, 32-050 Borek Szlachecki, Ul. Szkolna 20",
                "name": "Przedszkole Samorz\u0105dowe w Borku Szlacheckim, 32-050 Borek Szlachecki, Ul. Szkolna 20",
                "addr:postcode": "32-050",
                "addr:city": "Borek Szlachecki",
                "addr:street": "Szkolna",
                "addr:housenumber": "20",
                "addr:city:simc": 334830,
                "addr:street:sym_ul": 21970,
                "phone": "+48 122762898",
                "email": "zpo_borekszlachecki@op.pl",
                "ref:regon": "356277757",
                "ref:vatin": "PL9442012364",
                "operator": "Gmina Skawina",
                "operator:type": "government",
                "amenity": "kindergarten",
                "note": "Parent RSPO: 70580"
            }
        },
        {
            "id": 118774,
            "type": "Feature",
            "geometry": {
                "type": "Point",
                "coordinates": [
                    19.82642,
                    49.96554
                ]
            },
            "properties": {
                "ref:rspo": 118774,
                "official_name": "Szko\u0142a Muzyczna I Stopnia w Skawinie, 32-050 Skawina, Ul. W. Witosa 4",
                "name": "Szko\u0142a Muzyczna I Stopnia w Skawinie, 32-050 Skawina, Ul. W. Witosa 4",
                "addr:postcode": "32-050",
                "addr:city": "Skawina",
                "addr:street": "Wincentego Witosa",
                "addr:housenumber": "4",
                "addr:city:simc": 951876,
                "addr:street:sym_ul": 24459,
                "phone": "+48 122912196",
                "email": "smuz.sk@gmail.com",
                "website": "http:\/\/www.smuzskawina.edu.pl",
                "ref:regon": "122920714",
                "operator": "Gmina Skawina",
                "operator:type": "government",
                "amenity": "music_school"
            }
        },
        {
            "id": 133481,
            "type": "Feature",
            "geometry": {
                "type": "Point",
                "coordinates": [
                    19.82642,
                    49.965509999999995
                ]
            },
            "properties": {
                "isced:level": "1;2",
                "ref:rspo": 133481,
                "official_name": "Szko\u0142a Podstawowa nr 6 z Oddzia\u0142ami Integracyjnymi im. Noblist\u00f3w Polskich 32-050 Skawina Ul. Wincentego Witosa 4",
                "name": "Szko\u0142a Podstawowa nr 6 z Oddzia\u0142ami Integracyjnymi",
                "addr:postcode": "32-050",
                "addr:city": "Skawina",
                "addr:street": "Wincentego Witosa",
                "addr:housenumber": "4",
                "addr:city:simc": 951876,
                "addr:street:sym_ul": 24459,
                "phone": "+48 122912196",
                "email": "sp6@sp6skawina.pl",
                "ref:regon": "367358102",
                "operator": "Gmina Skawina",
                "operator:type": "government",
                "amenity": "school"
            }
        },
        {
            "id": 279066,
            "type": "Feature",
            "geometry": {
                "type": "Point",
                "coordinates": [
                    19.82642,
                    49.96548
                ]
            },
            "properties": {
                "ref:rspo": 279066,
                "official_name": "Niepubliczne Ognisko Artystyczne \"Szko\u0142a Rysunku Zalubowski\" w Skawinie",
                "name": "Niepubliczne Ognisko Artystyczne \"Szko\u0142a Rysunku Zalubowski\" w Skawinie",
                "addr:postcode": "32-050",
                "addr:city": "Skawina",
                "addr:street": "Wincentego Witosa",
                "addr:housenumber": "4",
                "addr:city:simc": 951876,
                "addr:street:sym_ul": 24459,
                "email": "kontakt@zalubowski.pl",
                "ref:regon": "520537743",
                "operator": "Rafa\u0142 Zalubowski",
                "operator:type": "private",
                "fixme": "w zale\u017cno\u015bci od przedmiotu dzia\u0142alno\u015bci (np. amenity=community_centre + community_centre:for=child;juvenile, amenity=training + training=*, amenity=dancing_school, amenity=music_school),"
            }
        },
        {
            "id": 120297,
            "type": "Feature",
            "geometry": {
                "type": "Point",
                "coordinates": [
                    19.8180799,
                    49.96586
                ]
            },
            "properties": {
                "ref:rspo": 120297,
                "official_name": "Prywatne Przedszkole \"Bajkowa Kraina\" 32-050 Skawina, Ul. 29 Listopada 12D\/1",
                "name": "Prywatne Przedszkole \"Bajkowa Kraina\" 32-050 Skawina, Ul. 29 Listopada 12D\/1",
                "addr:postcode": "32-050",
                "addr:city": "Skawina",
                "addr:street": "Radziszowska",
                "addr:housenumber": "22",
                "addr:door": "1",
                "addr:city:simc": 951876,
                "addr:street:sym_ul": 18364,
                "phone": "+48 123070404",
                "email": "przedszkole.radziszowska@op.pl",
                "website": "http:\/\/www.bajkowakraina.org",
                "ref:regon": "122952039",
                "ref:vatin": "PL9442072225",
                "operator": "Jacek Wyroba",
                "operator:type": "private",
                "amenity": "kindergarten"
            }
        },
        {
            "id": 80069,
            "type": "Feature",
            "geometry": {
                "type": "Point",
                "coordinates": [
                    19.83033,
                    49.9661
                ]
            },
            "properties": {
                "ref:rspo": 80069,
                "official_name": "Przedszkole Samorz\u0105dowe nr 6 z Oddzia\u0142em \u017b\u0142obkowym 32-050 Skawina, Ul. Bukowska 17",
                "name": "Przedszkole Samorz\u0105dowe nr 6 z Oddzia\u0142em \u017b\u0142obkowym 32-050 Skawina, Ul. Bukowska 17",
                "addr:postcode": "32-050",
                "addr:city": "Skawina",
                "addr:street": "Bukowska",
                "addr:housenumber": "17",
                "addr:city:simc": 951876,
                "addr:street:sym_ul": 2396,
                "phone": "+48 122763045",
                "email": "przedszkole_6@wp.pl",
                "ref:regon": "356329282",
                "ref:vatin": "PL9442035081",
                "operator": "Gmina Skawina",
                "operator:type": "government",
                "amenity": "kindergarten"
            }
        },
        {
            "id": 70626,
            "type": "Feature",
            "geometry": {
                "type": "Point",
                "coordinates": [
                    19.82299,
                    49.96803
                ]
            },
            "properties": {
                "ref:rspo": 70626,
                "official_name": "Przedszkole Samorz\u0105dowe nr 5 32-050 Skawina, Ul. Daszy\u0144skiego 11",
                "name": "Przedszkole Samorz\u0105dowe nr 5 32-050 Skawina, Ul. Daszy\u0144skiego 11",
                "addr:postcode": "32-050",
                "addr:city": "Skawina",
                "addr:street": "Ignacego Daszy\u0144skiego",
                "addr:housenumber": "11",
                "addr:city:simc": 951876,
                "addr:street:sym_ul": 3639,
                "phone": "+48 122761997",
                "email": "przedszkole5skawina@gmail.com",
                "website": "http:\/\/www.przedszkolenr5skawina.pl",
                "ref:regon": "350530356",
                "ref:vatin": "PL9442013487",
                "operator": "Gmina Skawina",
                "operator:type": "government",
                "amenity": "kindergarten"
            }
        },
        {
            "id": 269436,
            "type": "Feature",
            "geometry": {
                "type": "Point",
                "coordinates": [
                    19.8241799,
                    49.96813
                ]
            },
            "properties": {
                "ref:rspo": 269436,
                "official_name": "Niepubliczny Punkt Przedszkolny \"Skawi\u0144skie Smyki\"",
                "name": "Niepubliczny Punkt Przedszkolny \"Skawi\u0144skie Smyki\"",
                "addr:postcode": "32-050",
                "addr:city": "Skawina",
                "addr:street": "J\u00f3zefa Poniatowskiego",
                "addr:housenumber": "3",
                "addr:city:simc": 951876,
                "addr:street:sym_ul": 17107,
                "email": "magdalena_szczesniak@interia.pl",
                "ref:regon": "381488288",
                "operator": "Magdalena Szcze\u015bniak",
                "operator:type": "private",
                "amenity": "kindergarten"
            }
        },
        {
            "id": 70624,
            "type": "Feature",
            "geometry": {
                "type": "Point",
                "coordinates": [
                    19.82159,
                    49.96882
                ]
            },
            "properties": {
                "ref:rspo": 70624,
                "official_name": "Przedszkole Samorzadowe nr 2 z Oddzia\u0142ami Integracyjnymi I Specjalnymi 32-050 Skawina, Ul. \u017bwirki I Wigury 56",
                "name": "Przedszkole Samorzadowe nr 2 z Oddzia\u0142ami Integracyjnymi I Specjalnymi 32-050 Skawina, Ul. \u017bwirki I Wigury 56",
                "addr:postcode": "32-050",
                "addr:city": "Skawina",
                "addr:street": "\u017bwirki i Wigury",
                "addr:housenumber": "56",
                "addr:city:simc": 951876,
                "addr:street:sym_ul": 26608,
                "phone": "+48 122762650",
                "email": "ps2skawina@gmail.com",
                "website": "http:\/\/www.niebieskimis-skawina.edu.pl",
                "ref:regon": "350530400",
                "ref:vatin": "PL9442010419",
                "operator": "Gmina Skawina",
                "operator:type": "government",
                "amenity": "kindergarten"
            }
        },
        {
            "id": 108888,
            "type": "Feature",
            "geometry": {
                "type": "Point",
                "coordinates": [
                    19.8356,
                    49.9689
                ]
            },
            "properties": {
                "ref:rspo": 108888,
                "official_name": "Katolickie Przedszkole im. Ks.prym. S. Wyszy\u0144skiego Przy Parafii Mi\u0142osierdzia Bo\u017cego w Skawinie Ul. Mc Sk\u0142odowskiej 12",
                "name": "Katolickie Przedszkole",
                "addr:postcode": "32-050",
                "addr:city": "Skawina",
                "addr:street": "Marii Sk\u0142odowskiej-Curie",
                "addr:housenumber": "12",
                "addr:city:simc": 951876,
                "addr:street:sym_ul": 20068,
                "phone": "+48 122765939",
                "email": "przedszkole_wyszynski@poczta.fm",
                "ref:regon": "122774419",
                "ref:vatin": "PL9442040515",
                "operator": "Parafia Rzym.-Kat. Pw. Mi\u0142osierdzia Bo\u017cego",
                "operator:type": "religious",
                "amenity": "kindergarten"
            }
        },
        {
            "id": 70577,
            "type": "Feature",
            "geometry": {
                "type": "Point",
                "coordinates": [
                    19.82633,
                    49.96958
                ]
            },
            "properties": {
                "ref:rspo": 70577,
                "official_name": "Specjalistyczna Poradnia Psychologiczno-Pedagogiczna 32-050 Skawina, Ul. Ko\u015bciuszki 10",
                "name": "Specjalistyczna Poradnia Psychologiczno-Pedagogiczna 32-050 Skawina, Ul. Ko\u015bciuszki 10",
                "addr:postcode": "32-050",
                "addr:city": "Skawina",
                "addr:street": "Tadeusza Ko\u015bciuszki",
                "addr:housenumber": "10",
                "addr:city:simc": 951876,
                "addr:street:sym_ul": 9582,
                "phone": "+48 122763840",
                "email": "poradniaskawina@interia.pl",
                "website": "http:\/\/poradnia.skawina.com.pl",
                "ref:regon": "000705663",
                "ref:vatin": "PL9442010342",
                "operator": "Gmina Skawina",
                "operator:type": "government",
                "healthcare": "counselling",
                "counselling_type": "education",
                "fixme": "w zale\u017cno\u015bci od przedmiotu dzia\u0142alno\u015bci (np. healthcare=counselling + counselling_type=education albo healthcare=psychotherapist)"
            }
        },
        {
            "id": 64830,
            "type": "Feature",
            "geometry": {
                "type": "Point",
                "coordinates": [
                    19.82433,
                    49.97089
                ]
            },
            "properties": {
                "isced:level": "3",
                "ref:rspo": 64830,
                "official_name": "Liceum Og\u00f3lnokszta\u0142c\u0105ce im. Marii Sk\u0142odowskiej-Curie w Skawinie",
                "name": "Liceum Og\u00f3lnokszta\u0142c\u0105ce",
                "addr:postcode": "32-050",
                "addr:city": "Skawina",
                "addr:street": "\u017bwirki i Wigury",
                "addr:housenumber": "17",
                "addr:city:simc": 951876,
                "addr:street:sym_ul": 26608,
                "phone": "+48 122763577",
                "email": "sekretariat@zso.pl.pl",
                "website": "http:\/\/www.zso.pl.pl",
                "ref:regon": "356728355",
                "ref:vatin": "PL6792026000",
                "operator": "Powiat Krakowski",
                "operator:type": "government",
                "amenity": "school"
            }
        },
        {
            "id": 80368,
            "type": "Feature",
            "geometry": {
                "type": "Point",
                "coordinates": [
                    19.82433,
                    49.970859999999995
                ]
            },
            "properties": {
                "isced:level": "1;2",
                "ref:rspo": 80368,
                "official_name": "Szko\u0142a Podstawowa nr 2 im.kazimierza Wielkiego 32-050 Skawina, Ul. \u017bwirki I Wigury 17",
                "name": "Szko\u0142a Podstawowa nr 2 im.kazimierza Wielkiego 32-050 Skawina, Ul. \u017bwirki I Wigury 17",
                "addr:postcode": "32-050",
                "addr:city": "Skawina",
                "addr:street": "\u017bwirki i Wigury",
                "addr:housenumber": "17",
                "addr:city:simc": 951876,
                "addr:street:sym_ul": 26608,
                "phone": "+48 122763880",
                "email": "szkola@sp2skawina.pl",
                "website": "http:\/\/sp2skawina.pl",
                "ref:regon": "001043974",
                "ref:vatin": "PL9442006197",
                "operator": "Gmina Skawina",
                "operator:type": "government",
                "amenity": "school"
            }
        },
        {
            "id": 84704,
            "type": "Feature",
            "geometry": {
                "type": "Point",
                "coordinates": [
                    19.85369,
                    49.97145
                ]
            },
            "properties": {
                "isced:level": "1;2",
                "ref:rspo": 84704,
                "official_name": "Szko\u0142a Podstawowa nr 4 im. Stanis\u0142awa Wyspia\u0144skiego 32-050 Skawina, Ul. Wyspia\u0144skiego 5",
                "name": "Szko\u0142a Podstawowa nr 4",
                "addr:postcode": "32-050",
                "addr:city": "Skawina",
                "addr:street": "Stanis\u0142awa Wyspia\u0144skiego",
                "addr:housenumber": "5",
                "addr:city:simc": 951876,
                "addr:street:sym_ul": 25084,
                "phone": "+48 122753240",
                "email": "sp4.skawina@poczta.fm",
                "website": "http:\/\/www.sp4skawina.szkolnastrona.pl\/",
                "ref:regon": "000703687",
                "ref:vatin": "PL9442010454",
                "operator": "Gmina Skawina",
                "operator:type": "government",
                "amenity": "school"
            }
        },
        {
            "id": 269434,
            "type": "Feature",
            "geometry": {
                "type": "Point",
                "coordinates": [
                    19.85658,
                    49.97279
                ]
            },
            "properties": {
                "ref:rspo": 269434,
                "official_name": "Prywatne Przedszkole \"Royal\"",
                "name": "Prywatne Przedszkole \"Royal\"",
                "addr:postcode": "32-050",
                "addr:city": "Skawina",
                "addr:street": "Stanis\u0142awa Wyspia\u0144skiego",
                "addr:housenumber": "1",
                "addr:city:simc": 951876,
                "addr:street:sym_ul": 25084,
                "email": "office@royalschool.eu",
                "ref:regon": "381488294",
                "operator": "Ma\u0142gorzata Iwaniuk",
                "operator:type": "private",
                "amenity": "kindergarten"
            }
        },
        {
            "id": 269437,
            "type": "Feature",
            "geometry": {
                "type": "Point",
                "coordinates": [
                    19.85658,
                    49.97276
                ]
            },
            "properties": {
                "isced:level": "1;2",
                "ref:rspo": 269437,
                "official_name": "Prywatna Szko\u0142a Podstawowa \"Royal School\"",
                "name": "Prywatna Szko\u0142a Podstawowa \"Royal School\"",
                "addr:postcode": "32-050",
                "addr:city": "Skawina",
                "addr:street": "Stanis\u0142awa Wyspia\u0144skiego",
                "addr:housenumber": "1",
                "addr:city:simc": 951876,
                "addr:street:sym_ul": 25084,
                "phone": "+48 794002994",
                "email": "office@royalschool.eu",
                "website": "http:\/\/royalschool.eu\/",
                "ref:regon": "381488271",
                "operator": "Ma\u0142gorzata Iwaniuk",
                "operator:type": "private",
                "amenity": "school"
            }
        },
        {
            "id": 59916,
            "type": "Feature",
            "geometry": {
                "type": "Point",
                "coordinates": [
                    19.82795,
                    49.97284
                ]
            },
            "properties": {
                "ref:rspo": 59916,
                "official_name": "Niepubliczna Plac\u00f3wka O\u015bwiatowa Kszta\u0142cenia Ustawicznego \"Amplus-Actio\"",
                "name": "Niepubliczna Plac\u00f3wka O\u015bwiatowa Kszta\u0142cenia Ustawicznego \"Amplus-Actio\"",
                "addr:postcode": "32-050",
                "addr:city": "Skawina",
                "addr:street": "29 Listopada",
                "addr:housenumber": "1",
                "addr:door": "7",
                "addr:city:simc": 951876,
                "addr:street:sym_ul": 11208,
                "phone": "+48 600731206",
                "email": "amplusbhp@onet.eu",
                "website": "http:\/\/www.amplus-actio.pl",
                "ref:regon": "122693342",
                "ref:vatin": "PL6791501628",
                "operator": "Jolanta Kawaler",
                "operator:type": "private",
                "fixme": "w zale\u017cno\u015bci od przedmiotu dzia\u0142alno\u015bci (np. amenity=training + training=*, amenity=dancing_school, amenity=language_school, amenity=music_school)"
            }
        },
        {
            "id": 18156,
            "type": "Feature",
            "geometry": {
                "type": "Point",
                "coordinates": [
                    19.82503,
                    49.97301
                ]
            },
            "properties": {
                "ref:rspo": 18156,
                "official_name": "Specjalny O\u015brodek Szkolno-Wychowawczy im.poczty Polskiej w Skawinie",
                "name": "Specjalny O\u015brodek Szkolno-Wychowawczy im.poczty Polskiej w Skawinie",
                "addr:postcode": "32-050",
                "addr:city": "Skawina",
                "addr:street": "\u017bwirki i Wigury",
                "addr:housenumber": "9",
                "addr:city:simc": 951876,
                "addr:street:sym_ul": 26608,
                "phone": "+48 122763061",
                "email": "specszkola5@poczta.onet.pl",
                "website": "http:\/\/www.sosw.skawina.edu.pl",
                "ref:regon": "000703411",
                "ref:vatin": "PL6792026514",
                "operator": "Powiat Krakowski",
                "operator:type": "government",
                "amenity": "school",
                "note": "Children RSPO: 60004;60008;64832"
            }
        },
        {
            "id": 60004,
            "type": "Feature",
            "geometry": {
                "type": "Point",
                "coordinates": [
                    19.82503,
                    49.97298
                ]
            },
            "properties": {
                "isced:level": "1;2",
                "ref:rspo": 60004,
                "official_name": "Szko\u0142a Podstawowa Specjalna nr 5 w Skawinie w Specjalnym O\u015brodku Szkolno-Wychowawczym im. Poczty Polskiej w Skawinie",
                "name": "Szko\u0142a Podstawowa Specjalna nr 5 w Skawinie w Specjalnym O\u015brodku Szkolno-Wychowawczym",
                "addr:postcode": "32-050",
                "addr:city": "Skawina",
                "addr:street": "\u017bwirki i Wigury",
                "addr:housenumber": "9",
                "addr:city:simc": 951876,
                "addr:street:sym_ul": 26608,
                "phone": "+48 122763061",
                "email": "specszkola5@poczta.onet.pl",
                "website": "http:\/\/www.sosw.skawina.edu.pl",
                "ref:regon": "120092839",
                "operator": "Powiat Krakowski",
                "operator:type": "government",
                "amenity": "school",
                "note": "Parent RSPO: 18156"
            }
        },
        {
            "id": 60008,
            "type": "Feature",
            "geometry": {
                "type": "Point",
                "coordinates": [
                    19.82503,
                    49.972950000000004
                ]
            },
            "properties": {
                "ref:rspo": 60008,
                "official_name": "Szko\u0142a Specjalna Przysposabiaj\u0105ca do Pracy w Skawinie w Specjalnym O\u015brodku Szkolno-Wychowawczym im. Poczty Polskiej w Skawinie",
                "name": "Szko\u0142a Specjalna Przysposabiaj\u0105ca do Pracy w Skawinie w Specjalnym O\u015brodku Szkolno-Wychowawczym",
                "addr:postcode": "32-050",
                "addr:city": "Skawina",
                "addr:street": "\u017bwirki i Wigury",
                "addr:housenumber": "9",
                "addr:city:simc": 951876,
                "addr:street:sym_ul": 26608,
                "phone": "+48 122763061",
                "email": "specszkola5@poczta.onet.pl",
                "website": "http:\/\/www.sosw.skawina.edu.pl",
                "ref:regon": "120316121",
                "operator": "Powiat Krakowski",
                "operator:type": "government",
                "amenity": "school",
                "note": "Parent RSPO: 18156"
            }
        },
        {
            "id": 64832,
            "type": "Feature",
            "geometry": {
                "type": "Point",
                "coordinates": [
                    19.82503,
                    49.97292
                ]
            },
            "properties": {
                "isced:level": "3",
                "ref:rspo": 64832,
                "official_name": "Bran\u017cowa Szko\u0142a I Stopnia Specjalna w Skawinie w Specjalnym O\u015brodku Szkolno-Wychowawczym im. Poczty Polskiej w Skawinie",
                "name": "Bran\u017cowa Szko\u0142a I Stopnia Specjalna w Skawinie w Specjalnym O\u015brodku Szkolno-Wychowawczym",
                "addr:postcode": "32-050",
                "addr:city": "Skawina",
                "addr:street": "\u017bwirki i Wigury",
                "addr:housenumber": "9",
                "addr:city:simc": 951876,
                "addr:street:sym_ul": 26608,
                "phone": "+48 122763061",
                "email": "specszkola5@poczta.onet.pl",
                "website": "http:\/\/www.sosw.skawina.edu.pl",
                "ref:regon": "120092710",
                "operator": "Powiat Krakowski",
                "operator:type": "government",
                "amenity": "school",
                "note": "Parent RSPO: 18156"
            }
        },
        {
            "id": 120296,
            "type": "Feature",
            "geometry": {
                "type": "Point",
                "coordinates": [
                    19.82908,
                    49.97357
                ]
            },
            "properties": {
                "ref:rspo": 120296,
                "official_name": "Niepubliczne Przedszkole \"Ma\u0142a Akademia Montessori\" 32-050 Skawina Ul. Estery 2",
                "name": "Niepubliczne Przedszkole \"Ma\u0142a Akademia Montessori\" 32-050 Skawina Ul. Estery 2",
                "addr:postcode": "32-050",
                "addr:city": "Skawina",
                "addr:street": "Estery",
                "addr:housenumber": "2",
                "addr:city:simc": 951876,
                "addr:street:sym_ul": 4830,
                "phone": "+48 123070171",
                "email": "montessori.skawina@gmail.com",
                "website": "http:\/\/montessoriskawina.pl",
                "ref:regon": "122951927",
                "ref:vatin": "PL6751317545",
                "operator": "Joanna Pac",
                "operator:type": "private",
                "amenity": "kindergarten"
            }
        },
        {
            "id": 18154,
            "type": "Feature",
            "geometry": {
                "type": "Point",
                "coordinates": [
                    19.8359,
                    49.9736
                ]
            },
            "properties": {
                "ref:rspo": 18154,
                "official_name": "Zesp\u00f3\u0142 Szk\u00f3\u0142 Techniczno-Ekonomicznych w Skawinie",
                "name": "Zesp\u00f3\u0142 Szk\u00f3\u0142 Techniczno-Ekonomicznych w Skawinie",
                "addr:postcode": "32-050",
                "addr:city": "Skawina",
                "addr:street": "Miko\u0142aja Kopernika",
                "addr:housenumber": "13",
                "addr:city:simc": 951876,
                "addr:street:sym_ul": 9282,
                "phone": "+48 122761522",
                "email": "zste@home.pl",
                "website": "https:\/\/zste-skawina.edu.pl",
                "ref:regon": "000188541",
                "ref:vatin": "PL6792026112",
                "operator": "Powiat Krakowski",
                "operator:type": "government",
                "landuse": "education",
                "fixme": "amenity=school, amenity=college albo landuse=education w zale\u017cno\u015bci od tego, jakie plac\u00f3wki wchodz\u0105 w sk\u0142ad zespo\u0142u. Sprawd\u017a, kiedy stosowa\u0107 amenity=* a kiedy landuse=education.",
                "note": "Children RSPO: 59975;59976;59980;88949;122996;274795"
            }
        },
        {
            "id": 59975,
            "type": "Feature",
            "geometry": {
                "type": "Point",
                "coordinates": [
                    19.8359,
                    49.973569999999995
                ]
            },
            "properties": {
                "isced:level": "3",
                "ref:rspo": 59975,
                "official_name": "Technikum w Skawinie w Zespole Szk\u00f3\u0142 Techniczno-Ekonomicznych w Skawinie",
                "name": "Technikum w Skawinie w Zespole Szk\u00f3\u0142 Techniczno-Ekonomicznych w Skawinie",
                "addr:postcode": "32-050",
                "addr:city": "Skawina",
                "addr:street": "Miko\u0142aja Kopernika",
                "addr:housenumber": "13",
                "addr:city:simc": 951876,
                "addr:street:sym_ul": 9282,
                "phone": "+48 122761522",
                "email": "zste@home.pl",
                "website": "http:\/\/www.zste-skawina.edu.pl",
                "ref:regon": "120046220",
                "operator": "Powiat Krakowski",
                "operator:type": "government",
                "amenity": "school",
                "note": "Parent RSPO: 18154"
            }
        },
        {
            "id": 59976,
            "type": "Feature",
            "geometry": {
                "type": "Point",
                "coordinates": [
                    19.8359,
                    49.97354
                ]
            },
            "properties": {
                "isced:level": "3",
                "ref:rspo": 59976,
                "official_name": "Bran\u017cowa Szko\u0142a I Stopnia w Skawinie w Zespole Szk\u00f3\u0142 Techniczno-Ekonomicznych w Skawinie",
                "name": "Bran\u017cowa Szko\u0142a I Stopnia w Skawinie w Zespole Szk\u00f3\u0142 Techniczno-Ekonomicznych w Skawinie",
                "addr:postcode": "32-050",
                "addr:city": "Skawina",
                "addr:street": "Miko\u0142aja Kopernika",
                "addr:housenumber": "13",
                "addr:city:simc": 951876,
                "addr:street:sym_ul": 9282,
                "phone": "+48 122761522",
                "email": "zste@home.pl",
                "website": "http:\/\/www.zste-skawina.edu.pl",
                "ref:regon": "356728071",
                "operator": "Powiat Krakowski",
                "operator:type": "government",
                "amenity": "school",
                "note": "Parent RSPO: 18154"
            }
        },
        {
            "id": 59980,
            "type": "Feature",
            "geometry": {
                "type": "Point",
                "coordinates": [
                    19.8359,
                    49.97351
                ]
            },
            "properties": {
                "isced:level": "4",
                "ref:rspo": 59980,
                "official_name": "Szko\u0142a Policealna w Skawinie w Zespole Szk\u00f3\u0142 Techniczno-Ekonomicznych w Skawinie",
                "name": "Szko\u0142a Policealna w Skawinie w Zespole Szk\u00f3\u0142 Techniczno-Ekonomicznych w Skawinie",
                "addr:postcode": "32-050",
                "addr:city": "Skawina",
                "addr:street": "Miko\u0142aja Kopernika",
                "addr:housenumber": "13",
                "addr:city:simc": 951876,
                "addr:street:sym_ul": 9282,
                "phone": "+48 122761522",
                "email": "zste@home.pl",
                "website": "http:\/\/www.zste-skawina.edu.pl",
                "ref:regon": "120046265",
                "operator": "Powiat Krakowski",
                "operator:type": "government",
                "amenity": "college",
                "note": "Parent RSPO: 18154"
            }
        },
        {
            "id": 88949,
            "type": "Feature",
            "geometry": {
                "type": "Point",
                "coordinates": [
                    19.8359,
                    49.973479999999995
                ]
            },
            "properties": {
                "isced:level": "3",
                "ref:rspo": 88949,
                "official_name": "Liceum Og\u00f3lnokszta\u0142c\u0105ce dla Doros\u0142ych w Skawinie w Zespole Szk\u00f3\u0142 Techniczno-Ekonomicznych w Skawinie",
                "name": "Liceum Og\u00f3lnokszta\u0142c\u0105ce dla Doros\u0142ych w Skawinie w Zespole Szk\u00f3\u0142 Techniczno-Ekonomicznych w Skawinie",
                "addr:postcode": "32-050",
                "addr:city": "Skawina",
                "addr:street": "Miko\u0142aja Kopernika",
                "addr:housenumber": "13",
                "addr:city:simc": 951876,
                "addr:street:sym_ul": 9282,
                "phone": "+48 122761522",
                "email": "zste@home.pl",
                "website": "http:\/\/www.zste-skawina.edu.pl",
                "ref:regon": "122714848",
                "operator": "Powiat Krakowski",
                "operator:type": "government",
                "amenity": "school",
                "note": "Parent RSPO: 18154"
            }
        },
        {
            "id": 122996,
            "type": "Feature",
            "geometry": {
                "type": "Point",
                "coordinates": [
                    19.8359,
                    49.97345
                ]
            },
            "properties": {
                "ref:rspo": 122996,
                "official_name": "Centrum Kszta\u0142cenia Zawodowego w Skawinie",
                "name": "Centrum Kszta\u0142cenia Zawodowego w Skawinie",
                "addr:postcode": "32-050",
                "addr:city": "Skawina",
                "addr:street": "Miko\u0142aja Kopernika",
                "addr:housenumber": "13",
                "addr:city:simc": 951876,
                "addr:street:sym_ul": 9282,
                "phone": "+48 122761522",
                "email": "zste@home.pl",
                "website": "http:\/\/www.zste-skawina.edu.pl",
                "ref:regon": "123108713",
                "operator": "Powiat Krakowski",
                "operator:type": "government",
                "fixme": "w zale\u017cno\u015bci od przedmiotu dzia\u0142alno\u015bci (np. amenity=training + training=*, amenity=dancing_school, amenity=language_school, amenity=music_school) albo amenity=school, amenity=college, albo landuse=education w zale\u017cno\u015bci od tego, jakie plac\u00f3wki wchodz\u0105 w sk\u0142ad zespo\u0142u. Sprawd\u017a, kiedy stosowa\u0107 amenity=* a kiedy landuse=education.",
                "note": "Parent RSPO: 18154"
            }
        },
        {
            "id": 274795,
            "type": "Feature",
            "geometry": {
                "type": "Point",
                "coordinates": [
                    19.8359,
                    49.97342
                ]
            },
            "properties": {
                "isced:level": "3",
                "ref:rspo": 274795,
                "official_name": "Bran\u017cowa Szko\u0142a II Stopnia w Skawinie w Zespole Szk\u00f3\u0142 Techniczno-Ekonomicznych w Skawinie",
                "name": "Bran\u017cowa Szko\u0142a II Stopnia w Skawinie w Zespole Szk\u00f3\u0142 Techniczno-Ekonomicznych w Skawinie",
                "addr:postcode": "32-050",
                "addr:city": "Skawina",
                "addr:street": "Miko\u0142aja Kopernika",
                "addr:housenumber": "13",
                "addr:city:simc": 951876,
                "addr:street:sym_ul": 9282,
                "phone": "+48 122761522",
                "email": "zste@home.pl",
                "website": "http:\/\/www.zste-skawina.edu.pl",
                "ref:regon": "386306731",
                "operator": "Powiat Krakowski",
                "operator:type": "government",
                "amenity": "school",
                "note": "Parent RSPO: 18154"
            }
        },
        {
            "id": 124981,
            "type": "Feature",
            "geometry": {
                "type": "Point",
                "coordinates": [
                    19.82447,
                    49.97437
                ]
            },
            "properties": {
                "ref:rspo": 124981,
                "official_name": "Niepubliczne Przedszkole \"Parkowe Skrzaty\", 32-050 Skawina, Ul. Zamkowa 14 A",
                "name": "Niepubliczne Przedszkole \"Parkowe Skrzaty\", 32-050 Skawina, Ul. Zamkowa 14 A",
                "addr:postcode": "32-050",
                "addr:city": "Skawina",
                "addr:street": "Zamkowa",
                "addr:housenumber": "14 A",
                "addr:city:simc": 951876,
                "addr:street:sym_ul": 25547,
                "phone": "+48 690654504",
                "email": "zipiinkluzja@gmail.com",
                "ref:regon": "123207852",
                "operator": "Ewa Szostek",
                "operator:type": "private",
                "amenity": "kindergarten"
            }
        },
        {
            "id": 79667,
            "type": "Feature",
            "geometry": {
                "type": "Point",
                "coordinates": [
                    19.83579,
                    49.9748
                ]
            },
            "properties": {
                "isced:level": "1;2",
                "ref:rspo": 79667,
                "official_name": "Szko\u0142a Podstawowa nr 1 im. Miko\u0142aja Kopernika 32-050 Skawina Ul. Korabnicka 19",
                "name": "Szko\u0142a Podstawowa nr 1",
                "addr:postcode": "32-050",
                "addr:city": "Skawina",
                "addr:street": "Korabnicka",
                "addr:housenumber": "19",
                "addr:city:simc": 951876,
                "addr:street:sym_ul": 9313,
                "phone": "+48 122761882",
                "email": "szkola@sp1.skawina.com.pl",
                "website": "http:\/\/www.sp1.skawina.com.pl\/",
                "ref:regon": "000703664",
                "ref:vatin": "PL9442008718",
                "operator": "Gmina Skawina",
                "operator:type": "government",
                "amenity": "school"
            }
        },
        {
            "id": 133478,
            "type": "Feature",
            "geometry": {
                "type": "Point",
                "coordinates": [
                    19.82256,
                    49.97525
                ]
            },
            "properties": {
                "isced:level": "1;2",
                "ref:rspo": 133478,
                "official_name": "Szko\u0142a Podstawowa nr 3 im. Komisji Edukacji Narodowej 32-050 Skawina, Ul. Adama Mickiewicza 11 A",
                "name": "Szko\u0142a Podstawowa nr 3",
                "addr:postcode": "32-050",
                "addr:city": "Skawina",
                "addr:street": "Adama Mickiewicza",
                "addr:housenumber": "11 A",
                "addr:city:simc": 951876,
                "addr:street:sym_ul": 12740,
                "phone": "+48 122767656",
                "email": "sekretariat@sp3skawina.pl",
                "ref:regon": "367348990",
                "operator": "Gmina Skawina",
                "operator:type": "government",
                "amenity": "school"
            }
        },
        {
            "id": 70625,
            "type": "Feature",
            "geometry": {
                "type": "Point",
                "coordinates": [
                    19.82158,
                    49.97531
                ]
            },
            "properties": {
                "ref:rspo": 70625,
                "official_name": "Przedszkole Samorzadowe nr 3 32-050 Skawina, Ul. Niepodleg\u0142osci 7",
                "name": "Przedszkole Samorzadowe nr 3 32-050 Skawina, Ul. Niepodleg\u0142osci 7",
                "addr:postcode": "32-050",
                "addr:city": "Skawina",
                "addr:street": "Niepodleg\u0142o\u015bci",
                "addr:housenumber": "7",
                "addr:city:simc": 951876,
                "addr:street:sym_ul": 14203,
                "phone": "+48 122761602",
                "email": "p3skawina@gmail.com",
                "ref:regon": "350530391",
                "ref:vatin": "PL9442012306",
                "operator": "Gmina Skawina",
                "operator:type": "government",
                "amenity": "kindergarten"
            }
        },
        {
            "id": 70621,
            "type": "Feature",
            "geometry": {
                "type": "Point",
                "coordinates": [
                    19.82783,
                    49.97545
                ]
            },
            "properties": {
                "ref:rspo": 70621,
                "official_name": "Przedszkole Samorz\u0105dowe nr 1 32-050 Skawina Ul, Ko\u015bcielna 2",
                "name": "Przedszkole Samorz\u0105dowe nr 1 32-050 Skawina Ul, Ko\u015bcielna 2",
                "addr:postcode": "32-050",
                "addr:city": "Skawina",
                "addr:street": "Ko\u015bcielna",
                "addr:housenumber": "2",
                "addr:city:simc": 951876,
                "addr:street:sym_ul": 9546,
                "phone": "+48 122763922",
                "email": "p1skawina@interia.pl",
                "website": "https:\/\/przedszkolenr1.edupage.org",
                "ref:regon": "350530416",
                "ref:vatin": "PL9442011695",
                "operator": "Gmina Skawina",
                "operator:type": "government",
                "amenity": "kindergarten"
            }
        },
        {
            "id": 92360,
            "type": "Feature",
            "geometry": {
                "type": "Point",
                "coordinates": [
                    19.82735,
                    49.97596
                ]
            },
            "properties": {
                "ref:rspo": 92360,
                "official_name": "Zesp\u00f3\u0142 Katolickich Szk\u00f3\u0142 im. Jana Paw\u0142a II w Skawinie",
                "name": "Zesp\u00f3\u0142 Katolickich Szk\u00f3\u0142",
                "addr:postcode": "32-050",
                "addr:city": "Skawina",
                "addr:street": "Ksi\u0119dza Walentego Troski",
                "addr:housenumber": "17A",
                "addr:city:simc": 951876,
                "addr:street:sym_ul": 41480,
                "phone": "+48 122763215",
                "email": "zks@zks.nq.pl",
                "website": "http:\/\/www.zks.nq.pl",
                "ref:regon": "122727360",
                "ref:vatin": "PL9442060021",
                "operator": "Rzymskokatolicka Parafia Pod Wezwaniem \u015awi\u0119tych Aposto\u0142\u00f3w Szymona I Judy Tadeusza W Skawinie",
                "operator:type": "religious",
                "landuse": "education",
                "fixme": "amenity=school, amenity=college albo landuse=education w zale\u017cno\u015bci od tego, jakie plac\u00f3wki wchodz\u0105 w sk\u0142ad zespo\u0142u. Sprawd\u017a, kiedy stosowa\u0107 amenity=* a kiedy landuse=education.",
                "note": "Children RSPO: 59912;262997"
            }
        },
        {
            "id": 59912,
            "type": "Feature",
            "geometry": {
                "type": "Point",
                "coordinates": [
                    19.82735,
                    49.97593
                ]
            },
            "properties": {
                "isced:level": "3",
                "ref:rspo": 59912,
                "official_name": "Katolickie Liceum Og\u00f3lnokszta\u0142c\u0105ce im. Jana Paw\u0142a II w Skawinie",
                "name": "Katolickie Liceum Og\u00f3lnokszta\u0142c\u0105ce",
                "addr:postcode": "32-050",
                "addr:city": "Skawina",
                "addr:street": "Ksi\u0119dza Walentego Troski",
                "addr:housenumber": "17A",
                "addr:city:simc": 951876,
                "addr:street:sym_ul": 41480,
                "phone": "+48 122763215",
                "email": "zks@zks.nq.pl",
                "website": "http:\/\/www.zks.nq.pl",
                "ref:regon": "122702466",
                "operator": "Rzymskokatolicka Parafia Pod Wezwaniem \u015awi\u0119tych Aposto\u0142\u00f3w Szymona I Judy Tadeusza W Skawinie",
                "operator:type": "religious",
                "amenity": "school",
                "note": "Parent RSPO: 92360"
            }
        },
        {
            "id": 70578,
            "type": "Feature",
            "geometry": {
                "type": "Point",
                "coordinates": [
                    19.82259,
                    49.976
                ]
            },
            "properties": {
                "ref:rspo": 70578,
                "official_name": "Biblioteka Pedagogiczna",
                "name": "Biblioteka Pedagogiczna",
                "addr:postcode": "32-050",
                "addr:city": "Skawina",
                "addr:street": "Adama Mickiewicza",
                "addr:housenumber": "26",
                "addr:city:simc": 951876,
                "addr:street:sym_ul": 12740,
                "phone": "+48 122762610",
                "email": "bibped@bibpedskawina.pl",
                "website": "http:\/\/www.bibpedskawina.pl",
                "ref:regon": "356287477",
                "ref:vatin": "PL9442024692",
                "operator": "Gmina Skawina",
                "operator:type": "government",
                "amenity": "library"
            }
        },
        {
            "id": 132753,
            "type": "Feature",
            "geometry": {
                "type": "Point",
                "coordinates": [
                    19.82374,
                    49.97614
                ]
            },
            "properties": {
                "ref:rspo": 132753,
                "official_name": "Niepubliczne Przedszkole \"Zipi Inkluzja\"",
                "name": "Niepubliczne Przedszkole \"Zipi Inkluzja\"",
                "addr:postcode": "32-050",
                "addr:city": "Skawina",
                "addr:street": "W\u0142adys\u0142awa Sikorskiego",
                "addr:housenumber": "13",
                "addr:city:simc": 951876,
                "addr:street:sym_ul": 19914,
                "phone": "+48 519549852",
                "email": "zipiinkluzja@gmail.com",
                "ref:regon": "366191657",
                "operator": "\"Fundacja Inkluzja - Edukacja W\u0142\u0105czaj\u0105ca\"",
                "operator:type": "ngo",
                "amenity": "kindergarten"
            }
        },
        {
            "id": 263620,
            "type": "Feature",
            "geometry": {
                "type": "Point",
                "coordinates": [
                    19.82374,
                    49.97611
                ]
            },
            "properties": {
                "isced:level": "1;2",
                "ref:rspo": 263620,
                "official_name": "Spo\u0142eczna Szko\u0142a Podstawowa \"Zipi Inkluzja\"",
                "name": "Spo\u0142eczna Szko\u0142a Podstawowa \"Zipi Inkluzja\"",
                "addr:postcode": "32-050",
                "addr:city": "Skawina",
                "addr:street": "W\u0142adys\u0142awa Sikorskiego",
                "addr:housenumber": "13",
                "addr:city:simc": 951876,
                "addr:street:sym_ul": 19914,
                "phone": "+48 504295132",
                "email": "zipiinkluzja@gmail.com",
                "ref:regon": "368210301",
                "operator": "\"Fundacja Inkluzja - Edukacja W\u0142\u0105czaj\u0105ca\"",
                "operator:type": "ngo",
                "amenity": "school"
            }
        },
        {
            "id": 262997,
            "type": "Feature",
            "geometry": {
                "type": "Point",
                "coordinates": [
                    19.82648,
                    49.97678
                ]
            },
            "properties": {
                "isced:level": "1;2",
                "ref:rspo": 262997,
                "official_name": "Katolicka Szko\u0142a Podstawowa im. Jana Paw\u0142a II w Skawinie",
                "name": "Katolicka Szko\u0142a Podstawowa",
                "addr:postcode": "32-050",
                "addr:city": "Skawina",
                "addr:street": "W\u0119gierska",
                "addr:housenumber": "3 A",
                "addr:city:simc": 951876,
                "addr:street:sym_ul": 23923,
                "phone": "+48 124445570",
                "email": "zks@zks.nq.pl",
                "website": "http:\/\/www.zks.nq.pl",
                "ref:regon": "368087600",
                "operator": "Rzymskokatolicka Parafia Pod Wezwaniem \u015awi\u0119tych Aposto\u0142\u00f3w Szymona I Judy Tadeusza W Skawinie",
                "operator:type": "religious",
                "amenity": "school",
                "note": "Parent RSPO: 92360"
            }
        },
        {
            "id": 70581,
            "type": "Feature",
            "geometry": {
                "type": "Point",
                "coordinates": [
                    19.7763517,
                    49.9786233
                ]
            },
            "properties": {
                "ref:rspo": 70581,
                "official_name": "Zesp\u00f3\u0142 Plac\u00f3wek O\u015bwiatowych w Kopance",
                "name": "Zesp\u00f3\u0142 Plac\u00f3wek O\u015bwiatowych w Kopance",
                "addr:postcode": "32-050",
                "addr:city": "Kopanka",
                "addr:street": "Skawi\u0144ska",
                "addr:housenumber": "59",
                "addr:city:simc": 335137,
                "addr:street:sym_ul": 20033,
                "phone": "+48 122763224",
                "email": "zpokopanka@gmail.com",
                "website": "http:\/\/www.zpokopanka.edupage.org",
                "ref:regon": "001098350",
                "ref:vatin": "PL9442010336",
                "operator": "Gmina Skawina",
                "operator:type": "government",
                "landuse": "education",
                "fixme": "amenity=school, amenity=college albo landuse=education w zale\u017cno\u015bci od tego, jakie plac\u00f3wki wchodz\u0105 w sk\u0142ad zespo\u0142u. Sprawd\u017a, kiedy stosowa\u0107 amenity=* a kiedy landuse=education.",
                "note": "Children RSPO: 107115;109480"
            }
        },
        {
            "id": 107115,
            "type": "Feature",
            "geometry": {
                "type": "Point",
                "coordinates": [
                    19.7763517,
                    49.9785933
                ]
            },
            "properties": {
                "ref:rspo": 107115,
                "official_name": "Przedszkole Samorz\u0105dowe w Kopance, 32-050 Kopanka, Ul. Skawi\u0144ska 59",
                "name": "Przedszkole Samorz\u0105dowe w Kopance, 32-050 Kopanka, Ul. Skawi\u0144ska 59",
                "addr:postcode": "32-050",
                "addr:city": "Kopanka",
                "addr:street": "Skawi\u0144ska",
                "addr:housenumber": "59",
                "addr:city:simc": 335137,
                "addr:street:sym_ul": 20033,
                "phone": "+48 122763224",
                "email": "zpokopanka@gmail.com",
                "ref:regon": "356277875",
                "operator": "Gmina Skawina",
                "operator:type": "government",
                "amenity": "kindergarten",
                "note": "Parent RSPO: 70581"
            }
        },
        {
            "id": 109480,
            "type": "Feature",
            "geometry": {
                "type": "Point",
                "coordinates": [
                    19.7763517,
                    49.978563300000005
                ]
            },
            "properties": {
                "isced:level": "1;2",
                "ref:rspo": 109480,
                "official_name": "Szko\u0142a Podstawowa w Kopance, 32-050 Kopanka, Ul. Skawi\u0144ska 59",
                "name": "Szko\u0142a Podstawowa w Kopance, 32-050 Kopanka, Ul. Skawi\u0144ska 59",
                "addr:postcode": "32-050",
                "addr:city": "Kopanka",
                "addr:street": "Skawi\u0144ska",
                "addr:housenumber": "59",
                "addr:city:simc": 335137,
                "addr:street:sym_ul": 20033,
                "phone": "+48 122763224",
                "email": "zpokopanka@gmail.com",
                "website": "http:\/\/zpokopanka.edupage.org",
                "ref:regon": "356277846",
                "ref:vatin": "PL9442010336",
                "operator": "Gmina Skawina",
                "operator:type": "government",
                "amenity": "school",
                "note": "Parent RSPO: 70581"
            }
        },
        {
            "id": 277202,
            "type": "Feature",
            "geometry": {
                "type": "Point",
                "coordinates": [
                    19.84483,
                    49.9879
                ]
            },
            "properties": {
                "ref:rspo": 277202,
                "official_name": "Niepubliczne Przedszkole \"Majowa \u0141\u0105ka\" w Skawinie",
                "name": "Niepubliczne Przedszkole \"Majowa \u0141\u0105ka\" w Skawinie",
                "addr:postcode": "32-050",
                "addr:city": "Skawina",
                "addr:street": "Krakowska",
                "addr:housenumber": "64",
                "addr:city:simc": 951876,
                "addr:street:sym_ul": 9796,
                "phone": "+48 502238925",
                "email": "przedszkolemajowa@gmail.com",
                "ref:regon": "388331414",
                "operator": "Agnieszka Opa\u0142ko-Krochmal",
                "operator:type": "private",
                "amenity": "kindergarten"
            }
        },
        {
            "id": 125379,
            "type": "Feature",
            "geometry": {
                "type": "Point",
                "coordinates": [
                    19.84674,
                    49.98904
                ]
            },
            "properties": {
                "ref:rspo": 125379,
                "official_name": "Niepubliczny Specjalny Punkt Przedszkolny \"Teraz My\" 32-050 Skawina, Ul. Lipowa 10",
                "name": "Niepubliczny Specjalny Punkt Przedszkolny \"Teraz My\" 32-050 Skawina, Ul. Lipowa 10",
                "addr:postcode": "32-050",
                "addr:city": "Skawina",
                "addr:street": "Lipowa",
                "addr:housenumber": "10",
                "addr:city:simc": 951876,
                "addr:street:sym_ul": 11139,
                "phone": "+48 880172436",
                "email": "skawina@teraz-my.eu",
                "ref:regon": "123217626",
                "operator": "Barbara Mikrut",
                "operator:type": "private",
                "amenity": "kindergarten"
            }
        },
        {
            "id": 122175,
            "type": "Feature",
            "geometry": {
                "type": "Point",
                "coordinates": [
                    19.76086,
                    50.14988
                ]
            },
            "properties": {
                "ref:rspo": 122175,
                "official_name": "Przedszkole Samorz\u0105dowe im. Marii Konopnickiej 32-053 Wola Radziszowska Ul. \u015aw. Jana Paw\u0142a II 6",
                "name": "Przedszkole Samorz\u0105dowe",
                "addr:postcode": "32-053",
                "addr:city": "Wola Radziszowska",
                "addr:street": "\u015awi\u0119tego Jana Paw\u0142a II",
                "addr:housenumber": "6",
                "addr:city:simc": 335628,
                "addr:street:sym_ul": 46615,
                "phone": "+48 122754232",
                "email": "sekretariat@wr.edu.pl",
                "ref:regon": "356278030",
                "ref:vatin": "PL9442013375",
                "operator": "Gmina Skawina",
                "operator:type": "government",
                "amenity": "kindergarten",
                "note": "Parent RSPO: 70582"
            }
        }
    ]
}