{
    "type": "FeatureCollection",
    "features": [
        {
            "id": 17255,
            "type": "Feature",
            "geometry": {
                "type": "Point",
                "coordinates": [
                    19.80886,
                    49.93924
                ]
            },
            "properties": {
                "ref:rspo": 17255,
                "official_name": "Zesp\u00f3\u0142 Szk\u00f3\u0142 Og\u00f3lnokszta\u0142c\u0105cych im. Kazimierza Wielkiego w S\u0142omnikach",
                "name": "Zesp\u00f3\u0142 Szk\u00f3\u0142 Og\u00f3lnokszta\u0142c\u0105cych",
                "addr:postcode": "32-090",
                "addr:city": "S\u0142omniki",
                "addr:street": "\u015awi\u0119tego Jana Paw\u0142a II",
                "addr:housenumber": "2",
                "addr:city:simc": 952077,
                "addr:street:sym_ul": 46615,
                "phone": "+48 123881125",
                "email": "sekretariat@zsoslomniki.pl",
                "website": "http:\/\/www.zso.slomniki.pl",
                "ref:regon": "351205351",
                "ref:vatin": "PL9442048267",
                "operator": "Gmina S\u0142omniki",
                "operator:type": "government",
                "landuse": "education",
                "fixme": "amenity=school, amenity=college albo landuse=education w zale\u017cno\u015bci od tego, jakie plac\u00f3wki wchodz\u0105 w sk\u0142ad zespo\u0142u. Sprawd\u017a, kiedy stosowa\u0107 amenity=* a kiedy landuse=education.",
                "note": "Children RSPO: 30258;61445;119397"
            }
        },
        {
            "id": 30258,
            "type": "Feature",
            "geometry": {
                "type": "Point",
                "coordinates": [
                    19.80886,
                    49.939209999999996
                ]
            },
            "properties": {
                "isced:level": "1;2",
                "ref:rspo": 30258,
                "official_name": "Szko\u0142a Podstawowa w Zespole Szk\u00f3\u0142 Og\u00f3lnokszta\u0142c\u0105cych im. Kazimierza Wielkiego w S\u0142omnikach",
                "name": "Szko\u0142a Podstawowa w Zespole Szk\u00f3\u0142 Og\u00f3lnokszta\u0142c\u0105cych",
                "addr:postcode": "32-090",
                "addr:city": "S\u0142omniki",
                "addr:street": "\u015awi\u0119tego Jana Paw\u0142a II",
                "addr:housenumber": "2",
                "addr:city:simc": 952077,
                "addr:street:sym_ul": 46615,
                "phone": "+48 123881125",
                "email": "sekretariat@zsoslomniki.pl",
                "website": "http:\/\/www.zso.slomniki.pl",
                "ref:regon": "120033570",
                "ref:vatin": "PL9442048273",
                "operator": "Gmina S\u0142omniki",
                "operator:type": "government",
                "amenity": "school",
                "note": "Parent RSPO: 17255"
            }
        },
        {
            "id": 61445,
            "type": "Feature",
            "geometry": {
                "type": "Point",
                "coordinates": [
                    19.80886,
                    49.93918
                ]
            },
            "properties": {
                "isced:level": "3",
                "ref:rspo": 61445,
                "official_name": "Liceum Og\u00f3lnokszta\u0142c\u0105ce w Zespole Szk\u00f3\u0142 Og\u00f3lnokszta\u0142c\u0105cych im. Kazimierza Wielkiego w S\u0142omnikach",
                "name": "Liceum Og\u00f3lnokszta\u0142c\u0105ce w Zespole Szk\u00f3\u0142 Og\u00f3lnokszta\u0142c\u0105cych",
                "addr:postcode": "32-090",
                "addr:city": "S\u0142omniki",
                "addr:street": "\u015awi\u0119tego Jana Paw\u0142a II",
                "addr:housenumber": "2",
                "addr:city:simc": 952077,
                "addr:street:sym_ul": 46615,
                "phone": "+48 123881125",
                "email": "sekretariat@zsoslomniki.pl",
                "website": "http:\/\/www.zso.slomniki.pl",
                "ref:regon": "120033529",
                "ref:vatin": "PL9442048273",
                "operator": "Gmina S\u0142omniki",
                "operator:type": "government",
                "amenity": "school",
                "note": "Parent RSPO: 17255"
            }
        },
        {
            "id": 119397,
            "type": "Feature",
            "geometry": {
                "type": "Point",
                "coordinates": [
                    19.80886,
                    49.93915
                ]
            },
            "properties": {
                "ref:rspo": 119397,
                "official_name": "Szko\u0142a Muzyczna I Stopnia w S\u0142omnikach",
                "name": "Szko\u0142a Muzyczna I Stopnia w S\u0142omnikach",
                "addr:postcode": "32-090",
                "addr:city": "S\u0142omniki",
                "addr:street": "\u015awi\u0119tego Jana Paw\u0142a II",
                "addr:housenumber": "2",
                "addr:city:simc": 952077,
                "addr:street:sym_ul": 46615,
                "phone": "+48 123881125",
                "email": "muzyczna.slomniki@gmail.com",
                "website": "http:\/\/zsoslomniki.pl\/szkolamuzyczna",
                "ref:regon": "122934610",
                "ref:vatin": "PL9442048273",
                "operator": "Gmina S\u0142omniki",
                "operator:type": "government",
                "amenity": "music_school",
                "note": "Parent RSPO: 17255"
            }
        },
        {
            "id": 17239,
            "type": "Feature",
            "geometry": {
                "type": "Point",
                "coordinates": [
                    19.65544,
                    50.05086
                ]
            },
            "properties": {
                "ref:rspo": 17239,
                "official_name": "Przedszkole Samorz\u0105dowe w S\u0142omnikach",
                "name": "Przedszkole Samorz\u0105dowe w S\u0142omnikach",
                "addr:postcode": "32-090",
                "addr:city": "S\u0142omniki",
                "addr:street": "\u015awi\u0119tej Jadwigi Kr\u00f3lowej",
                "addr:housenumber": "4",
                "addr:city:simc": 952077,
                "addr:street:sym_ul": 31858,
                "email": "sekretariat@przedszkoleslomniki.pl",
                "website": "http:\/\/przedszkoleslomniki.pl",
                "ref:regon": "350018606",
                "ref:vatin": "PL9442048267",
                "operator": "Gmina S\u0142omniki",
                "operator:type": "government",
                "amenity": "kindergarten"
            }
        },
        {
            "id": 27319,
            "type": "Feature",
            "geometry": {
                "type": "Point",
                "coordinates": [
                    19.9163572,
                    50.0642242
                ]
            },
            "properties": {
                "isced:level": "1;2",
                "ref:rspo": 27319,
                "official_name": "Szko\u0142a Podstawowa w Nied\u017awiedziu",
                "name": "Szko\u0142a Podstawowa w Nied\u017awiedziu",
                "addr:postcode": "32-090",
                "addr:place": "Nied\u017awied\u017a",
                "addr:housenumber": "21a",
                "addr:city:simc": 336125,
                "phone": "+48 123881537",
                "email": "zsniedzwiedz@wp.pl",
                "ref:regon": "001054280",
                "ref:vatin": "PL9442048296",
                "operator": "Gmina S\u0142omniki",
                "operator:type": "government",
                "amenity": "school"
            }
        },
        {
            "id": 17229,
            "type": "Feature",
            "geometry": {
                "type": "Point",
                "coordinates": [
                    20.1359429,
                    50.2317729
                ]
            },
            "properties": {
                "ref:rspo": 17229,
                "official_name": "Zesp\u00f3\u0142 Szk\u00f3\u0142 Z Oddzia\u0142ami Integracyjnymi I Specjalnymi im. Stanis\u0142awa Wyspia\u0144skiego w Waganowicach",
                "name": "Zesp\u00f3\u0142 Szk\u00f3\u0142 Z Oddzia\u0142ami Integracyjnymi I Specjalnymi",
                "addr:postcode": "32-090",
                "addr:place": "Waganowice",
                "addr:housenumber": "19",
                "addr:city:simc": 336496,
                "phone": "+48 123881551",
                "email": "spwaganowice@interia.pl",
                "website": "http:\/\/www.zswaganowice.pl",
                "ref:regon": "120082025",
                "ref:vatin": "PL9442048037",
                "operator": "Gmina S\u0142omniki",
                "operator:type": "government",
                "landuse": "education",
                "fixme": "amenity=school, amenity=college albo landuse=education w zale\u017cno\u015bci od tego, jakie plac\u00f3wki wchodz\u0105 w sk\u0142ad zespo\u0142u. Sprawd\u017a, kiedy stosowa\u0107 amenity=* a kiedy landuse=education.",
                "note": "Children RSPO: 27454;119629"
            }
        },
        {
            "id": 27454,
            "type": "Feature",
            "geometry": {
                "type": "Point",
                "coordinates": [
                    20.1359429,
                    50.2317429
                ]
            },
            "properties": {
                "isced:level": "1;2",
                "ref:rspo": 27454,
                "official_name": "Szko\u0142a Podstawowa w Zespole Szk\u00f3\u0142 im. Stanis\u0142awa Wyspia\u0144skiego w Waganowicach",
                "name": "Szko\u0142a Podstawowa w Zespole Szk\u00f3\u0142",
                "addr:postcode": "32-090",
                "addr:place": "Waganowice",
                "addr:housenumber": "19",
                "addr:city:simc": 336496,
                "phone": "+48 123881551",
                "email": "spwaganowice@interia.pl",
                "website": "http:\/\/zswaganowice.pl\/",
                "ref:regon": "001061185",
                "ref:vatin": "PL9442048037",
                "operator": "Gmina S\u0142omniki",
                "operator:type": "government",
                "amenity": "school",
                "note": "Parent RSPO: 17229"
            }
        },
        {
            "id": 119629,
            "type": "Feature",
            "geometry": {
                "type": "Point",
                "coordinates": [
                    20.1359429,
                    50.231712900000005
                ]
            },
            "properties": {
                "ref:rspo": 119629,
                "official_name": "Szko\u0142a Specjalna Przysposabiaj\u0105ca Do Pracy w Zespole Szk\u00f3\u0142 Z Oddzia\u0142ami Integracyjnymi I Specjalnymi im. Stanis\u0142awa Wyspia\u0144skiego w Waganowicach",
                "name": "Szko\u0142a Specjalna Przysposabiaj\u0105ca Do Pracy w Zespole Szk\u00f3\u0142 Z Oddzia\u0142ami Integracyjnymi I Specjalnymi",
                "addr:postcode": "32-090",
                "addr:place": "Waganowice",
                "addr:housenumber": "19",
                "addr:city:simc": 336496,
                "phone": "+48 123881551",
                "email": "spwaganowice@interia.pl",
                "website": "http:\/\/zswaganowice.pl\/",
                "ref:regon": "122937650",
                "operator": "Gmina S\u0142omniki",
                "operator:type": "government",
                "amenity": "school",
                "note": "Parent RSPO: 17229"
            }
        },
        {
            "id": 24927,
            "type": "Feature",
            "geometry": {
                "type": "Point",
                "coordinates": [
                    20.08269,
                    50.242
                ]
            },
            "properties": {
                "ref:rspo": 24927,
                "official_name": "Pedagogiczna Biblioteka Wojew\u00f3dzka im. Hugona Ko\u0142\u0142\u0105taja w Krakowie Filia w S\u0142omnikach",
                "name": "Pedagogiczna Biblioteka Wojew\u00f3dzka",
                "addr:postcode": "32-090",
                "addr:city": "S\u0142omniki",
                "addr:street": "Tadeusza Ko\u015bciuszki",
                "addr:housenumber": "20",
                "addr:city:simc": 952077,
                "addr:street:sym_ul": 9582,
                "phone": "+48 123882599",
                "website": "http:\/\/sites.google.com\/site\/biblslom\/home",
                "ref:regon": "197729000",
                "operator": "Wojew\u00f3dztwo Ma\u0142opolskie",
                "operator:type": "government",
                "amenity": "library",
                "note": "Parent RSPO: 19644"
            }
        },
        {
            "id": 105733,
            "type": "Feature",
            "geometry": {
                "type": "Point",
                "coordinates": [
                    20.08286,
                    50.24239
                ]
            },
            "properties": {
                "ref:rspo": 105733,
                "official_name": "Specjalistyczna Poradnia Psychologiczno-Pedagogiczna Powiatu Krakowskiego - Filia w S\u0142omnikach",
                "name": "Specjalistyczna Poradnia Psychologiczno-Pedagogiczna Powiatu Krakowskiego - Filia w S\u0142omnikach",
                "addr:postcode": "32-090",
                "addr:city": "S\u0142omniki",
                "addr:street": "Tadeusza Ko\u015bciuszki",
                "addr:housenumber": "26",
                "addr:city:simc": 952077,
                "addr:street:sym_ul": 9582,
                "phone": "+48 124426980",
                "email": "poradnia.slomniki@gmail.com",
                "website": "http:\/\/www.spppp.powiat.krakow.pl",
                "ref:regon": "705717000",
                "operator": "Powiat Krakowski",
                "operator:type": "government",
                "healthcare": "counselling",
                "counselling_type": "education",
                "fixme": "w zale\u017cno\u015bci od przedmiotu dzia\u0142alno\u015bci (np. healthcare=counselling + counselling_type=education albo healthcare=psychotherapist)",
                "note": "Parent RSPO: 18163"
            }
        },
        {
            "id": 265919,
            "type": "Feature",
            "geometry": {
                "type": "Point",
                "coordinates": [
                    20.0824399,
                    50.24282
                ]
            },
            "properties": {
                "ref:rspo": 265919,
                "official_name": "Niepubliczny Punkt Przedszkolny \"Origo\"",
                "name": "Niepubliczny Punkt Przedszkolny \"Origo\"",
                "addr:postcode": "32-090",
                "addr:city": "S\u0142omniki",
                "addr:street": "Tadeusza Ko\u015bciuszki",
                "addr:housenumber": "25",
                "addr:city:simc": 952077,
                "addr:street:sym_ul": 9582,
                "ref:regon": "369020896",
                "operator": "Justyna Lasak",
                "operator:type": "private",
                "amenity": "kindergarten"
            }
        },
        {
            "id": 17139,
            "type": "Feature",
            "geometry": {
                "type": "Point",
                "coordinates": [
                    20.0541829,
                    50.2544856
                ]
            },
            "properties": {
                "isced:level": "1;2",
                "ref:rspo": 17139,
                "official_name": "Szko\u0142a Podstawowa w Kacicach",
                "name": "Szko\u0142a Podstawowa w Kacicach",
                "addr:postcode": "32-090",
                "addr:place": "Kacice",
                "addr:housenumber": "80",
                "addr:city:simc": 335982,
                "phone": "+48 123881023",
                "email": "sp.kacice@wp.pl",
                "ref:regon": "001054305",
                "ref:vatin": "PL9442048250",
                "operator": "Gmina S\u0142omniki",
                "operator:type": "government",
                "amenity": "school"
            }
        },
        {
            "id": 27194,
            "type": "Feature",
            "geometry": {
                "type": "Point",
                "coordinates": [
                    20.091583,
                    50.2660799
                ]
            },
            "properties": {
                "isced:level": "1;2",
                "ref:rspo": 27194,
                "official_name": "Szko\u0142a Podstawowa w Prandocinie",
                "name": "Szko\u0142a Podstawowa w Prandocinie",
                "addr:postcode": "32-090",
                "addr:place": "Prandocin",
                "addr:housenumber": "64a",
                "addr:city:simc": 336243,
                "phone": "+48 123881003",
                "email": "sekretariat@zsprandocin.pl",
                "website": "http:\/\/zsprandocin.pl",
                "ref:regon": "001054328",
                "ref:vatin": "PL9442048043",
                "operator": "Gmina S\u0142omniki",
                "operator:type": "government",
                "amenity": "school"
            }
        },
        {
            "id": 17069,
            "type": "Feature",
            "geometry": {
                "type": "Point",
                "coordinates": [
                    20.032257,
                    50.2809199
                ]
            },
            "properties": {
                "ref:rspo": 17069,
                "official_name": "Zesp\u00f3\u0142 Szk\u00f3\u0142 im. Jana Paw\u0142a II w Smrokowie",
                "name": "Zesp\u00f3\u0142 Szk\u00f3\u0142",
                "addr:postcode": "32-090",
                "addr:place": "Smrok\u00f3w",
                "addr:housenumber": "44a",
                "addr:city:simc": 336415,
                "phone": "+48 123880500",
                "email": "smrokow@interia.pl",
                "website": "http:\/\/www.zs-smrokow.iap.pl",
                "ref:regon": "351207516",
                "ref:vatin": "PL9442048267",
                "operator": "Gmina S\u0142omniki",
                "operator:type": "government",
                "landuse": "education",
                "fixme": "amenity=school, amenity=college albo landuse=education w zale\u017cno\u015bci od tego, jakie plac\u00f3wki wchodz\u0105 w sk\u0142ad zespo\u0142u. Sprawd\u017a, kiedy stosowa\u0107 amenity=* a kiedy landuse=education.",
                "note": "Children RSPO: 24791;27414"
            }
        },
        {
            "id": 24791,
            "type": "Feature",
            "geometry": {
                "type": "Point",
                "coordinates": [
                    20.032257,
                    50.2808899
                ]
            },
            "properties": {
                "isced:level": "1;2",
                "ref:rspo": 24791,
                "official_name": "Szko\u0142a Podstawowa w Zespole Szk\u00f3\u0142 im. Jana Paw\u0142a II w Smrokowie",
                "name": "Szko\u0142a Podstawowa w Zespole Szk\u00f3\u0142",
                "addr:postcode": "32-090",
                "addr:place": "Smrok\u00f3w",
                "addr:housenumber": "44a",
                "addr:city:simc": 336415,
                "phone": "+48 123880500",
                "email": "smrokow@interia.pl",
                "website": "http:\/\/www.zs-smrokow.iap.pl",
                "ref:regon": "356718049",
                "ref:vatin": "PL9442048267",
                "operator": "Gmina S\u0142omniki",
                "operator:type": "government",
                "amenity": "school",
                "note": "Parent RSPO: 17069"
            }
        },
        {
            "id": 27414,
            "type": "Feature",
            "geometry": {
                "type": "Point",
                "coordinates": [
                    20.032257,
                    50.2808599
                ]
            },
            "properties": {
                "isced:level": "3",
                "ref:rspo": 27414,
                "official_name": "Bran\u017cowa Szko\u0142a I Stopnia w Zespole Szk\u00f3\u0142 im. Jana Paw\u0142a II w Smrokowie",
                "name": "Bran\u017cowa Szko\u0142a I Stopnia w Zespole Szk\u00f3\u0142",
                "addr:postcode": "32-090",
                "addr:place": "Smrok\u00f3w",
                "addr:housenumber": "44a",
                "addr:city:simc": 336415,
                "phone": "+48 123880500",
                "email": "smrokow@interia.pl",
                "website": "http:\/\/www.zs-smrokow.iap.pl",
                "ref:regon": "356718055",
                "ref:vatin": "PL9442048267",
                "operator": "Gmina S\u0142omniki",
                "operator:type": "government",
                "amenity": "school",
                "note": "Parent RSPO: 17069"
            }
        }
    ]
}