{
    "type": "FeatureCollection",
    "features": [
        {
            "id": 128989,
            "type": "Feature",
            "geometry": {
                "type": "Point",
                "coordinates": [
                    19.5526498,
                    50.0613583
                ]
            },
            "properties": {
                "ref:rspo": 128989,
                "official_name": "Publiczny Punkt Przedszkolny w Rudnie",
                "name": "Publiczny Punkt Przedszkolny w Rudnie",
                "addr:postcode": "32-067",
                "addr:place": "Rudno",
                "addr:housenumber": "48A",
                "addr:teryt:simc": 324613,
                "phone": "+48 505352561",
                "email": "srwrudno@interia.pl",
                "ref:regon": "362440626",
                "operator": "Stowarzyszenie Rozwoju Wsi Rudno",
                "operator:type": "ngo",
                "amenity": "kindergarten"
            }
        },
        {
            "id": 129005,
            "type": "Feature",
            "geometry": {
                "type": "Point",
                "coordinates": [
                    19.5526498,
                    50.0613283
                ]
            },
            "properties": {
                "isced:level": "1;2",
                "ref:rspo": 129005,
                "official_name": "Szko\u0142a Podstawowa w Rudnie",
                "name": "Szko\u0142a Podstawowa w Rudnie",
                "addr:postcode": "32-067",
                "addr:place": "Rudno",
                "addr:housenumber": "48",
                "addr:teryt:simc": 324613,
                "phone": "+48 505352561",
                "email": "srwrudno@interia.pl",
                "ref:regon": "362444268",
                "operator": "Stowarzyszenie Rozwoju Wsi Rudno",
                "operator:type": "ngo",
                "amenity": "school"
            }
        },
        {
            "id": 89603,
            "type": "Feature",
            "geometry": {
                "type": "Point",
                "coordinates": [
                    19.59033,
                    50.07989
                ]
            },
            "properties": {
                "isced:level": "1;2",
                "ref:rspo": 89603,
                "official_name": "Szko\u0142a Podstawowa im. Tadeusza Ko\u015bciuszki w Zalasiu",
                "name": "Szko\u0142a Podstawowa",
                "addr:postcode": "32-067",
                "addr:city": "Zalas",
                "addr:street": "Ludwika Siudy",
                "addr:housenumber": "6",
                "addr:teryt:simc": 324910,
                "addr:teryt:sym_ul": 53358,
                "phone": "+48 122836064",
                "email": "sp.zalas@wp.pl",
                "website": "http:\/\/spzalas.edupage.org",
                "ref:regon": "351240867",
                "ref:vatin": "PL5130015020",
                "operator": "Gmina Krzeszowice",
                "operator:type": "government",
                "amenity": "school"
            }
        },
        {
            "id": 89614,
            "type": "Feature",
            "geometry": {
                "type": "Point",
                "coordinates": [
                    19.61649,
                    50.11313
                ]
            },
            "properties": {
                "isced:level": "1;2",
                "ref:rspo": 89614,
                "official_name": "Szko\u0142a Podstawowa im. W\u0142adys\u0142awa Jagie\u0142\u0142y w Tenczynku",
                "name": "Szko\u0142a Podstawowa",
                "addr:postcode": "32-067",
                "addr:city": "Tenczynek",
                "addr:street": "Szkolna",
                "addr:housenumber": "6",
                "addr:teryt:simc": 324760,
                "addr:teryt:sym_ul": 21970,
                "phone": "+48 122821716",
                "email": "szkola1900@o2.pl",
                "ref:regon": "351274620",
                "ref:vatin": "PL5130015014",
                "operator": "Gmina Krzeszowice",
                "operator:type": "government",
                "amenity": "school"
            }
        },
        {
            "id": 83619,
            "type": "Feature",
            "geometry": {
                "type": "Point",
                "coordinates": [
                    19.66813,
                    50.11539
                ]
            },
            "properties": {
                "isced:level": "1;2",
                "ref:rspo": 83619,
                "official_name": "Szko\u0142a Podstawowa im. Marsza\u0142ka J\u00f3zefa Pi\u0142sudskiego w Nawojowej G\u00f3rze",
                "name": "Szko\u0142a Podstawowa",
                "addr:postcode": "32-065",
                "addr:city": "Nawojowa G\u00f3ra",
                "addr:street": "Szkolna",
                "addr:housenumber": "1",
                "addr:teryt:simc": 324286,
                "addr:teryt:sym_ul": 21970,
                "phone": "+48 122820754",
                "email": "spnawojowa@wp.pl",
                "website": "http:\/\/www.spnawojowa.edupage.org",
                "ref:regon": "351255691",
                "ref:vatin": "PL6761068405",
                "operator": "Gmina Krzeszowice",
                "operator:type": "government",
                "amenity": "school"
            }
        },
        {
            "id": 85268,
            "type": "Feature",
            "geometry": {
                "type": "Point",
                "coordinates": [
                    19.61658,
                    50.1171
                ]
            },
            "properties": {
                "ref:rspo": 85268,
                "official_name": "Przedszkole Samorz\u0105dowe w Tenczynku",
                "name": "Przedszkole Samorz\u0105dowe w Tenczynku",
                "addr:postcode": "32-067",
                "addr:city": "Tenczynek",
                "addr:street": "W\u0142adys\u0142awa Reymonta",
                "addr:housenumber": "3",
                "addr:teryt:simc": 324760,
                "addr:teryt:sym_ul": 18648,
                "phone": "+48 122821717",
                "email": "przedszkoletenczynek@op.pl",
                "ref:regon": "351449410",
                "ref:vatin": "PL6761113933",
                "operator": "Gmina Krzeszowice",
                "operator:type": "government",
                "amenity": "kindergarten"
            }
        },
        {
            "id": 83893,
            "type": "Feature",
            "geometry": {
                "type": "Point",
                "coordinates": [
                    19.6890748,
                    50.1209813
                ]
            },
            "properties": {
                "isced:level": "1;2",
                "ref:rspo": 83893,
                "official_name": "Szko\u0142a Podstawowa im. Jana Brzechwy w Sance",
                "name": "Szko\u0142a Podstawowa",
                "addr:postcode": "32-067",
                "addr:place": "Sanka",
                "addr:housenumber": "266",
                "addr:teryt:simc": 324702,
                "phone": "+48 122836061",
                "email": "spsanka@wp.pl",
                "ref:regon": "351330375",
                "ref:vatin": "PL6761067860",
                "operator": "Gmina Krzeszowice",
                "operator:type": "government",
                "amenity": "school"
            }
        },
        {
            "id": 86764,
            "type": "Feature",
            "geometry": {
                "type": "Point",
                "coordinates": [
                    19.66355,
                    50.12698
                ]
            },
            "properties": {
                "ref:rspo": 86764,
                "official_name": "Niepubliczne Przedszkole \"Zielone Przedszkole\" w Nawojowej G\u00f3rze",
                "name": "Niepubliczne Przedszkole \"Zielone Przedszkole\" w Nawojowej G\u00f3rze",
                "addr:postcode": "32-065",
                "addr:city": "Nawojowa G\u00f3ra",
                "addr:street": "Krakowska",
                "addr:housenumber": "36",
                "addr:teryt:simc": 324286,
                "addr:teryt:sym_ul": 9796,
                "phone": "+48 507700000",
                "email": "monikaw1@onet.eu",
                "website": "http:\/\/www.zielone-przedszkole.eu",
                "ref:regon": "122711028",
                "ref:vatin": "PL6761506414",
                "operator": "Monika Wolszewska",
                "operator:type": "private",
                "amenity": "kindergarten"
            }
        },
        {
            "id": 130034,
            "type": "Feature",
            "geometry": {
                "type": "Point",
                "coordinates": [
                    19.6088,
                    50.1306299
                ]
            },
            "properties": {
                "ref:rspo": 130034,
                "official_name": "Niepubliczne \"T\u0119czowe Przedszkole\"",
                "name": "Niepubliczne \"T\u0119czowe Przedszkole\"",
                "addr:postcode": "32-065",
                "addr:city": "Krzeszowice",
                "addr:street": "Trzebi\u0144ska",
                "addr:housenumber": "52",
                "addr:teryt:simc": 951570,
                "addr:teryt:sym_ul": 23071,
                "phone": "+48 535900911",
                "email": "kontakt@teczowe-przedszkole.com",
                "website": "http:\/\/www.teczowe-przedszkole.com",
                "ref:regon": "363344480",
                "ref:vatin": "PL5130127405",
                "operator": "Progres Joanna Ry\u015b",
                "operator:type": "consortium",
                "amenity": "kindergarten"
            }
        },
        {
            "id": 266680,
            "type": "Feature",
            "geometry": {
                "type": "Point",
                "coordinates": [
                    19.6200301,
                    50.131791
                ]
            },
            "properties": {
                "ref:rspo": 266680,
                "official_name": "Lokomotywa-Niepubliczne Przedszkole w Krzeszowicach",
                "name": "Lokomotywa-Niepubliczne Przedszkole w Krzeszowicach",
                "addr:postcode": "32-065",
                "addr:city": "Krzeszowice",
                "addr:street": "Tadeusza Ko\u015bciuszki",
                "addr:housenumber": "37",
                "addr:teryt:simc": 951570,
                "addr:teryt:sym_ul": 32578,
                "email": "efs@malopolska.edu.pl",
                "website": "http:\/\/www.lokomotywa.net.pl",
                "ref:regon": "369653147",
                "operator": "Ma\u0142opolskie Centrum Edukacji Lokomotywa Sp\u00f3\u0142ka Z Ograniczon\u0105 Odpowiedzialno\u015bci\u0105",
                "operator:type": "private",
                "amenity": "kindergarten"
            }
        },
        {
            "id": 83908,
            "type": "Feature",
            "geometry": {
                "type": "Point",
                "coordinates": [
                    19.585,
                    50.13249
                ]
            },
            "properties": {
                "ref:rspo": 83908,
                "official_name": "Zesp\u00f3\u0142 Plac\u00f3wek O\u015bwiatowych w Woli Filipowskiej",
                "name": "Zesp\u00f3\u0142 Plac\u00f3wek O\u015bwiatowych w Woli Filipowskiej",
                "addr:postcode": "32-065",
                "addr:city": "Wola Filipowska",
                "addr:street": "Szkolna",
                "addr:housenumber": "2",
                "addr:teryt:simc": 324843,
                "addr:teryt:sym_ul": 21970,
                "phone": "+48 122820208",
                "email": "zswola@wp.pl",
                "ref:regon": "356555699",
                "ref:vatin": "PL5130013682",
                "operator": "Gmina Krzeszowice",
                "operator:type": "government",
                "landuse": "education",
                "fixme": "amenity=school, amenity=college albo landuse=education w zale\u017cno\u015bci od tego, jakie plac\u00f3wki wchodz\u0105 w sk\u0142ad zespo\u0142u. Sprawd\u017a, kiedy stosowa\u0107 amenity=* a kiedy landuse=education.",
                "note": "Children RSPO: 89635;90199"
            }
        },
        {
            "id": 89635,
            "type": "Feature",
            "geometry": {
                "type": "Point",
                "coordinates": [
                    19.585,
                    50.132459999999995
                ]
            },
            "properties": {
                "isced:level": "1;2",
                "ref:rspo": 89635,
                "official_name": "Zesp\u00f3\u0142 Plac\u00f3wek O\u015bwiatowych Szko\u0142a Podstawowa im. J\u00f3zefa Bema w Woli Filipowskiej",
                "name": "Zesp\u00f3\u0142 Plac\u00f3wek O\u015bwiatowych Szko\u0142a Podstawowa",
                "addr:postcode": "32-065",
                "addr:city": "Wola Filipowska",
                "addr:street": "Szkolna",
                "addr:housenumber": "2",
                "addr:teryt:simc": 324843,
                "addr:teryt:sym_ul": 21970,
                "phone": "+48 122820208",
                "email": "zswola@wp.pl",
                "ref:regon": "351257767",
                "operator": "Gmina Krzeszowice",
                "operator:type": "government",
                "amenity": "school",
                "note": "Parent RSPO: 83908"
            }
        },
        {
            "id": 90199,
            "type": "Feature",
            "geometry": {
                "type": "Point",
                "coordinates": [
                    19.585,
                    50.13243
                ]
            },
            "properties": {
                "ref:rspo": 90199,
                "official_name": "Zesp\u00f3\u0142 Plac\u00f3wek O\u015bwiatowych Przedszkole Samorz\u0105dowe w Woli Filipowskiej",
                "name": "Zesp\u00f3\u0142 Plac\u00f3wek O\u015bwiatowych Przedszkole Samorz\u0105dowe w Woli Filipowskiej",
                "addr:postcode": "32-065",
                "addr:city": "Wola Filipowska",
                "addr:street": "Szkolna",
                "addr:housenumber": "2",
                "addr:teryt:simc": 324843,
                "addr:teryt:sym_ul": 21970,
                "phone": "+48 122820208",
                "email": "zswola@wp.pl",
                "ref:regon": "357133227",
                "operator": "Gmina Krzeszowice",
                "operator:type": "government",
                "amenity": "kindergarten",
                "note": "Parent RSPO: 83908"
            }
        },
        {
            "id": 86761,
            "type": "Feature",
            "geometry": {
                "type": "Point",
                "coordinates": [
                    19.61818,
                    50.13342
                ]
            },
            "properties": {
                "ref:rspo": 86761,
                "official_name": "Przedszkole Zgromadzenia Si\u00f3str Mi\u0142osierdzia w Krzeszowicach",
                "name": "Przedszkole Zgromadzenia Si\u00f3str Mi\u0142osierdzia w Krzeszowicach",
                "addr:postcode": "32-065",
                "addr:city": "Krzeszowice",
                "addr:street": "Nowa Wie\u015b",
                "addr:housenumber": "59",
                "addr:teryt:simc": 951570,
                "addr:teryt:sym_ul": 14340,
                "phone": "+48 122820143",
                "email": "przedszkolesm@interia.pl",
                "website": "http:\/\/www.przedszkole-sm.pl",
                "ref:regon": "122714989",
                "ref:vatin": "PL6762018527",
                "operator": "Zg.ss.mi\u0142osierdzia \u015aw.wincentego A Paulo, Prowincja Krakowska",
                "operator:type": "religious",
                "amenity": "kindergarten"
            }
        },
        {
            "id": 75591,
            "type": "Feature",
            "geometry": {
                "type": "Point",
                "coordinates": [
                    19.62779,
                    50.13382
                ]
            },
            "properties": {
                "ref:rspo": 75591,
                "official_name": "Pa\u0144stwowa Szko\u0142a Muzyczna I St. im. Zygmunta Noskowskiego w Krzeszowicach",
                "name": "Pa\u0144stwowa Szko\u0142a Muzyczna I St.",
                "addr:postcode": "32-065",
                "addr:city": "Krzeszowice",
                "addr:street": "Ogrodowa",
                "addr:housenumber": "7",
                "addr:teryt:simc": 951570,
                "addr:teryt:sym_ul": 14834,
                "phone": "+48 122820825",
                "email": "psm1st_krzeszowice@poczta.onet.pl",
                "website": "http:\/\/psm-krzeszowice.pl",
                "ref:regon": "000276630",
                "operator": "Ministerstwo Kultury I Dziedzictwa Narodowego",
                "operator:type": "public",
                "amenity": "music_school"
            }
        },
        {
            "id": 18155,
            "type": "Feature",
            "geometry": {
                "type": "Point",
                "coordinates": [
                    19.63819,
                    50.13427
                ]
            },
            "properties": {
                "ref:rspo": 18155,
                "official_name": "Zesp\u00f3\u0142 Szk\u00f3\u0142 Ponadpodstawowych w Krzeszowicach",
                "name": "Zesp\u00f3\u0142 Szk\u00f3\u0142 Ponadpodstawowych w Krzeszowicach",
                "addr:postcode": "32-065",
                "addr:city": "Krzeszowice",
                "addr:street": "Krakowska",
                "addr:housenumber": "15",
                "addr:teryt:simc": 951570,
                "addr:teryt:sym_ul": 9796,
                "phone": "+48 122820540",
                "email": "sekr.zspkrzeszowice@op.pl",
                "website": "http:\/\/www.zspkrzeszowice.pl",
                "ref:regon": "000191000",
                "ref:vatin": "PL6761043606",
                "operator": "Powiat Krakowski",
                "operator:type": "government",
                "landuse": "education",
                "fixme": "amenity=school, amenity=college albo landuse=education w zale\u017cno\u015bci od tego, jakie plac\u00f3wki wchodz\u0105 w sk\u0142ad zespo\u0142u. Sprawd\u017a, kiedy stosowa\u0107 amenity=* a kiedy landuse=education.",
                "note": "Children RSPO: 59981;59982;59983;59986;125706;274800;275759"
            }
        },
        {
            "id": 59981,
            "type": "Feature",
            "geometry": {
                "type": "Point",
                "coordinates": [
                    19.63819,
                    50.13424
                ]
            },
            "properties": {
                "isced:level": "3",
                "ref:rspo": 59981,
                "official_name": "Technikum w Krzeszowicach w Zespole Szk\u00f3\u0142 Ponadpodstawowych w Krzeszowicach",
                "name": "Technikum w Krzeszowicach w Zespole Szk\u00f3\u0142 Ponadpodstawowych w Krzeszowicach",
                "addr:postcode": "32-065",
                "addr:city": "Krzeszowice",
                "addr:street": "Krakowska",
                "addr:housenumber": "15",
                "addr:teryt:simc": 951570,
                "addr:teryt:sym_ul": 9796,
                "phone": "+48 122820540",
                "email": "sekr.zspkrzeszowice@op.pl",
                "website": "http:\/\/www.zspkrzeszowice.pl",
                "ref:regon": "356719971",
                "operator": "Powiat Krakowski",
                "operator:type": "government",
                "amenity": "school",
                "note": "Parent RSPO: 18155"
            }
        },
        {
            "id": 59982,
            "type": "Feature",
            "geometry": {
                "type": "Point",
                "coordinates": [
                    19.63819,
                    50.13421
                ]
            },
            "properties": {
                "isced:level": "3",
                "ref:rspo": 59982,
                "official_name": "Bran\u017cowa Szko\u0142a I Stopnia w Krzeszowicach w Zespole Szk\u00f3\u0142 Ponadpodstawowych w Krzeszowicach",
                "name": "Bran\u017cowa Szko\u0142a I Stopnia w Krzeszowicach w Zespole Szk\u00f3\u0142 Ponadpodstawowych w Krzeszowicach",
                "addr:postcode": "32-065",
                "addr:city": "Krzeszowice",
                "addr:street": "Krakowska",
                "addr:housenumber": "15",
                "addr:teryt:simc": 951570,
                "addr:teryt:sym_ul": 9796,
                "phone": "+48 122822211",
                "email": "sekr.zspkrzeszowice@op.pl",
                "website": "http:\/\/www.zspkrzeszowice.pl",
                "ref:regon": "356719988",
                "operator": "Powiat Krakowski",
                "operator:type": "government",
                "amenity": "school",
                "note": "Parent RSPO: 18155"
            }
        },
        {
            "id": 59983,
            "type": "Feature",
            "geometry": {
                "type": "Point",
                "coordinates": [
                    19.63819,
                    50.13418
                ]
            },
            "properties": {
                "isced:level": "4",
                "ref:rspo": 59983,
                "official_name": "Szko\u0142a Policealna",
                "name": "Szko\u0142a Policealna",
                "addr:postcode": "32-065",
                "addr:city": "Krzeszowice",
                "addr:street": "Krakowska",
                "addr:housenumber": "15",
                "addr:teryt:simc": 951570,
                "addr:teryt:sym_ul": 9796,
                "phone": "+48 122822211",
                "email": "sekr.zspkrzeszowice@op.pl",
                "website": "http:\/\/www.zspkrzeszowice.pl",
                "ref:regon": "356545206",
                "operator": "Powiat Krakowski",
                "operator:type": "government",
                "amenity": "college",
                "note": "Parent RSPO: 18155"
            }
        },
        {
            "id": 59986,
            "type": "Feature",
            "geometry": {
                "type": "Point",
                "coordinates": [
                    19.63819,
                    50.13415
                ]
            },
            "properties": {
                "isced:level": "3",
                "ref:rspo": 59986,
                "official_name": "Liceum Og\u00f3lnokszta\u0142c\u0105ce dla Doros\u0142ych w Krzeszowicach w Zespole Szk\u00f3\u0142 Ponadpodstawowych w Krzeszowicach",
                "name": "Liceum Og\u00f3lnokszta\u0142c\u0105ce dla Doros\u0142ych w Krzeszowicach w Zespole Szk\u00f3\u0142 Ponadpodstawowych w Krzeszowicach",
                "addr:postcode": "32-065",
                "addr:city": "Krzeszowice",
                "addr:street": "Krakowska",
                "addr:housenumber": "15",
                "addr:teryt:simc": 951570,
                "addr:teryt:sym_ul": 9796,
                "phone": "+48 122820540",
                "email": "sekr.zspkrzeszowice@op.pl",
                "website": "http:\/\/www.zspkrzeszowice.pl",
                "ref:regon": "122693141",
                "operator": "Powiat Krakowski",
                "operator:type": "government",
                "amenity": "school",
                "note": "Parent RSPO: 18155"
            }
        },
        {
            "id": 125706,
            "type": "Feature",
            "geometry": {
                "type": "Point",
                "coordinates": [
                    19.63819,
                    50.13412
                ]
            },
            "properties": {
                "ref:rspo": 125706,
                "official_name": "Centrum Kszta\u0142cenia Zawodowego w Krzeszowicach",
                "name": "Centrum Kszta\u0142cenia Zawodowego w Krzeszowicach",
                "addr:postcode": "32-065",
                "addr:city": "Krzeszowice",
                "addr:street": "Krakowska",
                "addr:housenumber": "15",
                "addr:teryt:simc": 951570,
                "addr:teryt:sym_ul": 9796,
                "phone": "+48 122822211",
                "email": "sekr.zspkrzeszowice@op.pl",
                "website": "http:\/\/www.zspkrzeszowice.pl",
                "ref:regon": "123232235",
                "operator": "Powiat Krakowski",
                "operator:type": "government",
                "fixme": "w zale\u017cno\u015bci od przedmiotu dzia\u0142alno\u015bci (np. amenity=training + training=*, amenity=dancing_school, amenity=language_school, amenity=music_school) albo amenity=school, amenity=college, albo landuse=education w zale\u017cno\u015bci od tego, jakie plac\u00f3wki wchodz\u0105 w sk\u0142ad zespo\u0142u. Sprawd\u017a, kiedy stosowa\u0107 amenity=* a kiedy landuse=education.",
                "note": "Parent RSPO: 18155"
            }
        },
        {
            "id": 274800,
            "type": "Feature",
            "geometry": {
                "type": "Point",
                "coordinates": [
                    19.63819,
                    50.13409
                ]
            },
            "properties": {
                "isced:level": "3",
                "ref:rspo": 274800,
                "official_name": "Bran\u017cowa Szko\u0142a II Stopnia w Krzeszowicach w Zespole Szk\u00f3\u0142 Ponadpodstawowych w Krzeszowicach",
                "name": "Bran\u017cowa Szko\u0142a II Stopnia w Krzeszowicach w Zespole Szk\u00f3\u0142 Ponadpodstawowych w Krzeszowicach",
                "addr:postcode": "32-065",
                "addr:city": "Krzeszowice",
                "addr:street": "Krakowska",
                "addr:housenumber": "15",
                "addr:teryt:simc": 951570,
                "addr:teryt:sym_ul": 9796,
                "phone": "+48 122822211",
                "email": "sekr.zspkrzeszowice@op.pl",
                "website": "http:\/\/www.zspkrzeszowice.pl",
                "ref:regon": "386306702",
                "operator": "Powiat Krakowski",
                "operator:type": "government",
                "amenity": "school",
                "note": "Parent RSPO: 18155"
            }
        },
        {
            "id": 275759,
            "type": "Feature",
            "geometry": {
                "type": "Point",
                "coordinates": [
                    19.63819,
                    50.13406
                ]
            },
            "properties": {
                "ref:rspo": 275759,
                "official_name": "Szkolne Schronisko M\u0142odzie\u017cowe w Krzeszowicach w Zespole Szk\u00f3\u0142 Ponadpodstawowych w Krzeszowicach",
                "name": "Szkolne Schronisko M\u0142odzie\u017cowe w Krzeszowicach w Zespole Szk\u00f3\u0142 Ponadpodstawowych w Krzeszowicach",
                "addr:postcode": "32-065",
                "addr:city": "Krzeszowice",
                "addr:street": "Krakowska",
                "addr:housenumber": "15",
                "addr:teryt:simc": 951570,
                "addr:teryt:sym_ul": 9796,
                "phone": "+48 122822240",
                "email": "sekr.zspkrzeszowice@op.pl",
                "website": "http:\/\/www.zspkrzeszowice.pl",
                "ref:regon": "386933860",
                "operator": "Powiat Krakowski",
                "operator:type": "government",
                "tourism": "hostel",
                "note": "Parent RSPO: 18155"
            }
        },
        {
            "id": 106272,
            "type": "Feature",
            "geometry": {
                "type": "Point",
                "coordinates": [
                    19.64152,
                    50.13474
                ]
            },
            "properties": {
                "ref:rspo": 106272,
                "official_name": "Poradnia Psychologiczno-Pedagogiczna w Krzeszowicach",
                "name": "Poradnia Psychologiczno-Pedagogiczna w Krzeszowicach",
                "addr:postcode": "32-065",
                "addr:city": "Krzeszowice",
                "addr:street": "D\u0142uga",
                "addr:housenumber": "22",
                "addr:teryt:simc": 951570,
                "addr:teryt:sym_ul": 3839,
                "phone": "+48 122820978",
                "email": "poradnia.krzeszowice@interia.eu",
                "website": "http:\/\/www.poradniakrzeszowice.szkolnastrona.pl",
                "ref:regon": "351320402",
                "ref:vatin": "PL6761068807",
                "operator": "Gmina Krzeszowice",
                "operator:type": "government",
                "healthcare": "counselling",
                "counselling_type": "education",
                "fixme": "w zale\u017cno\u015bci od przedmiotu dzia\u0142alno\u015bci (np. healthcare=counselling + counselling_type=education albo healthcare=psychotherapist)"
            }
        },
        {
            "id": 262940,
            "type": "Feature",
            "geometry": {
                "type": "Point",
                "coordinates": [
                    19.64152,
                    50.13471
                ]
            },
            "properties": {
                "isced:level": "1;2",
                "ref:rspo": 262940,
                "official_name": "Szko\u0142a Podstawowa Nr 1 im. Adama Mickiewicza w Krzeszowicach",
                "name": "Szko\u0142a Podstawowa Nr 1",
                "addr:postcode": "32-065",
                "addr:city": "Krzeszowice",
                "addr:street": "D\u0142uga",
                "addr:housenumber": "22",
                "addr:teryt:simc": 951570,
                "addr:teryt:sym_ul": 3839,
                "phone": "+48 122579240",
                "email": "sp1krzeszowice@o2.pl",
                "ref:regon": "368077300",
                "ref:vatin": "PL5130251401",
                "operator": "Gmina Krzeszowice",
                "operator:type": "government",
                "amenity": "school"
            }
        },
        {
            "id": 18160,
            "type": "Feature",
            "geometry": {
                "type": "Point",
                "coordinates": [
                    19.6302999,
                    50.13488
                ]
            },
            "properties": {
                "isced:level": "3",
                "ref:rspo": 18160,
                "official_name": "Liceum Og\u00f3lnokszta\u0142c\u0105ce im.tadeusza Ko\u015bciuszki w Krzeszowicach",
                "name": "Liceum Og\u00f3lnokszta\u0142c\u0105ce im.tadeusza Ko\u015bciuszki w Krzeszowicach",
                "addr:postcode": "32-065",
                "addr:city": "Krzeszowice",
                "addr:street": "Ogrodowa",
                "addr:housenumber": "3",
                "addr:teryt:simc": 951570,
                "addr:teryt:sym_ul": 14834,
                "phone": "+48 122820346",
                "email": "lo_krzeszowice@poczta.onet.pl",
                "website": "http:\/\/www.lokrzeszowice.net.pl",
                "ref:regon": "000707389",
                "ref:vatin": "PL6761242903",
                "operator": "Powiat Krakowski",
                "operator:type": "government",
                "amenity": "school"
            }
        },
        {
            "id": 269371,
            "type": "Feature",
            "geometry": {
                "type": "Point",
                "coordinates": [
                    19.63466,
                    50.13559
                ]
            },
            "properties": {
                "ref:rspo": 269371,
                "official_name": "Niepubliczne Przedszkole \"Je\u017cykowo\"",
                "name": "Niepubliczne Przedszkole \"Je\u017cykowo\"",
                "addr:postcode": "32-065",
                "addr:city": "Krzeszowice",
                "addr:street": "Doktora Ignacego Wr\u00f3bla",
                "addr:housenumber": "3",
                "addr:teryt:simc": 951570,
                "addr:teryt:sym_ul": 51220,
                "phone": "+48 693105726",
                "email": "przedszkole@przedszkolejezykowo.pl",
                "website": "http:\/\/www.przedszkolejezykowo.pl",
                "ref:regon": "381461651",
                "operator": "Fundacja Rozwoju O\u015bwiaty, Wychowania I Sportu Frowis",
                "operator:type": "ngo",
                "amenity": "kindergarten"
            }
        },
        {
            "id": 83872,
            "type": "Feature",
            "geometry": {
                "type": "Point",
                "coordinates": [
                    19.6343206,
                    50.1357897
                ]
            },
            "properties": {
                "isced:level": "1;2",
                "ref:rspo": 83872,
                "official_name": "Szko\u0142a Podstawowa im. Janusza Korczaka w Pacz\u00f3\u0142towicach",
                "name": "Szko\u0142a Podstawowa",
                "addr:postcode": "32-065",
                "addr:place": "Pacz\u00f3\u0142towice",
                "addr:housenumber": "2",
                "addr:teryt:simc": 324470,
                "phone": "+48 122829115",
                "email": "sppaczoltowice@onet.pl",
                "website": "http:\/\/www.sppaczoltowice.szkolna.net",
                "ref:regon": "351236191",
                "ref:vatin": "PL6761114430",
                "operator": "Gmina Krzeszowice",
                "operator:type": "government",
                "amenity": "school"
            }
        },
        {
            "id": 82572,
            "type": "Feature",
            "geometry": {
                "type": "Point",
                "coordinates": [
                    19.63441,
                    50.1368
                ]
            },
            "properties": {
                "isced:level": "1;2",
                "ref:rspo": 82572,
                "official_name": "Szko\u0142a Podstawowa Nr 2 im. Henryka Sienkiewicza w Krzeszowicach",
                "name": "Szko\u0142a Podstawowa Nr 2",
                "addr:postcode": "32-065",
                "addr:city": "Krzeszowice",
                "addr:street": "Szkolna",
                "addr:housenumber": "7",
                "addr:teryt:simc": 951570,
                "addr:teryt:sym_ul": 21970,
                "phone": "+48 122820061",
                "email": "sp2.krzeszowice@interia.pl",
                "website": "http:\/\/www.sp2krzeszowice.eu",
                "ref:regon": "351257945",
                "ref:vatin": "PL6761067788",
                "operator": "Gmina Krzeszowice",
                "operator:type": "government",
                "amenity": "school"
            }
        },
        {
            "id": 128753,
            "type": "Feature",
            "geometry": {
                "type": "Point",
                "coordinates": [
                    19.63803,
                    50.13762
                ]
            },
            "properties": {
                "ref:rspo": 128753,
                "official_name": "Niepubliczne Przedszkole \"Iskierki\"",
                "name": "Niepubliczne Przedszkole \"Iskierki\"",
                "addr:postcode": "32-065",
                "addr:city": "Krzeszowice",
                "addr:street": "\u017bbicka",
                "addr:housenumber": "3",
                "addr:teryt:simc": 951570,
                "addr:teryt:sym_ul": 26410,
                "phone": "+48 609911202",
                "email": "info@iskierkikrzeszowice.pl",
                "ref:regon": "362384365",
                "ref:vatin": "PL5130241673",
                "operator": "Stanis\u0142awa Tarnowska",
                "operator:type": "private",
                "amenity": "kindergarten"
            }
        },
        {
            "id": 86766,
            "type": "Feature",
            "geometry": {
                "type": "Point",
                "coordinates": [
                    19.63851,
                    50.1377
                ]
            },
            "properties": {
                "ref:rspo": 86766,
                "official_name": "Niepubliczne Przedszkole J\u0119zykowe \"Akademia Ma\u0142ych Tygrysk\u00f3w\" w Krzeszowicach",
                "name": "Niepubliczne Przedszkole J\u0119zykowe \"Akademia Ma\u0142ych Tygrysk\u00f3w\" w Krzeszowicach",
                "addr:postcode": "32-065",
                "addr:city": "Krzeszowice",
                "addr:street": "\u017bbicka",
                "addr:housenumber": "7",
                "addr:teryt:simc": 951570,
                "addr:teryt:sym_ul": 26410,
                "email": "krzeszowice@maletygryski.pl",
                "website": "http:\/\/www.maletygryski.pl",
                "ref:regon": "122710968",
                "ref:vatin": "PL6782835488",
                "operator": "Kinga Grzybowska",
                "operator:type": "private",
                "amenity": "kindergarten"
            }
        },
        {
            "id": 83285,
            "type": "Feature",
            "geometry": {
                "type": "Point",
                "coordinates": [
                    19.5737468,
                    50.1378049
                ]
            },
            "properties": {
                "isced:level": "1;2",
                "ref:rspo": 83285,
                "official_name": "Szko\u0142a Podstawowa im. Stanis\u0142awa Wyspia\u0144skiego w Filipowicach",
                "name": "Szko\u0142a Podstawowa",
                "addr:postcode": "32-065",
                "addr:place": "Filipowice",
                "addr:housenumber": "554",
                "addr:teryt:simc": 324145,
                "phone": "+48 122837015",
                "email": "sp-filip@wp.pl",
                "website": "http:\/\/www.szkolafilipowice.pl",
                "ref:regon": "351270213",
                "ref:vatin": "PL6761066576",
                "operator": "Gmina Krzeszowice",
                "operator:type": "government",
                "amenity": "school"
            }
        },
        {
            "id": 86762,
            "type": "Feature",
            "geometry": {
                "type": "Point",
                "coordinates": [
                    19.65014,
                    50.13883
                ]
            },
            "properties": {
                "ref:rspo": 86762,
                "official_name": "Niepubliczne Przedszkole \"Tuptusie\" w Krzeszowicach",
                "name": "Niepubliczne Przedszkole \"Tuptusie\" w Krzeszowicach",
                "addr:postcode": "32-065",
                "addr:city": "Krzeszowice",
                "addr:street": "\u017bbicka",
                "addr:housenumber": "91",
                "addr:teryt:simc": 951570,
                "addr:teryt:sym_ul": 26410,
                "phone": "+48 122579150",
                "email": "tuptusie2009@o2.pl",
                "website": "http:\/\/www.tuptusie.com.pl",
                "ref:regon": "122711130",
                "ref:vatin": "PL6761576656",
                "operator": "Barbara Starzycka",
                "operator:type": "private",
                "amenity": "kindergarten"
            }
        },
        {
            "id": 85267,
            "type": "Feature",
            "geometry": {
                "type": "Point",
                "coordinates": [
                    19.63451,
                    50.14121
                ]
            },
            "properties": {
                "ref:rspo": 85267,
                "official_name": "Przedszkole Samorz\u0105dowe w Krzeszowicach",
                "name": "Przedszkole Samorz\u0105dowe w Krzeszowicach",
                "addr:postcode": "32-065",
                "addr:city": "Krzeszowice",
                "addr:street": "Batalion\u00f3w Ch\u0142opskich",
                "addr:housenumber": "9",
                "addr:teryt:simc": 951570,
                "addr:teryt:sym_ul": 868,
                "phone": "+48 123571205",
                "email": "sekretariat@przedszkolekrzeszowice.pl",
                "website": "http:\/\/www.przedszkolekrzeszowice.pl",
                "ref:regon": "357204275",
                "ref:vatin": "PL9441952740",
                "operator": "Gmina Krzeszowice",
                "operator:type": "government",
                "amenity": "kindergarten"
            }
        },
        {
            "id": 83617,
            "type": "Feature",
            "geometry": {
                "type": "Point",
                "coordinates": [
                    19.6161956,
                    50.152446
                ]
            },
            "properties": {
                "isced:level": "1;2",
                "ref:rspo": 83617,
                "official_name": "Szko\u0142a Podstawowa im.krystyny I Andrzeja Potockich w Mi\u0119kini",
                "name": "Szko\u0142a Podstawowa im.krystyny I Andrzeja Potockich w Mi\u0119kini",
                "addr:postcode": "32-065",
                "addr:place": "Mi\u0119kinia",
                "addr:housenumber": "180",
                "addr:teryt:simc": 324240,
                "phone": "+48 122821655",
                "email": "spmiekinia@op.pl",
                "ref:regon": "351236989",
                "ref:vatin": "PL6761114306",
                "operator": "Gmina Krzeszowice",
                "operator:type": "government",
                "amenity": "school"
            }
        },
        {
            "id": 89380,
            "type": "Feature",
            "geometry": {
                "type": "Point",
                "coordinates": [
                    19.56669,
                    50.18461
                ]
            },
            "properties": {
                "isced:level": "1;2",
                "ref:rspo": 89380,
                "official_name": "Szko\u0142a Podstawowa im. Marii Konopnickiej w Nowej G\u00f3rze",
                "name": "Szko\u0142a Podstawowa",
                "addr:postcode": "32-065",
                "addr:city": "Nowa G\u00f3ra",
                "addr:street": "Szkolna",
                "addr:housenumber": "35",
                "addr:teryt:simc": 324369,
                "addr:teryt:sym_ul": 21970,
                "phone": "+48 122835083",
                "email": "zsnowagora@interia.pl",
                "ref:regon": "351237753",
                "ref:vatin": "PL5130013707",
                "operator": "Gmina Krzeszowice",
                "operator:type": "government",
                "amenity": "school"
            }
        },
        {
            "id": 83871,
            "type": "Feature",
            "geometry": {
                "type": "Point",
                "coordinates": [
                    19.57254,
                    50.19657
                ]
            },
            "properties": {
                "isced:level": "1;2",
                "ref:rspo": 83871,
                "official_name": "Szko\u0142a Podstawowa im.jana \u0141achuta w Ostr\u0119\u017cnicy",
                "name": "Szko\u0142a Podstawowa im.jana \u0141achuta w Ostr\u0119\u017cnicy",
                "addr:postcode": "32-065",
                "addr:city": "Ostr\u0119\u017cnica",
                "addr:street": "Kr\u00f3lewska",
                "addr:housenumber": "32",
                "addr:teryt:simc": 324458,
                "addr:teryt:sym_ul": 9987,
                "phone": "+48 122835021",
                "email": "szp.ostreznica@interia.pl",
                "ref:regon": "351258614",
                "ref:vatin": "PL6761072080",
                "operator": "Gmina Krzeszowice",
                "operator:type": "government",
                "amenity": "school"
            }
        },
        {
            "id": 82574,
            "type": "Feature",
            "geometry": {
                "type": "Point",
                "coordinates": [
                    19.633048,
                    50.2059143
                ]
            },
            "properties": {
                "isced:level": "1;2",
                "ref:rspo": 82574,
                "official_name": "Szko\u0142a Podstawowa im.mjr J\u00f3zefa Ry\u0142ko w Czernej",
                "name": "Szko\u0142a Podstawowa im.mjr J\u00f3zefa Ry\u0142ko w Czernej",
                "addr:postcode": "32-065",
                "addr:place": "Czerna",
                "addr:housenumber": "274",
                "addr:teryt:simc": 324091,
                "phone": "+48 122821469",
                "email": "spczerna@onet.pl",
                "ref:regon": "351328243",
                "ref:vatin": "PL6761069600",
                "operator": "Gmina Krzeszowice",
                "operator:type": "government",
                "amenity": "school"
            }
        }
    ]
}