{
    "type": "FeatureCollection",
    "features": [
        {
            "id": 82567,
            "type": "Feature",
            "geometry": {
                "type": "Point",
                "coordinates": [
                    19.779232,
                    49.9881675
                ]
            },
            "properties": {
                "isced:level": "1;2",
                "ref:rspo": 82567,
                "official_name": "Szko\u0142a Podstawowa im. Ojca \u015awi\u0119tego Jana Paw\u0142a II w Jeziorzanach",
                "name": "Szko\u0142a Podstawowa",
                "addr:postcode": "32-060",
                "addr:place": "Jeziorzany",
                "addr:housenumber": "1",
                "addr:teryt:simc": 325239,
                "phone": "+48 122808122",
                "email": "sp_jeziorzany@op.pl",
                "website": "http:\/\/spjeziorzany.edupage.org",
                "ref:regon": "001234622",
                "ref:vatin": "PL9442212809",
                "operator": "Gmina Liszki",
                "operator:type": "government",
                "amenity": "school"
            }
        },
        {
            "id": 82585,
            "type": "Feature",
            "geometry": {
                "type": "Point",
                "coordinates": [
                    19.7276698,
                    50.0186493
                ]
            },
            "properties": {
                "isced:level": "1;2",
                "ref:rspo": 82585,
                "official_name": "Szko\u0142a Podstawowa Nr 1 im. \u015awetego J\u00f3zefa w Kaszowie",
                "name": "Szko\u0142a Podstawowa Nr 1",
                "addr:postcode": "32-060",
                "addr:place": "Kasz\u00f3w",
                "addr:housenumber": "185",
                "addr:teryt:simc": 325311,
                "phone": "+48 122806021",
                "email": "sp1_kaszow@interia.pl",
                "ref:regon": "001234639",
                "ref:vatin": "PL9442213163",
                "operator": "Gmina Liszki",
                "operator:type": "government",
                "amenity": "school"
            }
        },
        {
            "id": 59910,
            "type": "Feature",
            "geometry": {
                "type": "Point",
                "coordinates": [
                    19.7879418,
                    50.019262
                ]
            },
            "properties": {
                "isced:level": "3",
                "ref:rspo": 59910,
                "official_name": "Liceum Og\u00f3lnokszta\u0142c\u0105ce im. Josephine Gebert w Centrum Edukacyjnym \"Radosna Nowina 2000\" w Piekarach",
                "name": "Liceum Og\u00f3lnokszta\u0142c\u0105ce",
                "addr:postcode": "32-060",
                "addr:place": "Piekary",
                "addr:housenumber": "2",
                "addr:teryt:simc": 325699,
                "phone": "+48 122807099",
                "email": "sekretariat@radosnanowina.pl",
                "website": "http:\/\/www.liceum.radosnanowina.pl",
                "ref:regon": "122702450",
                "ref:vatin": "PL9442060587",
                "operator": "Fundacja Im. Ks. Siemaszki",
                "operator:type": "ngo",
                "amenity": "school"
            }
        },
        {
            "id": 64042,
            "type": "Feature",
            "geometry": {
                "type": "Point",
                "coordinates": [
                    19.7973086,
                    50.0227894
                ]
            },
            "properties": {
                "isced:level": "1;2",
                "ref:rspo": 64042,
                "official_name": "Szko\u0142a Podstawowa im. Jana D\u0142ugosza w Piekarach",
                "name": "Szko\u0142a Podstawowa",
                "addr:postcode": "32-060",
                "addr:place": "Piekary",
                "addr:housenumber": "100",
                "addr:teryt:simc": 325699,
                "phone": "+48 122806221",
                "email": "sp_piekary@onet.eu",
                "ref:regon": "001234680",
                "ref:vatin": "PL9442212850",
                "operator": "Gmina Liszki",
                "operator:type": "government",
                "amenity": "school"
            }
        },
        {
            "id": 82641,
            "type": "Feature",
            "geometry": {
                "type": "Point",
                "coordinates": [
                    19.74868,
                    50.03074
                ]
            },
            "properties": {
                "ref:rspo": 82641,
                "official_name": "Niepubliczne Przedszkole \"Ma\u0142y Oksford\"",
                "name": "Niepubliczne Przedszkole \"Ma\u0142y Oksford\"",
                "addr:postcode": "32-060",
                "addr:city": "Liszki",
                "addr:street": "Czernichowska",
                "addr:housenumber": "44",
                "addr:teryt:simc": 325452,
                "addr:teryt:sym_ul": 3388,
                "phone": "+48 500765587",
                "email": "przedszkole@malyoksford.pl",
                "website": "http:\/\/malyoksford.pl",
                "ref:regon": "122709244",
                "ref:vatin": "PL6792723992",
                "operator": "Sp\u00f3\u0142dzielnia Socjalna Progres",
                "operator:type": "cooperative",
                "amenity": "kindergarten"
            }
        },
        {
            "id": 264216,
            "type": "Feature",
            "geometry": {
                "type": "Point",
                "coordinates": [
                    19.74868,
                    50.03071
                ]
            },
            "properties": {
                "ref:rspo": 264216,
                "official_name": "Niepubliczne Przedszkole Domek Montessori",
                "name": "Niepubliczne Przedszkole Domek Montessori",
                "addr:postcode": "32-060",
                "addr:city": "Liszki",
                "addr:street": "Czernichowska",
                "addr:housenumber": "9",
                "addr:teryt:simc": 325452,
                "addr:teryt:sym_ul": 3388,
                "email": "bozenabatory22@gmail.com",
                "ref:regon": "368290257",
                "operator": "Bo\u017cena Boryczko",
                "operator:type": "private",
                "amenity": "kindergarten"
            }
        },
        {
            "id": 82638,
            "type": "Feature",
            "geometry": {
                "type": "Point",
                "coordinates": [
                    19.754584,
                    50.032998
                ]
            },
            "properties": {
                "ref:rspo": 82638,
                "official_name": "Przedszkole \u015awiat Dziecka",
                "name": "Przedszkole \u015awiat Dziecka",
                "addr:postcode": "32-060",
                "addr:place": "Liszki",
                "addr:housenumber": "540",
                "addr:teryt:simc": 325452,
                "phone": "+48 606240296",
                "ref:regon": "122709221",
                "ref:vatin": "PL7951973007",
                "operator": "Dane Do Uzupe\u0142nienia",
                "operator:type": "private",
                "amenity": "kindergarten"
            }
        },
        {
            "id": 70062,
            "type": "Feature",
            "geometry": {
                "type": "Point",
                "coordinates": [
                    19.75806,
                    50.03321
                ]
            },
            "properties": {
                "isced:level": "1;2",
                "ref:rspo": 70062,
                "official_name": "Szko\u0142a Podstawowa im. \u015aw. Jana Kantego w Liszkach",
                "name": "Szko\u0142a Podstawowa",
                "addr:postcode": "32-060",
                "addr:city": "Liszki",
                "addr:street": "Szkolna",
                "addr:housenumber": "50",
                "addr:teryt:simc": 325452,
                "addr:teryt:sym_ul": 21970,
                "phone": "+48 122806355",
                "email": "szkola@spliszki.pl",
                "website": "http:\/\/spliszki.pl",
                "ref:regon": "000703552",
                "ref:vatin": "PL9442213157",
                "operator": "Gmina Liszki",
                "operator:type": "government",
                "amenity": "school"
            }
        },
        {
            "id": 82624,
            "type": "Feature",
            "geometry": {
                "type": "Point",
                "coordinates": [
                    19.22271,
                    50.03748
                ]
            },
            "properties": {
                "ref:rspo": 82624,
                "official_name": "Przedszkole Publiczne Krystyna Madej",
                "name": "Przedszkole Publiczne Krystyna Madej",
                "addr:postcode": "32-060",
                "addr:city": "Liszki",
                "addr:street": "Ma\u0142y Rynek",
                "addr:housenumber": "3",
                "addr:teryt:simc": 325452,
                "addr:teryt:sym_ul": 12210,
                "phone": "+48 122806046",
                "email": "przedszkolewliszkach@interia.pl",
                "ref:regon": "122709209",
                "ref:vatin": "PL6761119551",
                "operator": "Krystyna Madej",
                "operator:type": "private",
                "amenity": "kindergarten"
            }
        },
        {
            "id": 67831,
            "type": "Feature",
            "geometry": {
                "type": "Point",
                "coordinates": [
                    19.77039,
                    50.03917
                ]
            },
            "properties": {
                "ref:rspo": 67831,
                "official_name": "Gra\u017cyna Piotrowska Ma\u0142a Akademia -Przedszkole J\u0119zykowo-Artystyczne",
                "name": "Gra\u017cyna Piotrowska Ma\u0142a Akademia -Przedszkole J\u0119zykowo-Artystyczne",
                "addr:postcode": "32-060",
                "addr:city": "Liszki",
                "addr:street": "\u015awi\u0119tego Jana Kantego",
                "addr:housenumber": "47",
                "addr:teryt:simc": 325452,
                "addr:teryt:sym_ul": 53452,
                "phone": "+48 784064122",
                "ref:regon": "122696257",
                "ref:vatin": "PL9441956821",
                "operator": "Gra\u017cyna Piotrowska",
                "operator:type": "private",
                "amenity": "kindergarten"
            }
        },
        {
            "id": 273101,
            "type": "Feature",
            "geometry": {
                "type": "Point",
                "coordinates": [
                    19.76718,
                    50.03994
                ]
            },
            "properties": {
                "ref:rspo": 273101,
                "official_name": "Niepubliczne Przedszkole Kocie \u0141apki",
                "name": "Niepubliczne Przedszkole Kocie \u0141apki",
                "addr:postcode": "32-060",
                "addr:city": "Liszki",
                "addr:street": "O\u015bwi\u0119cimska",
                "addr:housenumber": "27",
                "addr:teryt:simc": 325452,
                "addr:teryt:sym_ul": 15440,
                "email": "biuro@arreca.pl",
                "ref:regon": "384376880",
                "operator": "Arreca Sp\u00f3\u0142ka Z Ograniczon\u0105 Odpowiedzialno\u015bci\u0105",
                "operator:type": "private",
                "amenity": "kindergarten"
            }
        },
        {
            "id": 69811,
            "type": "Feature",
            "geometry": {
                "type": "Point",
                "coordinates": [
                    19.7256512,
                    50.0399811
                ]
            },
            "properties": {
                "ref:rspo": 69811,
                "official_name": "Niepubliczne Przedszkole \"Iskierka\"",
                "name": "Niepubliczne Przedszkole \"Iskierka\"",
                "addr:postcode": "32-060",
                "addr:place": "Kasz\u00f3w",
                "addr:housenumber": "614",
                "addr:teryt:simc": 325311,
                "phone": "+48 609677461",
                "ref:regon": "122704152",
                "ref:vatin": "PL6791865968",
                "operator": "Joanna Rezmer",
                "operator:type": "private",
                "amenity": "kindergarten"
            }
        },
        {
            "id": 83943,
            "type": "Feature",
            "geometry": {
                "type": "Point",
                "coordinates": [
                    19.7804335,
                    50.0401574
                ]
            },
            "properties": {
                "isced:level": "1;2",
                "ref:rspo": 83943,
                "official_name": "Szko\u0142a Podstawowa Nr 2 im. \u015aw. Jadwigi Kr\u00f3lowej w Kaszowie",
                "name": "Szko\u0142a Podstawowa Nr 2",
                "addr:postcode": "32-060",
                "addr:place": "Kasz\u00f3w",
                "addr:housenumber": "547",
                "addr:teryt:simc": 325311,
                "phone": "+48 122806099",
                "email": "sp-jadwigi@wp.pl",
                "ref:regon": "001234645",
                "ref:vatin": "PL9442213140",
                "operator": "Gmina Liszki",
                "operator:type": "government",
                "amenity": "school"
            }
        },
        {
            "id": 59907,
            "type": "Feature",
            "geometry": {
                "type": "Point",
                "coordinates": [
                    19.7836041,
                    50.0410287
                ]
            },
            "properties": {
                "isced:level": "3",
                "ref:rspo": 59907,
                "official_name": "Ii Zaoczne Liceum Og\u00f3lnokszta\u0142c\u0105ce Centrum Kszta\u0142cenia \"Suplement\"",
                "name": "Ii Zaoczne Liceum Og\u00f3lnokszta\u0142c\u0105ce Centrum Kszta\u0142cenia \"Suplement\"",
                "addr:postcode": "32-060",
                "addr:place": "Liszki",
                "addr:housenumber": "457",
                "addr:teryt:simc": 325452,
                "phone": "+48 609240936",
                "email": "cksuplement@wp.pl",
                "website": "http:\/\/www.cksuplement.pl",
                "ref:regon": "122702437",
                "ref:vatin": "PL9441168331",
                "operator": "Stanis\u0142aw R\u00f3j",
                "operator:type": "private",
                "amenity": "school"
            }
        },
        {
            "id": 68702,
            "type": "Feature",
            "geometry": {
                "type": "Point",
                "coordinates": [
                    20.0544718,
                    50.0423551
                ]
            },
            "properties": {
                "ref:rspo": 68702,
                "official_name": "Niepubliczne Przedszkole \"Le\u015bna Polana\" Bogus\u0142awa Sobesto",
                "name": "Niepubliczne Przedszkole \"Le\u015bna Polana\" Bogus\u0142awa Sobesto",
                "addr:postcode": "32-060",
                "addr:place": "R\u0105czna",
                "addr:housenumber": "581",
                "addr:teryt:simc": 325736,
                "phone": "+48 510164156",
                "email": "przedszkole@lesnapolana-raczna.pl",
                "website": "http:\/\/lesnapolana-raczna.pl",
                "ref:regon": "122697044",
                "ref:vatin": "PL9441520839",
                "operator": "Bogus\u0142awa Sobesto",
                "operator:type": "private",
                "amenity": "kindergarten"
            }
        },
        {
            "id": 82609,
            "type": "Feature",
            "geometry": {
                "type": "Point",
                "coordinates": [
                    20.045596,
                    50.043568
                ]
            },
            "properties": {
                "isced:level": "1;2",
                "ref:rspo": 82609,
                "official_name": "Szko\u0142a Podstawowa im. Kr\u00f3la Jana III Sobieskiego w R\u0105cznej",
                "name": "Szko\u0142a Podstawowa",
                "addr:postcode": "32-060",
                "addr:place": "R\u0105czna",
                "addr:housenumber": "1",
                "addr:teryt:simc": 325736,
                "phone": "+48 122808026",
                "email": "sp.raczna@interia.pl",
                "ref:regon": "001234697",
                "ref:vatin": "PL9442212821",
                "operator": "Gmina Liszki",
                "operator:type": "government",
                "amenity": "school"
            }
        },
        {
            "id": 82597,
            "type": "Feature",
            "geometry": {
                "type": "Point",
                "coordinates": [
                    19.8030212,
                    50.0461006
                ]
            },
            "properties": {
                "isced:level": "1;2",
                "ref:rspo": 82597,
                "official_name": "Szko\u0142a Podstawowa im. Kard. Stefana Wyszy\u0144skiego w Kryspinowie",
                "name": "Szko\u0142a Podstawowa",
                "addr:postcode": "32-060",
                "addr:place": "Kryspin\u00f3w",
                "addr:housenumber": "356",
                "addr:teryt:simc": 325417,
                "phone": "+48 122807095",
                "email": "sp.kryspinow@op.pl",
                "ref:regon": "001234651",
                "ref:vatin": "PL9442212838",
                "operator": "Gmina Liszki",
                "operator:type": "government",
                "amenity": "school"
            }
        },
        {
            "id": 82613,
            "type": "Feature",
            "geometry": {
                "type": "Point",
                "coordinates": [
                    19.7732298,
                    50.0568534
                ]
            },
            "properties": {
                "isced:level": "1;2",
                "ref:rspo": 82613,
                "official_name": "Szko\u0142a Podstawowa im. \u015aw. Matki Teresy Z Kalkuty w Cholerzynie",
                "name": "Szko\u0142a Podstawowa",
                "addr:postcode": "32-060",
                "addr:place": "Cholerzyn",
                "addr:housenumber": "205",
                "addr:teryt:simc": 325067,
                "phone": "+48 122806049",
                "email": "spcholerzyn@poczta.onet.pl",
                "website": "http:\/\/www.spcholerzyn.pl",
                "ref:regon": "001234600",
                "ref:vatin": "PL9442212815",
                "operator": "Gmina Liszki",
                "operator:type": "government",
                "amenity": "school"
            }
        },
        {
            "id": 62575,
            "type": "Feature",
            "geometry": {
                "type": "Point",
                "coordinates": [
                    19.6941216,
                    50.0607862
                ]
            },
            "properties": {
                "isced:level": "1;2",
                "ref:rspo": 62575,
                "official_name": "Szko\u0142a Podstawowa im. Antoniego Sewio\u0142ka w Czu\u0142owie",
                "name": "Szko\u0142a Podstawowa",
                "addr:postcode": "32-060",
                "addr:place": "Czu\u0142\u00f3w",
                "addr:housenumber": "188",
                "addr:teryt:simc": 325156,
                "phone": "+48 122805306",
                "email": "anton2@gazeta.pl",
                "website": "http:\/\/szkolaczulow.pl",
                "ref:regon": "001234616",
                "ref:vatin": "PL9442212867",
                "operator": "Gmina Liszki",
                "operator:type": "government",
                "amenity": "school"
            }
        },
        {
            "id": 275828,
            "type": "Feature",
            "geometry": {
                "type": "Point",
                "coordinates": [
                    19.74355,
                    50.08198
                ]
            },
            "properties": {
                "ref:rspo": 275828,
                "official_name": "Zesp\u00f3\u0142 Szkolno - Przedszkolny w Morawicy",
                "name": "Zesp\u00f3\u0142 Szkolno - Przedszkolny w Morawicy",
                "addr:postcode": "32-084",
                "addr:place": "Morawica",
                "addr:housenumber": "388",
                "addr:teryt:simc": 325624,
                "phone": "+48 122856050",
                "email": "spmorawica@wp.pl",
                "website": "https:\/\/spmorawica.szkolna.net\/",
                "ref:regon": "386940072",
                "operator": "Gmina Liszki",
                "operator:type": "government",
                "landuse": "education",
                "fixme": "amenity=school, amenity=college albo landuse=education w zale\u017cno\u015bci od tego, jakie plac\u00f3wki wchodz\u0105 w sk\u0142ad zespo\u0142u. Sprawd\u017a, kiedy stosowa\u0107 amenity=* a kiedy landuse=education.",
                "note": "Children RSPO: 64005;275801"
            }
        },
        {
            "id": 64005,
            "type": "Feature",
            "geometry": {
                "type": "Point",
                "coordinates": [
                    19.74355,
                    50.08195
                ]
            },
            "properties": {
                "isced:level": "1;2",
                "ref:rspo": 64005,
                "official_name": "Szko\u0142a Podstawowa im. Kpt. Pil. Mieczys\u0142awa Medweckiego",
                "name": "Szko\u0142a Podstawowa",
                "addr:postcode": "32-084",
                "addr:place": "Morawica",
                "addr:housenumber": "388",
                "addr:teryt:simc": 325624,
                "phone": "+48 122856050",
                "email": "spmorawica@wp.pl",
                "ref:regon": "001234674",
                "ref:vatin": "PL9442213134",
                "operator": "Gmina Liszki",
                "operator:type": "government",
                "amenity": "school",
                "note": "Parent RSPO: 275828"
            }
        },
        {
            "id": 275801,
            "type": "Feature",
            "geometry": {
                "type": "Point",
                "coordinates": [
                    19.74355,
                    50.081920000000004
                ]
            },
            "properties": {
                "ref:rspo": 275801,
                "official_name": "Przedszkole w Morawicy",
                "name": "Przedszkole w Morawicy",
                "addr:postcode": "32-084",
                "addr:place": "Morawica",
                "addr:housenumber": "388",
                "addr:teryt:simc": 325624,
                "phone": "+48 122856050",
                "email": "spmorawica@wp.pl",
                "website": "https:\/\/spmorawica.szkolna.net\/",
                "ref:regon": "386939465",
                "operator": "Gmina Liszki",
                "operator:type": "government",
                "amenity": "kindergarten",
                "note": "Parent RSPO: 275828"
            }
        },
        {
            "id": 82908,
            "type": "Feature",
            "geometry": {
                "type": "Point",
                "coordinates": [
                    19.7422226,
                    50.0824091
                ]
            },
            "properties": {
                "ref:rspo": 82908,
                "official_name": "Kubusiowy \u015awiat",
                "name": "Kubusiowy \u015awiat",
                "addr:postcode": "32-084",
                "addr:place": "Morawica",
                "addr:housenumber": "182",
                "addr:teryt:simc": 325624,
                "phone": "+48 507631425",
                "email": "kubusiowy.swiat@wp.pl",
                "ref:regon": "122709451",
                "ref:vatin": "PL9442154420",
                "operator": "Mariusz K\u0105cik",
                "operator:type": "private",
                "amenity": "kindergarten"
            }
        },
        {
            "id": 263016,
            "type": "Feature",
            "geometry": {
                "type": "Point",
                "coordinates": [
                    19.6680954,
                    50.0878772
                ]
            },
            "properties": {
                "isced:level": "1;2",
                "ref:rspo": 263016,
                "official_name": "Szko\u0142a Podstawowa im. Ksi\u0119cia J\u00f3zefa Poniatowskiego w Mnikowie",
                "name": "Szko\u0142a Podstawowa",
                "addr:postcode": "32-084",
                "addr:place": "Mnik\u00f3w",
                "addr:housenumber": "13",
                "addr:teryt:simc": 325529,
                "phone": "+48 122805219",
                "email": "mnikow@wp.pl",
                "website": "http:\/\/www.mnikow.eu",
                "ref:regon": "368089756",
                "operator": "Gmina Liszki",
                "operator:type": "government",
                "amenity": "school"
            }
        }
    ]
}