{
    "type": "FeatureCollection",
    "features": [
        {
            "id": 70785,
            "type": "Feature",
            "geometry": {
                "type": "Point",
                "coordinates": [
                    19.94253,
                    50.17497
                ]
            },
            "properties": {
                "isced:level": "1;2",
                "ref:rspo": 70785,
                "official_name": "Publiczna Szko\u0142a Podstawowa im. \u015aw. Jadwigi Kr\u00f3lowej w Naramie",
                "name": "Publiczna Szko\u0142a Podstawowa",
                "addr:postcode": "32-095",
                "addr:city": "Narama",
                "addr:street": "Centralna",
                "addr:housenumber": "49",
                "addr:city:simc": 320650,
                "addr:street:sym_ul": 2614,
                "phone": "+48 123885005",
                "email": "psp.narama@neostrada.pl",
                "website": "http:\/\/www.szkolawnaramie.edupage.org",
                "ref:regon": "122788060",
                "operator": "Krzysztof Zadora",
                "operator:type": "private",
                "amenity": "school"
            }
        },
        {
            "id": 70770,
            "type": "Feature",
            "geometry": {
                "type": "Point",
                "coordinates": [
                    19.9442229,
                    50.198186
                ]
            },
            "properties": {
                "isced:level": "1;2",
                "ref:rspo": 70770,
                "official_name": "Szko\u0142a Podstawowa im. Wojska Polskiego w Damicach",
                "name": "Szko\u0142a Podstawowa",
                "addr:postcode": "32-095",
                "addr:place": "Damice",
                "addr:housenumber": "53",
                "addr:city:simc": 320383,
                "phone": "+48 123884028",
                "email": "sp.damice@poczta.fm",
                "website": "http:\/\/spdamice.edupage.org",
                "ref:regon": "122698776",
                "operator": "Tadeusz Basiak",
                "operator:type": "private",
                "amenity": "school"
            }
        },
        {
            "id": 132649,
            "type": "Feature",
            "geometry": {
                "type": "Point",
                "coordinates": [
                    19.9442229,
                    50.198156
                ]
            },
            "properties": {
                "ref:rspo": 132649,
                "official_name": "Publiczne Przedszkole\"Bajkowe\" w Damicach",
                "name": "Publiczne Przedszkole\"Bajkowe\" w Damicach",
                "addr:postcode": "32-095",
                "addr:place": "Damice",
                "addr:housenumber": "53",
                "addr:city:simc": 320383,
                "phone": "+48 123884028",
                "email": "przedszkoledamice@gmail.com",
                "ref:regon": "365969936",
                "ref:vatin": "PL6581433464",
                "operator": "Tadeusz Basiak",
                "operator:type": "private",
                "amenity": "kindergarten"
            }
        },
        {
            "id": 128932,
            "type": "Feature",
            "geometry": {
                "type": "Point",
                "coordinates": [
                    20.0142989,
                    50.205166
                ]
            },
            "properties": {
                "isced:level": "1;2",
                "ref:rspo": 128932,
                "official_name": "Szko\u0142a Podstawowa im. Ks. Jana Twardowskiego w Widomej",
                "name": "Szko\u0142a Podstawowa",
                "addr:postcode": "32-095",
                "addr:place": "Widoma",
                "addr:housenumber": "51",
                "addr:city:simc": 320911,
                "phone": "+48 123884211",
                "email": "sekretariat@szkolawidoma.pl",
                "website": "http:\/\/www.szkolawidoma.edupage.org",
                "ref:regon": "362436903",
                "ref:vatin": "PL6821768254",
                "operator": "Stowarzyszenie Inicjatyw Spo\u0142eczno-O\u015bwiatowych",
                "operator:type": "ngo",
                "amenity": "school"
            }
        },
        {
            "id": 132720,
            "type": "Feature",
            "geometry": {
                "type": "Point",
                "coordinates": [
                    20.0142989,
                    50.205135999999996
                ]
            },
            "properties": {
                "ref:rspo": 132720,
                "official_name": "Publiczny Punkt Przedszkolny Przy Szkole Podstawowej w Widomej",
                "name": "Publiczny Punkt Przedszkolny Przy Szkole Podstawowej w Widomej",
                "addr:postcode": "32-095",
                "addr:place": "Widoma",
                "addr:housenumber": "51",
                "addr:city:simc": 320911,
                "phone": "+48 123884211",
                "email": "sekretariat@szkolawidoma.pl",
                "website": "http:\/\/www.szkolawidoma.edupage.org",
                "ref:regon": "366122828",
                "ref:vatin": "PL6821768254",
                "operator": "Stowarzyszenie Inicjatyw Spo\u0142eczno-O\u015bwiatowych",
                "operator:type": "ngo",
                "amenity": "kindergarten"
            }
        },
        {
            "id": 70755,
            "type": "Feature",
            "geometry": {
                "type": "Point",
                "coordinates": [
                    19.94888,
                    50.22948
                ]
            },
            "properties": {
                "isced:level": "1;2",
                "ref:rspo": 70755,
                "official_name": "Szko\u0142a Podstawowa im. Jana Paw\u0142a II w Iwanowicach",
                "name": "Szko\u0142a Podstawowa",
                "addr:postcode": "32-095",
                "addr:city": "Iwanowice W\u0142o\u015bcia\u0144skie",
                "addr:street": "Jana Paw\u0142a II",
                "addr:housenumber": "3",
                "addr:city:simc": 320489,
                "addr:street:sym_ul": 7123,
                "phone": "+48 123884014",
                "email": "szkola@iwanowice.pl",
                "website": "http:\/\/spiwanowice.edupage.org",
                "ref:regon": "000699394",
                "ref:vatin": "PL6821585565",
                "operator": "Gmina Iwanowice",
                "operator:type": "government",
                "amenity": "school"
            }
        },
        {
            "id": 70768,
            "type": "Feature",
            "geometry": {
                "type": "Point",
                "coordinates": [
                    19.94888,
                    50.22945
                ]
            },
            "properties": {
                "ref:rspo": 70768,
                "official_name": "Samorz\u0105dowe Przedszkole \"S\u0142oneczne\" w Iwanowicach",
                "name": "Samorz\u0105dowe Przedszkole \"S\u0142oneczne\" w Iwanowicach",
                "addr:postcode": "32-095",
                "addr:city": "Iwanowice W\u0142o\u015bcia\u0144skie",
                "addr:street": "Jana Paw\u0142a II",
                "addr:housenumber": "3",
                "addr:city:simc": 320489,
                "addr:street:sym_ul": 7123,
                "phone": "+48 123884016",
                "email": "przedszkole@iwanowice.pl",
                "website": "http:\/\/przedszkole.iwanowice.malopolska.pl",
                "ref:regon": "350018322",
                "ref:vatin": "PL6821589238",
                "operator": "Gmina Iwanowice",
                "operator:type": "government",
                "amenity": "kindergarten"
            }
        },
        {
            "id": 277915,
            "type": "Feature",
            "geometry": {
                "type": "Point",
                "coordinates": [
                    19.92645,
                    50.2316
                ]
            },
            "properties": {
                "ref:rspo": 277915,
                "official_name": "Niepubliczne Przedszkole im. Leonarda Da Vinci",
                "name": "Niepubliczne Przedszkole",
                "addr:postcode": "32-095",
                "addr:place": "Su\u0142kowice",
                "addr:housenumber": "83c",
                "addr:city:simc": 320868,
                "email": "przedszkole@mize.edu.pl",
                "website": "http:\/\/www.mize.edu.pl",
                "ref:regon": "389656408",
                "ref:vatin": "PL6821795707",
                "operator": "Fundacja Ma\u0142opolski Innowacyjny Zesp\u00f3\u0142 Edukacyjny",
                "operator:type": "ngo",
                "amenity": "kindergarten"
            }
        },
        {
            "id": 278347,
            "type": "Feature",
            "geometry": {
                "type": "Point",
                "coordinates": [
                    19.92645,
                    50.23157
                ]
            },
            "properties": {
                "isced:level": "1;2",
                "ref:rspo": 278347,
                "official_name": "Niepubliczna Szko\u0142a Podstawowa im. Leonarda Da Vinci",
                "name": "Niepubliczna Szko\u0142a Podstawowa",
                "addr:postcode": "32-095",
                "addr:place": "Su\u0142kowice",
                "addr:housenumber": "83C",
                "addr:city:simc": 320868,
                "email": "kontakt@mize.edu.pl",
                "website": "http:\/\/www.mize.edu.pl",
                "ref:regon": "389864360",
                "ref:vatin": "PL6821795699",
                "operator": "Fundacja Ma\u0142opolski Innowacyjny Zesp\u00f3\u0142 Edukacyjny",
                "operator:type": "ngo",
                "amenity": "school"
            }
        },
        {
            "id": 278154,
            "type": "Feature",
            "geometry": {
                "type": "Point",
                "coordinates": [
                    20.0675849,
                    50.2323731
                ]
            },
            "properties": {
                "isced:level": "1;2",
                "ref:rspo": 278154,
                "official_name": "Szko\u0142a Podstawowa z Oddzia\u0142em Przedszkolnym w Poskwitowie",
                "name": "Szko\u0142a Podstawowa z Oddzia\u0142em Przedszkolnym w Poskwitowie",
                "addr:postcode": "32-095",
                "addr:place": "Poskwit\u00f3w",
                "addr:housenumber": "92",
                "addr:city:simc": 320673,
                "phone": "+48 123884077",
                "email": "sp.poskwitow@interia.pl",
                "website": "http:\/\/www.poskwitow.edu.pl",
                "ref:regon": "389852285",
                "ref:vatin": "PL6821782886",
                "operator": "Stowarzyszenie Przyjaci\u00f3\u0142 Szko\u0142y",
                "operator:type": "ngo",
                "amenity": "school"
            }
        },
        {
            "id": 128930,
            "type": "Feature",
            "geometry": {
                "type": "Point",
                "coordinates": [
                    19.9609099,
                    50.25274
                ]
            },
            "properties": {
                "isced:level": "1;2",
                "ref:rspo": 128930,
                "official_name": "Szko\u0142a Podstawowa im. Szarych Szereg\u00f3w w Sieciechowicach",
                "name": "Szko\u0142a Podstawowa",
                "addr:postcode": "32-095",
                "addr:city": "Sieciechowice",
                "addr:street": "Szkolna",
                "addr:housenumber": "6",
                "addr:city:simc": 320733,
                "addr:street:sym_ul": 21970,
                "phone": "+48 123882422",
                "email": "sp.sieciechowice@wp.pl",
                "website": "http:\/\/spsieciechowice.edupage.org",
                "ref:regon": "362437015",
                "ref:vatin": "PL6782569880",
                "operator": "Janusz Maj",
                "operator:type": "private",
                "amenity": "school"
            }
        },
        {
            "id": 128929,
            "type": "Feature",
            "geometry": {
                "type": "Point",
                "coordinates": [
                    19.978272,
                    50.2674389
                ]
            },
            "properties": {
                "isced:level": "1;2",
                "ref:rspo": 128929,
                "official_name": "Publiczna Szko\u0142a Podstawowa im. \u015aw. Jana Bosko w Celinach z Oddzia\u0142ami Przedszkolnymi",
                "name": "Publiczna Szko\u0142a Podstawowa",
                "addr:postcode": "32-095",
                "addr:place": "Celiny",
                "addr:housenumber": "155",
                "addr:city:simc": 320319,
                "phone": "+48 124426770",
                "email": "sp.celiny@vp.pl",
                "ref:regon": "362436895",
                "ref:vatin": "PL6821092845",
                "operator": "Anna Krawczyk",
                "operator:type": "private",
                "amenity": "school"
            }
        },
        {
            "id": 132719,
            "type": "Feature",
            "geometry": {
                "type": "Point",
                "coordinates": [
                    19.978272,
                    50.2674089
                ]
            },
            "properties": {
                "ref:rspo": 132719,
                "official_name": "Punkt Przedszkolny \"Krasnoludki\" Przy Szkole Podstawowej w im. \u015aw.jana Bosko w Celinach",
                "name": "Punkt Przedszkolny \"Krasnoludki\" Przy Szkole Podstawowej w",
                "addr:postcode": "32-095",
                "addr:place": "Celiny",
                "addr:housenumber": "155",
                "addr:city:simc": 320319,
                "phone": "+48 124426770",
                "email": "sp.celiny@vp.pl",
                "ref:regon": "366119335",
                "ref:vatin": "PL6821092845",
                "operator": "Anna Krawczyk",
                "operator:type": "private",
                "amenity": "kindergarten"
            }
        }
    ]
}