{
    "type": "FeatureCollection",
    "features": [
        {
            "id": 128292,
            "type": "Feature",
            "geometry": {
                "type": "Point",
                "coordinates": [
                    19.80415,
                    50.11456
                ]
            },
            "properties": {
                "ref:rspo": 128292,
                "official_name": "Zesp\u00f3\u0142 Szkolno-Przedszkolny w Wielmo\u017cy",
                "name": "Zesp\u00f3\u0142 Szkolno-Przedszkolny w Wielmo\u017cy",
                "addr:postcode": "32-045",
                "addr:city": "Wielmo\u017ca",
                "addr:street": "Szkolna",
                "addr:housenumber": "55",
                "addr:city:simc": 337320,
                "addr:street:sym_ul": 21970,
                "phone": "+48 123897068",
                "email": "spwielmoza@poczta.onet.pl",
                "website": "https:\/\/szkolawielmoza.edupage.org\/",
                "ref:regon": "362224555",
                "operator": "Gmina Su\u0142oszowa",
                "operator:type": "government",
                "landuse": "education",
                "fixme": "amenity=school, amenity=college albo landuse=education w zale\u017cno\u015bci od tego, jakie plac\u00f3wki wchodz\u0105 w sk\u0142ad zespo\u0142u. Sprawd\u017a, kiedy stosowa\u0107 amenity=* a kiedy landuse=education.",
                "note": "Children RSPO: 38904;129012"
            }
        },
        {
            "id": 38904,
            "type": "Feature",
            "geometry": {
                "type": "Point",
                "coordinates": [
                    19.80415,
                    50.114529999999995
                ]
            },
            "properties": {
                "isced:level": "1;2",
                "ref:rspo": 38904,
                "official_name": "Szko\u0142a Podstawowa im. Powsta\u0144c\u00f3w Styczniowych w Wielmo\u017cy",
                "name": "Szko\u0142a Podstawowa",
                "addr:postcode": "32-045",
                "addr:city": "Wielmo\u017ca",
                "addr:street": "Szkolna",
                "addr:housenumber": "55",
                "addr:city:simc": 337320,
                "addr:street:sym_ul": 21970,
                "phone": "+48 123897068",
                "email": "spwielmoza@poczta.onet.pl",
                "ref:regon": "000699796",
                "ref:vatin": "PL9441998245",
                "operator": "Gmina Su\u0142oszowa",
                "operator:type": "government",
                "amenity": "school",
                "note": "Parent RSPO: 128292"
            }
        },
        {
            "id": 129012,
            "type": "Feature",
            "geometry": {
                "type": "Point",
                "coordinates": [
                    19.80415,
                    50.1145
                ]
            },
            "properties": {
                "ref:rspo": 129012,
                "official_name": "Przedszkole w Wielmo\u017cy",
                "name": "Przedszkole w Wielmo\u017cy",
                "addr:postcode": "32-045",
                "addr:city": "Wielmo\u017ca",
                "addr:street": "Szkolna",
                "addr:housenumber": "55",
                "addr:city:simc": 337320,
                "addr:street:sym_ul": 21970,
                "phone": "+48 123897068",
                "ref:regon": "362445753",
                "operator": "Gmina Su\u0142oszowa",
                "operator:type": "government",
                "amenity": "kindergarten",
                "note": "Parent RSPO: 128292"
            }
        },
        {
            "id": 34783,
            "type": "Feature",
            "geometry": {
                "type": "Point",
                "coordinates": [
                    19.80967,
                    50.22516
                ]
            },
            "properties": {
                "ref:rspo": 34783,
                "official_name": "Zesp\u00f3\u0142 Plac\u00f3wek O\u015bwiatowych w Woli Kalinowskiej",
                "name": "Zesp\u00f3\u0142 Plac\u00f3wek O\u015bwiatowych w Woli Kalinowskiej",
                "addr:postcode": "32-045",
                "addr:city": "Wola Kalinowska",
                "addr:street": "Szkolna",
                "addr:housenumber": "12",
                "addr:city:simc": 337478,
                "addr:street:sym_ul": 21970,
                "phone": "+48 123891064",
                "email": "spwk@interia.pl",
                "website": "http:\/\/www.wolakalinowskaszkolaischronisko.pl",
                "ref:regon": "121024024",
                "ref:vatin": "PL5130197363",
                "operator": "Gmina Su\u0142oszowa",
                "operator:type": "government",
                "landuse": "education",
                "fixme": "amenity=school, amenity=college albo landuse=education w zale\u017cno\u015bci od tego, jakie plac\u00f3wki wchodz\u0105 w sk\u0142ad zespo\u0142u. Sprawd\u017a, kiedy stosowa\u0107 amenity=* a kiedy landuse=education.",
                "note": "Children RSPO: 44097;44098"
            }
        },
        {
            "id": 44097,
            "type": "Feature",
            "geometry": {
                "type": "Point",
                "coordinates": [
                    19.80967,
                    50.22513
                ]
            },
            "properties": {
                "isced:level": "1;2",
                "ref:rspo": 44097,
                "official_name": "Szko\u0142a Podstawowa im. W\u0142adys\u0142awa Szafera w Woli Kalinowskiej",
                "name": "Szko\u0142a Podstawowa",
                "addr:postcode": "32-045",
                "addr:city": "Wola Kalinowska",
                "addr:street": "Szkolna",
                "addr:housenumber": "12",
                "addr:city:simc": 337478,
                "addr:street:sym_ul": 21970,
                "phone": "+48 123891064",
                "email": "spwk@interia.pl",
                "website": "http:\/\/wolakalinowskaszkolaischronisko.pl\/",
                "ref:regon": "001061191",
                "operator": "Gmina Su\u0142oszowa",
                "operator:type": "government",
                "amenity": "school",
                "note": "Parent RSPO: 34783"
            }
        },
        {
            "id": 44098,
            "type": "Feature",
            "geometry": {
                "type": "Point",
                "coordinates": [
                    19.80967,
                    50.225100000000005
                ]
            },
            "properties": {
                "ref:rspo": 44098,
                "official_name": "Szkolne Schronisko M\u0142odzie\u017cowe w Woli Kalinowskiej",
                "name": "Szkolne Schronisko M\u0142odzie\u017cowe w Woli Kalinowskiej",
                "addr:postcode": "32-045",
                "addr:city": "Wola Kalinowska",
                "addr:street": "Szkolna",
                "addr:housenumber": "12",
                "addr:city:simc": 337478,
                "addr:street:sym_ul": 21970,
                "phone": "+48 123891064",
                "email": "spwk@interia.pl",
                "ref:regon": "121024053",
                "operator": "Gmina Su\u0142oszowa",
                "operator:type": "government",
                "tourism": "hostel",
                "note": "Parent RSPO: 34783"
            }
        },
        {
            "id": 34873,
            "type": "Feature",
            "geometry": {
                "type": "Point",
                "coordinates": [
                    19.8088,
                    50.2252
                ]
            },
            "properties": {
                "ref:rspo": 34873,
                "official_name": "Publiczne Przedszkole w Su\u0142oszowej",
                "name": "Publiczne Przedszkole w Su\u0142oszowej",
                "addr:postcode": "32-045",
                "addr:city": "Su\u0142oszowa",
                "addr:street": "Szkolna",
                "addr:housenumber": "7",
                "addr:city:simc": 337231,
                "addr:street:sym_ul": 21970,
                "phone": "+48 123896063",
                "email": "przedszkole.suloszowa@poczta.onet.pl",
                "website": "http:\/\/przedszkole.suloszowa.pl\/",
                "ref:regon": "350018351",
                "ref:vatin": "PL9441998216",
                "operator": "Gmina Su\u0142oszowa",
                "operator:type": "government",
                "amenity": "kindergarten"
            }
        },
        {
            "id": 38906,
            "type": "Feature",
            "geometry": {
                "type": "Point",
                "coordinates": [
                    19.8088,
                    50.22517
                ]
            },
            "properties": {
                "isced:level": "1;2",
                "ref:rspo": 38906,
                "official_name": "Szko\u0142a Podstawowa Nr 1 im. Jana Paw\u0142a II w Su\u0142oszowej",
                "name": "Szko\u0142a Podstawowa Nr 1",
                "addr:postcode": "32-045",
                "addr:city": "Su\u0142oszowa",
                "addr:street": "Szkolna",
                "addr:housenumber": "9",
                "addr:city:simc": 337231,
                "addr:street:sym_ul": 21970,
                "phone": "+48 123896025",
                "email": "sp_suloszowa@poczta.onet.pl",
                "website": "http:\/\/www.sp1suloszowa.pl",
                "ref:regon": "000699773",
                "ref:vatin": "PL9441998222",
                "operator": "Gmina Su\u0142oszowa",
                "operator:type": "government",
                "amenity": "school"
            }
        },
        {
            "id": 88976,
            "type": "Feature",
            "geometry": {
                "type": "Point",
                "coordinates": [
                    19.75296,
                    50.2554
                ]
            },
            "properties": {
                "isced:level": "1;2",
                "ref:rspo": 88976,
                "official_name": "Szko\u0142a Podstawowa Nr 2 im. Batalion\u00f3w Ch\u0142opskich w Su\u0142oszowej",
                "name": "Szko\u0142a Podstawowa Nr 2",
                "addr:postcode": "32-045",
                "addr:city": "Su\u0142oszowa",
                "addr:street": "Olkuska",
                "addr:housenumber": "316",
                "addr:city:simc": 337231,
                "addr:street:sym_ul": 14995,
                "phone": "+48 123896022",
                "email": "sp2suloszowa@interia.pl",
                "website": "http:\/\/www.sp2suloszowa.edupage.org\/",
                "ref:regon": "000699780",
                "ref:vatin": "PL9441998239",
                "operator": "Gmina Su\u0142oszowa",
                "operator:type": "government",
                "amenity": "school"
            }
        }
    ]
}