{
    "type": "FeatureCollection",
    "features": [
        {
            "id": 7372,
            "type": "Feature",
            "geometry": {
                "type": "Point",
                "coordinates": [
                    19.85612,
                    52.33406
                ]
            },
            "properties": {
                "isced:level": "1;2",
                "ref:rspo": 7372,
                "official_name": "Szko\u0142a Podstawowa im. Fryderyka Chopina w Sannikach",
                "name": "Szko\u0142a Podstawowa",
                "addr:country": "PL",
                "addr:postcode": "09-540",
                "addr:city": "Sanniki",
                "addr:street": "ul. Warszawska",
                "addr:housenumber": "183",
                "addr:teryt:simc": 23682,
                "addr:teryt:sym_ul": 574511,
                "contact:phone": "+48 242776018",
                "contact:email": "spsanniki@wp.pl",
                "contact:website": "http:\/\/www.spsanniki.szkolnastrona.pl",
                "ref:regon": "000272537",
                "ref:vatin": "PL9710615632",
                "operator": "Miasto I Gmina Sanniki",
                "operator:type": "government",
                "amenity": "school"
            }
        },
        {
            "id": 274461,
            "type": "Feature",
            "geometry": {
                "type": "Point",
                "coordinates": [
                    19.871,
                    52.3344
                ]
            },
            "properties": {
                "ref:rspo": 274461,
                "official_name": "Niepubliczny O\u015brodek Doskonalenia Nauczycieli Robert Franciszek Niezgoda",
                "name": "Niepubliczny O\u015brodek Doskonalenia Nauczycieli Robert Franciszek Niezgoda",
                "addr:country": "PL",
                "addr:postcode": "09-540",
                "addr:city": "Sanniki",
                "addr:street": "ul. Wincentego Witosa",
                "addr:housenumber": "9",
                "addr:teryt:simc": 24459,
                "addr:teryt:sym_ul": 574511,
                "contact:email": "robmed@wp.pl",
                "contact:website": "http:\/\/isplek-robmed.pl",
                "ref:regon": "385806650",
                "operator": "Indywidualna Specjalistyczna Praktyka Lekarska Robert Franciszek Niezgoda",
                "operator:type": "consortium",
                "amenity": "training"
            }
        },
        {
            "id": 7688,
            "type": "Feature",
            "geometry": {
                "type": "Point",
                "coordinates": [
                    19.86513,
                    52.33534
                ]
            },
            "properties": {
                "ref:rspo": 7688,
                "official_name": "Przedszkole Samorz\u0105dowe w Sannikach",
                "name": "Przedszkole Samorz\u0105dowe w Sannikach",
                "addr:country": "PL",
                "addr:postcode": "09-540",
                "addr:city": "Sanniki",
                "addr:street": "ul. W\u00f3lczy\u0144ska",
                "addr:housenumber": "75",
                "addr:teryt:simc": 24798,
                "addr:teryt:sym_ul": 574511,
                "contact:phone": "+48 242776067",
                "contact:email": "przedsan@wp.pl",
                "ref:regon": "000903736",
                "ref:vatin": "PL9710615678",
                "operator": "Miasto I Gmina Sanniki",
                "operator:type": "government",
                "amenity": "kindergarten"
            }
        },
        {
            "id": 10323,
            "type": "Feature",
            "geometry": {
                "type": "Point",
                "coordinates": [
                    19.87363,
                    52.3501
                ]
            },
            "properties": {
                "ref:rspo": 10323,
                "official_name": "Specjalny O\u015brodek Wychowawczy Zgromadzenia Si\u00f3str Zmartwychwstania Pa\u0144skiego im. Matki Celiny Borz\u0119c",
                "name": "Specjalny O\u015brodek Wychowawczy Zgromadzenia Si\u00f3str Zmartwychwstania Pa\u0144skiego",
                "addr:country": "PL",
                "addr:postcode": "09-540",
                "addr:place": "Mocarzewo",
                "addr:housenumber": "13",
                "addr:teryt:sym_ul": 574480,
                "contact:phone": "+48 242776392",
                "contact:website": "http:\/\/www.mocarzewo.pl",
                "ref:regon": "146284464",
                "operator": "Zg.ss.zmartwychwstania Pa\u0144skiego,Prowincja Warszawska",
                "operator:type": "religious",
                "amenity": "social_facility",
                "social_facility": "group_home",
                "social_facility:for": "child;juvenile"
            }
        },
        {
            "id": 10708,
            "type": "Feature",
            "geometry": {
                "type": "Point",
                "coordinates": [
                    19.87363,
                    52.350069999999995
                ]
            },
            "properties": {
                "ref:rspo": 10708,
                "official_name": "Zesp\u00f3\u0142 Szk\u00f3\u0142 I Plac\u00f3wek Specjalnych w Mocarzewie",
                "name": "Zesp\u00f3\u0142 Szk\u00f3\u0142 I Plac\u00f3wek Specjalnych w Mocarzewie",
                "addr:country": "PL",
                "addr:postcode": "09-540",
                "addr:place": "Mocarzewo",
                "addr:housenumber": "13",
                "addr:teryt:sym_ul": 574480,
                "contact:phone": "+48 242776158",
                "contact:email": "mocarzewo@wp.pl",
                "contact:website": "http:\/\/www.mocarzewo.pl",
                "ref:regon": "146219107",
                "operator": "Powiat Gostyni\u0144ski",
                "operator:type": "government",
                "landuse": "education",
                "fixme": "amenity=school, amenity=college albo landuse=education w zale\u017cno\u015bci od tego, jakie plac\u00f3wki wchodz\u0105 w sk\u0142ad zespo\u0142u. Sprawd\u017a, kiedy stosowa\u0107 amenity=* a kiedy landuse=education.",
                "note": "Children RSPO: 111797;111805;131459;131460"
            }
        },
        {
            "id": 111797,
            "type": "Feature",
            "geometry": {
                "type": "Point",
                "coordinates": [
                    19.87363,
                    52.35004
                ]
            },
            "properties": {
                "isced:level": "1;2",
                "ref:rspo": 111797,
                "official_name": "Szko\u0142a Podstawowa Specjalna w Mocarzewie",
                "name": "Szko\u0142a Podstawowa Specjalna w Mocarzewie",
                "addr:country": "PL",
                "addr:postcode": "09-540",
                "addr:place": "Mocarzewo",
                "addr:housenumber": "13",
                "addr:door": "-",
                "addr:teryt:sym_ul": 574480,
                "contact:phone": "+48 242776158",
                "contact:email": "mocarzewo@wp.pl",
                "contact:website": "http:\/\/www.mocarzewo.pl",
                "ref:regon": "001229934",
                "ref:vatin": "PL9710609985",
                "operator": "Powiat Gostyni\u0144ski",
                "operator:type": "government",
                "amenity": "school",
                "note": "Parent RSPO: 10708"
            }
        },
        {
            "id": 111805,
            "type": "Feature",
            "geometry": {
                "type": "Point",
                "coordinates": [
                    19.87363,
                    52.35001
                ]
            },
            "properties": {
                "ref:rspo": 111805,
                "official_name": "Szko\u0142a Specjalna Przysposabiaj\u0105ca Do Pracy w Mocarzewie",
                "name": "Szko\u0142a Specjalna Przysposabiaj\u0105ca Do Pracy w Mocarzewie",
                "addr:country": "PL",
                "addr:postcode": "09-540",
                "addr:place": "Mocarzewo",
                "addr:housenumber": "13",
                "addr:door": "-",
                "addr:teryt:sym_ul": 574480,
                "contact:phone": "+48 242776158",
                "contact:email": "mocarzewo@wp.pl",
                "contact:website": "http:\/\/www.mocarzewo.pl",
                "ref:regon": "146219120",
                "ref:vatin": "PL9710721713",
                "operator": "Powiat Gostyni\u0144ski",
                "operator:type": "government",
                "amenity": "school",
                "note": "Parent RSPO: 10708"
            }
        },
        {
            "id": 131459,
            "type": "Feature",
            "geometry": {
                "type": "Point",
                "coordinates": [
                    19.87363,
                    52.349979999999995
                ]
            },
            "properties": {
                "ref:rspo": 131459,
                "official_name": "Przedszkole Specjalne w Mocarzewie",
                "name": "Przedszkole Specjalne w Mocarzewie",
                "addr:country": "PL",
                "addr:postcode": "09-540",
                "addr:place": "Mocarzewo",
                "addr:housenumber": "13",
                "addr:teryt:sym_ul": 574480,
                "contact:phone": "+48 242776158",
                "contact:email": "mocarzewo@wp.pl",
                "contact:website": "http:\/\/www.mocarzewo.pl",
                "ref:regon": "365187056",
                "operator": "Powiat Gostyni\u0144ski",
                "operator:type": "government",
                "amenity": "kindergarten",
                "note": "Parent RSPO: 10708"
            }
        },
        {
            "id": 131460,
            "type": "Feature",
            "geometry": {
                "type": "Point",
                "coordinates": [
                    19.87363,
                    52.34995
                ]
            },
            "properties": {
                "ref:rspo": 131460,
                "official_name": "O\u015brodek-Rewalidacyjno - Wychowawczy w Mocarzewie",
                "name": "O\u015brodek-Rewalidacyjno - Wychowawczy w Mocarzewie",
                "addr:country": "PL",
                "addr:postcode": "09-540",
                "addr:place": "Mocarzewo",
                "addr:housenumber": "13",
                "addr:teryt:sym_ul": 574480,
                "contact:phone": "+48 242776158",
                "contact:email": "mocarzewo@wp.pl",
                "contact:website": "http:\/\/www.mocarzewo.pl",
                "ref:regon": "365187079",
                "operator": "Powiat Gostyni\u0144ski",
                "operator:type": "government",
                "amenity": "school",
                "note": "Parent RSPO: 10708"
            }
        }
    ]
}