{
    "type": "FeatureCollection",
    "features": [
        {
            "id": 81489,
            "type": "Feature",
            "geometry": {
                "type": "Point",
                "coordinates": [
                    19.571430206299,
                    52.37809753418
                ]
            },
            "properties": {
                "isced:level": "1;2",
                "ref:rspo": 81489,
                "official_name": "Szko\u0142a Podstawowa im. Marsza\u0142ka J\u00f3zefa Pi\u0142sudskiego w Sierak\u00f3wku",
                "name": "Szko\u0142a Podstawowa",
                "addr:postcode": "09-500",
                "addr:place": "Sierak\u00f3wek",
                "addr:housenumber": "1",
                "addr:teryt:simc": 564843,
                "phone": "+48 242351283",
                "email": "spsierakowek@gminagostynin.pl",
                "website": "http:\/\/sp.sierakowek.szkolnastrona.pl",
                "ref:regon": "000689384",
                "ref:vatin": "PL9710699764",
                "operator": "Gmina Gostynin",
                "operator:type": "government",
                "amenity": "school"
            }
        },
        {
            "id": 264725,
            "type": "Feature",
            "geometry": {
                "type": "Point",
                "coordinates": [
                    19.571430206299,
                    52.37806753418
                ]
            },
            "properties": {
                "ref:rspo": 264725,
                "official_name": "Punkt Przedszkolny w Szkole Podstawowej im. Marsza\u0142ka J\u00f3zefa Pi\u0142sudskiego w Sierak\u00f3wku",
                "name": "Punkt Przedszkolny w Szkole Podstawowej",
                "addr:postcode": "09-500",
                "addr:place": "Sierak\u00f3wek",
                "addr:housenumber": "1",
                "addr:teryt:simc": 564843,
                "phone": "+48 242351283",
                "email": "szkola_sierakowek@wp.pl",
                "ref:regon": "368438286",
                "operator": "Gmina Gostynin",
                "operator:type": "government",
                "amenity": "kindergarten"
            }
        },
        {
            "id": 60374,
            "type": "Feature",
            "geometry": {
                "type": "Point",
                "coordinates": [
                    19.3461399,
                    52.38601
                ]
            },
            "properties": {
                "isced:level": "1;2",
                "ref:rspo": 60374,
                "official_name": "Szko\u0142a Podstawowa im. Marii Kownackiej w Soko\u0142owie",
                "name": "Szko\u0142a Podstawowa",
                "addr:postcode": "09-500",
                "addr:place": "Soko\u0142\u00f3w",
                "addr:housenumber": "10",
                "addr:teryt:simc": 564866,
                "phone": "+48 242351905",
                "email": "sokolow@strony.pl",
                "website": "http:\/\/sokolow.edu.pl",
                "ref:regon": "000640739",
                "ref:vatin": "PL9710699623",
                "operator": "Gmina Gostynin",
                "operator:type": "government",
                "amenity": "school"
            }
        },
        {
            "id": 60568,
            "type": "Feature",
            "geometry": {
                "type": "Point",
                "coordinates": [
                    19.55596,
                    52.42837
                ]
            },
            "properties": {
                "isced:level": "1;2",
                "ref:rspo": 60568,
                "official_name": "Szko\u0142a Podstawowa im. Powsta\u0144c\u00f3w Styczniowych w Zwoleniu",
                "name": "Szko\u0142a Podstawowa",
                "addr:postcode": "09-500",
                "addr:place": "Zwole\u0144",
                "addr:housenumber": "35\/36",
                "addr:teryt:simc": 565009,
                "phone": "+48 242353786",
                "email": "spzwolen@gminagostynin.pl",
                "website": "http:\/\/www.spzwolen.pl",
                "ref:regon": "001112876",
                "ref:vatin": "PL9710699497",
                "operator": "Gmina Gostynin",
                "operator:type": "government",
                "amenity": "school"
            }
        },
        {
            "id": 87085,
            "type": "Feature",
            "geometry": {
                "type": "Point",
                "coordinates": [
                    19.37024,
                    52.43865
                ]
            },
            "properties": {
                "isced:level": "1;2",
                "ref:rspo": 87085,
                "official_name": "Szko\u0142a Podstawowa im.w\u0142adys\u0142awa St. Reymonta w Solcu",
                "name": "Szko\u0142a Podstawowa im.w\u0142adys\u0142awa St. Reymonta w Solcu",
                "addr:postcode": "09-500",
                "addr:place": "Solec",
                "addr:housenumber": "6",
                "addr:teryt:simc": 564903,
                "phone": "+48 242357933",
                "email": "s.solec@wp.pl",
                "ref:regon": "001113195",
                "ref:vatin": "PL9710699681",
                "operator": "Gmina Gostynin",
                "operator:type": "government",
                "amenity": "school"
            }
        },
        {
            "id": 264466,
            "type": "Feature",
            "geometry": {
                "type": "Point",
                "coordinates": [
                    19.37024,
                    52.43862
                ]
            },
            "properties": {
                "ref:rspo": 264466,
                "official_name": "Punkt Przedszkolny w Szkole Podstawowej im. W\u0142. St. Reymonta w Solcu",
                "name": "Punkt Przedszkolny w Szkole Podstawowej",
                "addr:postcode": "09-500",
                "addr:place": "Solec",
                "addr:housenumber": "6",
                "addr:teryt:simc": 564903,
                "phone": "+48 242357933",
                "email": "s.solec@wp.pl",
                "ref:regon": "368355353",
                "operator": "Gmina Gostynin",
                "operator:type": "government",
                "amenity": "kindergarten"
            }
        },
        {
            "id": 58967,
            "type": "Feature",
            "geometry": {
                "type": "Point",
                "coordinates": [
                    19.3235199,
                    52.44539
                ]
            },
            "properties": {
                "isced:level": "1;2",
                "ref:rspo": 58967,
                "official_name": "Szko\u0142a Podstawowa im. Or\u0142a Bia\u0142ego w Bia\u0142otarsku",
                "name": "Szko\u0142a Podstawowa",
                "addr:postcode": "09-500",
                "addr:place": "Bia\u0142otarsk",
                "addr:housenumber": "34",
                "addr:teryt:simc": 564180,
                "phone": "+48 242351812",
                "email": "spbialotarsk@gminagostynin.pl",
                "website": "http:\/\/bialotarsk.szkolnastrona.pl",
                "ref:regon": "001113166",
                "ref:vatin": "PL9710699511",
                "operator": "Gmina Gostynin",
                "operator:type": "government",
                "amenity": "school"
            }
        },
        {
            "id": 265989,
            "type": "Feature",
            "geometry": {
                "type": "Point",
                "coordinates": [
                    19.3235199,
                    52.44536
                ]
            },
            "properties": {
                "ref:rspo": 265989,
                "official_name": "Punkt Przedszkolny w Szkole Podstawowej im. Or\u0142a Bia\u0142ego w Bia\u0142otarsku",
                "name": "Punkt Przedszkolny w Szkole Podstawowej",
                "addr:postcode": "09-500",
                "addr:place": "Bia\u0142otarsk",
                "addr:housenumber": "34",
                "addr:teryt:simc": 564180,
                "phone": "+48 242351812",
                "email": "spbialotarsk@gminagostynin.pl",
                "ref:regon": "369127430",
                "operator": "Gmina Gostynin",
                "operator:type": "government",
                "amenity": "kindergarten"
            }
        },
        {
            "id": 87148,
            "type": "Feature",
            "geometry": {
                "type": "Point",
                "coordinates": [
                    19.53724,
                    52.45649
                ]
            },
            "properties": {
                "isced:level": "1;2",
                "ref:rspo": 87148,
                "official_name": "Szko\u0142a Podstawowa im.bohater\u00f3w 1 Grudnia 1939R w Emilianowie",
                "name": "Szko\u0142a Podstawowa im.bohater\u00f3w 1 Grudnia 1939R w Emilianowie",
                "addr:postcode": "09-500",
                "addr:place": "Stefan\u00f3w",
                "addr:housenumber": "38",
                "addr:teryt:simc": 564949,
                "phone": "+48 242352263",
                "email": "spemilianow@gminagostynin.pl",
                "website": "http:\/\/www.emilszkola.pl",
                "ref:regon": "001112920",
                "ref:vatin": "PL9710699669",
                "operator": "Gmina Gostynin",
                "operator:type": "government",
                "amenity": "school"
            }
        },
        {
            "id": 264467,
            "type": "Feature",
            "geometry": {
                "type": "Point",
                "coordinates": [
                    19.53724,
                    52.45646
                ]
            },
            "properties": {
                "ref:rspo": 264467,
                "official_name": "Integracyjny Punkt Przedszkolny w Szkole Podstawowej im. Bohater\u00f3w 1 Grudnia 1939R. w Emilianowie",
                "name": "Integracyjny Punkt Przedszkolny w Szkole Podstawowej",
                "addr:postcode": "09-500",
                "addr:place": "Stefan\u00f3w",
                "addr:housenumber": "38",
                "addr:teryt:simc": 564949,
                "phone": "+48 242352263",
                "email": "spemilianow@gminagostynin.pl",
                "ref:regon": "368356594",
                "operator": "Gmina Gostynin",
                "operator:type": "government",
                "amenity": "kindergarten"
            }
        },
        {
            "id": 60148,
            "type": "Feature",
            "geometry": {
                "type": "Point",
                "coordinates": [
                    19.39005,
                    52.46461
                ]
            },
            "properties": {
                "isced:level": "1;2",
                "ref:rspo": 60148,
                "official_name": "Szko\u0142a Podstawowa w Teodorowie",
                "name": "Szko\u0142a Podstawowa w Teodorowie",
                "addr:postcode": "09-500",
                "addr:place": "Krzywie",
                "addr:housenumber": "48",
                "addr:teryt:simc": 564501,
                "phone": "+48 242359012",
                "email": "teodorow@vp.pl",
                "website": "http:\/\/spteodorow.pl",
                "ref:regon": "001113172",
                "ref:vatin": "PL9710699385",
                "operator": "Gmina Gostynin",
                "operator:type": "government",
                "amenity": "school"
            }
        },
        {
            "id": 60828,
            "type": "Feature",
            "geometry": {
                "type": "Point",
                "coordinates": [
                    19.47296,
                    52.48843
                ]
            },
            "properties": {
                "isced:level": "1;2",
                "ref:rspo": 60828,
                "official_name": "Szko\u0142a Podstawowa w Lucieniu",
                "name": "Szko\u0142a Podstawowa w Lucieniu",
                "addr:postcode": "09-500",
                "addr:place": "Lucie\u0144",
                "addr:housenumber": "46",
                "addr:teryt:simc": 564560,
                "phone": "+48 242351710",
                "email": "splucien@gminagostynin.pl",
                "ref:regon": "001112899",
                "ref:vatin": "PL9710699534",
                "operator": "Gmina Gostynin",
                "operator:type": "government",
                "amenity": "school"
            }
        },
        {
            "id": 264464,
            "type": "Feature",
            "geometry": {
                "type": "Point",
                "coordinates": [
                    19.47296,
                    52.4884
                ]
            },
            "properties": {
                "ref:rspo": 264464,
                "official_name": "Punkt Przedszkolny w Szkole Podstawowej w Lucieniu",
                "name": "Punkt Przedszkolny w Szkole Podstawowej w Lucieniu",
                "addr:postcode": "09-500",
                "addr:place": "Lucie\u0144",
                "addr:housenumber": "46",
                "addr:teryt:simc": 564560,
                "phone": "+48 242351710",
                "email": "sp_lucien@op.pl",
                "ref:regon": "368355229",
                "operator": "Gmina Gostynin",
                "operator:type": "government",
                "amenity": "kindergarten"
            }
        }
    ]
}