{
    "type": "FeatureCollection",
    "features": [
        {
            "id": 10574,
            "type": "Feature",
            "geometry": {
                "type": "Point",
                "coordinates": [
                    19.4621299,
                    52.41768
                ]
            },
            "properties": {
                "ref:rspo": 10574,
                "official_name": "Gostyni\u0144skie Centrum Edukacyjne",
                "name": "Gostyni\u0144skie Centrum Edukacyjne",
                "addr:postcode": "09-500",
                "addr:city": "Gostynin",
                "addr:street": "Polna",
                "addr:housenumber": "39",
                "addr:city:simc": 968977,
                "addr:street:sym_ul": 17011,
                "phone": "+48 242353880",
                "email": "gce@gostynin.edu.pl",
                "website": "http:\/\/www.gce.gostynin.edu.pl",
                "ref:regon": "000781411",
                "ref:vatin": "PL9710564981",
                "operator": "Powiat Gostyni\u0144ski",
                "operator:type": "government",
                "landuse": "education",
                "fixme": "amenity=school, amenity=college albo landuse=education w zale\u017cno\u015bci od tego, jakie plac\u00f3wki wchodz\u0105 w sk\u0142ad zespo\u0142u. Sprawd\u017a, kiedy stosowa\u0107 amenity=* a kiedy landuse=education.",
                "note": "Children RSPO: 113469;113561;113664;113672"
            }
        },
        {
            "id": 113469,
            "type": "Feature",
            "geometry": {
                "type": "Point",
                "coordinates": [
                    19.4621299,
                    52.417649999999995
                ]
            },
            "properties": {
                "isced:level": "3",
                "ref:rspo": 113469,
                "official_name": "Technikum",
                "name": "Technikum",
                "addr:postcode": "09-500",
                "addr:city": "Gostynin",
                "addr:street": "Polna",
                "addr:housenumber": "39",
                "addr:door": "-",
                "addr:city:simc": 968977,
                "addr:street:sym_ul": 17011,
                "phone": "+48 242353880",
                "email": "gce@gostynin.edu.pl",
                "website": "http:\/\/www.gce.gostynin.edu.pl",
                "ref:regon": "611329862",
                "operator": "Powiat Gostyni\u0144ski",
                "operator:type": "government",
                "amenity": "school",
                "note": "Parent RSPO: 10574"
            }
        },
        {
            "id": 113561,
            "type": "Feature",
            "geometry": {
                "type": "Point",
                "coordinates": [
                    19.4621299,
                    52.41762
                ]
            },
            "properties": {
                "ref:rspo": 113561,
                "official_name": "Centrum Kszta\u0142cenia Zawodowego w Gostyninie",
                "name": "Centrum Kszta\u0142cenia Zawodowego w Gostyninie",
                "addr:postcode": "09-500",
                "addr:city": "Gostynin",
                "addr:street": "Polna",
                "addr:housenumber": "39",
                "addr:door": "-",
                "addr:city:simc": 968977,
                "addr:street:sym_ul": 17011,
                "phone": "+48 242353880",
                "email": "gce@gostynin.edu.pl",
                "website": "http:\/\/www.gce.gostynin.edu.pl",
                "ref:regon": "611319711",
                "ref:vatin": "PL9710681385",
                "operator": "Powiat Gostyni\u0144ski",
                "operator:type": "government",
                "fixme": "w zale\u017cno\u015bci od przedmiotu dzia\u0142alno\u015bci (np. amenity=training + training=*, amenity=dancing_school, amenity=language_school, amenity=music_school) albo amenity=school, amenity=college, albo landuse=education w zale\u017cno\u015bci od tego, jakie plac\u00f3wki wchodz\u0105 w sk\u0142ad zespo\u0142u. Sprawd\u017a, kiedy stosowa\u0107 amenity=* a kiedy landuse=education.",
                "note": "Parent RSPO: 10574"
            }
        },
        {
            "id": 113664,
            "type": "Feature",
            "geometry": {
                "type": "Point",
                "coordinates": [
                    19.4621299,
                    52.41759
                ]
            },
            "properties": {
                "isced:level": "3",
                "ref:rspo": 113664,
                "official_name": "Liceum Og\u00f3lnokszta\u0142c\u0105ce dla Doros\u0142ych",
                "name": "Liceum Og\u00f3lnokszta\u0142c\u0105ce dla Doros\u0142ych",
                "addr:postcode": "09-500",
                "addr:city": "Gostynin",
                "addr:street": "Polna",
                "addr:housenumber": "39",
                "addr:door": "-",
                "addr:city:simc": 968977,
                "addr:street:sym_ul": 17011,
                "phone": "+48 242353880",
                "email": "gce@gostynin.edu.pl",
                "website": "http:\/\/www.gce.gostynin.edu.pl",
                "ref:regon": "146625942",
                "operator": "Powiat Gostyni\u0144ski",
                "operator:type": "government",
                "amenity": "school",
                "note": "Parent RSPO: 10574"
            }
        },
        {
            "id": 113672,
            "type": "Feature",
            "geometry": {
                "type": "Point",
                "coordinates": [
                    19.4621299,
                    52.417559999999995
                ]
            },
            "properties": {
                "isced:level": "3",
                "ref:rspo": 113672,
                "official_name": "Bran\u017cowa Szko\u0142a I Stopnia",
                "name": "Bran\u017cowa Szko\u0142a I Stopnia",
                "addr:postcode": "09-500",
                "addr:city": "Gostynin",
                "addr:street": "Polna",
                "addr:housenumber": "39",
                "addr:city:simc": 968977,
                "addr:street:sym_ul": 17011,
                "phone": "+48 242353880",
                "email": "gce@gostynin.edu.pl",
                "website": "http:\/\/www.gce.gostynin.edu.pl",
                "ref:regon": "611330055",
                "operator": "Powiat Gostyni\u0144ski",
                "operator:type": "government",
                "amenity": "school",
                "note": "Parent RSPO: 10574"
            }
        },
        {
            "id": 13313,
            "type": "Feature",
            "geometry": {
                "type": "Point",
                "coordinates": [
                    19.47046,
                    52.41821
                ]
            },
            "properties": {
                "ref:rspo": 13313,
                "official_name": "Przedszkole nr 5 w Gostyninie",
                "name": "Przedszkole nr 5 w Gostyninie",
                "addr:postcode": "09-500",
                "addr:city": "Gostynin",
                "addr:street": "Jana Kochanowskiego",
                "addr:housenumber": "2",
                "addr:city:simc": 968977,
                "addr:street:sym_ul": 8728,
                "phone": "+48 242353625",
                "email": "przedszkole_5_gostynin@onet.eu",
                "ref:regon": "610023546",
                "ref:vatin": "PL9710564900",
                "operator": "Gmina Miasta Gostynina",
                "operator:type": "government",
                "amenity": "kindergarten"
            }
        },
        {
            "id": 277822,
            "type": "Feature",
            "geometry": {
                "type": "Point",
                "coordinates": [
                    19.46158,
                    52.4199
                ]
            },
            "properties": {
                "ref:rspo": 277822,
                "official_name": "Zesp\u00f3\u0142 Szkolno-Przedszkolny",
                "name": "Zesp\u00f3\u0142 Szkolno-Przedszkolny",
                "addr:postcode": "09-500",
                "addr:city": "Gostynin",
                "addr:street": "Polna",
                "addr:housenumber": "36",
                "addr:city:simc": 968977,
                "addr:street:sym_ul": 17011,
                "phone": "+48 242352024",
                "email": "kontakty@sp5gostynin.pl",
                "website": "http:\/\/www.sp5gostynin.pl",
                "ref:regon": "389556799",
                "operator": "Gmina Miasta Gostynina",
                "operator:type": "government",
                "landuse": "education",
                "fixme": "amenity=school, amenity=college albo landuse=education w zale\u017cno\u015bci od tego, jakie plac\u00f3wki wchodz\u0105 w sk\u0142ad zespo\u0142u. Sprawd\u017a, kiedy stosowa\u0107 amenity=* a kiedy landuse=education.",
                "note": "Children RSPO: 263055;263408;277823"
            }
        },
        {
            "id": 263055,
            "type": "Feature",
            "geometry": {
                "type": "Point",
                "coordinates": [
                    19.46158,
                    52.419869999999996
                ]
            },
            "properties": {
                "isced:level": "1;2",
                "ref:rspo": 263055,
                "official_name": "Szko\u0142a Podstawowa nr 5 im. Ksi\u0119cia Mazowieckiego Siemowita Iv",
                "name": "Szko\u0142a Podstawowa nr 5",
                "addr:postcode": "09-500",
                "addr:city": "Gostynin",
                "addr:street": "Polna",
                "addr:housenumber": "36",
                "addr:city:simc": 968977,
                "addr:street:sym_ul": 17011,
                "phone": "+48 242352023",
                "email": "gm1gostynin@poczta.onet.pl",
                "website": "http:\/\/gm1gostynin.edu.pl",
                "ref:regon": "368096791",
                "ref:vatin": "PL9710725065",
                "operator": "Gmina Miasta Gostynina",
                "operator:type": "government",
                "amenity": "school",
                "note": "Parent RSPO: 277822"
            }
        },
        {
            "id": 263408,
            "type": "Feature",
            "geometry": {
                "type": "Point",
                "coordinates": [
                    19.46158,
                    52.41984
                ]
            },
            "properties": {
                "ref:rspo": 263408,
                "official_name": "Punkt Przedszkolny w Szkole Podstawowej nr 5 im. Ksi\u0119cia Mazowieckiego Siemowita Iv",
                "name": "Punkt Przedszkolny w Szkole Podstawowej nr 5",
                "addr:postcode": "09-500",
                "addr:city": "Gostynin",
                "addr:street": "Polna",
                "addr:housenumber": "36",
                "addr:city:simc": 968977,
                "addr:street:sym_ul": 17011,
                "phone": "+48 242352023",
                "email": "gm1gostynin@poczta.onet.pl",
                "website": "http:\/\/gm1gostynin.edu.pl",
                "ref:regon": "368187996",
                "operator": "Gmina Miasta Gostynina",
                "operator:type": "government",
                "amenity": "kindergarten",
                "note": "Parent RSPO: 277822"
            }
        },
        {
            "id": 277823,
            "type": "Feature",
            "geometry": {
                "type": "Point",
                "coordinates": [
                    19.46158,
                    52.41981
                ]
            },
            "properties": {
                "ref:rspo": 277823,
                "official_name": "Przedszkole nr 1",
                "name": "Przedszkole nr 1",
                "addr:postcode": "09-500",
                "addr:city": "Gostynin",
                "addr:street": "Polna",
                "addr:housenumber": "36",
                "addr:city:simc": 968977,
                "addr:street:sym_ul": 17011,
                "phone": "+48 242352023",
                "ref:regon": "389556807",
                "operator": "Gmina Miasta Gostynina",
                "operator:type": "government",
                "amenity": "kindergarten",
                "note": "Parent RSPO: 277822"
            }
        },
        {
            "id": 7416,
            "type": "Feature",
            "geometry": {
                "type": "Point",
                "coordinates": [
                    19.4606299,
                    52.42132
                ]
            },
            "properties": {
                "ref:rspo": 7416,
                "official_name": "Poradnia Psychologiczno-Pedagogiczna w Gostyninie",
                "name": "Poradnia Psychologiczno-Pedagogiczna w Gostyninie",
                "addr:postcode": "09-500",
                "addr:city": "Gostynin",
                "addr:street": "3 Maja",
                "addr:housenumber": "43b",
                "addr:city:simc": 968977,
                "addr:street:sym_ul": 11937,
                "phone": "+48 242353735",
                "email": "poradnia@ppp-gostynin.edu.pl",
                "website": "http:\/\/www.ppp-gostynin.edu.pl",
                "ref:regon": "000941843",
                "ref:vatin": "PL9710565012",
                "operator": "Powiat Gostyni\u0144ski",
                "operator:type": "government",
                "healthcare": "counselling",
                "counselling_type": "education",
                "fixme": "w zale\u017cno\u015bci od przedmiotu dzia\u0142alno\u015bci (np. healthcare=counselling + counselling_type=education albo healthcare=psychotherapist)"
            }
        },
        {
            "id": 13052,
            "type": "Feature",
            "geometry": {
                "type": "Point",
                "coordinates": [
                    19.46671,
                    52.42386
                ]
            },
            "properties": {
                "isced:level": "1;2",
                "ref:rspo": 13052,
                "official_name": "Szko\u0142a Podstawowa nr 1 im. Armii Krajowej",
                "name": "Szko\u0142a Podstawowa nr 1",
                "addr:postcode": "09-500",
                "addr:city": "Gostynin",
                "addr:street": "J\u00f3zefa Ozdowskiego",
                "addr:housenumber": "2",
                "addr:city:simc": 968977,
                "addr:street:sym_ul": 15485,
                "phone": "+48 242352267",
                "email": "sp1.gostynin@wp.pl",
                "website": "http:\/\/www.sp1gostynin.edu.pl",
                "ref:regon": "000903357",
                "ref:vatin": "PL9710564811",
                "operator": "Gmina Miasta Gostynina",
                "operator:type": "government",
                "amenity": "school"
            }
        },
        {
            "id": 132139,
            "type": "Feature",
            "geometry": {
                "type": "Point",
                "coordinates": [
                    19.46671,
                    52.423829999999995
                ]
            },
            "properties": {
                "ref:rspo": 132139,
                "official_name": "Punkt Przedszkolny w Szkole Podstawowej nr 1 im. Armii Krajowej w Gostyninie",
                "name": "Punkt Przedszkolny w Szkole Podstawowej nr 1",
                "addr:postcode": "09-500",
                "addr:city": "Gostynin",
                "addr:street": "J\u00f3zefa Ozdowskiego",
                "addr:housenumber": "2",
                "addr:city:simc": 968977,
                "addr:street:sym_ul": 15485,
                "phone": "+48 242352267",
                "email": "sp1.gostynin@wp.pl",
                "ref:regon": "365485428",
                "operator": "Gmina Miasta Gostynina",
                "operator:type": "government",
                "amenity": "kindergarten"
            }
        },
        {
            "id": 14274,
            "type": "Feature",
            "geometry": {
                "type": "Point",
                "coordinates": [
                    19.46394,
                    52.4242599
                ]
            },
            "properties": {
                "ref:rspo": 14274,
                "official_name": "Przedszkole nr 2 z Oddzia\u0142ami Integracyjnymi w Gostyninie",
                "name": "Przedszkole nr 2 z Oddzia\u0142ami Integracyjnymi w Gostyninie",
                "addr:postcode": "09-500",
                "addr:city": "Gostynin",
                "addr:street": "Wojska Polskiego",
                "addr:housenumber": "54",
                "addr:city:simc": 968977,
                "addr:street:sym_ul": 24628,
                "phone": "+48 242352465",
                "email": "przedszkole2gostynin@vp.pl",
                "website": "http:\/\/www.mp2-gostynin.pl",
                "ref:regon": "610023523",
                "ref:vatin": "PL9710564917",
                "operator": "Gmina Miasta Gostynina",
                "operator:type": "government",
                "amenity": "kindergarten"
            }
        },
        {
            "id": 7381,
            "type": "Feature",
            "geometry": {
                "type": "Point",
                "coordinates": [
                    19.46057,
                    52.42628
                ]
            },
            "properties": {
                "isced:level": "3",
                "ref:rspo": 7381,
                "official_name": "Liceum Og\u00f3lnokszta\u0142c\u0105ce z Oddzia\u0142ami Dwuj\u0119zycznymi im. Tadeusza Ko\u015bciuszki w Gostyninie",
                "name": "Liceum Og\u00f3lnokszta\u0142c\u0105ce z Oddzia\u0142ami Dwuj\u0119zycznymi",
                "addr:postcode": "09-500",
                "addr:city": "Gostynin",
                "addr:street": "3 Maja",
                "addr:housenumber": "15",
                "addr:city:simc": 968977,
                "addr:street:sym_ul": 11937,
                "phone": "+48 242352210",
                "email": "kosciuszkolo@wp.pl",
                "website": "http:\/\/www.logostynin.neostrada.pl",
                "ref:regon": "000258550",
                "ref:vatin": "PL9710566460",
                "operator": "Powiat Gostyni\u0144ski",
                "operator:type": "government",
                "amenity": "school"
            }
        },
        {
            "id": 13285,
            "type": "Feature",
            "geometry": {
                "type": "Point",
                "coordinates": [
                    19.46775,
                    52.42806
                ]
            },
            "properties": {
                "ref:rspo": 13285,
                "official_name": "Przedszkole nr 4 w Gostyninie",
                "name": "Przedszkole nr 4 w Gostyninie",
                "addr:postcode": "09-500",
                "addr:city": "Gostynin",
                "addr:street": "Armii Krajowej",
                "addr:housenumber": "7",
                "addr:city:simc": 968977,
                "addr:street:sym_ul": 432,
                "phone": "+48 242353335",
                "email": "dyrektor@p4gostynin.pl",
                "ref:regon": "610023530",
                "ref:vatin": "PL9710564892",
                "operator": "Gmina Miasta Gostynina",
                "operator:type": "government",
                "amenity": "kindergarten"
            }
        },
        {
            "id": 129356,
            "type": "Feature",
            "geometry": {
                "type": "Point",
                "coordinates": [
                    19.46495,
                    52.42842
                ]
            },
            "properties": {
                "ref:rspo": 129356,
                "official_name": "Przedszkole Niepubliczne z Oddzia\u0142ami Specjalnymi Akademia Przedszkolaka",
                "name": "Przedszkole Niepubliczne z Oddzia\u0142ami Specjalnymi Akademia Przedszkolaka",
                "addr:postcode": "09-500",
                "addr:city": "Gostynin",
                "addr:street": "Wojska Polskiego",
                "addr:housenumber": "22",
                "addr:city:simc": 968977,
                "addr:street:sym_ul": 24628,
                "phone": "+48 517081349",
                "email": "sekretariat@przedszkolewgostyninie.pl",
                "website": "http:\/\/przedszkolewgostyninie.pl",
                "ref:regon": "362575020",
                "operator": "Instytut Edukacji, Rozwoju I Terapii Sp\u00f3\u0142ka Z Ograniczon\u0105 Odpowiedzialno\u015bci\u0105",
                "operator:type": "private",
                "amenity": "kindergarten"
            }
        },
        {
            "id": 13138,
            "type": "Feature",
            "geometry": {
                "type": "Point",
                "coordinates": [
                    19.463020324707,
                    52.429691314697
                ]
            },
            "properties": {
                "isced:level": "1;2",
                "ref:rspo": 13138,
                "official_name": "Szko\u0142a Podstawowa nr 3 im. Obro\u0144c\u00f3w Westerplatte",
                "name": "Szko\u0142a Podstawowa nr 3",
                "addr:postcode": "09-500",
                "addr:city": "Gostynin",
                "addr:street": "Genera\u0142a J\u00f3zefa Bema",
                "addr:housenumber": "23",
                "addr:city:simc": 968977,
                "addr:street:sym_ul": 1014,
                "phone": "+48 242360220",
                "email": "sp3dyr@onet.pl",
                "ref:regon": "000903340",
                "ref:vatin": "PL9710559632",
                "operator": "Gmina Miasta Gostynina",
                "operator:type": "government",
                "amenity": "school"
            }
        },
        {
            "id": 51948,
            "type": "Feature",
            "geometry": {
                "type": "Point",
                "coordinates": [
                    19.463020324707,
                    52.429661314697
                ]
            },
            "properties": {
                "ref:rspo": 51948,
                "official_name": "Miejska Szko\u0142a Muzyczna I Stopnia im. Romualda Twardowskiego",
                "name": "Miejska Szko\u0142a Muzyczna I Stopnia",
                "addr:postcode": "09-500",
                "addr:city": "Gostynin",
                "addr:street": "Genera\u0142a J\u00f3zefa Bema",
                "addr:housenumber": "23",
                "addr:city:simc": 968977,
                "addr:street:sym_ul": 1014,
                "phone": "+48 242360235",
                "email": "miejska.gostynin@interia.pl",
                "website": "http:\/\/www.msmgostynin.pl",
                "ref:regon": "140638330",
                "ref:vatin": "PL9710676510",
                "operator": "Gmina Miasta Gostynina",
                "operator:type": "government",
                "amenity": "music_school"
            }
        },
        {
            "id": 132140,
            "type": "Feature",
            "geometry": {
                "type": "Point",
                "coordinates": [
                    19.463020324707,
                    52.429631314697005
                ]
            },
            "properties": {
                "ref:rspo": 132140,
                "official_name": "Punkt Przedszkolny w Szkole Podstawowej nr 3 im. Obro\u0144c\u00f3w Westerplatte w Gostyninie",
                "name": "Punkt Przedszkolny w Szkole Podstawowej nr 3",
                "addr:postcode": "09-500",
                "addr:city": "Gostynin",
                "addr:street": "Genera\u0142a J\u00f3zefa Bema",
                "addr:housenumber": "23",
                "addr:city:simc": 968977,
                "addr:street:sym_ul": 1014,
                "phone": "+48 242360220",
                "email": "sp3dyr@onet.pl",
                "ref:regon": "365485463",
                "operator": "Gmina Miasta Gostynina",
                "operator:type": "government",
                "amenity": "kindergarten"
            }
        },
        {
            "id": 68694,
            "type": "Feature",
            "geometry": {
                "type": "Point",
                "coordinates": [
                    19.46521,
                    52.43021
                ]
            },
            "properties": {
                "ref:rspo": 68694,
                "official_name": "Biblioteka Pedagogiczna w P\u0142ocku - Filia w Gostyninie",
                "name": "Biblioteka Pedagogiczna w P\u0142ocku - Filia w Gostyninie",
                "addr:postcode": "09-500",
                "addr:city": "Gostynin",
                "addr:street": "Wojska Polskiego",
                "addr:housenumber": "10",
                "addr:city:simc": 968977,
                "addr:street:sym_ul": 24628,
                "phone": "+48 242352558",
                "email": "bpgostynin@bpplock.pl",
                "website": "http:\/\/www.bpplock.pl",
                "ref:regon": "705031000",
                "ref:vatin": "PL7742863906",
                "operator": "Wojew\u00f3dztwo Mazowieckie",
                "operator:type": "government",
                "amenity": "library",
                "note": "Parent RSPO: 27986"
            }
        },
        {
            "id": 11605,
            "type": "Feature",
            "geometry": {
                "type": "Point",
                "coordinates": [
                    19.44663,
                    52.4350499
                ]
            },
            "properties": {
                "ref:rspo": 11605,
                "official_name": "Specjalny O\u015brodek Szkolno - Wychowawczy im. Jana Paw\u0142a II w Gostyninie",
                "name": "Specjalny O\u015brodek Szkolno - Wychowawczy",
                "addr:postcode": "09-500",
                "addr:city": "Gostynin",
                "addr:street": "Kro\u015bniewicka",
                "addr:housenumber": "2",
                "addr:city:simc": 968977,
                "addr:street:sym_ul": 9966,
                "phone": "+48 242353427",
                "email": "soswgostynin@wp.pl",
                "website": "http:\/\/www.soswgostynin.szkolnastrona.pl",
                "ref:regon": "000999682",
                "ref:vatin": "PL9710564952",
                "operator": "Powiat Gostyni\u0144ski",
                "operator:type": "government",
                "amenity": "school",
                "note": "Children RSPO: 92963;112239"
            }
        },
        {
            "id": 92963,
            "type": "Feature",
            "geometry": {
                "type": "Point",
                "coordinates": [
                    19.44663,
                    52.4350199
                ]
            },
            "properties": {
                "isced:level": "1;2",
                "ref:rspo": 92963,
                "official_name": "Szko\u0142a Podstawowa nr 2 Specjalna",
                "name": "Szko\u0142a Podstawowa nr 2 Specjalna",
                "addr:postcode": "09-500",
                "addr:city": "Gostynin",
                "addr:street": "Kro\u015bniewicka",
                "addr:housenumber": "2",
                "addr:city:simc": 968977,
                "addr:street:sym_ul": 9966,
                "phone": "+48 242353427",
                "email": "soswgostynin@wp.pl",
                "ref:regon": "000965588",
                "ref:vatin": "PL9710653615",
                "operator": "Powiat Gostyni\u0144ski",
                "operator:type": "government",
                "amenity": "school",
                "note": "Parent RSPO: 11605"
            }
        },
        {
            "id": 112239,
            "type": "Feature",
            "geometry": {
                "type": "Point",
                "coordinates": [
                    19.44663,
                    52.434989900000005
                ]
            },
            "properties": {
                "ref:rspo": 112239,
                "official_name": "Szko\u0142a Specjalna Przysposabiaj\u0105ca do Pracy w Gostyninie",
                "name": "Szko\u0142a Specjalna Przysposabiaj\u0105ca do Pracy w Gostyninie",
                "addr:postcode": "09-500",
                "addr:city": "Gostynin",
                "addr:street": "Kro\u015bniewicka",
                "addr:housenumber": "2",
                "addr:door": "-",
                "addr:city:simc": 968977,
                "addr:street:sym_ul": 9966,
                "phone": "+48 242353427",
                "email": "soswgostynin@wp.pl",
                "website": "http:\/\/www.soswgostynin.szkolnastrona.pl",
                "ref:regon": "146195944",
                "ref:vatin": "PL9710721699",
                "operator": "Powiat Gostyni\u0144ski",
                "operator:type": "government",
                "amenity": "school",
                "note": "Parent RSPO: 11605"
            }
        },
        {
            "id": 11660,
            "type": "Feature",
            "geometry": {
                "type": "Point",
                "coordinates": [
                    19.44378,
                    52.4361
                ]
            },
            "properties": {
                "ref:rspo": 11660,
                "official_name": "Zesp\u00f3\u0142 Szk\u00f3\u0142 im. Marii Sk\u0142odowskiej - Curie w Gostyninie",
                "name": "Zesp\u00f3\u0142 Szk\u00f3\u0142",
                "addr:postcode": "09-500",
                "addr:city": "Gostynin",
                "addr:street": "Kowalska",
                "addr:housenumber": "5",
                "addr:city:simc": 968977,
                "addr:street:sym_ul": 9665,
                "phone": "+48 242358910",
                "email": "sekretariat@zs2-gostynin.edu.pl",
                "website": "http:\/\/www.zs2-gostynin.edu.pl",
                "ref:regon": "000182834",
                "ref:vatin": "PL9710564969",
                "operator": "Powiat Gostyni\u0144ski",
                "operator:type": "government",
                "landuse": "education",
                "fixme": "amenity=school, amenity=college albo landuse=education w zale\u017cno\u015bci od tego, jakie plac\u00f3wki wchodz\u0105 w sk\u0142ad zespo\u0142u. Sprawd\u017a, kiedy stosowa\u0107 amenity=* a kiedy landuse=education.",
                "note": "Children RSPO: 112121;112123"
            }
        },
        {
            "id": 112121,
            "type": "Feature",
            "geometry": {
                "type": "Point",
                "coordinates": [
                    19.44378,
                    52.43607
                ]
            },
            "properties": {
                "isced:level": "3",
                "ref:rspo": 112121,
                "official_name": "Liceum Og\u00f3lnokszta\u0142c\u0105ce w Gostyninie",
                "name": "Liceum Og\u00f3lnokszta\u0142c\u0105ce w Gostyninie",
                "addr:postcode": "09-500",
                "addr:city": "Gostynin",
                "addr:street": "Kowalska",
                "addr:housenumber": "5",
                "addr:door": "-",
                "addr:city:simc": 968977,
                "addr:street:sym_ul": 9665,
                "phone": "+48 242358910",
                "email": "sekretariat@zs2-gostynin.edu.pl",
                "website": "http:\/\/www.zs2-gostynin.edu.pl",
                "ref:regon": "611370853",
                "operator": "Powiat Gostyni\u0144ski",
                "operator:type": "government",
                "amenity": "school",
                "note": "Parent RSPO: 11660"
            }
        },
        {
            "id": 112123,
            "type": "Feature",
            "geometry": {
                "type": "Point",
                "coordinates": [
                    19.44378,
                    52.436040000000006
                ]
            },
            "properties": {
                "isced:level": "3",
                "ref:rspo": 112123,
                "official_name": "Technikum w Gostyninie",
                "name": "Technikum w Gostyninie",
                "addr:postcode": "09-500",
                "addr:city": "Gostynin",
                "addr:street": "Kowalska",
                "addr:housenumber": "5",
                "addr:door": "-",
                "addr:city:simc": 968977,
                "addr:street:sym_ul": 9665,
                "phone": "+48 242358910",
                "email": "sekretariat@zs2-gostynin.edu.pl",
                "website": "http:\/\/www.zs2-gostynin.edu.pl",
                "ref:regon": "611370907",
                "operator": "Powiat Gostyni\u0144ski",
                "operator:type": "government",
                "amenity": "school",
                "note": "Parent RSPO: 11660"
            }
        },
        {
            "id": 272461,
            "type": "Feature",
            "geometry": {
                "type": "Point",
                "coordinates": [
                    19.46481,
                    52.44091
                ]
            },
            "properties": {
                "ref:rspo": 272461,
                "official_name": "Plac\u00f3wka Kszta\u0142cenia Ustawicznego \"Logos\"",
                "name": "Plac\u00f3wka Kszta\u0142cenia Ustawicznego \"Logos\"",
                "addr:postcode": "09-500",
                "addr:city": "Gostynin",
                "addr:street": "Bierzewicka",
                "addr:housenumber": "32",
                "addr:door": "14",
                "addr:city:simc": 968977,
                "addr:street:sym_ul": 1318,
                "email": "sekretariat@elogos.com.pl",
                "ref:regon": "384194765",
                "operator": "Aleksandra Walczak",
                "operator:type": "private",
                "fixme": "w zale\u017cno\u015bci od przedmiotu dzia\u0142alno\u015bci (np. amenity=training + training=*, amenity=dancing_school, amenity=language_school, amenity=music_school)"
            }
        }
    ]
}