{
    "type": "FeatureCollection",
    "features": [
        {
            "id": 90181,
            "type": "Feature",
            "geometry": {
                "type": "Point",
                "coordinates": [
                    22.1197,
                    52.75575
                ]
            },
            "properties": {
                "isced:level": "1;2",
                "ref:rspo": 90181,
                "official_name": "Publiczna Szko\u0142a Podstawowa Imienia Jana Paw\u0142a II w Zar\u0119bach Ko\u015bcielnych",
                "name": "Publiczna Szko\u0142a Podstawowa Imienia Jana Paw\u0142a II w Zar\u0119bach Ko\u015bcielnych",
                "addr:postcode": "07-323",
                "addr:city": "Zar\u0119by Ko\u015bcielne",
                "addr:street": "Farna",
                "addr:housenumber": "20",
                "addr:city:simc": 411855,
                "addr:street:sym_ul": 4907,
                "phone": "+48 862706016",
                "email": "spzareby@wp.pl",
                "ref:regon": "000647256",
                "ref:vatin": "PL7231398302",
                "operator": "Gmina Zar\u0119by Ko\u015bcielne",
                "operator:type": "government",
                "amenity": "school"
            }
        }
    ]
}