{
    "type": "FeatureCollection",
    "features": [
        {
            "id": 86924,
            "type": "Feature",
            "geometry": {
                "type": "Point",
                "coordinates": [
                    22.3212988,
                    52.6712038
                ]
            },
            "properties": {
                "isced:level": "1;2",
                "ref:rspo": 86924,
                "official_name": "Szko\u0142a Podstawowa im. Marii Konopnickiej w Nurze",
                "name": "Szko\u0142a Podstawowa",
                "addr:postcode": "07-322",
                "addr:city": "Nur",
                "addr:street": "\u0141om\u017cy\u0144ska",
                "addr:housenumber": "14",
                "addr:door": "-",
                "addr:city:simc": 402773,
                "addr:street:sym_ul": 11659,
                "phone": "+48 862774106",
                "email": "spwnurze@poczta.onet.pl",
                "website": "http:\/\/sp.gminanur.pl",
                "ref:regon": "000647262",
                "ref:vatin": "PL7591741251",
                "operator": "Gmina Nur",
                "operator:type": "government",
                "amenity": "school"
            }
        },
        {
            "id": 110055,
            "type": "Feature",
            "geometry": {
                "type": "Point",
                "coordinates": [
                    22.23908,
                    52.7021
                ]
            },
            "properties": {
                "ref:rspo": 110055,
                "official_name": "Specjalny O\u015brodek Szkolno-Wychowawczy im. Ks. Kard. Stefana Wyszy\u0144skiego w Zuzeli",
                "name": "Specjalny O\u015brodek Szkolno-Wychowawczy",
                "addr:postcode": "07-322",
                "addr:place": "Zuzela",
                "addr:housenumber": "51",
                "addr:city:simc": 402980,
                "phone": "+48 862774404",
                "email": "sosw_zuzela@op.pl",
                "website": "http:\/\/www.soswzuzela.nazwa.pl",
                "ref:regon": "000833332",
                "operator": "Powiat Ostrowski",
                "operator:type": "government",
                "amenity": "school",
                "note": "Children RSPO: 112077;112094"
            }
        },
        {
            "id": 112077,
            "type": "Feature",
            "geometry": {
                "type": "Point",
                "coordinates": [
                    22.23908,
                    52.70207
                ]
            },
            "properties": {
                "isced:level": "1;2",
                "ref:rspo": 112077,
                "official_name": "Szko\u0142a Podstawowa Specjalna w Zuzeli",
                "name": "Szko\u0142a Podstawowa Specjalna w Zuzeli",
                "addr:postcode": "07-322",
                "addr:place": "Zuzela",
                "addr:housenumber": "51",
                "addr:city:simc": 402980,
                "phone": "+48 862774404",
                "email": "sosw_zuzela@op.pl",
                "ref:regon": "551300853",
                "operator": "Powiat Ostrowski",
                "operator:type": "government",
                "amenity": "school",
                "note": "Parent RSPO: 110055"
            }
        },
        {
            "id": 112094,
            "type": "Feature",
            "geometry": {
                "type": "Point",
                "coordinates": [
                    22.23908,
                    52.702040000000004
                ]
            },
            "properties": {
                "ref:rspo": 112094,
                "official_name": "Szko\u0142a Przysposabiaj\u0105ca Specjalna w Zuzeli",
                "name": "Szko\u0142a Przysposabiaj\u0105ca Specjalna w Zuzeli",
                "addr:postcode": "07-322",
                "addr:place": "Zuzela",
                "addr:housenumber": "51",
                "addr:city:simc": 402980,
                "phone": "+48 862774404",
                "email": "sosw_zuzela@op.pl",
                "ref:regon": "140272247",
                "operator": "Powiat Ostrowski",
                "operator:type": "government",
                "amenity": "school",
                "note": "Parent RSPO: 110055"
            }
        }
    ]
}