{
    "type": "FeatureCollection",
    "features": [
        {
            "id": 68485,
            "type": "Feature",
            "geometry": {
                "type": "Point",
                "coordinates": [
                    21.65538,
                    52.84792
                ]
            },
            "properties": {
                "isced:level": "1;2",
                "ref:rspo": 68485,
                "official_name": "Publiczna Szko\u0142a Podstawowa im. \u017bo\u0142nierzy Armii Krajowej w Brudkach Starych",
                "name": "Publiczna Szko\u0142a Podstawowa",
                "addr:country": "PL",
                "addr:postcode": "07-311",
                "addr:place": "Brudki Stare",
                "addr:housenumber": "73",
                "addr:teryt:sym_ul": 522678,
                "contact:phone": "+48 296459638",
                "contact:email": "brudkisp@wp.pl",
                "contact:website": "http:\/\/www.pspbrudkistare.edupage.org",
                "ref:regon": "001244359",
                "ref:vatin": "PL7591520828",
                "operator": "Gmina W\u0105sewo",
                "operator:type": "government",
                "amenity": "school"
            }
        },
        {
            "id": 69827,
            "type": "Feature",
            "geometry": {
                "type": "Point",
                "coordinates": [
                    21.71592,
                    52.85199
                ]
            },
            "properties": {
                "isced:level": "1;2",
                "ref:rspo": 69827,
                "official_name": "Publiczna Szko\u0142a Podstawowa im. Marii Konopnickiej w Rz\u0105\u015bniku W\u0142o\u015bcia\u0144skim",
                "name": "Publiczna Szko\u0142a Podstawowa",
                "addr:country": "PL",
                "addr:postcode": "07-311",
                "addr:place": "Rz\u0105\u015bnik W\u0142o\u015bcia\u0144ski",
                "addr:housenumber": "30",
                "addr:teryt:sym_ul": 522661,
                "contact:phone": "+48 296458194",
                "contact:email": "psprzasnik@wp.pl",
                "contact:website": "http:\/\/www.psprzasnik.szkolnastrona.pl",
                "ref:regon": "001106210",
                "ref:vatin": "PL7591520811",
                "operator": "Gmina W\u0105sewo",
                "operator:type": "government",
                "amenity": "school"
            }
        },
        {
            "id": 111052,
            "type": "Feature",
            "geometry": {
                "type": "Point",
                "coordinates": [
                    21.71592,
                    52.85196
                ]
            },
            "properties": {
                "ref:rspo": 111052,
                "official_name": "Punkt Przedszkolny w Szkole Podstawowej im. Marii Konopnickiej w Rz\u0105\u015bniku W\u0142o\u015bcia\u0144skim",
                "name": "Punkt Przedszkolny w Szkole Podstawowej",
                "addr:country": "PL",
                "addr:postcode": "07-311",
                "addr:place": "Rz\u0105\u015bnik W\u0142o\u015bcia\u0144ski",
                "addr:housenumber": "30",
                "addr:teryt:sym_ul": 522661,
                "contact:phone": "+48 296458194",
                "ref:regon": "146568760",
                "ref:vatin": "PL7591520811",
                "operator": "Gmina W\u0105sewo",
                "operator:type": "government",
                "amenity": "kindergarten"
            }
        },
        {
            "id": 71919,
            "type": "Feature",
            "geometry": {
                "type": "Point",
                "coordinates": [
                    21.67678,
                    52.87704
                ]
            },
            "properties": {
                "ref:rspo": 71919,
                "official_name": "Zesp\u00f3\u0142 Plac\u00f3wek O\u015bwiatowych im. Papie\u017ca Jana Paw\u0142a II w W\u0105sewie",
                "name": "Zesp\u00f3\u0142 Plac\u00f3wek O\u015bwiatowych",
                "addr:country": "PL",
                "addr:postcode": "07-311",
                "addr:city": "W\u0105sewo",
                "addr:street": "Szkolna",
                "addr:housenumber": "1",
                "addr:teryt:simc": 21970,
                "addr:teryt:sym_ul": 522744,
                "contact:phone": "+48 296458265",
                "contact:email": "gimwasewo@wp.pl",
                "contact:website": "http:\/\/www.zpowasewo.edu.pl",
                "ref:regon": "000640870",
                "ref:vatin": "PL7591536367",
                "operator": "Gmina W\u0105sewo",
                "operator:type": "government",
                "landuse": "education",
                "fixme": "amenity=school, amenity=college albo landuse=education w zale\u017cno\u015bci od tego, jakie plac\u00f3wki wchodz\u0105 w sk\u0142ad zespo\u0142u. Sprawd\u017a, kiedy stosowa\u0107 amenity=* a kiedy landuse=education.",
                "note": "Children RSPO: 111053;111054"
            }
        },
        {
            "id": 111054,
            "type": "Feature",
            "geometry": {
                "type": "Point",
                "coordinates": [
                    21.67678,
                    52.87701
                ]
            },
            "properties": {
                "isced:level": "1;2",
                "ref:rspo": 111054,
                "official_name": "Publiczna Szko\u0142a Podstawowa im.stanis\u0142awa Staszica w W\u0105sewie",
                "name": "Publiczna Szko\u0142a Podstawowa im.stanis\u0142awa Staszica w W\u0105sewie",
                "addr:country": "PL",
                "addr:postcode": "07-311",
                "addr:city": "W\u0105sewo",
                "addr:street": "Szkolna",
                "addr:housenumber": "1",
                "addr:teryt:simc": 21970,
                "addr:teryt:sym_ul": 522744,
                "contact:phone": "+48 296458265",
                "contact:email": "gimwasewo@wp.pl",
                "contact:website": "http:\/\/zpowasewo.edu.pl",
                "ref:regon": "140037606",
                "ref:vatin": "PL7591536367",
                "operator": "Gmina W\u0105sewo",
                "operator:type": "government",
                "amenity": "school",
                "note": "Parent RSPO: 71919"
            }
        },
        {
            "id": 111053,
            "type": "Feature",
            "geometry": {
                "type": "Point",
                "coordinates": [
                    21.67657,
                    52.8773
                ]
            },
            "properties": {
                "ref:rspo": 111053,
                "official_name": "Gminne Przedszkole w W\u0105sewie",
                "name": "Gminne Przedszkole w W\u0105sewie",
                "addr:country": "PL",
                "addr:postcode": "07-311",
                "addr:city": "W\u0105sewo",
                "addr:street": "Szkolna",
                "addr:housenumber": "3",
                "addr:teryt:simc": 21970,
                "addr:teryt:sym_ul": 522744,
                "contact:phone": "+48 296458265",
                "contact:email": "gimwasewo@wp.pl",
                "contact:website": "http:\/\/zpowasewo.edu.pl",
                "ref:regon": "141319436",
                "ref:vatin": "PL7591536367",
                "operator": "Gmina W\u0105sewo",
                "operator:type": "government",
                "amenity": "kindergarten",
                "note": "Parent RSPO: 71919"
            }
        },
        {
            "id": 91573,
            "type": "Feature",
            "geometry": {
                "type": "Point",
                "coordinates": [
                    21.7440399,
                    52.8776
                ]
            },
            "properties": {
                "isced:level": "1;2",
                "ref:rspo": 91573,
                "official_name": "Niepubliczna Szko\u0142a Podstawowa w Trynosach-Osiedle",
                "name": "Niepubliczna Szko\u0142a Podstawowa w Trynosach-Osiedle",
                "addr:country": "PL",
                "addr:postcode": "07-311",
                "addr:place": "Trynosy-Osiedle",
                "addr:housenumber": "14",
                "addr:teryt:sym_ul": 522721,
                "contact:phone": "+48 296458223",
                "contact:email": "szkola.trynosy@wp.pl",
                "contact:website": "http:\/\/www.nsptrynosy-osiedle.szkolnastrona.pl",
                "ref:regon": "146447676",
                "ref:vatin": "PL7591738450",
                "operator": "Stowarzyszenie Przysz\u0142o\u015b\u0107 W Gminie W\u0105sewo",
                "operator:type": "ngo",
                "amenity": "school"
            }
        },
        {
            "id": 121327,
            "type": "Feature",
            "geometry": {
                "type": "Point",
                "coordinates": [
                    21.7440399,
                    52.87757
                ]
            },
            "properties": {
                "ref:rspo": 121327,
                "official_name": "Niepubliczny Punkt Przedszkolny \"T\u0119czowe Przedszkole\" w Trynosach Osiedle",
                "name": "Niepubliczny Punkt Przedszkolny \"T\u0119czowe Przedszkole\" w Trynosach Osiedle",
                "addr:country": "PL",
                "addr:postcode": "07-311",
                "addr:place": "Trynosy-Osiedle",
                "addr:housenumber": "14",
                "addr:teryt:sym_ul": 522721,
                "contact:phone": "+48 296458223",
                "contact:email": "szkola.trynosy@wp.pl",
                "contact:website": "http:\/\/www.nsptrynosy-osiedle.szkolnastrona.pl",
                "ref:regon": "147040379",
                "operator": "Stowarzyszenie Przysz\u0142o\u015b\u0107 W Gminie W\u0105sewo",
                "operator:type": "ngo",
                "amenity": "kindergarten"
            }
        }
    ]
}