{"type":"FeatureCollection","features":[{"id":132151,"type":"Feature","geometry":{"type":"Point","coordinates":[21.87822,52.79314]},"properties":{"ref:rspo":132151,"official_name":"Przedszkole Niepubliczne \"Szcz\u0119\u015bliwe Anio\u0142ki\"","name":"Przedszkole Niepubliczne \"Szcz\u0119\u015bliwe Anio\u0142ki\"","addr:country":"PL","addr:postcode":"07-300","addr:city":"Ostr\u00f3w Mazowiecka","addr:street":"ul. Warszawska","addr:housenumber":"22","addr:teryt:simc":23682,"addr:teryt:sym_ul":966330,"contact:email":"przedszkole.marzenakossakowska@gmail.com","ref:regon":"365485629","ref:vatin":"PL7591219069","operator":"Marzena Kossakowska-Korzeb","operator:type":"private","amenity":"kindergarten"}},{"id":133212,"type":"Feature","geometry":{"type":"Point","coordinates":[21.95305,52.79488]},"properties":{"ref:rspo":133212,"official_name":"Przedszkole Planeta Fantazji","name":"Przedszkole Planeta Fantazji","addr:country":"PL","addr:postcode":"07-300","addr:city":"Ostr\u00f3w Mazowiecka","addr:street":"ul. Lipowa","addr:housenumber":"20","addr:teryt:simc":11139,"addr:teryt:sym_ul":966330,"contact:phone":"+48 602608861","contact:email":"przedszkole@planetafantazji.pl","contact:website":"http:\/\/www.planetafantazji.pl","ref:regon":"366809420","ref:vatin":"PL7621886475","operator":"Ewelina Skalik-Kazulak","operator:type":"private","amenity":"kindergarten"}},{"id":87791,"type":"Feature","geometry":{"type":"Point","coordinates":[21.88993,52.79818]},"properties":{"isced:level":"1;2","ref:rspo":87791,"official_name":"Szko\u0142a Podstawowa Nr 1 im.tadeusza Ko\u015bciuszki","name":"Szko\u0142a Podstawowa Nr 1 im.tadeusza Ko\u015bciuszki","addr:country":"PL","addr:postcode":"07-300","addr:city":"Ostr\u00f3w Mazowiecka","addr:street":"ul. Partyzant\u00f3w","addr:housenumber":"39","addr:teryt:simc":15733,"addr:teryt:sym_ul":966330,"contact:phone":"+48 297453841","contact:email":"sekretariat.sp1ostrow@gmail.com","contact:website":"http:\/\/sp1.ostrowmaz.pl","ref:regon":"000258916","ref:vatin":"PL7591520567","operator":"Miasto Ostr\u00f3w Mazowiecka","operator:type":"government","amenity":"school"}},{"id":112192,"type":"Feature","geometry":{"type":"Point","coordinates":[21.8956899,52.80096]},"properties":{"ref:rspo":112192,"official_name":"Miejskie Przedszkole Nr 1","name":"Miejskie Przedszkole Nr 1","addr:country":"PL","addr:postcode":"07-300","addr:city":"Ostr\u00f3w Mazowiecka","addr:street":"ul. Stefana Batorego","addr:housenumber":"16","addr:teryt:simc":891,"addr:teryt:sym_ul":966330,"contact:phone":"+48 297453551","contact:email":"mp1ostrow@gmail.com","contact:website":"http:\/\/przedszkole1ostrow.edupage.org","ref:regon":"140171871","ref:vatin":"PL7591637542","operator":"Miasto Ostr\u00f3w Mazowiecka","operator:type":"government","amenity":"kindergarten"}},{"id":109955,"type":"Feature","geometry":{"type":"Point","coordinates":[21.89838,52.80291]},"properties":{"ref:rspo":109955,"official_name":"Zesp\u00f3\u0142 Szk\u00f3\u0142 Nr 2 w Ostrowi Mazowieckiej","name":"Zesp\u00f3\u0142 Szk\u00f3\u0142 Nr 2 w Ostrowi Mazowieckiej","addr:country":"PL","addr:postcode":"07-300","addr:city":"Ostr\u00f3w Mazowiecka","addr:street":"ul. Tadeusza Ko\u015bciuszki","addr:housenumber":"8","addr:teryt:simc":9582,"addr:teryt:sym_ul":966330,"contact:phone":"+48 297453371","contact:email":"ekonomikekonomik@poczta.onet.pl","contact:website":"http:\/\/www.ekonomik.szkola.pl","ref:regon":"000193223","ref:vatin":"PL7591099783","operator":"Powiat Ostrowski","operator:type":"government","landuse":"education","fixme":"amenity=school, amenity=college albo landuse=education w zale\u017cno\u015bci od tego, jakie plac\u00f3wki wchodz\u0105 w sk\u0142ad zespo\u0142u. Sprawd\u017a, kiedy stosowa\u0107 amenity=* a kiedy landuse=education.","note":"Children RSPO: 114327;114329;114330;114331"}},{"id":114327,"type":"Feature","geometry":{"type":"Point","coordinates":[21.89838,52.802879999999995]},"properties":{"isced:level":"3","ref:rspo":114327,"official_name":"Ii Liceum Og\u00f3lnokszta\u0142c\u0105ce w Zespole Szk\u00f3\u0142 Nr 2 w Ostrowi Mazowieckiej","name":"Ii Liceum Og\u00f3lnokszta\u0142c\u0105ce w Zespole Szk\u00f3\u0142 Nr 2 w Ostrowi Mazowieckiej","addr:country":"PL","addr:postcode":"07-300","addr:city":"Ostr\u00f3w Mazowiecka","addr:street":"ul. Tadeusza Ko\u015bciuszki","addr:housenumber":"8","addr:teryt:simc":9582,"addr:teryt:sym_ul":966330,"contact:phone":"+48 297453371","contact:email":"ekonomikekonomik@poczta.onet.pl","ref:regon":"551262160","operator":"Powiat Ostrowski","operator:type":"government","amenity":"school","note":"Parent RSPO: 109955"}},{"id":114329,"type":"Feature","geometry":{"type":"Point","coordinates":[21.89838,52.80285]},"properties":{"isced:level":"3","ref:rspo":114329,"official_name":"Technikum Nr 2 w Zespole Szk\u00f3\u0142 Nr 2 w Ostrowi Mazowieckiej","name":"Technikum Nr 2 w Zespole Szk\u00f3\u0142 Nr 2 w Ostrowi Mazowieckiej","addr:country":"PL","addr:postcode":"07-300","addr:city":"Ostr\u00f3w Mazowiecka","addr:street":"ul. Tadeusza Ko\u015bciuszki","addr:housenumber":"8","addr:teryt:simc":9582,"addr:teryt:sym_ul":966330,"contact:phone":"+48 297453371","contact:email":"ekonomikekonomik@poczta.onet.pl","ref:regon":"551262101","operator":"Powiat Ostrowski","operator:type":"government","amenity":"school","note":"Parent RSPO: 109955"}},{"id":114330,"type":"Feature","geometry":{"type":"Point","coordinates":[21.89838,52.80282]},"properties":{"isced:level":"3","ref:rspo":114330,"official_name":"Bran\u017cowa Szko\u0142a I Stopnia Nr 2 im. Powstanc\u00f3w Styczniowych w Zespole Szk\u00f3\u0142 Nr 2 w Ostrowi Mazowieckiej","name":"Bran\u017cowa Szko\u0142a I Stopnia Nr 2","addr:country":"PL","addr:postcode":"07-300","addr:city":"Ostr\u00f3w Mazowiecka","addr:street":"ul. Tadeusza Ko\u015bciuszki","addr:housenumber":"8","addr:teryt:simc":9582,"addr:teryt:sym_ul":966330,"contact:phone":"+48 297453371","contact:email":"ekonomikekonomik@poczta.onet.pl","ref:regon":"551262147","operator":"Powiat Ostrowski","operator:type":"government","amenity":"school","note":"Parent RSPO: 109955"}},{"id":114331,"type":"Feature","geometry":{"type":"Point","coordinates":[21.89838,52.802789999999995]},"properties":{"isced:level":"3","ref:rspo":114331,"official_name":"Liceum Og\u00f3lnokszta\u0142c\u0105ce dla Doros\u0142ych w Zespole Szk\u00f3\u0142 Nr 2 w Ostrowi Mazowieckiej","name":"Liceum Og\u00f3lnokszta\u0142c\u0105ce dla Doros\u0142ych w Zespole Szk\u00f3\u0142 Nr 2 w Ostrowi Mazowieckiej","addr:country":"PL","addr:postcode":"07-300","addr:city":"Ostr\u00f3w Mazowiecka","addr:street":"ul. Tadeusza Ko\u015bciuszki","addr:housenumber":"8","addr:teryt:simc":9582,"addr:teryt:sym_ul":966330,"contact:phone":"+48 297453371","contact:email":"ekonomikekonomik@poczta.onet.pl","ref:regon":"140677659","operator":"Powiat Ostrowski","operator:type":"government","amenity":"school","note":"Parent RSPO: 109955"}},{"id":109952,"type":"Feature","geometry":{"type":"Point","coordinates":[21.90305,52.80301]},"properties":{"ref:rspo":109952,"official_name":"Zesp\u00f3\u0142 Szk\u00f3\u0142 Nr 1 w Ostrowi Mazowieckiej","name":"Zesp\u00f3\u0142 Szk\u00f3\u0142 Nr 1 w Ostrowi Mazowieckiej","addr:country":"PL","addr:postcode":"07-300","addr:city":"Ostr\u00f3w Mazowiecka","addr:street":"ul. Romana Rubinkowskiego","addr:housenumber":"8","addr:teryt:simc":19032,"addr:teryt:sym_ul":966330,"contact:phone":"+48 297462471","contact:email":"zsnr1ostrowmazowiecka@op.pl","contact:website":"http:\/\/www.zs1.ostrowmaz.com","ref:regon":"000193460","ref:vatin":"PL7591275205","operator":"Powiat Ostrowski","operator:type":"government","landuse":"education","fixme":"amenity=school, amenity=college albo landuse=education w zale\u017cno\u015bci od tego, jakie plac\u00f3wki wchodz\u0105 w sk\u0142ad zespo\u0142u. Sprawd\u017a, kiedy stosowa\u0107 amenity=* a kiedy landuse=education.","note":"Children RSPO: 114322;114324;114325;125981;125984;273523;274888"}},{"id":114322,"type":"Feature","geometry":{"type":"Point","coordinates":[21.90305,52.80298]},"properties":{"isced:level":"3","ref:rspo":114322,"official_name":"I Liceum Og\u00f3lnokszta\u0142c\u0105ce im. Rtm. Witolda Pileckiego w Zespole Szk\u00f3\u0142 Nr 1 w Ostrowi Mazowieckiej","name":"I Liceum Og\u00f3lnokszta\u0142c\u0105ce","addr:country":"PL","addr:postcode":"07-300","addr:city":"Ostr\u00f3w Mazowiecka","addr:street":"ul. Romana Rubinkowskiego","addr:housenumber":"8","addr:teryt:simc":19032,"addr:teryt:sym_ul":966330,"contact:phone":"+48 297462471","contact:email":"zsnr1ostrowmazowiecka@op.pl","ref:regon":"551254981","operator":"Powiat Ostrowski","operator:type":"government","amenity":"school","note":"Parent RSPO: 109952"}},{"id":114324,"type":"Feature","geometry":{"type":"Point","coordinates":[21.90305,52.80295]},"properties":{"isced:level":"3","ref:rspo":114324,"official_name":"Technikum Nr 1 im. Rtm. Witolda Pileckiego w Zespole Szk\u00f3\u0142 Nr 1 w Ostrowi Mazowieckiej","name":"Technikum Nr 1","addr:country":"PL","addr:postcode":"07-300","addr:city":"Ostr\u00f3w Mazowiecka","addr:street":"ul. Romana Rubinkowskiego","addr:housenumber":"8","addr:teryt:simc":19032,"addr:teryt:sym_ul":966330,"contact:phone":"+48 297462471","contact:email":"zsnr1ostrowmazowiecka@op.pl","ref:regon":"551254923","operator":"Powiat Ostrowski","operator:type":"government","amenity":"school","note":"Parent RSPO: 109952"}},{"id":114325,"type":"Feature","geometry":{"type":"Point","coordinates":[21.90305,52.80292]},"properties":{"isced:level":"3","ref:rspo":114325,"official_name":"Bran\u017cowa Szko\u0142a I Stopnia Nr 1 im. Rtm. Witolda Pileckiego w Zespole Szk\u00f3\u0142 Nr 1 w Ostrowi Mazowieckiej","name":"Bran\u017cowa Szko\u0142a I Stopnia Nr 1","addr:country":"PL","addr:postcode":"07-300","addr:city":"Ostr\u00f3w Mazowiecka","addr:street":"ul. Romana Rubinkowskiego","addr:housenumber":"8","addr:teryt:simc":19032,"addr:teryt:sym_ul":966330,"contact:phone":"+48 297462471","contact:email":"zsnr1ostrowmazowiecka@op.pl","ref:regon":"551254998","operator":"Powiat Ostrowski","operator:type":"government","amenity":"school","note":"Parent RSPO: 109952"}},{"id":125981,"type":"Feature","geometry":{"type":"Point","coordinates":[21.90305,52.80289]},"properties":{"isced:level":"4","ref:rspo":125981,"official_name":"Szko\u0142a Policealna w Zespole Szk\u00f3\u0142 Nr 1 w Ostrowi Mazowieckiej","name":"Szko\u0142a Policealna w Zespole Szk\u00f3\u0142 Nr 1 w Ostrowi Mazowieckiej","addr:country":"PL","addr:postcode":"07-300","addr:city":"Ostr\u00f3w Mazowiecka","addr:street":"ul. Romana Rubinkowskiego","addr:housenumber":"8","addr:teryt:simc":19032,"addr:teryt:sym_ul":966330,"contact:phone":"+48 297462471","contact:email":"zsnr1ostrowmazowiecka@op.pl","ref:regon":"360135712","operator":"Powiat Ostrowski","operator:type":"government","amenity":"college","note":"Parent RSPO: 109952"}},{"id":125984,"type":"Feature","geometry":{"type":"Point","coordinates":[21.90305,52.80286]},"properties":{"isced:level":"3","ref:rspo":125984,"official_name":"Liceum Og\u00f3lnokszta\u0142c\u0105ce dla Doros\u0142ych w Zespole Szk\u00f3\u0142 Nr 1 w Ostrowi Mazowieckiej","name":"Liceum Og\u00f3lnokszta\u0142c\u0105ce dla Doros\u0142ych w Zespole Szk\u00f3\u0142 Nr 1 w Ostrowi Mazowieckiej","addr:country":"PL","addr:postcode":"07-300","addr:city":"Ostr\u00f3w Mazowiecka","addr:street":"ul. Romana Rubinkowskiego","addr:housenumber":"8","addr:teryt:simc":19032,"addr:teryt:sym_ul":966330,"contact:phone":"+48 297462471","contact:email":"zsnr1ostrowmazowiecka@op.pl","contact:website":"https:\/\/zs1ostrowmaz.edupage.org\/","ref:regon":"360138308","operator":"Powiat Ostrowski","operator:type":"government","amenity":"school","note":"Parent RSPO: 109952"}},{"id":273523,"type":"Feature","geometry":{"type":"Point","coordinates":[21.90305,52.80283]},"properties":{"ref:rspo":273523,"official_name":"Centrum Kszta\u0142cenia Zawodowego w Ostrowi Mazowieckiej","name":"Centrum Kszta\u0142cenia Zawodowego w Ostrowi Mazowieckiej","addr:country":"PL","addr:postcode":"07-300","addr:city":"Ostr\u00f3w Mazowiecka","addr:street":"ul. Romana Rubinkowskiego","addr:housenumber":"8","addr:teryt:simc":19032,"addr:teryt:sym_ul":966330,"contact:phone":"+48 297453394","contact:email":"zsnr1ostrowmazowiecka@op.pl","contact:website":"http:\/\/zs1ostrowmaz.edupage.org","ref:regon":"384485422","operator":"Powiat Ostrowski","operator:type":"government","fixme":"w zale\u017cno\u015bci od przedmiotu dzia\u0142alno\u015bci (np. amenity=training + training=*, amenity=dancing_school, amenity=language_school, amenity=music_school) albo amenity=school, amenity=college, albo landuse=education w zale\u017cno\u015bci od tego, jakie plac\u00f3wki wchodz\u0105 w sk\u0142ad zespo\u0142u. Sprawd\u017a, kiedy stosowa\u0107 amenity=* a kiedy landuse=education.","note":"Parent RSPO: 109952"}},{"id":274888,"type":"Feature","geometry":{"type":"Point","coordinates":[21.90305,52.8028]},"properties":{"isced:level":"3","ref:rspo":274888,"official_name":"Bran\u017cowa Szko\u0142a II Stopnia w Ostrowi Mazowieckiej","name":"Bran\u017cowa Szko\u0142a II Stopnia w Ostrowi Mazowieckiej","addr:country":"PL","addr:postcode":"07-300","addr:city":"Ostr\u00f3w Mazowiecka","addr:street":"ul. Romana Rubinkowskiego","addr:housenumber":"8","addr:teryt:simc":19032,"addr:teryt:sym_ul":966330,"contact:phone":"+48 297462471","contact:email":"zsnr1ostrowmazowiecka@op.pl","contact:website":"http:\/\/zsnr1.ostrowmaz.com","ref:regon":"386363309","operator":"Powiat Ostrowski","operator:type":"government","amenity":"school","note":"Parent RSPO: 109952"}},{"id":31066,"type":"Feature","geometry":{"type":"Point","coordinates":[21.90146,52.80341]},"properties":{"ref:rspo":31066,"official_name":"Spo\u0142eczna Szko\u0142a Muzyczna I St. w Ostrowi Mazowieckiej","name":"Spo\u0142eczna Szko\u0142a Muzyczna I St. w Ostrowi Mazowieckiej","addr:country":"PL","addr:postcode":"07-300","addr:city":"Ostr\u00f3w Mazowiecka","addr:street":"ul. Romana Rubinkowskiego","addr:housenumber":"15","addr:teryt:simc":19032,"addr:teryt:sym_ul":966330,"ref:regon":"146349270","operator":"Ostrowskie Towarzystwo Inicjatyw Kulturalno O\u015bwiatowych \"Otiko\"","operator:type":"ngo","amenity":"music_school"}},{"id":109957,"type":"Feature","geometry":{"type":"Point","coordinates":[21.90146,52.80338]},"properties":{"ref:rspo":109957,"official_name":"Bursa Szkolna w Ostrowi Mazowieckiej","name":"Bursa Szkolna w Ostrowi Mazowieckiej","addr:country":"PL","addr:postcode":"07-300","addr:city":"Ostr\u00f3w Mazowiecka","addr:street":"ul. Romana Rubinkowskiego","addr:housenumber":"15","addr:teryt:simc":19032,"addr:teryt:sym_ul":966330,"contact:phone":"+48 297454571","contact:email":"bursaszkolna@onet.eu","ref:regon":"001320468","operator":"Powiat Ostrowski","operator:type":"government","building":"dormitory"}},{"id":109968,"type":"Feature","geometry":{"type":"Point","coordinates":[21.90146,52.80335]},"properties":{"ref:rspo":109968,"official_name":"Poradnia Psychologiczno-Pedagogiczna w Ostrowi Mazowieckiej","name":"Poradnia Psychologiczno-Pedagogiczna w Ostrowi Mazowieckiej","addr:country":"PL","addr:postcode":"07-300","addr:city":"Ostr\u00f3w Mazowiecka","addr:street":"ul. Romana Rubinkowskiego","addr:housenumber":"15","addr:teryt:simc":19032,"addr:teryt:sym_ul":966330,"contact:phone":"+48 297453476","contact:email":"pppom@op.pl","ref:regon":"000694451","operator":"Powiat Ostrowski","operator:type":"government","healthcare":"councelling","counselling_type":"education","fixme":"w zale\u017cno\u015bci od przedmiotu dzia\u0142alno\u015bci (np. healthcare=councelling + counselling_type=education albo healthcare=psychotherapist)"}},{"id":89446,"type":"Feature","geometry":{"type":"Point","coordinates":[21.90146,52.80332]},"properties":{"ref:rspo":89446,"official_name":"Biblioteka Pedagogiczna w Ostro\u0142\u0119ce - Filia w Ostrowi Mazowieckiej","name":"Biblioteka Pedagogiczna w Ostro\u0142\u0119ce - Filia w Ostrowi Mazowieckiej","addr:country":"PL","addr:postcode":"07-300","addr:city":"Ostr\u00f3w Mazowiecka","addr:street":"ul. Romana Rubinkowskiego","addr:housenumber":"15","addr:teryt:simc":19032,"addr:teryt:sym_ul":966330,"contact:phone":"+48 297453582","contact:email":"ostrow@bp.ostroleka.pl","contact:website":"http:\/\/www.bpostrow.pl","ref:regon":"694480000","ref:vatin":"PL7582120644","operator":"Wojew\u00f3dztwo Mazowieckie","operator:type":"government","amenity":"library","note":"Parent RSPO: 27001"}},{"id":112244,"type":"Feature","geometry":{"type":"Point","coordinates":[21.88787,52.80416]},"properties":{"ref:rspo":112244,"official_name":"Miejskie Przedszkole Nr 2","name":"Miejskie Przedszkole Nr 2","addr:country":"PL","addr:postcode":"07-300","addr:city":"Ostr\u00f3w Mazowiecka","addr:street":"ul. Zwyci\u0119stwa","addr:housenumber":"2","addr:teryt:simc":26326,"addr:teryt:sym_ul":966330,"contact:phone":"+48 297462056","contact:email":"mp2ostrow@gmail.com","ref:regon":"140171954","ref:vatin":"PL7591637513","operator":"Miasto Ostr\u00f3w Mazowiecka","operator:type":"government","amenity":"kindergarten"}},{"id":87795,"type":"Feature","geometry":{"type":"Point","coordinates":[21.90407,52.80521]},"properties":{"isced:level":"1;2","ref:rspo":87795,"official_name":"Szko\u0142a Podstawowa Nr 3 im. Janusza Korczaka","name":"Szko\u0142a Podstawowa Nr 3","addr:country":"PL","addr:postcode":"07-300","addr:city":"Ostr\u00f3w Mazowiecka","addr:street":"ul. Widnichowska","addr:housenumber":"4","addr:teryt:simc":24007,"addr:teryt:sym_ul":966330,"contact:phone":"+48 297453456","contact:email":"sekretariat.sp3ostrow@gmail.com","contact:website":"http:\/\/korczaksp3.edupage.org","ref:regon":"000632912","ref:vatin":"PL7591520478","operator":"Miasto Ostr\u00f3w Mazowiecka","operator:type":"government","amenity":"school"}},{"id":109949,"type":"Feature","geometry":{"type":"Point","coordinates":[21.89994,52.80525]},"properties":{"isced:level":"3","ref:rspo":109949,"official_name":"Liceum Og\u00f3lnokszta\u0142c\u0105ce im. Miko\u0142aja Kopernika w Ostrowi Mazowieckiej","name":"Liceum Og\u00f3lnokszta\u0142c\u0105ce","addr:country":"PL","addr:postcode":"07-300","addr:city":"Ostr\u00f3w Mazowiecka","addr:street":"ul. Tadeusza Ko\u015bciuszki","addr:housenumber":"36","addr:teryt:simc":9582,"addr:teryt:sym_ul":966330,"contact:phone":"+48 297453753","contact:email":"lo.sekretariat@op.pl","contact:website":"http:\/\/www.koperniczek.net","ref:regon":"000258589","operator":"Powiat Ostrowski","operator:type":"government","amenity":"school"}},{"id":115466,"type":"Feature","geometry":{"type":"Point","coordinates":[21.89424,52.80599]},"properties":{"isced:level":"1;2","ref:rspo":115466,"official_name":"Szko\u0142a Podstawowa Nr 2 im. Papie\u017ca Jana Paw\u0142a Ii","name":"Szko\u0142a Podstawowa Nr 2","addr:country":"PL","addr:postcode":"07-300","addr:city":"Ostr\u00f3w Mazowiecka","addr:street":"ul. Gen. Stefana Grota Roweckiego","addr:housenumber":"6","addr:teryt:simc":56021,"addr:teryt:sym_ul":966330,"contact:phone":"+48 297453332","contact:email":"sekretariat.zsp1ostrow@gmail.com","contact:website":"http:\/\/dwojkaostrowmaz.edupage.org","ref:regon":"000694675","ref:vatin":"PL7591520550","operator":"Miasto Ostr\u00f3w Mazowiecka","operator:type":"government","amenity":"school"}},{"id":121418,"type":"Feature","geometry":{"type":"Point","coordinates":[21.90208,52.8084]},"properties":{"ref:rspo":121418,"official_name":"Miejskie Przedszkole Nr 3","name":"Miejskie Przedszkole Nr 3","addr:country":"PL","addr:postcode":"07-300","addr:city":"Ostr\u00f3w Mazowiecka","addr:street":"ul. Armii Krajowej","addr:housenumber":"2","addr:teryt:simc":432,"addr:teryt:sym_ul":966330,"contact:phone":"+48 297462301","contact:email":"sekretariat.mp3ostrow@gmail.com","ref:regon":"140171977","ref:vatin":"PL7591637536","operator":"Miasto Ostr\u00f3w Mazowiecka","operator:type":"government","amenity":"kindergarten"}},{"id":128659,"type":"Feature","geometry":{"type":"Point","coordinates":[21.8761884,52.8113934]},"properties":{"ref:rspo":128659,"official_name":"Niepubliczne Dwuj\u0119zyczne Przedszkole Kids & Co.","name":"Niepubliczne Dwuj\u0119zyczne Przedszkole Kids & Co.","addr:country":"PL","addr:postcode":"07-300","addr:city":"Ostr\u00f3w Mazowiecka","addr:street":"ul. gen. W\u0142adys\u0142awa Sikorskiego","addr:housenumber":"76","addr:teryt:simc":19907,"addr:teryt:sym_ul":966330,"contact:phone":"+48 571445227","contact:email":"sylwia.deluga@kids-co.pl","ref:regon":"362388073","operator":"Centrum Rozwoju Dziecka Sp\u00f3\u0142ka Z Ograniczon\u0105 Odpowiedzialno\u015bci\u0105","operator:type":"private","amenity":"kindergarten"}},{"id":115463,"type":"Feature","geometry":{"type":"Point","coordinates":[21.86068,52.82439]},"properties":{"isced:level":"1;2","ref:rspo":115463,"official_name":"Szko\u0142a Podstawowa Nr 4 im. 18. Pu\u0142ku Artylerii Lekkiej","name":"Szko\u0142a Podstawowa Nr 4","addr:country":"PL","addr:postcode":"07-310","addr:city":"Ostr\u00f3w Mazowiecka","addr:street":"ul. Szko\u0142y Podchor\u0105\u017cych Piechoty","addr:housenumber":"1","addr:teryt:simc":21976,"addr:teryt:sym_ul":966330,"contact:phone":"+48 297454412","contact:email":"sp4sekret@wp.pl","contact:website":"http:\/\/sp4ostrowmaz.edupage.org","ref:regon":"000694681","ref:vatin":"PL7591520490","operator":"Miasto Ostr\u00f3w Mazowiecka","operator:type":"government","amenity":"school"}}]}