{
    "type": "FeatureCollection",
    "features": [
        {
            "id": 16822,
            "type": "Feature",
            "geometry": {
                "type": "Point",
                "coordinates": [
                    18.24328,
                    50.319
                ]
            },
            "properties": {
                "ref:rspo": 16822,
                "official_name": "Zesp\u00f3\u0142 Szk\u00f3\u0142 Technicznych I Og\u00f3lnokszta\u0142c\u0105cych",
                "name": "Zesp\u00f3\u0142 Szk\u00f3\u0142 Technicznych I Og\u00f3lnokszta\u0142c\u0105cych",
                "addr:postcode": "47-223",
                "addr:city": "K\u0119dzierzyn-Ko\u017ale",
                "addr:street": "Mostowa",
                "addr:housenumber": "7",
                "addr:city:simc": 965424,
                "addr:street:sym_ul": 13379,
                "phone": "+48 774812209",
                "email": "zstio@zstio.net",
                "website": "http:\/\/www.zstio.net",
                "ref:regon": "000041447",
                "ref:vatin": "PL7491080554",
                "operator": "Powiat K\u0119dzierzy\u0144sko-Kozielski",
                "operator:type": "government",
                "landuse": "education",
                "fixme": "amenity=school, amenity=college albo landuse=education w zale\u017cno\u015bci od tego, jakie plac\u00f3wki wchodz\u0105 w sk\u0142ad zespo\u0142u. Sprawd\u017a, kiedy stosowa\u0107 amenity=* a kiedy landuse=education.",
                "note": "Children RSPO: 21496;38549;38552;275668"
            }
        },
        {
            "id": 29610,
            "type": "Feature",
            "geometry": {
                "type": "Point",
                "coordinates": [
                    18.24328,
                    50.31897
                ]
            },
            "properties": {
                "ref:rspo": 29610,
                "official_name": "Centrum Kszta\u0142cenia Zawodowego w K\u0119dzierzynie-Ko\u017alu",
                "name": "Centrum Kszta\u0142cenia Zawodowego w K\u0119dzierzynie-Ko\u017alu",
                "addr:postcode": "47-223",
                "addr:city": "K\u0119dzierzyn-Ko\u017ale",
                "addr:street": "Mostowa",
                "addr:housenumber": "7",
                "addr:city:simc": 965424,
                "addr:street:sym_ul": 13379,
                "phone": "+48 774813752",
                "email": "biuro@ckzkk.pl",
                "website": "http:\/\/www.ckzkk.com.pl",
                "ref:regon": "532207999",
                "ref:vatin": "PL7491905285",
                "operator": "Powiat K\u0119dzierzy\u0144sko-Kozielski",
                "operator:type": "government",
                "fixme": "w zale\u017cno\u015bci od przedmiotu dzia\u0142alno\u015bci (np. amenity=training + training=*, amenity=dancing_school, amenity=language_school, amenity=music_school) albo amenity=school, amenity=college, albo landuse=education w zale\u017cno\u015bci od tego, jakie plac\u00f3wki wchodz\u0105 w sk\u0142ad zespo\u0142u. Sprawd\u017a, kiedy stosowa\u0107 amenity=* a kiedy landuse=education."
            }
        },
        {
            "id": 21496,
            "type": "Feature",
            "geometry": {
                "type": "Point",
                "coordinates": [
                    18.24328,
                    50.318940000000005
                ]
            },
            "properties": {
                "isced:level": "3",
                "ref:rspo": 21496,
                "official_name": "Liceum Og\u00f3lnokszta\u0142c\u0105ce dla Doros\u0142ych",
                "name": "Liceum Og\u00f3lnokszta\u0142c\u0105ce dla Doros\u0142ych",
                "addr:postcode": "47-223",
                "addr:city": "K\u0119dzierzyn-Ko\u017ale",
                "addr:street": "Mostowa",
                "addr:housenumber": "7",
                "addr:city:simc": 965424,
                "addr:street:sym_ul": 13379,
                "phone": "+48 774812209",
                "ref:regon": "161483462",
                "operator": "Powiat K\u0119dzierzy\u0144sko-Kozielski",
                "operator:type": "government",
                "amenity": "school",
                "note": "Parent RSPO: 16822"
            }
        },
        {
            "id": 38549,
            "type": "Feature",
            "geometry": {
                "type": "Point",
                "coordinates": [
                    18.24328,
                    50.31891
                ]
            },
            "properties": {
                "isced:level": "3",
                "ref:rspo": 38549,
                "official_name": "Bran\u017cowa Szko\u0142a I Stopnia nr 3 Przy Zespole Szk\u00f3\u0142 Technicznych I Og\u00f3lnokszta\u0142c\u0105cych",
                "name": "Bran\u017cowa Szko\u0142a I Stopnia nr 3 Przy Zespole Szk\u00f3\u0142 Technicznych I Og\u00f3lnokszta\u0142c\u0105cych",
                "addr:postcode": "47-223",
                "addr:city": "K\u0119dzierzyn-Ko\u017ale",
                "addr:street": "Mostowa",
                "addr:housenumber": "7",
                "addr:city:simc": 965424,
                "addr:street:sym_ul": 13379,
                "phone": "+48 774812209",
                "email": "zstio@zstio.net",
                "website": "http:\/\/www.zstio.net",
                "ref:regon": "532326400",
                "operator": "Powiat K\u0119dzierzy\u0144sko-Kozielski",
                "operator:type": "government",
                "amenity": "school",
                "note": "Parent RSPO: 16822"
            }
        },
        {
            "id": 38552,
            "type": "Feature",
            "geometry": {
                "type": "Point",
                "coordinates": [
                    18.24328,
                    50.31888
                ]
            },
            "properties": {
                "isced:level": "3",
                "ref:rspo": 38552,
                "official_name": "Techniukm nr 4 Przy Zespole Szk\u00f3\u0142 Technicznych I Og\u00f3lnokszta\u0142c\u0105cych",
                "name": "Techniukm nr 4 Przy Zespole Szk\u00f3\u0142 Technicznych I Og\u00f3lnokszta\u0142c\u0105cych",
                "addr:postcode": "47-223",
                "addr:city": "K\u0119dzierzyn-Ko\u017ale",
                "addr:street": "Mostowa",
                "addr:housenumber": "7",
                "addr:city:simc": 965424,
                "addr:street:sym_ul": 13379,
                "phone": "+48 774812209",
                "email": "zstio@zstio.net",
                "website": "http:\/\/www.zstio.net",
                "ref:regon": "532326416",
                "operator": "Powiat K\u0119dzierzy\u0144sko-Kozielski",
                "operator:type": "government",
                "amenity": "school",
                "note": "Parent RSPO: 16822"
            }
        },
        {
            "id": 275668,
            "type": "Feature",
            "geometry": {
                "type": "Point",
                "coordinates": [
                    18.24328,
                    50.318850000000005
                ]
            },
            "properties": {
                "isced:level": "3",
                "ref:rspo": 275668,
                "official_name": "Bran\u017cowa Szko\u0142a II Stopnia nr 2",
                "name": "Bran\u017cowa Szko\u0142a II Stopnia nr 2",
                "addr:postcode": "47-223",
                "addr:city": "K\u0119dzierzyn-Ko\u017ale",
                "addr:street": "Mostowa",
                "addr:housenumber": "7",
                "addr:city:simc": 965424,
                "addr:street:sym_ul": 13379,
                "phone": "+48 774812209",
                "email": "zstio@zstio.net",
                "ref:regon": "386930926",
                "operator": "Powiat K\u0119dzierzy\u0144sko-Kozielski",
                "operator:type": "government",
                "amenity": "school",
                "note": "Parent RSPO: 16822"
            }
        },
        {
            "id": 50396,
            "type": "Feature",
            "geometry": {
                "type": "Point",
                "coordinates": [
                    18.24742,
                    50.32416
                ]
            },
            "properties": {
                "isced:level": "1;2",
                "ref:rspo": 50396,
                "official_name": "Publiczna Szko\u0142a Podstawowa nr 3 im. Komisji Edukacji Narodowej",
                "name": "Publiczna Szko\u0142a Podstawowa nr 3",
                "addr:postcode": "47-223",
                "addr:city": "K\u0119dzierzyn-Ko\u017ale",
                "addr:street": "Ignacego Mo\u015bcickiego",
                "addr:housenumber": "14",
                "addr:city:simc": 965424,
                "addr:street:sym_ul": 13390,
                "phone": "+48 774812736",
                "email": "psp3@kedzierzynkozle.pl",
                "website": "http:\/\/psp3kk.pl",
                "ref:regon": "000698259",
                "ref:vatin": "PL7492006206",
                "operator": "Gmina K\u0119dzierzyn-Ko\u017ale",
                "operator:type": "government",
                "amenity": "school"
            }
        },
        {
            "id": 23048,
            "type": "Feature",
            "geometry": {
                "type": "Point",
                "coordinates": [
                    18.24485,
                    50.32656
                ]
            },
            "properties": {
                "ref:rspo": 23048,
                "official_name": "Przedszkole Publiczne nr 7",
                "name": "Przedszkole Publiczne nr 7",
                "addr:postcode": "47-223",
                "addr:city": "K\u0119dzierzyn-Ko\u017ale",
                "addr:street": "Jordanowska",
                "addr:housenumber": "14",
                "addr:city:simc": 965424,
                "addr:street:sym_ul": 7609,
                "phone": "+48 774812861",
                "email": "pp7@kedzierzynkozle.pl",
                "website": "http:\/\/www.pp7.kk.szkolnastrona.pl",
                "ref:regon": "530560007",
                "ref:vatin": "PL7491147241",
                "operator": "Gmina K\u0119dzierzyn-Ko\u017ale",
                "operator:type": "government",
                "amenity": "kindergarten"
            }
        },
        {
            "id": 29472,
            "type": "Feature",
            "geometry": {
                "type": "Point",
                "coordinates": [
                    18.14326,
                    50.33141
                ]
            },
            "properties": {
                "ref:rspo": 29472,
                "official_name": "Zesp\u00f3\u0142 Szk\u00f3\u0142 nr 1 im. Powsta\u0144c\u00f3w \u015aL\u0105skich",
                "name": "Zesp\u00f3\u0142 Szk\u00f3\u0142 nr 1",
                "addr:postcode": "47-200",
                "addr:city": "K\u0119dzierzyn-Ko\u017ale",
                "addr:street": "Skarbowa",
                "addr:housenumber": "2",
                "addr:city:simc": 965424,
                "addr:street:sym_ul": 20003,
                "phone": "+48 774825950",
                "email": "zs1@zs1.edu.pl",
                "website": "http:\/\/www.zs1.edu.pl",
                "ref:regon": "000743178",
                "ref:vatin": "PL7491459041",
                "operator": "Powiat K\u0119dzierzy\u0144sko-Kozielski",
                "operator:type": "government",
                "landuse": "education",
                "fixme": "amenity=school, amenity=college albo landuse=education w zale\u017cno\u015bci od tego, jakie plac\u00f3wki wchodz\u0105 w sk\u0142ad zespo\u0142u. Sprawd\u017a, kiedy stosowa\u0107 amenity=* a kiedy landuse=education.",
                "note": "Children RSPO: 34789;35265;275676"
            }
        },
        {
            "id": 70958,
            "type": "Feature",
            "geometry": {
                "type": "Point",
                "coordinates": [
                    18.14326,
                    50.331379999999996
                ]
            },
            "properties": {
                "isced:level": "3",
                "ref:rspo": 70958,
                "official_name": "Liceum Og\u00f3lnokszta\u0142c\u0105ce dla Doros\u0142ych w K\u0119dzierzynie-Ko\u017alu",
                "name": "Liceum Og\u00f3lnokszta\u0142c\u0105ce dla Doros\u0142ych w K\u0119dzierzynie-Ko\u017alu",
                "addr:postcode": "47-200",
                "addr:city": "K\u0119dzierzyn-Ko\u017ale",
                "addr:street": "Skarbowa",
                "addr:housenumber": "2",
                "addr:city:simc": 965424,
                "addr:street:sym_ul": 20003,
                "phone": "+48 774810300",
                "email": "fundacjaddp@gmail.com",
                "ref:regon": "161490692",
                "operator": "Fundacja Dla Dobra Publicznego",
                "operator:type": "ngo",
                "amenity": "school"
            }
        },
        {
            "id": 34789,
            "type": "Feature",
            "geometry": {
                "type": "Point",
                "coordinates": [
                    18.14326,
                    50.33135
                ]
            },
            "properties": {
                "isced:level": "3",
                "ref:rspo": 34789,
                "official_name": "Technikum nr 1",
                "name": "Technikum nr 1",
                "addr:postcode": "47-200",
                "addr:city": "K\u0119dzierzyn-Ko\u017ale",
                "addr:street": "Skarbowa",
                "addr:housenumber": "2",
                "addr:city:simc": 965424,
                "addr:street:sym_ul": 20003,
                "phone": "+48 774825950",
                "email": "zs1@zs1.edu.pl",
                "website": "http:\/\/www.zs1.edu.pl",
                "ref:regon": "532331245",
                "operator": "Powiat K\u0119dzierzy\u0144sko-Kozielski",
                "operator:type": "government",
                "amenity": "school",
                "note": "Parent RSPO: 29472"
            }
        },
        {
            "id": 35265,
            "type": "Feature",
            "geometry": {
                "type": "Point",
                "coordinates": [
                    18.14326,
                    50.33132
                ]
            },
            "properties": {
                "isced:level": "3",
                "ref:rspo": 35265,
                "official_name": "Bran\u017cowa Szko\u0142a I Stopnia nr 1",
                "name": "Bran\u017cowa Szko\u0142a I Stopnia nr 1",
                "addr:postcode": "47-200",
                "addr:city": "K\u0119dzierzyn-Ko\u017ale",
                "addr:street": "Skarbowa",
                "addr:housenumber": "2",
                "addr:city:simc": 965424,
                "addr:street:sym_ul": 20003,
                "phone": "+48 774825950",
                "email": "zs1@zs1.edu.pl",
                "website": "http:\/\/www.zs1.edu.pl",
                "ref:regon": "532331239",
                "operator": "Powiat K\u0119dzierzy\u0144sko-Kozielski",
                "operator:type": "government",
                "amenity": "school",
                "note": "Parent RSPO: 29472"
            }
        },
        {
            "id": 275676,
            "type": "Feature",
            "geometry": {
                "type": "Point",
                "coordinates": [
                    18.14326,
                    50.331289999999996
                ]
            },
            "properties": {
                "isced:level": "3",
                "ref:rspo": 275676,
                "official_name": "Bran\u017cowa Szko\u0142a II Stopnia nr 1",
                "name": "Bran\u017cowa Szko\u0142a II Stopnia nr 1",
                "addr:postcode": "47-200",
                "addr:city": "K\u0119dzierzyn-Ko\u017ale",
                "addr:street": "Skarbowa",
                "addr:housenumber": "2",
                "addr:city:simc": 965424,
                "addr:street:sym_ul": 20003,
                "phone": "+48 774825950",
                "email": "zs1@zs1.edu.pl",
                "ref:regon": "386931216",
                "operator": "Powiat K\u0119dzierzy\u0144sko-Kozielski",
                "operator:type": "government",
                "amenity": "school",
                "note": "Parent RSPO: 29472"
            }
        },
        {
            "id": 70959,
            "type": "Feature",
            "geometry": {
                "type": "Point",
                "coordinates": [
                    18.14438,
                    50.33157
                ]
            },
            "properties": {
                "ref:rspo": 70959,
                "official_name": "Publiczna Poradnia Psychologiczno-Pedagogiczna",
                "name": "Publiczna Poradnia Psychologiczno-Pedagogiczna",
                "addr:postcode": "47-200",
                "addr:city": "K\u0119dzierzyn-Ko\u017ale",
                "addr:street": "Skarbowa",
                "addr:housenumber": "4",
                "addr:city:simc": 965424,
                "addr:street:sym_ul": 20003,
                "phone": "+48 774821226",
                "email": "sekretariat@poradniakk.pl",
                "website": "http:\/\/www.poradniakk.pl",
                "ref:regon": "000743327",
                "ref:vatin": "PL7491509589",
                "operator": "Powiat K\u0119dzierzy\u0144sko-Kozielski",
                "operator:type": "government",
                "healthcare": "counselling",
                "counselling_type": "education",
                "fixme": "w zale\u017cno\u015bci od przedmiotu dzia\u0142alno\u015bci (np. healthcare=counselling + counselling_type=education albo healthcare=psychotherapist)"
            }
        },
        {
            "id": 75573,
            "type": "Feature",
            "geometry": {
                "type": "Point",
                "coordinates": [
                    18.14678,
                    50.33238
                ]
            },
            "properties": {
                "ref:rspo": 75573,
                "official_name": "Pa\u0144stwowa Szko\u0142a Muzyczna I St. nr 2 im. Marii Szymanowskiej w K\u0119dzierzynie-Ko\u017alu",
                "name": "Pa\u0144stwowa Szko\u0142a Muzyczna I St. nr 2",
                "addr:postcode": "47-200",
                "addr:city": "K\u0119dzierzyn-Ko\u017ale",
                "addr:street": "Marii Sk\u0142odowskiej-Curie",
                "addr:housenumber": "9",
                "addr:city:simc": 965424,
                "addr:street:sym_ul": 20068,
                "phone": "+48 774823743",
                "email": "psm2@op.pl",
                "website": "http:\/\/psm-kozle.pl",
                "ref:regon": "000281980",
                "operator": "Ministerstwo Kultury I Dziedzictwa Narodowego",
                "operator:type": "government",
                "amenity": "music_school"
            }
        },
        {
            "id": 26976,
            "type": "Feature",
            "geometry": {
                "type": "Point",
                "coordinates": [
                    18.1422,
                    50.33251
                ]
            },
            "properties": {
                "ref:rspo": 26976,
                "official_name": "Publiczne Przedszkole nr 15",
                "name": "Publiczne Przedszkole nr 15",
                "addr:postcode": "47-200",
                "addr:city": "K\u0119dzierzyn-Ko\u017ale",
                "addr:street": "Sp\u00f3\u0142dzielc\u00f3w",
                "addr:housenumber": "3",
                "addr:city:simc": 965424,
                "addr:street:sym_ul": 20695,
                "phone": "+48 774822538",
                "email": "pp15@kedzierzynkozle.pl",
                "website": "http:\/\/www.przedszkolenr15.pl",
                "ref:regon": "530560088",
                "ref:vatin": "PL7491064213",
                "operator": "Gmina K\u0119dzierzyn-Ko\u017ale",
                "operator:type": "government",
                "amenity": "kindergarten"
            }
        },
        {
            "id": 23101,
            "type": "Feature",
            "geometry": {
                "type": "Point",
                "coordinates": [
                    18.148790359497,
                    50.33251953125
                ]
            },
            "properties": {
                "ref:rspo": 23101,
                "official_name": "Publiczne Przedszkole nr 11",
                "name": "Publiczne Przedszkole nr 11",
                "addr:postcode": "47-224",
                "addr:city": "K\u0119dzierzyn-Ko\u017ale",
                "addr:street": "Miko\u0142aja Reja",
                "addr:housenumber": "14",
                "addr:city:simc": 965424,
                "addr:street:sym_ul": 18565,
                "phone": "+48 774723574",
                "email": "pp11@kedzierzynkozle.pl",
                "website": "http:\/\/www.przedszkole-11.pl",
                "ref:regon": "530560042",
                "ref:vatin": "PL7491063633",
                "operator": "Gmina K\u0119dzierzyn-Ko\u017ale",
                "operator:type": "government",
                "amenity": "kindergarten"
            }
        },
        {
            "id": 26966,
            "type": "Feature",
            "geometry": {
                "type": "Point",
                "coordinates": [
                    18.148790359497,
                    50.33248953125
                ]
            },
            "properties": {
                "ref:rspo": 26966,
                "official_name": "Publiczne Przedszkole nr 14",
                "name": "Publiczne Przedszkole nr 14",
                "addr:postcode": "47-200",
                "addr:city": "K\u0119dzierzyn-Ko\u017ale",
                "addr:street": "Franklina Delano Roosevelta",
                "addr:housenumber": "13",
                "addr:city:simc": 965424,
                "addr:street:sym_ul": 18857,
                "phone": "+48 774823623",
                "email": "pp14@kedzierzynkozle.pl",
                "ref:regon": "530560071",
                "ref:vatin": "PL7491094059",
                "operator": "Gmina K\u0119dzierzyn-Ko\u017ale",
                "operator:type": "government",
                "amenity": "kindergarten"
            }
        },
        {
            "id": 29532,
            "type": "Feature",
            "geometry": {
                "type": "Point",
                "coordinates": [
                    18.14394,
                    50.3356
                ]
            },
            "properties": {
                "ref:rspo": 29532,
                "official_name": "Zesp\u00f3\u0142 Szk\u00f3\u0142 \u017beglugi \u015ar\u00f3dl\u0105dowej im. Bohater\u00f3w Westerplatte",
                "name": "Zesp\u00f3\u0142 Szk\u00f3\u0142 \u017beglugi \u015ar\u00f3dl\u0105dowej",
                "addr:postcode": "47-200",
                "addr:city": "K\u0119dzierzyn-Ko\u017ale",
                "addr:street": "Bohater\u00f3w Westerplatte",
                "addr:housenumber": "1",
                "addr:city:simc": 965424,
                "addr:street:sym_ul": 1681,
                "phone": "+48 774061650",
                "email": "sekretariat@zegluga.edu.pl",
                "website": "http:\/\/www.zegluga.edu.pl",
                "ref:regon": "000126333",
                "ref:vatin": "PL7491532967",
                "operator": "Powiat K\u0119dzierzy\u0144sko-Kozielski",
                "operator:type": "government",
                "landuse": "education",
                "fixme": "amenity=school, amenity=college albo landuse=education w zale\u017cno\u015bci od tego, jakie plac\u00f3wki wchodz\u0105 w sk\u0142ad zespo\u0142u. Sprawd\u017a, kiedy stosowa\u0107 amenity=* a kiedy landuse=education.",
                "note": "Children RSPO: 38539;38540"
            }
        },
        {
            "id": 38539,
            "type": "Feature",
            "geometry": {
                "type": "Point",
                "coordinates": [
                    18.14394,
                    50.33557
                ]
            },
            "properties": {
                "isced:level": "3",
                "ref:rspo": 38539,
                "official_name": "Bran\u017cowa Szko\u0142a I Stopnia nr 2",
                "name": "Bran\u017cowa Szko\u0142a I Stopnia nr 2",
                "addr:postcode": "47-200",
                "addr:city": "K\u0119dzierzyn-Ko\u017ale",
                "addr:street": "Bohater\u00f3w Westerplatte",
                "addr:housenumber": "1",
                "addr:city:simc": 965424,
                "addr:street:sym_ul": 1681,
                "phone": "+48 774061650",
                "email": "sekretariat@zegluga.edu.pl",
                "website": "http:\/\/www.zegluga.edu.pl",
                "ref:regon": "532329840",
                "operator": "Powiat K\u0119dzierzy\u0144sko-Kozielski",
                "operator:type": "government",
                "amenity": "school",
                "note": "Parent RSPO: 29532"
            }
        },
        {
            "id": 38540,
            "type": "Feature",
            "geometry": {
                "type": "Point",
                "coordinates": [
                    18.14394,
                    50.33554
                ]
            },
            "properties": {
                "isced:level": "3",
                "ref:rspo": 38540,
                "official_name": "Technikum nr 2",
                "name": "Technikum nr 2",
                "addr:postcode": "47-200",
                "addr:city": "K\u0119dzierzyn-Ko\u017ale",
                "addr:street": "Bohater\u00f3w Westerplatte",
                "addr:housenumber": "1",
                "addr:city:simc": 965424,
                "addr:street:sym_ul": 1681,
                "phone": "+48 774061650",
                "email": "sekretariat@zegluga.edu.pl",
                "website": "http:\/\/www.zegluga.edu.pl",
                "ref:regon": "532329811",
                "operator": "Powiat K\u0119dzierzy\u0144sko-Kozielski",
                "operator:type": "government",
                "amenity": "school",
                "note": "Parent RSPO: 29532"
            }
        },
        {
            "id": 23742,
            "type": "Feature",
            "geometry": {
                "type": "Point",
                "coordinates": [
                    18.14453,
                    50.33594
                ]
            },
            "properties": {
                "isced:level": "3",
                "ref:rspo": 23742,
                "official_name": "I Liceum Og\u00f3lnokszta\u0142c\u0105ce im. Henryka Sienkiewicza",
                "name": "I Liceum Og\u00f3lnokszta\u0142c\u0105ce",
                "addr:postcode": "47-200",
                "addr:city": "K\u0119dzierzyn-Ko\u017ale",
                "addr:street": "Grzegorza Piramowicza",
                "addr:housenumber": "36",
                "addr:city:simc": 965424,
                "addr:street:sym_ul": 16331,
                "phone": "+48 774823305",
                "email": "lo1kozle@gmail.com",
                "website": "http:\/\/www.lo1.szkola.pl",
                "ref:regon": "532399651",
                "ref:vatin": "PL7491460073",
                "operator": "Powiat K\u0119dzierzy\u0144sko-Kozielski",
                "operator:type": "government",
                "amenity": "school"
            }
        },
        {
            "id": 21347,
            "type": "Feature",
            "geometry": {
                "type": "Point",
                "coordinates": [
                    18.19972,
                    50.33602
                ]
            },
            "properties": {
                "isced:level": "1;2",
                "ref:rspo": 21347,
                "official_name": "Publiczna Szko\u0142a Podstawowa nr 11 im.w\u0142adys\u0142awa Broniewskiego w K\u0119dzierzynie-Ko\u017alu",
                "name": "Publiczna Szko\u0142a Podstawowa nr 11 im.w\u0142adys\u0142awa Broniewskiego w K\u0119dzierzynie-Ko\u017alu",
                "addr:postcode": "47-224",
                "addr:city": "K\u0119dzierzyn-Ko\u017ale",
                "addr:street": "Aleja Partyzant\u00f3w",
                "addr:housenumber": "30",
                "addr:city:simc": 965424,
                "addr:street:sym_ul": 200,
                "phone": "+48 774834595",
                "email": "psp11@kedzierzynkozle.pl",
                "website": "http:\/\/www.jedenastka.edu.pl",
                "ref:regon": "000698727",
                "ref:vatin": "PL7491634320",
                "operator": "Gmina K\u0119dzierzyn-Ko\u017ale",
                "operator:type": "government",
                "amenity": "school"
            }
        },
        {
            "id": 27018,
            "type": "Feature",
            "geometry": {
                "type": "Point",
                "coordinates": [
                    18.13731,
                    50.33615
                ]
            },
            "properties": {
                "ref:rspo": 27018,
                "official_name": "Publiczne Przedszkole nr 21 z Oddzia\u0142ami Integracyjnymi w K\u0119dzierzynie-Ko\u017alu",
                "name": "Publiczne Przedszkole nr 21 z Oddzia\u0142ami Integracyjnymi w K\u0119dzierzynie-Ko\u017alu",
                "addr:postcode": "47-200",
                "addr:city": "K\u0119dzierzyn-Ko\u017ale",
                "addr:street": "Filtrowa",
                "addr:housenumber": "13",
                "addr:city:simc": 965424,
                "addr:street:sym_ul": 5015,
                "phone": "+48 774823454",
                "email": "pp21@kedzierzynkozle.pl",
                "website": "http:\/\/www.przedszkole21-kozle.pl",
                "ref:regon": "530560131",
                "ref:vatin": "PL7491063828",
                "operator": "Gmina K\u0119dzierzyn-Ko\u017ale",
                "operator:type": "government",
                "amenity": "kindergarten"
            }
        },
        {
            "id": 29677,
            "type": "Feature",
            "geometry": {
                "type": "Point",
                "coordinates": [
                    18.14121,
                    50.33665
                ]
            },
            "properties": {
                "ref:rspo": 29677,
                "official_name": "Bursa Szkolna",
                "name": "Bursa Szkolna",
                "addr:postcode": "47-200",
                "addr:city": "K\u0119dzierzyn-Ko\u017ale",
                "addr:street": "Piastowska",
                "addr:housenumber": "19",
                "addr:city:simc": 965424,
                "addr:street:sym_ul": 16046,
                "phone": "+48 774823211",
                "email": "bursaszkolna@poczta.fm",
                "website": "http:\/\/www.bskedzierzyn.szkolnastrona.pl",
                "ref:regon": "532419282",
                "ref:vatin": "PL7491950357",
                "operator": "Powiat K\u0119dzierzy\u0144sko-Kozielski",
                "operator:type": "government",
                "building": "dormitory"
            }
        },
        {
            "id": 43942,
            "type": "Feature",
            "geometry": {
                "type": "Point",
                "coordinates": [
                    18.14121,
                    50.336619999999996
                ]
            },
            "properties": {
                "ref:rspo": 43942,
                "official_name": "Zesp\u00f3\u0142 Niepublicznych Szk\u00f3\u0142 Specjalnych w K\u0119dzierzynie- Ko\u017alu",
                "name": "Zesp\u00f3\u0142 Niepublicznych Szk\u00f3\u0142 Specjalnych w K\u0119dzierzynie- Ko\u017alu",
                "addr:postcode": "47-200",
                "addr:city": "K\u0119dzierzyn-Ko\u017ale",
                "addr:street": "Piastowska",
                "addr:housenumber": "19",
                "addr:city:simc": 965424,
                "addr:street:sym_ul": 16046,
                "email": "sek.malyksiaze@gmail.com",
                "ref:regon": "161489915",
                "operator": "Stowarzyszenie Rodzin I Przyjaci\u00f3\u0142 Autyst\u00f3w \"Ma\u0142y Ksi\u0105\u017c\u0119\" W K\u0119dzierzynie-Ko\u017alu",
                "operator:type": "ngo",
                "landuse": "education",
                "fixme": "amenity=school, amenity=college albo landuse=education w zale\u017cno\u015bci od tego, jakie plac\u00f3wki wchodz\u0105 w sk\u0142ad zespo\u0142u. Sprawd\u017a, kiedy stosowa\u0107 amenity=* a kiedy landuse=education.",
                "note": "Children RSPO: 68231;68241;120313;129083"
            }
        },
        {
            "id": 68231,
            "type": "Feature",
            "geometry": {
                "type": "Point",
                "coordinates": [
                    18.14121,
                    50.33659
                ]
            },
            "properties": {
                "isced:level": "1;2",
                "ref:rspo": 68231,
                "official_name": "Niepubliczna Szko\u0142a Podstawowa Specjalna dla Uczni\u00f3w Ze Sprz\u0119\u017conymi Niepe\u0142nosprawno\u015bciami, Autyzmem",
                "name": "Niepubliczna Szko\u0142a Podstawowa Specjalna dla Uczni\u00f3w Ze Sprz\u0119\u017conymi Niepe\u0142nosprawno\u015bciami, Autyzmem",
                "addr:postcode": "47-200",
                "addr:city": "K\u0119dzierzyn-Ko\u017ale",
                "addr:street": "Piastowska",
                "addr:housenumber": "19",
                "addr:city:simc": 965424,
                "addr:street:sym_ul": 16046,
                "phone": "+48 693410851",
                "email": "stowarzyszenie.rodzin@gmail.com",
                "website": "http:\/\/www.stowarzyszeniemalyksiaze.eu",
                "ref:regon": "161491272",
                "operator": "Stowarzyszenie Rodzin I Przyjaci\u00f3\u0142 Autyst\u00f3w \"Ma\u0142y Ksi\u0105\u017c\u0119\" W K\u0119dzierzynie-Ko\u017alu",
                "operator:type": "ngo",
                "amenity": "school",
                "note": "Parent RSPO: 43942"
            }
        },
        {
            "id": 68241,
            "type": "Feature",
            "geometry": {
                "type": "Point",
                "coordinates": [
                    18.14121,
                    50.33656
                ]
            },
            "properties": {
                "ref:rspo": 68241,
                "official_name": "Niepubliczna Szko\u0142a Specjalna Przysposabiaj\u0105ca do Pracy dla Uczni\u00f3wze Sprz\u0119\u017conymi Niepe\u0142nosprawno\u015bciami",
                "name": "Niepubliczna Szko\u0142a Specjalna Przysposabiaj\u0105ca do Pracy dla Uczni\u00f3wze Sprz\u0119\u017conymi Niepe\u0142nosprawno\u015bciami",
                "addr:postcode": "47-200",
                "addr:city": "K\u0119dzierzyn-Ko\u017ale",
                "addr:street": "Piastowska",
                "addr:housenumber": "19",
                "addr:city:simc": 965424,
                "addr:street:sym_ul": 16046,
                "phone": "+48 693410851",
                "email": "stowarzyszenie.rodzin@gmail.com",
                "ref:regon": "161492308",
                "operator": "Stowarzyszenie Rodzin I Przyjaci\u00f3\u0142 Autyst\u00f3w \"Ma\u0142y Ksi\u0105\u017c\u0119\" W K\u0119dzierzynie-Ko\u017alu",
                "operator:type": "ngo",
                "amenity": "school",
                "note": "Parent RSPO: 43942"
            }
        },
        {
            "id": 129083,
            "type": "Feature",
            "geometry": {
                "type": "Point",
                "coordinates": [
                    18.14121,
                    50.336529999999996
                ]
            },
            "properties": {
                "isced:level": "3",
                "ref:rspo": 129083,
                "official_name": "Niepubliczne Technikum Specjalne \u017bywienia I Us\u0142ug Gastronomicznych dla Uczni\u00f3w z Autyzmem w K\u0119dzierzynie-Ko\u017alu",
                "name": "Niepubliczne Technikum Specjalne \u017bywienia I Us\u0142ug Gastronomicznych dla Uczni\u00f3w z Autyzmem w K\u0119dzierzynie-Ko\u017alu",
                "addr:postcode": "47-200",
                "addr:city": "K\u0119dzierzyn-Ko\u017ale",
                "addr:street": "Piastowska",
                "addr:housenumber": "19",
                "addr:city:simc": 965424,
                "addr:street:sym_ul": 16046,
                "phone": "+48 607111280",
                "email": "stowarzyszenie.rodzin@gmail.com",
                "website": "http:\/\/stowarzyszeniemalyksiaze.eu\/",
                "ref:regon": "362470254",
                "operator": "Stowarzyszenie Rodzin I Przyjaci\u00f3\u0142 Autyst\u00f3w \"Ma\u0142y Ksi\u0105\u017c\u0119\" W K\u0119dzierzynie-Ko\u017alu",
                "operator:type": "ngo",
                "amenity": "school",
                "note": "Parent RSPO: 43942"
            }
        },
        {
            "id": 104516,
            "type": "Feature",
            "geometry": {
                "type": "Point",
                "coordinates": [
                    18.14121,
                    50.3365
                ]
            },
            "properties": {
                "ref:rspo": 104516,
                "official_name": "Pedagogiczna Biblioteka Wojew\u00f3dzka w Opolu - Filia w K\u0119dzierzynie - Ko\u017alu",
                "name": "Pedagogiczna Biblioteka Wojew\u00f3dzka w Opolu - Filia w K\u0119dzierzynie - Ko\u017alu",
                "addr:postcode": "47-200",
                "addr:city": "K\u0119dzierzyn-Ko\u017ale",
                "addr:street": "Piastowska",
                "addr:housenumber": "19",
                "addr:city:simc": 965424,
                "addr:street:sym_ul": 16046,
                "phone": "+48 774823797",
                "email": "kk@pedagogiczna.pl",
                "website": "http:\/\/www.pedagogiczna.pl",
                "ref:regon": "743497000",
                "operator": "Wojew\u00f3dztwo Opolskie",
                "operator:type": "government",
                "amenity": "library",
                "note": "Parent RSPO: 55538"
            }
        },
        {
            "id": 120313,
            "type": "Feature",
            "geometry": {
                "type": "Point",
                "coordinates": [
                    18.13342,
                    50.3367999
                ]
            },
            "properties": {
                "ref:rspo": 120313,
                "official_name": "Niepubliczne Przedszkole dla Dzieci z Autyzmem",
                "name": "Niepubliczne Przedszkole dla Dzieci z Autyzmem",
                "addr:postcode": "47-200",
                "addr:city": "K\u0119dzierzyn-Ko\u017ale",
                "addr:street": "Zygmunta Krasi\u0144skiego",
                "addr:housenumber": "18",
                "addr:city:simc": 965424,
                "addr:street:sym_ul": 9848,
                "phone": "+48 774801382",
                "ref:regon": "161553636",
                "ref:vatin": "PL7492061642",
                "operator": "Stowarzyszenie Rodzin I Przyjaci\u00f3\u0142 Autyst\u00f3w \"Ma\u0142y Ksi\u0105\u017c\u0119\" W K\u0119dzierzynie-Ko\u017alu",
                "operator:type": "ngo",
                "amenity": "kindergarten",
                "note": "Parent RSPO: 43942"
            }
        },
        {
            "id": 26635,
            "type": "Feature",
            "geometry": {
                "type": "Point",
                "coordinates": [
                    18.14174,
                    50.33692
                ]
            },
            "properties": {
                "ref:rspo": 26635,
                "official_name": "Publiczne Przedszkole nr 13",
                "name": "Publiczne Przedszkole nr 13",
                "addr:postcode": "47-200",
                "addr:city": "K\u0119dzierzyn-Ko\u017ale",
                "addr:street": "Piastowska",
                "addr:housenumber": "10",
                "addr:city:simc": 965424,
                "addr:street:sym_ul": 16046,
                "phone": "+48 774820118",
                "email": "pp13@kedzierzynkozle.pl",
                "website": "http:\/\/ww.pp13.k-k.pl",
                "ref:regon": "530560065",
                "ref:vatin": "PL7491103315",
                "operator": "Gmina K\u0119dzierzyn-Ko\u017ale",
                "operator:type": "government",
                "amenity": "kindergarten"
            }
        },
        {
            "id": 48436,
            "type": "Feature",
            "geometry": {
                "type": "Point",
                "coordinates": [
                    18.14139,
                    50.33716
                ]
            },
            "properties": {
                "ref:rspo": 48436,
                "official_name": "Zesp\u00f3\u0142 Szk\u00f3\u0142 Medycznych w K\u0119dzierzynie - Ko\u017alu",
                "name": "Zesp\u00f3\u0142 Szk\u00f3\u0142 Medycznych w K\u0119dzierzynie - Ko\u017alu",
                "addr:postcode": "47-200",
                "addr:city": "K\u0119dzierzyn-Ko\u017ale",
                "addr:street": "Piastowska",
                "addr:housenumber": "12",
                "addr:city:simc": 965424,
                "addr:street:sym_ul": 16046,
                "phone": "+48 774823108",
                "email": "medyk@k-k.pl",
                "website": "http:\/\/www.msz.k-k.pl",
                "ref:regon": "160230049",
                "operator": "Wojew\u00f3dztwo Opolskie",
                "operator:type": "government",
                "landuse": "education",
                "fixme": "amenity=school, amenity=college albo landuse=education w zale\u017cno\u015bci od tego, jakie plac\u00f3wki wchodz\u0105 w sk\u0142ad zespo\u0142u. Sprawd\u017a, kiedy stosowa\u0107 amenity=* a kiedy landuse=education.",
                "note": "Children RSPO: 70344;92394"
            }
        },
        {
            "id": 70344,
            "type": "Feature",
            "geometry": {
                "type": "Point",
                "coordinates": [
                    18.14139,
                    50.337129999999995
                ]
            },
            "properties": {
                "isced:level": "4",
                "ref:rspo": 70344,
                "official_name": "Wojew\u00f3dzka Szko\u0142a Policealna Dzienna im. Marii Minczewskiej w K\u0119dzierzynie - Ko\u017alu",
                "name": "Wojew\u00f3dzka Szko\u0142a Policealna Dzienna",
                "addr:postcode": "47-200",
                "addr:city": "K\u0119dzierzyn-Ko\u017ale",
                "addr:street": "Piastowska",
                "addr:housenumber": "12",
                "addr:city:simc": 965424,
                "addr:street:sym_ul": 16046,
                "phone": "+48 774823108",
                "email": "medyk@k-k.pl",
                "website": "http:\/\/www.msz.k-k.pl",
                "ref:regon": "000646222",
                "operator": "Wojew\u00f3dztwo Opolskie",
                "operator:type": "government",
                "amenity": "college",
                "note": "Parent RSPO: 48436"
            }
        },
        {
            "id": 92394,
            "type": "Feature",
            "geometry": {
                "type": "Point",
                "coordinates": [
                    18.14139,
                    50.3371
                ]
            },
            "properties": {
                "isced:level": "4",
                "ref:rspo": 92394,
                "official_name": "Wojew\u00f3dzka Szko\u0142a Policealna Stacjonarna I Zaoczna w K\u0119dzierzynie - Ko\u017alu",
                "name": "Wojew\u00f3dzka Szko\u0142a Policealna Stacjonarna I Zaoczna w K\u0119dzierzynie - Ko\u017alu",
                "addr:postcode": "47-200",
                "addr:city": "K\u0119dzierzyn-Ko\u017ale",
                "addr:street": "Piastowska",
                "addr:housenumber": "12",
                "addr:city:simc": 965424,
                "addr:street:sym_ul": 16046,
                "phone": "+48 774823108",
                "email": "medyk@k-k.pl",
                "website": "http:\/\/www.msz.k-k.pl",
                "ref:regon": "160230055",
                "operator": "Wojew\u00f3dztwo Opolskie",
                "operator:type": "government",
                "amenity": "college",
                "note": "Parent RSPO: 48436"
            }
        },
        {
            "id": 31032,
            "type": "Feature",
            "geometry": {
                "type": "Point",
                "coordinates": [
                    18.20506,
                    50.33749
                ]
            },
            "properties": {
                "ref:rspo": 31032,
                "official_name": "Przedszkole Publiczne nr 23",
                "name": "Przedszkole Publiczne nr 23",
                "addr:postcode": "47-224",
                "addr:city": "K\u0119dzierzyn-Ko\u017ale",
                "addr:street": "Wierzbowa",
                "addr:housenumber": "4",
                "addr:city:simc": 965424,
                "addr:street:sym_ul": 24170,
                "phone": "+48 774723801",
                "email": "pp23@kedzierzynkozle.pl",
                "ref:regon": "530560154",
                "ref:vatin": "PL7491147235",
                "operator": "Gmina K\u0119dzierzyn-Ko\u017ale",
                "operator:type": "government",
                "amenity": "kindergarten"
            }
        },
        {
            "id": 23109,
            "type": "Feature",
            "geometry": {
                "type": "Point",
                "coordinates": [
                    18.1341,
                    50.33831
                ]
            },
            "properties": {
                "ref:rspo": 23109,
                "official_name": "Publiczne Przedszkole nr 12 im. Krasnala Ha\u0142aba\u0142y",
                "name": "Publiczne Przedszkole nr 12",
                "addr:postcode": "47-200",
                "addr:city": "K\u0119dzierzyn-Ko\u017ale",
                "addr:street": "Boles\u0142awa Chrobrego",
                "addr:housenumber": "28",
                "addr:city:simc": 965424,
                "addr:street:sym_ul": 1742,
                "phone": "+48 774823570",
                "email": "pp12@kedzierzynkozle.pl",
                "website": "http:\/\/www.przedszkole12.k-k.pl",
                "ref:regon": "530560059",
                "ref:vatin": "PL7491064130",
                "operator": "Gmina K\u0119dzierzyn-Ko\u017ale",
                "operator:type": "government",
                "amenity": "kindergarten"
            }
        },
        {
            "id": 39882,
            "type": "Feature",
            "geometry": {
                "type": "Point",
                "coordinates": [
                    18.19558,
                    50.33856
                ]
            },
            "properties": {
                "ref:rspo": 39882,
                "official_name": "Publiczne Ognisko Artystyczne w K\u0119dzierzynie-Ko\u017alu",
                "name": "Publiczne Ognisko Artystyczne w K\u0119dzierzynie-Ko\u017alu",
                "addr:postcode": "47-224",
                "addr:city": "K\u0119dzierzyn-Ko\u017ale",
                "addr:street": "Tadeusza Ko\u015bciuszki",
                "addr:housenumber": "40",
                "addr:city:simc": 965424,
                "addr:street:sym_ul": 9582,
                "phone": "+48 774723395",
                "email": "sekretariat@psmkedzierzyn.com",
                "ref:regon": "000687215",
                "operator": "Powiat K\u0119dzierzy\u0144sko-Kozielski",
                "operator:type": "government",
                "amenity": "community_centre",
                "community_centre:for": "child;juvenile"
            }
        },
        {
            "id": 75572,
            "type": "Feature",
            "geometry": {
                "type": "Point",
                "coordinates": [
                    18.19558,
                    50.33853
                ]
            },
            "properties": {
                "ref:rspo": 75572,
                "official_name": "Pa\u0144stwowa Szko\u0142a Muzyczna I St. nr 1 w K\u0119dzierzynie-Ko\u017alu",
                "name": "Pa\u0144stwowa Szko\u0142a Muzyczna I St. nr 1 w K\u0119dzierzynie-Ko\u017alu",
                "addr:postcode": "47-224",
                "addr:city": "K\u0119dzierzyn-Ko\u017ale",
                "addr:street": "Tadeusza Ko\u015bciuszki",
                "addr:housenumber": "40",
                "addr:city:simc": 965424,
                "addr:street:sym_ul": 9582,
                "phone": "+48 774723396",
                "email": "dyrektor@psmkedzierzyn.com",
                "website": "http:\/\/psmkedzierzyn.cba.pl",
                "ref:regon": "000282607",
                "operator": "Ministerstwo Kultury I Dziedzictwa Narodowego",
                "operator:type": "government",
                "amenity": "music_school"
            }
        },
        {
            "id": 21008,
            "type": "Feature",
            "geometry": {
                "type": "Point",
                "coordinates": [
                    18.1972,
                    50.33869
                ]
            },
            "properties": {
                "isced:level": "1;2",
                "ref:rspo": 21008,
                "official_name": "Publiczna Szko\u0142a Podstawowa nr 5 im.adama Mickiewicza w K\u0119dzierzynie-Ko\u017alu",
                "name": "Publiczna Szko\u0142a Podstawowa nr 5 im.adama Mickiewicza w K\u0119dzierzynie-Ko\u017alu",
                "addr:postcode": "47-224",
                "addr:city": "K\u0119dzierzyn-Ko\u017ale",
                "addr:street": "Tadeusza Ko\u015bciuszki",
                "addr:housenumber": "41",
                "addr:city:simc": 965424,
                "addr:street:sym_ul": 9582,
                "phone": "+48 774832224",
                "email": "psp5@kedzierzynkozle.pl",
                "website": "http:\/\/www.psp5kkozle.pl",
                "ref:regon": "000698265",
                "ref:vatin": "PL7491634314",
                "operator": "Gmina K\u0119dzierzyn-Ko\u017ale",
                "operator:type": "government",
                "amenity": "school"
            }
        },
        {
            "id": 7448,
            "type": "Feature",
            "geometry": {
                "type": "Point",
                "coordinates": [
                    18.13923,
                    50.33876
                ]
            },
            "properties": {
                "isced:level": "1;2",
                "ref:rspo": 7448,
                "official_name": "Publiczna Szko\u0142a Podstawowa nr 12 im. Kadeta Zygmunta Kuczy\u0144skiego w K\u0119dzierzynie-Ko\u017alu",
                "name": "Publiczna Szko\u0142a Podstawowa nr 12",
                "addr:postcode": "47-200",
                "addr:city": "K\u0119dzierzyn-Ko\u017ale",
                "addr:street": "Piastowska",
                "addr:housenumber": "30",
                "addr:city:simc": 965424,
                "addr:street:sym_ul": 16046,
                "phone": "+48 774061600",
                "email": "psp12@kedzierzynkozle.pl",
                "website": "https:\/\/psp12.kedzierzyn-kozle.edu.pl\/",
                "ref:regon": "000698733",
                "ref:vatin": "PL7491634366",
                "operator": "Gmina K\u0119dzierzyn-Ko\u017ale",
                "operator:type": "government",
                "amenity": "school"
            }
        },
        {
            "id": 31219,
            "type": "Feature",
            "geometry": {
                "type": "Point",
                "coordinates": [
                    18.20063,
                    50.33954
                ]
            },
            "properties": {
                "ref:rspo": 31219,
                "official_name": "Publiczne Przedszkole nr 6",
                "name": "Publiczne Przedszkole nr 6",
                "addr:postcode": "47-224",
                "addr:city": "K\u0119dzierzyn-Ko\u017ale",
                "addr:street": "Tadeusza Ko\u015bciuszki",
                "addr:housenumber": "21",
                "addr:city:simc": 965424,
                "addr:street:sym_ul": 9582,
                "phone": "+48 774832325",
                "email": "pp6@kedzierzynkozle.pl",
                "ref:regon": "530559990",
                "ref:vatin": "PL7491016881",
                "operator": "Gmina K\u0119dzierzyn-Ko\u017ale",
                "operator:type": "government",
                "amenity": "kindergarten"
            }
        },
        {
            "id": 273444,
            "type": "Feature",
            "geometry": {
                "type": "Point",
                "coordinates": [
                    18.21833,
                    50.34136
                ]
            },
            "properties": {
                "isced:level": "4",
                "ref:rspo": 273444,
                "official_name": "Policealna Szko\u0142a Medus z Siedzib\u0105 w K\u0119dzierzynie-Ko\u017alu",
                "name": "Policealna Szko\u0142a Medus z Siedzib\u0105 w K\u0119dzierzynie-Ko\u017alu",
                "addr:postcode": "47-220",
                "addr:city": "K\u0119dzierzyn-Ko\u017ale",
                "addr:street": "Paw\u0142a Stalmacha",
                "addr:housenumber": "20",
                "addr:city:simc": 965424,
                "addr:street:sym_ul": 20807,
                "phone": "+48 323071333",
                "email": "for3szkola@gmail.com",
                "ref:regon": "384470403",
                "operator": "For3 Sp\u00f3\u0142ka Z Ograniczon\u0105 Odpowiedzialno\u015bci\u0105",
                "operator:type": "private",
                "amenity": "college"
            }
        },
        {
            "id": 26970,
            "type": "Feature",
            "geometry": {
                "type": "Point",
                "coordinates": [
                    18.19925,
                    50.34155
                ]
            },
            "properties": {
                "ref:rspo": 26970,
                "official_name": "Katolickie Przedszkole Niepubliczne \"Ochronka\" im.b\u0142.e.bojanowskiego",
                "name": "Katolickie Przedszkole Niepubliczne \"Ochronka\" im.b\u0142.e.bojanowskiego",
                "addr:postcode": "47-224",
                "addr:city": "K\u0119dzierzyn-Ko\u017ale",
                "addr:street": "Kozielska",
                "addr:housenumber": "29",
                "addr:city:simc": 965424,
                "addr:street:sym_ul": 9714,
                "phone": "+48 774829570",
                "email": "ochronkakedzierzyn@gmail.com",
                "ref:regon": "161486733",
                "ref:vatin": "PL7492054524",
                "operator": "Zgromadzenie Si\u00f3str S\u0142u\u017cebniczek Naj\u015bwi\u0119tszej Maryi Panny Niepokalanie Pocz\u0119tej, Prowincja Opolska",
                "operator:type": "religious",
                "amenity": "kindergarten"
            }
        },
        {
            "id": 7742,
            "type": "Feature",
            "geometry": {
                "type": "Point",
                "coordinates": [
                    18.13235,
                    50.34209
                ]
            },
            "properties": {
                "isced:level": "1;2",
                "ref:rspo": 7742,
                "official_name": "Publiczna Szko\u0142a Podstawowa nr 20 w K\u0119dzierzynie-Ko\u017alu",
                "name": "Publiczna Szko\u0142a Podstawowa nr 20 w K\u0119dzierzynie-Ko\u017alu",
                "addr:postcode": "47-200",
                "addr:city": "K\u0119dzierzyn-Ko\u017ale",
                "addr:street": "Archimedesa",
                "addr:housenumber": "25",
                "addr:city:simc": 965424,
                "addr:street:sym_ul": 387,
                "phone": "+48 774824949",
                "email": "psp20@kedzierzynkozle.pl",
                "website": "http:\/\/www.psp20kedzierzynkozle.edupage.org",
                "ref:regon": "530531164",
                "ref:vatin": "PL7491634343",
                "operator": "Gmina K\u0119dzierzyn-Ko\u017ale",
                "operator:type": "government",
                "amenity": "school"
            }
        },
        {
            "id": 23860,
            "type": "Feature",
            "geometry": {
                "type": "Point",
                "coordinates": [
                    18.21142,
                    50.34276
                ]
            },
            "properties": {
                "isced:level": "3",
                "ref:rspo": 23860,
                "official_name": "Ii Liceum Og\u00f3lnokszta\u0142c\u0105ce im. Miko\u0142aja Kopernika",
                "name": "Ii Liceum Og\u00f3lnokszta\u0142c\u0105ce",
                "addr:postcode": "47-220",
                "addr:city": "K\u0119dzierzyn-Ko\u017ale",
                "addr:street": "Jana Matejki",
                "addr:housenumber": "19",
                "addr:city:simc": 965424,
                "addr:street:sym_ul": 12489,
                "phone": "+48 774832162",
                "email": "arci8@wp.pl",
                "website": "http:\/\/www.lo2kk.edu.pl",
                "ref:regon": "532397899",
                "ref:vatin": "PL7491595229",
                "operator": "Powiat K\u0119dzierzy\u0144sko-Kozielski",
                "operator:type": "government",
                "amenity": "school"
            }
        },
        {
            "id": 23057,
            "type": "Feature",
            "geometry": {
                "type": "Point",
                "coordinates": [
                    18.22036,
                    50.34283
                ]
            },
            "properties": {
                "ref:rspo": 23057,
                "official_name": "Przedszkole Publiczne nr 8",
                "name": "Przedszkole Publiczne nr 8",
                "addr:postcode": "47-220",
                "addr:city": "K\u0119dzierzyn-Ko\u017ale",
                "addr:street": "Romana Dmowskiego",
                "addr:housenumber": "5",
                "addr:city:simc": 965424,
                "addr:street:sym_ul": 3868,
                "phone": "+48 774832174",
                "email": "pp8@kedzierzynkozle.pl",
                "website": "http:\/\/www.pp8teczowe.szkolnastrona.pl",
                "ref:regon": "530560013",
                "ref:vatin": "PL7491517703",
                "operator": "Gmina K\u0119dzierzyn-Ko\u017ale",
                "operator:type": "government",
                "amenity": "kindergarten"
            }
        },
        {
            "id": 22991,
            "type": "Feature",
            "geometry": {
                "type": "Point",
                "coordinates": [
                    18.20351,
                    50.34285
                ]
            },
            "properties": {
                "ref:rspo": 22991,
                "official_name": "Publiczne Przedszkole nr 2 w K\u0119dzierzynie-Ko\u017alu",
                "name": "Publiczne Przedszkole nr 2 w K\u0119dzierzynie-Ko\u017alu",
                "addr:postcode": "47-224",
                "addr:city": "K\u0119dzierzyn-Ko\u017ale",
                "addr:street": "Kozielska",
                "addr:housenumber": "3",
                "addr:city:simc": 965424,
                "addr:street:sym_ul": 9714,
                "phone": "+48 774723084",
                "email": "pp2@kedzierzynkozle.pl",
                "website": "http:\/\/www.przedszkole2.kedzierzyn-kozle.edu.pl",
                "ref:regon": "530559955",
                "ref:vatin": "PL7491016869",
                "operator": "Gmina K\u0119dzierzyn-Ko\u017ale",
                "operator:type": "government",
                "amenity": "kindergarten"
            }
        },
        {
            "id": 21279,
            "type": "Feature",
            "geometry": {
                "type": "Point",
                "coordinates": [
                    18.22431,
                    50.34444
                ]
            },
            "properties": {
                "isced:level": "1;2",
                "ref:rspo": 21279,
                "official_name": "Publiczna Szko\u0142a Podstawowa nr 9 im. Jurija Gagarina w K\u0119dzierzynie-Ko\u017alu",
                "name": "Publiczna Szko\u0142a Podstawowa nr 9",
                "addr:postcode": "47-220",
                "addr:city": "K\u0119dzierzyn-Ko\u017ale",
                "addr:street": "Jurija Gagarina",
                "addr:housenumber": "3",
                "addr:city:simc": 965424,
                "addr:street:sym_ul": 5239,
                "phone": "+48 774833034",
                "email": "psp9@kedzierzynkozle.pl",
                "website": "http:\/\/www.psp9.kursor.pl",
                "ref:regon": "000698302",
                "ref:vatin": "PL7491634432",
                "operator": "Gmina K\u0119dzierzyn-Ko\u017ale",
                "operator:type": "government",
                "amenity": "school"
            }
        },
        {
            "id": 23012,
            "type": "Feature",
            "geometry": {
                "type": "Point",
                "coordinates": [
                    18.21611,
                    50.34464
                ]
            },
            "properties": {
                "ref:rspo": 23012,
                "official_name": "Publiczne Przedszkole nr 5",
                "name": "Publiczne Przedszkole nr 5",
                "addr:postcode": "47-220",
                "addr:city": "K\u0119dzierzyn-Ko\u017ale",
                "addr:street": "1 Maja",
                "addr:housenumber": "5",
                "addr:city:simc": 965424,
                "addr:street:sym_ul": 11926,
                "phone": "+48 774832244",
                "email": "pp5@kedzierzynkozle.pl",
                "ref:regon": "530559984",
                "ref:vatin": "PL7491064070",
                "operator": "Gmina K\u0119dzierzyn-Ko\u017ale",
                "operator:type": "government",
                "amenity": "kindergarten"
            }
        },
        {
            "id": 21223,
            "type": "Feature",
            "geometry": {
                "type": "Point",
                "coordinates": [
                    18.21591,
                    50.34521
                ]
            },
            "properties": {
                "isced:level": "1;2",
                "ref:rspo": 21223,
                "official_name": "Publiczna Szko\u0142a Podstawowa nr 6 im. Marii Sk\u0142odowskiej-Curie w K\u0119dzierzynie-Ko\u017ale",
                "name": "Publiczna Szko\u0142a Podstawowa nr 6",
                "addr:postcode": "47-220",
                "addr:city": "K\u0119dzierzyn-Ko\u017ale",
                "addr:street": "1 Maja",
                "addr:housenumber": "3",
                "addr:city:simc": 965424,
                "addr:street:sym_ul": 11926,
                "phone": "+48 774835632",
                "email": "psp6@kedzierzynkozle.pl",
                "website": "http:\/\/www.psp6kk.szkolna.net",
                "ref:regon": "000698271",
                "ref:vatin": "PL7491634426",
                "operator": "Gmina K\u0119dzierzyn-Ko\u017ale",
                "operator:type": "government",
                "amenity": "school"
            }
        },
        {
            "id": 64957,
            "type": "Feature",
            "geometry": {
                "type": "Point",
                "coordinates": [
                    18.20978,
                    50.34525
                ]
            },
            "properties": {
                "ref:rspo": 64957,
                "official_name": "Szko\u0142a Espero Magdalena Szyku\u0142a",
                "name": "Szko\u0142a Espero Magdalena Szyku\u0142a",
                "addr:postcode": "47-220",
                "addr:city": "K\u0119dzierzyn-Ko\u017ale",
                "addr:street": "Aleja Jana Paw\u0142a II",
                "addr:housenumber": "17",
                "addr:door": "1",
                "addr:city:simc": 965424,
                "addr:street:sym_ul": 33262,
                "phone": "+48 774838325",
                "email": "biuro@szkola-espero.pl",
                "ref:regon": "161490255",
                "operator": "Magdalena Szyku\u0142a",
                "operator:type": "private",
                "fixme": "w zale\u017cno\u015bci od przedmiotu dzia\u0142alno\u015bci (np. amenity=training + training=*, amenity=dancing_school, amenity=language_school, amenity=music_school)"
            }
        },
        {
            "id": 130537,
            "type": "Feature",
            "geometry": {
                "type": "Point",
                "coordinates": [
                    18.20978,
                    50.34522
                ]
            },
            "properties": {
                "ref:rspo": 130537,
                "official_name": "Niepubliczny J\u0119zykowo-Naukowy Punkt Przedszkolny Espero",
                "name": "Niepubliczny J\u0119zykowo-Naukowy Punkt Przedszkolny Espero",
                "addr:postcode": "47-220",
                "addr:city": "K\u0119dzierzyn-Ko\u017ale",
                "addr:street": "Aleja Jana Paw\u0142a II",
                "addr:housenumber": "17",
                "addr:door": "1",
                "addr:city:simc": 965424,
                "addr:street:sym_ul": 33262,
                "phone": "+48 774838325",
                "email": "biuro@szkola-espero.pl",
                "website": "http:\/\/www.przedszkole-espero.pl",
                "ref:regon": "364164120",
                "ref:vatin": "PL7492077442",
                "operator": "Magdalena Szyku\u0142a",
                "operator:type": "private",
                "amenity": "kindergarten"
            }
        },
        {
            "id": 29446,
            "type": "Feature",
            "geometry": {
                "type": "Point",
                "coordinates": [
                    18.21398,
                    50.34563
                ]
            },
            "properties": {
                "ref:rspo": 29446,
                "official_name": "Przedszkole Publiczne nr 22 w K\u0119dzierzynie-Ko\u017alu",
                "name": "Przedszkole Publiczne nr 22 w K\u0119dzierzynie-Ko\u017alu",
                "addr:postcode": "47-220",
                "addr:city": "K\u0119dzierzyn-Ko\u017ale",
                "addr:street": "9 Maja",
                "addr:housenumber": "4",
                "addr:city:simc": 965424,
                "addr:street:sym_ul": 11941,
                "phone": "+48 774723108",
                "email": "pp22@kedzierzynkozle.pl",
                "website": "http:\/\/www.przedszkolenr22.pl",
                "ref:regon": "530560148",
                "ref:vatin": "PL7491016875",
                "operator": "Gmina K\u0119dzierzyn-Ko\u017ale",
                "operator:type": "government",
                "amenity": "kindergarten"
            }
        },
        {
            "id": 61529,
            "type": "Feature",
            "geometry": {
                "type": "Point",
                "coordinates": [
                    18.20605,
                    50.34588
                ]
            },
            "properties": {
                "ref:rspo": 61529,
                "official_name": "O\u015brodek Szkoleniowy Centrum Nauki I Biznesu \"\u017bak\" w K\u0119dzierzynie-Ko\u017alu",
                "name": "O\u015brodek Szkoleniowy Centrum Nauki I Biznesu \"\u017bak\" w K\u0119dzierzynie-Ko\u017alu",
                "addr:postcode": "47-220",
                "addr:city": "K\u0119dzierzyn-Ko\u017ale",
                "addr:street": "Grunwaldzka",
                "addr:housenumber": "11",
                "addr:city:simc": 965424,
                "addr:street:sym_ul": 6260,
                "phone": "+48 774821530",
                "ref:regon": "161491993",
                "operator": "Centrum Nauki I Biznesu \"\u017bak\" Sp\u00f3\u0142ka Z Ograniczon\u0105 Odpowiedzialno\u015bci\u0105",
                "operator:type": "private",
                "fixme": "w zale\u017cno\u015bci od przedmiotu dzia\u0142alno\u015bci (np. amenity=training + training=*, amenity=dancing_school, amenity=language_school, amenity=music_school)"
            }
        },
        {
            "id": 127268,
            "type": "Feature",
            "geometry": {
                "type": "Point",
                "coordinates": [
                    18.20605,
                    50.34585
                ]
            },
            "properties": {
                "isced:level": "4",
                "ref:rspo": 127268,
                "official_name": "Szko\u0142a Policealna Opieki Medycznej \"\u017bak\" w K\u0119dzierzynie-Ko\u017alu",
                "name": "Szko\u0142a Policealna Opieki Medycznej \"\u017bak\" w K\u0119dzierzynie-Ko\u017alu",
                "addr:postcode": "47-220",
                "addr:city": "K\u0119dzierzyn-Ko\u017ale",
                "addr:street": "Grunwaldzka",
                "addr:housenumber": "11",
                "addr:city:simc": 965424,
                "addr:street:sym_ul": 6260,
                "phone": "+48 426770707",
                "ref:regon": "361288837",
                "operator": "Centrum Nauki I Biznesu \"\u017bak\" Sp\u00f3\u0142ka Z Ograniczon\u0105 Odpowiedzialno\u015bci\u0105",
                "operator:type": "private",
                "amenity": "college"
            }
        },
        {
            "id": 127977,
            "type": "Feature",
            "geometry": {
                "type": "Point",
                "coordinates": [
                    18.20605,
                    50.34582
                ]
            },
            "properties": {
                "isced:level": "3",
                "ref:rspo": 127977,
                "official_name": "Liceum Og\u00f3lnokszta\u0142c\u0105ce dla Doros\u0142ych \"\u017bak\" w K\u0119dzierzynie-Ko\u017alu",
                "name": "Liceum Og\u00f3lnokszta\u0142c\u0105ce dla Doros\u0142ych \"\u017bak\" w K\u0119dzierzynie-Ko\u017alu",
                "addr:postcode": "47-220",
                "addr:city": "K\u0119dzierzyn-Ko\u017ale",
                "addr:street": "Grunwaldzka",
                "addr:housenumber": "11",
                "addr:city:simc": 965424,
                "addr:street:sym_ul": 6260,
                "phone": "+48 774821530",
                "email": "kedzierzynkozle@zak.edu.pl",
                "website": "http:\/\/www.zak.edu.pl",
                "ref:regon": "362005215",
                "operator": "Centrum Nauki I Biznesu \"\u017bak\" Sp\u00f3\u0142ka Z Ograniczon\u0105 Odpowiedzialno\u015bci\u0105",
                "operator:type": "private",
                "amenity": "school"
            }
        },
        {
            "id": 127979,
            "type": "Feature",
            "geometry": {
                "type": "Point",
                "coordinates": [
                    18.20605,
                    50.34579
                ]
            },
            "properties": {
                "isced:level": "4",
                "ref:rspo": 127979,
                "official_name": "Szko\u0142a Policealna Aktywizacji Zawodowej \"\u017bak\" w K\u0119dzierzynie-Ko\u017alu",
                "name": "Szko\u0142a Policealna Aktywizacji Zawodowej \"\u017bak\" w K\u0119dzierzynie-Ko\u017alu",
                "addr:postcode": "47-220",
                "addr:city": "K\u0119dzierzyn-Ko\u017ale",
                "addr:street": "Grunwaldzka",
                "addr:housenumber": "11",
                "addr:city:simc": 965424,
                "addr:street:sym_ul": 6260,
                "phone": "+48 774821530",
                "email": "kedzierzynkozle@zak.edu.pl",
                "website": "http:\/\/www.zak.edu.pl",
                "ref:regon": "362005793",
                "operator": "Centrum Nauki I Biznesu \"\u017bak\" Sp\u00f3\u0142ka Z Ograniczon\u0105 Odpowiedzialno\u015bci\u0105",
                "operator:type": "private",
                "amenity": "college"
            }
        },
        {
            "id": 23061,
            "type": "Feature",
            "geometry": {
                "type": "Point",
                "coordinates": [
                    18.22416,
                    50.34605
                ]
            },
            "properties": {
                "ref:rspo": 23061,
                "official_name": "Publiczne Przedszkole nr 9",
                "name": "Publiczne Przedszkole nr 9",
                "addr:postcode": "47-220",
                "addr:city": "K\u0119dzierzyn-Ko\u017ale",
                "addr:street": "Harcerska",
                "addr:housenumber": "16",
                "addr:city:simc": 965424,
                "addr:street:sym_ul": 6523,
                "phone": "+48 774834141",
                "email": "pp9@kedzierzynkozle.pl",
                "website": "http:\/\/www.pp9kedzierzyn.szkolnastrona.pl",
                "ref:regon": "530560020",
                "ref:vatin": "PL7491094036",
                "operator": "Gmina K\u0119dzierzyn-Ko\u017ale",
                "operator:type": "government",
                "amenity": "kindergarten"
            }
        },
        {
            "id": 60973,
            "type": "Feature",
            "geometry": {
                "type": "Point",
                "coordinates": [
                    18.20711,
                    50.3467399
                ]
            },
            "properties": {
                "ref:rspo": 60973,
                "official_name": "O\u015brodek Doskonalenia Kadr Notitia w K\u0119dzierzynie-Ko\u017alu",
                "name": "O\u015brodek Doskonalenia Kadr Notitia w K\u0119dzierzynie-Ko\u017alu",
                "addr:postcode": "47-220",
                "addr:city": "K\u0119dzierzyn-Ko\u017ale",
                "addr:street": "Grunwaldzka",
                "addr:housenumber": "27",
                "addr:city:simc": 965424,
                "addr:street:sym_ul": 6260,
                "phone": "+48 774834053",
                "email": "eko-aura@wp.pl",
                "ref:regon": "161490798",
                "operator": "Fundacja Dla Dobra Publicznego",
                "operator:type": "ngo",
                "fixme": "w zale\u017cno\u015bci od przedmiotu dzia\u0142alno\u015bci (np. amenity=training + training=*, amenity=dancing_school, amenity=language_school, amenity=music_school)"
            }
        },
        {
            "id": 34683,
            "type": "Feature",
            "geometry": {
                "type": "Point",
                "coordinates": [
                    18.1713999,
                    50.34704
                ]
            },
            "properties": {
                "ref:rspo": 34683,
                "official_name": "Zesp\u00f3\u0142 Szk\u00f3\u0142 Specjalnych im. Jana Brzechwy w K\u0119dzierzynie-Ko\u017alu",
                "name": "Zesp\u00f3\u0142 Szk\u00f3\u0142 Specjalnych",
                "addr:postcode": "47-206",
                "addr:city": "K\u0119dzierzyn-Ko\u017ale",
                "addr:street": "Ignacego Krasickiego",
                "addr:housenumber": "10",
                "addr:city:simc": 965424,
                "addr:street:sym_ul": 9830,
                "phone": "+48 774823564",
                "email": "zss.kkozle@op.pl",
                "website": "http:\/\/www.szkolabrzechwy.pl",
                "ref:regon": "000703859",
                "ref:vatin": "PL7491913043",
                "operator": "Powiat K\u0119dzierzy\u0144sko-Kozielski",
                "operator:type": "government",
                "landuse": "education",
                "fixme": "amenity=school, amenity=college albo landuse=education w zale\u017cno\u015bci od tego, jakie plac\u00f3wki wchodz\u0105 w sk\u0142ad zespo\u0142u. Sprawd\u017a, kiedy stosowa\u0107 amenity=* a kiedy landuse=education.",
                "note": "Children RSPO: 47114;51259;118837"
            }
        },
        {
            "id": 47114,
            "type": "Feature",
            "geometry": {
                "type": "Point",
                "coordinates": [
                    18.1713999,
                    50.34701
                ]
            },
            "properties": {
                "isced:level": "1;2",
                "ref:rspo": 47114,
                "official_name": "Szko\u0142a Podstawowa Specjalna",
                "name": "Szko\u0142a Podstawowa Specjalna",
                "addr:postcode": "47-206",
                "addr:city": "K\u0119dzierzyn-Ko\u017ale",
                "addr:street": "Ignacego Krasickiego",
                "addr:housenumber": "10",
                "addr:city:simc": 965424,
                "addr:street:sym_ul": 9830,
                "phone": "+48 774823564",
                "email": "zss.kkozle@op.pl",
                "website": "http:\/\/www.szkolabrzechwy.pl",
                "ref:regon": "532218307",
                "operator": "Powiat K\u0119dzierzy\u0144sko-Kozielski",
                "operator:type": "government",
                "amenity": "school",
                "note": "Parent RSPO: 34683"
            }
        },
        {
            "id": 51259,
            "type": "Feature",
            "geometry": {
                "type": "Point",
                "coordinates": [
                    18.1713999,
                    50.34698
                ]
            },
            "properties": {
                "ref:rspo": 51259,
                "official_name": "Szko\u0142a Specjalna Przysposabiajaca do Pracy",
                "name": "Szko\u0142a Specjalna Przysposabiajaca do Pracy",
                "addr:postcode": "47-206",
                "addr:city": "K\u0119dzierzyn-Ko\u017ale",
                "addr:street": "Ignacego Krasickiego",
                "addr:housenumber": "10",
                "addr:city:simc": 965424,
                "addr:street:sym_ul": 9830,
                "phone": "+48 774823564",
                "email": "zss.kkozle@op.pl",
                "website": "http:\/\/szkolabrzechwy.pl",
                "ref:regon": "160335831",
                "operator": "Powiat K\u0119dzierzy\u0144sko-Kozielski",
                "operator:type": "government",
                "amenity": "school",
                "note": "Parent RSPO: 34683"
            }
        },
        {
            "id": 118837,
            "type": "Feature",
            "geometry": {
                "type": "Point",
                "coordinates": [
                    18.1713999,
                    50.34695
                ]
            },
            "properties": {
                "isced:level": "3",
                "ref:rspo": 118837,
                "official_name": "Bran\u017cowa Szko\u0142a I Stopnia Specjalna",
                "name": "Bran\u017cowa Szko\u0142a I Stopnia Specjalna",
                "addr:postcode": "47-206",
                "addr:city": "K\u0119dzierzyn-Ko\u017ale",
                "addr:street": "Ignacego Krasickiego",
                "addr:housenumber": "10",
                "addr:city:simc": 965424,
                "addr:street:sym_ul": 9830,
                "phone": "+48 774823564",
                "email": "zss.kkozle@op.pl",
                "website": "http:\/\/szkolabrzechwy.pl",
                "ref:regon": "161546352",
                "operator": "Powiat K\u0119dzierzy\u0144sko-Kozielski",
                "operator:type": "government",
                "amenity": "school",
                "note": "Parent RSPO: 34683"
            }
        },
        {
            "id": 20910,
            "type": "Feature",
            "geometry": {
                "type": "Point",
                "coordinates": [
                    18.20996,
                    50.34716
                ]
            },
            "properties": {
                "isced:level": "1;2",
                "ref:rspo": 20910,
                "official_name": "Szko\u0142a Podstawowa nr 1 im.powsta\u0144c\u00f3w \u015aL\u0105skich w K\u0119dzierzynie-Ko\u017alu",
                "name": "Szko\u0142a Podstawowa nr 1 im.powsta\u0144c\u00f3w \u015aL\u0105skich w K\u0119dzierzynie-Ko\u017alu",
                "addr:postcode": "47-220",
                "addr:city": "K\u0119dzierzyn-Ko\u017ale",
                "addr:street": "Ko\u015bcielna",
                "addr:housenumber": "19",
                "addr:city:simc": 965424,
                "addr:street:sym_ul": 9546,
                "phone": "+48 774834185",
                "email": "psp1@kedzierzynkozle.pl",
                "website": "http:\/\/www.psp1.edu.pl",
                "ref:regon": "000698236",
                "ref:vatin": "PL7491634395",
                "operator": "Gmina K\u0119dzierzyn-Ko\u017ale",
                "operator:type": "government",
                "amenity": "school"
            }
        },
        {
            "id": 70957,
            "type": "Feature",
            "geometry": {
                "type": "Point",
                "coordinates": [
                    18.23309,
                    50.34838
                ]
            },
            "properties": {
                "isced:level": "3",
                "ref:rspo": 70957,
                "official_name": "Publiczna Bran\u017cowa Szko\u0142a I Stopnia Specjalna Wzdz w Opolu z Siedzib\u0105 w K\u0119dzierzynie-Ko\u017alu",
                "name": "Publiczna Bran\u017cowa Szko\u0142a I Stopnia Specjalna Wzdz w Opolu z Siedzib\u0105 w K\u0119dzierzynie-Ko\u017alu",
                "addr:postcode": "47-232",
                "addr:city": "K\u0119dzierzyn-Ko\u017ale",
                "addr:street": "Kazimierza Wielkiego",
                "addr:housenumber": "17",
                "addr:city:simc": 965424,
                "addr:street:sym_ul": 8265,
                "phone": "+48 774816503",
                "email": "sekretariat@wzdz.edu.pl",
                "ref:regon": "161491289",
                "operator": "Wojew\u00f3dzki Zak\u0142ad Doskonalenia Zawodowego",
                "operator:type": "ngo",
                "amenity": "school"
            }
        },
        {
            "id": 83056,
            "type": "Feature",
            "geometry": {
                "type": "Point",
                "coordinates": [
                    18.23309,
                    50.348349999999996
                ]
            },
            "properties": {
                "isced:level": "3",
                "ref:rspo": 83056,
                "official_name": "Liceum Og\u00f3lnokszta\u0142c\u0105ce Wzdz w Opolu z Siedzib\u0105 w K\u0119dzierzynie-Ko\u017alu",
                "name": "Liceum Og\u00f3lnokszta\u0142c\u0105ce Wzdz w Opolu z Siedzib\u0105 w K\u0119dzierzynie-Ko\u017alu",
                "addr:postcode": "47-232",
                "addr:city": "K\u0119dzierzyn-Ko\u017ale",
                "addr:street": "Kazimierza Wielkiego",
                "addr:housenumber": "17",
                "addr:city:simc": 965424,
                "addr:street:sym_ul": 8265,
                "phone": "+48 774816503",
                "email": "sekretariat@wzdz.edu.pl",
                "website": "http:\/\/www.wzdz.edu.pl",
                "ref:regon": "161494359",
                "operator": "Wojew\u00f3dzki Zak\u0142ad Doskonalenia Zawodowego",
                "operator:type": "ngo",
                "amenity": "school"
            }
        },
        {
            "id": 29547,
            "type": "Feature",
            "geometry": {
                "type": "Point",
                "coordinates": [
                    18.22985,
                    50.34885
                ]
            },
            "properties": {
                "ref:rspo": 29547,
                "official_name": "Przedszkole Publiczne nr 24",
                "name": "Przedszkole Publiczne nr 24",
                "addr:postcode": "47-232",
                "addr:city": "K\u0119dzierzyn-Ko\u017ale",
                "addr:street": "Leszka Bia\u0142ego",
                "addr:housenumber": "7",
                "addr:city:simc": 965424,
                "addr:street:sym_ul": 10883,
                "phone": "+48 774835323",
                "email": "pp24@kedzierzynkozle.pl",
                "website": "http:\/\/www.przedszkole24.org",
                "ref:regon": "530560160",
                "ref:vatin": "PL7491517732",
                "operator": "Gmina K\u0119dzierzyn-Ko\u017ale",
                "operator:type": "government",
                "amenity": "kindergarten"
            }
        },
        {
            "id": 59719,
            "type": "Feature",
            "geometry": {
                "type": "Point",
                "coordinates": [
                    18.23761,
                    50.3492
                ]
            },
            "properties": {
                "ref:rspo": 59719,
                "official_name": "Szko\u0142a J\u0119zyk\u00f3w Obcych Lang",
                "name": "Szko\u0142a J\u0119zyk\u00f3w Obcych Lang",
                "addr:postcode": "47-232",
                "addr:city": "K\u0119dzierzyn-Ko\u017ale",
                "addr:street": "Boles\u0142awa \u015amia\u0142ego",
                "addr:housenumber": "4",
                "addr:city:simc": 965424,
                "addr:street:sym_ul": 1755,
                "phone": "+48 774838297",
                "email": "lang@lang.pl",
                "website": "http:\/\/www.lang.pl",
                "ref:regon": "161493377",
                "ref:vatin": "PL7490005533",
                "operator": "Barbara Turza\u0144ska-Garde\u0142a",
                "operator:type": "private",
                "fixme": "w zale\u017cno\u015bci od przedmiotu dzia\u0142alno\u015bci (np. amenity=training + training=*, amenity=dancing_school, amenity=language_school, amenity=music_school)"
            }
        },
        {
            "id": 29586,
            "type": "Feature",
            "geometry": {
                "type": "Point",
                "coordinates": [
                    18.23613,
                    50.34928
                ]
            },
            "properties": {
                "ref:rspo": 29586,
                "official_name": "Przedszkole Publiczne nr 26",
                "name": "Przedszkole Publiczne nr 26",
                "addr:postcode": "47-232",
                "addr:city": "K\u0119dzierzyn-Ko\u017ale",
                "addr:street": "Boles\u0142awa \u015amia\u0142ego",
                "addr:housenumber": "5",
                "addr:city:simc": 965424,
                "addr:street:sym_ul": 1755,
                "phone": "+48 774834023",
                "email": "pp26@kedzierzynkozle.pl",
                "website": "http:\/\/www.przedszkole26.org",
                "ref:regon": "530560183",
                "ref:vatin": "PL7491517749",
                "operator": "Gmina K\u0119dzierzyn-Ko\u017ale",
                "operator:type": "government",
                "amenity": "kindergarten"
            }
        },
        {
            "id": 50394,
            "type": "Feature",
            "geometry": {
                "type": "Point",
                "coordinates": [
                    18.12149,
                    50.34967
                ]
            },
            "properties": {
                "ref:rspo": 50394,
                "official_name": "Publiczne Przedszkole z Nauczaniem J\u0119zyka Mniejszo\u015bci Narodowej - J\u0119zyka Niemieckiego w K\u0119dzierzynie-Ko\u017alu",
                "name": "Publiczne Przedszkole z Nauczaniem J\u0119zyka Mniejszo\u015bci Narodowej - J\u0119zyka Niemieckiego w K\u0119dzierzynie-Ko\u017alu",
                "addr:postcode": "47-200",
                "addr:city": "K\u0119dzierzyn-Ko\u017ale",
                "addr:street": "Majora Henryka Sucharskiego",
                "addr:housenumber": "52",
                "addr:city:simc": 965424,
                "addr:street:sym_ul": 21499,
                "phone": "+48 774821571",
                "email": "szkolapzpskk@wp.pl",
                "website": "http:\/\/www.pzpskk.pl",
                "ref:regon": "161489370",
                "operator": "Stowarzyszenie O\u015bwiatowe Ko\u017ale Rogi - Bildungsgesellschaft Cosel Rogau",
                "operator:type": "ngo",
                "amenity": "kindergarten",
                "note": "Parent RSPO: 25239"
            }
        },
        {
            "id": 42163,
            "type": "Feature",
            "geometry": {
                "type": "Point",
                "coordinates": [
                    18.16303,
                    50.3499
                ]
            },
            "properties": {
                "isced:level": "1;2",
                "ref:rspo": 42163,
                "official_name": "Publiczna Szko\u0142a Podstawowa nr 15 im.jana Kochanowskiego w K\u0119dzierzynie-Ko\u017alu",
                "name": "Publiczna Szko\u0142a Podstawowa nr 15 im.jana Kochanowskiego w K\u0119dzierzynie-Ko\u017alu",
                "addr:postcode": "47-206",
                "addr:city": "K\u0119dzierzyn-Ko\u017ale",
                "addr:street": "Karola Szymanowskiego",
                "addr:housenumber": "19",
                "addr:city:simc": 965424,
                "addr:street:sym_ul": 22238,
                "phone": "+48 774823672",
                "email": "psp15@kedzierzynkozle.pl",
                "website": "http:\/\/www.zsm2kkozle.pl",
                "ref:regon": "000698762",
                "ref:vatin": "PL7491983440",
                "operator": "Gmina K\u0119dzierzyn-Ko\u017ale",
                "operator:type": "government",
                "amenity": "school"
            }
        },
        {
            "id": 43548,
            "type": "Feature",
            "geometry": {
                "type": "Point",
                "coordinates": [
                    18.23394,
                    50.35031
                ]
            },
            "properties": {
                "isced:level": "1;2",
                "ref:rspo": 43548,
                "official_name": "Publiczna Szko\u0142a Podstawowa nr 19 im.bronis\u0142awa Malinowskiego w K\u0119dzierzynie-Ko\u017alu",
                "name": "Publiczna Szko\u0142a Podstawowa nr 19 im.bronis\u0142awa Malinowskiego w K\u0119dzierzynie-Ko\u017alu",
                "addr:postcode": "47-232",
                "addr:city": "K\u0119dzierzyn-Ko\u017ale",
                "addr:street": "Mieszka I",
                "addr:housenumber": "4",
                "addr:city:simc": 965424,
                "addr:street:sym_ul": 12832,
                "phone": "+48 774833231",
                "email": "psp19@kedzierzynkozle.pl",
                "website": "http:\/\/www.psp19kk.pl",
                "ref:regon": "004530255",
                "ref:vatin": "PL7491983434",
                "operator": "Gmina K\u0119dzierzyn-Ko\u017ale",
                "operator:type": "government",
                "amenity": "school"
            }
        },
        {
            "id": 27002,
            "type": "Feature",
            "geometry": {
                "type": "Point",
                "coordinates": [
                    18.15977,
                    50.35033
                ]
            },
            "properties": {
                "ref:rspo": 27002,
                "official_name": "Przedszkole nr 17 w K\u0119dzierzynie-Ko\u017alu",
                "name": "Przedszkole nr 17 w K\u0119dzierzynie-Ko\u017alu",
                "addr:postcode": "47-206",
                "addr:city": "K\u0119dzierzyn-Ko\u017ale",
                "addr:street": "Karola Szymanowskiego",
                "addr:housenumber": "29",
                "addr:city:simc": 965424,
                "addr:street:sym_ul": 22238,
                "phone": "+48 774823518",
                "email": "pp17@kedzierzynkozle.pl",
                "website": "http:\/\/www.przedszkole17kk.pl",
                "ref:regon": "530560102",
                "ref:vatin": "PL7491147229",
                "operator": "Gmina K\u0119dzierzyn-Ko\u017ale",
                "operator:type": "government",
                "amenity": "kindergarten"
            }
        },
        {
            "id": 262719,
            "type": "Feature",
            "geometry": {
                "type": "Point",
                "coordinates": [
                    18.26709,
                    50.35344
                ]
            },
            "properties": {
                "ref:rspo": 262719,
                "official_name": "Specjalny Punkt Przedszkolny \"U\u015bmiech Dziecka\"",
                "name": "Specjalny Punkt Przedszkolny \"U\u015bmiech Dziecka\"",
                "addr:postcode": "47-225",
                "addr:city": "K\u0119dzierzyn-Ko\u017ale",
                "addr:street": "Szkolna",
                "addr:housenumber": "17",
                "addr:city:simc": 965424,
                "addr:street:sym_ul": 21970,
                "phone": "+48 691050395",
                "email": "usmiech.dziecka1@wp.pl",
                "ref:regon": "368052500",
                "operator": "Stowarzyszenie Na Rzecz Dzieci I M\u0142odzie\u017cy \"Chcie\u0107 Wi\u0119cej\"",
                "operator:type": "ngo",
                "amenity": "kindergarten"
            }
        },
        {
            "id": 23097,
            "type": "Feature",
            "geometry": {
                "type": "Point",
                "coordinates": [
                    18.25463,
                    50.3536
                ]
            },
            "properties": {
                "ref:rspo": 23097,
                "official_name": "Przedszkole Publiczne nr 10 w K\u0119dzierzynie-Ko\u017alu",
                "name": "Przedszkole Publiczne nr 10 w K\u0119dzierzynie-Ko\u017alu",
                "addr:postcode": "47-225",
                "addr:city": "K\u0119dzierzyn-Ko\u017ale",
                "addr:street": "W\u0142adys\u0142awa Broniewskiego",
                "addr:housenumber": "5",
                "addr:city:simc": 965424,
                "addr:street:sym_ul": 2125,
                "phone": "+48 774886380",
                "email": "pp10@kedzierzynkozle.pl",
                "website": "http:\/\/www.pp10kk.szkolnastrona.pl",
                "ref:regon": "530560036",
                "ref:vatin": "PL7491517689",
                "operator": "Gmina K\u0119dzierzyn-Ko\u017ale",
                "operator:type": "government",
                "amenity": "kindergarten"
            }
        },
        {
            "id": 60955,
            "type": "Feature",
            "geometry": {
                "type": "Point",
                "coordinates": [
                    18.2176,
                    50.35473
                ]
            },
            "properties": {
                "ref:rspo": 60955,
                "official_name": "O\u015brodek Kszta\u0142cenia Zawodowego Profectus S.c. Maria I Miros\u0142aw Zi\u0119ba",
                "name": "O\u015brodek Kszta\u0142cenia Zawodowego Profectus S.c. Maria I Miros\u0142aw Zi\u0119ba",
                "addr:postcode": "47-220",
                "addr:city": "K\u0119dzierzyn-Ko\u017ale",
                "addr:street": "P\u00f3\u0142nocna",
                "addr:housenumber": "6",
                "addr:city:simc": 965424,
                "addr:street:sym_ul": 17421,
                "phone": "+48 609211688",
                "email": "profectus@profectus.pl",
                "website": "http:\/\/www.profectus.pl",
                "ref:regon": "161490858",
                "operator": "Miros\u0142aw Zi\u0119ba",
                "operator:type": "private",
                "fixme": "w zale\u017cno\u015bci od przedmiotu dzia\u0142alno\u015bci (np. amenity=training + training=*, amenity=dancing_school, amenity=language_school, amenity=music_school)"
            }
        },
        {
            "id": 25239,
            "type": "Feature",
            "geometry": {
                "type": "Point",
                "coordinates": [
                    18.12877,
                    50.35696
                ]
            },
            "properties": {
                "ref:rspo": 25239,
                "official_name": "Publiczny Zesp\u00f3\u0142 Przedszkolno-Szkolny z Nauczaniem J\u0119zyka Mniejszo\u015bci Narodowej-J\u0119zyka Niemieckiego w K\u0119dzierzynie-Ko\u017alu",
                "name": "Publiczny Zesp\u00f3\u0142 Przedszkolno-Szkolny z Nauczaniem J\u0119zyka Mniejszo\u015bci Narodowej-J\u0119zyka Niemieckiego w K\u0119dzierzynie-Ko\u017alu",
                "addr:postcode": "47-200",
                "addr:city": "K\u0119dzierzyn-Ko\u017ale",
                "addr:street": "Stoczniowc\u00f3w",
                "addr:housenumber": "11",
                "addr:city:simc": 965424,
                "addr:street:sym_ul": 21190,
                "phone": "+48 774821571",
                "email": "szkolapzpskk@wp.pl",
                "ref:regon": "161484935",
                "operator": "Stowarzyszenie O\u015bwiatowe Ko\u017ale Rogi - Bildungsgesellschaft Cosel Rogau",
                "operator:type": "ngo",
                "landuse": "education",
                "fixme": "amenity=school, amenity=college albo landuse=education w zale\u017cno\u015bci od tego, jakie plac\u00f3wki wchodz\u0105 w sk\u0142ad zespo\u0142u. Sprawd\u017a, kiedy stosowa\u0107 amenity=* a kiedy landuse=education.",
                "note": "Children RSPO: 47257;50394"
            }
        },
        {
            "id": 47257,
            "type": "Feature",
            "geometry": {
                "type": "Point",
                "coordinates": [
                    18.12877,
                    50.35693
                ]
            },
            "properties": {
                "isced:level": "1;2",
                "ref:rspo": 47257,
                "official_name": "Publiczna Szko\u0142a Podstawowa im. Johanna Wolfganga Von Goethe w K\u0119dzierzynie-Ko\u017alu",
                "name": "Publiczna Szko\u0142a Podstawowa",
                "addr:postcode": "47-200",
                "addr:city": "K\u0119dzierzyn-Ko\u017ale",
                "addr:street": "Stoczniowc\u00f3w",
                "addr:housenumber": "11",
                "addr:city:simc": 965424,
                "addr:street:sym_ul": 21190,
                "phone": "+48 774821571",
                "email": "szkolapzpskk@wp.pl",
                "website": "http:\/\/www.pzpskk.pl",
                "ref:regon": "161489269",
                "operator": "Stowarzyszenie O\u015bwiatowe Ko\u017ale Rogi - Bildungsgesellschaft Cosel Rogau",
                "operator:type": "ngo",
                "amenity": "school",
                "note": "Parent RSPO: 25239"
            }
        },
        {
            "id": 42767,
            "type": "Feature",
            "geometry": {
                "type": "Point",
                "coordinates": [
                    18.26469,
                    50.35874
                ]
            },
            "properties": {
                "isced:level": "1;2",
                "ref:rspo": 42767,
                "official_name": "Publiczna Szko\u0142a Podstawowa nr 10 im.wojska Polskiego w K\u0119dzierzynie-Ko\u017alu",
                "name": "Publiczna Szko\u0142a Podstawowa nr 10 im.wojska Polskiego w K\u0119dzierzynie-Ko\u017alu",
                "addr:postcode": "47-225",
                "addr:city": "K\u0119dzierzyn-Ko\u017ale",
                "addr:street": "Szkolna",
                "addr:housenumber": "3",
                "addr:city:simc": 965424,
                "addr:street:sym_ul": 21970,
                "phone": "+48 774835112",
                "email": "psp10@kedzierzynkozle.pl",
                "website": "http:\/\/www.psp10.k-k.pl\/",
                "ref:regon": "000698710",
                "ref:vatin": "PL7491985427",
                "operator": "Gmina K\u0119dzierzyn-Ko\u017ale",
                "operator:type": "government",
                "amenity": "school"
            }
        },
        {
            "id": 270443,
            "type": "Feature",
            "geometry": {
                "type": "Point",
                "coordinates": [
                    18.23723,
                    50.35904
                ]
            },
            "properties": {
                "ref:rspo": 270443,
                "official_name": "Centrum Edukacji Montessori Domowe Przedszkole Montessori Dziupla Wiewi\u00f3rki",
                "name": "Centrum Edukacji Montessori Domowe Przedszkole Montessori Dziupla Wiewi\u00f3rki",
                "addr:postcode": "47-225",
                "addr:city": "K\u0119dzierzyn-Ko\u017ale",
                "addr:street": "Nowowiejska",
                "addr:housenumber": "8",
                "addr:city:simc": 965424,
                "addr:street:sym_ul": 14495,
                "email": "domoweprzedszkolemontessori@gmail.com",
                "ref:regon": "382582180",
                "ref:vatin": "PL7492094989",
                "operator": "Fundacja Wychowanie Dla Pokoju",
                "operator:type": "ngo",
                "amenity": "kindergarten"
            }
        },
        {
            "id": 29695,
            "type": "Feature",
            "geometry": {
                "type": "Point",
                "coordinates": [
                    18.32219,
                    50.37742
                ]
            },
            "properties": {
                "ref:rspo": 29695,
                "official_name": "Zesp\u00f3\u0142 Szk\u00f3\u0142 nr 3 im. Miko\u0142aja Reja w K\u0119dzierzynie-Ko\u017alu",
                "name": "Zesp\u00f3\u0142 Szk\u00f3\u0142 nr 3",
                "addr:postcode": "47-230",
                "addr:city": "K\u0119dzierzyn-Ko\u017ale",
                "addr:street": "S\u0142awi\u0119cicka",
                "addr:housenumber": "79",
                "addr:city:simc": 965424,
                "addr:street:sym_ul": 20199,
                "phone": "+48 774834993",
                "email": "sekretariat@slawiecice.edu.pl",
                "website": "http:\/\/www.slawiecice.edu.pl",
                "ref:regon": "000194607",
                "ref:vatin": "PL7491072276",
                "operator": "Powiat K\u0119dzierzy\u0144sko-Kozielski",
                "operator:type": "government",
                "landuse": "education",
                "fixme": "amenity=school, amenity=college albo landuse=education w zale\u017cno\u015bci od tego, jakie plac\u00f3wki wchodz\u0105 w sk\u0142ad zespo\u0142u. Sprawd\u017a, kiedy stosowa\u0107 amenity=* a kiedy landuse=education.",
                "note": "Children RSPO: 38542;38544;118566;271405"
            }
        },
        {
            "id": 38542,
            "type": "Feature",
            "geometry": {
                "type": "Point",
                "coordinates": [
                    18.32219,
                    50.37739
                ]
            },
            "properties": {
                "isced:level": "3",
                "ref:rspo": 38542,
                "official_name": "Technikum nr 3",
                "name": "Technikum nr 3",
                "addr:postcode": "47-230",
                "addr:city": "K\u0119dzierzyn-Ko\u017ale",
                "addr:street": "S\u0142awi\u0119cicka",
                "addr:housenumber": "79",
                "addr:city:simc": 965424,
                "addr:street:sym_ul": 20199,
                "phone": "+48 774834993",
                "email": "sekretariat@slawiecice.edu.pl",
                "website": "http:\/\/www.slawiecice.edu.pl",
                "ref:regon": "532330263",
                "operator": "Powiat K\u0119dzierzy\u0144sko-Kozielski",
                "operator:type": "government",
                "amenity": "school",
                "note": "Parent RSPO: 29695"
            }
        },
        {
            "id": 38544,
            "type": "Feature",
            "geometry": {
                "type": "Point",
                "coordinates": [
                    18.32219,
                    50.37736
                ]
            },
            "properties": {
                "isced:level": "3",
                "ref:rspo": 38544,
                "official_name": "Iii Liceum Og\u00f3lnokszta\u0142c\u0105ce",
                "name": "Iii Liceum Og\u00f3lnokszta\u0142c\u0105ce",
                "addr:postcode": "47-230",
                "addr:city": "K\u0119dzierzyn-Ko\u017ale",
                "addr:street": "S\u0142awi\u0119cicka",
                "addr:housenumber": "79",
                "addr:city:simc": 965424,
                "addr:street:sym_ul": 20199,
                "phone": "+48 774834993",
                "email": "sekretariat@slawiecice.edu.pl",
                "website": "http:\/\/www.slawiecice.edu.pl",
                "ref:regon": "532330240",
                "operator": "Powiat K\u0119dzierzy\u0144sko-Kozielski",
                "operator:type": "government",
                "amenity": "school",
                "note": "Parent RSPO: 29695"
            }
        },
        {
            "id": 118566,
            "type": "Feature",
            "geometry": {
                "type": "Point",
                "coordinates": [
                    18.32219,
                    50.37733
                ]
            },
            "properties": {
                "isced:level": "4",
                "ref:rspo": 118566,
                "official_name": "Szko\u0142a Policealna dla Doros\u0142ych",
                "name": "Szko\u0142a Policealna dla Doros\u0142ych",
                "addr:postcode": "47-230",
                "addr:city": "K\u0119dzierzyn-Ko\u017ale",
                "addr:street": "S\u0142awi\u0119cicka",
                "addr:housenumber": "79",
                "addr:city:simc": 965424,
                "addr:street:sym_ul": 20199,
                "phone": "+48 774834993",
                "email": "sekretariat@slawiecice.edu.pl",
                "ref:regon": "160247682",
                "operator": "Powiat K\u0119dzierzy\u0144sko-Kozielski",
                "operator:type": "government",
                "amenity": "college",
                "note": "Parent RSPO: 29695"
            }
        },
        {
            "id": 271405,
            "type": "Feature",
            "geometry": {
                "type": "Point",
                "coordinates": [
                    18.32219,
                    50.3773
                ]
            },
            "properties": {
                "isced:level": "3",
                "ref:rspo": 271405,
                "official_name": "Bran\u017cowa Szko\u0142a I Stopnia nr 4",
                "name": "Bran\u017cowa Szko\u0142a I Stopnia nr 4",
                "addr:postcode": "47-230",
                "addr:city": "K\u0119dzierzyn-Ko\u017ale",
                "addr:street": "S\u0142awi\u0119cicka",
                "addr:housenumber": "79",
                "addr:city:simc": 965424,
                "addr:street:sym_ul": 20199,
                "phone": "+48 774834993",
                "email": "sekretariat@slawiecice.edu.pl",
                "ref:regon": "383319147",
                "operator": "Powiat K\u0119dzierzy\u0144sko-Kozielski",
                "operator:type": "government",
                "amenity": "school",
                "note": "Parent RSPO: 29695"
            }
        },
        {
            "id": 72391,
            "type": "Feature",
            "geometry": {
                "type": "Point",
                "coordinates": [
                    18.31781,
                    50.3796899
                ]
            },
            "properties": {
                "isced:level": "1;2",
                "ref:rspo": 72391,
                "official_name": "Publiczna Szko\u0142a Podstawowa nr 16 w K\u0119dzierzynie-Ko\u017alu",
                "name": "Publiczna Szko\u0142a Podstawowa nr 16 w K\u0119dzierzynie-Ko\u017alu",
                "addr:postcode": "47-230",
                "addr:city": "K\u0119dzierzyn-Ko\u017ale",
                "addr:street": "S\u0142awi\u0119cicka",
                "addr:housenumber": "96",
                "addr:city:simc": 965424,
                "addr:street:sym_ul": 20199,
                "phone": "+48 774834871",
                "email": "psp16@kedzierzynkozle.pl",
                "website": "http:\/\/www.psp16kkozle.pl",
                "ref:regon": "000698779",
                "ref:vatin": "PL7492006198",
                "operator": "Gmina K\u0119dzierzyn-Ko\u017ale",
                "operator:type": "government",
                "amenity": "school"
            }
        },
        {
            "id": 27013,
            "type": "Feature",
            "geometry": {
                "type": "Point",
                "coordinates": [
                    18.3178899,
                    50.37975
                ]
            },
            "properties": {
                "ref:rspo": 27013,
                "official_name": "Publiczne Przedszkole nr 18",
                "name": "Publiczne Przedszkole nr 18",
                "addr:postcode": "47-230",
                "addr:city": "K\u0119dzierzyn-Ko\u017ale",
                "addr:street": "S\u0142awi\u0119cicka",
                "addr:housenumber": "96B",
                "addr:city:simc": 965424,
                "addr:street:sym_ul": 20199,
                "phone": "+48 774834793",
                "email": "pp18@kedzierzynkozle.pl",
                "website": "http:\/\/www.bajkoweprzedszkolekk.pl",
                "ref:regon": "530560119",
                "ref:vatin": "PL7491298158",
                "operator": "Gmina K\u0119dzierzyn-Ko\u017ale",
                "operator:type": "government",
                "amenity": "kindergarten"
            }
        },
        {
            "id": 8519,
            "type": "Feature",
            "geometry": {
                "type": "Point",
                "coordinates": [
                    18.24594,
                    50.38241
                ]
            },
            "properties": {
                "ref:rspo": 8519,
                "official_name": "Zesp\u00f3\u0142 Szkolno-Przedszkolny nr 1 w K\u0119dzierzynie-Ko\u017alu",
                "name": "Zesp\u00f3\u0142 Szkolno-Przedszkolny nr 1 w K\u0119dzierzynie-Ko\u017alu",
                "addr:postcode": "47-230",
                "addr:city": "K\u0119dzierzyn-Ko\u017ale",
                "addr:street": "Jana Brzechwy",
                "addr:housenumber": "80",
                "addr:city:simc": 965424,
                "addr:street:sym_ul": 2225,
                "phone": "+48 774828801",
                "email": "zsp1@kedzierzynkozle.pl",
                "website": "http:\/\/www.zsp1.kedzierzyn-kozle.edu.pl",
                "ref:regon": "160802770",
                "ref:vatin": "PL7492085111",
                "operator": "Gmina K\u0119dzierzyn-Ko\u017ale",
                "operator:type": "government",
                "landuse": "education",
                "fixme": "amenity=school, amenity=college albo landuse=education w zale\u017cno\u015bci od tego, jakie plac\u00f3wki wchodz\u0105 w sk\u0142ad zespo\u0142u. Sprawd\u017a, kiedy stosowa\u0107 amenity=* a kiedy landuse=education.",
                "note": "Children RSPO: 50398;68185"
            }
        },
        {
            "id": 50398,
            "type": "Feature",
            "geometry": {
                "type": "Point",
                "coordinates": [
                    18.24594,
                    50.38238
                ]
            },
            "properties": {
                "ref:rspo": 50398,
                "official_name": "Publiczne Przedszkole nr 20 w K\u0119dzierzynie-Ko\u017alu",
                "name": "Publiczne Przedszkole nr 20 w K\u0119dzierzynie-Ko\u017alu",
                "addr:postcode": "47-230",
                "addr:city": "K\u0119dzierzyn-Ko\u017ale",
                "addr:street": "Jana Brzechwy",
                "addr:housenumber": "80",
                "addr:city:simc": 965424,
                "addr:street:sym_ul": 2225,
                "phone": "+48 774828318",
                "email": "zsp1@kedzierzynkozle.pl",
                "website": "http:\/\/www.zsp1.kedzierzyn-kozle.edu.pl",
                "ref:regon": "530560125",
                "operator": "Gmina K\u0119dzierzyn-Ko\u017ale",
                "operator:type": "government",
                "amenity": "kindergarten",
                "note": "Parent RSPO: 8519"
            }
        },
        {
            "id": 68185,
            "type": "Feature",
            "geometry": {
                "type": "Point",
                "coordinates": [
                    18.24594,
                    50.38235
                ]
            },
            "properties": {
                "isced:level": "1;2",
                "ref:rspo": 68185,
                "official_name": "Publiczna Szko\u0142a Podstawowa nr 18 im.wojciecha Korfantego w K\u0119dzierzynie-Ko\u017alu",
                "name": "Publiczna Szko\u0142a Podstawowa nr 18 im.wojciecha Korfantego w K\u0119dzierzynie-Ko\u017alu",
                "addr:postcode": "47-230",
                "addr:city": "K\u0119dzierzyn-Ko\u017ale",
                "addr:street": "Jana Brzechwy",
                "addr:housenumber": "80",
                "addr:city:simc": 965424,
                "addr:street:sym_ul": 2225,
                "phone": "+48 774828801",
                "email": "zsp1@kedzierzynkozle.pl",
                "website": "http:\/\/www.zsp1.kedzierzyn-kozle.edu.pl",
                "ref:regon": "000698791",
                "ref:vatin": "PL7491634461",
                "operator": "Gmina K\u0119dzierzyn-Ko\u017ale",
                "operator:type": "government",
                "amenity": "school",
                "note": "Parent RSPO: 8519"
            }
        }
    ]
}