{
    "type": "FeatureCollection",
    "features": [
        {
            "id": 74591,
            "type": "Feature",
            "geometry": {
                "type": "Point",
                "coordinates": [
                    18.19118,
                    50.20987
                ]
            },
            "properties": {
                "ref:rspo": 74591,
                "official_name": "Gminne Przedszkole",
                "name": "Gminne Przedszkole",
                "addr:postcode": "47-253",
                "addr:city": "\u0141any",
                "addr:street": "Szkolna",
                "addr:housenumber": "8",
                "addr:teryt:simc": 492776,
                "addr:teryt:sym_ul": 21970,
                "phone": "+48 774875911",
                "email": "przedszkole-lany@tlen.pl",
                "ref:regon": "530580671",
                "ref:vatin": "PL7491891301",
                "operator": "Gmina Cisek",
                "operator:type": "government",
                "amenity": "kindergarten"
            }
        },
        {
            "id": 73314,
            "type": "Feature",
            "geometry": {
                "type": "Point",
                "coordinates": [
                    18.19692,
                    50.21384
                ]
            },
            "properties": {
                "isced:level": "1;2",
                "ref:rspo": 73314,
                "official_name": "Publiczna Szko\u0142a Podstawowa w \u0141anach",
                "name": "Publiczna Szko\u0142a Podstawowa w \u0141anach",
                "addr:postcode": "47-253",
                "addr:city": "\u0141any",
                "addr:street": "G\u0142\u00f3wna",
                "addr:housenumber": "98a",
                "addr:teryt:simc": 492776,
                "addr:teryt:sym_ul": 5635,
                "phone": "+48 774875724",
                "email": "splany@wodip.opole.pl",
                "website": "http:\/\/www.psplany.cisek.pl",
                "ref:regon": "001166369",
                "ref:vatin": "PL7491891258",
                "operator": "Gmina Cisek",
                "operator:type": "government",
                "amenity": "school"
            }
        },
        {
            "id": 74590,
            "type": "Feature",
            "geometry": {
                "type": "Point",
                "coordinates": [
                    18.21993,
                    50.26142
                ]
            },
            "properties": {
                "isced:level": "1;2",
                "ref:rspo": 74590,
                "official_name": "Publiczna Szko\u0142a Podstawowa im. Jana Paw\u0142a II w Roszowickim Lesie",
                "name": "Publiczna Szko\u0142a Podstawowa",
                "addr:postcode": "47-253",
                "addr:city": "Roszowicki Las",
                "addr:street": "Szkolna",
                "addr:housenumber": "12",
                "addr:teryt:simc": 492888,
                "addr:teryt:sym_ul": 21970,
                "phone": "+48 774871160",
                "email": "psprolas@interia.pl",
                "website": "http:\/\/www.szkolnastrona.roszowickilas.pl",
                "ref:regon": "001166381",
                "ref:vatin": "PL7491891264",
                "operator": "Gmina Cisek",
                "operator:type": "government",
                "amenity": "school"
            }
        },
        {
            "id": 196309,
            "type": "Feature",
            "geometry": {
                "type": "Point",
                "coordinates": [
                    18.202299118042,
                    50.281558990479
                ]
            },
            "properties": {
                "isced:level": "1;2",
                "ref:rspo": 196309,
                "official_name": "Publiczna Szko\u0142a Podstawowa im. W\u0142adys\u0142awa Planetorza w Cisku",
                "name": "Publiczna Szko\u0142a Podstawowa",
                "addr:postcode": "47-253",
                "addr:city": "Cisek",
                "addr:street": "Planetorza",
                "addr:housenumber": "21",
                "addr:teryt:simc": 492701,
                "addr:teryt:sym_ul": 16426,
                "phone": "+48 774871155",
                "email": "sek_gim_cisek@op.pl",
                "website": "http:\/\/www.szkolacisek.szkolnastrona.pl",
                "ref:regon": "367991118",
                "operator": "Gmina Cisek",
                "operator:type": "government",
                "amenity": "school"
            }
        },
        {
            "id": 74576,
            "type": "Feature",
            "geometry": {
                "type": "Point",
                "coordinates": [
                    18.20226,
                    50.28188
                ]
            },
            "properties": {
                "ref:rspo": 74576,
                "official_name": "Gminne Przedszkole w Cisku",
                "name": "Gminne Przedszkole w Cisku",
                "addr:postcode": "47-253",
                "addr:city": "Cisek",
                "addr:street": "Harcerska",
                "addr:housenumber": "9",
                "addr:teryt:simc": 492701,
                "addr:teryt:sym_ul": 6523,
                "phone": "+48 774871133",
                "email": "przedszkole-cisek@wp.pl",
                "website": "http:\/\/przedszkole-cisek.pl",
                "ref:regon": "530580665",
                "ref:vatin": "PL7491891293",
                "operator": "Gmina Cisek",
                "operator:type": "government",
                "amenity": "kindergarten"
            }
        },
        {
            "id": 73524,
            "type": "Feature",
            "geometry": {
                "type": "Point",
                "coordinates": [
                    18.19886,
                    50.3014
                ]
            },
            "properties": {
                "isced:level": "1;2",
                "ref:rspo": 73524,
                "official_name": "Publiczna Szko\u0142a Podstawowa w Landzmierzu",
                "name": "Publiczna Szko\u0142a Podstawowa w Landzmierzu",
                "addr:postcode": "47-253",
                "addr:city": "Landzmierz",
                "addr:street": "G\u0142\u00f3wna",
                "addr:housenumber": "51",
                "addr:teryt:simc": 492753,
                "addr:teryt:sym_ul": 5635,
                "phone": "+48 774871168",
                "email": "pspland@poczta.onet.pl",
                "website": "http:\/\/www.landzmierz.szkola.pl",
                "ref:regon": "531395183",
                "ref:vatin": "PL7491891241",
                "operator": "Gmina Cisek",
                "operator:type": "government",
                "amenity": "school"
            }
        }
    ]
}