{
    "type": "FeatureCollection",
    "features": [
        {
            "id": 35352,
            "type": "Feature",
            "geometry": {
                "type": "Point",
                "coordinates": [
                    18.10483,
                    50.1903999
                ]
            },
            "properties": {
                "ref:rspo": 35352,
                "official_name": "Zesp\u00f3\u0142 Szkolno - Przedszkolny we Wroninie",
                "name": "Zesp\u00f3\u0142 Szkolno - Przedszkolny we Wroninie",
                "addr:country": "PL",
                "addr:postcode": "47-260",
                "addr:city": "Wronin",
                "addr:street": "Ko\u015bcielna",
                "addr:housenumber": "1",
                "addr:teryt:simc": 9546,
                "addr:teryt:sym_ul": 502180,
                "contact:phone": "+48 774802730",
                "contact:email": "pspwronin@poczta.onet.pl",
                "contact:website": "https:\/\/zspwronin.edupage.org\/",
                "ref:regon": "160140211",
                "ref:vatin": "PL7492020838",
                "operator": "Gmina Polska Cerekiew",
                "operator:type": "government",
                "landuse": "education",
                "fixme": "amenity=school, amenity=college albo landuse=education w zale\u017cno\u015bci od tego, jakie plac\u00f3wki wchodz\u0105 w sk\u0142ad zespo\u0142u. Sprawd\u017a, kiedy stosowa\u0107 amenity=* a kiedy landuse=education.",
                "note": "Children RSPO: 60848;60850"
            }
        },
        {
            "id": 60848,
            "type": "Feature",
            "geometry": {
                "type": "Point",
                "coordinates": [
                    18.10483,
                    50.1903699
                ]
            },
            "properties": {
                "isced:level": "1;2",
                "ref:rspo": 60848,
                "official_name": "Publiczna Szko\u0142a Podstawowa im. Miko\u0142aja Kopernika we Wroninie",
                "name": "Publiczna Szko\u0142a Podstawowa",
                "addr:country": "PL",
                "addr:postcode": "47-260",
                "addr:city": "Wronin",
                "addr:street": "Ko\u015bcielna",
                "addr:housenumber": "1",
                "addr:teryt:simc": 9546,
                "addr:teryt:sym_ul": 502180,
                "contact:phone": "+48 774802730",
                "contact:email": "pspwronin@poczta.onet.pl",
                "contact:website": "https:\/\/zspwronin.edupage.org\/",
                "ref:regon": "001196821",
                "ref:vatin": "PL7491870807",
                "operator": "Gmina Polska Cerekiew",
                "operator:type": "government",
                "amenity": "school",
                "note": "Parent RSPO: 35352"
            }
        },
        {
            "id": 60850,
            "type": "Feature",
            "geometry": {
                "type": "Point",
                "coordinates": [
                    18.10483,
                    50.190339900000005
                ]
            },
            "properties": {
                "ref:rspo": 60850,
                "official_name": "Publiczne Przedszkole we Wroninie",
                "name": "Publiczne Przedszkole we Wroninie",
                "addr:country": "PL",
                "addr:postcode": "47-260",
                "addr:city": "Wronin",
                "addr:street": "Ko\u015bcielna",
                "addr:housenumber": "1",
                "addr:teryt:simc": 9546,
                "addr:teryt:sym_ul": 502180,
                "contact:phone": "+48 774802730",
                "contact:email": "pspwronin@poczta.onet.pl",
                "contact:website": "https:\/\/zspwronin.edupage.org\/",
                "ref:regon": "530583362",
                "ref:vatin": "PL7491885890",
                "operator": "Gmina Polska Cerekiew",
                "operator:type": "government",
                "amenity": "kindergarten",
                "note": "Parent RSPO: 35352"
            }
        },
        {
            "id": 35148,
            "type": "Feature",
            "geometry": {
                "type": "Point",
                "coordinates": [
                    18.12472,
                    50.22964
                ]
            },
            "properties": {
                "ref:rspo": 35148,
                "official_name": "Zesp\u00f3\u0142 Szkolno - Przedszkolny w Polskiej Cerekwi",
                "name": "Zesp\u00f3\u0142 Szkolno - Przedszkolny w Polskiej Cerekwi",
                "addr:country": "PL",
                "addr:postcode": "47-260",
                "addr:city": "Polska Cerekiew",
                "addr:street": "Konarskiego",
                "addr:housenumber": "4",
                "addr:teryt:simc": 9106,
                "addr:teryt:sym_ul": 502150,
                "contact:phone": "+48 774802660",
                "contact:email": "g_polska_cerekiew@wodip.opole.pl",
                "contact:website": "https:\/\/zgsp-polskacerekiew.edupage.org\/",
                "ref:regon": "160140197",
                "ref:vatin": "PL7492020844",
                "operator": "Gmina Polska Cerekiew",
                "operator:type": "government",
                "landuse": "education",
                "fixme": "amenity=school, amenity=college albo landuse=education w zale\u017cno\u015bci od tego, jakie plac\u00f3wki wchodz\u0105 w sk\u0142ad zespo\u0142u. Sprawd\u017a, kiedy stosowa\u0107 amenity=* a kiedy landuse=education.",
                "note": "Children RSPO: 49325;49326"
            }
        },
        {
            "id": 49325,
            "type": "Feature",
            "geometry": {
                "type": "Point",
                "coordinates": [
                    18.12472,
                    50.22961
                ]
            },
            "properties": {
                "isced:level": "1;2",
                "ref:rspo": 49325,
                "official_name": "Publiczna Szko\u0142a Podstawowa im. Kawaler\u00f3w Orderu U\u015bmiechu",
                "name": "Publiczna Szko\u0142a Podstawowa",
                "addr:country": "PL",
                "addr:postcode": "47-260",
                "addr:city": "Polska Cerekiew",
                "addr:street": "Konarskiego",
                "addr:housenumber": "4",
                "addr:teryt:simc": 9106,
                "addr:teryt:sym_ul": 502150,
                "contact:phone": "+48 774802660",
                "contact:email": "g_polska_cerekiew@wodip.opole.pl",
                "contact:website": "https:\/\/zgsp-polskacerekiew.edupage.org\/",
                "ref:regon": "000271704",
                "ref:vatin": "PL7491870782",
                "operator": "Gmina Polska Cerekiew",
                "operator:type": "government",
                "amenity": "school",
                "note": "Parent RSPO: 35148"
            }
        },
        {
            "id": 49326,
            "type": "Feature",
            "geometry": {
                "type": "Point",
                "coordinates": [
                    18.12472,
                    50.229580000000006
                ]
            },
            "properties": {
                "ref:rspo": 49326,
                "official_name": "Publiczne Przedszkole w Polskiej Cerekwi Z Oddzia\u0142em Zamiejscowym w Zakrzowie",
                "name": "Publiczne Przedszkole w Polskiej Cerekwi Z Oddzia\u0142em Zamiejscowym w Zakrzowie",
                "addr:country": "PL",
                "addr:postcode": "47-260",
                "addr:city": "Polska Cerekiew",
                "addr:street": "Konarskiego",
                "addr:housenumber": "4",
                "addr:teryt:simc": 9106,
                "addr:teryt:sym_ul": 502150,
                "contact:phone": "+48 774802660",
                "contact:email": "g_polska_cerekiew@wodip.opole.pl",
                "contact:website": "https:\/\/zgsp-polskacerekiew.edupage.org\/",
                "ref:regon": "530583356",
                "ref:vatin": "PL7491890371",
                "operator": "Gmina Polska Cerekiew",
                "operator:type": "government",
                "amenity": "kindergarten",
                "note": "Parent RSPO: 35148"
            }
        }
    ]
}