{
    "type": "FeatureCollection",
    "features": [
        {
            "id": 18167,
            "type": "Feature",
            "geometry": {
                "type": "Point",
                "coordinates": [
                    18.03451,
                    50.18735
                ]
            },
            "properties": {
                "isced:level": "1;2",
                "ref:rspo": 18167,
                "official_name": "Publiczna Szko\u0142a Podstawowa w Maciowakrzu",
                "name": "Publiczna Szko\u0142a Podstawowa w Maciowakrzu",
                "addr:country": "PL",
                "addr:postcode": "47-280",
                "addr:city": "Maciowakrze",
                "addr:street": "Tadeusza Ko\u015bciuszki",
                "addr:housenumber": "20",
                "addr:teryt:simc": 9572,
                "addr:teryt:sym_ul": 501682,
                "contact:phone": "+48 774879808",
                "contact:email": "pspmaciowakrze@interia.pl",
                "contact:website": "http:\/\/www.pspmaciowakrze.szkolna.net",
                "ref:regon": "001196198",
                "ref:vatin": "PL7491860594",
                "operator": "Gmina Paw\u0142owiczki",
                "operator:type": "government",
                "amenity": "school"
            }
        },
        {
            "id": 18091,
            "type": "Feature",
            "geometry": {
                "type": "Point",
                "coordinates": [
                    17.9425199,
                    50.23979
                ]
            },
            "properties": {
                "ref:rspo": 18091,
                "official_name": "Zesp\u00f3\u0142 Szkolno-Przedszkolny w Jakubowicach",
                "name": "Zesp\u00f3\u0142 Szkolno-Przedszkolny w Jakubowicach",
                "addr:country": "PL",
                "addr:postcode": "47-280",
                "addr:place": "Jakubowice",
                "addr:housenumber": "2c",
                "addr:teryt:sym_ul": 501630,
                "contact:phone": "+48 774879711",
                "contact:email": "zsp.jakubowice@autograf.pl",
                "ref:regon": "532455734",
                "ref:vatin": "PL7491960640",
                "operator": "Gmina Paw\u0142owiczki",
                "operator:type": "government",
                "landuse": "education",
                "fixme": "amenity=school, amenity=college albo landuse=education w zale\u017cno\u015bci od tego, jakie plac\u00f3wki wchodz\u0105 w sk\u0142ad zespo\u0142u. Sprawd\u017a, kiedy stosowa\u0107 amenity=* a kiedy landuse=education.",
                "note": "Children RSPO: 38558;38562"
            }
        },
        {
            "id": 38558,
            "type": "Feature",
            "geometry": {
                "type": "Point",
                "coordinates": [
                    17.9425199,
                    50.23976
                ]
            },
            "properties": {
                "ref:rspo": 38558,
                "official_name": "Publiczne Przedszkole w Jakubowicach",
                "name": "Publiczne Przedszkole w Jakubowicach",
                "addr:country": "PL",
                "addr:postcode": "47-280",
                "addr:place": "Jakubowice",
                "addr:housenumber": "2c",
                "addr:teryt:sym_ul": 501630,
                "contact:phone": "+48 774879711",
                "contact:email": "zsp.jakubowice@autograf.pl",
                "ref:regon": "530910045",
                "operator": "Gmina Paw\u0142owiczki",
                "operator:type": "government",
                "amenity": "kindergarten",
                "note": "Parent RSPO: 18091"
            }
        },
        {
            "id": 38562,
            "type": "Feature",
            "geometry": {
                "type": "Point",
                "coordinates": [
                    17.9425199,
                    50.23973
                ]
            },
            "properties": {
                "isced:level": "1;2",
                "ref:rspo": 38562,
                "official_name": "Publiczna Szko\u0142a Podstawowa w Jakubowicach",
                "name": "Publiczna Szko\u0142a Podstawowa w Jakubowicach",
                "addr:country": "PL",
                "addr:postcode": "47-280",
                "addr:place": "Jakubowice",
                "addr:housenumber": "2c",
                "addr:teryt:sym_ul": 501630,
                "contact:phone": "+48 774879711",
                "contact:email": "zsp.jakubowice@autograf.pl",
                "ref:regon": "001196206",
                "operator": "Gmina Paw\u0142owiczki",
                "operator:type": "government",
                "amenity": "school",
                "note": "Parent RSPO: 18091"
            }
        },
        {
            "id": 18068,
            "type": "Feature",
            "geometry": {
                "type": "Point",
                "coordinates": [
                    18.08933,
                    50.24358
                ]
            },
            "properties": {
                "ref:rspo": 18068,
                "official_name": "Zesp\u00f3\u0142 Szkolno-Przedszkolny w Ostro\u017cnicy",
                "name": "Zesp\u00f3\u0142 Szkolno-Przedszkolny w Ostro\u017cnicy",
                "addr:country": "PL",
                "addr:postcode": "47-280",
                "addr:city": "Ostro\u017cnica",
                "addr:street": "Ko\u015bcielna",
                "addr:housenumber": "42",
                "addr:teryt:simc": 9546,
                "addr:teryt:sym_ul": 501736,
                "contact:phone": "+48 774874192",
                "contact:email": "pspostroznica@poczta.onet.pl",
                "ref:regon": "532455728",
                "ref:vatin": "PL7491960663",
                "operator": "Gmina Paw\u0142owiczki",
                "operator:type": "government",
                "landuse": "education",
                "fixme": "amenity=school, amenity=college albo landuse=education w zale\u017cno\u015bci od tego, jakie plac\u00f3wki wchodz\u0105 w sk\u0142ad zespo\u0142u. Sprawd\u017a, kiedy stosowa\u0107 amenity=* a kiedy landuse=education.",
                "note": "Children RSPO: 35350;38556"
            }
        },
        {
            "id": 38556,
            "type": "Feature",
            "geometry": {
                "type": "Point",
                "coordinates": [
                    18.08933,
                    50.24355
                ]
            },
            "properties": {
                "isced:level": "1;2",
                "ref:rspo": 38556,
                "official_name": "Publiczna Szko\u0142a Podstawowa w Ostro\u017cnicy",
                "name": "Publiczna Szko\u0142a Podstawowa w Ostro\u017cnicy",
                "addr:country": "PL",
                "addr:postcode": "47-280",
                "addr:city": "Ostro\u017cnica",
                "addr:street": "Ko\u015bcielna",
                "addr:housenumber": "42",
                "addr:teryt:simc": 9546,
                "addr:teryt:sym_ul": 501736,
                "contact:phone": "+48 774874192",
                "contact:email": "pspostroznica@poczta.onet.pl",
                "ref:regon": "001196175",
                "operator": "Gmina Paw\u0142owiczki",
                "operator:type": "government",
                "amenity": "school",
                "note": "Parent RSPO: 18068"
            }
        },
        {
            "id": 18022,
            "type": "Feature",
            "geometry": {
                "type": "Point",
                "coordinates": [
                    18.04431,
                    50.2439899
                ]
            },
            "properties": {
                "ref:rspo": 18022,
                "official_name": "Zesp\u00f3\u0142 Szkolno-Przedszkolny w Paw\u0142owiczkach",
                "name": "Zesp\u00f3\u0142 Szkolno-Przedszkolny w Paw\u0142owiczkach",
                "addr:country": "PL",
                "addr:postcode": "47-280",
                "addr:city": "Paw\u0142owiczki",
                "addr:street": "Korfantego",
                "addr:housenumber": "3",
                "addr:teryt:simc": 9353,
                "addr:teryt:sym_ul": 501742,
                "contact:phone": "+48 774874116",
                "contact:email": "zgsp_pawlowiczki@op.pl",
                "contact:website": "http:\/\/zsppawlowiczki.edupage.org",
                "ref:regon": "532454663",
                "ref:vatin": "PL7491960657",
                "operator": "Gmina Paw\u0142owiczki",
                "operator:type": "government",
                "landuse": "education",
                "fixme": "amenity=school, amenity=college albo landuse=education w zale\u017cno\u015bci od tego, jakie plac\u00f3wki wchodz\u0105 w sk\u0142ad zespo\u0142u. Sprawd\u017a, kiedy stosowa\u0107 amenity=* a kiedy landuse=education.",
                "note": "Children RSPO: 34754;34847"
            }
        },
        {
            "id": 34754,
            "type": "Feature",
            "geometry": {
                "type": "Point",
                "coordinates": [
                    18.04431,
                    50.2439599
                ]
            },
            "properties": {
                "ref:rspo": 34754,
                "official_name": "Publiczne Przedszkole w Paw\u0142owiczkach",
                "name": "Publiczne Przedszkole w Paw\u0142owiczkach",
                "addr:country": "PL",
                "addr:postcode": "47-280",
                "addr:city": "Paw\u0142owiczki",
                "addr:street": "Korfantego",
                "addr:housenumber": "3",
                "addr:teryt:simc": 9353,
                "addr:teryt:sym_ul": 501742,
                "contact:phone": "+48 774874116",
                "contact:email": "zgsp_pawlowiczki@op.pl",
                "contact:website": "http:\/\/zsppawlowiczki.edupage.org",
                "ref:regon": "530583014",
                "operator": "Gmina Paw\u0142owiczki",
                "operator:type": "government",
                "amenity": "kindergarten",
                "note": "Parent RSPO: 18022"
            }
        },
        {
            "id": 34847,
            "type": "Feature",
            "geometry": {
                "type": "Point",
                "coordinates": [
                    18.04431,
                    50.243929900000005
                ]
            },
            "properties": {
                "isced:level": "1;2",
                "ref:rspo": 34847,
                "official_name": "Publiczna Szko\u0142a Podstawowa w Paw\u0142owiczkach",
                "name": "Publiczna Szko\u0142a Podstawowa w Paw\u0142owiczkach",
                "addr:country": "PL",
                "addr:postcode": "47-280",
                "addr:city": "Paw\u0142owiczki",
                "addr:street": "Korfantego",
                "addr:housenumber": "3",
                "addr:teryt:simc": 9353,
                "addr:teryt:sym_ul": 501742,
                "contact:phone": "+48 774874116",
                "contact:email": "zgsp_pawlowiczki@op.pl",
                "contact:website": "http:\/\/zsppawlowiczki.edupage.org",
                "ref:regon": "000270550",
                "operator": "Gmina Paw\u0142owiczki",
                "operator:type": "government",
                "amenity": "school",
                "note": "Parent RSPO: 18022"
            }
        },
        {
            "id": 35350,
            "type": "Feature",
            "geometry": {
                "type": "Point",
                "coordinates": [
                    18.08813,
                    50.24427
                ]
            },
            "properties": {
                "ref:rspo": 35350,
                "official_name": "Publiczne Przedszkole w Ostro\u017cnicy",
                "name": "Publiczne Przedszkole w Ostro\u017cnicy",
                "addr:country": "PL",
                "addr:postcode": "47-280",
                "addr:city": "Ostro\u017cnica",
                "addr:street": "Ko\u015bcielna",
                "addr:housenumber": "39",
                "addr:teryt:simc": 9546,
                "addr:teryt:sym_ul": 501736,
                "contact:phone": "+48 774874192",
                "contact:email": "pspostroznica@poczta.onet.pl",
                "ref:regon": "530583008",
                "operator": "Gmina Paw\u0142owiczki",
                "operator:type": "government",
                "amenity": "kindergarten",
                "note": "Parent RSPO: 18068"
            }
        },
        {
            "id": 22297,
            "type": "Feature",
            "geometry": {
                "type": "Point",
                "coordinates": [
                    18.00625,
                    50.2806799
                ]
            },
            "properties": {
                "ref:rspo": 22297,
                "official_name": "Zesp\u00f3\u0142 Szkolno-Przedszkolny w Go\u015bci\u0119cinie",
                "name": "Zesp\u00f3\u0142 Szkolno-Przedszkolny w Go\u015bci\u0119cinie",
                "addr:country": "PL",
                "addr:postcode": "47-270",
                "addr:city": "Go\u015bci\u0119cin",
                "addr:street": "Szkolna",
                "addr:housenumber": "22",
                "addr:teryt:simc": 21970,
                "addr:teryt:sym_ul": 501593,
                "contact:phone": "+48 774879130",
                "contact:email": "g_gosciecin@wodip.opole.pl",
                "ref:regon": "532454657",
                "ref:vatin": "PL7491960634",
                "operator": "Gmina Paw\u0142owiczki",
                "operator:type": "government",
                "landuse": "education",
                "fixme": "amenity=school, amenity=college albo landuse=education w zale\u017cno\u015bci od tego, jakie plac\u00f3wki wchodz\u0105 w sk\u0142ad zespo\u0142u. Sprawd\u017a, kiedy stosowa\u0107 amenity=* a kiedy landuse=education.",
                "note": "Children RSPO: 35087;35171;64571"
            }
        },
        {
            "id": 35171,
            "type": "Feature",
            "geometry": {
                "type": "Point",
                "coordinates": [
                    18.00625,
                    50.2806499
                ]
            },
            "properties": {
                "isced:level": "1;2",
                "ref:rspo": 35171,
                "official_name": "Publiczna Szko\u0142a Podstawowa w Go\u015bci\u0119cinie",
                "name": "Publiczna Szko\u0142a Podstawowa w Go\u015bci\u0119cinie",
                "addr:country": "PL",
                "addr:postcode": "47-270",
                "addr:city": "Go\u015bci\u0119cin",
                "addr:street": "Szkolna",
                "addr:housenumber": "22",
                "addr:teryt:simc": 21970,
                "addr:teryt:sym_ul": 501593,
                "contact:phone": "+48 774879130",
                "contact:email": "g_gosciecin@wodip.opole.pl",
                "ref:regon": "001188773",
                "operator": "Gmina Paw\u0142owiczki",
                "operator:type": "government",
                "amenity": "school",
                "note": "Parent RSPO: 22297"
            }
        },
        {
            "id": 35087,
            "type": "Feature",
            "geometry": {
                "type": "Point",
                "coordinates": [
                    18.00585,
                    50.28201
                ]
            },
            "properties": {
                "ref:rspo": 35087,
                "official_name": "Publiczne Przedszkole w Go\u015bci\u0119cinie",
                "name": "Publiczne Przedszkole w Go\u015bci\u0119cinie",
                "addr:country": "PL",
                "addr:postcode": "47-270",
                "addr:city": "Go\u015bci\u0119cin",
                "addr:street": "Szkolna",
                "addr:housenumber": "16",
                "addr:teryt:simc": 21970,
                "addr:teryt:sym_ul": 501593,
                "contact:phone": "+48 774879130",
                "contact:email": "g_gosciecin@wodip.opole.pl",
                "ref:regon": "532460882",
                "operator": "Gmina Paw\u0142owiczki",
                "operator:type": "government",
                "amenity": "kindergarten",
                "note": "Parent RSPO: 22297"
            }
        },
        {
            "id": 64571,
            "type": "Feature",
            "geometry": {
                "type": "Point",
                "coordinates": [
                    17.98299,
                    50.3092
                ]
            },
            "properties": {
                "ref:rspo": 64571,
                "official_name": "Publiczne Przedszkole w Trawnikach",
                "name": "Publiczne Przedszkole w Trawnikach",
                "addr:country": "PL",
                "addr:postcode": "47-270",
                "addr:city": "Trawniki",
                "addr:street": "Szkolna",
                "addr:housenumber": "9",
                "addr:teryt:simc": 21970,
                "addr:teryt:sym_ul": 501819,
                "contact:phone": "+48 774879123",
                "ref:regon": "532460876",
                "operator": "Gmina Paw\u0142owiczki",
                "operator:type": "government",
                "amenity": "kindergarten",
                "note": "Parent RSPO: 22297"
            }
        },
        {
            "id": 18205,
            "type": "Feature",
            "geometry": {
                "type": "Point",
                "coordinates": [
                    17.94352,
                    50.31321
                ]
            },
            "properties": {
                "isced:level": "1;2",
                "ref:rspo": 18205,
                "official_name": "Publiczna Szko\u0142a Podstawowa w Nacz\u0119s\u0142awicach",
                "name": "Publiczna Szko\u0142a Podstawowa w Nacz\u0119s\u0142awicach",
                "addr:country": "PL",
                "addr:postcode": "47-270",
                "addr:city": "Nacz\u0119s\u0142awice",
                "addr:street": "G\u0142\u00f3wna",
                "addr:housenumber": "19",
                "addr:teryt:simc": 5635,
                "addr:teryt:sym_ul": 501720,
                "contact:phone": "+48 774879213",
                "contact:email": "pspnaczeslawice@tlen.pl",
                "ref:regon": "001196264",
                "ref:vatin": "PL7491866088",
                "operator": "Gmina Paw\u0142owiczki",
                "operator:type": "government",
                "amenity": "school"
            }
        }
    ]
}