{
    "type": "FeatureCollection",
    "features": [
        {
            "id": 56420,
            "type": "Feature",
            "geometry": {
                "type": "Point",
                "coordinates": [
                    18.14879,
                    50.28331
                ]
            },
            "properties": {
                "ref:rspo": 56420,
                "official_name": "Zesp\u00f3\u0142 Szkolno-Przedszkolny w D\u0142ugomi\u0142owicach",
                "name": "Zesp\u00f3\u0142 Szkolno-Przedszkolny w D\u0142ugomi\u0142owicach",
                "addr:country": "PL",
                "addr:postcode": "47-208",
                "addr:city": "D\u0142ugomi\u0142owice",
                "addr:street": "Parkowa",
                "addr:housenumber": "8",
                "addr:teryt:simc": 502799,
                "addr:teryt:sym_ul": 15710,
                "contact:phone": "+48 774820613",
                "contact:email": "pspdlugomilowice@op.pl",
                "contact:website": "http:\/\/pg2dlugomilowice.edu.pl",
                "ref:regon": "160207760",
                "ref:vatin": "PL7492040605",
                "operator": "Gmina Re\u0144ska Wie\u015b",
                "operator:type": "government",
                "landuse": "education",
                "fixme": "amenity=school, amenity=college albo landuse=education w zale\u017cno\u015bci od tego, jakie plac\u00f3wki wchodz\u0105 w sk\u0142ad zespo\u0142u. Sprawd\u017a, kiedy stosowa\u0107 amenity=* a kiedy landuse=education.",
                "note": "Children RSPO: 81816;130129"
            }
        },
        {
            "id": 81816,
            "type": "Feature",
            "geometry": {
                "type": "Point",
                "coordinates": [
                    18.14879,
                    50.28328
                ]
            },
            "properties": {
                "isced:level": "1;2",
                "ref:rspo": 81816,
                "official_name": "Publiczna Szko\u0142a Podstawowa w D\u0142ugomi\u0142owicach",
                "name": "Publiczna Szko\u0142a Podstawowa w D\u0142ugomi\u0142owicach",
                "addr:country": "PL",
                "addr:postcode": "47-208",
                "addr:city": "D\u0142ugomi\u0142owice",
                "addr:street": "Parkowa",
                "addr:housenumber": "8",
                "addr:teryt:simc": 502799,
                "addr:teryt:sym_ul": 15710,
                "contact:phone": "+48 774820613",
                "contact:email": "pspdlugomilowice@op.pl",
                "contact:website": "http:\/\/pg2dlugomilowice.edu.pl",
                "ref:regon": "001195419",
                "operator": "Gmina Re\u0144ska Wie\u015b",
                "operator:type": "government",
                "amenity": "school",
                "note": "Parent RSPO: 56420"
            }
        },
        {
            "id": 130129,
            "type": "Feature",
            "geometry": {
                "type": "Point",
                "coordinates": [
                    18.14879,
                    50.28325
                ]
            },
            "properties": {
                "ref:rspo": 130129,
                "official_name": "Publiczne Przedszkole w D\u0142ugomi\u0142owicach",
                "name": "Publiczne Przedszkole w D\u0142ugomi\u0142owicach",
                "addr:country": "PL",
                "addr:postcode": "47-208",
                "addr:city": "D\u0142ugomi\u0142owice",
                "addr:street": "Parkowa",
                "addr:housenumber": "8",
                "addr:teryt:simc": 502799,
                "addr:teryt:sym_ul": 15710,
                "contact:phone": "+48 774820613",
                "contact:email": "pspdlugomilowice@op.pl",
                "contact:website": "http:\/\/pg2dlugomilowice.edu.pl",
                "ref:regon": "363524851",
                "operator": "Gmina Re\u0144ska Wie\u015b",
                "operator:type": "government",
                "amenity": "kindergarten",
                "note": "Parent RSPO: 56420"
            }
        },
        {
            "id": 56416,
            "type": "Feature",
            "geometry": {
                "type": "Point",
                "coordinates": [
                    18.12884,
                    50.31413
                ]
            },
            "properties": {
                "ref:rspo": 56416,
                "official_name": "Zesp\u00f3\u0142 Szkolno-Przedszkolny w Re\u0144skiej Wsi",
                "name": "Zesp\u00f3\u0142 Szkolno-Przedszkolny w Re\u0144skiej Wsi",
                "addr:country": "PL",
                "addr:postcode": "47-208",
                "addr:city": "Re\u0144ska Wie\u015b",
                "addr:street": "Raciborska",
                "addr:housenumber": "27",
                "addr:teryt:simc": 502902,
                "addr:teryt:sym_ul": 18263,
                "contact:phone": "+48 774820150",
                "contact:email": "zsprw@tlen.pl",
                "contact:website": "http:\/\/zsprw.pl",
                "ref:regon": "160202432",
                "ref:vatin": "PL7492039602",
                "operator": "Gmina Re\u0144ska Wie\u015b",
                "operator:type": "government",
                "landuse": "education",
                "fixme": "amenity=school, amenity=college albo landuse=education w zale\u017cno\u015bci od tego, jakie plac\u00f3wki wchodz\u0105 w sk\u0142ad zespo\u0142u. Sprawd\u017a, kiedy stosowa\u0107 amenity=* a kiedy landuse=education.",
                "note": "Children RSPO: 81345;81348"
            }
        },
        {
            "id": 81345,
            "type": "Feature",
            "geometry": {
                "type": "Point",
                "coordinates": [
                    18.12884,
                    50.314099999999996
                ]
            },
            "properties": {
                "ref:rspo": 81345,
                "official_name": "Zesp\u00f3\u0142 Szkolno-Przedszkolny w Re\u0144skiej Wsi\nPubliczne Przedszkole w Re\u0144skiej Wsi",
                "name": "Zesp\u00f3\u0142 Szkolno-Przedszkolny w Re\u0144skiej Wsi\nPubliczne Przedszkole w Re\u0144skiej Wsi",
                "addr:country": "PL",
                "addr:postcode": "47-208",
                "addr:city": "Re\u0144ska Wie\u015b",
                "addr:street": "Raciborska",
                "addr:housenumber": "27",
                "addr:teryt:simc": 502902,
                "addr:teryt:sym_ul": 18263,
                "contact:phone": "+48 774820150",
                "contact:email": "zsprw@tlen.pl",
                "contact:website": "http:\/\/zsprw.pl",
                "ref:regon": "530584143",
                "operator": "Gmina Re\u0144ska Wie\u015b",
                "operator:type": "government",
                "amenity": "kindergarten",
                "note": "Parent RSPO: 56416"
            }
        },
        {
            "id": 81348,
            "type": "Feature",
            "geometry": {
                "type": "Point",
                "coordinates": [
                    18.12884,
                    50.31407
                ]
            },
            "properties": {
                "isced:level": "1;2",
                "ref:rspo": 81348,
                "official_name": "Zesp\u00f3\u0142 Szkolno-Przedszkolny w Re\u0144skiej Wsi Publiczna Szko\u0142a Podstawowa w Re\u0144skiej Wsi",
                "name": "Zesp\u00f3\u0142 Szkolno-Przedszkolny w Re\u0144skiej Wsi Publiczna Szko\u0142a Podstawowa w Re\u0144skiej Wsi",
                "addr:country": "PL",
                "addr:postcode": "47-208",
                "addr:city": "Re\u0144ska Wie\u015b",
                "addr:street": "Raciborska",
                "addr:housenumber": "27",
                "addr:teryt:simc": 502902,
                "addr:teryt:sym_ul": 18263,
                "contact:phone": "+48 774820150",
                "contact:email": "zsprw@tlen.pl",
                "contact:website": "http:\/\/zsprw.pl",
                "ref:regon": "000272454",
                "operator": "Gmina Re\u0144ska Wie\u015b",
                "operator:type": "government",
                "amenity": "school",
                "note": "Parent RSPO: 56416"
            }
        },
        {
            "id": 56418,
            "type": "Feature",
            "geometry": {
                "type": "Point",
                "coordinates": [
                    18.06542,
                    50.33528
                ]
            },
            "properties": {
                "ref:rspo": 56418,
                "official_name": "Zesp\u00f3\u0142 Szkolno-Przedszkolny w Pokrzywnicy",
                "name": "Zesp\u00f3\u0142 Szkolno-Przedszkolny w Pokrzywnicy",
                "addr:country": "PL",
                "addr:postcode": "47-208",
                "addr:city": "Pokrzywnica",
                "addr:street": "Szkolna",
                "addr:housenumber": "14A",
                "addr:teryt:simc": 502888,
                "addr:teryt:sym_ul": 21970,
                "contact:phone": "+48 774820147",
                "contact:email": "szkola.pokrzywnica@wp.pl",
                "contact:website": "http:\/\/zsppokrzywnica.pl",
                "ref:regon": "532327781",
                "ref:vatin": "PL7491924756",
                "operator": "Gmina Re\u0144ska Wie\u015b",
                "operator:type": "government",
                "landuse": "education",
                "fixme": "amenity=school, amenity=college albo landuse=education w zale\u017cno\u015bci od tego, jakie plac\u00f3wki wchodz\u0105 w sk\u0142ad zespo\u0142u. Sprawd\u017a, kiedy stosowa\u0107 amenity=* a kiedy landuse=education.",
                "note": "Children RSPO: 81750;81752"
            }
        },
        {
            "id": 81750,
            "type": "Feature",
            "geometry": {
                "type": "Point",
                "coordinates": [
                    18.06542,
                    50.335249999999995
                ]
            },
            "properties": {
                "ref:rspo": 81750,
                "official_name": "Publiczne Przedszkole w Pokrzywnicy",
                "name": "Publiczne Przedszkole w Pokrzywnicy",
                "addr:country": "PL",
                "addr:postcode": "47-208",
                "addr:city": "Pokrzywnica",
                "addr:street": "Szkolna",
                "addr:housenumber": "14A",
                "addr:teryt:simc": 502888,
                "addr:teryt:sym_ul": 21970,
                "contact:phone": "+48 774820147",
                "contact:email": "szkola.pokrzywnica@wp.pl",
                "contact:website": "http:\/\/zsppokrzywnica.pl",
                "ref:regon": "530584120",
                "operator": "Gmina Re\u0144ska Wie\u015b",
                "operator:type": "government",
                "amenity": "kindergarten",
                "note": "Parent RSPO: 56418"
            }
        },
        {
            "id": 81752,
            "type": "Feature",
            "geometry": {
                "type": "Point",
                "coordinates": [
                    18.06542,
                    50.33522
                ]
            },
            "properties": {
                "isced:level": "1;2",
                "ref:rspo": 81752,
                "official_name": "Publiczna Szko\u0142a Podstawowa w Pokrzywnicy",
                "name": "Publiczna Szko\u0142a Podstawowa w Pokrzywnicy",
                "addr:country": "PL",
                "addr:postcode": "47-208",
                "addr:city": "Pokrzywnica",
                "addr:street": "Szkolna",
                "addr:housenumber": "14A",
                "addr:teryt:simc": 502888,
                "addr:teryt:sym_ul": 21970,
                "contact:phone": "+48 774820147",
                "contact:email": "szkola.pokrzywnica@wp.pl",
                "contact:website": "http:\/\/zsppokrzywnica.pl",
                "ref:regon": "001195589",
                "operator": "Gmina Re\u0144ska Wie\u015b",
                "operator:type": "government",
                "amenity": "school",
                "note": "Parent RSPO: 56418"
            }
        },
        {
            "id": 56419,
            "type": "Feature",
            "geometry": {
                "type": "Point",
                "coordinates": [
                    18.10188,
                    50.33747
                ]
            },
            "properties": {
                "ref:rspo": 56419,
                "official_name": "Zesp\u00f3\u0142 Szkolno-Przedszkolny w Wi\u0119kszycach",
                "name": "Zesp\u00f3\u0142 Szkolno-Przedszkolny w Wi\u0119kszycach",
                "addr:country": "PL",
                "addr:postcode": "47-208",
                "addr:city": "Wi\u0119kszyce",
                "addr:street": "Szkolna",
                "addr:housenumber": "4",
                "addr:teryt:simc": 502919,
                "addr:teryt:sym_ul": 21970,
                "contact:phone": "+48 774820158",
                "contact:email": "szkola@zspwiekszyce.pl",
                "contact:website": "http:\/\/www.zspwiekszyce.pl\/",
                "ref:regon": "532404889",
                "ref:vatin": "PL7491943446",
                "operator": "Gmina Re\u0144ska Wie\u015b",
                "operator:type": "government",
                "landuse": "education",
                "fixme": "amenity=school, amenity=college albo landuse=education w zale\u017cno\u015bci od tego, jakie plac\u00f3wki wchodz\u0105 w sk\u0142ad zespo\u0142u. Sprawd\u017a, kiedy stosowa\u0107 amenity=* a kiedy landuse=education.",
                "note": "Children RSPO: 81718;81719"
            }
        },
        {
            "id": 81718,
            "type": "Feature",
            "geometry": {
                "type": "Point",
                "coordinates": [
                    18.10188,
                    50.33744
                ]
            },
            "properties": {
                "isced:level": "1;2",
                "ref:rspo": 81718,
                "official_name": "Zesp\u00f3\u0142 Szkolno-Przedszkolny w Wi\u0119kszycach\nPubliczna Szko\u0142a Podstawowa w Wi\u0119kszycach",
                "name": "Zesp\u00f3\u0142 Szkolno-Przedszkolny w Wi\u0119kszycach\nPubliczna Szko\u0142a Podstawowa w Wi\u0119kszycach",
                "addr:country": "PL",
                "addr:postcode": "47-208",
                "addr:city": "Wi\u0119kszyce",
                "addr:street": "Szkolna",
                "addr:housenumber": "4",
                "addr:teryt:simc": 502919,
                "addr:teryt:sym_ul": 21970,
                "contact:phone": "+48 774820158",
                "contact:email": "szkola@zspwiekszyce.pl",
                "contact:website": "http:\/\/zspwiekszyce.pl",
                "ref:regon": "001195230",
                "operator": "Gmina Re\u0144ska Wie\u015b",
                "operator:type": "government",
                "amenity": "school",
                "note": "Parent RSPO: 56419"
            }
        },
        {
            "id": 81719,
            "type": "Feature",
            "geometry": {
                "type": "Point",
                "coordinates": [
                    18.10188,
                    50.337410000000006
                ]
            },
            "properties": {
                "ref:rspo": 81719,
                "official_name": "Publiczne Przedszkole w Wi\u0119kszycach",
                "name": "Publiczne Przedszkole w Wi\u0119kszycach",
                "addr:country": "PL",
                "addr:postcode": "47-208",
                "addr:city": "Wi\u0119kszyce",
                "addr:street": "Szkolna",
                "addr:housenumber": "4",
                "addr:teryt:simc": 502919,
                "addr:teryt:sym_ul": 21970,
                "contact:phone": "+48 774820158",
                "contact:email": "szkola@zspwiekszyce.pl",
                "ref:regon": "530584114",
                "operator": "Gmina Re\u0144ska Wie\u015b",
                "operator:type": "government",
                "amenity": "kindergarten",
                "note": "Parent RSPO: 56419"
            }
        },
        {
            "id": 56422,
            "type": "Feature",
            "geometry": {
                "type": "Point",
                "coordinates": [
                    18.06211,
                    50.39717
                ]
            },
            "properties": {
                "isced:level": "1;2",
                "ref:rspo": 56422,
                "official_name": "Spo\u0142eczna Szko\u0142a Podstawowa im. Ks. Jana Twardowskiego w Mechnicy",
                "name": "Spo\u0142eczna Szko\u0142a Podstawowa",
                "addr:country": "PL",
                "addr:postcode": "47-214",
                "addr:city": "Mechnica",
                "addr:street": "Kwiatowa",
                "addr:housenumber": "4",
                "addr:teryt:simc": 502842,
                "addr:teryt:sym_ul": 10562,
                "contact:phone": "+48 774821580",
                "contact:email": "sekretariatsspm@wp.pl",
                "contact:website": "http:\/\/mechnica.szkolnastrona.pl",
                "ref:regon": "161491208",
                "ref:vatin": "PL7491899923",
                "operator": "Stowarzyszenie Na Rzecz Rozwoju Wsi Mechnica",
                "operator:type": "ngo",
                "amenity": "school"
            }
        },
        {
            "id": 56421,
            "type": "Feature",
            "geometry": {
                "type": "Point",
                "coordinates": [
                    18.05617,
                    50.39811
                ]
            },
            "properties": {
                "ref:rspo": 56421,
                "official_name": "Przedszkole Publiczne w Mechnicy",
                "name": "Przedszkole Publiczne w Mechnicy",
                "addr:country": "PL",
                "addr:postcode": "47-214",
                "addr:city": "Mechnica",
                "addr:street": "M\u0142y\u0144ska",
                "addr:housenumber": "40",
                "addr:teryt:simc": 502842,
                "addr:teryt:sym_ul": 13132,
                "contact:phone": "+48 774828430",
                "contact:email": "przedszkolemechnica@wp.pl",
                "ref:regon": "530584150",
                "ref:vatin": "PL7491868466",
                "operator": "Gmina Re\u0144ska Wie\u015b",
                "operator:type": "government",
                "amenity": "kindergarten"
            }
        }
    ]
}