{
    "type": "FeatureCollection",
    "features": [
        {
            "id": 29996,
            "type": "Feature",
            "geometry": {
                "type": "Point",
                "coordinates": [
                    20.28768,
                    53.16414
                ]
            },
            "properties": {
                "ref:rspo": 29996,
                "official_name": "Zesp\u00f3\u0142 Szk\u00f3\u0142 Technicznych I Og\u00f3lnokszta\u0142c\u0105cych im. Ks. Edmunda Doma\u0144skiego w I\u0142owie-Osadzie",
                "name": "Zesp\u00f3\u0142 Szk\u00f3\u0142 Technicznych I Og\u00f3lnokszta\u0142c\u0105cych",
                "addr:postcode": "13-240",
                "addr:city": "I\u0142owo-Osada",
                "addr:street": "Le\u015bna",
                "addr:housenumber": "10a",
                "addr:city:simc": 116435,
                "addr:street:sym_ul": 10898,
                "phone": "+48 236541011",
                "email": "sekretariat@zstio-ilowo.edu.pl",
                "website": "http:\/\/www.zstio-ilowo.edu.pl",
                "ref:regon": "519461860",
                "ref:vatin": "PL5711041013",
                "operator": "Powiat Dzia\u0142dowski",
                "operator:type": "government",
                "landuse": "education",
                "fixme": "amenity=school, amenity=college albo landuse=education w zale\u017cno\u015bci od tego, jakie plac\u00f3wki wchodz\u0105 w sk\u0142ad zespo\u0142u. Sprawd\u017a, kiedy stosowa\u0107 amenity=* a kiedy landuse=education.",
                "note": "Children RSPO: 68039;68041;68233"
            }
        },
        {
            "id": 68039,
            "type": "Feature",
            "geometry": {
                "type": "Point",
                "coordinates": [
                    20.28768,
                    53.16411
                ]
            },
            "properties": {
                "isced:level": "3",
                "ref:rspo": 68039,
                "official_name": "Technikum w Zespole Szk\u00f3\u0142 Technicznych I Og\u00f3lnokszta\u0142c\u0105cych im. Ks. Edmunda Doma\u0144skiego w I\u0142owie - Osadzie",
                "name": "Technikum w Zespole Szk\u00f3\u0142 Technicznych I Og\u00f3lnokszta\u0142c\u0105cych",
                "addr:postcode": "13-240",
                "addr:city": "I\u0142owo-Osada",
                "addr:street": "Le\u015bna",
                "addr:housenumber": "10a",
                "addr:city:simc": 116435,
                "addr:street:sym_ul": 10898,
                "phone": "+48 236541011",
                "email": "zszilowo@mailbox.olsztyn.pl",
                "website": "http:\/\/www.zstio-ilowo.edu.pl",
                "ref:regon": "519461966",
                "operator": "Powiat Dzia\u0142dowski",
                "operator:type": "government",
                "amenity": "school",
                "note": "Parent RSPO: 29996"
            }
        },
        {
            "id": 68041,
            "type": "Feature",
            "geometry": {
                "type": "Point",
                "coordinates": [
                    20.28768,
                    53.164080000000006
                ]
            },
            "properties": {
                "isced:level": "3",
                "ref:rspo": 68041,
                "official_name": "Bran\u017cowa Szko\u0142a I Stopnia w I\u0142owie - Osadzie",
                "name": "Bran\u017cowa Szko\u0142a I Stopnia w I\u0142owie - Osadzie",
                "addr:postcode": "13-240",
                "addr:city": "I\u0142owo-Osada",
                "addr:street": "Le\u015bna",
                "addr:housenumber": "10a",
                "addr:city:simc": 116435,
                "addr:street:sym_ul": 10898,
                "phone": "+48 236541011",
                "email": "zszilowo@mailbox.olsztyn.pl",
                "website": "http:\/\/www.zstio-ilowo.edu.pl",
                "ref:regon": "519461972",
                "operator": "Powiat Dzia\u0142dowski",
                "operator:type": "government",
                "amenity": "school",
                "note": "Parent RSPO: 29996"
            }
        },
        {
            "id": 68233,
            "type": "Feature",
            "geometry": {
                "type": "Point",
                "coordinates": [
                    20.28768,
                    53.16405
                ]
            },
            "properties": {
                "isced:level": "3",
                "ref:rspo": 68233,
                "official_name": "Liceum Og\u00f3lnokszta\u0142c\u0105ce w Zespole Szk\u00f3\u0142 Technicznych I Og\u00f3lnokszta\u0142c\u0105cych im. Ks. Edmunda Doma\u0144skiego w I\u0142owie - Osadzie",
                "name": "Liceum Og\u00f3lnokszta\u0142c\u0105ce w Zespole Szk\u00f3\u0142 Technicznych I Og\u00f3lnokszta\u0142c\u0105cych",
                "addr:postcode": "13-240",
                "addr:city": "I\u0142owo-Osada",
                "addr:street": "Le\u015bna",
                "addr:housenumber": "10a",
                "addr:city:simc": 116435,
                "addr:street:sym_ul": 10898,
                "phone": "+48 236541011",
                "email": "zszilowo@mailbox.olsztyn.pl",
                "website": "http:\/\/www.zstio-ilowo.edu.pl",
                "ref:regon": "280426325",
                "operator": "Powiat Dzia\u0142dowski",
                "operator:type": "government",
                "amenity": "school",
                "note": "Parent RSPO: 29996"
            }
        },
        {
            "id": 79686,
            "type": "Feature",
            "geometry": {
                "type": "Point",
                "coordinates": [
                    20.29347,
                    53.1689099
                ]
            },
            "properties": {
                "ref:rspo": 79686,
                "official_name": "Zesp\u00f3\u0142 Szk\u00f3\u0142 nr 1 im. Miko\u0142aja Kopernika w I\u0142owie - Osadzie",
                "name": "Zesp\u00f3\u0142 Szk\u00f3\u0142 nr 1",
                "addr:postcode": "13-240",
                "addr:city": "I\u0142owo-Osada",
                "addr:street": "Wyzwolenia",
                "addr:housenumber": "11",
                "addr:city:simc": 116435,
                "addr:street:sym_ul": 25133,
                "phone": "+48 236541028",
                "email": "sekretariat@zsilowo.pl",
                "website": "http:\/\/zsilowo.pl",
                "ref:regon": "510885067",
                "ref:vatin": "PL5711674178",
                "operator": "Gmina I\u0142owo-Osada",
                "operator:type": "government",
                "landuse": "education",
                "fixme": "amenity=school, amenity=college albo landuse=education w zale\u017cno\u015bci od tego, jakie plac\u00f3wki wchodz\u0105 w sk\u0142ad zespo\u0142u. Sprawd\u017a, kiedy stosowa\u0107 amenity=* a kiedy landuse=education.",
                "note": "Children RSPO: 87146;87147;277273"
            }
        },
        {
            "id": 87146,
            "type": "Feature",
            "geometry": {
                "type": "Point",
                "coordinates": [
                    20.29347,
                    53.1688799
                ]
            },
            "properties": {
                "ref:rspo": 87146,
                "official_name": "Przedszkole w I\u0142owie - Osadzie",
                "name": "Przedszkole w I\u0142owie - Osadzie",
                "addr:postcode": "13-240",
                "addr:city": "I\u0142owo-Osada",
                "addr:street": "Wyzwolenia",
                "addr:housenumber": "11",
                "addr:city:simc": 116435,
                "addr:street:sym_ul": 25133,
                "phone": "+48 236541028",
                "email": "skolailowo@wp.pl",
                "website": "http:\/\/zsilowo.pl",
                "ref:regon": "130004490",
                "operator": "Gmina I\u0142owo-Osada",
                "operator:type": "government",
                "amenity": "kindergarten",
                "note": "Parent RSPO: 79686"
            }
        },
        {
            "id": 87147,
            "type": "Feature",
            "geometry": {
                "type": "Point",
                "coordinates": [
                    20.29347,
                    53.168849900000005
                ]
            },
            "properties": {
                "isced:level": "1;2",
                "ref:rspo": 87147,
                "official_name": "Szko\u0142a Podstawowa im. Miko\u0142aja Kopernika w I\u0142owie - Osadzie",
                "name": "Szko\u0142a Podstawowa",
                "addr:postcode": "13-240",
                "addr:city": "I\u0142owo-Osada",
                "addr:street": "Wyzwolenia",
                "addr:housenumber": "11",
                "addr:city:simc": 116435,
                "addr:street:sym_ul": 25133,
                "phone": "+48 236541028",
                "email": "skolailowo@wp.pl",
                "website": "http:\/\/zsilowo.pl",
                "ref:regon": "519457195",
                "operator": "Gmina I\u0142owo-Osada",
                "operator:type": "government",
                "amenity": "school",
                "note": "Parent RSPO: 79686"
            }
        },
        {
            "id": 80486,
            "type": "Feature",
            "geometry": {
                "type": "Point",
                "coordinates": [
                    20.29156,
                    53.17274
                ]
            },
            "properties": {
                "ref:rspo": 80486,
                "official_name": "Przedszkole Imieniem \u015awi\u0119tego J\u00f3zefa w I\u0142owie - Osadzie",
                "name": "Przedszkole Imieniem \u015awi\u0119tego J\u00f3zefa w I\u0142owie - Osadzie",
                "addr:postcode": "12-240",
                "addr:city": "I\u0142owo-Osada",
                "addr:street": "W\u0142adys\u0142awa Broniewskiego",
                "addr:housenumber": "5",
                "addr:city:simc": 116435,
                "addr:street:sym_ul": 2120,
                "phone": "+48 236541017",
                "email": "cssjilowo@wp.pl",
                "ref:regon": "281448599",
                "ref:vatin": "PL5711683409",
                "operator": "Zgromadzenie Si\u00f3str \u015aw. J\u00f3zefa, Prowincja Wroc\u0142awska",
                "operator:type": "religious",
                "amenity": "kindergarten"
            }
        },
        {
            "id": 79695,
            "type": "Feature",
            "geometry": {
                "type": "Point",
                "coordinates": [
                    20.25958,
                    53.18538
                ]
            },
            "properties": {
                "ref:rspo": 79695,
                "official_name": "Zesp\u00f3\u0142 Szk\u00f3\u0142 nr 2 im. Jana Paw\u0142a II w Narzymiu",
                "name": "Zesp\u00f3\u0142 Szk\u00f3\u0142 nr 2",
                "addr:postcode": "13-240",
                "addr:city": "Narzym",
                "addr:street": "Ko\u015bcielna",
                "addr:housenumber": "14",
                "addr:city:simc": 116518,
                "addr:street:sym_ul": 9546,
                "phone": "+48 236541528",
                "email": "zsnarzym@wp.pl",
                "website": "http:\/\/www.zsnarzym.ayz.pl",
                "ref:regon": "510885044",
                "ref:vatin": "PL5711673865",
                "operator": "Gmina I\u0142owo-Osada",
                "operator:type": "government",
                "landuse": "education",
                "fixme": "amenity=school, amenity=college albo landuse=education w zale\u017cno\u015bci od tego, jakie plac\u00f3wki wchodz\u0105 w sk\u0142ad zespo\u0142u. Sprawd\u017a, kiedy stosowa\u0107 amenity=* a kiedy landuse=education.",
                "note": "Children RSPO: 87150;87151"
            }
        },
        {
            "id": 87150,
            "type": "Feature",
            "geometry": {
                "type": "Point",
                "coordinates": [
                    20.25958,
                    53.18535
                ]
            },
            "properties": {
                "ref:rspo": 87150,
                "official_name": "Przedszkole w Narzymiu",
                "name": "Przedszkole w Narzymiu",
                "addr:postcode": "13-240",
                "addr:city": "Narzym",
                "addr:street": "Ko\u015bcielna",
                "addr:housenumber": "14",
                "addr:city:simc": 116518,
                "addr:street:sym_ul": 9546,
                "phone": "+48 236541528",
                "email": "zsnarzym@wp.pl",
                "website": "http:\/\/www.zsnarzym.ayz.pl",
                "ref:regon": "519456617",
                "operator": "Gmina I\u0142owo-Osada",
                "operator:type": "government",
                "amenity": "kindergarten",
                "note": "Parent RSPO: 79695"
            }
        },
        {
            "id": 87151,
            "type": "Feature",
            "geometry": {
                "type": "Point",
                "coordinates": [
                    20.25958,
                    53.185320000000004
                ]
            },
            "properties": {
                "isced:level": "1;2",
                "ref:rspo": 87151,
                "official_name": "Szko\u0142a Podstawowa im. Karola Ma\u0142\u0142ka w Narzymiu",
                "name": "Szko\u0142a Podstawowa",
                "addr:postcode": "13-240",
                "addr:city": "Narzym",
                "addr:street": "Ko\u015bcielna",
                "addr:housenumber": "14",
                "addr:city:simc": 116518,
                "addr:street:sym_ul": 9546,
                "phone": "+48 236541528",
                "email": "zsnarzym@wp.pl",
                "website": "http:\/\/www.zsnarzym.ayz.pl",
                "ref:regon": "519456592",
                "operator": "Gmina I\u0142owo-Osada",
                "operator:type": "government",
                "amenity": "school",
                "note": "Parent RSPO: 79695"
            }
        },
        {
            "id": 133015,
            "type": "Feature",
            "geometry": {
                "type": "Point",
                "coordinates": [
                    20.3933104,
                    53.2104464
                ]
            },
            "properties": {
                "isced:level": "1;2",
                "ref:rspo": 133015,
                "official_name": "Szko\u0142a Podstawowa w Bia\u0142utach",
                "name": "Szko\u0142a Podstawowa w Bia\u0142utach",
                "addr:postcode": "13-240",
                "addr:place": "Bia\u0142uty",
                "addr:housenumber": "1",
                "addr:city:simc": 116369,
                "phone": "+48 236541453",
                "email": "spbialuty@interia.pl",
                "website": "http:\/\/spbialuty.edupage.org",
                "ref:regon": "366516622",
                "ref:vatin": "PL5711674505",
                "operator": "Stowarzyszenie Spo\u0142eczno-O\u015bwiatowe \"\u017baczek\"",
                "operator:type": "ngo",
                "amenity": "school"
            }
        },
        {
            "id": 277273,
            "type": "Feature",
            "geometry": {
                "type": "Point",
                "coordinates": [
                    20.40015,
                    53.21235
                ]
            },
            "properties": {
                "ref:rspo": 277273,
                "official_name": "Punkt Przedszkolny w Bia\u0142utach",
                "name": "Punkt Przedszkolny w Bia\u0142utach",
                "addr:postcode": "13-240",
                "addr:place": "Bia\u0142uty",
                "addr:housenumber": "53 C",
                "addr:city:simc": 116369,
                "phone": "+48 236541028",
                "email": "skolailowo@wp.pl",
                "ref:regon": "388492436",
                "operator": "Gmina I\u0142owo-Osada",
                "operator:type": "government",
                "amenity": "kindergarten",
                "note": "Parent RSPO: 79686"
            }
        }
    ]
}