{
    "type": "FeatureCollection",
    "features": [
        {
            "id": 18506,
            "type": "Feature",
            "geometry": {
                "type": "Point",
                "coordinates": [
                    20.1395275,
                    53.1587812
                ]
            },
            "properties": {
                "isced:level": "1;2",
                "ref:rspo": 18506,
                "official_name": "Szko\u0142a Podstawowa w Petrykozach",
                "name": "Szko\u0142a Podstawowa w Petrykozach",
                "addr:country": "PL",
                "addr:postcode": "13-200",
                "addr:place": "Petrykozy",
                "addr:housenumber": "59",
                "addr:teryt:simc": 113678,
                "contact:phone": "+48 236969216",
                "contact:email": "sp.petrykozy@gminadzialdowo.pl",
                "contact:website": "http:\/\/www.sp-petrykozy.szkolnastrona.pl",
                "ref:regon": "001137511",
                "ref:vatin": "PL5711659919",
                "operator": "Gmina Dzia\u0142dowo",
                "operator:type": "government",
                "amenity": "school"
            }
        },
        {
            "id": 24428,
            "type": "Feature",
            "geometry": {
                "type": "Point",
                "coordinates": [
                    20.1358884,
                    53.2164952
                ]
            },
            "properties": {
                "isced:level": "1;2",
                "ref:rspo": 24428,
                "official_name": "Szko\u0142a Podstawowa im. Janusza Korczaka w Ksi\u0119\u017cym Dworze",
                "name": "Szko\u0142a Podstawowa",
                "addr:country": "PL",
                "addr:postcode": "13-200",
                "addr:place": "Ksi\u0119\u017cy Dw\u00f3r",
                "addr:housenumber": "32",
                "addr:teryt:simc": 113595,
                "contact:phone": "+48 236972575",
                "contact:email": "sp.ksiezydwor@gminadzialdowo.pl",
                "contact:website": "http:\/\/www.szkolaksiezydwor.warmia.info",
                "ref:regon": "001137600",
                "ref:vatin": "PL5711659960",
                "operator": "Gmina Dzia\u0142dowo",
                "operator:type": "government",
                "amenity": "school"
            }
        },
        {
            "id": 29999,
            "type": "Feature",
            "geometry": {
                "type": "Point",
                "coordinates": [
                    20.229222,
                    53.2433819
                ]
            },
            "properties": {
                "ref:rspo": 29999,
                "official_name": "Zesp\u00f3\u0142 Szk\u00f3\u0142 im. Emilii Sukertowej-Biedrawiny w Malinowie",
                "name": "Zesp\u00f3\u0142 Szk\u00f3\u0142",
                "addr:country": "PL",
                "addr:postcode": "13-200",
                "addr:place": "Malinowo",
                "addr:housenumber": "10",
                "addr:teryt:simc": 113632,
                "contact:phone": "+48 236974163",
                "contact:email": "sekretariat@malinowo.org",
                "contact:website": "https:\/\/zsmalinowo.com\/",
                "ref:regon": "280496389",
                "ref:vatin": "PL5711695217",
                "operator": "Powiat Dzia\u0142dowski",
                "operator:type": "government",
                "landuse": "education",
                "fixme": "amenity=school, amenity=college albo landuse=education w zale\u017cno\u015bci od tego, jakie plac\u00f3wki wchodz\u0105 w sk\u0142ad zespo\u0142u. Sprawd\u017a, kiedy stosowa\u0107 amenity=* a kiedy landuse=education.",
                "note": "Children RSPO: 57610;57611;57613"
            }
        },
        {
            "id": 57610,
            "type": "Feature",
            "geometry": {
                "type": "Point",
                "coordinates": [
                    20.229222,
                    53.2433519
                ]
            },
            "properties": {
                "isced:level": "3",
                "ref:rspo": 57610,
                "official_name": "Technikum w Zespole Szk\u00f3\u0142 im. Emilii Sukertowej - Biedrawiny w Malinowie",
                "name": "Technikum w Zespole Szk\u00f3\u0142",
                "addr:country": "PL",
                "addr:postcode": "13-200",
                "addr:place": "Malinowo",
                "addr:housenumber": "10",
                "addr:teryt:simc": 113632,
                "contact:phone": "+48 236974163",
                "contact:email": "sekretariat@malinowo.org",
                "contact:website": "https:\/\/zsmalinowo.com\/",
                "ref:regon": "280170334",
                "operator": "Powiat Dzia\u0142dowski",
                "operator:type": "government",
                "amenity": "school",
                "note": "Parent RSPO: 29999"
            }
        },
        {
            "id": 57611,
            "type": "Feature",
            "geometry": {
                "type": "Point",
                "coordinates": [
                    20.229222,
                    53.243321900000005
                ]
            },
            "properties": {
                "isced:level": "3",
                "ref:rspo": 57611,
                "official_name": "Bran\u017cowa Szko\u0142a I Stopnia w Malinowie",
                "name": "Bran\u017cowa Szko\u0142a I Stopnia w Malinowie",
                "addr:country": "PL",
                "addr:postcode": "13-200",
                "addr:place": "Malinowo",
                "addr:housenumber": "10",
                "addr:teryt:simc": 113632,
                "contact:phone": "+48 236974163",
                "contact:email": "sekretariat@malinowo.org",
                "contact:website": "https:\/\/zsmalinowo.com\/",
                "ref:regon": "519457077",
                "operator": "Powiat Dzia\u0142dowski",
                "operator:type": "government",
                "amenity": "school",
                "note": "Parent RSPO: 29999"
            }
        },
        {
            "id": 57613,
            "type": "Feature",
            "geometry": {
                "type": "Point",
                "coordinates": [
                    20.229222,
                    53.2432919
                ]
            },
            "properties": {
                "isced:level": "4",
                "ref:rspo": 57613,
                "official_name": "Szko\u0142a Policealna w Zespole Szk\u00f3\u0142 im. Emilii Sukertowej - Biedrawiny w Malinowie",
                "name": "Szko\u0142a Policealna w Zespole Szk\u00f3\u0142",
                "addr:country": "PL",
                "addr:postcode": "13-200",
                "addr:place": "Malinowo",
                "addr:housenumber": "10",
                "addr:teryt:simc": 113632,
                "contact:phone": "+48 236974163",
                "contact:email": "sekretariat@malinowo.org",
                "contact:website": "https:\/\/zsmalinowo.com\/",
                "ref:regon": "280170340",
                "operator": "Powiat Dzia\u0142dowski",
                "operator:type": "government",
                "amenity": "college",
                "note": "Parent RSPO: 29999"
            }
        },
        {
            "id": 26398,
            "type": "Feature",
            "geometry": {
                "type": "Point",
                "coordinates": [
                    20.14409,
                    53.2725189
                ]
            },
            "properties": {
                "ref:rspo": 26398,
                "official_name": "Punkt Przedszkolny w Burkacie Przy Szkole Podstawowej im.kazimierza G\u00f3rskiego w Burkacie",
                "name": "Punkt Przedszkolny w Burkacie Przy Szkole Podstawowej im.kazimierza G\u00f3rskiego w Burkacie",
                "addr:country": "PL",
                "addr:postcode": "13-200",
                "addr:place": "Burkat",
                "addr:housenumber": "41",
                "addr:teryt:simc": 113419,
                "contact:phone": "+48 236972973",
                "contact:email": "sp.burkat@gminadzialdowo.pl",
                "ref:regon": "281434924",
                "operator": "Gmina Dzia\u0142dowo",
                "operator:type": "government",
                "amenity": "kindergarten"
            }
        },
        {
            "id": 196208,
            "type": "Feature",
            "geometry": {
                "type": "Point",
                "coordinates": [
                    20.145861,
                    53.2749369
                ]
            },
            "properties": {
                "isced:level": "1;2",
                "ref:rspo": 196208,
                "official_name": "Szko\u0142a Podstawowa im. Kazimierza G\u00f3rskiego w Burkacie",
                "name": "Szko\u0142a Podstawowa",
                "addr:country": "PL",
                "addr:postcode": "13-200",
                "addr:place": "Burkat",
                "addr:housenumber": "46",
                "addr:teryt:simc": 113419,
                "contact:phone": "+48 236972973",
                "contact:email": "sp.burkat@gminadzialdowo.pl",
                "contact:website": "http:\/\/www.spburkat.pl",
                "ref:regon": "367991437",
                "ref:vatin": "PL5711716592",
                "operator": "Gmina Dzia\u0142dowo",
                "operator:type": "government",
                "amenity": "school"
            }
        },
        {
            "id": 18507,
            "type": "Feature",
            "geometry": {
                "type": "Point",
                "coordinates": [
                    20.1911491,
                    53.292865
                ]
            },
            "properties": {
                "isced:level": "1;2",
                "ref:rspo": 18507,
                "official_name": "Szko\u0142a Podstawowa im. Przyjaci\u00f3\u0142 Przyrody Polskiej w Kl\u0119czkowie",
                "name": "Szko\u0142a Podstawowa",
                "addr:country": "PL",
                "addr:postcode": "13-200",
                "addr:place": "Kl\u0119czkowo",
                "addr:housenumber": "13",
                "addr:teryt:simc": 113520,
                "contact:phone": "+48 236765814",
                "contact:email": "sp.kleczkowo@gminadzialdowo.pl",
                "contact:website": "http:\/\/www.kleczkowo.schoolpage.pl",
                "ref:regon": "001137534",
                "ref:vatin": "PL5711659948",
                "operator": "Gmina Dzia\u0142dowo",
                "operator:type": "government",
                "amenity": "school"
            }
        },
        {
            "id": 277572,
            "type": "Feature",
            "geometry": {
                "type": "Point",
                "coordinates": [
                    20.0902849,
                    53.30918
                ]
            },
            "properties": {
                "isced:level": "1;2",
                "ref:rspo": 277572,
                "official_name": "Stowarzyszenie \"Edukator\" w \u0141om\u017cy, Szko\u0142a Podstawowa im. Ks. St. W. Frelichowskiego w Turzy Wielkiej",
                "name": "Stowarzyszenie \"Edukator\" w \u0141om\u017cy, Szko\u0142a Podstawowa",
                "addr:country": "PL",
                "addr:postcode": "13-200",
                "addr:place": "Turza Wielka",
                "addr:housenumber": "57A",
                "addr:teryt:simc": 113750,
                "contact:phone": "+48 510359144",
                "contact:email": "sp.turzawielka@sosedukator.pl",
                "ref:regon": "389138620",
                "operator": "Spo\u0142eczno - O\u015bwiatowe Stowarzyszenie Pomocy Pokrzywdzonym I Niepe\u0142nosprawnym \"Edukator\"",
                "operator:type": "ngo",
                "amenity": "school"
            }
        },
        {
            "id": 18505,
            "type": "Feature",
            "geometry": {
                "type": "Point",
                "coordinates": [
                    20.095017,
                    53.344927
                ]
            },
            "properties": {
                "isced:level": "1;2",
                "ref:rspo": 18505,
                "official_name": "Szko\u0142a Podstawowa im. Adama Mickiewicza w Uzdowie",
                "name": "Szko\u0142a Podstawowa",
                "addr:country": "PL",
                "addr:postcode": "13-200",
                "addr:place": "Uzdowo",
                "addr:housenumber": "75",
                "addr:teryt:simc": 113773,
                "contact:phone": "+48 236965485",
                "contact:email": "sp.uzdowo@gminadzialdowo.pl",
                "contact:website": "http:\/\/spuzdowo.edupage.org\/",
                "ref:regon": "001137623",
                "ref:vatin": "PL5711659977",
                "operator": "Gmina Dzia\u0142dowo",
                "operator:type": "government",
                "amenity": "school"
            }
        },
        {
            "id": 196209,
            "type": "Feature",
            "geometry": {
                "type": "Point",
                "coordinates": [
                    20.16557,
                    53.36131
                ]
            },
            "properties": {
                "isced:level": "1;2",
                "ref:rspo": 196209,
                "official_name": "Szko\u0142a Podstawowa im. Andrzeja Grubby w S\u0142awkowie",
                "name": "Szko\u0142a Podstawowa",
                "addr:country": "PL",
                "addr:postcode": "13-200",
                "addr:place": "S\u0142awkowo",
                "addr:housenumber": "20",
                "addr:teryt:simc": 113744,
                "contact:phone": "+48 236965477",
                "contact:email": "sp.slawkowo@gminadzialdowo.pl",
                "contact:website": "http:\/\/www.spslawkowo.szkolnastrona.pl",
                "ref:regon": "367985655",
                "ref:vatin": "PL5711716617",
                "operator": "Gmina Dzia\u0142dowo",
                "operator:type": "government",
                "amenity": "school"
            }
        },
        {
            "id": 18503,
            "type": "Feature",
            "geometry": {
                "type": "Point",
                "coordinates": [
                    20.1215899,
                    53.3847219
                ]
            },
            "properties": {
                "isced:level": "1;2",
                "ref:rspo": 18503,
                "official_name": "Szko\u0142a Podstawowa w Ruszkowie",
                "name": "Szko\u0142a Podstawowa w Ruszkowie",
                "addr:country": "PL",
                "addr:postcode": "13-200",
                "addr:place": "Ruszkowo",
                "addr:housenumber": "64",
                "addr:teryt:simc": 113715,
                "contact:phone": "+48 236965481",
                "contact:email": "sp.ruszkowo@gminadzialdowo.pl",
                "contact:website": "http:\/\/www.spruszkowo.szkolnastrona.pl",
                "ref:regon": "001137505",
                "ref:vatin": "PL5711659902",
                "operator": "Gmina Dzia\u0142dowo",
                "operator:type": "government",
                "amenity": "school"
            }
        }
    ]
}