{
    "type": "FeatureCollection",
    "features": [
        {
            "id": 22760,
            "type": "Feature",
            "geometry": {
                "type": "Point",
                "coordinates": [
                    21.10629,
                    51.00849
                ]
            },
            "properties": {
                "isced:level": "1;2",
                "ref:rspo": 22760,
                "official_name": "Szko\u0142a Podstawowa Nr 2 im. Jana Paw\u0142a II w Starachowicach",
                "name": "Szko\u0142a Podstawowa Nr 2",
                "addr:country": "PL",
                "addr:postcode": "27-200",
                "addr:city": "Starachowice",
                "addr:street": "ul. Ostrowiecka",
                "addr:housenumber": "134",
                "addr:teryt:simc": 15388,
                "addr:teryt:sym_ul": 947930,
                "contact:phone": "+48 412732524",
                "contact:email": "sp2starachowice@wp.pl",
                "contact:website": "http:\/\/www.sp2starachowice.aq.pl",
                "ref:regon": "290618904",
                "ref:vatin": "PL6641491667",
                "operator": "Miasto Starachowice",
                "operator:type": "government",
                "amenity": "school"
            }
        },
        {
            "id": 23003,
            "type": "Feature",
            "geometry": {
                "type": "Point",
                "coordinates": [
                    21.04773,
                    51.03007
                ]
            },
            "properties": {
                "isced:level": "1;2",
                "ref:rspo": 23003,
                "official_name": "Szko\u0142a Podstawowa Nr 6 im. Obro\u0144c\u00f3w Westerplatte w Starachowicach",
                "name": "Szko\u0142a Podstawowa Nr 6",
                "addr:country": "PL",
                "addr:postcode": "27-200",
                "addr:city": "Starachowice",
                "addr:street": "ul. Stanis\u0142awa Moniuszki",
                "addr:housenumber": "117",
                "addr:teryt:simc": 13246,
                "addr:teryt:sym_ul": 947930,
                "contact:phone": "+48 412733126",
                "contact:email": "sp6_lubianka@op.pl",
                "contact:website": "http:\/\/www.sp6starachowice.szkolna.net",
                "ref:regon": "290618896",
                "ref:vatin": "PL6641037201",
                "operator": "Miasto Starachowice",
                "operator:type": "government",
                "amenity": "school"
            }
        },
        {
            "id": 125022,
            "type": "Feature",
            "geometry": {
                "type": "Point",
                "coordinates": [
                    21.08489,
                    51.03611
                ]
            },
            "properties": {
                "ref:rspo": 125022,
                "official_name": "Niepubliczne Przedszkole \u201eGucio\u201d",
                "name": "Niepubliczne Przedszkole \u201eGucio\u201d",
                "addr:country": "PL",
                "addr:postcode": "27-200",
                "addr:city": "Starachowice",
                "addr:street": "ul. J\u00f3zefa Radoszewskiego",
                "addr:housenumber": "29",
                "addr:teryt:simc": 18325,
                "addr:teryt:sym_ul": 947930,
                "contact:phone": "+48 531764477",
                "contact:email": "kasperska.ania@interia.pl",
                "ref:regon": "260794719",
                "operator": "Anna Kasperska",
                "operator:type": "private",
                "amenity": "kindergarten"
            }
        },
        {
            "id": 44542,
            "type": "Feature",
            "geometry": {
                "type": "Point",
                "coordinates": [
                    21.06174,
                    51.03691
                ]
            },
            "properties": {
                "isced:level": "3",
                "ref:rspo": 44542,
                "official_name": "Iii Liceum Og\u00f3lnokszta\u0142c\u0105ce Z Oddzia\u0142ami Integracyjnymi im. Krzysztofa Kamila Baczy\u0144skiego w Starachowicach",
                "name": "Iii Liceum Og\u00f3lnokszta\u0142c\u0105ce Z Oddzia\u0142ami Integracyjnymi",
                "addr:country": "PL",
                "addr:postcode": "27-200",
                "addr:city": "Starachowice",
                "addr:street": "al. Aleja \u015awi\u0119tego Jana Paw\u0142a II",
                "addr:housenumber": "18",
                "addr:teryt:simc": 54224,
                "addr:teryt:sym_ul": 947930,
                "contact:phone": "+48 412745116",
                "contact:email": "lo3_star@op.pl",
                "ref:regon": "292447418",
                "ref:vatin": "PL6641096474",
                "operator": "Powiat Starachowicki",
                "operator:type": "government",
                "amenity": "school"
            }
        },
        {
            "id": 20024,
            "type": "Feature",
            "geometry": {
                "type": "Point",
                "coordinates": [
                    21.06208,
                    51.03801
                ]
            },
            "properties": {
                "ref:rspo": 20024,
                "official_name": "Przedszkole Miejskie Nr 10 Niezapominajka w Starachowicach",
                "name": "Przedszkole Miejskie Nr 10 Niezapominajka w Starachowicach",
                "addr:country": "PL",
                "addr:postcode": "27-200",
                "addr:city": "Starachowice",
                "addr:street": "ul. Ignacego Pr\u0105dzy\u0144skiego",
                "addr:housenumber": "2a",
                "addr:teryt:simc": 17475,
                "addr:teryt:sym_ul": 947930,
                "contact:phone": "+48 412732068",
                "contact:email": "pm10starachowice@onet.eu",
                "contact:website": "http:\/\/www.pm10.starachowice.eu",
                "ref:regon": "290014891",
                "ref:vatin": "PL6641871720",
                "operator": "Miasto Starachowice",
                "operator:type": "government",
                "amenity": "kindergarten"
            }
        },
        {
            "id": 23143,
            "type": "Feature",
            "geometry": {
                "type": "Point",
                "coordinates": [
                    21.06208,
                    51.03798
                ]
            },
            "properties": {
                "isced:level": "1;2",
                "ref:rspo": 23143,
                "official_name": "Szko\u0142a Podstawowa Nr 13 im. Kornela Makuszy\u0144skiego w Starachowicach",
                "name": "Szko\u0142a Podstawowa Nr 13",
                "addr:country": "PL",
                "addr:postcode": "27-200",
                "addr:city": "Starachowice",
                "addr:street": "ul. Ignacego Pr\u0105dzy\u0144skiego",
                "addr:housenumber": "2",
                "addr:teryt:simc": 17475,
                "addr:teryt:sym_ul": 947930,
                "contact:phone": "+48 412732070",
                "contact:email": "sp13starachowice@op.pl",
                "contact:website": "http:\/\/www.sp13starachowice.pl",
                "ref:regon": "290618850",
                "ref:vatin": "PL6641507836",
                "operator": "Miasto Starachowice",
                "operator:type": "government",
                "amenity": "school"
            }
        },
        {
            "id": 19972,
            "type": "Feature",
            "geometry": {
                "type": "Point",
                "coordinates": [
                    21.070629119873,
                    51.038070678711
                ]
            },
            "properties": {
                "ref:rspo": 19972,
                "official_name": "Przedszkole Miejskie Nr 6 w Starachowicach",
                "name": "Przedszkole Miejskie Nr 6 w Starachowicach",
                "addr:country": "PL",
                "addr:postcode": "27-200",
                "addr:city": "Starachowice",
                "addr:street": "ul. \u015awi\u0119tej Barbary",
                "addr:housenumber": "4",
                "addr:teryt:simc": 40651,
                "addr:teryt:sym_ul": 947930,
                "contact:phone": "+48 412747969",
                "contact:email": "przedszkolenr6st-ce@wp.pl",
                "contact:website": "http:\/\/www.casinoipad.home.pl\/przedszkole",
                "ref:regon": "290014862",
                "ref:vatin": "PL6641871683",
                "operator": "Miasto Starachowice",
                "operator:type": "government",
                "amenity": "kindergarten"
            }
        },
        {
            "id": 23114,
            "type": "Feature",
            "geometry": {
                "type": "Point",
                "coordinates": [
                    21.070629119873,
                    51.038040678711
                ]
            },
            "properties": {
                "isced:level": "1;2",
                "ref:rspo": 23114,
                "official_name": "Szko\u0142a Podstawowa Nr 11 im. Mjr Jana Piwnika \u201ePonurego\u201d w Starachowicach",
                "name": "Szko\u0142a Podstawowa Nr 11",
                "addr:country": "PL",
                "addr:postcode": "27-200",
                "addr:city": "Starachowice",
                "addr:street": "ul. Le\u015bna",
                "addr:housenumber": "2",
                "addr:teryt:simc": 10898,
                "addr:teryt:sym_ul": 947930,
                "contact:phone": "+48 412747407",
                "contact:email": "sp11stce@poczta.onet.pl",
                "contact:website": "http:\/\/sp11.starachowice.eu",
                "ref:regon": "290618927",
                "ref:vatin": "PL6641076939",
                "operator": "Miasto Starachowice",
                "operator:type": "government",
                "amenity": "school"
            }
        },
        {
            "id": 24348,
            "type": "Feature",
            "geometry": {
                "type": "Point",
                "coordinates": [
                    21.070629119873,
                    51.038010678711004
                ]
            },
            "properties": {
                "isced:level": "1;2",
                "ref:rspo": 24348,
                "official_name": "Szko\u0142a Podstawowa Nr 1 im. Jana Kochanowskiego w Starachowicach",
                "name": "Szko\u0142a Podstawowa Nr 1",
                "addr:country": "PL",
                "addr:postcode": "27-200",
                "addr:city": "Starachowice",
                "addr:street": "ul. 1 Maja",
                "addr:housenumber": "11",
                "addr:teryt:simc": 11926,
                "addr:teryt:sym_ul": 947930,
                "contact:phone": "+48 412746134",
                "contact:email": "sp1stce@wp.pl",
                "contact:website": "http:\/\/www.sp1star.prv.pl",
                "ref:regon": "290618910",
                "ref:vatin": "PL6641491644",
                "operator": "Miasto Starachowice",
                "operator:type": "government",
                "amenity": "school"
            }
        },
        {
            "id": 27190,
            "type": "Feature",
            "geometry": {
                "type": "Point",
                "coordinates": [
                    21.070629119873,
                    51.037980678711
                ]
            },
            "properties": {
                "ref:rspo": 27190,
                "official_name": "Zesp\u00f3\u0142 Szk\u00f3\u0142 Zawodowych Nr 2 w Starachowicach",
                "name": "Zesp\u00f3\u0142 Szk\u00f3\u0142 Zawodowych Nr 2 w Starachowicach",
                "addr:country": "PL",
                "addr:postcode": "27-200",
                "addr:city": "Starachowice",
                "addr:street": "ul. 1 Maja",
                "addr:housenumber": "4",
                "addr:teryt:simc": 11926,
                "addr:teryt:sym_ul": 947930,
                "contact:phone": "+48 412746240",
                "contact:email": "sekretariat@technikum.net.pl",
                "contact:website": "http:\/\/technikum.net.pl",
                "ref:regon": "292443283",
                "ref:vatin": "PL6641465032",
                "operator": "Powiat Starachowicki",
                "operator:type": "government",
                "landuse": "education",
                "fixme": "amenity=school, amenity=college albo landuse=education w zale\u017cno\u015bci od tego, jakie plac\u00f3wki wchodz\u0105 w sk\u0142ad zespo\u0142u. Sprawd\u017a, kiedy stosowa\u0107 amenity=* a kiedy landuse=education.",
                "note": "Children RSPO: 40631;40956"
            }
        },
        {
            "id": 34657,
            "type": "Feature",
            "geometry": {
                "type": "Point",
                "coordinates": [
                    21.070629119873,
                    51.037950678711
                ]
            },
            "properties": {
                "ref:rspo": 34657,
                "official_name": "Pa\u0144stwowe Ognisko Plastyczne w Starachowicach",
                "name": "Pa\u0144stwowe Ognisko Plastyczne w Starachowicach",
                "addr:country": "PL",
                "addr:postcode": "27-200",
                "addr:city": "Starachowice",
                "addr:street": "ul. Z\u0142ota",
                "addr:housenumber": "6",
                "addr:teryt:simc": 26188,
                "addr:teryt:sym_ul": 947930,
                "contact:phone": "+48 412740410",
                "contact:email": "ogniskostarachowice@op.pl",
                "ref:regon": "001245784",
                "ref:vatin": "PL6641037141",
                "operator": "Powiat Starachowicki",
                "operator:type": "government",
                "fixme": "w zale\u017cno\u015bci od przedmiotu dzia\u0142alno\u015bci (np. amenity=community_centre + community_centre:for=child;juvenile, amenity=training + training=*, amenity=dancing_school, amenity=music_school),"
            }
        },
        {
            "id": 43958,
            "type": "Feature",
            "geometry": {
                "type": "Point",
                "coordinates": [
                    21.070629119873,
                    51.037920678711004
                ]
            },
            "properties": {
                "isced:level": "3",
                "ref:rspo": 43958,
                "official_name": "Ssil Niepubliczna Bran\u017cowa Szko\u0142a I Stopnia w Starachowicach",
                "name": "Ssil Niepubliczna Bran\u017cowa Szko\u0142a I Stopnia w Starachowicach",
                "addr:country": "PL",
                "addr:postcode": "27-200",
                "addr:city": "Starachowice",
                "addr:street": "ul. G\u0142\u00f3wna",
                "addr:housenumber": "8",
                "addr:teryt:simc": 5635,
                "addr:teryt:sym_ul": 947930,
                "contact:phone": "+48 503420412",
                "contact:email": "ssilszkoly@poczta.fm",
                "ref:regon": "260644983",
                "ref:vatin": "PL6641003366",
                "operator": "Starachowickie Stowarzyszenie Inicjatyw Lokalnych",
                "operator:type": "ngo",
                "amenity": "school"
            }
        },
        {
            "id": 46573,
            "type": "Feature",
            "geometry": {
                "type": "Point",
                "coordinates": [
                    21.070629119873,
                    51.037890678711
                ]
            },
            "properties": {
                "ref:rspo": 46573,
                "official_name": "Lingua Mariusz Jaskulski",
                "name": "Lingua Mariusz Jaskulski",
                "addr:country": "PL",
                "addr:postcode": "27-200",
                "addr:city": "Starachowice",
                "addr:street": "ul. Jana Mrozowskiego",
                "addr:housenumber": "7",
                "addr:door": "1",
                "addr:teryt:simc": 13440,
                "addr:teryt:sym_ul": 947930,
                "contact:phone": "+48 412749905",
                "contact:email": "lingua@home.pl",
                "ref:regon": "260641909",
                "ref:vatin": "PL6641331627",
                "operator": "Mariusz Jaskulski",
                "operator:type": "private",
                "fixme": "w zale\u017cno\u015bci od przedmiotu dzia\u0142alno\u015bci (np. amenity=training + training=*, amenity=dancing_school, amenity=language_school, amenity=music_school)"
            }
        },
        {
            "id": 73151,
            "type": "Feature",
            "geometry": {
                "type": "Point",
                "coordinates": [
                    21.070629119873,
                    51.037860678711
                ]
            },
            "properties": {
                "ref:rspo": 73151,
                "official_name": "Lingua",
                "name": "Lingua",
                "addr:country": "PL",
                "addr:postcode": "27-200",
                "addr:city": "Starachowice",
                "addr:street": "ul. Jana Mrozowskiego",
                "addr:housenumber": "7",
                "addr:door": "1",
                "addr:teryt:simc": 13440,
                "addr:teryt:sym_ul": 947930,
                "contact:phone": "+48 412749905",
                "contact:email": "lingua@home.pl",
                "ref:regon": "260647540",
                "ref:vatin": "PL6641331627",
                "operator": "Mariusz Jaskulski",
                "operator:type": "private",
                "fixme": "w zale\u017cno\u015bci od przedmiotu dzia\u0142alno\u015bci (np. amenity=training + training=*, amenity=dancing_school, amenity=language_school, amenity=music_school)"
            }
        },
        {
            "id": 267996,
            "type": "Feature",
            "geometry": {
                "type": "Point",
                "coordinates": [
                    21.070629119873,
                    51.037830678711
                ]
            },
            "properties": {
                "isced:level": "1;2",
                "ref:rspo": 267996,
                "official_name": "Ssil Niepubliczna Szko\u0142a Podstawowa dla Doros\u0142ych w Starachowicach",
                "name": "Ssil Niepubliczna Szko\u0142a Podstawowa dla Doros\u0142ych w Starachowicach",
                "addr:country": "PL",
                "addr:postcode": "27-200",
                "addr:city": "Starachowice",
                "addr:street": "ul. G\u0142\u00f3wna",
                "addr:housenumber": "8",
                "addr:teryt:simc": 5635,
                "addr:teryt:sym_ul": 947930,
                "contact:phone": "+48 412742496",
                "contact:email": "ssilszkoly@poczta.fm",
                "ref:regon": "380833501",
                "operator": "Starachowickie Stowarzyszenie Inicjatyw Lokalnych",
                "operator:type": "ngo",
                "amenity": "school"
            }
        },
        {
            "id": 40631,
            "type": "Feature",
            "geometry": {
                "type": "Point",
                "coordinates": [
                    21.070629119873,
                    51.037800678711
                ]
            },
            "properties": {
                "isced:level": "3",
                "ref:rspo": 40631,
                "official_name": "Technikum Nr 2 im. Eugeniusza Kwiatkowskiego w Starachowicach",
                "name": "Technikum Nr 2",
                "addr:country": "PL",
                "addr:postcode": "27-200",
                "addr:city": "Starachowice",
                "addr:street": "ul. 1 Maja",
                "addr:housenumber": "4",
                "addr:teryt:simc": 11926,
                "addr:teryt:sym_ul": 947930,
                "contact:phone": "+48 412746240",
                "contact:email": "sekretariat@technikum.net.pl",
                "contact:website": "http:\/\/technikum.net.pl",
                "ref:regon": "292676076",
                "ref:vatin": "PL6641465032",
                "operator": "Powiat Starachowicki",
                "operator:type": "government",
                "amenity": "school",
                "note": "Parent RSPO: 27190"
            }
        },
        {
            "id": 40956,
            "type": "Feature",
            "geometry": {
                "type": "Point",
                "coordinates": [
                    21.070629119873,
                    51.037770678711
                ]
            },
            "properties": {
                "isced:level": "4",
                "ref:rspo": 40956,
                "official_name": "Szko\u0142a Policealna Nr 3 w Starachowicach",
                "name": "Szko\u0142a Policealna Nr 3 w Starachowicach",
                "addr:country": "PL",
                "addr:postcode": "27-200",
                "addr:city": "Starachowice",
                "addr:street": "ul. 1 Maja",
                "addr:housenumber": "4",
                "addr:teryt:simc": 11926,
                "addr:teryt:sym_ul": 947930,
                "contact:phone": "+48 412746240",
                "contact:email": "sekretariat@technikum.net.pl",
                "contact:website": "http:\/\/technikum.net.pl",
                "ref:regon": "292442697",
                "ref:vatin": "PL6641465032",
                "operator": "Powiat Starachowicki",
                "operator:type": "government",
                "amenity": "college",
                "note": "Parent RSPO: 27190"
            }
        },
        {
            "id": 109595,
            "type": "Feature",
            "geometry": {
                "type": "Point",
                "coordinates": [
                    21.09099,
                    51.03812
                ]
            },
            "properties": {
                "ref:rspo": 109595,
                "official_name": "Plac\u00f3wka Kszta\u0142cenia Ustawicznego Akademia Przedsi\u0119biorczo\u015bci w Starachowicach",
                "name": "Plac\u00f3wka Kszta\u0142cenia Ustawicznego Akademia Przedsi\u0119biorczo\u015bci w Starachowicach",
                "addr:country": "PL",
                "addr:postcode": "27-200",
                "addr:city": "Starachowice",
                "addr:street": "ul. Zgodna",
                "addr:housenumber": "2",
                "addr:teryt:simc": 26023,
                "addr:teryt:sym_ul": 947930,
                "contact:phone": "+48 412750058",
                "contact:email": "akademia@ap.org.pl",
                "ref:regon": "260668943",
                "operator": "Akademia Przedsi\u0119biorczo\u015bci Sp\u00f3\u0142ka Z Ograniczon\u0105 Odpowiedzialno\u015bci\u0105",
                "operator:type": "private",
                "fixme": "w zale\u017cno\u015bci od przedmiotu dzia\u0142alno\u015bci (np. amenity=training + training=*, amenity=dancing_school, amenity=language_school, amenity=music_school)"
            }
        },
        {
            "id": 271771,
            "type": "Feature",
            "geometry": {
                "type": "Point",
                "coordinates": [
                    21.09099,
                    51.03809
                ]
            },
            "properties": {
                "ref:rspo": 271771,
                "official_name": "Centrum Kszta\u0142cenia Zawodowego Factory Talent Piotr Nowaczek w Starachowicach",
                "name": "Centrum Kszta\u0142cenia Zawodowego Factory Talent Piotr Nowaczek w Starachowicach",
                "addr:country": "PL",
                "addr:postcode": "27-200",
                "addr:city": "Starachowice",
                "addr:street": "ul. Zgodna",
                "addr:housenumber": "2",
                "addr:teryt:simc": 26023,
                "addr:teryt:sym_ul": 947930,
                "contact:email": "szkolenia.kadr@gmail.com",
                "ref:regon": "383634825",
                "operator": "Piotr Nowaczek",
                "operator:type": "private",
                "fixme": "w zale\u017cno\u015bci od przedmiotu dzia\u0142alno\u015bci (np. amenity=training + training=*, amenity=dancing_school, amenity=language_school, amenity=music_school) albo amenity=school, amenity=college, albo landuse=education w zale\u017cno\u015bci od tego, jakie plac\u00f3wki wchodz\u0105 w sk\u0142ad zespo\u0142u. Sprawd\u017a, kiedy stosowa\u0107 amenity=* a kiedy landuse=education."
            }
        },
        {
            "id": 278909,
            "type": "Feature",
            "geometry": {
                "type": "Point",
                "coordinates": [
                    21.09099,
                    51.03806
                ]
            },
            "properties": {
                "ref:rspo": 278909,
                "official_name": "Niepubliczny O\u015brodek Doskonalenia Nauczycieli \"\u015awi\u0119tokrzyska Akademia Nauki\"",
                "name": "Niepubliczny O\u015brodek Doskonalenia Nauczycieli \"\u015awi\u0119tokrzyska Akademia Nauki\"",
                "addr:country": "PL",
                "addr:postcode": "27-200",
                "addr:city": "Starachowice",
                "addr:street": "ul. Zgodna",
                "addr:housenumber": "2",
                "addr:teryt:simc": 26023,
                "addr:teryt:sym_ul": 947930,
                "contact:phone": "+48 608109729",
                "contact:email": "piotrnowaczek@poczta.fm",
                "contact:website": "http:\/\/www.fabrykatalent\u00f3w.info.pl",
                "ref:regon": "520177629",
                "operator": "Piotr Nowaczek",
                "operator:type": "private",
                "amenity": "training"
            }
        },
        {
            "id": 269336,
            "type": "Feature",
            "geometry": {
                "type": "Point",
                "coordinates": [
                    21.070600509644,
                    51.038181304932
                ]
            },
            "properties": {
                "ref:rspo": 269336,
                "official_name": "Przedszkole Niepubliczne Norlandia",
                "name": "Przedszkole Niepubliczne Norlandia",
                "addr:country": "PL",
                "addr:postcode": "27-200",
                "addr:city": "Starachowice",
                "addr:street": "ul. Bankowa",
                "addr:housenumber": "5",
                "addr:teryt:simc": 692,
                "addr:teryt:sym_ul": 947930,
                "contact:phone": "+48 573975541",
                "contact:email": "sekretariat@norlandia.com",
                "contact:website": "http:\/\/norlandiaprzedszkola.pl",
                "ref:regon": "381444055",
                "ref:vatin": "PL6642118605",
                "operator": "Norlandia Polska Sp\u00f3\u0142ka Z Ograniczon\u0105 Odpowiedzialno\u015bci\u0105",
                "operator:type": "private",
                "amenity": "kindergarten"
            }
        },
        {
            "id": 269183,
            "type": "Feature",
            "geometry": {
                "type": "Point",
                "coordinates": [
                    21.09821,
                    51.03845
                ]
            },
            "properties": {
                "ref:rspo": 269183,
                "official_name": "Przedszkole Niepubliczne \u201eAkademia Kwadrat\u201d",
                "name": "Przedszkole Niepubliczne \u201eAkademia Kwadrat\u201d",
                "addr:country": "PL",
                "addr:postcode": "27-200",
                "addr:city": "Starachowice",
                "addr:street": "ul. D\u0142uga",
                "addr:housenumber": "11",
                "addr:teryt:simc": 3839,
                "addr:teryt:sym_ul": 947930,
                "contact:phone": "+48 668432370",
                "contact:email": "kontakt@przedszkolak.starachowice.pl",
                "contact:website": "http:\/\/www.akademiakwadrat.pl",
                "ref:regon": "381394328",
                "ref:vatin": "PL6642024034",
                "operator": "Ma\u0142gorzata Krawczyk",
                "operator:type": "private",
                "amenity": "kindergarten"
            }
        },
        {
            "id": 271572,
            "type": "Feature",
            "geometry": {
                "type": "Point",
                "coordinates": [
                    21.09821,
                    51.038419999999995
                ]
            },
            "properties": {
                "isced:level": "1;2",
                "ref:rspo": 271572,
                "official_name": "Niepubliczna Szko\u0142a Podstawowa w Starachowicach",
                "name": "Niepubliczna Szko\u0142a Podstawowa w Starachowicach",
                "addr:country": "PL",
                "addr:postcode": "27-200",
                "addr:city": "Starachowice",
                "addr:street": "ul. D\u0142uga",
                "addr:housenumber": "11",
                "addr:teryt:simc": 3839,
                "addr:teryt:sym_ul": 947930,
                "contact:phone": "+48 668432370",
                "contact:email": "kontakt@przedszkolak.starachowice.pl",
                "contact:website": "http:\/\/www.przedszkolak.starachowice.pl",
                "ref:regon": "383423531",
                "ref:vatin": "PL6642024034",
                "operator": "Ma\u0142gorzata Krawczyk",
                "operator:type": "private",
                "amenity": "school"
            }
        },
        {
            "id": 272177,
            "type": "Feature",
            "geometry": {
                "type": "Point",
                "coordinates": [
                    21.0880549,
                    51.0395917
                ]
            },
            "properties": {
                "ref:rspo": 272177,
                "official_name": "Zesp\u00f3\u0142 Szk\u00f3\u0142 Spo\u0142ecznych Spo\u0142ecznego Towarzystwa O\u015bwiatowego w Starachowicach",
                "name": "Zesp\u00f3\u0142 Szk\u00f3\u0142 Spo\u0142ecznych Spo\u0142ecznego Towarzystwa O\u015bwiatowego w Starachowicach",
                "addr:country": "PL",
                "addr:postcode": "27-200",
                "addr:city": "Starachowice",
                "addr:street": "ul. I\u0142\u017cecka",
                "addr:housenumber": "39",
                "addr:teryt:simc": 6887,
                "addr:teryt:sym_ul": 947930,
                "contact:phone": "+48 412748411",
                "contact:email": "sto@starachowice.org",
                "ref:regon": "383995836",
                "ref:vatin": "PL6642143046",
                "operator": "Spo\u0142eczne Towarzystwo O\u015bwiatowe Samodzielne Ko\u0142o Terenowe Nr 50 W Starachowicach.",
                "operator:type": "ngo",
                "landuse": "education",
                "fixme": "amenity=school, amenity=college albo landuse=education w zale\u017cno\u015bci od tego, jakie plac\u00f3wki wchodz\u0105 w sk\u0142ad zespo\u0142u. Sprawd\u017a, kiedy stosowa\u0107 amenity=* a kiedy landuse=education.",
                "note": "Children RSPO: 26548;267265"
            }
        },
        {
            "id": 26548,
            "type": "Feature",
            "geometry": {
                "type": "Point",
                "coordinates": [
                    21.0880549,
                    51.0395617
                ]
            },
            "properties": {
                "isced:level": "1;2",
                "ref:rspo": 26548,
                "official_name": "Spo\u0142eczna Szko\u0142a Podstawowa Spo\u0142ecznego Towarzystwa O\u015bwiatowego w Starachowicach",
                "name": "Spo\u0142eczna Szko\u0142a Podstawowa Spo\u0142ecznego Towarzystwa O\u015bwiatowego w Starachowicach",
                "addr:country": "PL",
                "addr:postcode": "27-200",
                "addr:city": "Starachowice",
                "addr:street": "ul. I\u0142\u017cecka",
                "addr:housenumber": "39",
                "addr:teryt:simc": 6887,
                "addr:teryt:sym_ul": 947930,
                "contact:phone": "+48 412748411",
                "contact:email": "sto@starachowice.org",
                "contact:website": "http:\/\/www.sto.starachowice.org",
                "ref:regon": "260642754",
                "operator": "Spo\u0142eczne Towarzystwo O\u015bwiatowe Samodzielne Ko\u0142o Terenowe Nr 50 W Starachowicach.",
                "operator:type": "ngo",
                "amenity": "school",
                "note": "Parent RSPO: 272177"
            }
        },
        {
            "id": 267265,
            "type": "Feature",
            "geometry": {
                "type": "Point",
                "coordinates": [
                    21.0880549,
                    51.039531700000005
                ]
            },
            "properties": {
                "isced:level": "3",
                "ref:rspo": 267265,
                "official_name": "Spo\u0142eczne Liceum Og\u00f3lnokszta\u0142c\u0105ce Spo\u0142ecznego Towarzystwa O\u015bwiatowego w Starachowicach",
                "name": "Spo\u0142eczne Liceum Og\u00f3lnokszta\u0142c\u0105ce Spo\u0142ecznego Towarzystwa O\u015bwiatowego w Starachowicach",
                "addr:country": "PL",
                "addr:postcode": "27-200",
                "addr:city": "Starachowice",
                "addr:street": "ul. I\u0142\u017cecka",
                "addr:housenumber": "39",
                "addr:teryt:simc": 6887,
                "addr:teryt:sym_ul": 947930,
                "contact:phone": "+48 412748411",
                "contact:email": "sto@starachowice.org",
                "contact:website": "http:\/\/sto.starachowice.org",
                "ref:regon": "380039826",
                "operator": "Spo\u0142eczne Towarzystwo O\u015bwiatowe Samodzielne Ko\u0142o Terenowe Nr 50 W Starachowicach.",
                "operator:type": "ngo",
                "amenity": "school",
                "note": "Parent RSPO: 272177"
            }
        },
        {
            "id": 26552,
            "type": "Feature",
            "geometry": {
                "type": "Point",
                "coordinates": [
                    21.0902,
                    51.04161
                ]
            },
            "properties": {
                "ref:rspo": 26552,
                "official_name": "Punkt Przedszkolno-Terapeutyczny \u201eS\u0142oneczko\u201d",
                "name": "Punkt Przedszkolno-Terapeutyczny \u201eS\u0142oneczko\u201d",
                "addr:country": "PL",
                "addr:postcode": "27-200",
                "addr:city": "Starachowice",
                "addr:street": "ul. G\u00f3rna",
                "addr:housenumber": "10",
                "addr:teryt:simc": 5948,
                "addr:teryt:sym_ul": 947930,
                "contact:phone": "+48 721990111",
                "contact:email": "klimanowka307@gmail.com",
                "contact:website": "http:\/\/sloneczkonagornej.pl",
                "ref:regon": "260638853",
                "operator": "Katarzyna Liman\u00f3wka",
                "operator:type": "private",
                "amenity": "kindergarten"
            }
        },
        {
            "id": 23528,
            "type": "Feature",
            "geometry": {
                "type": "Point",
                "coordinates": [
                    21.08524,
                    51.04306
                ]
            },
            "properties": {
                "isced:level": "1;2",
                "ref:rspo": 23528,
                "official_name": "Szko\u0142a Podstawowa Nr 10 Z Oddzia\u0142ami Integracyjnymi im. Szarych Szereg\u00f3w w Starachowicach",
                "name": "Szko\u0142a Podstawowa Nr 10 Z Oddzia\u0142ami Integracyjnymi",
                "addr:country": "PL",
                "addr:postcode": "27-200",
                "addr:city": "Starachowice",
                "addr:street": "ul. Aleja Armii Krajowej",
                "addr:housenumber": "1",
                "addr:teryt:simc": 35012,
                "addr:teryt:sym_ul": 947930,
                "contact:phone": "+48 412746179",
                "contact:email": "sp10integra@wp.pl",
                "contact:website": "http:\/\/www.sp10starachowice.szkolna.net",
                "ref:regon": "290619068",
                "ref:vatin": "PL6641502477",
                "operator": "Miasto Starachowice",
                "operator:type": "government",
                "amenity": "school"
            }
        },
        {
            "id": 20025,
            "type": "Feature",
            "geometry": {
                "type": "Point",
                "coordinates": [
                    21.09428,
                    51.0431
                ]
            },
            "properties": {
                "ref:rspo": 20025,
                "official_name": "Przedszkole Miejskie Nr 11 Z Oddzia\u0142ami Integracyjnymi im. Misia Uszatka w Starachowicach",
                "name": "Przedszkole Miejskie Nr 11 Z Oddzia\u0142ami Integracyjnymi",
                "addr:country": "PL",
                "addr:postcode": "27-200",
                "addr:city": "Starachowice",
                "addr:street": "ul. G\u00f3rna",
                "addr:housenumber": "13",
                "addr:teryt:simc": 5948,
                "addr:teryt:sym_ul": 947930,
                "contact:phone": "+48 412742410",
                "contact:email": "pm11@pm11.starachowice.eu",
                "ref:regon": "290014900",
                "ref:vatin": "PL6641871766",
                "operator": "Miasto Starachowice",
                "operator:type": "government",
                "amenity": "kindergarten"
            }
        },
        {
            "id": 14002,
            "type": "Feature",
            "geometry": {
                "type": "Point",
                "coordinates": [
                    21.09189,
                    51.04331
                ]
            },
            "properties": {
                "ref:rspo": 14002,
                "official_name": "Pedagogiczna Biblioteka Wojew\u00f3dzka w Kielcach Filia w Starachowicach",
                "name": "Pedagogiczna Biblioteka Wojew\u00f3dzka w Kielcach Filia w Starachowicach",
                "addr:country": "PL",
                "addr:postcode": "27-200",
                "addr:city": "Starachowice",
                "addr:street": "ul. Ko\u015bcielna",
                "addr:housenumber": "30",
                "addr:teryt:simc": 9546,
                "addr:teryt:sym_ul": 947930,
                "contact:email": "starachowice@pbw.kielce.pl",
                "contact:website": "http:\/\/www.pbw.kielce.pl",
                "ref:regon": "291170080",
                "operator": "Wojew\u00f3dztwo \u015awi\u0119tokrzyskie",
                "operator:type": "government",
                "amenity": "library",
                "note": "Parent RSPO: 6753"
            }
        },
        {
            "id": 20023,
            "type": "Feature",
            "geometry": {
                "type": "Point",
                "coordinates": [
                    21.08563,
                    51.04405
                ]
            },
            "properties": {
                "ref:rspo": 20023,
                "official_name": "Przedszkole Miejskie Nr 7 w Starachowicach",
                "name": "Przedszkole Miejskie Nr 7 w Starachowicach",
                "addr:country": "PL",
                "addr:postcode": "27-200",
                "addr:city": "Starachowice",
                "addr:street": "ul. Aleja Armii Krajowej",
                "addr:housenumber": "6a",
                "addr:teryt:simc": 35012,
                "addr:teryt:sym_ul": 947930,
                "contact:phone": "+48 412742790",
                "contact:email": "pm7@onet.eu",
                "ref:regon": "290014879",
                "ref:vatin": "PL6641871708",
                "operator": "Miasto Starachowice",
                "operator:type": "government",
                "amenity": "kindergarten"
            }
        },
        {
            "id": 12828,
            "type": "Feature",
            "geometry": {
                "type": "Point",
                "coordinates": [
                    21.08321,
                    51.04448
                ]
            },
            "properties": {
                "ref:rspo": 12828,
                "official_name": "Centrum Doskonalenia Nauczycieli I Kadr Kierowniczych w Starachowicach",
                "name": "Centrum Doskonalenia Nauczycieli I Kadr Kierowniczych w Starachowicach",
                "addr:country": "PL",
                "addr:postcode": "27-200",
                "addr:city": "Starachowice",
                "addr:street": "ul. Jana Kili\u0144skiego",
                "addr:housenumber": "26",
                "addr:teryt:simc": 8435,
                "addr:teryt:sym_ul": 947930,
                "contact:phone": "+48 412747024",
                "contact:email": "starachowice@zak.edu.pl",
                "contact:website": "http:\/\/www.zak.edu.pl",
                "ref:regon": "260633726",
                "operator": "Centrum Nauki I Biznesu \"\u017bak\" Sp\u00f3\u0142ka Z Ograniczon\u0105 Odpowiedzialno\u015bci\u0105",
                "operator:type": "private",
                "amenity": "training"
            }
        },
        {
            "id": 51823,
            "type": "Feature",
            "geometry": {
                "type": "Point",
                "coordinates": [
                    21.08321,
                    51.04445
                ]
            },
            "properties": {
                "isced:level": "4",
                "ref:rspo": 51823,
                "official_name": "Szko\u0142a Policealna Centrum Nauki I Biznesu \u201e\u017bak\u201d w Starachowicach",
                "name": "Szko\u0142a Policealna Centrum Nauki I Biznesu \u201e\u017bak\u201d w Starachowicach",
                "addr:country": "PL",
                "addr:postcode": "27-200",
                "addr:city": "Starachowice",
                "addr:street": "ul. Jana Kili\u0144skiego",
                "addr:housenumber": "26",
                "addr:teryt:simc": 8435,
                "addr:teryt:sym_ul": 947930,
                "contact:phone": "+48 412747024",
                "contact:email": "starachowice@zak.edu.pl",
                "ref:regon": "260647131",
                "ref:vatin": "PL7292597869",
                "operator": "Centrum Nauki I Biznesu \"\u017bak\" Sp\u00f3\u0142ka Z Ograniczon\u0105 Odpowiedzialno\u015bci\u0105",
                "operator:type": "private",
                "amenity": "college"
            }
        },
        {
            "id": 128125,
            "type": "Feature",
            "geometry": {
                "type": "Point",
                "coordinates": [
                    21.08321,
                    51.04442
                ]
            },
            "properties": {
                "isced:level": "4",
                "ref:rspo": 128125,
                "official_name": "Szko\u0142a Policealna Medyczna \u201e\u017bak\u201d w Starachowicach",
                "name": "Szko\u0142a Policealna Medyczna \u201e\u017bak\u201d w Starachowicach",
                "addr:country": "PL",
                "addr:postcode": "27-200",
                "addr:city": "Starachowice",
                "addr:street": "ul. Jana Kili\u0144skiego",
                "addr:housenumber": "26",
                "addr:teryt:simc": 8435,
                "addr:teryt:sym_ul": 947930,
                "contact:phone": "+48 412747024",
                "contact:email": "starachowice@zak.edu.pl",
                "ref:regon": "362116707",
                "ref:vatin": "PL7292597869",
                "operator": "Centrum Nauki I Biznesu \"\u017bak\" Sp\u00f3\u0142ka Z Ograniczon\u0105 Odpowiedzialno\u015bci\u0105",
                "operator:type": "private",
                "amenity": "college"
            }
        },
        {
            "id": 263436,
            "type": "Feature",
            "geometry": {
                "type": "Point",
                "coordinates": [
                    21.08321,
                    51.04439
                ]
            },
            "properties": {
                "isced:level": "4",
                "ref:rspo": 263436,
                "official_name": "Szko\u0142a Policealna Opieki Medycznej \u201e\u017bak\u201d w Starachowicach",
                "name": "Szko\u0142a Policealna Opieki Medycznej \u201e\u017bak\u201d w Starachowicach",
                "addr:country": "PL",
                "addr:postcode": "27-200",
                "addr:city": "Starachowice",
                "addr:street": "ul. Jana Kili\u0144skiego",
                "addr:housenumber": "26",
                "addr:teryt:simc": 8435,
                "addr:teryt:sym_ul": 947930,
                "contact:phone": "+48 412747024",
                "contact:email": "starachowice@zak.edu.pl",
                "contact:website": "http:\/\/www.zak.edu.pl",
                "ref:regon": "368188412",
                "operator": "Centrum Nauki I Biznesu \"\u017bak\" Sp\u00f3\u0142ka Z Ograniczon\u0105 Odpowiedzialno\u015bci\u0105",
                "operator:type": "private",
                "amenity": "college"
            }
        },
        {
            "id": 55443,
            "type": "Feature",
            "geometry": {
                "type": "Point",
                "coordinates": [
                    21.06809,
                    51.04516
                ]
            },
            "properties": {
                "ref:rspo": 55443,
                "official_name": "Centrum Kszta\u0142cenia Zawodowego w Starachowicach",
                "name": "Centrum Kszta\u0142cenia Zawodowego w Starachowicach",
                "addr:country": "PL",
                "addr:postcode": "27-200",
                "addr:city": "Starachowice",
                "addr:street": "ul. in\u017c. W\u0142adys\u0142awa Rogowskiego",
                "addr:housenumber": "14",
                "addr:teryt:simc": 29919,
                "addr:teryt:sym_ul": 947930,
                "contact:phone": "+48 412753865",
                "contact:email": "centrum@ckp.starachowice.pl",
                "contact:website": "http:\/\/ckp.starachowice.pl",
                "ref:regon": "292447571",
                "ref:vatin": "PL6642131333",
                "operator": "Powiat Starachowicki",
                "operator:type": "government",
                "fixme": "w zale\u017cno\u015bci od przedmiotu dzia\u0142alno\u015bci (np. amenity=training + training=*, amenity=dancing_school, amenity=language_school, amenity=music_school) albo amenity=school, amenity=college, albo landuse=education w zale\u017cno\u015bci od tego, jakie plac\u00f3wki wchodz\u0105 w sk\u0142ad zespo\u0142u. Sprawd\u017a, kiedy stosowa\u0107 amenity=* a kiedy landuse=education."
            }
        },
        {
            "id": 35219,
            "type": "Feature",
            "geometry": {
                "type": "Point",
                "coordinates": [
                    21.07832,
                    51.04694
                ]
            },
            "properties": {
                "isced:level": "3",
                "ref:rspo": 35219,
                "official_name": "Niepubliczne Technikum im. Wojska Polskiego w Starachowicach Zak\u0142adu Doskonalenia Zawodowego w Kielcach",
                "name": "Niepubliczne Technikum",
                "addr:country": "PL",
                "addr:postcode": "27-200",
                "addr:city": "Starachowice",
                "addr:street": "ul. Wojska Polskiego",
                "addr:housenumber": "15",
                "addr:teryt:simc": 24628,
                "addr:teryt:sym_ul": 947930,
                "contact:phone": "+48 412747544",
                "contact:email": "starachowice@zdz.kielce.pl",
                "contact:website": "http:\/\/www.zdz.kielce.pl",
                "ref:regon": "260640962",
                "ref:vatin": "PL6570008869",
                "operator": "Zak\u0142ad Doskonalenia Zawodowego W Kielcach",
                "operator:type": "ngo",
                "amenity": "school"
            }
        },
        {
            "id": 44679,
            "type": "Feature",
            "geometry": {
                "type": "Point",
                "coordinates": [
                    21.07832,
                    51.04691
                ]
            },
            "properties": {
                "isced:level": "3",
                "ref:rspo": 44679,
                "official_name": "Niepubliczne Liceum Og\u00f3lnokszta\u0142c\u0105ce w Starachowicach Zak\u0142adu Doskonalenia Zawodowego w Kielcach",
                "name": "Niepubliczne Liceum Og\u00f3lnokszta\u0142c\u0105ce w Starachowicach Zak\u0142adu Doskonalenia Zawodowego w Kielcach",
                "addr:country": "PL",
                "addr:postcode": "27-200",
                "addr:city": "Starachowice",
                "addr:street": "ul. Wojska Polskiego",
                "addr:housenumber": "15",
                "addr:teryt:simc": 24628,
                "addr:teryt:sym_ul": 947930,
                "contact:phone": "+48 412747544",
                "contact:email": "starachowice@zdz.kielce.pl",
                "ref:regon": "260641625",
                "ref:vatin": "PL6570008869",
                "operator": "Zak\u0142ad Doskonalenia Zawodowego W Kielcach",
                "operator:type": "ngo",
                "amenity": "school"
            }
        },
        {
            "id": 44719,
            "type": "Feature",
            "geometry": {
                "type": "Point",
                "coordinates": [
                    21.07832,
                    51.04688
                ]
            },
            "properties": {
                "isced:level": "3",
                "ref:rspo": 44719,
                "official_name": "Niepubliczna Bran\u017cowa Szko\u0142a I Stopnia w Starachowicach",
                "name": "Niepubliczna Bran\u017cowa Szko\u0142a I Stopnia w Starachowicach",
                "addr:country": "PL",
                "addr:postcode": "27-200",
                "addr:city": "Starachowice",
                "addr:street": "ul. Wojska Polskiego",
                "addr:housenumber": "15",
                "addr:teryt:simc": 24628,
                "addr:teryt:sym_ul": 947930,
                "contact:phone": "+48 412747544",
                "contact:email": "starachowice@zdz.kielce.pl",
                "ref:regon": "260641631",
                "ref:vatin": "PL6570008869",
                "operator": "Zak\u0142ad Doskonalenia Zawodowego W Kielcach",
                "operator:type": "ngo",
                "amenity": "school"
            }
        },
        {
            "id": 123133,
            "type": "Feature",
            "geometry": {
                "type": "Point",
                "coordinates": [
                    21.07832,
                    51.04685
                ]
            },
            "properties": {
                "isced:level": "1;2",
                "ref:rspo": 123133,
                "official_name": "Niepubliczna Szko\u0142a Podstawowa w Starachowicach Zak\u0142adu Doskonalenia Zawodowego w Kielcach",
                "name": "Niepubliczna Szko\u0142a Podstawowa w Starachowicach Zak\u0142adu Doskonalenia Zawodowego w Kielcach",
                "addr:country": "PL",
                "addr:postcode": "27-200",
                "addr:city": "Starachowice",
                "addr:street": "ul. Wojska Polskiego",
                "addr:housenumber": "15",
                "addr:teryt:simc": 24628,
                "addr:teryt:sym_ul": 947930,
                "contact:phone": "+48 412747544",
                "contact:email": "starachowice@zdz.kielce.pl",
                "ref:regon": "260770469",
                "ref:vatin": "PL6570008869",
                "operator": "Zak\u0142ad Doskonalenia Zawodowego W Kielcach A",
                "operator:type": "ngo",
                "amenity": "school"
            }
        },
        {
            "id": 274804,
            "type": "Feature",
            "geometry": {
                "type": "Point",
                "coordinates": [
                    21.07832,
                    51.04682
                ]
            },
            "properties": {
                "isced:level": "3",
                "ref:rspo": 274804,
                "official_name": "Niepubliczna Bran\u017cowa Szko\u0142a II Stopnia w Starachowicach",
                "name": "Niepubliczna Bran\u017cowa Szko\u0142a II Stopnia w Starachowicach",
                "addr:country": "PL",
                "addr:postcode": "27-200",
                "addr:city": "Starachowice",
                "addr:street": "ul. Wojska Polskiego",
                "addr:housenumber": "15",
                "addr:teryt:simc": 24628,
                "addr:teryt:sym_ul": 947930,
                "contact:phone": "+48 412747544",
                "contact:email": "starachowice@zdz.kielce.pl",
                "contact:website": "http:\/\/www.szkolystarachowice.zdz.kielce.pl",
                "ref:regon": "386308121",
                "operator": "Zak\u0142ad Doskonalenia Zawodowego W Kielcach",
                "operator:type": "ngo",
                "amenity": "school"
            }
        },
        {
            "id": 13062,
            "type": "Feature",
            "geometry": {
                "type": "Point",
                "coordinates": [
                    21.07478,
                    51.0478
                ]
            },
            "properties": {
                "ref:rspo": 13062,
                "official_name": "Og\u00f3lnopolskie Niepubliczne Centrum Doskonalenia Nauczycieli Nowator w Starachowicach",
                "name": "Og\u00f3lnopolskie Niepubliczne Centrum Doskonalenia Nauczycieli Nowator w Starachowicach",
                "addr:country": "PL",
                "addr:postcode": "27-200",
                "addr:city": "Starachowice",
                "addr:street": "ul. Stanis\u0142awa Wigury",
                "addr:housenumber": "18",
                "addr:teryt:simc": 24243,
                "addr:teryt:sym_ul": 947930,
                "contact:phone": "+48 531976473",
                "contact:email": "magdagrochulska@gazeta.pl",
                "ref:regon": "260633755",
                "operator": "Magdalena Grochulska",
                "operator:type": "private",
                "amenity": "training"
            }
        },
        {
            "id": 48444,
            "type": "Feature",
            "geometry": {
                "type": "Point",
                "coordinates": [
                    21.07478,
                    51.04777
                ]
            },
            "properties": {
                "ref:rspo": 48444,
                "official_name": "Niepubliczna Poradnia Psychologiczno-Pedagogiczna w Starachowicach",
                "name": "Niepubliczna Poradnia Psychologiczno-Pedagogiczna w Starachowicach",
                "addr:country": "PL",
                "addr:postcode": "27-200",
                "addr:city": "Starachowice",
                "addr:street": "ul. Stanis\u0142awa Wigury",
                "addr:housenumber": "18",
                "addr:teryt:simc": 24243,
                "addr:teryt:sym_ul": 947930,
                "contact:phone": "+48 531976473",
                "contact:email": "magdagrochulska@gazeta.pl",
                "ref:regon": "260642145",
                "ref:vatin": "PL6641261312",
                "operator": "Magdalena Grochulska",
                "operator:type": "private",
                "healthcare": "counselling",
                "counselling_type": "education",
                "fixme": "w zale\u017cno\u015bci od przedmiotu dzia\u0142alno\u015bci (np. healthcare=counselling + counselling_type=education albo healthcare=psychotherapist)"
            }
        },
        {
            "id": 23124,
            "type": "Feature",
            "geometry": {
                "type": "Point",
                "coordinates": [
                    21.08614,
                    51.04798
                ]
            },
            "properties": {
                "isced:level": "1;2",
                "ref:rspo": 23124,
                "official_name": "Szko\u0142a Podstawowa Nr 12 im. Miko\u0142aja Kopernika w Starachowicach",
                "name": "Szko\u0142a Podstawowa Nr 12",
                "addr:country": "PL",
                "addr:postcode": "27-200",
                "addr:city": "Starachowice",
                "addr:street": "ul. S\u0142oneczna",
                "addr:housenumber": "1a",
                "addr:teryt:simc": 20254,
                "addr:teryt:sym_ul": 947930,
                "contact:phone": "+48 412745567",
                "contact:email": "sp12@sp12.starachowice.eu",
                "contact:website": "http:\/\/www.sp12starachowice.pl",
                "ref:regon": "290619016",
                "ref:vatin": "PL6641104179",
                "operator": "Miasto Starachowice",
                "operator:type": "government",
                "amenity": "school"
            }
        },
        {
            "id": 44733,
            "type": "Feature",
            "geometry": {
                "type": "Point",
                "coordinates": [
                    21.08614,
                    51.04795
                ]
            },
            "properties": {
                "isced:level": "3",
                "ref:rspo": 44733,
                "official_name": "Liceum Og\u00f3lnokszta\u0142c\u0105ce dla Doros\u0142ych \u201e\u017bak\u201d w Starachowicach",
                "name": "Liceum Og\u00f3lnokszta\u0142c\u0105ce dla Doros\u0142ych \u201e\u017bak\u201d w Starachowicach",
                "addr:country": "PL",
                "addr:postcode": "27-200",
                "addr:city": "Starachowice",
                "addr:street": "ul. S\u0142oneczna",
                "addr:housenumber": "1a",
                "addr:teryt:simc": 20254,
                "addr:teryt:sym_ul": 947930,
                "contact:phone": "+48 412747024",
                "contact:email": "starachowice@zak.edu.pl",
                "ref:regon": "260646232",
                "ref:vatin": "PL7292597869",
                "operator": "Centrum Nauki I Biznesu \"\u017bak\" Sp\u00f3\u0142ka Z Ograniczon\u0105 Odpowiedzialno\u015bci\u0105",
                "operator:type": "private",
                "amenity": "school"
            }
        },
        {
            "id": 53354,
            "type": "Feature",
            "geometry": {
                "type": "Point",
                "coordinates": [
                    21.08614,
                    51.047920000000005
                ]
            },
            "properties": {
                "ref:rspo": 53354,
                "official_name": "O\u015brodek Szkoleniowy Centrum Nauki I Biznesu \u201e\u017bak\u201d w Starachowicach",
                "name": "O\u015brodek Szkoleniowy Centrum Nauki I Biznesu \u201e\u017bak\u201d w Starachowicach",
                "addr:country": "PL",
                "addr:postcode": "27-200",
                "addr:city": "Starachowice",
                "addr:street": "ul. S\u0142oneczna",
                "addr:housenumber": "1a",
                "addr:teryt:simc": 20254,
                "addr:teryt:sym_ul": 947930,
                "contact:phone": "+48 412747024",
                "contact:email": "starachowice@zak.edu.pl",
                "ref:regon": "260647148",
                "ref:vatin": "PL7292597869",
                "operator": "Centrum Nauki I Biznesu \"\u017bak\" Sp\u00f3\u0142ka Z Ograniczon\u0105 Odpowiedzialno\u015bci\u0105",
                "operator:type": "private",
                "fixme": "w zale\u017cno\u015bci od przedmiotu dzia\u0142alno\u015bci (np. amenity=training + training=*, amenity=dancing_school, amenity=language_school, amenity=music_school)"
            }
        },
        {
            "id": 133000,
            "type": "Feature",
            "geometry": {
                "type": "Point",
                "coordinates": [
                    21.08075,
                    51.0489
                ]
            },
            "properties": {
                "ref:rspo": 133000,
                "official_name": "Dwuj\u0119zyczne Niepubliczne Przedszkole \u201eKreatywne Nutki\u201d Z Oddzia\u0142ami Integracyjnymi dla Dzieci Z Autyzmem",
                "name": "Dwuj\u0119zyczne Niepubliczne Przedszkole \u201eKreatywne Nutki\u201d Z Oddzia\u0142ami Integracyjnymi dla Dzieci Z Autyzmem",
                "addr:country": "PL",
                "addr:postcode": "27-200",
                "addr:city": "Starachowice",
                "addr:street": "ul. Aleja Armii Krajowej",
                "addr:housenumber": "19",
                "addr:teryt:simc": 35012,
                "addr:teryt:sym_ul": 947930,
                "contact:phone": "+48 721996927",
                "contact:email": "arynkowska@interia.pl",
                "ref:regon": "366494837",
                "ref:vatin": "PL8871579533",
                "operator": "Anna Rynkowska-Jasztal",
                "operator:type": "private",
                "amenity": "kindergarten"
            }
        },
        {
            "id": 16752,
            "type": "Feature",
            "geometry": {
                "type": "Point",
                "coordinates": [
                    21.09729,
                    51.04898
                ]
            },
            "properties": {
                "ref:rspo": 16752,
                "official_name": "Centrum Kszta\u0142cenia Zawodowego w Starachowicach",
                "name": "Centrum Kszta\u0142cenia Zawodowego w Starachowicach",
                "addr:country": "PL",
                "addr:postcode": "27-200",
                "addr:city": "Starachowice",
                "addr:street": "ul. Eugeniusza Kwiatkowskiego",
                "addr:housenumber": "4",
                "addr:teryt:simc": 10559,
                "addr:teryt:sym_ul": 947930,
                "contact:phone": "+48 412743691",
                "contact:email": "starachowice-kursy@zdz.kielce.pl",
                "ref:regon": "260633979",
                "ref:vatin": "PL6570008869",
                "operator": "Zak\u0142ad Doskonalenia Zawodowego W Kielcach",
                "operator:type": "ngo",
                "fixme": "w zale\u017cno\u015bci od przedmiotu dzia\u0142alno\u015bci (np. amenity=training + training=*, amenity=dancing_school, amenity=language_school, amenity=music_school)"
            }
        },
        {
            "id": 27142,
            "type": "Feature",
            "geometry": {
                "type": "Point",
                "coordinates": [
                    21.09918,
                    51.04952
                ]
            },
            "properties": {
                "ref:rspo": 27142,
                "official_name": "Przedszkole Niepubliczne \u201eAkademia Przedszkolaka\u201d",
                "name": "Przedszkole Niepubliczne \u201eAkademia Przedszkolaka\u201d",
                "addr:country": "PL",
                "addr:postcode": "27-200",
                "addr:city": "Starachowice",
                "addr:street": "ul. Grzybowa",
                "addr:housenumber": "1",
                "addr:teryt:simc": 6341,
                "addr:teryt:sym_ul": 947930,
                "contact:phone": "+48 668432370",
                "contact:email": "kontakt@przedszkolak.starachowice.pl",
                "contact:website": "http:\/\/www.przedszkolak.starachowice.pl",
                "ref:regon": "260638994",
                "operator": "Ma\u0142gorzata Krawczyk",
                "operator:type": "private",
                "amenity": "kindergarten"
            }
        },
        {
            "id": 20028,
            "type": "Feature",
            "geometry": {
                "type": "Point",
                "coordinates": [
                    21.07456,
                    51.04987
                ]
            },
            "properties": {
                "ref:rspo": 20028,
                "official_name": "Przedszkole Miejskie Nr 15 w Starachowicach",
                "name": "Przedszkole Miejskie Nr 15 w Starachowicach",
                "addr:country": "PL",
                "addr:postcode": "27-200",
                "addr:city": "Starachowice",
                "addr:street": "ul. Na Szlakowisku",
                "addr:housenumber": "7b",
                "addr:teryt:simc": 13682,
                "addr:teryt:sym_ul": 947930,
                "contact:phone": "+48 412748466",
                "contact:email": "przedszkole_nr15@o2.pl",
                "contact:website": "http:\/\/www.przedszkole_nr15.pl",
                "ref:regon": "290014939",
                "ref:vatin": "PL6641871826",
                "operator": "Miasto Starachowice",
                "operator:type": "government",
                "amenity": "kindergarten"
            }
        },
        {
            "id": 47224,
            "type": "Feature",
            "geometry": {
                "type": "Point",
                "coordinates": [
                    21.08952,
                    51.0503
                ]
            },
            "properties": {
                "ref:rspo": 47224,
                "official_name": "Mi\u0119dzyszkolny O\u015brodek Gimnastyki Korekcyjnej I Kompensacyjnej w Starachowicach",
                "name": "Mi\u0119dzyszkolny O\u015brodek Gimnastyki Korekcyjnej I Kompensacyjnej w Starachowicach",
                "addr:country": "PL",
                "addr:postcode": "27-200",
                "addr:city": "Starachowice",
                "addr:street": "ul. Gliniana",
                "addr:housenumber": "10a",
                "addr:teryt:simc": 5559,
                "addr:teryt:sym_ul": 947930,
                "contact:phone": "+48 412747196",
                "contact:email": "mogkik@mogkik.pl",
                "contact:website": "http:\/\/mogkik.pl",
                "ref:regon": "292381547",
                "ref:vatin": "PL6641941656",
                "operator": "Powiat Starachowicki",
                "operator:type": "government",
                "fixme": "w zale\u017cno\u015bci od przedmiotu dzia\u0142alno\u015bci (np. amenity=training + training=*, amenity=dancing_school, amenity=language_school, amenity=music_school)"
            }
        },
        {
            "id": 27448,
            "type": "Feature",
            "geometry": {
                "type": "Point",
                "coordinates": [
                    21.08274,
                    51.05037
                ]
            },
            "properties": {
                "ref:rspo": 27448,
                "official_name": "Specjalny O\u015brodek Szkolno-Wychowawczy w Starachowicach",
                "name": "Specjalny O\u015brodek Szkolno-Wychowawczy w Starachowicach",
                "addr:country": "PL",
                "addr:postcode": "27-200",
                "addr:city": "Starachowice",
                "addr:street": "ul. Stanis\u0142awa Staszica",
                "addr:housenumber": "16",
                "addr:teryt:simc": 21071,
                "addr:teryt:sym_ul": 947930,
                "contact:phone": "+48 412747173",
                "contact:email": "soswstce@pro.onet.pl",
                "ref:regon": "292445738",
                "ref:vatin": "PL6641463406",
                "operator": "Powiat Starachowicki",
                "operator:type": "government",
                "amenity": "school",
                "note": "Children RSPO: 111481;111500;111502"
            }
        },
        {
            "id": 111481,
            "type": "Feature",
            "geometry": {
                "type": "Point",
                "coordinates": [
                    21.08274,
                    51.05034
                ]
            },
            "properties": {
                "isced:level": "1;2",
                "ref:rspo": 111481,
                "official_name": "Szko\u0142a Podstawowa Specjalna w Starachowicach",
                "name": "Szko\u0142a Podstawowa Specjalna w Starachowicach",
                "addr:country": "PL",
                "addr:postcode": "27-200",
                "addr:city": "Starachowice",
                "addr:street": "ul. Stanis\u0142awa Staszica",
                "addr:housenumber": "16",
                "addr:teryt:simc": 21071,
                "addr:teryt:sym_ul": 947930,
                "contact:phone": "+48 412747173",
                "contact:email": "soswstce@pro.onet.pl",
                "ref:regon": "291210921",
                "operator": "Powiat Starachowicki",
                "operator:type": "government",
                "amenity": "school",
                "note": "Parent RSPO: 27448"
            }
        },
        {
            "id": 111500,
            "type": "Feature",
            "geometry": {
                "type": "Point",
                "coordinates": [
                    21.08274,
                    51.05031
                ]
            },
            "properties": {
                "ref:rspo": 111500,
                "official_name": "Szko\u0142a Specjalna Przysposabiaj\u0105ca Do Pracy w Starachowicach",
                "name": "Szko\u0142a Specjalna Przysposabiaj\u0105ca Do Pracy w Starachowicach",
                "addr:country": "PL",
                "addr:postcode": "27-200",
                "addr:city": "Starachowice",
                "addr:street": "ul. Stanis\u0142awa Staszica",
                "addr:housenumber": "16",
                "addr:teryt:simc": 21071,
                "addr:teryt:sym_ul": 947930,
                "contact:phone": "+48 412747173",
                "contact:email": "soswstce@pro.onet.pl",
                "ref:regon": "260036657",
                "operator": "Powiat Starachowicki",
                "operator:type": "government",
                "amenity": "school",
                "note": "Parent RSPO: 27448"
            }
        },
        {
            "id": 111502,
            "type": "Feature",
            "geometry": {
                "type": "Point",
                "coordinates": [
                    21.08274,
                    51.05028
                ]
            },
            "properties": {
                "isced:level": "3",
                "ref:rspo": 111502,
                "official_name": "Bran\u017cowa Szko\u0142a I Stopnia Specjalna w Starachowicach",
                "name": "Bran\u017cowa Szko\u0142a I Stopnia Specjalna w Starachowicach",
                "addr:country": "PL",
                "addr:postcode": "27-200",
                "addr:city": "Starachowice",
                "addr:street": "ul. Stanis\u0142awa Staszica",
                "addr:housenumber": "16",
                "addr:teryt:simc": 21071,
                "addr:teryt:sym_ul": 947930,
                "contact:phone": "+48 412747173",
                "contact:email": "soswstce@pro.onet.pl",
                "ref:regon": "292405851",
                "operator": "Powiat Starachowicki",
                "operator:type": "government",
                "amenity": "school",
                "note": "Parent RSPO: 27448"
            }
        },
        {
            "id": 20027,
            "type": "Feature",
            "geometry": {
                "type": "Point",
                "coordinates": [
                    21.0848799,
                    51.05117
                ]
            },
            "properties": {
                "ref:rspo": 20027,
                "official_name": "Przedszkole Miejskie Nr 14 im. Jana Brzechwy w Starachowicach",
                "name": "Przedszkole Miejskie Nr 14",
                "addr:country": "PL",
                "addr:postcode": "27-200",
                "addr:city": "Starachowice",
                "addr:street": "ul. Graniczna",
                "addr:housenumber": "10",
                "addr:teryt:simc": 6075,
                "addr:teryt:sym_ul": 947930,
                "contact:phone": "+48 412748580",
                "contact:email": "info@pm14.starachowice.eu",
                "contact:website": "http:\/\/www.pm14.pl",
                "ref:regon": "290014922",
                "ref:vatin": "PL6641871803",
                "operator": "Miasto Starachowice",
                "operator:type": "government",
                "amenity": "kindergarten"
            }
        },
        {
            "id": 263274,
            "type": "Feature",
            "geometry": {
                "type": "Point",
                "coordinates": [
                    21.07964,
                    51.05122
                ]
            },
            "properties": {
                "ref:rspo": 263274,
                "official_name": "Przedszkole J\u0119zykowe \u201eRe-Re-Kum-Kum\u201d Z Oddzia\u0142ami Terapeutycznymi dla Dzieci Z Autyzmem",
                "name": "Przedszkole J\u0119zykowe \u201eRe-Re-Kum-Kum\u201d Z Oddzia\u0142ami Terapeutycznymi dla Dzieci Z Autyzmem",
                "addr:country": "PL",
                "addr:postcode": "27-200",
                "addr:city": "Starachowice",
                "addr:street": "ul. Stanis\u0142awa Staszica",
                "addr:housenumber": "25",
                "addr:teryt:simc": 21071,
                "addr:teryt:sym_ul": 947930,
                "contact:phone": "+48 412749905",
                "contact:email": "re-re-kum-kum@wp.pl",
                "contact:website": "http:\/\/www.re-re-kum-kum.pl",
                "ref:regon": "368177450",
                "operator": "Mariusz Jaskulski",
                "operator:type": "private",
                "amenity": "kindergarten"
            }
        },
        {
            "id": 270251,
            "type": "Feature",
            "geometry": {
                "type": "Point",
                "coordinates": [
                    21.07964,
                    51.05119
                ]
            },
            "properties": {
                "ref:rspo": 270251,
                "official_name": "Przedszkole Specjalne Re-Re-Kum-Kum",
                "name": "Przedszkole Specjalne Re-Re-Kum-Kum",
                "addr:country": "PL",
                "addr:postcode": "27-200",
                "addr:city": "Starachowice",
                "addr:street": "ul. Stanis\u0142awa Staszica",
                "addr:housenumber": "25",
                "addr:teryt:simc": 21071,
                "addr:teryt:sym_ul": 947930,
                "contact:phone": "+48 794223390",
                "contact:email": "caroline@lingua.home.pl",
                "ref:regon": "382258410",
                "operator": "Karolina St\u0119pkowska",
                "operator:type": "private",
                "amenity": "kindergarten"
            }
        },
        {
            "id": 20026,
            "type": "Feature",
            "geometry": {
                "type": "Point",
                "coordinates": [
                    21.09494,
                    51.05151
                ]
            },
            "properties": {
                "ref:rspo": 20026,
                "official_name": "Przedszkole Miejskie Nr 13 w Starachowicach",
                "name": "Przedszkole Miejskie Nr 13 w Starachowicach",
                "addr:country": "PL",
                "addr:postcode": "27-200",
                "addr:city": "Starachowice",
                "addr:street": "ul. Le\u015bna",
                "addr:housenumber": "40",
                "addr:teryt:simc": 10898,
                "addr:teryt:sym_ul": 947930,
                "contact:phone": "+48 412747775",
                "contact:email": "przedszkole13@o2.pl",
                "ref:regon": "290014916",
                "ref:vatin": "PL6641871772",
                "operator": "Miasto Starachowice",
                "operator:type": "government",
                "amenity": "kindergarten"
            }
        },
        {
            "id": 75369,
            "type": "Feature",
            "geometry": {
                "type": "Point",
                "coordinates": [
                    21.08803,
                    51.05197
                ]
            },
            "properties": {
                "ref:rspo": 75369,
                "official_name": "Pa\u0144stwowa Szko\u0142a Muzyczna I St. im. Feliksa Rybickiego w Starachowicach",
                "name": "Pa\u0144stwowa Szko\u0142a Muzyczna I St.",
                "addr:country": "PL",
                "addr:postcode": "27-200",
                "addr:city": "Starachowice",
                "addr:street": "ul. Kopalniana",
                "addr:housenumber": "10b",
                "addr:teryt:simc": 9243,
                "addr:teryt:sym_ul": 947930,
                "contact:phone": "+48 412741709",
                "contact:email": "sekretariat@psmstar.pl",
                "contact:website": "http:\/\/psmstar.pl",
                "ref:regon": "000286829",
                "operator": "Ministerstwo Kultury I Dziedzictwa Narodowego",
                "operator:type": "public",
                "amenity": "music_school"
            }
        },
        {
            "id": 19971,
            "type": "Feature",
            "geometry": {
                "type": "Point",
                "coordinates": [
                    21.07652,
                    51.0534
                ]
            },
            "properties": {
                "ref:rspo": 19971,
                "official_name": "Przedszkole Miejskie Nr 2 im. Kubusia Puchatka w Starachowicach",
                "name": "Przedszkole Miejskie Nr 2",
                "addr:country": "PL",
                "addr:postcode": "27-200",
                "addr:city": "Starachowice",
                "addr:street": "ul. O\u015bwiatowa",
                "addr:housenumber": "2",
                "addr:teryt:simc": 15436,
                "addr:teryt:sym_ul": 947930,
                "contact:phone": "+48 412746386",
                "contact:email": "przedszkolepuchatka@o2.pl",
                "contact:website": "http:\/\/www.przedszkolekubusiapuchatka.pl",
                "ref:regon": "290014840",
                "ref:vatin": "PL6641871677",
                "operator": "Miasto Starachowice",
                "operator:type": "government",
                "amenity": "kindergarten"
            }
        },
        {
            "id": 23098,
            "type": "Feature",
            "geometry": {
                "type": "Point",
                "coordinates": [
                    21.07558,
                    51.05363
                ]
            },
            "properties": {
                "isced:level": "1;2",
                "ref:rspo": 23098,
                "official_name": "Szko\u0142a Podstawowa Nr 9 im. Partyzant\u00f3w Ziemi Kieleckiej w Starachowicach",
                "name": "Szko\u0142a Podstawowa Nr 9",
                "addr:country": "PL",
                "addr:postcode": "27-200",
                "addr:city": "Starachowice",
                "addr:street": "ul. O\u015bwiatowa",
                "addr:housenumber": "5",
                "addr:teryt:simc": 15436,
                "addr:teryt:sym_ul": 947930,
                "contact:phone": "+48 412745556",
                "contact:email": "sp9starachowice@vp.pl",
                "contact:website": "http:\/\/www.sp9starachowice.szkolna.net",
                "ref:regon": "290618985",
                "ref:vatin": "PL6641463470",
                "operator": "Miasto Starachowice",
                "operator:type": "government",
                "amenity": "school"
            }
        },
        {
            "id": 87204,
            "type": "Feature",
            "geometry": {
                "type": "Point",
                "coordinates": [
                    21.07323,
                    51.05568
                ]
            },
            "properties": {
                "ref:rspo": 87204,
                "official_name": "Niepubliczny O\u015brodek Doskonalenia Nauczycieli \u201eSophia\u201d w Starachowicach",
                "name": "Niepubliczny O\u015brodek Doskonalenia Nauczycieli \u201eSophia\u201d w Starachowicach",
                "addr:country": "PL",
                "addr:postcode": "27-200",
                "addr:city": "Starachowice",
                "addr:street": "ul. Konstytucji 3 Maja",
                "addr:housenumber": "23",
                "addr:door": "4",
                "addr:teryt:simc": 9213,
                "addr:teryt:sym_ul": 947930,
                "contact:phone": "+48 502617858",
                "contact:email": "jakub.kolodziejczyk@nodnsophia.pl",
                "ref:regon": "260649986",
                "operator": "Jakub Ko\u0142odziejczyk",
                "operator:type": "private",
                "amenity": "training"
            }
        },
        {
            "id": 53330,
            "type": "Feature",
            "geometry": {
                "type": "Point",
                "coordinates": [
                    21.06643,
                    51.05691
                ]
            },
            "properties": {
                "ref:rspo": 53330,
                "official_name": "Centrum Bezpiecze\u0144stwa I Ochrony Pracy w Starachowicach",
                "name": "Centrum Bezpiecze\u0144stwa I Ochrony Pracy w Starachowicach",
                "addr:country": "PL",
                "addr:postcode": "27-200",
                "addr:city": "Starachowice",
                "addr:street": "ul. Radomska",
                "addr:housenumber": "25",
                "addr:teryt:simc": 18316,
                "addr:teryt:sym_ul": 947930,
                "contact:phone": "+48 601969223",
                "contact:email": "ewa.grudziecka@op.pl",
                "ref:regon": "260642961",
                "ref:vatin": "PL6641270529",
                "operator": "Ewa Grudziecka",
                "operator:type": "private",
                "fixme": "w zale\u017cno\u015bci od przedmiotu dzia\u0142alno\u015bci (np. amenity=training + training=*, amenity=dancing_school, amenity=language_school, amenity=music_school)"
            }
        },
        {
            "id": 52473,
            "type": "Feature",
            "geometry": {
                "type": "Point",
                "coordinates": [
                    21.06652,
                    51.0576999
                ]
            },
            "properties": {
                "ref:rspo": 52473,
                "official_name": "O\u015brodek Rzeczoznawstwa I Post\u0119pu Technicznego \u201eSimp-Zorpot\u201d w Starachowicach",
                "name": "O\u015brodek Rzeczoznawstwa I Post\u0119pu Technicznego \u201eSimp-Zorpot\u201d w Starachowicach",
                "addr:country": "PL",
                "addr:postcode": "27-200",
                "addr:city": "Starachowice",
                "addr:street": "ul. Radomska",
                "addr:housenumber": "29",
                "addr:teryt:simc": 18316,
                "addr:teryt:sym_ul": 947930,
                "contact:phone": "+48 412755475",
                "contact:email": "simpzorpot@poczta.internetdsl.pl",
                "ref:regon": "260656271",
                "ref:vatin": "PL5260001105",
                "operator": "Stowarzyszenie In\u017cynier\u00f3w I Technik\u00f3w Mechanik\u00f3w Polskich",
                "operator:type": "ngo",
                "fixme": "w zale\u017cno\u015bci od przedmiotu dzia\u0142alno\u015bci (np. amenity=training + training=*, amenity=dancing_school, amenity=language_school, amenity=music_school)"
            }
        },
        {
            "id": 29588,
            "type": "Feature",
            "geometry": {
                "type": "Point",
                "coordinates": [
                    21.07543,
                    51.05952
                ]
            },
            "properties": {
                "ref:rspo": 29588,
                "official_name": "Zesp\u00f3\u0142 Szk\u00f3\u0142 Zawodowych Nr 3 w Starachowicach",
                "name": "Zesp\u00f3\u0142 Szk\u00f3\u0142 Zawodowych Nr 3 w Starachowicach",
                "addr:country": "PL",
                "addr:postcode": "27-200",
                "addr:city": "Starachowice",
                "addr:street": "ul. Szkolna",
                "addr:housenumber": "10",
                "addr:teryt:simc": 21970,
                "addr:teryt:sym_ul": 947930,
                "contact:phone": "+48 412747252",
                "contact:email": "sekretariat@zsz3.net",
                "contact:website": "http:\/\/www.zsz3.net",
                "ref:regon": "292443366",
                "ref:vatin": "PL6641036503",
                "operator": "Powiat Starachowicki",
                "operator:type": "government",
                "landuse": "education",
                "fixme": "amenity=school, amenity=college albo landuse=education w zale\u017cno\u015bci od tego, jakie plac\u00f3wki wchodz\u0105 w sk\u0142ad zespo\u0142u. Sprawd\u017a, kiedy stosowa\u0107 amenity=* a kiedy landuse=education.",
                "note": "Children RSPO: 44623;44628;119724;275596"
            }
        },
        {
            "id": 44623,
            "type": "Feature",
            "geometry": {
                "type": "Point",
                "coordinates": [
                    21.07543,
                    51.05949
                ]
            },
            "properties": {
                "isced:level": "3",
                "ref:rspo": 44623,
                "official_name": "Bran\u017cowa Szko\u0142a I Stopnia Nr 1 w Starachowicach",
                "name": "Bran\u017cowa Szko\u0142a I Stopnia Nr 1 w Starachowicach",
                "addr:country": "PL",
                "addr:postcode": "27-200",
                "addr:city": "Starachowice",
                "addr:street": "ul. Szkolna",
                "addr:housenumber": "10",
                "addr:teryt:simc": 21970,
                "addr:teryt:sym_ul": 947930,
                "contact:phone": "+48 412747252",
                "contact:email": "sekretariat@zsz3.net",
                "contact:website": "http:\/\/www.zsz3.net",
                "ref:regon": "292442013",
                "ref:vatin": "PL6641036503",
                "operator": "Powiat Starachowicki",
                "operator:type": "government",
                "amenity": "school",
                "note": "Parent RSPO: 29588"
            }
        },
        {
            "id": 44628,
            "type": "Feature",
            "geometry": {
                "type": "Point",
                "coordinates": [
                    21.07543,
                    51.05946
                ]
            },
            "properties": {
                "isced:level": "3",
                "ref:rspo": 44628,
                "official_name": "Sportowe Liceum Og\u00f3lnokszta\u0142c\u0105ce w Starachowicach",
                "name": "Sportowe Liceum Og\u00f3lnokszta\u0142c\u0105ce w Starachowicach",
                "addr:country": "PL",
                "addr:postcode": "27-200",
                "addr:city": "Starachowice",
                "addr:street": "ul. Szkolna",
                "addr:housenumber": "10",
                "addr:teryt:simc": 21970,
                "addr:teryt:sym_ul": 947930,
                "contact:phone": "+48 412747252",
                "contact:email": "sekretariat@zsz3.net",
                "contact:website": "http:\/\/www.zsz3.net",
                "ref:regon": "260641588",
                "ref:vatin": "PL6641036503",
                "operator": "Powiat Starachowicki",
                "operator:type": "government",
                "amenity": "school",
                "note": "Parent RSPO: 29588"
            }
        },
        {
            "id": 119724,
            "type": "Feature",
            "geometry": {
                "type": "Point",
                "coordinates": [
                    21.07543,
                    51.05943
                ]
            },
            "properties": {
                "isced:level": "3",
                "ref:rspo": 119724,
                "official_name": "Liceum Og\u00f3lnokszta\u0142c\u0105ce dla Doros\u0142ych w Starachowicach",
                "name": "Liceum Og\u00f3lnokszta\u0142c\u0105ce dla Doros\u0142ych w Starachowicach",
                "addr:country": "PL",
                "addr:postcode": "27-200",
                "addr:city": "Starachowice",
                "addr:street": "ul. Szkolna",
                "addr:housenumber": "10",
                "addr:teryt:simc": 21970,
                "addr:teryt:sym_ul": 947930,
                "contact:phone": "+48 412747252",
                "contact:email": "sekretariat@zsz3.net",
                "contact:website": "http:\/\/www.zsz3.net",
                "ref:regon": "260719209",
                "ref:vatin": "PL6641036503",
                "operator": "Powiat Starachowicki",
                "operator:type": "government",
                "amenity": "school",
                "note": "Parent RSPO: 29588"
            }
        },
        {
            "id": 275596,
            "type": "Feature",
            "geometry": {
                "type": "Point",
                "coordinates": [
                    21.07543,
                    51.0594
                ]
            },
            "properties": {
                "isced:level": "3",
                "ref:rspo": 275596,
                "official_name": "Bran\u017cowa Szko\u0142a II Stopnia Nr 1 w Starachowicach",
                "name": "Bran\u017cowa Szko\u0142a II Stopnia Nr 1 w Starachowicach",
                "addr:country": "PL",
                "addr:postcode": "27-200",
                "addr:city": "Starachowice",
                "addr:street": "ul. Szkolna",
                "addr:housenumber": "10",
                "addr:teryt:simc": 21970,
                "addr:teryt:sym_ul": 947930,
                "contact:phone": "+48 412747252",
                "contact:email": "sekretariat@zsz3.net",
                "ref:regon": "386937621",
                "operator": "Powiat Starachowicki",
                "operator:type": "government",
                "amenity": "school",
                "note": "Parent RSPO: 29588"
            }
        },
        {
            "id": 44673,
            "type": "Feature",
            "geometry": {
                "type": "Point",
                "coordinates": [
                    21.07374,
                    51.05965
                ]
            },
            "properties": {
                "isced:level": "3",
                "ref:rspo": 44673,
                "official_name": "Ii Liceum Og\u00f3lnokszta\u0142c\u0105ce im. Stanis\u0142awa Staszica w Starachowicach",
                "name": "Ii Liceum Og\u00f3lnokszta\u0142c\u0105ce",
                "addr:country": "PL",
                "addr:postcode": "27-200",
                "addr:city": "Starachowice",
                "addr:street": "ul. Szkolna",
                "addr:housenumber": "12",
                "addr:teryt:simc": 21970,
                "addr:teryt:sym_ul": 947930,
                "contact:phone": "+48 412746062",
                "contact:email": "sekretariat@2lo.starachowice.pl",
                "contact:website": "http:\/\/2lo.starachowice.pl",
                "ref:regon": "292447393",
                "ref:vatin": "PL6641097172",
                "operator": "Powiat Starachowicki",
                "operator:type": "government",
                "amenity": "school"
            }
        },
        {
            "id": 27569,
            "type": "Feature",
            "geometry": {
                "type": "Point",
                "coordinates": [
                    21.0670499,
                    51.06045
                ]
            },
            "properties": {
                "isced:level": "3",
                "ref:rspo": 27569,
                "official_name": "I Liceum Og\u00f3lnokszta\u0142c\u0105ce im. Tadeusza Ko\u015bciuszki w Starachowicach",
                "name": "I Liceum Og\u00f3lnokszta\u0142c\u0105ce",
                "addr:country": "PL",
                "addr:postcode": "27-200",
                "addr:city": "Starachowice",
                "addr:street": "ul. Radomska",
                "addr:housenumber": "37",
                "addr:teryt:simc": 18316,
                "addr:teryt:sym_ul": 947930,
                "contact:phone": "+48 412747702",
                "contact:email": "lo1@lo1.starachowice.pl",
                "ref:regon": "292443509",
                "ref:vatin": "PL6641450881",
                "operator": "Powiat Starachowicki",
                "operator:type": "government",
                "amenity": "school"
            }
        },
        {
            "id": 12823,
            "type": "Feature",
            "geometry": {
                "type": "Point",
                "coordinates": [
                    21.07185,
                    51.06518
                ]
            },
            "properties": {
                "ref:rspo": 12823,
                "official_name": "O\u015brodek Szkolenia Nauczycieli \u201eSp\u00f3jrz Inaczej\u201d w Starachowicach",
                "name": "O\u015brodek Szkolenia Nauczycieli \u201eSp\u00f3jrz Inaczej\u201d w Starachowicach",
                "addr:country": "PL",
                "addr:postcode": "27-200",
                "addr:city": "Starachowice",
                "addr:street": "ul. Radomska",
                "addr:housenumber": "72",
                "addr:teryt:simc": 18316,
                "addr:teryt:sym_ul": 947930,
                "contact:phone": "+48 412741800",
                "contact:email": "spojrz_inaczej@adres.pl",
                "contact:website": "http:\/\/www.spojrzinaczej.pl",
                "ref:regon": "260633710",
                "operator": "Stowarzyszenie Psychoprofilaktyki \"Sp\u00f3jrz Inaczej\"",
                "operator:type": "ngo",
                "amenity": "training"
            }
        },
        {
            "id": 18389,
            "type": "Feature",
            "geometry": {
                "type": "Point",
                "coordinates": [
                    21.07185,
                    51.065149999999996
                ]
            },
            "properties": {
                "ref:rspo": 18389,
                "official_name": "Zesp\u00f3\u0142 Szk\u00f3\u0142 Zawodowych Nr 1 im. Mjr H. Dobrza\u0144skiego \u201eHubala\u201d w Starachowicach",
                "name": "Zesp\u00f3\u0142 Szk\u00f3\u0142 Zawodowych Nr 1",
                "addr:country": "PL",
                "addr:postcode": "27-200",
                "addr:city": "Starachowice",
                "addr:street": "ul. Radomska",
                "addr:housenumber": "72",
                "addr:teryt:simc": 18316,
                "addr:teryt:sym_ul": 947930,
                "contact:phone": "+48 412745274",
                "contact:email": "zsz1stce@pro.onet.pl",
                "ref:regon": "292446040",
                "ref:vatin": "PL6641468361",
                "operator": "Powiat Starachowicki",
                "operator:type": "government",
                "landuse": "education",
                "fixme": "amenity=school, amenity=college albo landuse=education w zale\u017cno\u015bci od tego, jakie plac\u00f3wki wchodz\u0105 w sk\u0142ad zespo\u0142u. Sprawd\u017a, kiedy stosowa\u0107 amenity=* a kiedy landuse=education.",
                "note": "Children RSPO: 30908;31517;31835;55681;271302"
            }
        },
        {
            "id": 44556,
            "type": "Feature",
            "geometry": {
                "type": "Point",
                "coordinates": [
                    21.07185,
                    51.06512
                ]
            },
            "properties": {
                "ref:rspo": 44556,
                "official_name": "Poradnia Psychologiczno-Pedagogiczna w Starachowicach",
                "name": "Poradnia Psychologiczno-Pedagogiczna w Starachowicach",
                "addr:country": "PL",
                "addr:postcode": "27-200",
                "addr:city": "Starachowice",
                "addr:street": "ul. Radomska",
                "addr:housenumber": "72",
                "addr:teryt:simc": 18316,
                "addr:teryt:sym_ul": 947930,
                "contact:phone": "+48 412747385",
                "contact:email": "poradnia_st@wp.pl",
                "contact:website": "http:\/\/poradniastarachowice.pl",
                "ref:regon": "292381406",
                "ref:vatin": "PL6641941662",
                "operator": "Powiat Starachowicki",
                "operator:type": "government",
                "healthcare": "counselling",
                "counselling_type": "education",
                "fixme": "w zale\u017cno\u015bci od przedmiotu dzia\u0142alno\u015bci (np. healthcare=counselling + counselling_type=education albo healthcare=psychotherapist)"
            }
        },
        {
            "id": 30908,
            "type": "Feature",
            "geometry": {
                "type": "Point",
                "coordinates": [
                    21.07185,
                    51.06509
                ]
            },
            "properties": {
                "isced:level": "3",
                "ref:rspo": 30908,
                "official_name": "Technikum Nr 1 w Starachowicach",
                "name": "Technikum Nr 1 w Starachowicach",
                "addr:country": "PL",
                "addr:postcode": "27-200",
                "addr:city": "Starachowice",
                "addr:street": "ul. Radomska",
                "addr:housenumber": "72",
                "addr:teryt:simc": 18316,
                "addr:teryt:sym_ul": 947930,
                "contact:phone": "+48 412745274",
                "contact:email": "zsz1stce@pro.onet.pl",
                "ref:regon": "292677414",
                "ref:vatin": "PL6641468361",
                "operator": "Powiat Starachowicki",
                "operator:type": "government",
                "amenity": "school",
                "note": "Parent RSPO: 18389"
            }
        },
        {
            "id": 31517,
            "type": "Feature",
            "geometry": {
                "type": "Point",
                "coordinates": [
                    21.07185,
                    51.065059999999995
                ]
            },
            "properties": {
                "isced:level": "4",
                "ref:rspo": 31517,
                "official_name": "Szko\u0142a Policealna Nr 1 w Starachowicach",
                "name": "Szko\u0142a Policealna Nr 1 w Starachowicach",
                "addr:country": "PL",
                "addr:postcode": "27-200",
                "addr:city": "Starachowice",
                "addr:street": "ul. Radomska",
                "addr:housenumber": "72",
                "addr:teryt:simc": 18316,
                "addr:teryt:sym_ul": 947930,
                "contact:phone": "+48 412745274",
                "contact:email": "zsz1stce@pro.onet.pl",
                "ref:regon": "292446181",
                "ref:vatin": "PL6641468361",
                "operator": "Powiat Starachowicki",
                "operator:type": "government",
                "amenity": "college",
                "note": "Parent RSPO: 18389"
            }
        },
        {
            "id": 31835,
            "type": "Feature",
            "geometry": {
                "type": "Point",
                "coordinates": [
                    21.07185,
                    51.06503
                ]
            },
            "properties": {
                "isced:level": "4",
                "ref:rspo": 31835,
                "official_name": "Szko\u0142a Policealna Medyczna Nr 2 im. Janusza Korczaka w Starachowicach",
                "name": "Szko\u0142a Policealna Medyczna Nr 2",
                "addr:country": "PL",
                "addr:postcode": "27-200",
                "addr:city": "Starachowice",
                "addr:street": "ul. Radomska",
                "addr:housenumber": "72",
                "addr:teryt:simc": 18316,
                "addr:teryt:sym_ul": 947930,
                "contact:phone": "+48 412745274",
                "contact:email": "zsz1stce@pro.onet.pl",
                "ref:regon": "291169970",
                "ref:vatin": "PL6641468361",
                "operator": "Powiat Starachowicki",
                "operator:type": "government",
                "amenity": "college",
                "note": "Parent RSPO: 18389"
            }
        },
        {
            "id": 55681,
            "type": "Feature",
            "geometry": {
                "type": "Point",
                "coordinates": [
                    21.07185,
                    51.065
                ]
            },
            "properties": {
                "ref:rspo": 55681,
                "official_name": "Bursa w Starachowicach",
                "name": "Bursa w Starachowicach",
                "addr:country": "PL",
                "addr:postcode": "27-200",
                "addr:city": "Starachowice",
                "addr:street": "ul. Radomska",
                "addr:housenumber": "72",
                "addr:teryt:simc": 18316,
                "addr:teryt:sym_ul": 947930,
                "contact:phone": "+48 412748913",
                "contact:email": "zsz1stce@pro.onet.pl",
                "ref:regon": "260613103",
                "ref:vatin": "PL6641468361",
                "operator": "Powiat Starachowicki",
                "operator:type": "government",
                "building": "dormitory",
                "note": "Parent RSPO: 18389"
            }
        },
        {
            "id": 271302,
            "type": "Feature",
            "geometry": {
                "type": "Point",
                "coordinates": [
                    21.07185,
                    51.064969999999995
                ]
            },
            "properties": {
                "isced:level": "3",
                "ref:rspo": 271302,
                "official_name": "Bran\u017cowa Szko\u0142a I Stopnia Nr 2 w Starachowicach",
                "name": "Bran\u017cowa Szko\u0142a I Stopnia Nr 2 w Starachowicach",
                "addr:country": "PL",
                "addr:postcode": "27-200",
                "addr:city": "Starachowice",
                "addr:street": "ul. Radomska",
                "addr:housenumber": "72",
                "addr:teryt:simc": 18316,
                "addr:teryt:sym_ul": 947930,
                "contact:phone": "+48 412745274",
                "contact:email": "zsz1stce@pro.onet.pl",
                "contact:website": "http:\/\/www.zsz1.starachowice.pl",
                "ref:regon": "383286123",
                "operator": "Powiat Starachowicki",
                "operator:type": "government",
                "amenity": "school",
                "note": "Parent RSPO: 18389"
            }
        },
        {
            "id": 48610,
            "type": "Feature",
            "geometry": {
                "type": "Point",
                "coordinates": [
                    21.05075,
                    51.06989
                ]
            },
            "properties": {
                "ref:rspo": 48610,
                "official_name": "Niepubliczna Szko\u0142a Szkolenia Obronnego \u201e\u015awit\u201d w Starachowicach",
                "name": "Niepubliczna Szko\u0142a Szkolenia Obronnego \u201e\u015awit\u201d w Starachowicach",
                "addr:country": "PL",
                "addr:postcode": "27-200",
                "addr:city": "Starachowice",
                "addr:street": "ul. Strzelnicza",
                "addr:housenumber": "29",
                "addr:teryt:simc": 21390,
                "addr:teryt:sym_ul": 947930,
                "contact:phone": "+48 412745333",
                "contact:email": "kontakt@strzelnica-starachowice.pl",
                "ref:regon": "260642228",
                "ref:vatin": "PL6641000132",
                "operator": "Klub Sportowy \"\u015awit\"",
                "operator:type": "ngo",
                "fixme": "w zale\u017cno\u015bci od przedmiotu dzia\u0142alno\u015bci (np. amenity=training + training=*, amenity=dancing_school, amenity=language_school, amenity=music_school)"
            }
        }
    ]
}