{
    "type": "FeatureCollection",
    "features": [
        {
            "id": 59858,
            "type": "Feature",
            "geometry": {
                "type": "Point",
                "coordinates": [
                    21.13901,
                    51.1150499
                ]
            },
            "properties": {
                "isced:level": "1;2",
                "ref:rspo": 59858,
                "official_name": "Szko\u0142a Podstawowa im. Eugenii Staniewskiej w Ma\u0142yszynie",
                "name": "Szko\u0142a Podstawowa",
                "addr:postcode": "27-220",
                "addr:place": "Ma\u0142yszyn G\u00f3rny",
                "addr:housenumber": "71",
                "addr:teryt:simc": 252718,
                "phone": "+48 412713121",
                "email": "spmalyszyn1@wp.pl",
                "ref:regon": "001193573",
                "ref:vatin": "PL6641090069",
                "operator": "Gmina Mirzec",
                "operator:type": "government",
                "amenity": "school"
            }
        },
        {
            "id": 10373,
            "type": "Feature",
            "geometry": {
                "type": "Point",
                "coordinates": [
                    21.093647,
                    51.1237641
                ]
            },
            "properties": {
                "isced:level": "1;2",
                "ref:rspo": 10373,
                "official_name": "Szko\u0142a Podstawowa im. Kazimierza Kupczyka w Tychowie Starym",
                "name": "Szko\u0142a Podstawowa",
                "addr:postcode": "27-220",
                "addr:place": "Tych\u00f3w Stary",
                "addr:housenumber": "69",
                "addr:teryt:simc": 252983,
                "phone": "+48 412713022",
                "email": "sptychow@poczta.onet.pl",
                "website": "http:\/\/spts.szkolnastrona.pl",
                "ref:regon": "001193538",
                "ref:vatin": "PL6641441882",
                "operator": "Gmina Mirzec",
                "operator:type": "government",
                "amenity": "school"
            }
        },
        {
            "id": 19309,
            "type": "Feature",
            "geometry": {
                "type": "Point",
                "coordinates": [
                    21.08653,
                    51.12505
                ]
            },
            "properties": {
                "ref:rspo": 19309,
                "official_name": "Publiczne Przedszkole w Mircu",
                "name": "Publiczne Przedszkole w Mircu",
                "addr:postcode": "27-220",
                "addr:place": "Mirzec Stary",
                "addr:housenumber": "12",
                "addr:teryt:simc": 252842,
                "phone": "+48 412713080",
                "email": "przedszkole.mirzec@wp.pl",
                "ref:regon": "290013466",
                "ref:vatin": "PL6641885395",
                "operator": "Gmina Mirzec",
                "operator:type": "government",
                "amenity": "kindergarten"
            }
        },
        {
            "id": 272100,
            "type": "Feature",
            "geometry": {
                "type": "Point",
                "coordinates": [
                    20.9604865,
                    51.1320251
                ]
            },
            "properties": {
                "ref:rspo": 272100,
                "official_name": "Zesp\u00f3\u0142 Szkolno-Przedszkolny w Jagodnem",
                "name": "Zesp\u00f3\u0142 Szkolno-Przedszkolny w Jagodnem",
                "addr:postcode": "27-220",
                "addr:place": "Jagodne",
                "addr:housenumber": "138",
                "addr:teryt:simc": 252641,
                "phone": "+48 412714126",
                "email": "spjagodne1@poczta.onet.pl",
                "website": "http:\/\/spjagodne.szkolnastrona.pl",
                "ref:regon": "383936153",
                "ref:vatin": "PL6642143023",
                "operator": "Gmina Mirzec",
                "operator:type": "government",
                "landuse": "education",
                "fixme": "amenity=school, amenity=college albo landuse=education w zale\u017cno\u015bci od tego, jakie plac\u00f3wki wchodz\u0105 w sk\u0142ad zespo\u0142u. Sprawd\u017a, kiedy stosowa\u0107 amenity=* a kiedy landuse=education.",
                "note": "Children RSPO: 31375;60017"
            }
        },
        {
            "id": 31375,
            "type": "Feature",
            "geometry": {
                "type": "Point",
                "coordinates": [
                    20.9604865,
                    51.1319951
                ]
            },
            "properties": {
                "ref:rspo": 31375,
                "official_name": "Publiczne Przedszkole w Jagodnem",
                "name": "Publiczne Przedszkole w Jagodnem",
                "addr:postcode": "27-220",
                "addr:place": "Jagodne",
                "addr:housenumber": "138",
                "addr:teryt:simc": 252641,
                "phone": "+48 412714092",
                "email": "przedszkolejagodne@gmail.com",
                "ref:regon": "290013495",
                "ref:vatin": "PL6641887767",
                "operator": "Gmina Mirzec",
                "operator:type": "government",
                "amenity": "kindergarten",
                "note": "Parent RSPO: 272100"
            }
        },
        {
            "id": 60017,
            "type": "Feature",
            "geometry": {
                "type": "Point",
                "coordinates": [
                    20.9604865,
                    51.1319651
                ]
            },
            "properties": {
                "isced:level": "1;2",
                "ref:rspo": 60017,
                "official_name": "Szko\u0142a Podstawowa Z Oddzia\u0142ami Integracyjnymi w Jagodnem",
                "name": "Szko\u0142a Podstawowa Z Oddzia\u0142ami Integracyjnymi w Jagodnem",
                "addr:postcode": "27-220",
                "addr:place": "Jagodne",
                "addr:housenumber": "138",
                "addr:teryt:simc": 252641,
                "phone": "+48 412714126",
                "email": "spjagodne1@poczta.onet.pl",
                "ref:regon": "001194199",
                "ref:vatin": "PL6631277777",
                "operator": "Gmina Mirzec",
                "operator:type": "government",
                "amenity": "school",
                "note": "Parent RSPO: 272100"
            }
        },
        {
            "id": 80795,
            "type": "Feature",
            "geometry": {
                "type": "Point",
                "coordinates": [
                    20.9551866,
                    51.1327752
                ]
            },
            "properties": {
                "isced:level": "1;2",
                "ref:rspo": 80795,
                "official_name": "Szko\u0142a Podstawowa im. \u015awi\u0119tego Jana Paw\u0142a II w Gadce",
                "name": "Szko\u0142a Podstawowa",
                "addr:postcode": "27-220",
                "addr:place": "Gadka",
                "addr:housenumber": "100",
                "addr:teryt:simc": 252552,
                "phone": "+48 412713082",
                "email": "szkolapodstawowawgadce@poczta.onet.pl",
                "website": "http:\/\/spgadka.szkolnastrona.pl",
                "ref:regon": "001193567",
                "ref:vatin": "PL6641442203",
                "operator": "Gmina Mirzec",
                "operator:type": "government",
                "amenity": "school"
            }
        },
        {
            "id": 59737,
            "type": "Feature",
            "geometry": {
                "type": "Point",
                "coordinates": [
                    21.0564905,
                    51.1378421
                ]
            },
            "properties": {
                "isced:level": "1;2",
                "ref:rspo": 59737,
                "official_name": "Szko\u0142a Podstawowa im. Kamili I J\u00f3zefa Spytk\u00f3w w Mircu",
                "name": "Szko\u0142a Podstawowa",
                "addr:postcode": "27-220",
                "addr:place": "Mirzec Stary",
                "addr:housenumber": "10",
                "addr:teryt:simc": 252842,
                "phone": "+48 412713060",
                "email": "spmirzec10@gmail.com",
                "ref:regon": "000567801",
                "ref:vatin": "PL6642133013",
                "operator": "Gmina Mirzec",
                "operator:type": "government",
                "amenity": "school"
            }
        },
        {
            "id": 79338,
            "type": "Feature",
            "geometry": {
                "type": "Point",
                "coordinates": [
                    21.0999056,
                    51.1404739
                ]
            },
            "properties": {
                "isced:level": "1;2",
                "ref:rspo": 79338,
                "official_name": "Szko\u0142a Podstawowa w Tychowie Nowym",
                "name": "Szko\u0142a Podstawowa w Tychowie Nowym",
                "addr:postcode": "27-220",
                "addr:place": "Tych\u00f3w Nowy",
                "addr:housenumber": "87",
                "addr:teryt:simc": 252902,
                "phone": "+48 412713135",
                "email": "sptychownowy@onet.pl",
                "ref:regon": "001170543",
                "ref:vatin": "PL6641450817",
                "operator": "Gmina Mirzec",
                "operator:type": "government",
                "amenity": "school"
            }
        },
        {
            "id": 3321,
            "type": "Feature",
            "geometry": {
                "type": "Point",
                "coordinates": [
                    21.0681419,
                    51.1513062
                ]
            },
            "properties": {
                "isced:level": "1;2",
                "ref:rspo": 3321,
                "official_name": "Szko\u0142a Podstawowa im. Janiny Bonio w Tr\u0119bowcu",
                "name": "Szko\u0142a Podstawowa",
                "addr:postcode": "27-220",
                "addr:place": "Tr\u0119bowiec Du\u017cy",
                "addr:housenumber": "54",
                "addr:teryt:simc": 253014,
                "phone": "+48 412713855",
                "email": "sptrebowiec.2018@o2.pl",
                "ref:regon": "001193550",
                "ref:vatin": "PL6641450800",
                "operator": "Gmina Mirzec",
                "operator:type": "government",
                "amenity": "school"
            }
        },
        {
            "id": 3318,
            "type": "Feature",
            "geometry": {
                "type": "Point",
                "coordinates": [
                    21.0860681,
                    51.1904122
                ]
            },
            "properties": {
                "isced:level": "1;2",
                "ref:rspo": 3318,
                "official_name": "Szko\u0142a Podstawowa im. Gustawa Kwieci\u0144skiego w Osinach",
                "name": "Szko\u0142a Podstawowa",
                "addr:postcode": "27-220",
                "addr:place": "Osiny",
                "addr:housenumber": "101",
                "addr:teryt:simc": 252919,
                "phone": "+48 412713069",
                "email": "szkolaosiny@poczta.onet.pl",
                "website": "http:\/\/www.sposiny.pl",
                "ref:regon": "001170550",
                "ref:vatin": "PL6641451053",
                "operator": "Gmina Mirzec",
                "operator:type": "government",
                "amenity": "school"
            }
        }
    ]
}