{
    "type": "FeatureCollection",
    "features": [
        {
            "id": 120086,
            "type": "Feature",
            "geometry": {
                "type": "Point",
                "coordinates": [
                    21.0853909,
                    50.908527
                ]
            },
            "properties": {
                "ref:rspo": 120086,
                "official_name": "Punkt Przedszkolny Przy Publicznej Szkole Podstawowej w Chybicach Filia w Bostowie",
                "name": "Punkt Przedszkolny Przy Publicznej Szkole Podstawowej w Chybicach Filia w Bostowie",
                "addr:country": "PL",
                "addr:postcode": "27-225",
                "addr:place": "Stary Bost\u00f3w",
                "addr:housenumber": "8A",
                "addr:teryt:simc": 259896,
                "contact:phone": "+48 413344125",
                "contact:email": "ds-chybice@i-poczta.eu",
                "ref:regon": "260721896",
                "operator": "Gmina Paw\u0142\u00f3w",
                "operator:type": "government",
                "amenity": "kindergarten"
            }
        },
        {
            "id": 29072,
            "type": "Feature",
            "geometry": {
                "type": "Point",
                "coordinates": [
                    21.043011,
                    50.911328
                ]
            },
            "properties": {
                "isced:level": "1;2",
                "ref:rspo": 29072,
                "official_name": "Publiczna Szko\u0142a Podstawowa w \u0141omnie",
                "name": "Publiczna Szko\u0142a Podstawowa w \u0141omnie",
                "addr:country": "PL",
                "addr:postcode": "27-225",
                "addr:place": "\u0141omno",
                "addr:housenumber": "20",
                "addr:teryt:simc": 260468,
                "contact:phone": "+48 412722957",
                "contact:email": "ds-lomno@i-poczta.eu",
                "contact:website": "http:\/\/splomno.edupage.org",
                "ref:regon": "001217954",
                "ref:vatin": "PL6641631341",
                "operator": "Gmina Paw\u0142\u00f3w",
                "operator:type": "government",
                "amenity": "school"
            }
        },
        {
            "id": 120229,
            "type": "Feature",
            "geometry": {
                "type": "Point",
                "coordinates": [
                    21.016541,
                    50.920001
                ]
            },
            "properties": {
                "isced:level": "1;2",
                "ref:rspo": 120229,
                "official_name": "Publiczna Szko\u0142a Podstawowa w Chybicach Filia w Grabkowie",
                "name": "Publiczna Szko\u0142a Podstawowa w Chybicach Filia w Grabkowie",
                "addr:country": "PL",
                "addr:postcode": "27-225",
                "addr:place": "Grabk\u00f3w",
                "addr:housenumber": "24",
                "addr:teryt:simc": 260280,
                "contact:phone": "+48 412722503",
                "contact:email": "ds-chybice@i-poczta.eu",
                "contact:website": "http:\/\/www.zschybice.szkolnastrona.pl",
                "ref:regon": "121806600",
                "operator": "Gmina Paw\u0142\u00f3w",
                "operator:type": "government",
                "amenity": "school",
                "note": "Parent RSPO: 53387"
            }
        },
        {
            "id": 53387,
            "type": "Feature",
            "geometry": {
                "type": "Point",
                "coordinates": [
                    21.105639,
                    50.927563
                ]
            },
            "properties": {
                "isced:level": "1;2",
                "ref:rspo": 53387,
                "official_name": "Publiczna Szko\u0142a Podstawowa w Chybicach",
                "name": "Publiczna Szko\u0142a Podstawowa w Chybicach",
                "addr:country": "PL",
                "addr:postcode": "27-225",
                "addr:place": "Chybice",
                "addr:housenumber": "50",
                "addr:teryt:simc": 260095,
                "contact:phone": "+48 413344125",
                "contact:email": "ds-chybice@i-poczta.eu",
                "contact:website": "http:\/\/www.zschybice.szkolnastrona.pl",
                "ref:regon": "001218066",
                "ref:vatin": "PL6641631329",
                "operator": "Gmina Paw\u0142\u00f3w",
                "operator:type": "government",
                "amenity": "school",
                "note": "Children RSPO: 120229"
            }
        },
        {
            "id": 29071,
            "type": "Feature",
            "geometry": {
                "type": "Point",
                "coordinates": [
                    21.07455,
                    50.95473
                ]
            },
            "properties": {
                "isced:level": "1;2",
                "ref:rspo": 29071,
                "official_name": "Publiczna Szko\u0142a Podstawowa w Jadownikach",
                "name": "Publiczna Szko\u0142a Podstawowa w Jadownikach",
                "addr:country": "PL",
                "addr:postcode": "27-225",
                "addr:place": "Jadowniki",
                "addr:housenumber": "49",
                "addr:teryt:simc": 260333,
                "contact:phone": "+48 412721688",
                "contact:email": "ds-jadowniki@i-poczta.eu",
                "contact:website": "http:\/\/spjadowniki.edupage.org",
                "ref:regon": "001218103",
                "ref:vatin": "PL6641631358",
                "operator": "Gmina Paw\u0142\u00f3w",
                "operator:type": "government",
                "amenity": "school"
            }
        },
        {
            "id": 53252,
            "type": "Feature",
            "geometry": {
                "type": "Point",
                "coordinates": [
                    21.05759,
                    50.9551
                ]
            },
            "properties": {
                "isced:level": "1;2",
                "ref:rspo": 53252,
                "official_name": "Publiczna Szko\u0142a Podstawowa im. Lucyny I Mieczys\u0142awa Ambro\u017c\u00f3w w Szerzawach",
                "name": "Publiczna Szko\u0142a Podstawowa",
                "addr:country": "PL",
                "addr:postcode": "27-225",
                "addr:place": "Szerzawy",
                "addr:housenumber": "104",
                "addr:teryt:simc": 260942,
                "contact:phone": "+48 412722722",
                "contact:email": "ds-szerzawy@i-poczta.eu",
                "contact:website": "http:\/\/gmina-pawlow.pl\/szszerzawy",
                "ref:regon": "001217960",
                "ref:vatin": "PL6641631252",
                "operator": "Gmina Paw\u0142\u00f3w",
                "operator:type": "government",
                "amenity": "school"
            }
        },
        {
            "id": 55158,
            "type": "Feature",
            "geometry": {
                "type": "Point",
                "coordinates": [
                    21.1207567,
                    50.9622946
                ]
            },
            "properties": {
                "isced:level": "1;2",
                "ref:rspo": 55158,
                "official_name": "Publiczna Szko\u0142a Podstawowa im. Jana Paw\u0142a II w Paw\u0142owie",
                "name": "Publiczna Szko\u0142a Podstawowa",
                "addr:country": "PL",
                "addr:postcode": "27-225",
                "addr:place": "Paw\u0142\u00f3w",
                "addr:housenumber": "89",
                "addr:teryt:simc": 260623,
                "contact:phone": "+48 412721623",
                "contact:email": "ds-pawlow@i-poczta.eu",
                "contact:website": "http:\/\/psppawlow.edupage.org",
                "ref:regon": "000270202",
                "ref:vatin": "PL6641631387",
                "operator": "Gmina Paw\u0142\u00f3w",
                "operator:type": "government",
                "amenity": "school"
            }
        },
        {
            "id": 29070,
            "type": "Feature",
            "geometry": {
                "type": "Point",
                "coordinates": [
                    21.189494,
                    50.9706879
                ]
            },
            "properties": {
                "isced:level": "1;2",
                "ref:rspo": 29070,
                "official_name": "Publiczna Szko\u0142a Podstawowa w Godowie",
                "name": "Publiczna Szko\u0142a Podstawowa w Godowie",
                "addr:country": "PL",
                "addr:postcode": "27-225",
                "addr:place": "God\u00f3w",
                "addr:housenumber": "56",
                "addr:teryt:simc": 260215,
                "contact:phone": "+48 412721510",
                "contact:email": "ds-godow@i-poczta.eu",
                "contact:website": "http:\/\/spgodow.edupage.org",
                "ref:regon": "001217919",
                "ref:vatin": "PL6641631370",
                "operator": "Gmina Paw\u0142\u00f3w",
                "operator:type": "government",
                "amenity": "school"
            }
        },
        {
            "id": 59684,
            "type": "Feature",
            "geometry": {
                "type": "Point",
                "coordinates": [
                    21.189494,
                    50.9706579
                ]
            },
            "properties": {
                "ref:rspo": 59684,
                "official_name": "Punkt Przedszkolny Przy Publicznej Szkole Podstawowej w Godowie",
                "name": "Punkt Przedszkolny Przy Publicznej Szkole Podstawowej w Godowie",
                "addr:country": "PL",
                "addr:postcode": "27-225",
                "addr:place": "God\u00f3w",
                "addr:housenumber": "56",
                "addr:teryt:simc": 260215,
                "contact:phone": "+48 412721510",
                "contact:email": "ds-godow@i-poczta.eu",
                "ref:regon": "260644606",
                "operator": "Gmina Paw\u0142\u00f3w",
                "operator:type": "government",
                "amenity": "kindergarten"
            }
        },
        {
            "id": 40776,
            "type": "Feature",
            "geometry": {
                "type": "Point",
                "coordinates": [
                    21.14427,
                    50.97708
                ]
            },
            "properties": {
                "isced:level": "1;2",
                "ref:rspo": 40776,
                "official_name": "Publiczna Szko\u0142a Podstawowa im. Ks. Kardyna\u0142a Stefana Wyszy\u0144skiego w D\u0105browie",
                "name": "Publiczna Szko\u0142a Podstawowa",
                "addr:country": "PL",
                "addr:postcode": "27-225",
                "addr:place": "D\u0105browa",
                "addr:housenumber": "58",
                "addr:teryt:simc": 260126,
                "contact:phone": "+48 412721530",
                "contact:email": "ds-dabrowa@i-poczta.eu",
                "contact:website": "http:\/\/sp-dabrowa.edupage.org",
                "ref:regon": "001217931",
                "ref:vatin": "PL6641631306",
                "operator": "Gmina Paw\u0142\u00f3w",
                "operator:type": "government",
                "amenity": "school"
            }
        },
        {
            "id": 42012,
            "type": "Feature",
            "geometry": {
                "type": "Point",
                "coordinates": [
                    21.032151,
                    50.981229
                ]
            },
            "properties": {
                "isced:level": "1;2",
                "ref:rspo": 42012,
                "official_name": "Publiczna Szko\u0142a Podstawowa im. Wandy Pomianowskiej w Radkowicach",
                "name": "Publiczna Szko\u0142a Podstawowa",
                "addr:country": "PL",
                "addr:postcode": "27-225",
                "addr:place": "Radkowice-Kolonia",
                "addr:housenumber": "5",
                "addr:teryt:simc": 260770,
                "contact:phone": "+48 412721692",
                "contact:email": "ds-radkowice@i-poczta.eu",
                "contact:website": "http:\/\/gmina-pawlow.pl\/spradkowice",
                "ref:regon": "001218089",
                "ref:vatin": "PL6641633363",
                "operator": "Gmina Paw\u0142\u00f3w",
                "operator:type": "government",
                "amenity": "school"
            }
        },
        {
            "id": 54347,
            "type": "Feature",
            "geometry": {
                "type": "Point",
                "coordinates": [
                    21.0905685,
                    50.9816692
                ]
            },
            "properties": {
                "isced:level": "1;2",
                "ref:rspo": 54347,
                "official_name": "Publiczna Szko\u0142a Podstawowa im. Mjr. Jana Piwnika \u201ePonurego\u201d w Rzepinie",
                "name": "Publiczna Szko\u0142a Podstawowa",
                "addr:country": "PL",
                "addr:postcode": "27-225",
                "addr:place": "Rzepin Drugi",
                "addr:housenumber": "154",
                "addr:teryt:simc": 260801,
                "contact:phone": "+48 412721668",
                "contact:email": "ds-rzepin@i-poczta.eu",
                "contact:website": "http:\/\/zsrzepin.edupage.org",
                "ref:regon": "001217925",
                "ref:vatin": "PL6641633386",
                "operator": "Gmina Paw\u0142\u00f3w",
                "operator:type": "government",
                "amenity": "school"
            }
        }
    ]
}