{"type":"FeatureCollection","features":[{"id":52709,"type":"Feature","geometry":{"type":"Point","coordinates":[17.663818,51.9971759]},"properties":{"isced:level":"1;2","ref:rspo":52709,"official_name":"Niepubliczna Szko\u0142a Podstawowa im. \u015aw. Jadwigi Kr\u00f3lowej Polski w Lubini Ma\u0142ej","name":"Niepubliczna Szko\u0142a Podstawowa","addr:country":"PL","addr:postcode":"63-210","addr:place":"Lubinia Ma\u0142a","addr:housenumber":"59","addr:teryt:sym_ul":211613,"contact:phone":"+48 627407480","contact:email":"szkolalm@interia.pl","contact:website":"http:\/\/www.nsplubinia.boo.pl","ref:regon":"302250921","operator":"Stowarzyszenie Edukacyjne \"Wiejska Szko\u0142a\"","operator:type":"ngo","amenity":"school"}},{"id":87408,"type":"Feature","geometry":{"type":"Point","coordinates":[17.67513,52.02176]},"properties":{"isced:level":"1;2","ref:rspo":87408,"official_name":"Szko\u0142a Podstawowa Im Ks. Jana Twardowskiego w Dobieszczy\u017anie","name":"Szko\u0142a Podstawowa Im Ks. Jana Twardowskiego w Dobieszczy\u017anie","addr:country":"PL","addr:postcode":"63-210","addr:place":"Dobieszczyzna","addr:housenumber":"32 A","addr:teryt:sym_ul":211553,"contact:phone":"+48 627402701","contact:email":"spdobieszczyzna@poczta.onet.pl","ref:regon":"001228751","ref:vatin":"PL6172205671","operator":"Gmina \u017berk\u00f3w","operator:type":"government","amenity":"school"}},{"id":52713,"type":"Feature","geometry":{"type":"Point","coordinates":[17.6220779,52.0464569]},"properties":{"isced:level":"1;2","ref:rspo":52713,"official_name":"Niepubliczna Szkola Podstawowa im. Szczepana Cerekwickiego w Ludwinowie","name":"Niepubliczna Szkola Podstawowa","addr:country":"PL","addr:postcode":"63-210","addr:place":"Ludwin\u00f3w","addr:housenumber":"77","addr:teryt:sym_ul":211620,"contact:phone":"+48 627407567","contact:email":"spludwinow77@wp.pl","contact:website":"http:\/\/www.szkolaludwinow.pl","ref:regon":"302250938","operator":"Stowarzyszenie Edukacyjne \"Weso\u0142a Szko\u0142a\"","operator:type":"ngo","amenity":"school"}},{"id":87405,"type":"Feature","geometry":{"type":"Point","coordinates":[17.51165,52.07193]},"properties":{"isced:level":"1;2","ref:rspo":87405,"official_name":"Szko\u0142a Podstawowa im. \u015aw Jana Paw\u0142a II w Chrzanie","name":"Szko\u0142a Podstawowa","addr:country":"PL","addr:postcode":"63-210","addr:city":"Chrzan","addr:street":"ul. \u017berkowska","addr:housenumber":"3","addr:teryt:simc":26459,"addr:teryt:sym_ul":211530,"contact:phone":"+48 627403470","contact:email":"spchrzan@interia.pl","contact:website":"http:\/\/www.spchrzan.edupage.org","ref:regon":"001228716","ref:vatin":"PL6172205688","operator":"Gmina \u017berk\u00f3w","operator:type":"government","amenity":"school"}},{"id":87404,"type":"Feature","geometry":{"type":"Point","coordinates":[17.56253,52.07197]},"properties":{"ref:rspo":87404,"official_name":"Publiczne Przedszkole w \u017berkowie","name":"Publiczne Przedszkole w \u017berkowie","addr:country":"PL","addr:postcode":"63-210","addr:city":"\u017berk\u00f3w","addr:street":"ul. Adama Mickiewicza","addr:housenumber":"30","addr:teryt:simc":12740,"addr:teryt:sym_ul":937445,"contact:phone":"+48 627403031","contact:email":"przedszkole.zerkow@op.pl","ref:regon":"251589917","ref:vatin":"PL6172205702","operator":"Gmina \u017berk\u00f3w","operator:type":"government","amenity":"kindergarten"}},{"id":87406,"type":"Feature","geometry":{"type":"Point","coordinates":[17.56551,52.07228]},"properties":{"isced:level":"1;2","ref:rspo":87406,"official_name":"Szko\u0142a Podstawowa Im Adama Mickiewicza w \u017berkowie","name":"Szko\u0142a Podstawowa Im Adama Mickiewicza w \u017berkowie","addr:country":"PL","addr:postcode":"63-210","addr:city":"\u017berk\u00f3w","addr:street":"ul. Cmentarna","addr:housenumber":"10","addr:teryt:simc":3114,"addr:teryt:sym_ul":937445,"contact:phone":"+48 627403015","contact:email":"spzerkow10@tlen.pl","contact:website":"http:\/\/www.spzerkow.pl","ref:regon":"000553897","ref:vatin":"PL6172205642","operator":"Gmina \u017berk\u00f3w","operator:type":"government","amenity":"school"}},{"id":130856,"type":"Feature","geometry":{"type":"Point","coordinates":[17.56551,52.07225]},"properties":{"ref:rspo":130856,"official_name":"Szkolne Schronisko M\u0142odzie\u017cowe","name":"Szkolne Schronisko M\u0142odzie\u017cowe","addr:country":"PL","addr:postcode":"63-210","addr:city":"\u017berk\u00f3w","addr:street":"ul. Cmentarna","addr:housenumber":"10","addr:teryt:simc":3114,"addr:teryt:sym_ul":937445,"contact:phone":"+48 627403015","contact:email":"spzerkow10@tlen.pl","contact:website":"http:\/\/spzerkow.edupage.org","ref:regon":"364621622","operator":"Gmina \u017berk\u00f3w","operator:type":"government","tourism":"hostel"}},{"id":87407,"type":"Feature","geometry":{"type":"Point","coordinates":[17.645166,52.1099539]},"properties":{"isced:level":"1;2","ref:rspo":87407,"official_name":"Szko\u0142a Podstawowa im. Powsta\u0144c\u00f3w Wielkopolskich w Komorzu Przybys\u0142awskim","name":"Szko\u0142a Podstawowa","addr:country":"PL","addr:postcode":"63-210","addr:place":"Komorze Przybys\u0142awskie","addr:housenumber":"18","addr:teryt:sym_ul":211560,"contact:phone":"+48 627404460","contact:email":"spkomorz@wp.pl","contact:website":"http:\/\/www.spkomorze.szkolnastrona.pl","ref:regon":"001228774","ref:vatin":"PL6172205665","operator":"Gmina \u017berk\u00f3w","operator:type":"government","amenity":"school"}}]}