{
    "type": "FeatureCollection",
    "features": [
        {
            "id": 44639,
            "type": "Feature",
            "geometry": {
                "type": "Point",
                "coordinates": [
                    17.41053,
                    51.91136
                ]
            },
            "properties": {
                "ref:rspo": 44639,
                "official_name": "Centrum O\u015bwiatowo-Kulturalne w Potarzycy im. Jana Heweliusza w Potarzycy",
                "name": "Centrum O\u015bwiatowo-Kulturalne w Potarzycy",
                "addr:country": "PL",
                "addr:postcode": "63-200",
                "addr:city": "Potarzyca",
                "addr:street": "ul. Wyzwolenia",
                "addr:housenumber": "65",
                "addr:teryt:simc": 25133,
                "addr:teryt:sym_ul": 199444,
                "contact:phone": "+48 627404646",
                "contact:email": "gimpotarzyca@wp.pl",
                "contact:website": "http:\/\/www.szkola-potarzyca.wp.pl",
                "ref:regon": "302261557",
                "operator": "Potarzyckie Stowarzyszenie O\u015bwiatowe",
                "operator:type": "ngo",
                "landuse": "education",
                "fixme": "amenity=school, amenity=college albo landuse=education w zale\u017cno\u015bci od tego, jakie plac\u00f3wki wchodz\u0105 w sk\u0142ad zespo\u0142u. Sprawd\u017a, kiedy stosowa\u0107 amenity=* a kiedy landuse=education.",
                "note": "Children RSPO: 83911;83914"
            }
        },
        {
            "id": 83911,
            "type": "Feature",
            "geometry": {
                "type": "Point",
                "coordinates": [
                    17.41053,
                    51.91133
                ]
            },
            "properties": {
                "isced:level": "1;2",
                "ref:rspo": 83911,
                "official_name": "Niepubliczna Szko\u0142a Podstawowa im. Jana Heweliusza w Potarzycy",
                "name": "Niepubliczna Szko\u0142a Podstawowa",
                "addr:country": "PL",
                "addr:postcode": "63-200",
                "addr:city": "Potarzyca",
                "addr:street": "ul. Wyzwolenia",
                "addr:housenumber": "65",
                "addr:teryt:simc": 25133,
                "addr:teryt:sym_ul": 199444,
                "contact:phone": "+48 627404646",
                "contact:email": "gimpotarzyca@wp.pl",
                "contact:website": "http:\/\/www.szkola-potarzyca.pl",
                "ref:regon": "302269441",
                "operator": "Potarzyckie Stowarzyszenie O\u015bwiatowe",
                "operator:type": "ngo",
                "amenity": "school",
                "note": "Parent RSPO: 44639"
            }
        },
        {
            "id": 83914,
            "type": "Feature",
            "geometry": {
                "type": "Point",
                "coordinates": [
                    17.41053,
                    51.911300000000004
                ]
            },
            "properties": {
                "ref:rspo": 83914,
                "official_name": "Niepubliczne Przedszkole im. Jana Heweliusza w Potarzycy",
                "name": "Niepubliczne Przedszkole",
                "addr:country": "PL",
                "addr:postcode": "63-200",
                "addr:city": "Potarzyca",
                "addr:street": "ul. Wyzwolenia",
                "addr:housenumber": "65",
                "addr:teryt:simc": 25133,
                "addr:teryt:sym_ul": 199444,
                "contact:phone": "+48 627404646",
                "contact:email": "gimpotarzyca@szkola.wp.pl",
                "contact:website": "http:\/\/www.szkola-potarzyca.wp.pl",
                "ref:regon": "302269458",
                "operator": "Potarzyckie Stowarzyszenie O\u015bwiatowe",
                "operator:type": "ngo",
                "amenity": "kindergarten",
                "note": "Parent RSPO: 44639"
            }
        },
        {
            "id": 43980,
            "type": "Feature",
            "geometry": {
                "type": "Point",
                "coordinates": [
                    17.47823,
                    51.91207
                ]
            },
            "properties": {
                "ref:rspo": 43980,
                "official_name": "Niepubliczne Przedszkole \"Puchatek\" w Golinie",
                "name": "Niepubliczne Przedszkole \"Puchatek\" w Golinie",
                "addr:country": "PL",
                "addr:postcode": "63-200",
                "addr:city": "Golina",
                "addr:street": "ul. Dworcowa",
                "addr:housenumber": "11",
                "addr:teryt:simc": 4434,
                "addr:teryt:sym_ul": 199361,
                "contact:phone": "+48 627404038",
                "contact:email": "przedszkole_golina@tlen.pl",
                "contact:website": "https:\/\/puchatek-golina.edupage.org\/",
                "ref:regon": "302249480",
                "ref:vatin": "PL6172172440",
                "operator": "Stowarzyszenie Wychowawczo-Opieku\u0144czo-Dydaktyczne \"Puchatek\" W Golinie",
                "operator:type": "ngo",
                "amenity": "kindergarten"
            }
        },
        {
            "id": 43965,
            "type": "Feature",
            "geometry": {
                "type": "Point",
                "coordinates": [
                    17.48276,
                    51.91389
                ]
            },
            "properties": {
                "isced:level": "1;2",
                "ref:rspo": 43965,
                "official_name": "Szko\u0142a Podstawowa im. Heleny Moszcze\u0144skiej w Golinie",
                "name": "Szko\u0142a Podstawowa",
                "addr:country": "PL",
                "addr:postcode": "63-200",
                "addr:city": "Golina",
                "addr:street": "ul. Jaroci\u0144ska",
                "addr:housenumber": "32",
                "addr:teryt:simc": 7252,
                "addr:teryt:sym_ul": 199361,
                "contact:phone": "+48 627404023",
                "contact:email": "szkolapodstawowagolina@jarocin.pl",
                "contact:website": "http:\/\/www.szkolagolina.pl",
                "ref:regon": "001046688",
                "ref:vatin": "PL6172059726",
                "operator": "Gmina Jarocin",
                "operator:type": "government",
                "amenity": "school"
            }
        },
        {
            "id": 89697,
            "type": "Feature",
            "geometry": {
                "type": "Point",
                "coordinates": [
                    17.550096,
                    51.9191549
                ]
            },
            "properties": {
                "ref:rspo": 89697,
                "official_name": "Zesp\u00f3\u0142 Szk\u00f3\u0142 w Prusach",
                "name": "Zesp\u00f3\u0142 Szk\u00f3\u0142 w Prusach",
                "addr:country": "PL",
                "addr:postcode": "63-230",
                "addr:place": "Prusy",
                "addr:housenumber": "52",
                "addr:teryt:sym_ul": 199467,
                "contact:phone": "+48 627401127",
                "contact:email": "spniepubliczna_prusy@wp.pl",
                "contact:website": "http:\/\/www.szkolaprusy.pl",
                "ref:regon": "300907080",
                "ref:vatin": "PL6172171624",
                "operator": "Stowarzyszenie Pomocy Szkole \"\u017bak\" Z Siedzib\u0105 W Prusach",
                "operator:type": "ngo",
                "landuse": "education",
                "fixme": "amenity=school, amenity=college albo landuse=education w zale\u017cno\u015bci od tego, jakie plac\u00f3wki wchodz\u0105 w sk\u0142ad zespo\u0142u. Sprawd\u017a, kiedy stosowa\u0107 amenity=* a kiedy landuse=education.",
                "note": "Children RSPO: 90222;90266"
            }
        },
        {
            "id": 90222,
            "type": "Feature",
            "geometry": {
                "type": "Point",
                "coordinates": [
                    17.550096,
                    51.9191249
                ]
            },
            "properties": {
                "isced:level": "1;2",
                "ref:rspo": 90222,
                "official_name": "Niepubliczna Szko\u0142a Podstawowa im. Kard. Stefana Wyszy\u0144skiego w Prusach",
                "name": "Niepubliczna Szko\u0142a Podstawowa",
                "addr:country": "PL",
                "addr:postcode": "63-230",
                "addr:place": "Prusy",
                "addr:housenumber": "52",
                "addr:teryt:sym_ul": 199467,
                "contact:phone": "+48 627401127",
                "contact:email": "spniepubliczna_prusy@wp.pl",
                "contact:website": "http:\/\/www.szkolaprusy.pl",
                "ref:regon": "302279540",
                "ref:vatin": "PL6172171630",
                "operator": "Stowarzyszenie Pomocy Szkole \"\u017bak\" Z Siedzib\u0105 W Prusach",
                "operator:type": "ngo",
                "amenity": "school",
                "note": "Parent RSPO: 89697"
            }
        },
        {
            "id": 90266,
            "type": "Feature",
            "geometry": {
                "type": "Point",
                "coordinates": [
                    17.550096,
                    51.919094900000005
                ]
            },
            "properties": {
                "ref:rspo": 90266,
                "official_name": "Niepubliczne Przedszkole w Prusach",
                "name": "Niepubliczne Przedszkole w Prusach",
                "addr:country": "PL",
                "addr:postcode": "63-230",
                "addr:place": "Prusy",
                "addr:housenumber": "52",
                "addr:teryt:sym_ul": 199467,
                "contact:phone": "+48 627401127",
                "contact:email": "spniepubliczna_prusy@wp.pl",
                "ref:regon": "302279847",
                "ref:vatin": "PL6172171647",
                "operator": "Stowarzyszenie Pomocy Szkole \"\u017bak\" Z Siedzib\u0105 W Prusach",
                "operator:type": "ngo",
                "amenity": "kindergarten",
                "note": "Parent RSPO: 89697"
            }
        },
        {
            "id": 89252,
            "type": "Feature",
            "geometry": {
                "type": "Point",
                "coordinates": [
                    17.4610999,
                    51.93783
                ]
            },
            "properties": {
                "ref:rspo": 89252,
                "official_name": "Zesp\u00f3\u0142 Szk\u00f3\u0142 w Siedleminie",
                "name": "Zesp\u00f3\u0142 Szk\u00f3\u0142 w Siedleminie",
                "addr:country": "PL",
                "addr:postcode": "63-200",
                "addr:city": "Siedlemin",
                "addr:street": "ul. G\u0142\u00f3wna",
                "addr:housenumber": "36",
                "addr:teryt:simc": 5635,
                "addr:teryt:sym_ul": 199504,
                "contact:phone": "+48 627404769",
                "contact:email": "szkolasiedlemin@op.pl",
                "contact:website": "http:\/\/www.siedlemin.xon.pl",
                "ref:regon": "302276814",
                "operator": "Stowarzyszenie Rozwoju Wsi Siedlemin \"Szko\u0142a Dzieciom\"",
                "operator:type": "ngo",
                "landuse": "education",
                "fixme": "amenity=school, amenity=college albo landuse=education w zale\u017cno\u015bci od tego, jakie plac\u00f3wki wchodz\u0105 w sk\u0142ad zespo\u0142u. Sprawd\u017a, kiedy stosowa\u0107 amenity=* a kiedy landuse=education.",
                "note": "Children RSPO: 91921;91922"
            }
        },
        {
            "id": 91921,
            "type": "Feature",
            "geometry": {
                "type": "Point",
                "coordinates": [
                    17.4610999,
                    51.937799999999996
                ]
            },
            "properties": {
                "isced:level": "1;2",
                "ref:rspo": 91921,
                "official_name": "Niepubliczna Szko\u0142a Podstawowa im. Jana Paw\u0142a II w Siedleminie",
                "name": "Niepubliczna Szko\u0142a Podstawowa",
                "addr:country": "PL",
                "addr:postcode": "63-200",
                "addr:city": "Siedlemin",
                "addr:street": "ul. G\u0142\u00f3wna",
                "addr:housenumber": "36",
                "addr:teryt:simc": 5635,
                "addr:teryt:sym_ul": 199504,
                "contact:phone": "+48 627404769",
                "contact:email": "szkolasiedlemin@op.pl",
                "contact:website": "http:\/\/www.siedlemin.xon.pl",
                "ref:regon": "302289366",
                "operator": "Stowarzyszenie Rozwoju Wsi Siedlemin \"Szko\u0142a Dzieciom\"",
                "operator:type": "ngo",
                "amenity": "school",
                "note": "Parent RSPO: 89252"
            }
        },
        {
            "id": 91922,
            "type": "Feature",
            "geometry": {
                "type": "Point",
                "coordinates": [
                    17.4610999,
                    51.93777
                ]
            },
            "properties": {
                "ref:rspo": 91922,
                "official_name": "Niepubliczne Przedszkole w Siedleminie",
                "name": "Niepubliczne Przedszkole w Siedleminie",
                "addr:country": "PL",
                "addr:postcode": "63-200",
                "addr:city": "Siedlemin",
                "addr:street": "ul. G\u0142\u00f3wna",
                "addr:housenumber": "36",
                "addr:teryt:simc": 5635,
                "addr:teryt:sym_ul": 199504,
                "contact:phone": "+48 627404769",
                "contact:email": "szkolasiedlemin@op.pl",
                "contact:website": "http:\/\/www.siedlemin.xon.pl",
                "ref:regon": "302289389",
                "operator": "Stowarzyszenie Rozwoju Wsi Siedlemin \"Szko\u0142a Dzieciom\"",
                "operator:type": "ngo",
                "amenity": "kindergarten",
                "note": "Parent RSPO: 89252"
            }
        },
        {
            "id": 131167,
            "type": "Feature",
            "geometry": {
                "type": "Point",
                "coordinates": [
                    17.56419,
                    51.94039
                ]
            },
            "properties": {
                "ref:rspo": 131167,
                "official_name": "Zesp\u00f3\u0142 Szk\u00f3\u0142 w Witaszycach",
                "name": "Zesp\u00f3\u0142 Szk\u00f3\u0142 w Witaszycach",
                "addr:country": "PL",
                "addr:postcode": "63-230",
                "addr:city": "Witaszyce",
                "addr:street": "ul. Szkolna",
                "addr:housenumber": "1a",
                "addr:teryt:simc": 21970,
                "addr:teryt:sym_ul": 199562,
                "contact:phone": "+48 627401339",
                "contact:email": "szkola.witaszyce@onet.pl",
                "ref:regon": "364990207",
                "operator": "Gmina Jarocin",
                "operator:type": "government",
                "landuse": "education",
                "fixme": "amenity=school, amenity=college albo landuse=education w zale\u017cno\u015bci od tego, jakie plac\u00f3wki wchodz\u0105 w sk\u0142ad zespo\u0142u. Sprawd\u017a, kiedy stosowa\u0107 amenity=* a kiedy landuse=education.",
                "note": "Children RSPO: 43964;43974;269475"
            }
        },
        {
            "id": 43964,
            "type": "Feature",
            "geometry": {
                "type": "Point",
                "coordinates": [
                    17.56419,
                    51.94036
                ]
            },
            "properties": {
                "isced:level": "1;2",
                "ref:rspo": 43964,
                "official_name": "Szko\u0142a Podstawowa w Witaszycach",
                "name": "Szko\u0142a Podstawowa w Witaszycach",
                "addr:country": "PL",
                "addr:postcode": "63-200",
                "addr:city": "Witaszyce",
                "addr:street": "ul. Szkolna",
                "addr:housenumber": "1a",
                "addr:teryt:simc": 21970,
                "addr:teryt:sym_ul": 199562,
                "contact:phone": "+48 627401339",
                "contact:email": "spwit220@poczta.onet.pl",
                "ref:regon": "001046694",
                "ref:vatin": "PL6172060876",
                "operator": "Gmina Jarocin",
                "operator:type": "government",
                "amenity": "school",
                "note": "Parent RSPO: 131167"
            }
        },
        {
            "id": 269475,
            "type": "Feature",
            "geometry": {
                "type": "Point",
                "coordinates": [
                    17.56419,
                    51.94033
                ]
            },
            "properties": {
                "ref:rspo": 269475,
                "official_name": "Szkolne Schronisko M\u0142odzie\u017cowe w Witaszycach",
                "name": "Szkolne Schronisko M\u0142odzie\u017cowe w Witaszycach",
                "addr:country": "PL",
                "addr:postcode": "63-230",
                "addr:city": "Witaszyce",
                "addr:street": "ul. Szkolna",
                "addr:housenumber": "1a",
                "addr:teryt:simc": 21970,
                "addr:teryt:sym_ul": 199562,
                "contact:phone": "+48 627401339",
                "contact:email": "szkola.witaszyce@onet.pl",
                "ref:regon": "381511538",
                "operator": "Gmina Jarocin",
                "operator:type": "government",
                "tourism": "hostel",
                "note": "Parent RSPO: 131167"
            }
        },
        {
            "id": 278198,
            "type": "Feature",
            "geometry": {
                "type": "Point",
                "coordinates": [
                    17.4793457,
                    51.9419457
                ]
            },
            "properties": {
                "isced:level": "1;2",
                "ref:rspo": 278198,
                "official_name": "Niepubliczna Szko\u0142a Podstawowa Z Oddzia\u0142em Przedszkolnym w Roszkowie",
                "name": "Niepubliczna Szko\u0142a Podstawowa Z Oddzia\u0142em Przedszkolnym w Roszkowie",
                "addr:country": "PL",
                "addr:postcode": "63-200",
                "addr:place": "Roszk\u00f3w",
                "addr:housenumber": "59A",
                "addr:teryt:sym_ul": 199496,
                "contact:email": "szkola_roszkow@op.pl",
                "ref:regon": "389849478",
                "operator": "Fundacja Rozwoju Po\u0142udniowej Wielkopolski",
                "operator:type": "ngo",
                "amenity": "school"
            }
        },
        {
            "id": 43974,
            "type": "Feature",
            "geometry": {
                "type": "Point",
                "coordinates": [
                    17.5582,
                    51.94307
                ]
            },
            "properties": {
                "ref:rspo": 43974,
                "official_name": "Publiczne Przedszkole w Witaszycach",
                "name": "Publiczne Przedszkole w Witaszycach",
                "addr:country": "PL",
                "addr:postcode": "63-230",
                "addr:city": "Witaszyce",
                "addr:street": "ul. Le\u015bna",
                "addr:housenumber": "2",
                "addr:teryt:simc": 10898,
                "addr:teryt:sym_ul": 199562,
                "contact:phone": "+48 627401375",
                "contact:email": "agataskowron@wp.pl",
                "ref:regon": "251588237",
                "ref:vatin": "PL6172058767",
                "operator": "Gmina Jarocin",
                "operator:type": "government",
                "amenity": "kindergarten",
                "note": "Parent RSPO: 131167"
            }
        },
        {
            "id": 43981,
            "type": "Feature",
            "geometry": {
                "type": "Point",
                "coordinates": [
                    17.49824,
                    51.94715
                ]
            },
            "properties": {
                "ref:rspo": 43981,
                "official_name": "Niepubliczne Przedszkole \"Poziomka\" w Jarocinie",
                "name": "Niepubliczne Przedszkole \"Poziomka\" w Jarocinie",
                "addr:country": "PL",
                "addr:postcode": "63-200",
                "addr:city": "Jarocin",
                "addr:street": "ul. Wroc\u0142awska",
                "addr:housenumber": "168",
                "addr:teryt:simc": 24806,
                "addr:teryt:sym_ul": 936776,
                "contact:email": "sekretariat@przedszkolepoziomka.edu.pl",
                "ref:regon": "302249585",
                "ref:vatin": "PL6172184963",
                "operator": "Stowarzyszenie Edukacyjne \"Tr\u00f3jka\" W Jarocinie",
                "operator:type": "ngo",
                "amenity": "kindergarten"
            }
        },
        {
            "id": 63444,
            "type": "Feature",
            "geometry": {
                "type": "Point",
                "coordinates": [
                    17.49824,
                    51.94712
                ]
            },
            "properties": {
                "isced:level": "1;2",
                "ref:rspo": 63444,
                "official_name": "Szko\u0142a Podstawowa Nr 3 im. Ks. Jana Twardowskiego w Jarocinie",
                "name": "Szko\u0142a Podstawowa Nr 3",
                "addr:country": "PL",
                "addr:postcode": "63-200",
                "addr:city": "Jarocin",
                "addr:street": "ul. Wroc\u0142awska",
                "addr:housenumber": "168",
                "addr:teryt:simc": 24806,
                "addr:teryt:sym_ul": 936776,
                "contact:phone": "+48 627472238",
                "contact:email": "szkolapodstawowanr3@jarocin.pl",
                "contact:website": "http:\/\/www.trojkajarocin.pl",
                "ref:regon": "000693664",
                "ref:vatin": "PL6172059583",
                "operator": "Gmina Jarocin",
                "operator:type": "government",
                "amenity": "school"
            }
        },
        {
            "id": 277787,
            "type": "Feature",
            "geometry": {
                "type": "Point",
                "coordinates": [
                    17.49048,
                    51.94918
                ]
            },
            "properties": {
                "ref:rspo": 277787,
                "official_name": "Niepubliczne Przedszkole Geometryczny \u015awiat w Jarocinie",
                "name": "Niepubliczne Przedszkole Geometryczny \u015awiat w Jarocinie",
                "addr:country": "PL",
                "addr:postcode": "63-200",
                "addr:city": "Jarocin",
                "addr:street": "ul. Notecka",
                "addr:housenumber": "19",
                "addr:teryt:simc": 14329,
                "addr:teryt:sym_ul": 936776,
                "contact:email": "geometrycznyswiat@gmail.com",
                "contact:website": "http:\/\/www.geometrycznyswiat.pl",
                "ref:regon": "389498790",
                "operator": "Katarzyna Kowalska",
                "operator:type": "private",
                "amenity": "kindergarten"
            }
        },
        {
            "id": 131569,
            "type": "Feature",
            "geometry": {
                "type": "Point",
                "coordinates": [
                    17.50844,
                    51.95427
                ]
            },
            "properties": {
                "ref:rspo": 131569,
                "official_name": "Niepubliczne Przedszkole \"Kraina Ba\u015bni\" w Jarocinie",
                "name": "Niepubliczne Przedszkole \"Kraina Ba\u015bni\" w Jarocinie",
                "addr:country": "PL",
                "addr:postcode": "63-200",
                "addr:city": "Jarocin",
                "addr:street": "ul. Zagonowa",
                "addr:housenumber": "47",
                "addr:teryt:simc": 25357,
                "addr:teryt:sym_ul": 936776,
                "contact:phone": "+48 663859657",
                "contact:email": "m.solinska93@gmail.com",
                "ref:regon": "365226862",
                "operator": "Ma\u0142gorzata Orpel",
                "operator:type": "private",
                "amenity": "kindergarten"
            }
        },
        {
            "id": 42114,
            "type": "Feature",
            "geometry": {
                "type": "Point",
                "coordinates": [
                    17.49903,
                    51.96057
                ]
            },
            "properties": {
                "ref:rspo": 42114,
                "official_name": "Zesp\u00f3\u0142 Szk\u00f3L Specjalnych w Jarocinie",
                "name": "Zesp\u00f3\u0142 Szk\u00f3L Specjalnych w Jarocinie",
                "addr:country": "PL",
                "addr:postcode": "63-200",
                "addr:city": "Jarocin",
                "addr:street": "ul. Szubianki",
                "addr:housenumber": "21",
                "addr:teryt:simc": 22129,
                "addr:teryt:sym_ul": 936776,
                "contact:phone": "+48 627472153",
                "contact:email": "zssjarocin@powiat-jarocinski.pl",
                "contact:website": "http:\/\/www.zssjarocin.pl",
                "ref:regon": "001085330",
                "ref:vatin": "PL6172017449",
                "operator": "Powiat Jaroci\u0144ski",
                "operator:type": "government",
                "landuse": "education",
                "fixme": "amenity=school, amenity=college albo landuse=education w zale\u017cno\u015bci od tego, jakie plac\u00f3wki wchodz\u0105 w sk\u0142ad zespo\u0142u. Sprawd\u017a, kiedy stosowa\u0107 amenity=* a kiedy landuse=education.",
                "note": "Children RSPO: 48885;49012"
            }
        },
        {
            "id": 42818,
            "type": "Feature",
            "geometry": {
                "type": "Point",
                "coordinates": [
                    17.49903,
                    51.960539999999995
                ]
            },
            "properties": {
                "ref:rspo": 42818,
                "official_name": "Poradnia Psychologiczno-Pedagogiczna w Jarocinie",
                "name": "Poradnia Psychologiczno-Pedagogiczna w Jarocinie",
                "addr:country": "PL",
                "addr:postcode": "63-200",
                "addr:city": "Jarocin",
                "addr:street": "ul. Szubianki",
                "addr:housenumber": "21",
                "addr:teryt:simc": 22129,
                "addr:teryt:sym_ul": 936776,
                "contact:phone": "+48 627472245",
                "contact:email": "ppp_jarocin@o2.pl",
                "contact:website": "http:\/\/www.poradniajarocin.pl",
                "ref:regon": "000693701",
                "ref:vatin": "PL6172017455",
                "operator": "Powiat Jaroci\u0144ski",
                "operator:type": "government",
                "healthcare": "counselling",
                "counselling_type": "education",
                "fixme": "w zale\u017cno\u015bci od przedmiotu dzia\u0142alno\u015bci (np. healthcare=counselling + counselling_type=education albo healthcare=psychotherapist)"
            }
        },
        {
            "id": 48885,
            "type": "Feature",
            "geometry": {
                "type": "Point",
                "coordinates": [
                    17.49903,
                    51.96051
                ]
            },
            "properties": {
                "isced:level": "1;2",
                "ref:rspo": 48885,
                "official_name": "Szko\u0142a Podstawowa Specjalna im. Unicef w Jarocinie",
                "name": "Szko\u0142a Podstawowa Specjalna",
                "addr:country": "PL",
                "addr:postcode": "63-200",
                "addr:city": "Jarocin",
                "addr:street": "ul. Szubianki",
                "addr:housenumber": "21",
                "addr:teryt:simc": 22129,
                "addr:teryt:sym_ul": 936776,
                "contact:phone": "+48 627472153",
                "contact:email": "zssjarocin@powiat-jarocinski.pl",
                "ref:regon": "251149779",
                "operator": "Powiat Jaroci\u0144ski",
                "operator:type": "government",
                "amenity": "school",
                "note": "Parent RSPO: 42114"
            }
        },
        {
            "id": 49012,
            "type": "Feature",
            "geometry": {
                "type": "Point",
                "coordinates": [
                    17.49903,
                    51.96048
                ]
            },
            "properties": {
                "ref:rspo": 49012,
                "official_name": "Szko\u0142a Specjalna Przysposabiaj\u0105ca Do Pracy im. Unicef w Jarocinie",
                "name": "Szko\u0142a Specjalna Przysposabiaj\u0105ca Do Pracy",
                "addr:country": "PL",
                "addr:postcode": "63-200",
                "addr:city": "Jarocin",
                "addr:street": "ul. Szubianki",
                "addr:housenumber": "21",
                "addr:teryt:simc": 22129,
                "addr:teryt:sym_ul": 936776,
                "contact:phone": "+48 627472153",
                "contact:email": "zssjarocin@powiat-jarocinski.pl",
                "ref:regon": "300264037",
                "operator": "Powiat Jaroci\u0144ski",
                "operator:type": "government",
                "amenity": "school",
                "note": "Parent RSPO: 42114"
            }
        },
        {
            "id": 39762,
            "type": "Feature",
            "geometry": {
                "type": "Point",
                "coordinates": [
                    17.51391,
                    51.9621799
                ]
            },
            "properties": {
                "ref:rspo": 39762,
                "official_name": "Zesp\u00f3\u0142 Szk\u00f3\u0142 Ponadpodstawowych Nr 2 im. Eugeniusza Kwiatkowskiego w Jarocinie",
                "name": "Zesp\u00f3\u0142 Szk\u00f3\u0142 Ponadpodstawowych Nr 2",
                "addr:country": "PL",
                "addr:postcode": "63-200",
                "addr:city": "Jarocin",
                "addr:street": "ul. Franciszka\u0144ska",
                "addr:housenumber": "2",
                "addr:teryt:simc": 5151,
                "addr:teryt:sym_ul": 936776,
                "contact:phone": "+48 627472240",
                "contact:email": "szkola@zsp2jarocin.pl",
                "contact:website": "http:\/\/www.zsp2jarocin.pl",
                "ref:regon": "000822506",
                "ref:vatin": "PL6171562742",
                "operator": "Powiat Jaroci\u0144ski",
                "operator:type": "government",
                "landuse": "education",
                "fixme": "amenity=school, amenity=college albo landuse=education w zale\u017cno\u015bci od tego, jakie plac\u00f3wki wchodz\u0105 w sk\u0142ad zespo\u0142u. Sprawd\u017a, kiedy stosowa\u0107 amenity=* a kiedy landuse=education.",
                "note": "Children RSPO: 50340;51424;80894"
            }
        },
        {
            "id": 50340,
            "type": "Feature",
            "geometry": {
                "type": "Point",
                "coordinates": [
                    17.51391,
                    51.9621499
                ]
            },
            "properties": {
                "isced:level": "3",
                "ref:rspo": 50340,
                "official_name": "Liceum Og\u00f3lnokszta\u0142c\u0105ce Nr 2 w Jarocinie",
                "name": "Liceum Og\u00f3lnokszta\u0142c\u0105ce Nr 2 w Jarocinie",
                "addr:country": "PL",
                "addr:postcode": "63-200",
                "addr:city": "Jarocin",
                "addr:street": "ul. Franciszka\u0144ska",
                "addr:housenumber": "2",
                "addr:teryt:simc": 5151,
                "addr:teryt:sym_ul": 936776,
                "contact:phone": "+48 627472240",
                "contact:email": "szkola@zsp2jarocin.pl",
                "contact:website": "https:\/\/www.zsp2jarocin.pl\/",
                "ref:regon": "251553776",
                "operator": "Powiat Jaroci\u0144ski",
                "operator:type": "government",
                "amenity": "school",
                "note": "Parent RSPO: 39762"
            }
        },
        {
            "id": 51424,
            "type": "Feature",
            "geometry": {
                "type": "Point",
                "coordinates": [
                    17.51391,
                    51.962119900000005
                ]
            },
            "properties": {
                "isced:level": "3",
                "ref:rspo": 51424,
                "official_name": "Technikum Nr 2 w Jarocinie",
                "name": "Technikum Nr 2 w Jarocinie",
                "addr:country": "PL",
                "addr:postcode": "63-200",
                "addr:city": "Jarocin",
                "addr:street": "ul. Franciszka\u0144ska",
                "addr:housenumber": "2",
                "addr:teryt:simc": 5151,
                "addr:teryt:sym_ul": 936776,
                "contact:phone": "+48 627472240",
                "contact:email": "szkola@zsp2jarocin.pl",
                "contact:website": "https:\/\/www.zsp2jarocin.pl\/",
                "ref:regon": "251553799",
                "operator": "Powiat Jaroci\u0144ski",
                "operator:type": "government",
                "amenity": "school",
                "note": "Parent RSPO: 39762"
            }
        },
        {
            "id": 80894,
            "type": "Feature",
            "geometry": {
                "type": "Point",
                "coordinates": [
                    17.51391,
                    51.9620899
                ]
            },
            "properties": {
                "isced:level": "3",
                "ref:rspo": 80894,
                "official_name": "Bran\u017cowa Szko\u0142a I Stopnia Nr 2 w Jarocinie",
                "name": "Bran\u017cowa Szko\u0142a I Stopnia Nr 2 w Jarocinie",
                "addr:country": "PL",
                "addr:postcode": "63-200",
                "addr:city": "Jarocin",
                "addr:street": "ul. Franciszka\u0144ska",
                "addr:housenumber": "2",
                "addr:teryt:simc": 5151,
                "addr:teryt:sym_ul": 936776,
                "contact:phone": "+48 627472240",
                "contact:email": "szkola@zsp2jarocin.pl",
                "contact:website": "https:\/\/www.zsp2jarocin.pl\/",
                "ref:regon": "251553807",
                "operator": "Powiat Jaroci\u0144ski",
                "operator:type": "government",
                "amenity": "school",
                "note": "Parent RSPO: 39762"
            }
        },
        {
            "id": 39763,
            "type": "Feature",
            "geometry": {
                "type": "Point",
                "coordinates": [
                    17.51351,
                    51.96228
                ]
            },
            "properties": {
                "ref:rspo": 39763,
                "official_name": "Zesp\u00f3\u0142 Szk\u00f3\u0142 Ponadpodstawowych Nr 1 w Jarocinie",
                "name": "Zesp\u00f3\u0142 Szk\u00f3\u0142 Ponadpodstawowych Nr 1 w Jarocinie",
                "addr:country": "PL",
                "addr:postcode": "63-200",
                "addr:city": "Jarocin",
                "addr:street": "ul. Franciszka\u0144ska",
                "addr:housenumber": "1",
                "addr:teryt:simc": 5151,
                "addr:teryt:sym_ul": 936776,
                "contact:phone": "+48 627472619",
                "contact:email": "sekretariat@zsp1jarocin.edu.pl",
                "contact:website": "http:\/\/www.zsp1jarocin.edu.pl",
                "ref:regon": "000180290",
                "ref:vatin": "PL6171045076",
                "operator": "Powiat Jaroci\u0144ski",
                "operator:type": "government",
                "landuse": "education",
                "fixme": "amenity=school, amenity=college albo landuse=education w zale\u017cno\u015bci od tego, jakie plac\u00f3wki wchodz\u0105 w sk\u0142ad zespo\u0142u. Sprawd\u017a, kiedy stosowa\u0107 amenity=* a kiedy landuse=education.",
                "note": "Children RSPO: 46848;47129;80891"
            }
        },
        {
            "id": 46848,
            "type": "Feature",
            "geometry": {
                "type": "Point",
                "coordinates": [
                    17.51351,
                    51.96225
                ]
            },
            "properties": {
                "isced:level": "3",
                "ref:rspo": 46848,
                "official_name": "Liceum Og\u00f3lnokszta\u0142cace Nr 3 w Jarocinie",
                "name": "Liceum Og\u00f3lnokszta\u0142cace Nr 3 w Jarocinie",
                "addr:country": "PL",
                "addr:postcode": "63-200",
                "addr:city": "Jarocin",
                "addr:street": "ul. Franciszka\u0144ska",
                "addr:housenumber": "1",
                "addr:teryt:simc": 5151,
                "addr:teryt:sym_ul": 936776,
                "contact:phone": "+48 627472619",
                "contact:email": "sekretariat@zsp1jarocin.edu.pl",
                "contact:website": "http:\/\/www.zsp1jarocin.edu.pl",
                "ref:regon": "251545386",
                "operator": "Powiat Jaroci\u0144ski",
                "operator:type": "government",
                "amenity": "school",
                "note": "Parent RSPO: 39763"
            }
        },
        {
            "id": 47129,
            "type": "Feature",
            "geometry": {
                "type": "Point",
                "coordinates": [
                    17.51351,
                    51.96222
                ]
            },
            "properties": {
                "isced:level": "3",
                "ref:rspo": 47129,
                "official_name": "Bran\u017cowa Szko\u0142a I Stopnia Nr 1 w Jarocinie",
                "name": "Bran\u017cowa Szko\u0142a I Stopnia Nr 1 w Jarocinie",
                "addr:country": "PL",
                "addr:postcode": "63-200",
                "addr:city": "Jarocin",
                "addr:street": "ul. Franciszka\u0144ska",
                "addr:housenumber": "1",
                "addr:teryt:simc": 5151,
                "addr:teryt:sym_ul": 936776,
                "contact:phone": "+48 627472619",
                "contact:email": "sekretariat@zsp1jarocin.edu.pl",
                "contact:website": "http:\/\/www.zsp1jarocin.edu.pl",
                "ref:regon": "251545400",
                "operator": "Powiat Jaroci\u0144ski",
                "operator:type": "government",
                "amenity": "school",
                "note": "Parent RSPO: 39763"
            }
        },
        {
            "id": 80891,
            "type": "Feature",
            "geometry": {
                "type": "Point",
                "coordinates": [
                    17.51351,
                    51.96219
                ]
            },
            "properties": {
                "isced:level": "3",
                "ref:rspo": 80891,
                "official_name": "Technikum Nr 1 w Jarocinie",
                "name": "Technikum Nr 1 w Jarocinie",
                "addr:country": "PL",
                "addr:postcode": "63-200",
                "addr:city": "Jarocin",
                "addr:street": "ul. Franciszka\u0144ska",
                "addr:housenumber": "1",
                "addr:teryt:simc": 5151,
                "addr:teryt:sym_ul": 936776,
                "contact:phone": "+48 627472619",
                "contact:email": "sekretariat@zsp1jarocin.edu.pl",
                "contact:website": "http:\/\/www.zsp1jarocin.edu.pl",
                "ref:regon": "251545392",
                "operator": "Powiat Jaroci\u0144ski",
                "operator:type": "government",
                "amenity": "school",
                "note": "Parent RSPO: 39763"
            }
        },
        {
            "id": 130263,
            "type": "Feature",
            "geometry": {
                "type": "Point",
                "coordinates": [
                    17.51823,
                    51.96338
                ]
            },
            "properties": {
                "ref:rspo": 130263,
                "official_name": "Centrum Doskonalenia Umiej\u0119tno\u015bci",
                "name": "Centrum Doskonalenia Umiej\u0119tno\u015bci",
                "addr:country": "PL",
                "addr:postcode": "63-200",
                "addr:city": "Jarocin",
                "addr:street": "ul. Boles\u0142awa Chrobrego",
                "addr:housenumber": "42",
                "addr:teryt:simc": 1742,
                "addr:teryt:sym_ul": 936776,
                "contact:phone": "+48 605990401",
                "contact:email": "cdu.biuroo@wp.pl",
                "contact:website": "https:\/\/cdujarocin.pl\/\/",
                "ref:regon": "363728039",
                "operator": "Centrum Doskonalenia Umiej\u0119tno\u015bci Ewa Jaworska",
                "operator:type": "consortium",
                "fixme": "w zale\u017cno\u015bci od przedmiotu dzia\u0142alno\u015bci (np. amenity=training + training=*, amenity=dancing_school, amenity=language_school, amenity=music_school)"
            }
        },
        {
            "id": 131168,
            "type": "Feature",
            "geometry": {
                "type": "Point",
                "coordinates": [
                    17.50766,
                    51.9634
                ]
            },
            "properties": {
                "ref:rspo": 131168,
                "official_name": "Zesp\u00f3\u0142 Szk\u00f3\u0142 Nr 4 w Jarocinie",
                "name": "Zesp\u00f3\u0142 Szk\u00f3\u0142 Nr 4 w Jarocinie",
                "addr:country": "PL",
                "addr:postcode": "63-200",
                "addr:city": "Jarocin",
                "addr:street": "ul. Marii Curie-Sk\u0142odowskiej",
                "addr:housenumber": "4",
                "addr:teryt:simc": 3148,
                "addr:teryt:sym_ul": 936776,
                "contact:phone": "+48 627472689",
                "contact:email": "szkola.sp4@wp.pl",
                "ref:regon": "364990271",
                "operator": "Gmina Jarocin",
                "operator:type": "government",
                "landuse": "education",
                "fixme": "amenity=school, amenity=college albo landuse=education w zale\u017cno\u015bci od tego, jakie plac\u00f3wki wchodz\u0105 w sk\u0142ad zespo\u0142u. Sprawd\u017a, kiedy stosowa\u0107 amenity=* a kiedy landuse=education.",
                "note": "Children RSPO: 43960;43972;269482"
            }
        },
        {
            "id": 43960,
            "type": "Feature",
            "geometry": {
                "type": "Point",
                "coordinates": [
                    17.50766,
                    51.96337
                ]
            },
            "properties": {
                "isced:level": "1;2",
                "ref:rspo": 43960,
                "official_name": "Szko\u0142a Podstawowa Nr 4 im. W\u0142adys\u0142awa Broniewskiego w Jarocinie",
                "name": "Szko\u0142a Podstawowa Nr 4",
                "addr:country": "PL",
                "addr:postcode": "63-200",
                "addr:city": "Jarocin",
                "addr:street": "ul. Marii Curie-Sk\u0142odowskiej",
                "addr:housenumber": "4",
                "addr:teryt:simc": 3148,
                "addr:teryt:sym_ul": 936776,
                "contact:phone": "+48 627472689",
                "contact:email": "szkola.sp4@wp.pl",
                "ref:regon": "000693670",
                "operator": "Gmina Jarocin",
                "operator:type": "government",
                "amenity": "school",
                "note": "Parent RSPO: 131168"
            }
        },
        {
            "id": 269482,
            "type": "Feature",
            "geometry": {
                "type": "Point",
                "coordinates": [
                    17.50766,
                    51.96334
                ]
            },
            "properties": {
                "ref:rspo": 269482,
                "official_name": "Szkolne Schronisko M\u0142odzie\u017cowe Nr 4 w Jarocinie",
                "name": "Szkolne Schronisko M\u0142odzie\u017cowe Nr 4 w Jarocinie",
                "addr:country": "PL",
                "addr:postcode": "63-200",
                "addr:city": "Jarocin",
                "addr:street": "ul. Marii Curie-Sk\u0142odowskiej",
                "addr:housenumber": "4",
                "addr:teryt:simc": 3148,
                "addr:teryt:sym_ul": 936776,
                "contact:phone": "+48 627472689",
                "contact:email": "szkola.sp4@wp.pl",
                "ref:regon": "381511449",
                "operator": "Gmina Jarocin",
                "operator:type": "government",
                "tourism": "hostel",
                "note": "Parent RSPO: 131168"
            }
        },
        {
            "id": 43972,
            "type": "Feature",
            "geometry": {
                "type": "Point",
                "coordinates": [
                    17.50688,
                    51.9638
                ]
            },
            "properties": {
                "ref:rspo": 43972,
                "official_name": "Publiczne Przedszkole Nr 2 \"Bajeczka\" w Jarocinie",
                "name": "Publiczne Przedszkole Nr 2 \"Bajeczka\" w Jarocinie",
                "addr:country": "PL",
                "addr:postcode": "63-200",
                "addr:city": "Jarocin",
                "addr:street": "ul. Marii Curie-Sk\u0142odowskiej",
                "addr:housenumber": "2a",
                "addr:teryt:simc": 3148,
                "addr:teryt:sym_ul": 936776,
                "contact:phone": "+48 627472296",
                "contact:email": "ppn2wj@wp.pl",
                "ref:regon": "251588562",
                "ref:vatin": "PL6172058796",
                "operator": "Gmina Jarocin",
                "operator:type": "government",
                "amenity": "kindergarten",
                "note": "Parent RSPO: 131168"
            }
        },
        {
            "id": 43979,
            "type": "Feature",
            "geometry": {
                "type": "Point",
                "coordinates": [
                    17.5117,
                    51.96475
                ]
            },
            "properties": {
                "ref:rspo": 43979,
                "official_name": "Niepubliczne Przedszkole \"Promyczek\" w Jarocinie",
                "name": "Niepubliczne Przedszkole \"Promyczek\" w Jarocinie",
                "addr:country": "PL",
                "addr:postcode": "63-200",
                "addr:city": "Jarocin",
                "addr:street": "ul. Stefana Batorego",
                "addr:housenumber": "11",
                "addr:teryt:simc": 891,
                "addr:teryt:sym_ul": 936776,
                "contact:phone": "+48 627472572",
                "contact:email": "promyczekjarocin@wp.pl",
                "contact:website": "http:\/\/promyczekjarocin.pl",
                "ref:regon": "302261681",
                "operator": "Stowarzyszenie Wychowawczo - Opieku\u0144czo - Dydaktyczne \"Promyczek\"",
                "operator:type": "ngo",
                "amenity": "kindergarten"
            }
        },
        {
            "id": 278939,
            "type": "Feature",
            "geometry": {
                "type": "Point",
                "coordinates": [
                    17.48903,
                    51.96514
                ]
            },
            "properties": {
                "ref:rspo": 278939,
                "official_name": "Ry\u015b-Pol Poskrop Ryszard",
                "name": "Ry\u015b-Pol Poskrop Ryszard",
                "addr:country": "PL",
                "addr:postcode": "63-200",
                "addr:city": "Jarocin",
                "addr:street": "ul. Zaciszna",
                "addr:housenumber": "12",
                "addr:teryt:simc": 25316,
                "addr:teryt:sym_ul": 936776,
                "contact:phone": "+48 606672486",
                "contact:email": "rys-net@wp.pl",
                "ref:regon": "520238420",
                "operator": "Ryszard Poskrop",
                "operator:type": "private",
                "fixme": "w zale\u017cno\u015bci od przedmiotu dzia\u0142alno\u015bci (np. amenity=training + training=*, amenity=dancing_school, amenity=language_school, amenity=music_school)"
            }
        },
        {
            "id": 49764,
            "type": "Feature",
            "geometry": {
                "type": "Point",
                "coordinates": [
                    17.50837,
                    51.96581
                ]
            },
            "properties": {
                "ref:rspo": 49764,
                "official_name": "Anglista Szko\u0142a J\u0119zyk\u00f3w Obcych Niepubliczne Centrum Edukacyjne w Jarocinie",
                "name": "Anglista Szko\u0142a J\u0119zyk\u00f3w Obcych Niepubliczne Centrum Edukacyjne w Jarocinie",
                "addr:country": "PL",
                "addr:postcode": "63-200",
                "addr:city": "Jarocin",
                "addr:street": "ul. Wojska Polskiego",
                "addr:housenumber": "44",
                "addr:teryt:simc": 24628,
                "addr:teryt:sym_ul": 936776,
                "contact:phone": "+48 625943093",
                "contact:email": "sekretariat@anglista.com.pl",
                "contact:website": "http:\/\/www.anglista.com.pl",
                "ref:regon": "302249326",
                "operator": "Anna Szypura",
                "operator:type": "private",
                "amenity": "school",
                "fixme": "amenity=school lub amenity=college"
            }
        },
        {
            "id": 131225,
            "type": "Feature",
            "geometry": {
                "type": "Point",
                "coordinates": [
                    17.48699,
                    51.96703
                ]
            },
            "properties": {
                "ref:rspo": 131225,
                "official_name": "Akademia Dobrej Edukacji im. Czes\u0142awa Niemena w Jarocinie",
                "name": "Akademia Dobrej Edukacji",
                "addr:country": "PL",
                "addr:postcode": "63-200",
                "addr:city": "Jarocin",
                "addr:street": "ul. Przemys\u0142owa",
                "addr:housenumber": "3",
                "addr:teryt:simc": 17742,
                "addr:teryt:sym_ul": 936776,
                "contact:phone": "+48 510114890",
                "contact:email": "ade.jarocin@dobraedukacja.edu.pl",
                "contact:website": "http:\/\/www.dobraedukacja.edu.pl\/jarocin",
                "ref:regon": "365040755",
                "operator": "Stowarzyszenie \"Dobra Edukacja\"",
                "operator:type": "ngo",
                "landuse": "education",
                "fixme": "amenity=school, amenity=college albo landuse=education w zale\u017cno\u015bci od tego, jakie plac\u00f3wki wchodz\u0105 w sk\u0142ad zespo\u0142u. Sprawd\u017a, kiedy stosowa\u0107 amenity=* a kiedy landuse=education.",
                "note": "Children RSPO: 128180;268494"
            }
        },
        {
            "id": 128180,
            "type": "Feature",
            "geometry": {
                "type": "Point",
                "coordinates": [
                    17.48699,
                    51.967
                ]
            },
            "properties": {
                "isced:level": "1;2",
                "ref:rspo": 128180,
                "official_name": "Szko\u0142a Podstawowa Akademia Dobrej Edukacji im. Czes\u0142awa Niemena Z Oddzia\u0142em Przedszkolnym w Jarocinie",
                "name": "Szko\u0142a Podstawowa Akademia Dobrej Edukacji",
                "addr:country": "PL",
                "addr:postcode": "63-200",
                "addr:city": "Jarocin",
                "addr:street": "ul. Przemys\u0142owa",
                "addr:housenumber": "3",
                "addr:teryt:simc": 17742,
                "addr:teryt:sym_ul": 936776,
                "contact:phone": "+48 510114890",
                "ref:regon": "362167260",
                "operator": "Stowarzyszenie \"Dobra Edukacja\"",
                "operator:type": "ngo",
                "amenity": "school",
                "note": "Parent RSPO: 131225"
            }
        },
        {
            "id": 268494,
            "type": "Feature",
            "geometry": {
                "type": "Point",
                "coordinates": [
                    17.48699,
                    51.96697
                ]
            },
            "properties": {
                "isced:level": "3",
                "ref:rspo": 268494,
                "official_name": "Liceum Akademia Dobrej Edukacji im. Czes\u0142awa Niemenaw Jarocinie",
                "name": "Liceum Akademia Dobrej Edukacji",
                "addr:country": "PL",
                "addr:postcode": "63-200",
                "addr:city": "Jarocin",
                "addr:street": "ul. Przemys\u0142owa",
                "addr:housenumber": "3",
                "addr:teryt:simc": 17742,
                "addr:teryt:sym_ul": 936776,
                "contact:phone": "+48 230000395",
                "contact:email": "ade.jarocin@dobraedukacja.edu.pl",
                "contact:website": "http:\/\/dobraedukacja.edu.pl\/jarocin\/",
                "ref:regon": "381199555",
                "operator": "Stowarzyszenie \"Dobra Edukacja\"",
                "operator:type": "ngo",
                "amenity": "school",
                "note": "Parent RSPO: 131225"
            }
        },
        {
            "id": 274275,
            "type": "Feature",
            "geometry": {
                "type": "Point",
                "coordinates": [
                    17.50191,
                    51.96776
                ]
            },
            "properties": {
                "ref:rspo": 274275,
                "official_name": "Paddington.dwuj\u0119zyczne Przedszkole Niepubliczne Montessori",
                "name": "Paddington.dwuj\u0119zyczne Przedszkole Niepubliczne Montessori",
                "addr:country": "PL",
                "addr:postcode": "63-200",
                "addr:city": "Jarocin",
                "addr:street": "ul. Wroc\u0142awska",
                "addr:housenumber": "46a",
                "addr:teryt:simc": 24806,
                "addr:teryt:sym_ul": 936776,
                "contact:email": "kontakt@paddington.edu.pl",
                "contact:website": "http:\/\/www.paddington.edu.pl",
                "ref:regon": "385507150",
                "operator": "Przedszkolna Edukacja Montessori Sp\u00f3\u0142ka Z Ograniczon\u0105 Odpowiedzialno\u015bci\u0105",
                "operator:type": "private",
                "amenity": "kindergarten"
            }
        },
        {
            "id": 128825,
            "type": "Feature",
            "geometry": {
                "type": "Point",
                "coordinates": [
                    17.49895,
                    51.96808
                ]
            },
            "properties": {
                "ref:rspo": 128825,
                "official_name": "Pbp Ksi\u0105\u017cnica Pedagogiczna im. A. Parczewskiego w Kaliszu Filia w Jarocinie",
                "name": "Pbp Ksi\u0105\u017cnica Pedagogiczna",
                "addr:country": "PL",
                "addr:postcode": "63-200",
                "addr:city": "Jarocin",
                "addr:street": "ul. Tadeusza Ko\u015bciuszki",
                "addr:housenumber": "16",
                "addr:teryt:simc": 9582,
                "addr:teryt:sym_ul": 936776,
                "contact:phone": "+48 627472263",
                "contact:email": "kp.jarocin@kp.kalisz.pl",
                "contact:website": "http:\/\/www.kp.kalisz.pl",
                "ref:regon": "694215000",
                "operator": "Wojew\u00f3dztwo Wielkopolskie",
                "operator:type": "government",
                "amenity": "library",
                "note": "Parent RSPO: 30916"
            }
        },
        {
            "id": 128242,
            "type": "Feature",
            "geometry": {
                "type": "Point",
                "coordinates": [
                    17.49761,
                    51.9682
                ]
            },
            "properties": {
                "ref:rspo": 128242,
                "official_name": "Niepubliczne Przedszkole \"Jarz\u0119binka\" w Jarocinie",
                "name": "Niepubliczne Przedszkole \"Jarz\u0119binka\" w Jarocinie",
                "addr:country": "PL",
                "addr:postcode": "63-200",
                "addr:city": "Jarocin",
                "addr:street": "ul. Libercourt",
                "addr:housenumber": "1",
                "addr:teryt:simc": 34001,
                "addr:teryt:sym_ul": 936776,
                "contact:phone": "+48 627472150",
                "contact:email": "jarzebinka6@op.pl",
                "ref:regon": "362191301",
                "operator": "Stowarzyszenie \"Razem Z Jarz\u0119bink\u0105\"",
                "operator:type": "ngo",
                "amenity": "kindergarten"
            }
        },
        {
            "id": 278500,
            "type": "Feature",
            "geometry": {
                "type": "Point",
                "coordinates": [
                    17.50224,
                    51.96836
                ]
            },
            "properties": {
                "ref:rspo": 278500,
                "official_name": "Niepubliczne Przedszkole Happy-Kids w Jarocinie",
                "name": "Niepubliczne Przedszkole Happy-Kids w Jarocinie",
                "addr:country": "PL",
                "addr:postcode": "63-200",
                "addr:city": "Jarocin",
                "addr:street": "ul. Genera\u0142a J\u00f3zefa Hallera",
                "addr:housenumber": "4",
                "addr:door": "33",
                "addr:teryt:simc": 33998,
                "addr:teryt:sym_ul": 936776,
                "contact:phone": "+48 783888230",
                "contact:email": "biuro@happykids-jarocin.pl",
                "contact:website": "http:\/\/www.happykids-jarocin.pl",
                "ref:regon": "389927480",
                "operator": "\u017b\u0142obek I Przedszkole Happy-Kids Sp\u00f3\u0142ka Z Ograniczon\u0105 Odpowiedzialno\u015bci\u0105",
                "operator:type": "private",
                "amenity": "kindergarten"
            }
        },
        {
            "id": 128239,
            "type": "Feature",
            "geometry": {
                "type": "Point",
                "coordinates": [
                    17.5026699,
                    51.96886
                ]
            },
            "properties": {
                "ref:rspo": 128239,
                "official_name": "Niepubliczne Przedszkole \"Stokrotka\" w Jarocinie",
                "name": "Niepubliczne Przedszkole \"Stokrotka\" w Jarocinie",
                "addr:country": "PL",
                "addr:postcode": "63-200",
                "addr:city": "Jarocin",
                "addr:street": "ul. Genera\u0142a J\u00f3zefa Hallera",
                "addr:housenumber": "8a",
                "addr:teryt:simc": 33998,
                "addr:teryt:sym_ul": 936776,
                "contact:phone": "+48 627472668",
                "contact:email": "pp1.jarocin@onet.pl",
                "ref:regon": "362190661",
                "operator": "Stowarzyszenie \"Razem Z Jarz\u0119bink\u0105\"",
                "operator:type": "ngo",
                "amenity": "kindergarten"
            }
        },
        {
            "id": 90750,
            "type": "Feature",
            "geometry": {
                "type": "Point",
                "coordinates": [
                    17.48426,
                    51.96911
                ]
            },
            "properties": {
                "ref:rspo": 90750,
                "official_name": "Zesp\u00f3\u0142 Szk\u00f3\u0142 Spo\u0142ecznych\nJaroci\u0144skiego Stowarzyszenia Edukacyjnego",
                "name": "Zesp\u00f3\u0142 Szk\u00f3\u0142 Spo\u0142ecznych\nJaroci\u0144skiego Stowarzyszenia Edukacyjnego",
                "addr:country": "PL",
                "addr:postcode": "63-200",
                "addr:city": "Jarocin",
                "addr:street": "ul. Przemys\u0142owa",
                "addr:housenumber": "1",
                "addr:teryt:simc": 17742,
                "addr:teryt:sym_ul": 936776,
                "contact:phone": "+48 627473789",
                "contact:email": "sekretariat@spolecznejarocin.pl",
                "contact:website": "http:\/\/www.spolecznejarocin.pl",
                "ref:regon": "302281838",
                "ref:vatin": "PL6172098790",
                "operator": "Jaroci\u0144skie Stowarzyszenie Edukacyjne",
                "operator:type": "ngo",
                "landuse": "education",
                "fixme": "amenity=school, amenity=college albo landuse=education w zale\u017cno\u015bci od tego, jakie plac\u00f3wki wchodz\u0105 w sk\u0142ad zespo\u0142u. Sprawd\u017a, kiedy stosowa\u0107 amenity=* a kiedy landuse=education.",
                "note": "Children RSPO: 91918;91964"
            }
        },
        {
            "id": 91918,
            "type": "Feature",
            "geometry": {
                "type": "Point",
                "coordinates": [
                    17.48426,
                    51.96908
                ]
            },
            "properties": {
                "isced:level": "1;2",
                "ref:rspo": 91918,
                "official_name": "Spo\u0142eczna Szko\u0142a Podstawowa Z Oddzia\u0142ami Przedszkolnymi w Jarocinie",
                "name": "Spo\u0142eczna Szko\u0142a Podstawowa Z Oddzia\u0142ami Przedszkolnymi w Jarocinie",
                "addr:country": "PL",
                "addr:postcode": "63-200",
                "addr:city": "Jarocin",
                "addr:street": "ul. Przemys\u0142owa",
                "addr:housenumber": "1",
                "addr:teryt:simc": 17742,
                "addr:teryt:sym_ul": 936776,
                "contact:phone": "+48 627473789",
                "contact:email": "sekretariat@spolecznejarocin.pl",
                "contact:website": "http:\/\/www.spolecznejarocin.pl",
                "ref:regon": "302289350",
                "operator": "Jaroci\u0144skie Stowarzyszenie Edukacyjne",
                "operator:type": "ngo",
                "amenity": "school",
                "note": "Parent RSPO: 90750"
            }
        },
        {
            "id": 91964,
            "type": "Feature",
            "geometry": {
                "type": "Point",
                "coordinates": [
                    17.48426,
                    51.96905
                ]
            },
            "properties": {
                "isced:level": "3",
                "ref:rspo": 91964,
                "official_name": "Spo\u0142eczne Liceum Og\u00f3lnokszta\u0142c\u0105ce w Jarocinie",
                "name": "Spo\u0142eczne Liceum Og\u00f3lnokszta\u0142c\u0105ce w Jarocinie",
                "addr:country": "PL",
                "addr:postcode": "63-200",
                "addr:city": "Jarocin",
                "addr:street": "ul. Przemys\u0142owa",
                "addr:housenumber": "1",
                "addr:door": "1",
                "addr:teryt:simc": 17742,
                "addr:teryt:sym_ul": 936776,
                "contact:phone": "+48 627473789",
                "contact:email": "sekretariat@spolecznejarocin.pl",
                "ref:regon": "302289314",
                "operator": "Dane Do Uzupe\u0142nienia",
                "operator:type": "private",
                "amenity": "school",
                "note": "Parent RSPO: 90750"
            }
        },
        {
            "id": 111037,
            "type": "Feature",
            "geometry": {
                "type": "Point",
                "coordinates": [
                    17.49793,
                    51.96944
                ]
            },
            "properties": {
                "isced:level": "3",
                "ref:rspo": 111037,
                "official_name": "Liceum Og\u00f3lnokszta\u0142c\u0105ce Nr 1 im. T. Ko\u015bciuszki w Jarocinie",
                "name": "Liceum Og\u00f3lnokszta\u0142c\u0105ce Nr 1",
                "addr:country": "PL",
                "addr:postcode": "63-200",
                "addr:city": "Jarocin",
                "addr:street": "ul. Tadeusza Ko\u015bciuszki",
                "addr:housenumber": "31",
                "addr:teryt:simc": 9582,
                "addr:teryt:sym_ul": 936776,
                "contact:phone": "+48 627472373",
                "contact:email": "dyrekcja@liceum-jarocin.pl",
                "contact:website": "http:\/\/www.liceum-jarocin.pl",
                "ref:regon": "000229027",
                "operator": "Powiat Jaroci\u0144ski",
                "operator:type": "government",
                "amenity": "school"
            }
        },
        {
            "id": 129429,
            "type": "Feature",
            "geometry": {
                "type": "Point",
                "coordinates": [
                    17.49793,
                    51.969409999999996
                ]
            },
            "properties": {
                "ref:rspo": 129429,
                "official_name": "Mi\u0119dzyszkolny O\u015brodek Sportowy w Jarocinie",
                "name": "Mi\u0119dzyszkolny O\u015brodek Sportowy w Jarocinie",
                "addr:country": "PL",
                "addr:postcode": "63-200",
                "addr:city": "Jarocin",
                "addr:street": "ul. Tadeusza Ko\u015bciuszki",
                "addr:housenumber": "31",
                "addr:teryt:simc": 9582,
                "addr:teryt:sym_ul": 936776,
                "contact:phone": "+48 627472373",
                "ref:regon": "362600290",
                "operator": "Fundacja Rozwoju Po\u0142udniowej Wielkopolski",
                "operator:type": "ngo",
                "fixme": "w zale\u017cno\u015bci od przedmiotu dzia\u0142alno\u015bci (np. amenity=training + training=*, amenity=dancing_school, amenity=language_school, amenity=music_school)"
            }
        },
        {
            "id": 43982,
            "type": "Feature",
            "geometry": {
                "type": "Point",
                "coordinates": [
                    17.50939,
                    51.96988
                ]
            },
            "properties": {
                "ref:rspo": 43982,
                "official_name": "Niepubliczne Przedszkole \"Ja\u015b I Ma\u0142gosia\" w Jarocinie",
                "name": "Niepubliczne Przedszkole \"Ja\u015b I Ma\u0142gosia\" w Jarocinie",
                "addr:country": "PL",
                "addr:postcode": "63-200",
                "addr:city": "Jarocin",
                "addr:street": "ul. D\u0142uga",
                "addr:housenumber": "44",
                "addr:teryt:simc": 3839,
                "addr:teryt:sym_ul": 936776,
                "contact:phone": "+48 695127121",
                "contact:email": "przedszkolejasimalgosia@op.pl",
                "ref:regon": "302246990",
                "ref:vatin": "PL6172059844",
                "operator": "Nina Szyszka",
                "operator:type": "private",
                "amenity": "kindergarten"
            }
        },
        {
            "id": 262284,
            "type": "Feature",
            "geometry": {
                "type": "Point",
                "coordinates": [
                    17.49793,
                    51.97063
                ]
            },
            "properties": {
                "isced:level": "1;2",
                "ref:rspo": 262284,
                "official_name": "Niepubliczna Szko\u0142a Podstawowa im. T. Ko\u015bciuszki w Jarocinie",
                "name": "Niepubliczna Szko\u0142a Podstawowa",
                "addr:country": "PL",
                "addr:postcode": "63-200",
                "addr:city": "Jarocin",
                "addr:street": "ul. Tadeusza Ko\u015bciuszki",
                "addr:housenumber": "25",
                "addr:teryt:simc": 9582,
                "addr:teryt:sym_ul": 936776,
                "contact:email": "sekretariat@spkosciuszko.pl",
                "ref:regon": "367993471",
                "operator": "Stowarzyszenie Absolwent\u00f3w I Wychowank\u00f3w Pa\u0144stwowego Gimnazjum I Liceum Og\u00f3lnokszta\u0142c\u0105cego Im. Tadeusza Ko\u015bciuszki W Jarocinie",
                "operator:type": "ngo",
                "amenity": "school"
            }
        },
        {
            "id": 80916,
            "type": "Feature",
            "geometry": {
                "type": "Point",
                "coordinates": [
                    17.49856,
                    51.97105
                ]
            },
            "properties": {
                "ref:rspo": 80916,
                "official_name": "Niepubliczne Centrum Kszta\u0142cenia Ustawicznego I Praktycznego w Jarocinie",
                "name": "Niepubliczne Centrum Kszta\u0142cenia Ustawicznego I Praktycznego w Jarocinie",
                "addr:country": "PL",
                "addr:postcode": "63-200",
                "addr:city": "Jarocin",
                "addr:street": "ul. Tadeusza Ko\u015bciuszki",
                "addr:housenumber": "14a",
                "addr:teryt:simc": 9582,
                "addr:teryt:sym_ul": 936776,
                "contact:phone": "+48 625053010",
                "contact:email": "ckd.jarocin@gmail.com",
                "contact:website": "http:\/\/www.ckdjarocin.edu.pl\/",
                "ref:regon": "302265360",
                "operator": "Krzysztof Hajdasz",
                "operator:type": "private",
                "fixme": "w zale\u017cno\u015bci od przedmiotu dzia\u0142alno\u015bci (np. amenity=training + training=*, amenity=dancing_school, amenity=language_school, amenity=music_school) albo amenity=school, amenity=college, albo landuse=education w zale\u017cno\u015bci od tego, jakie plac\u00f3wki wchodz\u0105 w sk\u0142ad zespo\u0142u. Sprawd\u017a, kiedy stosowa\u0107 amenity=* a kiedy landuse=education."
            }
        },
        {
            "id": 83641,
            "type": "Feature",
            "geometry": {
                "type": "Point",
                "coordinates": [
                    17.49856,
                    51.971019999999996
                ]
            },
            "properties": {
                "isced:level": "3",
                "ref:rspo": 83641,
                "official_name": "Niepubliczne Liceum Og\u00f3lnokszta\u0142c\u0105ce dla Doros\u0142ych w Jarocinie",
                "name": "Niepubliczne Liceum Og\u00f3lnokszta\u0142c\u0105ce dla Doros\u0142ych w Jarocinie",
                "addr:country": "PL",
                "addr:postcode": "63-200",
                "addr:city": "Jarocin",
                "addr:street": "ul. Tadeusza Ko\u015bciuszki",
                "addr:housenumber": "14a",
                "addr:teryt:simc": 9582,
                "addr:teryt:sym_ul": 936776,
                "contact:phone": "+48 625053010",
                "contact:email": "ckd.jarocin@gmail.com",
                "ref:regon": "302269530",
                "ref:vatin": "PL6172187393",
                "operator": "Krzysztof Hajdasz",
                "operator:type": "private",
                "amenity": "school"
            }
        },
        {
            "id": 113970,
            "type": "Feature",
            "geometry": {
                "type": "Point",
                "coordinates": [
                    17.49856,
                    51.97099
                ]
            },
            "properties": {
                "isced:level": "4",
                "ref:rspo": 113970,
                "official_name": "Szko\u0142a Policealna w Jarocinie",
                "name": "Szko\u0142a Policealna w Jarocinie",
                "addr:country": "PL",
                "addr:postcode": "63-200",
                "addr:city": "Jarocin",
                "addr:street": "ul. Tadeusza Ko\u015bciuszki",
                "addr:housenumber": "14a",
                "addr:teryt:simc": 9582,
                "addr:teryt:sym_ul": 936776,
                "contact:phone": "+48 625053010",
                "contact:email": "ckd.jarocin@gmail.com",
                "ref:regon": "302406837",
                "ref:vatin": "PL6172195234",
                "operator": "Krzysztof Hajdasz",
                "operator:type": "private",
                "amenity": "college"
            }
        },
        {
            "id": 269550,
            "type": "Feature",
            "geometry": {
                "type": "Point",
                "coordinates": [
                    17.49774,
                    51.97139
                ]
            },
            "properties": {
                "ref:rspo": 269550,
                "official_name": "Niepubliczne Przedszkole \"Akademia Krasnali\" w Jarocinie",
                "name": "Niepubliczne Przedszkole \"Akademia Krasnali\" w Jarocinie",
                "addr:country": "PL",
                "addr:postcode": "63-200",
                "addr:city": "Jarocin",
                "addr:street": "ul. Tadeusza Ko\u015bciuszki",
                "addr:housenumber": "21a",
                "addr:teryt:simc": 9582,
                "addr:teryt:sym_ul": 936776,
                "contact:phone": "+48 538375984",
                "contact:email": "krasnale.jarocin@gmail.com",
                "contact:website": "http:\/\/www.akademiakrasnali.pl",
                "ref:regon": "381542131",
                "operator": "Halina Szulc",
                "operator:type": "private",
                "amenity": "kindergarten"
            }
        },
        {
            "id": 121206,
            "type": "Feature",
            "geometry": {
                "type": "Point",
                "coordinates": [
                    17.50011,
                    51.97267
                ]
            },
            "properties": {
                "ref:rspo": 121206,
                "official_name": "Yamaha Szko\u0142a Muzyczna w Jarocinie",
                "name": "Yamaha Szko\u0142a Muzyczna w Jarocinie",
                "addr:country": "PL",
                "addr:postcode": "63-200",
                "addr:city": "Jarocin",
                "addr:street": "ul. Adama Mickiewicza",
                "addr:housenumber": "6",
                "addr:teryt:simc": 12740,
                "addr:teryt:sym_ul": 936776,
                "contact:phone": "+48 691949169",
                "contact:email": "paulina.paks@gmail.com",
                "ref:regon": "302598877",
                "operator": "Dane Do Uzupe\u0142nienia",
                "operator:type": "private",
                "fixme": "w zale\u017cno\u015bci od przedmiotu dzia\u0142alno\u015bci (np. amenity=community_centre + community_centre:for=child;juvenile, amenity=training + training=*, amenity=dancing_school, amenity=music_school),"
            }
        },
        {
            "id": 66422,
            "type": "Feature",
            "geometry": {
                "type": "Point",
                "coordinates": [
                    17.50119,
                    51.9726799
                ]
            },
            "properties": {
                "ref:rspo": 66422,
                "official_name": "Osk Kriss Lingua School",
                "name": "Osk Kriss Lingua School",
                "addr:country": "PL",
                "addr:postcode": "63-200",
                "addr:city": "Jarocin",
                "addr:street": "ul. Rynek",
                "addr:housenumber": "23",
                "addr:teryt:simc": 19253,
                "addr:teryt:sym_ul": 936776,
                "contact:phone": "+48 530909309",
                "contact:email": "figajkrzysztof@gmail.com",
                "contact:website": "https:\/\/naukajazdyjarocin.pl\/",
                "ref:regon": "302258934",
                "ref:vatin": "PL6172030763",
                "operator": "Krzysztof Figaj",
                "operator:type": "private",
                "fixme": "w zale\u017cno\u015bci od przedmiotu dzia\u0142alno\u015bci (np. amenity=training + training=*, amenity=dancing_school, amenity=language_school, amenity=music_school)"
            }
        },
        {
            "id": 15173,
            "type": "Feature",
            "geometry": {
                "type": "Point",
                "coordinates": [
                    17.49941,
                    51.97307
                ]
            },
            "properties": {
                "isced:level": "1;2",
                "ref:rspo": 15173,
                "official_name": "Szko\u0142a Podstawowa Nr 2 im. Kr\u00f3lowej Jadwigi w Jarocinie",
                "name": "Szko\u0142a Podstawowa Nr 2",
                "addr:country": "PL",
                "addr:postcode": "63-200",
                "addr:city": "Jarocin",
                "addr:street": "ul. Aleja Niepodleg\u0142o\u015bci",
                "addr:housenumber": "8",
                "addr:teryt:simc": 30816,
                "addr:teryt:sym_ul": 936776,
                "contact:phone": "+48 627472872",
                "contact:email": "szkolapodstawowanr2@jarocin.pl",
                "contact:website": "http:\/\/sp2jarocin.szkolnastrona.pl\/",
                "ref:regon": "000694238",
                "ref:vatin": "PL6171833690",
                "operator": "Gmina Jarocin",
                "operator:type": "government",
                "amenity": "school"
            }
        },
        {
            "id": 30362,
            "type": "Feature",
            "geometry": {
                "type": "Point",
                "coordinates": [
                    17.5032,
                    51.97566
                ]
            },
            "properties": {
                "ref:rspo": 30362,
                "official_name": "Pa\u0144stwowa Szko\u0142a Muzyczna I St. w Jarocinie",
                "name": "Pa\u0144stwowa Szko\u0142a Muzyczna I St. w Jarocinie",
                "addr:country": "PL",
                "addr:postcode": "63-200",
                "addr:city": "Jarocin",
                "addr:street": "ul. Park",
                "addr:housenumber": "3",
                "addr:teryt:simc": 15698,
                "addr:teryt:sym_ul": 936776,
                "contact:phone": "+48 627473020",
                "contact:email": "psmjarocin@poczta.onet.pl",
                "contact:website": "http:\/\/psm.jarocin.pl",
                "ref:regon": "000772197",
                "operator": "Ministerstwo Kultury I Dziedzictwa Narodowego",
                "operator:type": "public",
                "amenity": "music_school"
            }
        },
        {
            "id": 132234,
            "type": "Feature",
            "geometry": {
                "type": "Point",
                "coordinates": [
                    17.5032,
                    51.975629999999995
                ]
            },
            "properties": {
                "ref:rspo": 132234,
                "official_name": "Niepubliczne Schronisko M\u0142odzie\u017cowe -Pa\u0142ac Radoli\u0144skich",
                "name": "Niepubliczne Schronisko M\u0142odzie\u017cowe -Pa\u0142ac Radoli\u0144skich",
                "addr:country": "PL",
                "addr:postcode": "63-200",
                "addr:city": "Jarocin",
                "addr:street": "ul. Park",
                "addr:housenumber": "3",
                "addr:teryt:simc": 15698,
                "addr:teryt:sym_ul": 936776,
                "contact:phone": "+48 531721629",
                "contact:email": "schronisko@muzeumjarocin.pl",
                "ref:regon": "365518352",
                "operator": "Muzeum Regionalne W Jarocinie",
                "operator:type": "cooperative",
                "tourism": "hostel"
            }
        },
        {
            "id": 128183,
            "type": "Feature",
            "geometry": {
                "type": "Point",
                "coordinates": [
                    17.50683,
                    51.97641
                ]
            },
            "properties": {
                "ref:rspo": 128183,
                "official_name": "Niepubliczne Przedszkole Z Oddzia\u0142ami Integracyjnymi Marcinek w Jarocinie",
                "name": "Niepubliczne Przedszkole Z Oddzia\u0142ami Integracyjnymi Marcinek w Jarocinie",
                "addr:country": "PL",
                "addr:postcode": "63-200",
                "addr:city": "Jarocin",
                "addr:street": "ul. Ludwika Wary\u0144skiego",
                "addr:housenumber": "5",
                "addr:teryt:simc": 23707,
                "addr:teryt:sym_ul": 936776,
                "contact:email": "sekretariat@marcinek-jarocin.pl",
                "ref:regon": "362167484",
                "operator": "Fundacja \"Mali Wielcy Ludzie\"",
                "operator:type": "ngo",
                "amenity": "kindergarten"
            }
        },
        {
            "id": 40839,
            "type": "Feature",
            "geometry": {
                "type": "Point",
                "coordinates": [
                    17.50765,
                    51.97772
                ]
            },
            "properties": {
                "ref:rspo": 40839,
                "official_name": "Zesp\u00f3\u0142 Szk\u00f3\u0142 Nr 5 w Jarocinie",
                "name": "Zesp\u00f3\u0142 Szk\u00f3\u0142 Nr 5 w Jarocinie",
                "addr:country": "PL",
                "addr:postcode": "63-200",
                "addr:city": "Jarocin",
                "addr:street": "ul. Ludwika Wary\u0144skiego",
                "addr:housenumber": "11",
                "addr:teryt:simc": 23707,
                "addr:teryt:sym_ul": 936776,
                "contact:phone": "+48 627472006",
                "contact:email": "zespolszkolnr5@jarocin.pl",
                "contact:website": "http:\/\/www.szkola5jarocin.pl",
                "ref:regon": "251594427",
                "ref:vatin": "PL6172069989",
                "operator": "Gmina Jarocin",
                "operator:type": "government",
                "landuse": "education",
                "fixme": "amenity=school, amenity=college albo landuse=education w zale\u017cno\u015bci od tego, jakie plac\u00f3wki wchodz\u0105 w sk\u0142ad zespo\u0142u. Sprawd\u017a, kiedy stosowa\u0107 amenity=* a kiedy landuse=education.",
                "note": "Children RSPO: 63438;63442"
            }
        },
        {
            "id": 63438,
            "type": "Feature",
            "geometry": {
                "type": "Point",
                "coordinates": [
                    17.50765,
                    51.977689999999996
                ]
            },
            "properties": {
                "isced:level": "1;2",
                "ref:rspo": 63438,
                "official_name": "Szko\u0142a Podstawowa Nr 5 Z Oddzia\u0142ami Integracyjnymi im. I Pu\u0142ku Lotnictwa My\u015bliwskiego \"Warszawa\" w Jarocinie",
                "name": "Szko\u0142a Podstawowa Nr 5 Z Oddzia\u0142ami Integracyjnymi",
                "addr:country": "PL",
                "addr:postcode": "63-200",
                "addr:city": "Jarocin",
                "addr:street": "ul. Ludwika Wary\u0144skiego",
                "addr:housenumber": "11",
                "addr:teryt:simc": 23707,
                "addr:teryt:sym_ul": 936776,
                "contact:phone": "+48 627472006",
                "contact:email": "zespolszkolnr5@jarocin.pl",
                "contact:website": "http:\/\/www.szkola5jarocin.pl",
                "ref:regon": "000693687",
                "ref:vatin": "PL6172060899",
                "operator": "Gmina Jarocin",
                "operator:type": "government",
                "amenity": "school",
                "note": "Parent RSPO: 40839"
            }
        },
        {
            "id": 63442,
            "type": "Feature",
            "geometry": {
                "type": "Point",
                "coordinates": [
                    17.50765,
                    51.97766
                ]
            },
            "properties": {
                "ref:rspo": 63442,
                "official_name": "Szkolne Schronisko M\u0142odzie\u017cowe Nr 2 w Jarocinie",
                "name": "Szkolne Schronisko M\u0142odzie\u017cowe Nr 2 w Jarocinie",
                "addr:country": "PL",
                "addr:postcode": "63-200",
                "addr:city": "Jarocin",
                "addr:street": "ul. Ludwika Wary\u0144skiego",
                "addr:housenumber": "11",
                "addr:teryt:simc": 23707,
                "addr:teryt:sym_ul": 936776,
                "contact:phone": "+48 627472006",
                "contact:email": "zespolszkolnr5@jarocin.pl",
                "contact:website": "http:\/\/www.szkola5jarocin.pl",
                "ref:regon": "301186339",
                "ref:vatin": "PL6172183780",
                "operator": "Gmina Jarocin",
                "operator:type": "government",
                "tourism": "hostel",
                "note": "Parent RSPO: 40839"
            }
        },
        {
            "id": 43977,
            "type": "Feature",
            "geometry": {
                "type": "Point",
                "coordinates": [
                    17.55826,
                    51.9936
                ]
            },
            "properties": {
                "isced:level": "1;2",
                "ref:rspo": 43977,
                "official_name": "Niepubliczna Szko\u0142a Podstawowa w Bachorzewie",
                "name": "Niepubliczna Szko\u0142a Podstawowa w Bachorzewie",
                "addr:country": "PL",
                "addr:postcode": "63-200",
                "addr:city": "Bachorzew",
                "addr:street": "ul. Szkolna",
                "addr:housenumber": "8",
                "addr:teryt:simc": 21970,
                "addr:teryt:sym_ul": 199310,
                "contact:phone": "+48 627472942",
                "contact:email": "sekretariat@bachorzew.edu.pl",
                "contact:website": "http:\/\/www.bachorzew.edu.pl",
                "ref:regon": "302250810",
                "operator": "Stowarzyszenie Edukacyjne \"Nasza Szko\u0142a\"",
                "operator:type": "ngo",
                "amenity": "school"
            }
        },
        {
            "id": 44640,
            "type": "Feature",
            "geometry": {
                "type": "Point",
                "coordinates": [
                    17.55826,
                    51.99357
                ]
            },
            "properties": {
                "ref:rspo": 44640,
                "official_name": "Niepubliczne Przedszkole w Bachorzewie",
                "name": "Niepubliczne Przedszkole w Bachorzewie",
                "addr:country": "PL",
                "addr:postcode": "63-200",
                "addr:city": "Bachorzew",
                "addr:street": "ul. Szkolna",
                "addr:housenumber": "8",
                "addr:teryt:simc": 21970,
                "addr:teryt:sym_ul": 199310,
                "contact:phone": "+48 627472942",
                "contact:email": "sekretariat@bachorzew.edu.pl",
                "contact:website": "http:\/\/www.bachorzew.edu.pl",
                "ref:regon": "302247267",
                "operator": "Stowarzyszenie Edukacyjne \"Nasza Szko\u0142a\"",
                "operator:type": "ngo",
                "amenity": "kindergarten"
            }
        },
        {
            "id": 42187,
            "type": "Feature",
            "geometry": {
                "type": "Point",
                "coordinates": [
                    17.593933,
                    52.001523
                ]
            },
            "properties": {
                "ref:rspo": 42187,
                "official_name": "Zesp\u00f3\u0142 Szk\u00f3\u0142 Przyrodniczo-Biznesowych w Tarcach",
                "name": "Zesp\u00f3\u0142 Szk\u00f3\u0142 Przyrodniczo-Biznesowych w Tarcach",
                "addr:country": "PL",
                "addr:postcode": "63-200",
                "addr:place": "Tarce",
                "addr:housenumber": "19",
                "addr:teryt:sym_ul": 199533,
                "contact:phone": "+48 627472443",
                "contact:email": "tarce@wp.pl",
                "contact:website": "http:\/\/www.tarce.edu.pl",
                "ref:regon": "000096230",
                "ref:vatin": "PL6171576939",
                "operator": "Powiat Jaroci\u0144ski",
                "operator:type": "government",
                "landuse": "education",
                "fixme": "amenity=school, amenity=college albo landuse=education w zale\u017cno\u015bci od tego, jakie plac\u00f3wki wchodz\u0105 w sk\u0142ad zespo\u0142u. Sprawd\u017a, kiedy stosowa\u0107 amenity=* a kiedy landuse=education.",
                "note": "Children RSPO: 59707;59827;59882;84420"
            }
        },
        {
            "id": 59707,
            "type": "Feature",
            "geometry": {
                "type": "Point",
                "coordinates": [
                    17.593933,
                    52.001492999999996
                ]
            },
            "properties": {
                "isced:level": "3",
                "ref:rspo": 59707,
                "official_name": "Technikum w Tarcach",
                "name": "Technikum w Tarcach",
                "addr:country": "PL",
                "addr:postcode": "63-200",
                "addr:place": "Tarce",
                "addr:housenumber": "19",
                "addr:teryt:sym_ul": 199533,
                "contact:phone": "+48 627472443",
                "contact:email": "tarce@wp.pl",
                "contact:website": "http:\/\/tarce.edu.pl",
                "ref:regon": "251476573",
                "operator": "Powiat Jaroci\u0144ski",
                "operator:type": "government",
                "amenity": "school",
                "note": "Parent RSPO: 42187"
            }
        },
        {
            "id": 59827,
            "type": "Feature",
            "geometry": {
                "type": "Point",
                "coordinates": [
                    17.593933,
                    52.001463
                ]
            },
            "properties": {
                "isced:level": "4",
                "ref:rspo": 59827,
                "official_name": "Szko\u0142a Policealna w Tarcach",
                "name": "Szko\u0142a Policealna w Tarcach",
                "addr:country": "PL",
                "addr:postcode": "63-200",
                "addr:place": "Tarce",
                "addr:housenumber": "19",
                "addr:teryt:sym_ul": 199527,
                "contact:phone": "+48 627472443",
                "contact:email": "tarce@wp.pl",
                "contact:website": "http:\/\/tarce.edu.pl",
                "ref:regon": "300123070",
                "operator": "Powiat Jaroci\u0144ski",
                "operator:type": "government",
                "amenity": "college",
                "note": "Parent RSPO: 42187"
            }
        },
        {
            "id": 59882,
            "type": "Feature",
            "geometry": {
                "type": "Point",
                "coordinates": [
                    17.593933,
                    52.001433
                ]
            },
            "properties": {
                "isced:level": "3",
                "ref:rspo": 59882,
                "official_name": "Liceum Og\u00f3lnokszta\u0142cace w Tarcach",
                "name": "Liceum Og\u00f3lnokszta\u0142cace w Tarcach",
                "addr:country": "PL",
                "addr:postcode": "63-200",
                "addr:place": "Tarce",
                "addr:housenumber": "19",
                "addr:teryt:sym_ul": 199533,
                "contact:phone": "+48 627472443",
                "contact:email": "tarce@wp.pl",
                "contact:website": "http:\/\/tarce.edu.pl",
                "ref:regon": "300661940",
                "operator": "Powiat Jaroci\u0144ski",
                "operator:type": "government",
                "amenity": "school",
                "note": "Parent RSPO: 42187"
            }
        },
        {
            "id": 84420,
            "type": "Feature",
            "geometry": {
                "type": "Point",
                "coordinates": [
                    17.593933,
                    52.001402999999996
                ]
            },
            "properties": {
                "isced:level": "3",
                "ref:rspo": 84420,
                "official_name": "Bran\u017cowa Szko\u0142a I Stopnia w Tarcach",
                "name": "Bran\u017cowa Szko\u0142a I Stopnia w Tarcach",
                "addr:country": "PL",
                "addr:postcode": "63-200",
                "addr:place": "Tarce",
                "addr:housenumber": "19",
                "addr:teryt:sym_ul": 199533,
                "contact:phone": "+48 627472443",
                "contact:email": "tarce@wp.pl",
                "ref:regon": "302268275",
                "operator": "Powiat Jaroci\u0144ski",
                "operator:type": "government",
                "amenity": "school",
                "note": "Parent RSPO: 42187"
            }
        },
        {
            "id": 50357,
            "type": "Feature",
            "geometry": {
                "type": "Point",
                "coordinates": [
                    17.480068,
                    52.003775
                ]
            },
            "properties": {
                "ref:rspo": 50357,
                "official_name": "Sezonowe Szkolne Schronisko M\u0142odzie\u017cowe T\u0119cza im. Macieja Kostki w Radlinie",
                "name": "Sezonowe Szkolne Schronisko M\u0142odzie\u017cowe T\u0119cza",
                "addr:country": "PL",
                "addr:postcode": "63-200",
                "addr:place": "Radlin",
                "addr:housenumber": "29",
                "addr:teryt:sym_ul": 199480,
                "contact:phone": "+48 627493044",
                "contact:email": "asia_kostka@onet.pl",
                "ref:regon": "302249711",
                "ref:vatin": "PL6172067996",
                "operator": "Stowarzyszenie Na Rzecz Dzieci I M\u0142odzie\u017cy \"T\u0119cza\" Im. Macieja Kostki W Radlinie",
                "operator:type": "ngo",
                "tourism": "hostel"
            }
        },
        {
            "id": 105605,
            "type": "Feature",
            "geometry": {
                "type": "Point",
                "coordinates": [
                    17.480068,
                    52.003744999999995
                ]
            },
            "properties": {
                "ref:rspo": 105605,
                "official_name": "Niepubliczne Przedszkole \"T\u0119cza\" im. Macieja Kostki w Radlinie",
                "name": "Niepubliczne Przedszkole \"T\u0119cza\"",
                "addr:country": "PL",
                "addr:postcode": "63-200",
                "addr:place": "Radlin",
                "addr:housenumber": "29",
                "addr:teryt:sym_ul": 199480,
                "contact:phone": "+48 627493044",
                "contact:email": "tecza.radlin@wp.pl",
                "ref:regon": "302283613",
                "ref:vatin": "PL6172067996",
                "operator": "Stowarzyszenie Na Rzecz Dzieci I M\u0142odzie\u017cy \"T\u0119cza\" Im. Macieja Kostki W Radlinie",
                "operator:type": "ngo",
                "amenity": "kindergarten"
            }
        },
        {
            "id": 128214,
            "type": "Feature",
            "geometry": {
                "type": "Point",
                "coordinates": [
                    17.5414299,
                    52.00453
                ]
            },
            "properties": {
                "ref:rspo": 128214,
                "official_name": "Szkolne Schronisko M\u0142odzie\u017cowe w Wilkowyi",
                "name": "Szkolne Schronisko M\u0142odzie\u017cowe w Wilkowyi",
                "addr:country": "PL",
                "addr:postcode": "63-200",
                "addr:city": "Wilkowyja",
                "addr:street": "ul. Powsta\u0144c\u00f3w Wielkopolskich",
                "addr:housenumber": "41",
                "addr:teryt:simc": 17377,
                "addr:teryt:sym_ul": 199556,
                "contact:phone": "+48 627492115",
                "contact:email": "wilkowyja@op.pl",
                "contact:website": "http:\/\/www.wilkowyja-szkola.pl",
                "ref:regon": "362178482",
                "operator": "Fundacja Zoo Zaradni Odwa\u017cni Oryginalni",
                "operator:type": "ngo",
                "tourism": "hostel"
            }
        },
        {
            "id": 128661,
            "type": "Feature",
            "geometry": {
                "type": "Point",
                "coordinates": [
                    17.5414299,
                    52.0045
                ]
            },
            "properties": {
                "ref:rspo": 128661,
                "official_name": "Zesp\u00f3\u0142 Szk\u00f3\u0142 Zoo Zaradni Odwa\u017cni Oryginalni w Wilkowyi",
                "name": "Zesp\u00f3\u0142 Szk\u00f3\u0142 Zoo Zaradni Odwa\u017cni Oryginalni w Wilkowyi",
                "addr:country": "PL",
                "addr:postcode": "63-200",
                "addr:city": "Wilkowyja",
                "addr:street": "ul. Powsta\u0144c\u00f3w Wielkopolskich",
                "addr:housenumber": "41",
                "addr:teryt:simc": 17377,
                "addr:teryt:sym_ul": 199556,
                "contact:phone": "+48 627492115",
                "contact:email": "sekretariat@szkolawilkowyja.pl",
                "contact:website": "http:\/\/www.wilkowyja-szkola.pl",
                "ref:regon": "362345655",
                "operator": "Fundacja Zoo Zaradni Odwa\u017cni Oryginalni",
                "operator:type": "ngo",
                "landuse": "education",
                "fixme": "amenity=school, amenity=college albo landuse=education w zale\u017cno\u015bci od tego, jakie plac\u00f3wki wchodz\u0105 w sk\u0142ad zespo\u0142u. Sprawd\u017a, kiedy stosowa\u0107 amenity=* a kiedy landuse=education.",
                "note": "Children RSPO: 128177;128412"
            }
        },
        {
            "id": 128177,
            "type": "Feature",
            "geometry": {
                "type": "Point",
                "coordinates": [
                    17.5414299,
                    52.004470000000005
                ]
            },
            "properties": {
                "ref:rspo": 128177,
                "official_name": "Niepubliczne Przedszkole Artystyczno-Teatralne Zaradni Odwa\u017cni Oryginalni im.powstanc\u00f3w Wielkopolskich w Wilkowyi",
                "name": "Niepubliczne Przedszkole Artystyczno-Teatralne Zaradni Odwa\u017cni Oryginalni im.powstanc\u00f3w Wielkopolskich w Wilkowyi",
                "addr:country": "PL",
                "addr:postcode": "63-200",
                "addr:city": "Wilkowyja",
                "addr:street": "ul. Powsta\u0144c\u00f3w Wielkopolskich",
                "addr:housenumber": "41",
                "addr:teryt:simc": 17377,
                "addr:teryt:sym_ul": 199556,
                "contact:phone": "+48 627492115",
                "contact:email": "wilkowyja@op.pl",
                "ref:regon": "362166993",
                "operator": "Fundacja Zoo Zaradni Odwa\u017cni Oryginalni",
                "operator:type": "ngo",
                "amenity": "kindergarten",
                "note": "Parent RSPO: 128661"
            }
        },
        {
            "id": 128412,
            "type": "Feature",
            "geometry": {
                "type": "Point",
                "coordinates": [
                    17.5414299,
                    52.00444
                ]
            },
            "properties": {
                "isced:level": "1;2",
                "ref:rspo": 128412,
                "official_name": "Niepubliczna Szko\u0142a Podstawowa Zaradni Odwa\u017cni Oryginalni im. Powsta\u0144c\u00f3w Wielkopolskich w Wilkowyi",
                "name": "Niepubliczna Szko\u0142a Podstawowa Zaradni Odwa\u017cni Oryginalni",
                "addr:country": "PL",
                "addr:postcode": "63-200",
                "addr:city": "Wilkowyja",
                "addr:street": "ul. Powsta\u0144c\u00f3w Wielkopolskich",
                "addr:housenumber": "41",
                "addr:teryt:simc": 17377,
                "addr:teryt:sym_ul": 199556,
                "contact:phone": "+48 627492115",
                "contact:email": "sekretariat@szkolawilkowyja.pl",
                "contact:website": "http:\/\/www.wilkowyja-szkola.pl",
                "ref:regon": "362269960",
                "operator": "Fundacja Zoo Zaradni Odwa\u017cni Oryginalni",
                "operator:type": "ngo",
                "amenity": "school",
                "note": "Parent RSPO: 128661"
            }
        },
        {
            "id": 89475,
            "type": "Feature",
            "geometry": {
                "type": "Point",
                "coordinates": [
                    17.48113,
                    52.00797
                ]
            },
            "properties": {
                "isced:level": "1;2",
                "ref:rspo": 89475,
                "official_name": "Szko\u0142a Podstawowa im. Bohater\u00f3w Westerplatte w Cielczy",
                "name": "Szko\u0142a Podstawowa",
                "addr:country": "PL",
                "addr:postcode": "63-200",
                "addr:city": "Cielcza",
                "addr:street": "ul. Szkolna",
                "addr:housenumber": "16",
                "addr:teryt:simc": 21970,
                "addr:teryt:sym_ul": 199332,
                "contact:phone": "+48 627472001",
                "contact:email": "cielcza@szkola.wp.pl",
                "contact:website": "http:\/\/www.zscielcza.pl",
                "ref:regon": "251027177",
                "ref:vatin": "PL6172058744",
                "operator": "Gmina Jarocin",
                "operator:type": "government",
                "amenity": "school"
            }
        },
        {
            "id": 43975,
            "type": "Feature",
            "geometry": {
                "type": "Point",
                "coordinates": [
                    17.46107,
                    52.02208
                ]
            },
            "properties": {
                "ref:rspo": 43975,
                "official_name": "Publiczne Przedszkole w Mieszkowie",
                "name": "Publiczne Przedszkole w Mieszkowie",
                "addr:country": "PL",
                "addr:postcode": "63-200",
                "addr:city": "Mieszk\u00f3w",
                "addr:street": "ul. Dworcowa",
                "addr:housenumber": "10c",
                "addr:teryt:simc": 4434,
                "addr:teryt:sym_ul": 199421,
                "contact:phone": "+48 627493066",
                "contact:email": "ppwm@wp.pl",
                "contact:website": "http:\/\/www.przedszkolemieszkow.szkolnastrona.pl",
                "ref:regon": "251588214",
                "ref:vatin": "PL6172059643",
                "operator": "Gmina Jarocin",
                "operator:type": "government",
                "amenity": "kindergarten",
                "note": "Parent RSPO: 131169"
            }
        },
        {
            "id": 89699,
            "type": "Feature",
            "geometry": {
                "type": "Point",
                "coordinates": [
                    17.5813,
                    52.02732
                ]
            },
            "properties": {
                "ref:rspo": 89699,
                "official_name": "Niepubliczny Zesp\u00f3\u0142 Szk\u00f3\u0142 w \u0141uszczanowie",
                "name": "Niepubliczny Zesp\u00f3\u0142 Szk\u00f3\u0142 w \u0141uszczanowie",
                "addr:country": "PL",
                "addr:postcode": "63-200",
                "addr:city": "\u0141uszczan\u00f3w",
                "addr:street": "ul. D\u0142uga",
                "addr:housenumber": "108",
                "addr:teryt:simc": 3839,
                "addr:teryt:sym_ul": 199415,
                "contact:email": "nsp-luszczanow@wp.pl",
                "contact:website": "http:\/\/www.szkola-luszczanow.edu.pl",
                "ref:regon": "300907009",
                "operator": "Stowarzyszenie Edukacyjne W \u0141uszczanowie",
                "operator:type": "ngo",
                "landuse": "education",
                "fixme": "amenity=school, amenity=college albo landuse=education w zale\u017cno\u015bci od tego, jakie plac\u00f3wki wchodz\u0105 w sk\u0142ad zespo\u0142u. Sprawd\u017a, kiedy stosowa\u0107 amenity=* a kiedy landuse=education.",
                "note": "Children RSPO: 90636;90657"
            }
        },
        {
            "id": 90636,
            "type": "Feature",
            "geometry": {
                "type": "Point",
                "coordinates": [
                    17.5813,
                    52.02729
                ]
            },
            "properties": {
                "isced:level": "1;2",
                "ref:rspo": 90636,
                "official_name": "Niepubliczna Szko\u0142a Podstawowa w \u0141uszczanowie",
                "name": "Niepubliczna Szko\u0142a Podstawowa w \u0141uszczanowie",
                "addr:country": "PL",
                "addr:postcode": "63-200",
                "addr:city": "\u0141uszczan\u00f3w",
                "addr:street": "ul. D\u0142uga",
                "addr:housenumber": "108",
                "addr:teryt:simc": 3839,
                "addr:teryt:sym_ul": 199415,
                "contact:phone": "+48 627403709",
                "contact:email": "nsp-luszczanow@wp.pl",
                "contact:website": "http:\/\/www.szkola-luszczanow.edu.pl",
                "ref:regon": "302281732",
                "operator": "Stowarzyszenie Edukacyjne W \u0141uszczanowie",
                "operator:type": "ngo",
                "amenity": "school",
                "note": "Parent RSPO: 89699"
            }
        },
        {
            "id": 90657,
            "type": "Feature",
            "geometry": {
                "type": "Point",
                "coordinates": [
                    17.5813,
                    52.027260000000005
                ]
            },
            "properties": {
                "ref:rspo": 90657,
                "official_name": "Niepubliczne Przedszkole w \u0141uszczanowie",
                "name": "Niepubliczne Przedszkole w \u0141uszczanowie",
                "addr:country": "PL",
                "addr:postcode": "63-200",
                "addr:city": "\u0141uszczan\u00f3w",
                "addr:street": "ul. D\u0142uga",
                "addr:housenumber": "108",
                "addr:teryt:simc": 3839,
                "addr:teryt:sym_ul": 199415,
                "contact:phone": "+48 627403709",
                "contact:email": "nsp-luszczanow@wp.pl",
                "contact:website": "http:\/\/www.szkola-luszczanow.edu.pl",
                "ref:regon": "302281784",
                "operator": "Stowarzyszenie Edukacyjne W \u0141uszczanowie",
                "operator:type": "ngo",
                "amenity": "kindergarten",
                "note": "Parent RSPO: 89699"
            }
        },
        {
            "id": 131169,
            "type": "Feature",
            "geometry": {
                "type": "Point",
                "coordinates": [
                    17.46705,
                    52.0273899
                ]
            },
            "properties": {
                "ref:rspo": 131169,
                "official_name": "Zesp\u00f3\u0142 Szk\u00f3\u0142 w Mieszkowie",
                "name": "Zesp\u00f3\u0142 Szk\u00f3\u0142 w Mieszkowie",
                "addr:country": "PL",
                "addr:postcode": "63-000",
                "addr:city": "Mieszk\u00f3w",
                "addr:street": "ul. Radliniecka",
                "addr:housenumber": "11",
                "addr:teryt:simc": 18299,
                "addr:teryt:sym_ul": 199421,
                "contact:phone": "+48 627493018",
                "contact:email": "zespolszkolmieszkow@jarocin.pl",
                "ref:regon": "364990325",
                "operator": "Gmina Jarocin",
                "operator:type": "government",
                "landuse": "education",
                "fixme": "amenity=school, amenity=college albo landuse=education w zale\u017cno\u015bci od tego, jakie plac\u00f3wki wchodz\u0105 w sk\u0142ad zespo\u0142u. Sprawd\u017a, kiedy stosowa\u0107 amenity=* a kiedy landuse=education.",
                "note": "Children RSPO: 43961;43975"
            }
        },
        {
            "id": 43961,
            "type": "Feature",
            "geometry": {
                "type": "Point",
                "coordinates": [
                    17.46705,
                    52.0273599
                ]
            },
            "properties": {
                "isced:level": "1;2",
                "ref:rspo": 43961,
                "official_name": "Szko\u0142a Podstawowa w Mieszkowie",
                "name": "Szko\u0142a Podstawowa w Mieszkowie",
                "addr:country": "PL",
                "addr:postcode": "63-200",
                "addr:city": "Mieszk\u00f3w",
                "addr:street": "ul. Radliniecka",
                "addr:housenumber": "11",
                "addr:teryt:simc": 18299,
                "addr:teryt:sym_ul": 199421,
                "contact:phone": "+48 627493018",
                "contact:email": "szkolamieszkow@op.pl",
                "contact:website": "http:\/\/www.szpmieszkow.edupage.org",
                "ref:regon": "001046671",
                "ref:vatin": "PL6172059689",
                "operator": "Gmina Jarocin",
                "operator:type": "government",
                "amenity": "school",
                "note": "Parent RSPO: 131169"
            }
        }
    ]
}