{
    "type": "FeatureCollection",
    "features": [
        {
            "id": 111501,
            "type": "Feature",
            "geometry": {
                "type": "Point",
                "coordinates": [
                    21.00559,
                    51.16939
                ]
            },
            "properties": {
                "ref:rspo": 111501,
                "official_name": "Zesp\u00f3\u0142 Szkolno-Przedszkolny w Zbijowie Ma\u0142ym Nr1",
                "name": "Zesp\u00f3\u0142 Szkolno-Przedszkolny w Zbijowie Ma\u0142ym Nr1",
                "addr:country": "PL",
                "addr:postcode": "26-503",
                "addr:place": "Zbij\u00f3w Ma\u0142y",
                "addr:housenumber": "1",
                "addr:teryt:sym_ul": 629175,
                "contact:phone": "+48 486292506",
                "contact:email": "psp_w_zbijowie@wp.pl",
                "ref:regon": "146575925",
                "operator": "Gmina Mir\u00f3w",
                "operator:type": "government",
                "landuse": "education",
                "fixme": "amenity=school, amenity=college albo landuse=education w zale\u017cno\u015bci od tego, jakie plac\u00f3wki wchodz\u0105 w sk\u0142ad zespo\u0142u. Sprawd\u017a, kiedy stosowa\u0107 amenity=* a kiedy landuse=education.",
                "note": "Children RSPO: 30653;113636"
            }
        },
        {
            "id": 30653,
            "type": "Feature",
            "geometry": {
                "type": "Point",
                "coordinates": [
                    21.00559,
                    51.16936
                ]
            },
            "properties": {
                "isced:level": "1;2",
                "ref:rspo": 30653,
                "official_name": "Publiczna Szko\u0142a Podstawowa im.ks.bonawentury Stachury w Zbijowie Ma\u0142ym",
                "name": "Publiczna Szko\u0142a Podstawowa im.ks.bonawentury Stachury w Zbijowie Ma\u0142ym",
                "addr:country": "PL",
                "addr:postcode": "26-503",
                "addr:place": "Zbij\u00f3w Ma\u0142y",
                "addr:housenumber": "1",
                "addr:teryt:sym_ul": 629175,
                "contact:phone": "+48 486292506",
                "contact:email": "psp_w_zbijowie@wp.pl",
                "ref:regon": "001145545",
                "ref:vatin": "PL7991892781",
                "operator": "Gmina Mir\u00f3w",
                "operator:type": "government",
                "amenity": "school",
                "note": "Parent RSPO: 111501"
            }
        },
        {
            "id": 113636,
            "type": "Feature",
            "geometry": {
                "type": "Point",
                "coordinates": [
                    21.00559,
                    51.16933
                ]
            },
            "properties": {
                "ref:rspo": 113636,
                "official_name": "Publiczne Przedszkole \"Mi\u015b\"W Zbijowie Ma\u0142ym",
                "name": "Publiczne Przedszkole \"Mi\u015b\"W Zbijowie Ma\u0142ym",
                "addr:country": "PL",
                "addr:postcode": "26-503",
                "addr:place": "Zbij\u00f3w Ma\u0142y",
                "addr:housenumber": "1",
                "addr:teryt:sym_ul": 629175,
                "contact:phone": "+48 486292506",
                "contact:email": "psp_w_zbijowie@wp.pl",
                "ref:regon": "146624144",
                "operator": "Gmina Mir\u00f3w",
                "operator:type": "government",
                "amenity": "kindergarten",
                "note": "Parent RSPO: 111501"
            }
        },
        {
            "id": 29544,
            "type": "Feature",
            "geometry": {
                "type": "Point",
                "coordinates": [
                    21.02808,
                    51.19233
                ]
            },
            "properties": {
                "isced:level": "1;2",
                "ref:rspo": 29544,
                "official_name": "Publiczna Szko\u0142a Podstawowa im. \u015awi\u0119tego Jana Paw\u0142a II w Mirowie",
                "name": "Publiczna Szko\u0142a Podstawowa",
                "addr:country": "PL",
                "addr:postcode": "26-503",
                "addr:place": "Mir\u00f3w Stary",
                "addr:housenumber": "34",
                "addr:teryt:sym_ul": 629152,
                "contact:phone": "+48 486283915",
                "contact:email": "pspmirow3@wp.pl",
                "ref:regon": "000269044",
                "ref:vatin": "PL7991893639",
                "operator": "Gmina Mir\u00f3w",
                "operator:type": "government",
                "amenity": "school"
            }
        },
        {
            "id": 104013,
            "type": "Feature",
            "geometry": {
                "type": "Point",
                "coordinates": [
                    20.97019,
                    51.20027
                ]
            },
            "properties": {
                "isced:level": "1;2",
                "ref:rspo": 104013,
                "official_name": "Publiczna Szko\u0142a Podstawowa w Bieszkowie Dolnym",
                "name": "Publiczna Szko\u0142a Podstawowa w Bieszkowie Dolnym",
                "addr:country": "PL",
                "addr:postcode": "26-503",
                "addr:place": "Bieszk\u00f3w Dolny",
                "addr:housenumber": "87",
                "addr:teryt:sym_ul": 629086,
                "contact:phone": "+48 486283624",
                "contact:email": "psp_w_bieszkowie_dolnym@wp.pl",
                "contact:website": "http:\/\/pspbieszkow.pl",
                "ref:regon": "001146190",
                "ref:vatin": "PL7991893622",
                "operator": "Gmina Mir\u00f3w",
                "operator:type": "government",
                "amenity": "school"
            }
        }
    ]
}