{
    "type": "FeatureCollection",
    "features": [
        {
            "id": 89340,
            "type": "Feature",
            "geometry": {
                "type": "Point",
                "coordinates": [
                    20.7781999,
                    51.1584
                ]
            },
            "properties": {
                "isced:level": "1;2",
                "ref:rspo": 89340,
                "official_name": "Publiczna Szko\u0142a Podstawowa im. Biskupa Jana Chrapka w Majdowie",
                "name": "Publiczna Szko\u0142a Podstawowa",
                "addr:postcode": "26-500",
                "addr:place": "Majd\u00f3w",
                "addr:housenumber": "30",
                "addr:city:simc": 639245,
                "phone": "+48 486176590",
                "email": "zsmajdow@szydlowiec.pl",
                "ref:regon": "000837229",
                "ref:vatin": "PL7991970771",
                "operator": "Gmina Szyd\u0142owiec",
                "operator:type": "government",
                "amenity": "school"
            }
        },
        {
            "id": 88175,
            "type": "Feature",
            "geometry": {
                "type": "Point",
                "coordinates": [
                    20.89241,
                    51.20206
                ]
            },
            "properties": {
                "isced:level": "1;2",
                "ref:rspo": 88175,
                "official_name": "Publiczna Szko\u0142a Podstawowa im. Janusza Kusoci\u0144skiego w Sadku",
                "name": "Publiczna Szko\u0142a Podstawowa",
                "addr:postcode": "26-500",
                "addr:place": "Sadek",
                "addr:housenumber": "170",
                "addr:city:simc": 639392,
                "phone": "+48 486170522",
                "email": "pspsadek@szydlowiec.pl",
                "ref:regon": "000837212",
                "ref:vatin": "PL7991970765",
                "operator": "Gmina Szyd\u0142owiec",
                "operator:type": "government",
                "amenity": "school"
            }
        },
        {
            "id": 31150,
            "type": "Feature",
            "geometry": {
                "type": "Point",
                "coordinates": [
                    20.86017,
                    51.21093
                ]
            },
            "properties": {
                "ref:rspo": 31150,
                "official_name": "Zesp\u00f3\u0142 Szk\u00f3\u0142 im. Korpusu Ochrony Pogranicza w Szyd\u0142owcu",
                "name": "Zesp\u00f3\u0142 Szk\u00f3\u0142",
                "addr:postcode": "26-500",
                "addr:city": "Szyd\u0142owiec",
                "addr:street": "Tadeusza Ko\u015bciuszki",
                "addr:housenumber": "39",
                "addr:city:simc": 973895,
                "addr:street:sym_ul": 9582,
                "phone": "+48 486170012",
                "email": "dyrektor@zskop.inernetdsl.pl",
                "website": "http:\/\/www.zskop.eu",
                "ref:regon": "000197920",
                "operator": "Powiat Szyd\u0142owiecki",
                "operator:type": "government",
                "landuse": "education",
                "fixme": "amenity=school, amenity=college albo landuse=education w zale\u017cno\u015bci od tego, jakie plac\u00f3wki wchodz\u0105 w sk\u0142ad zespo\u0142u. Sprawd\u017a, kiedy stosowa\u0107 amenity=* a kiedy landuse=education.",
                "note": "Children RSPO: 52418;53498;56046;56465"
            }
        },
        {
            "id": 72764,
            "type": "Feature",
            "geometry": {
                "type": "Point",
                "coordinates": [
                    20.86017,
                    51.210899999999995
                ]
            },
            "properties": {
                "ref:rspo": 72764,
                "official_name": "Centrum Kszta\u0142cenia Zawodowego I Ustawicznego w Szyd\u0142owcu",
                "name": "Centrum Kszta\u0142cenia Zawodowego I Ustawicznego w Szyd\u0142owcu",
                "addr:postcode": "26-500",
                "addr:city": "Szyd\u0142owiec",
                "addr:street": "Tadeusza Ko\u015bciuszki",
                "addr:housenumber": "39",
                "addr:city:simc": 973895,
                "addr:street:sym_ul": 9582,
                "phone": "+48 486171311",
                "email": "ckpszydlowiec@autograf.pl",
                "ref:regon": "146363873",
                "operator": "Powiat Szyd\u0142owiecki",
                "operator:type": "government",
                "landuse": "education",
                "fixme": "amenity=school, amenity=college albo landuse=education w zale\u017cno\u015bci od tego, jakie plac\u00f3wki wchodz\u0105 w sk\u0142ad zespo\u0142u. Sprawd\u017a, kiedy stosowa\u0107 amenity=* a kiedy landuse=education.",
                "note": "Children RSPO: 31549;48642;56638;263810"
            }
        },
        {
            "id": 52418,
            "type": "Feature",
            "geometry": {
                "type": "Point",
                "coordinates": [
                    20.86017,
                    51.21087
                ]
            },
            "properties": {
                "isced:level": "3",
                "ref:rspo": 52418,
                "official_name": "Technikum w Zespole Szk\u00f3\u0142 im. Korpusu Ochrony Pogranicza w Szyd\u0142owcu",
                "name": "Technikum w Zespole Szk\u00f3\u0142",
                "addr:postcode": "26-500",
                "addr:city": "Szyd\u0142owiec",
                "addr:street": "Tadeusza Ko\u015bciuszki",
                "addr:housenumber": "39",
                "addr:city:simc": 973895,
                "addr:street:sym_ul": 9582,
                "phone": "+48 486170012",
                "email": "dyrektor@zskop.internetdsl.pl",
                "website": "http:\/\/www.zskop.eu",
                "ref:regon": "673007972",
                "operator": "Powiat Szyd\u0142owiecki",
                "operator:type": "government",
                "amenity": "school",
                "note": "Parent RSPO: 31150"
            }
        },
        {
            "id": 53498,
            "type": "Feature",
            "geometry": {
                "type": "Point",
                "coordinates": [
                    20.86017,
                    51.21084
                ]
            },
            "properties": {
                "isced:level": "3",
                "ref:rspo": 53498,
                "official_name": "Ii Liceum Og\u00f3lnokszta\u0142c\u0105ce w Zespole Szk\u00f3\u0142 im. Korpusu Ochrony Pogranicza Szyd\u0142owcu",
                "name": "Ii Liceum Og\u00f3lnokszta\u0142c\u0105ce w Zespole Szk\u00f3\u0142",
                "addr:postcode": "26-500",
                "addr:city": "Szyd\u0142owiec",
                "addr:street": "Tadeusza Ko\u015bciuszki",
                "addr:housenumber": "39",
                "addr:city:simc": 973895,
                "addr:street:sym_ul": 9582,
                "phone": "+48 486170012",
                "email": "dyrektor@zskop.internetdsl.pl",
                "website": "http:\/\/www.zskop.eu",
                "ref:regon": "673007950",
                "operator": "Powiat Szyd\u0142owiecki",
                "operator:type": "government",
                "amenity": "school",
                "note": "Parent RSPO: 31150"
            }
        },
        {
            "id": 56046,
            "type": "Feature",
            "geometry": {
                "type": "Point",
                "coordinates": [
                    20.86017,
                    51.210809999999995
                ]
            },
            "properties": {
                "ref:rspo": 56046,
                "official_name": "Szkolne Schronisko M\u0142odzie\u017cowe \"Ska\u0142ka\" w Szyd\u0142owcu",
                "name": "Szkolne Schronisko M\u0142odzie\u017cowe \"Ska\u0142ka\" w Szyd\u0142owcu",
                "addr:postcode": "26-500",
                "addr:city": "Szyd\u0142owiec",
                "addr:street": "Tadeusza Ko\u015bciuszki",
                "addr:housenumber": "39",
                "addr:city:simc": 973895,
                "addr:street:sym_ul": 9582,
                "phone": "+48 486174311",
                "email": "schronisko@zskop.internetdsl.pl",
                "website": "http:\/\/www.zskop.eu\/szkola\/schronisko",
                "ref:regon": "146379147",
                "operator": "Powiat Szyd\u0142owiecki",
                "operator:type": "government",
                "tourism": "hostel",
                "note": "Parent RSPO: 31150"
            }
        },
        {
            "id": 56465,
            "type": "Feature",
            "geometry": {
                "type": "Point",
                "coordinates": [
                    20.86017,
                    51.21078
                ]
            },
            "properties": {
                "isced:level": "3",
                "ref:rspo": 56465,
                "official_name": "Publiczna Bran\u017cowa Szko\u0142a I Stopnia w Szyd\u0142owcu",
                "name": "Publiczna Bran\u017cowa Szko\u0142a I Stopnia w Szyd\u0142owcu",
                "addr:postcode": "26-500",
                "addr:city": "Szyd\u0142owiec",
                "addr:street": "Tadeusza Ko\u015bciuszki",
                "addr:housenumber": "39",
                "addr:city:simc": 973895,
                "addr:street:sym_ul": 9582,
                "phone": "+48 486170012",
                "email": "dyrektor@zskop.internetdsl.pl",
                "website": "http:\/\/www.zskop.eu",
                "ref:regon": "673007943",
                "operator": "Powiat Szyd\u0142owiecki",
                "operator:type": "government",
                "amenity": "school",
                "note": "Parent RSPO: 31150"
            }
        },
        {
            "id": 31549,
            "type": "Feature",
            "geometry": {
                "type": "Point",
                "coordinates": [
                    20.86017,
                    51.21075
                ]
            },
            "properties": {
                "ref:rspo": 31549,
                "official_name": "Centrum Kszta\u0142cenia Zawodowego w Szyd\u0142owcu",
                "name": "Centrum Kszta\u0142cenia Zawodowego w Szyd\u0142owcu",
                "addr:postcode": "26-500",
                "addr:city": "Szyd\u0142owiec",
                "addr:street": "Tadeusza Ko\u015bciuszki",
                "addr:housenumber": "39",
                "addr:city:simc": 973895,
                "addr:street:sym_ul": 9582,
                "phone": "+48 486171311",
                "email": "ckpszydlowiec@autograf.pl",
                "website": "http:\/\/www.republika.pl\/ckpszydlowiec",
                "ref:regon": "672970086",
                "operator": "Powiat Szyd\u0142owiecki",
                "operator:type": "government",
                "fixme": "w zale\u017cno\u015bci od przedmiotu dzia\u0142alno\u015bci (np. amenity=training + training=*, amenity=dancing_school, amenity=language_school, amenity=music_school) albo amenity=school, amenity=college, albo landuse=education w zale\u017cno\u015bci od tego, jakie plac\u00f3wki wchodz\u0105 w sk\u0142ad zespo\u0142u. Sprawd\u017a, kiedy stosowa\u0107 amenity=* a kiedy landuse=education.",
                "note": "Parent RSPO: 72764"
            }
        },
        {
            "id": 48642,
            "type": "Feature",
            "geometry": {
                "type": "Point",
                "coordinates": [
                    20.86017,
                    51.210719999999995
                ]
            },
            "properties": {
                "ref:rspo": 48642,
                "official_name": "Publiczna Szko\u0142a Specjalna Przysposabiaj\u0105ca Do Pracy w Szyd\u0142owcu",
                "name": "Publiczna Szko\u0142a Specjalna Przysposabiaj\u0105ca Do Pracy w Szyd\u0142owcu",
                "addr:postcode": "26-500",
                "addr:city": "Szyd\u0142owiec",
                "addr:street": "Tadeusza Ko\u015bciuszki",
                "addr:housenumber": "39",
                "addr:city:simc": 973895,
                "addr:street:sym_ul": 9582,
                "phone": "+48 486171311",
                "email": "ckpszydlowiec@autograf.pl",
                "ref:regon": "146164607",
                "operator": "Powiat Szyd\u0142owiecki",
                "operator:type": "government",
                "amenity": "school",
                "note": "Parent RSPO: 72764"
            }
        },
        {
            "id": 56638,
            "type": "Feature",
            "geometry": {
                "type": "Point",
                "coordinates": [
                    20.86017,
                    51.21069
                ]
            },
            "properties": {
                "isced:level": "3",
                "ref:rspo": 56638,
                "official_name": "Publiczna Bran\u017cowa Szko\u0142a Specjalna I Stopnia w Szyd\u0142owcu",
                "name": "Publiczna Bran\u017cowa Szko\u0142a Specjalna I Stopnia w Szyd\u0142owcu",
                "addr:postcode": "26-500",
                "addr:city": "Szyd\u0142owiec",
                "addr:street": "Tadeusza Ko\u015bciuszki",
                "addr:housenumber": "39",
                "addr:city:simc": 973895,
                "addr:street:sym_ul": 9582,
                "phone": "+48 486171311",
                "email": "ckpszydlowiec@autograf.pl",
                "ref:regon": "146164599",
                "operator": "Powiat Szyd\u0142owiecki",
                "operator:type": "government",
                "amenity": "school",
                "note": "Parent RSPO: 72764"
            }
        },
        {
            "id": 263810,
            "type": "Feature",
            "geometry": {
                "type": "Point",
                "coordinates": [
                    20.86017,
                    51.21066
                ]
            },
            "properties": {
                "isced:level": "1;2",
                "ref:rspo": 263810,
                "official_name": "Publiczna Szko\u0142a Podstawowa Specjalna w Szyd\u0142owcu",
                "name": "Publiczna Szko\u0142a Podstawowa Specjalna w Szyd\u0142owcu",
                "addr:postcode": "26-500",
                "addr:city": "Szyd\u0142owiec",
                "addr:street": "Tadeusza Ko\u015bciuszki",
                "addr:housenumber": "39",
                "addr:city:simc": 973895,
                "addr:street:sym_ul": 9582,
                "phone": "+48 486171311",
                "email": "ckpszydlowiec@autograf.pl",
                "ref:regon": "368229097",
                "operator": "Powiat Szyd\u0142owiecki",
                "operator:type": "government",
                "amenity": "school",
                "note": "Parent RSPO: 72764"
            }
        },
        {
            "id": 269689,
            "type": "Feature",
            "geometry": {
                "type": "Point",
                "coordinates": [
                    20.85702,
                    51.21573
                ]
            },
            "properties": {
                "ref:rspo": 269689,
                "official_name": "Niepubliczny Punkt Przedszkolny Strefa Karolka",
                "name": "Niepubliczny Punkt Przedszkolny Strefa Karolka",
                "addr:postcode": "26-500",
                "addr:city": "Szyd\u0142owiec",
                "addr:street": "Kamienna",
                "addr:housenumber": "70",
                "addr:city:simc": 973895,
                "addr:street:sym_ul": 7879,
                "email": "strefakarolka.szydlowiec@gmail.com",
                "website": "http:\/\/strefakarolka.pl",
                "ref:regon": "381674097",
                "operator": "Fundacja Inicjatyw Medialno-Kulturowych 'Strefa Jp2'",
                "operator:type": "ngo",
                "amenity": "kindergarten"
            }
        },
        {
            "id": 266128,
            "type": "Feature",
            "geometry": {
                "type": "Point",
                "coordinates": [
                    20.8646299,
                    51.21834
                ]
            },
            "properties": {
                "ref:rspo": 266128,
                "official_name": "Przedszkole Niepubliczne Akademia Tygrysk\u00f3w w Szyd\u0142owcu",
                "name": "Przedszkole Niepubliczne Akademia Tygrysk\u00f3w w Szyd\u0142owcu",
                "addr:postcode": "26-500",
                "addr:city": "Szyd\u0142owiec",
                "addr:street": "Stanis\u0142awa Moniuszki",
                "addr:housenumber": "11",
                "addr:door": "3",
                "addr:city:simc": 973895,
                "addr:street:sym_ul": 13246,
                "email": "pn.akademiatygryskow@gmail.com",
                "ref:regon": "369293507",
                "ref:vatin": "PL7991950739",
                "operator": "Karolina Walczak",
                "operator:type": "private",
                "amenity": "kindergarten"
            }
        },
        {
            "id": 132696,
            "type": "Feature",
            "geometry": {
                "type": "Point",
                "coordinates": [
                    20.86615,
                    51.22204
                ]
            },
            "properties": {
                "isced:level": "4",
                "ref:rspo": 132696,
                "official_name": "Szko\u0142a Policealna Nr 1 \"Logos\" w Szyd\u0142owcu",
                "name": "Szko\u0142a Policealna Nr 1 \"Logos\" w Szyd\u0142owcu",
                "addr:postcode": "26-500",
                "addr:city": "Szyd\u0142owiec",
                "addr:street": "Sadowa",
                "addr:housenumber": "25",
                "addr:city:simc": 973895,
                "addr:street:sym_ul": 19404,
                "email": "m.jamrozlogos@gmail.com",
                "ref:regon": "366050649",
                "operator": "Iwona Poteralska",
                "operator:type": "private",
                "amenity": "college"
            }
        },
        {
            "id": 273056,
            "type": "Feature",
            "geometry": {
                "type": "Point",
                "coordinates": [
                    20.86615,
                    51.22201
                ]
            },
            "properties": {
                "isced:level": "4",
                "ref:rspo": 273056,
                "official_name": "Szko\u0142a Policealna Nr 2 \"Logos\" w Szyd\u0142owcu",
                "name": "Szko\u0142a Policealna Nr 2 \"Logos\" w Szyd\u0142owcu",
                "addr:postcode": "26-500",
                "addr:city": "Szyd\u0142owiec",
                "addr:street": "Sadowa",
                "addr:housenumber": "25",
                "addr:city:simc": 973895,
                "addr:street:sym_ul": 19404,
                "phone": "+48 723030404",
                "email": "edicusdyrektora@gmail.com",
                "ref:regon": "384361542",
                "operator": "Iwona Poteralska",
                "operator:type": "private",
                "amenity": "college"
            }
        },
        {
            "id": 13840,
            "type": "Feature",
            "geometry": {
                "type": "Point",
                "coordinates": [
                    20.86363,
                    51.22235
                ]
            },
            "properties": {
                "ref:rspo": 13840,
                "official_name": "Przedszkole Samorz\u0105dowe Nr 1 im. T\u0119czowego Misia w Szyd\u0142owcu",
                "name": "Przedszkole Samorz\u0105dowe Nr 1",
                "addr:postcode": "26-500",
                "addr:city": "Szyd\u0142owiec",
                "addr:street": "Wschodnia",
                "addr:housenumber": "7",
                "addr:city:simc": 973895,
                "addr:street:sym_ul": 24879,
                "phone": "+48 486170342",
                "email": "ps1@szydlowiec.pl",
                "ref:regon": "670889836",
                "ref:vatin": "PL7991970759",
                "operator": "Gmina Szyd\u0142owiec",
                "operator:type": "government",
                "amenity": "kindergarten"
            }
        },
        {
            "id": 13964,
            "type": "Feature",
            "geometry": {
                "type": "Point",
                "coordinates": [
                    20.86324,
                    51.22393
                ]
            },
            "properties": {
                "isced:level": "1;2",
                "ref:rspo": 13964,
                "official_name": "Publiczna Szko\u0142a Podstawowa Nr 1 Z Oddzia\u0142ami Integracyjnymi im.jana III Sobieskiego w Szyd\u0142owcu",
                "name": "Publiczna Szko\u0142a Podstawowa Nr 1 Z Oddzia\u0142ami Integracyjnymi im.jana III Sobieskiego w Szyd\u0142owcu",
                "addr:postcode": "26-500",
                "addr:city": "Szyd\u0142owiec",
                "addr:street": "Wschodnia",
                "addr:housenumber": "19",
                "addr:city:simc": 973895,
                "addr:street:sym_ul": 24879,
                "phone": "+48 486171007",
                "email": "psp1@szydlowiec.pl",
                "website": "http:\/\/www.pspjedynka.republika.pl",
                "ref:regon": "000837235",
                "ref:vatin": "PL7991970831",
                "operator": "Gmina Szyd\u0142owiec",
                "operator:type": "government",
                "amenity": "school"
            }
        },
        {
            "id": 31442,
            "type": "Feature",
            "geometry": {
                "type": "Point",
                "coordinates": [
                    20.86028,
                    51.22451
                ]
            },
            "properties": {
                "ref:rspo": 31442,
                "official_name": "Poradnia Psychologiczno - Pedagogiczna w Szyd\u0142owcu",
                "name": "Poradnia Psychologiczno - Pedagogiczna w Szyd\u0142owcu",
                "addr:postcode": "26-500",
                "addr:city": "Szyd\u0142owiec",
                "addr:street": "Tadeusza Ko\u015bciuszki",
                "addr:housenumber": "185",
                "addr:city:simc": 973895,
                "addr:street:sym_ul": 9582,
                "phone": "+48 486171001",
                "email": "pppsz@wp.pl",
                "website": "http:\/\/www.pppszydlowiec.pl",
                "ref:regon": "670919661",
                "operator": "Powiat Szyd\u0142owiecki",
                "operator:type": "government",
                "healthcare": "counselling",
                "counselling_type": "education",
                "fixme": "w zale\u017cno\u015bci od przedmiotu dzia\u0142alno\u015bci (np. healthcare=counselling + counselling_type=education albo healthcare=psychotherapist)"
            }
        },
        {
            "id": 89135,
            "type": "Feature",
            "geometry": {
                "type": "Point",
                "coordinates": [
                    20.85802,
                    51.2247
                ]
            },
            "properties": {
                "ref:rspo": 89135,
                "official_name": "Niepubliczne Przedszkole Kr\u00f3lestwo Przedszkolaka w Szyd\u0142owcu",
                "name": "Niepubliczne Przedszkole Kr\u00f3lestwo Przedszkolaka w Szyd\u0142owcu",
                "addr:postcode": "26-500",
                "addr:city": "Szyd\u0142owiec",
                "addr:street": "Radomska",
                "addr:housenumber": "4a",
                "addr:city:simc": 973895,
                "addr:street:sym_ul": 18316,
                "phone": "+48 722181603",
                "email": "dominik.czarnecki@gmail.com",
                "ref:regon": "146396536",
                "ref:vatin": "PL7991019397",
                "operator": "Teresa Czarnecka",
                "operator:type": "private",
                "amenity": "kindergarten"
            }
        },
        {
            "id": 266233,
            "type": "Feature",
            "geometry": {
                "type": "Point",
                "coordinates": [
                    20.85607,
                    51.22506
                ]
            },
            "properties": {
                "ref:rspo": 266233,
                "official_name": "Niepubliczne Przedszkole \"Kolorowa Stonoga\" w Szyd\u0142owcu",
                "name": "Niepubliczne Przedszkole \"Kolorowa Stonoga\" w Szyd\u0142owcu",
                "addr:postcode": "26-500",
                "addr:city": "Szyd\u0142owiec",
                "addr:street": "K\u0105pielowa",
                "addr:housenumber": "4",
                "addr:city:simc": 973895,
                "addr:street:sym_ul": 8294,
                "email": "kolorowa.stonoga@wp.pl",
                "website": "http:\/\/www.kolorowastonoga.pl",
                "ref:regon": "369362651",
                "ref:vatin": "PL9482517202",
                "operator": "Agnieszka Nowak",
                "operator:type": "private",
                "amenity": "kindergarten"
            }
        },
        {
            "id": 31276,
            "type": "Feature",
            "geometry": {
                "type": "Point",
                "coordinates": [
                    20.85969,
                    51.22765
                ]
            },
            "properties": {
                "ref:rspo": 31276,
                "official_name": "Zesp\u00f3\u0142 Szk\u00f3\u0142 Og\u00f3lnokszta\u0142c\u0105cych im. Henryka Sienkiewicza w Szyd\u0142owcu",
                "name": "Zesp\u00f3\u0142 Szk\u00f3\u0142 Og\u00f3lnokszta\u0142c\u0105cych",
                "addr:postcode": "26-500",
                "addr:city": "Szyd\u0142owiec",
                "addr:street": "Zamkowa",
                "addr:housenumber": "1",
                "addr:city:simc": 973895,
                "addr:street:sym_ul": 25547,
                "phone": "+48 486170006",
                "email": "loszydlo@poczta.onet.pl",
                "website": "http:\/\/www.liceum.webd.pl",
                "ref:regon": "000228499",
                "operator": "Powiat Szyd\u0142owiecki",
                "operator:type": "government",
                "landuse": "education",
                "fixme": "amenity=school, amenity=college albo landuse=education w zale\u017cno\u015bci od tego, jakie plac\u00f3wki wchodz\u0105 w sk\u0142ad zespo\u0142u. Sprawd\u017a, kiedy stosowa\u0107 amenity=* a kiedy landuse=education.",
                "note": "Children RSPO: 51835;63497"
            }
        },
        {
            "id": 51835,
            "type": "Feature",
            "geometry": {
                "type": "Point",
                "coordinates": [
                    20.85969,
                    51.227619999999995
                ]
            },
            "properties": {
                "isced:level": "3",
                "ref:rspo": 51835,
                "official_name": "I Liceum Og\u00f3lnokszta\u0142c\u0105ce w Zespole Szk\u00f3\u0142 Og\u00f3lnokszta\u0142c\u0105cych im. Henryka Sienkiewicza w Szyd\u0142owcu",
                "name": "I Liceum Og\u00f3lnokszta\u0142c\u0105ce w Zespole Szk\u00f3\u0142 Og\u00f3lnokszta\u0142c\u0105cych",
                "addr:postcode": "26-500",
                "addr:city": "Szyd\u0142owiec",
                "addr:street": "Zamkowa",
                "addr:housenumber": "1",
                "addr:city:simc": 973895,
                "addr:street:sym_ul": 25547,
                "phone": "+48 486170006",
                "email": "loszydlo@poczta.onet.pl",
                "website": "http:\/\/www.liceum.webd.pl",
                "ref:regon": "146355885",
                "operator": "Powiat Szyd\u0142owiecki",
                "operator:type": "government",
                "amenity": "school",
                "note": "Parent RSPO: 31276"
            }
        },
        {
            "id": 63497,
            "type": "Feature",
            "geometry": {
                "type": "Point",
                "coordinates": [
                    20.85969,
                    51.22759
                ]
            },
            "properties": {
                "isced:level": "3",
                "ref:rspo": 63497,
                "official_name": "Liceum Og\u00f3lnokszta\u0142c\u0105ce dla Doros\u0142ych w Szyd\u0142owcu",
                "name": "Liceum Og\u00f3lnokszta\u0142c\u0105ce dla Doros\u0142ych w Szyd\u0142owcu",
                "addr:postcode": "26-500",
                "addr:city": "Szyd\u0142owiec",
                "addr:street": "Zamkowa",
                "addr:housenumber": "1",
                "addr:city:simc": 973895,
                "addr:street:sym_ul": 25547,
                "phone": "+48 486170006",
                "email": "loszydlo@poczta.onet.pl",
                "website": "http:\/\/www.liceum.webd.pl",
                "ref:regon": "146363672",
                "operator": "Powiat Szyd\u0142owiecki",
                "operator:type": "government",
                "amenity": "school",
                "note": "Parent RSPO: 31276"
            }
        },
        {
            "id": 274109,
            "type": "Feature",
            "geometry": {
                "type": "Point",
                "coordinates": [
                    20.86833,
                    51.22777
                ]
            },
            "properties": {
                "ref:rspo": 274109,
                "official_name": "Niepubliczne Przedszkole \"Kreatywne Dzieciaki\" w Szyd\u0142owcu",
                "name": "Niepubliczne Przedszkole \"Kreatywne Dzieciaki\" w Szyd\u0142owcu",
                "addr:postcode": "26-500",
                "addr:city": "Szyd\u0142owiec",
                "addr:street": "Stanis\u0142awa Staszica",
                "addr:housenumber": "19A",
                "addr:city:simc": 973895,
                "addr:street:sym_ul": 21071,
                "email": "kreatywne.dzieciaki@interia.pl",
                "ref:regon": "385247073",
                "ref:vatin": "PL7991945773",
                "operator": "Ewelina Targowska",
                "operator:type": "private",
                "amenity": "kindergarten"
            }
        },
        {
            "id": 74173,
            "type": "Feature",
            "geometry": {
                "type": "Point",
                "coordinates": [
                    20.86409,
                    51.22818
                ]
            },
            "properties": {
                "ref:rspo": 74173,
                "official_name": "Biblioteka Pedagogiczna w Radomiu Filia w Szyd\u0142owcu",
                "name": "Biblioteka Pedagogiczna w Radomiu Filia w Szyd\u0142owcu",
                "addr:postcode": "26-500",
                "addr:city": "Szyd\u0142owiec",
                "addr:street": "Stanis\u0142awa Staszica",
                "addr:housenumber": "3",
                "addr:city:simc": 973895,
                "addr:street:sym_ul": 21071,
                "phone": "+48 486171377",
                "email": "szydlowiec@bp.radom.pl",
                "website": "http:\/\/www.szydlowiec.bp.radom.pl",
                "ref:regon": "930868000",
                "ref:vatin": "PL7961063028",
                "operator": "Wojew\u00f3dztwo Mazowieckie",
                "operator:type": "government",
                "amenity": "library",
                "note": "Parent RSPO: 28003"
            }
        },
        {
            "id": 13808,
            "type": "Feature",
            "geometry": {
                "type": "Point",
                "coordinates": [
                    20.86441,
                    51.22851
                ]
            },
            "properties": {
                "ref:rspo": 13808,
                "official_name": "Przedszkole Samorz\u0105dowe Nr 2\" Mali Odkrywcy\" Z Oddzia\u0142ami Integracyjnymi w Szyd\u0142owcu",
                "name": "Przedszkole Samorz\u0105dowe Nr 2\" Mali Odkrywcy\" Z Oddzia\u0142ami Integracyjnymi w Szyd\u0142owcu",
                "addr:postcode": "26-500",
                "addr:city": "Szyd\u0142owiec",
                "addr:street": "Stanis\u0142awa Staszica",
                "addr:housenumber": "3a",
                "addr:city:simc": 973895,
                "addr:street:sym_ul": 21071,
                "phone": "+48 486170760",
                "email": "ps2@szydlowiec.pl",
                "website": "http:\/\/www.przedszkolenr2.blizej.info",
                "ref:regon": "670889820",
                "ref:vatin": "PL7991970765",
                "operator": "Gmina Szyd\u0142owiec",
                "operator:type": "government",
                "amenity": "kindergarten"
            }
        },
        {
            "id": 88448,
            "type": "Feature",
            "geometry": {
                "type": "Point",
                "coordinates": [
                    20.86251,
                    51.22896
                ]
            },
            "properties": {
                "isced:level": "1;2",
                "ref:rspo": 88448,
                "official_name": "Publiczna Szko\u0142a Podstawowa Nr 2 im. Jana Paw\u0142a II w Szyd\u0142owcu",
                "name": "Publiczna Szko\u0142a Podstawowa Nr 2",
                "addr:postcode": "26-500",
                "addr:city": "Szyd\u0142owiec",
                "addr:street": "Wschodnia",
                "addr:housenumber": "57",
                "addr:city:simc": 973895,
                "addr:street:sym_ul": 24879,
                "phone": "+48 486176070",
                "email": "psp2@szydlowiec.pl",
                "ref:regon": "672011960",
                "ref:vatin": "PL7991970848",
                "operator": "Gmina Szyd\u0142owiec",
                "operator:type": "government",
                "amenity": "school"
            }
        },
        {
            "id": 128714,
            "type": "Feature",
            "geometry": {
                "type": "Point",
                "coordinates": [
                    20.87315,
                    51.24298
                ]
            },
            "properties": {
                "isced:level": "1;2",
                "ref:rspo": 128714,
                "official_name": "Szko\u0142a Podstawowa Montessori w Szyd\u0142owcu",
                "name": "Szko\u0142a Podstawowa Montessori w Szyd\u0142owcu",
                "addr:postcode": "26-500",
                "addr:city": "Szyd\u0142owiec",
                "addr:street": "Metalowa",
                "addr:housenumber": "29",
                "addr:city:simc": 973895,
                "addr:street:sym_ul": 12627,
                "phone": "+48 887526526",
                "email": "fundacja@osiemmarzen.org",
                "website": "http:\/\/www.osiemmarzen.org",
                "ref:regon": "362391900",
                "operator": "Fundacja Osiem Marze\u0144",
                "operator:type": "ngo",
                "amenity": "school"
            }
        },
        {
            "id": 128717,
            "type": "Feature",
            "geometry": {
                "type": "Point",
                "coordinates": [
                    20.87315,
                    51.24295
                ]
            },
            "properties": {
                "isced:level": "1;2",
                "ref:rspo": 128717,
                "official_name": "Specjalna Niepubliczna Szko\u0142a Podstawowa Montessori w Szyd\u0142owcu",
                "name": "Specjalna Niepubliczna Szko\u0142a Podstawowa Montessori w Szyd\u0142owcu",
                "addr:postcode": "26-500",
                "addr:city": "Szyd\u0142owiec",
                "addr:street": "Metalowa",
                "addr:housenumber": "29",
                "addr:city:simc": 973895,
                "addr:street:sym_ul": 12627,
                "phone": "+48 887526526",
                "email": "monika.bekiel@gmail.com",
                "ref:regon": "362392181",
                "operator": "Pracownia Edukacji I Rozwoju Monika \u0141ukomska-Bekiel",
                "operator:type": "consortium",
                "amenity": "school"
            }
        },
        {
            "id": 128820,
            "type": "Feature",
            "geometry": {
                "type": "Point",
                "coordinates": [
                    20.87315,
                    51.242920000000005
                ]
            },
            "properties": {
                "ref:rspo": 128820,
                "official_name": "Integracyjne Przedszkole Montessori Z Oddzia\u0142ami Specjalnymi w Szyd\u0142owcu",
                "name": "Integracyjne Przedszkole Montessori Z Oddzia\u0142ami Specjalnymi w Szyd\u0142owcu",
                "addr:postcode": "26-500",
                "addr:city": "Szyd\u0142owiec",
                "addr:street": "Metalowa",
                "addr:housenumber": "29",
                "addr:city:simc": 973895,
                "addr:street:sym_ul": 12627,
                "email": "monika.bekiel@gmail.com",
                "ref:regon": "362400354",
                "ref:vatin": "PL7991088263",
                "operator": "Monika \u0141ukomska- Dietrich",
                "operator:type": "private",
                "amenity": "kindergarten"
            }
        },
        {
            "id": 14074,
            "type": "Feature",
            "geometry": {
                "type": "Point",
                "coordinates": [
                    20.872289657593,
                    51.24531173706
                ]
            },
            "properties": {
                "isced:level": "1;2",
                "ref:rspo": 14074,
                "official_name": "Publiczna Szko\u0142a Podstawowa im. Gen.stefana Roweckiego \"Grota\" w Wysokiej",
                "name": "Publiczna Szko\u0142a Podstawowa",
                "addr:postcode": "26-500",
                "addr:place": "Wysoka",
                "addr:housenumber": "37",
                "addr:city:simc": 639593,
                "phone": "+48 486290781",
                "email": "pspwysoka@szydlowiec.pl",
                "ref:regon": "000837181",
                "ref:vatin": "PL7991970788",
                "operator": "Gmina Szyd\u0142owiec",
                "operator:type": "government",
                "amenity": "school"
            }
        }
    ]
}