{
    "type": "FeatureCollection",
    "features": [
        {
            "id": 53484,
            "type": "Feature",
            "geometry": {
                "type": "Point",
                "coordinates": [
                    21.03407,
                    51.28501
                ]
            },
            "properties": {
                "ref:rspo": 53484,
                "official_name": "Topfire Niepubliczna Plac\u00f3wka Kszta\u0142cenia Ustawicznego dla Doros\u0142ych",
                "name": "Topfire Niepubliczna Plac\u00f3wka Kszta\u0142cenia Ustawicznego dla Doros\u0142ych",
                "addr:country": "PL",
                "addr:postcode": "26-505",
                "addr:place": "Tomasz\u00f3w",
                "addr:housenumber": "89",
                "addr:teryt:sym_ul": 630422,
                "contact:phone": "+48 608201093",
                "contact:email": "biuro@topfire.pl",
                "contact:website": "http:\/\/www.topfire.pl",
                "ref:regon": "146359038",
                "operator": "Izabela Topolska",
                "operator:type": "private",
                "fixme": "w zale\u017cno\u015bci od przedmiotu dzia\u0142alno\u015bci (np. amenity=training + training=*, amenity=dancing_school, amenity=language_school, amenity=music_school)"
            }
        },
        {
            "id": 57153,
            "type": "Feature",
            "geometry": {
                "type": "Point",
                "coordinates": [
                    20.94604,
                    51.28517
                ]
            },
            "properties": {
                "isced:level": "1;2",
                "ref:rspo": 57153,
                "official_name": "Publiczna Szko\u0142a Podstawowa w Wa\u0142snowie",
                "name": "Publiczna Szko\u0142a Podstawowa w Wa\u0142snowie",
                "addr:country": "PL",
                "addr:postcode": "26-505",
                "addr:place": "Wa\u0142sn\u00f3w",
                "addr:housenumber": "22a",
                "addr:teryt:sym_ul": 630439,
                "contact:phone": "+48 486184053",
                "contact:email": "walsnow.psp@op.pl",
                "ref:regon": "670735665",
                "ref:vatin": "PL7991439366",
                "operator": "Gmina Oro\u0144sko",
                "operator:type": "government",
                "amenity": "school"
            }
        },
        {
            "id": 90079,
            "type": "Feature",
            "geometry": {
                "type": "Point",
                "coordinates": [
                    20.9195,
                    51.31295
                ]
            },
            "properties": {
                "isced:level": "1;2",
                "ref:rspo": 90079,
                "official_name": "Publiczna Szko\u0142a Podstawowa im. Tadeusza Ko\u015bciuszki w Ciep\u0142ej",
                "name": "Publiczna Szko\u0142a Podstawowa",
                "addr:country": "PL",
                "addr:postcode": "26-505",
                "addr:place": "Ciep\u0142a",
                "addr:housenumber": "24B",
                "addr:teryt:sym_ul": 630304,
                "contact:phone": "+48 486184750",
                "contact:email": "pspciepla@op.pl",
                "ref:regon": "670579580",
                "ref:vatin": "PL7991439314",
                "operator": "Gmina Oro\u0144sko",
                "operator:type": "government",
                "amenity": "school"
            }
        },
        {
            "id": 90094,
            "type": "Feature",
            "geometry": {
                "type": "Point",
                "coordinates": [
                    20.9834681,
                    51.3148307
                ]
            },
            "properties": {
                "ref:rspo": 90094,
                "official_name": "Przedszkole Samorz\u0105dowe w Oro\u0144sku",
                "name": "Przedszkole Samorz\u0105dowe w Oro\u0144sku",
                "addr:country": "PL",
                "addr:postcode": "26-505",
                "addr:city": "Oro\u0144sko",
                "addr:street": "ul. Brandta",
                "addr:housenumber": "43",
                "addr:teryt:simc": 35017,
                "addr:teryt:sym_ul": 630400,
                "contact:phone": "+48 486184445",
                "contact:email": "przedszkole@oronsko.pl",
                "ref:regon": "141094836",
                "ref:vatin": "PL7991940296",
                "operator": "Gmina Oro\u0144sko",
                "operator:type": "government",
                "amenity": "kindergarten"
            }
        },
        {
            "id": 57148,
            "type": "Feature",
            "geometry": {
                "type": "Point",
                "coordinates": [
                    20.98971,
                    51.31559
                ]
            },
            "properties": {
                "isced:level": "1;2",
                "ref:rspo": 57148,
                "official_name": "Publiczna Szko\u0142a Podstawowa im. J\u00f3zefa Brandta w Oro\u0144sku",
                "name": "Publiczna Szko\u0142a Podstawowa",
                "addr:country": "PL",
                "addr:postcode": "26-505",
                "addr:city": "Oro\u0144sko",
                "addr:street": "ul. Szkolna",
                "addr:housenumber": "3",
                "addr:teryt:simc": 21970,
                "addr:teryt:sym_ul": 630400,
                "contact:phone": "+48 486184076",
                "contact:email": "psporonsko@op.pl",
                "ref:regon": "000270283",
                "ref:vatin": "PL7991439337",
                "operator": "Gmina Oro\u0144sko",
                "operator:type": "government",
                "amenity": "school"
            }
        },
        {
            "id": 89618,
            "type": "Feature",
            "geometry": {
                "type": "Point",
                "coordinates": [
                    21.00775,
                    51.32297
                ]
            },
            "properties": {
                "isced:level": "1;2",
                "ref:rspo": 89618,
                "official_name": "Publiczna Szko\u0142a Podstawowa w Krogulczy Suchej im. Bohater\u00f3w Powstania Styczniowego",
                "name": "Publiczna Szko\u0142a Podstawowa w Krogulczy Suchej",
                "addr:country": "PL",
                "addr:postcode": "26-505",
                "addr:place": "Krogulcza Sucha",
                "addr:housenumber": "34",
                "addr:teryt:sym_ul": 630379,
                "contact:phone": "+48 486184397",
                "contact:email": "psp.krogulcza@wp.pl",
                "ref:regon": "146454222",
                "ref:vatin": "PL7991952371",
                "operator": "Dane Do Uzupe\u0142nienia",
                "operator:type": "private",
                "amenity": "school"
            }
        },
        {
            "id": 90760,
            "type": "Feature",
            "geometry": {
                "type": "Point",
                "coordinates": [
                    21.00775,
                    51.322939999999996
                ]
            },
            "properties": {
                "ref:rspo": 90760,
                "official_name": "Zesp\u00f3\u0142 Wychowania Przedszkolnego w Krogulczy Suchej",
                "name": "Zesp\u00f3\u0142 Wychowania Przedszkolnego w Krogulczy Suchej",
                "addr:country": "PL",
                "addr:postcode": "26-505",
                "addr:place": "Krogulcza Sucha",
                "addr:housenumber": "34",
                "addr:teryt:sym_ul": 630379,
                "contact:phone": "+48 486184397",
                "contact:email": "psp.krogulcza@wp.pl",
                "ref:regon": "146405590",
                "operator": "Dane Do Uzupe\u0142nienia",
                "operator:type": "private",
                "amenity": "kindergarten"
            }
        },
        {
            "id": 57152,
            "type": "Feature",
            "geometry": {
                "type": "Point",
                "coordinates": [
                    20.97046,
                    51.33314
                ]
            },
            "properties": {
                "isced:level": "1;2",
                "ref:rspo": 57152,
                "official_name": "Publiczna Szko\u0142a Podstawowa w Guzowie",
                "name": "Publiczna Szko\u0142a Podstawowa w Guzowie",
                "addr:country": "PL",
                "addr:postcode": "26-505",
                "addr:place": "Guz\u00f3w",
                "addr:housenumber": "20",
                "addr:teryt:sym_ul": 630333,
                "contact:phone": "+48 486184026",
                "contact:email": "pspguzow@op.pl",
                "ref:regon": "001146390",
                "ref:vatin": "PL7991439343",
                "operator": "Gmina Oro\u0144sko",
                "operator:type": "government",
                "amenity": "school"
            }
        }
    ]
}