{
    "type": "FeatureCollection",
    "features": [
        {
            "id": 29564,
            "type": "Feature",
            "geometry": {
                "type": "Point",
                "coordinates": [
                    21.95451,
                    51.81314
                ]
            },
            "properties": {
                "ref:rspo": 29564,
                "official_name": "Punkt Przedszkolny Przy Szkole Podstawowej im. Tadeusza Ko\u015bciuszki w Jarczewie",
                "name": "Punkt Przedszkolny Przy Szkole Podstawowej",
                "addr:postcode": "21-426",
                "addr:place": "Jarczew",
                "addr:housenumber": "55",
                "addr:teryt:simc": 695812,
                "email": "sp.jarczew@poczta.onet.pl",
                "ref:regon": "061471114",
                "ref:vatin": "PL8251405690",
                "operator": "Gmina Wola Mys\u0142owska",
                "operator:type": "government",
                "amenity": "kindergarten"
            }
        },
        {
            "id": 31860,
            "type": "Feature",
            "geometry": {
                "type": "Point",
                "coordinates": [
                    21.95451,
                    51.813109999999995
                ]
            },
            "properties": {
                "isced:level": "1;2",
                "ref:rspo": 31860,
                "official_name": "Szko\u0142a Podstawowa im. Tadeusza Ko\u015bciuszki w Jarczewie",
                "name": "Szko\u0142a Podstawowa",
                "addr:postcode": "21-426",
                "addr:place": "Jarczew",
                "addr:housenumber": "55",
                "addr:door": "-",
                "addr:teryt:simc": 695812,
                "phone": "+48 257542517",
                "email": "sp.jarczew@poczta.onet.pl",
                "website": "http:\/\/www.spjarczew.pl",
                "ref:regon": "001137385",
                "ref:vatin": "PL8251405715",
                "operator": "Gmina Wola Mys\u0142owska",
                "operator:type": "government",
                "amenity": "school"
            }
        },
        {
            "id": 73157,
            "type": "Feature",
            "geometry": {
                "type": "Point",
                "coordinates": [
                    21.9593,
                    51.84789
                ]
            },
            "properties": {
                "isced:level": "1;2",
                "ref:rspo": 73157,
                "official_name": "Szko\u0142a Podstawowa im. Ks. Jana Twardowskiego w Mys\u0142owie",
                "name": "Szko\u0142a Podstawowa",
                "addr:postcode": "21-426",
                "addr:place": "Mys\u0142\u00f3w",
                "addr:housenumber": "116A",
                "addr:teryt:simc": 695918,
                "phone": "+48 257542612",
                "email": "gimnazjummyslow@wp.pl",
                "website": "http:\/\/spmyslow.szkolnastrona.pl",
                "ref:regon": "001134949",
                "ref:vatin": "PL8251405709",
                "operator": "Gmina Wola Mys\u0142owska",
                "operator:type": "government",
                "amenity": "school"
            }
        },
        {
            "id": 271746,
            "type": "Feature",
            "geometry": {
                "type": "Point",
                "coordinates": [
                    21.9593,
                    51.84786
                ]
            },
            "properties": {
                "ref:rspo": 271746,
                "official_name": "Punkt Przedszkolny w Mys\u0142owie",
                "name": "Punkt Przedszkolny w Mys\u0142owie",
                "addr:postcode": "21-426",
                "addr:place": "Mys\u0142\u00f3w",
                "addr:housenumber": "116A",
                "addr:teryt:simc": 695918,
                "phone": "+48 257542612",
                "ref:regon": "383590074",
                "operator": "Gmina Wola Mys\u0142owska",
                "operator:type": "government",
                "amenity": "kindergarten"
            }
        },
        {
            "id": 29565,
            "type": "Feature",
            "geometry": {
                "type": "Point",
                "coordinates": [
                    22.06336,
                    51.85853
                ]
            },
            "properties": {
                "ref:rspo": 29565,
                "official_name": "Punkt Przedszkolny Przy Szkole Podstawowej im. Miko\u0142aja Kopernika w Wandowie",
                "name": "Punkt Przedszkolny Przy Szkole Podstawowej",
                "addr:postcode": "21-426",
                "addr:place": "Wand\u00f3w",
                "addr:housenumber": "75",
                "addr:door": "-",
                "addr:teryt:simc": 696102,
                "phone": "+48 257550167",
                "email": "sp.wandow@wp.pl",
                "ref:regon": "061471137",
                "ref:vatin": "PL8251405721",
                "operator": "Gmina Wola Mys\u0142owska",
                "operator:type": "government",
                "amenity": "kindergarten"
            }
        },
        {
            "id": 53149,
            "type": "Feature",
            "geometry": {
                "type": "Point",
                "coordinates": [
                    22.06336,
                    51.8585
                ]
            },
            "properties": {
                "isced:level": "1;2",
                "ref:rspo": 53149,
                "official_name": "Szko\u0142a Podstawowa im. Miko\u0142aja Kopernika w Wandowie",
                "name": "Szko\u0142a Podstawowa",
                "addr:postcode": "21-426",
                "addr:place": "Wand\u00f3w",
                "addr:housenumber": "75",
                "addr:door": "-",
                "addr:teryt:simc": 696102,
                "phone": "+48 257550167",
                "email": "sp.wandow@wp.pl",
                "website": "http:\/\/spwandow.szkolna strona.pl",
                "ref:regon": "001134961",
                "ref:vatin": "PL8251405721",
                "operator": "Gmina Wola Mys\u0142owska",
                "operator:type": "government",
                "amenity": "school"
            }
        },
        {
            "id": 6917,
            "type": "Feature",
            "geometry": {
                "type": "Point",
                "coordinates": [
                    21.90346,
                    51.87126
                ]
            },
            "properties": {
                "ref:rspo": 6917,
                "official_name": "Specjalny O\u015brodek Szkolno-Wychowawczy im. Henryka Sienkiewicza w Baczkowie",
                "name": "Specjalny O\u015brodek Szkolno-Wychowawczy",
                "addr:postcode": "21-426",
                "addr:place": "Baczk\u00f3w",
                "addr:housenumber": "32B",
                "addr:teryt:simc": 695605,
                "phone": "+48 256290962",
                "email": "soszw_baczkow@o2.pl",
                "website": "http:\/\/soszwbaczkow.edupage.org",
                "ref:regon": "000201520",
                "operator": "Powiat \u0141ukowski",
                "operator:type": "government",
                "amenity": "school",
                "note": "Children RSPO: 110497;114367"
            }
        },
        {
            "id": 110497,
            "type": "Feature",
            "geometry": {
                "type": "Point",
                "coordinates": [
                    21.90346,
                    51.87123
                ]
            },
            "properties": {
                "ref:rspo": 110497,
                "official_name": "Szko\u0142a Przysposabiaj\u0105ca Do Pracy w Baczkowie",
                "name": "Szko\u0142a Przysposabiaj\u0105ca Do Pracy w Baczkowie",
                "addr:postcode": "21-426",
                "addr:place": "Baczk\u00f3w",
                "addr:housenumber": "32B",
                "addr:teryt:simc": 695605,
                "phone": "+48 256290962",
                "email": "soszw_baczkow@o2.pl",
                "ref:regon": "060057045",
                "operator": "Powiat \u0141ukowski",
                "operator:type": "government",
                "amenity": "school",
                "note": "Parent RSPO: 6917"
            }
        },
        {
            "id": 114367,
            "type": "Feature",
            "geometry": {
                "type": "Point",
                "coordinates": [
                    21.90346,
                    51.8712
                ]
            },
            "properties": {
                "isced:level": "1;2",
                "ref:rspo": 114367,
                "official_name": "Szko\u0142a Podstawowa Specjalna w Baczkowie",
                "name": "Szko\u0142a Podstawowa Specjalna w Baczkowie",
                "addr:postcode": "21-426",
                "addr:place": "Baczk\u00f3w",
                "addr:housenumber": "32B",
                "addr:teryt:simc": 695605,
                "phone": "+48 256290962",
                "email": "soszw_baczkow@wp.pl",
                "website": "http:\/\/soszwbaczkow.edupage.org",
                "ref:regon": "061553993",
                "operator": "Powiat \u0141ukowski",
                "operator:type": "government",
                "amenity": "school",
                "note": "Parent RSPO: 6917"
            }
        },
        {
            "id": 29219,
            "type": "Feature",
            "geometry": {
                "type": "Point",
                "coordinates": [
                    21.96231,
                    51.87386
                ]
            },
            "properties": {
                "ref:rspo": 29219,
                "official_name": "Punkt Przedszkolny Przy Szkole Podstawowej im. Henryka Sienkiewicza w Lisikierzu",
                "name": "Punkt Przedszkolny Przy Szkole Podstawowej",
                "addr:postcode": "21-426",
                "addr:place": "Lisikierz",
                "addr:housenumber": "22A",
                "addr:door": "-",
                "addr:teryt:simc": 695893,
                "phone": "+48 257510007",
                "email": "sp.lisikierz@wp.pl",
                "ref:regon": "061470899",
                "ref:vatin": "PL8251405690",
                "operator": "Gmina Wola Mys\u0142owska",
                "operator:type": "government",
                "amenity": "kindergarten"
            }
        },
        {
            "id": 31925,
            "type": "Feature",
            "geometry": {
                "type": "Point",
                "coordinates": [
                    21.96231,
                    51.87383
                ]
            },
            "properties": {
                "isced:level": "1;2",
                "ref:rspo": 31925,
                "official_name": "Szko\u0142a Podstawowa im. Henryka Sienkiewicza w Lisikierzu",
                "name": "Szko\u0142a Podstawowa",
                "addr:postcode": "21-426",
                "addr:place": "Lisikierz",
                "addr:housenumber": "22A",
                "addr:door": "-",
                "addr:teryt:simc": 695893,
                "phone": "+48 257510007",
                "email": "sp.lisikierz@wp.pl",
                "ref:regon": "000718128",
                "ref:vatin": "PL8251405690",
                "operator": "Gmina Wola Mys\u0142owska",
                "operator:type": "government",
                "amenity": "school"
            }
        }
    ]
}