{
    "type": "FeatureCollection",
    "features": [
        {
            "id": 268214,
            "type": "Feature",
            "geometry": {
                "type": "Point",
                "coordinates": [
                    22.4191774,
                    51.8732356
                ]
            },
            "properties": {
                "ref:rspo": 268214,
                "official_name": "Zesp\u00f3\u0142 Szk\u00f3\u0142 w Go\u0142\u0105bkach",
                "name": "Zesp\u00f3\u0142 Szk\u00f3\u0142 w Go\u0142\u0105bkach",
                "addr:postcode": "21-400",
                "addr:place": "Go\u0142\u0105bki",
                "addr:housenumber": "33",
                "addr:teryt:simc": 679440,
                "phone": "+48 257989927",
                "email": "zsgolabki@interia.pl",
                "website": "http:\/\/www.golabki.gminalukow.pl",
                "ref:regon": "381032542",
                "ref:vatin": "PL8252183702",
                "operator": "Gmina \u0141uk\u00f3w",
                "operator:type": "government",
                "landuse": "education",
                "fixme": "amenity=school, amenity=college albo landuse=education w zale\u017cno\u015bci od tego, jakie plac\u00f3wki wchodz\u0105 w sk\u0142ad zespo\u0142u. Sprawd\u017a, kiedy stosowa\u0107 amenity=* a kiedy landuse=education.",
                "note": "Children RSPO: 104193;268259"
            }
        },
        {
            "id": 104193,
            "type": "Feature",
            "geometry": {
                "type": "Point",
                "coordinates": [
                    22.4191774,
                    51.8732056
                ]
            },
            "properties": {
                "isced:level": "1;2",
                "ref:rspo": 104193,
                "official_name": "Szko\u0142a Podstawowa im. Boles\u0142awa Prusa w Go\u0142\u0105bkach",
                "name": "Szko\u0142a Podstawowa",
                "addr:postcode": "21-400",
                "addr:place": "Go\u0142\u0105bki",
                "addr:housenumber": "33",
                "addr:teryt:simc": 679440,
                "phone": "+48 257989927",
                "email": "zsgolabki@interia.pl",
                "website": "http:\/\/www.golabki.gminalukow.pl",
                "ref:regon": "001125070",
                "ref:vatin": "PL8251442662",
                "operator": "Gmina \u0141uk\u00f3w",
                "operator:type": "government",
                "amenity": "school",
                "note": "Parent RSPO: 268214"
            }
        },
        {
            "id": 268259,
            "type": "Feature",
            "geometry": {
                "type": "Point",
                "coordinates": [
                    22.4191774,
                    51.8731756
                ]
            },
            "properties": {
                "ref:rspo": 268259,
                "official_name": "Przedszkole w Go\u0142\u0105bkach",
                "name": "Przedszkole w Go\u0142\u0105bkach",
                "addr:postcode": "21-400",
                "addr:place": "Go\u0142\u0105bki",
                "addr:housenumber": "33",
                "addr:teryt:simc": 679440,
                "phone": "+48 257989927",
                "email": "zsgolabki@interia.pl",
                "website": "http:\/\/www.golabki.gminalukow.pl",
                "ref:regon": "381047331",
                "operator": "Gmina \u0141uk\u00f3w",
                "operator:type": "government",
                "amenity": "kindergarten",
                "note": "Parent RSPO: 268214"
            }
        },
        {
            "id": 118845,
            "type": "Feature",
            "geometry": {
                "type": "Point",
                "coordinates": [
                    22.34996,
                    51.87974
                ]
            },
            "properties": {
                "ref:rspo": 118845,
                "official_name": "Zesp\u00f3\u0142 Szk\u00f3\u0142 w \u015awidrach",
                "name": "Zesp\u00f3\u0142 Szk\u00f3\u0142 w \u015awidrach",
                "addr:postcode": "21-400",
                "addr:place": "\u015awidry",
                "addr:housenumber": "99",
                "addr:teryt:simc": 680058,
                "phone": "+48 256250810",
                "email": "spswidry@o2.pl",
                "website": "http:\/\/spswidry.edu.pl\/",
                "ref:regon": "061589956",
                "ref:vatin": "PL8252172963",
                "operator": "Gmina \u0141uk\u00f3w",
                "operator:type": "government",
                "landuse": "education",
                "fixme": "amenity=school, amenity=college albo landuse=education w zale\u017cno\u015bci od tego, jakie plac\u00f3wki wchodz\u0105 w sk\u0142ad zespo\u0142u. Sprawd\u017a, kiedy stosowa\u0107 amenity=* a kiedy landuse=education.",
                "note": "Children RSPO: 72629;119655"
            }
        },
        {
            "id": 72629,
            "type": "Feature",
            "geometry": {
                "type": "Point",
                "coordinates": [
                    22.34996,
                    51.879709999999996
                ]
            },
            "properties": {
                "isced:level": "1;2",
                "ref:rspo": 72629,
                "official_name": "Szko\u0142a Podstawowa w \u015awidrach",
                "name": "Szko\u0142a Podstawowa w \u015awidrach",
                "addr:postcode": "21-400",
                "addr:place": "\u015awidry",
                "addr:housenumber": "99",
                "addr:teryt:simc": 680058,
                "phone": "+48 256250810",
                "email": "spswidry@o2.pl",
                "website": "http:\/\/www.spswidry.edu.pl",
                "ref:regon": "001124454",
                "ref:vatin": "PL8251784842",
                "operator": "Gmina \u0141uk\u00f3w",
                "operator:type": "government",
                "amenity": "school",
                "note": "Parent RSPO: 118845"
            }
        },
        {
            "id": 119655,
            "type": "Feature",
            "geometry": {
                "type": "Point",
                "coordinates": [
                    22.34996,
                    51.87968
                ]
            },
            "properties": {
                "ref:rspo": 119655,
                "official_name": "Przedszkole w \u015awidrach",
                "name": "Przedszkole w \u015awidrach",
                "addr:postcode": "21-400",
                "addr:place": "\u015awidry",
                "addr:housenumber": "99",
                "addr:teryt:simc": 680058,
                "phone": "+48 256250810",
                "email": "spswidry@o2.pl",
                "website": "http:\/\/spswidry.edu.pl\/",
                "ref:regon": "061598412",
                "operator": "Gmina \u0141uk\u00f3w",
                "operator:type": "government",
                "amenity": "kindergarten",
                "note": "Parent RSPO: 118845"
            }
        },
        {
            "id": 73043,
            "type": "Feature",
            "geometry": {
                "type": "Point",
                "coordinates": [
                    22.29646,
                    51.8948899
                ]
            },
            "properties": {
                "ref:rspo": 73043,
                "official_name": "Zesp\u00f3\u0142 Szk\u00f3\u0142 w Czer\u015bli",
                "name": "Zesp\u00f3\u0142 Szk\u00f3\u0142 w Czer\u015bli",
                "addr:postcode": "21-400",
                "addr:place": "Czer\u015bl",
                "addr:housenumber": "1",
                "addr:teryt:simc": 679351,
                "phone": "+48 257982635",
                "email": "zs_czersl@poczta.onet.pl",
                "website": "http:\/\/www.czersl.gminalukow.pl",
                "ref:regon": "060020177",
                "ref:vatin": "PL8252168648",
                "operator": "Gmina \u0141uk\u00f3w",
                "operator:type": "government",
                "landuse": "education",
                "fixme": "amenity=school, amenity=college albo landuse=education w zale\u017cno\u015bci od tego, jakie plac\u00f3wki wchodz\u0105 w sk\u0142ad zespo\u0142u. Sprawd\u017a, kiedy stosowa\u0107 amenity=* a kiedy landuse=education.",
                "note": "Children RSPO: 92219;92220"
            }
        },
        {
            "id": 92219,
            "type": "Feature",
            "geometry": {
                "type": "Point",
                "coordinates": [
                    22.29646,
                    51.8948599
                ]
            },
            "properties": {
                "isced:level": "1;2",
                "ref:rspo": 92219,
                "official_name": "Szko\u0142a Podstawowa Im Jana III Sobieskiego w Czer\u015bli",
                "name": "Szko\u0142a Podstawowa Im Jana III Sobieskiego w Czer\u015bli",
                "addr:postcode": "21-400",
                "addr:place": "Czer\u015bl",
                "addr:housenumber": "1",
                "addr:teryt:simc": 679351,
                "phone": "+48 257982635",
                "email": "zs_czersl@poczta.onet.pl",
                "ref:regon": "001125117",
                "ref:vatin": "PL8251444342",
                "operator": "Gmina \u0141uk\u00f3w",
                "operator:type": "government",
                "amenity": "school",
                "note": "Parent RSPO: 73043"
            }
        },
        {
            "id": 92220,
            "type": "Feature",
            "geometry": {
                "type": "Point",
                "coordinates": [
                    22.29646,
                    51.894829900000005
                ]
            },
            "properties": {
                "ref:rspo": 92220,
                "official_name": "Przedszkole w Czer\u015bli",
                "name": "Przedszkole w Czer\u015bli",
                "addr:postcode": "21-400",
                "addr:place": "Czer\u015bl",
                "addr:housenumber": "1",
                "addr:teryt:simc": 679351,
                "phone": "+48 257982635",
                "email": "zs_czersl@poczta.onet.pl",
                "website": "http:\/\/www.czersl.gminalukow.pl",
                "ref:regon": "710006830",
                "ref:vatin": "PL8251817642",
                "operator": "Gmina \u0141uk\u00f3w",
                "operator:type": "government",
                "amenity": "kindergarten",
                "note": "Parent RSPO: 73043"
            }
        },
        {
            "id": 72644,
            "type": "Feature",
            "geometry": {
                "type": "Point",
                "coordinates": [
                    22.45682,
                    51.90265
                ]
            },
            "properties": {
                "isced:level": "1;2",
                "ref:rspo": 72644,
                "official_name": "Szko\u0142a Podstawowa im. Ks. Tadeusza Adama Leszczy\u0144skiego w Aleksandrowie",
                "name": "Szko\u0142a Podstawowa",
                "addr:postcode": "21-400",
                "addr:place": "Aleksandr\u00f3w",
                "addr:housenumber": "51",
                "addr:teryt:simc": 679322,
                "phone": "+48 257962377",
                "email": "sp_aleksandrow@interia.pl",
                "website": "http:\/\/www.aleksandrow.gminalukow.pl",
                "ref:regon": "001125123",
                "ref:vatin": "PL8251464474",
                "operator": "Gmina \u0141uk\u00f3w",
                "operator:type": "government",
                "amenity": "school"
            }
        },
        {
            "id": 129530,
            "type": "Feature",
            "geometry": {
                "type": "Point",
                "coordinates": [
                    22.42199,
                    51.91573
                ]
            },
            "properties": {
                "ref:rspo": 129530,
                "official_name": "Prywatne Przedszkole Terapeutyczne \"Dzwoneczek\" w \u0141azach",
                "name": "Prywatne Przedszkole Terapeutyczne \"Dzwoneczek\" w \u0141azach",
                "addr:postcode": "21-400",
                "addr:place": "\u0141azy",
                "addr:housenumber": "42 E",
                "addr:teryt:simc": 679813,
                "phone": "+48 505469748",
                "email": "terapia61@onet.pl",
                "ref:regon": "362685960",
                "operator": "Aneta Krasuska",
                "operator:type": "private",
                "amenity": "kindergarten"
            }
        },
        {
            "id": 72705,
            "type": "Feature",
            "geometry": {
                "type": "Point",
                "coordinates": [
                    22.4299399,
                    51.91594
                ]
            },
            "properties": {
                "ref:rspo": 72705,
                "official_name": "Przedszkole \"Ba\u015bniowy Dworek\" w \u0141azach",
                "name": "Przedszkole \"Ba\u015bniowy Dworek\" w \u0141azach",
                "addr:postcode": "21-400",
                "addr:place": "\u0141azy",
                "addr:housenumber": "383",
                "addr:teryt:simc": 679813,
                "phone": "+48 257405131",
                "email": "p_lazy@interia.pl",
                "website": "http:\/\/www.przedszkolelazy.edupage.org",
                "ref:regon": "710006869",
                "ref:vatin": "PL8251444307",
                "operator": "Gmina \u0141uk\u00f3w",
                "operator:type": "government",
                "amenity": "kindergarten"
            }
        },
        {
            "id": 124053,
            "type": "Feature",
            "geometry": {
                "type": "Point",
                "coordinates": [
                    22.54005,
                    51.91652
                ]
            },
            "properties": {
                "ref:rspo": 124053,
                "official_name": "Zesp\u00f3\u0142 Szkolno - Przedszkolny w Zarzeczu \u0141ukowskim",
                "name": "Zesp\u00f3\u0142 Szkolno - Przedszkolny w Zarzeczu \u0141ukowskim",
                "addr:postcode": "21-400",
                "addr:place": "Zarzecz \u0141ukowski",
                "addr:housenumber": "54",
                "addr:teryt:simc": 680242,
                "phone": "+48 257963049",
                "email": "zarzecz@interia.eu",
                "website": "http:\/\/www.zarzecz.gminalukow.pl",
                "ref:regon": "061718052",
                "ref:vatin": "PL8252174198",
                "operator": "Stowarzyszenie Oaza O\u015bwiaty",
                "operator:type": "ngo",
                "landuse": "education",
                "fixme": "amenity=school, amenity=college albo landuse=education w zale\u017cno\u015bci od tego, jakie plac\u00f3wki wchodz\u0105 w sk\u0142ad zespo\u0142u. Sprawd\u017a, kiedy stosowa\u0107 amenity=* a kiedy landuse=education.",
                "note": "Children RSPO: 125410;125411"
            }
        },
        {
            "id": 125410,
            "type": "Feature",
            "geometry": {
                "type": "Point",
                "coordinates": [
                    22.54005,
                    51.916489999999996
                ]
            },
            "properties": {
                "isced:level": "1;2",
                "ref:rspo": 125410,
                "official_name": "Szko\u0142a Podstawowa w Zarzeczu \u0141ukowskim",
                "name": "Szko\u0142a Podstawowa w Zarzeczu \u0141ukowskim",
                "addr:postcode": "21-400",
                "addr:place": "Zarzecz \u0141ukowski",
                "addr:housenumber": "54",
                "addr:teryt:simc": 680242,
                "phone": "+48 257963049",
                "email": "zarzecz@interia.eu",
                "website": "http:\/\/www.zarzecz.gminalukow.pl",
                "ref:regon": "061735694",
                "operator": "Stowarzyszenie Oaza O\u015bwiaty",
                "operator:type": "ngo",
                "amenity": "school",
                "note": "Parent RSPO: 124053"
            }
        },
        {
            "id": 125411,
            "type": "Feature",
            "geometry": {
                "type": "Point",
                "coordinates": [
                    22.54005,
                    51.91646
                ]
            },
            "properties": {
                "ref:rspo": 125411,
                "official_name": "Przedszkole w Zespole Szkolno - Przedszkolnym w Zarzeczu \u0141ukowskim",
                "name": "Przedszkole w Zespole Szkolno - Przedszkolnym w Zarzeczu \u0141ukowskim",
                "addr:postcode": "21-400",
                "addr:place": "Zarzecz \u0141ukowski",
                "addr:housenumber": "54",
                "addr:teryt:simc": 680242,
                "phone": "+48 257963049",
                "email": "zarzecz@interia.eu",
                "website": "http:\/\/www.zarzecz.gminalukow.pl",
                "ref:regon": "061735702",
                "operator": "Stowarzyszenie Oaza O\u015bwiaty",
                "operator:type": "ngo",
                "amenity": "kindergarten",
                "note": "Parent RSPO: 124053"
            }
        },
        {
            "id": 262770,
            "type": "Feature",
            "geometry": {
                "type": "Point",
                "coordinates": [
                    22.46196,
                    51.92146
                ]
            },
            "properties": {
                "ref:rspo": 262770,
                "official_name": "Przedszkole w Turzych Rogach",
                "name": "Przedszkole w Turzych Rogach",
                "addr:postcode": "21-400",
                "addr:place": "Turze Rogi",
                "addr:housenumber": "50",
                "addr:teryt:simc": 680160,
                "phone": "+48 257962534",
                "email": "turzerogi@interia.pl",
                "ref:regon": "368057970",
                "operator": "Gmina \u0141uk\u00f3w",
                "operator:type": "government",
                "amenity": "kindergarten",
                "note": "Parent RSPO: 72598"
            }
        },
        {
            "id": 104931,
            "type": "Feature",
            "geometry": {
                "type": "Point",
                "coordinates": [
                    22.46196,
                    51.92143
                ]
            },
            "properties": {
                "isced:level": "1;2",
                "ref:rspo": 104931,
                "official_name": "Filialna Szko\u0142a Podstawowa w Turzych Rogach",
                "name": "Filialna Szko\u0142a Podstawowa w Turzych Rogach",
                "addr:postcode": "21-400",
                "addr:place": "Turze Rogi",
                "addr:housenumber": "50",
                "addr:teryt:simc": 680153,
                "phone": "+48 257962534",
                "email": "turzerogi@interia.pl",
                "website": "http:\/\/www.strzyzew.gminalukow.pl",
                "ref:regon": "112447700",
                "ref:vatin": "PL8251789408",
                "operator": "Gmina \u0141uk\u00f3w",
                "operator:type": "government",
                "amenity": "school",
                "note": "Parent RSPO: 89804"
            }
        },
        {
            "id": 72598,
            "type": "Feature",
            "geometry": {
                "type": "Point",
                "coordinates": [
                    22.51087,
                    51.92207
                ]
            },
            "properties": {
                "ref:rspo": 72598,
                "official_name": "Zesp\u00f3\u0142 Szk\u00f3\u0142 w Strzy\u017cewie",
                "name": "Zesp\u00f3\u0142 Szk\u00f3\u0142 w Strzy\u017cewie",
                "addr:postcode": "21-400",
                "addr:place": "Strzy\u017cew",
                "addr:housenumber": "128",
                "addr:teryt:simc": 679954,
                "phone": "+48 257963054",
                "email": "zs_strzyzew@interia.pl",
                "website": "http:\/\/www.strzyzew.gminalukow.pl",
                "ref:regon": "060020705",
                "ref:vatin": "PL8252169406",
                "operator": "Gmina \u0141uk\u00f3w",
                "operator:type": "government",
                "landuse": "education",
                "fixme": "amenity=school, amenity=college albo landuse=education w zale\u017cno\u015bci od tego, jakie plac\u00f3wki wchodz\u0105 w sk\u0142ad zespo\u0142u. Sprawd\u017a, kiedy stosowa\u0107 amenity=* a kiedy landuse=education.",
                "note": "Children RSPO: 89804;262770"
            }
        },
        {
            "id": 89804,
            "type": "Feature",
            "geometry": {
                "type": "Point",
                "coordinates": [
                    22.51087,
                    51.922039999999996
                ]
            },
            "properties": {
                "isced:level": "1;2",
                "ref:rspo": 89804,
                "official_name": "Szko\u0142a Podstawowa w Strzy\u017cewie",
                "name": "Szko\u0142a Podstawowa w Strzy\u017cewie",
                "addr:postcode": "21-400",
                "addr:place": "Strzy\u017cew",
                "addr:housenumber": "128",
                "addr:teryt:simc": 679954,
                "phone": "+48 257963054",
                "email": "zs_strzyzew@interia.pl",
                "website": "http:\/\/www.strzyzew.gminalukow.pl",
                "ref:regon": "001124477",
                "ref:vatin": "PL8251789420",
                "operator": "Gmina \u0141uk\u00f3w",
                "operator:type": "government",
                "amenity": "school",
                "note": "Children RSPO: 104931Parent RSPO: 72598"
            }
        },
        {
            "id": 89773,
            "type": "Feature",
            "geometry": {
                "type": "Point",
                "coordinates": [
                    22.24868,
                    51.93445
                ]
            },
            "properties": {
                "ref:rspo": 89773,
                "official_name": "Zesp\u00f3\u0142 Szk\u00f3\u0142 w D\u0105biu",
                "name": "Zesp\u00f3\u0142 Szk\u00f3\u0142 w D\u0105biu",
                "addr:postcode": "21-400",
                "addr:place": "D\u0105bie",
                "addr:housenumber": "83c",
                "addr:teryt:simc": 679380,
                "phone": "+48 257963398",
                "email": "dabie_szk@poczta.onet.pl",
                "website": "http:\/\/www.dabie.gminalukow.pl",
                "ref:regon": "061141210",
                "ref:vatin": "PL8252166827",
                "operator": "Gmina \u0141uk\u00f3w",
                "operator:type": "government",
                "landuse": "education",
                "fixme": "amenity=school, amenity=college albo landuse=education w zale\u017cno\u015bci od tego, jakie plac\u00f3wki wchodz\u0105 w sk\u0142ad zespo\u0142u. Sprawd\u017a, kiedy stosowa\u0107 amenity=* a kiedy landuse=education.",
                "note": "Children RSPO: 104183;104184"
            }
        },
        {
            "id": 104183,
            "type": "Feature",
            "geometry": {
                "type": "Point",
                "coordinates": [
                    22.24868,
                    51.934419999999996
                ]
            },
            "properties": {
                "isced:level": "1;2",
                "ref:rspo": 104183,
                "official_name": "Szko\u0142a Podstawowa im. Wandy Chotomskiej w D\u0105biu",
                "name": "Szko\u0142a Podstawowa",
                "addr:postcode": "21-400",
                "addr:place": "D\u0105bie",
                "addr:housenumber": "83c",
                "addr:teryt:simc": 679380,
                "phone": "+48 257963398",
                "email": "dabie_szk@poczta.onet.pl",
                "website": "http:\/\/www.dabie.gminalukow.pl",
                "ref:regon": "001125100",
                "ref:vatin": "PL8251442745",
                "operator": "Gmina \u0141uk\u00f3w",
                "operator:type": "government",
                "amenity": "school",
                "note": "Parent RSPO: 89773"
            }
        },
        {
            "id": 104184,
            "type": "Feature",
            "geometry": {
                "type": "Point",
                "coordinates": [
                    22.24868,
                    51.93439
                ]
            },
            "properties": {
                "ref:rspo": 104184,
                "official_name": "Przedszkole w D\u0105biu",
                "name": "Przedszkole w D\u0105biu",
                "addr:postcode": "21-400",
                "addr:place": "D\u0105bie",
                "addr:housenumber": "83c",
                "addr:teryt:simc": 679380,
                "phone": "+48 257963398",
                "email": "dabie_szk@poczta.onet.pl",
                "website": "http:\/\/www.dabie.gminalukow.pl",
                "ref:regon": "061141227",
                "ref:vatin": "PL8252166833",
                "operator": "Gmina \u0141uk\u00f3w",
                "operator:type": "government",
                "amenity": "kindergarten",
                "note": "Parent RSPO: 89773"
            }
        },
        {
            "id": 72635,
            "type": "Feature",
            "geometry": {
                "type": "Point",
                "coordinates": [
                    22.3392,
                    51.93782
                ]
            },
            "properties": {
                "ref:rspo": 72635,
                "official_name": "Zesp\u00f3\u0142 Szk\u00f3\u0142 im. Ks. St. Brz\u00f3ski w Zalesiu",
                "name": "Zesp\u00f3\u0142 Szk\u00f3\u0142",
                "addr:postcode": "21-400",
                "addr:place": "Zalesie",
                "addr:housenumber": "141",
                "addr:teryt:simc": 680207,
                "phone": "+48 257982802",
                "email": "zalesieluk@poczta.onet.pl",
                "website": "http:\/\/www.zalesie.gminalukow.pl",
                "ref:regon": "060020740",
                "ref:vatin": "PL8252090320",
                "operator": "Gmina \u0141uk\u00f3w",
                "operator:type": "government",
                "landuse": "education",
                "fixme": "amenity=school, amenity=college albo landuse=education w zale\u017cno\u015bci od tego, jakie plac\u00f3wki wchodz\u0105 w sk\u0142ad zespo\u0142u. Sprawd\u017a, kiedy stosowa\u0107 amenity=* a kiedy landuse=education.",
                "note": "Children RSPO: 89806;89812"
            }
        },
        {
            "id": 89806,
            "type": "Feature",
            "geometry": {
                "type": "Point",
                "coordinates": [
                    22.3392,
                    51.93779
                ]
            },
            "properties": {
                "isced:level": "1;2",
                "ref:rspo": 89806,
                "official_name": "Szko\u0142a Podstawowa w Zalesiu",
                "name": "Szko\u0142a Podstawowa w Zalesiu",
                "addr:postcode": "21-400",
                "addr:place": "Zalesie",
                "addr:housenumber": "141",
                "addr:teryt:simc": 680207,
                "phone": "+48 257982802",
                "email": "zalesieluk@poczta.onet.pl",
                "website": "http:\/\/www.zalesie.gminalukow.pl",
                "ref:regon": "001125092",
                "ref:vatin": "PL8251737587",
                "operator": "Gmina \u0141uk\u00f3w",
                "operator:type": "government",
                "amenity": "school",
                "note": "Parent RSPO: 72635"
            }
        },
        {
            "id": 89812,
            "type": "Feature",
            "geometry": {
                "type": "Point",
                "coordinates": [
                    22.3392,
                    51.937760000000004
                ]
            },
            "properties": {
                "ref:rspo": 89812,
                "official_name": "Przedszkole w Zalesiu",
                "name": "Przedszkole w Zalesiu",
                "addr:postcode": "21-400",
                "addr:place": "Zalesie",
                "addr:housenumber": "141",
                "addr:teryt:simc": 680207,
                "phone": "+48 257982802",
                "email": "zalesieluk@poczta.onet.pl",
                "website": "http:\/\/www.zalesie.gminalukow.pl",
                "ref:regon": "061180902",
                "operator": "Gmina \u0141uk\u00f3w",
                "operator:type": "government",
                "amenity": "kindergarten",
                "note": "Parent RSPO: 72635"
            }
        },
        {
            "id": 72643,
            "type": "Feature",
            "geometry": {
                "type": "Point",
                "coordinates": [
                    22.36906,
                    51.95815
                ]
            },
            "properties": {
                "ref:rspo": 72643,
                "official_name": "Zesp\u00f3\u0142 Szk\u00f3\u0142 w Go\u0142aszynie",
                "name": "Zesp\u00f3\u0142 Szk\u00f3\u0142 w Go\u0142aszynie",
                "addr:postcode": "21-400",
                "addr:place": "Go\u0142aszyn",
                "addr:housenumber": "29",
                "addr:teryt:simc": 679411,
                "phone": "+48 257982886",
                "email": "zsgolaszyn@gmail.com",
                "website": "http:\/\/www.golaszyn.gminalukow.pl",
                "ref:regon": "061152685",
                "ref:vatin": "PL8252166879",
                "operator": "Gmina \u0141uk\u00f3w",
                "operator:type": "government",
                "landuse": "education",
                "fixme": "amenity=school, amenity=college albo landuse=education w zale\u017cno\u015bci od tego, jakie plac\u00f3wki wchodz\u0105 w sk\u0142ad zespo\u0142u. Sprawd\u017a, kiedy stosowa\u0107 amenity=* a kiedy landuse=education.",
                "note": "Children RSPO: 89774;89775"
            }
        },
        {
            "id": 89774,
            "type": "Feature",
            "geometry": {
                "type": "Point",
                "coordinates": [
                    22.36906,
                    51.95812
                ]
            },
            "properties": {
                "isced:level": "1;2",
                "ref:rspo": 89774,
                "official_name": "Szko\u0142a Podstawowa im. Kornela Makuszy\u0144skiego w Go\u0142aszynie",
                "name": "Szko\u0142a Podstawowa",
                "addr:postcode": "21-400",
                "addr:place": "Go\u0142aszyn",
                "addr:housenumber": "29",
                "addr:teryt:simc": 679411,
                "phone": "+48 257982886",
                "email": "zsgolaszyn@gmail.com",
                "website": "http:\/\/www.golaszyn.gminalukow.pl",
                "ref:regon": "001125086",
                "ref:vatin": "PL8251442544",
                "operator": "Gmina \u0141uk\u00f3w",
                "operator:type": "government",
                "amenity": "school",
                "note": "Parent RSPO: 72643"
            }
        },
        {
            "id": 89775,
            "type": "Feature",
            "geometry": {
                "type": "Point",
                "coordinates": [
                    22.36906,
                    51.958090000000006
                ]
            },
            "properties": {
                "ref:rspo": 89775,
                "official_name": "Przedszkole w Go\u0142aszynie",
                "name": "Przedszkole w Go\u0142aszynie",
                "addr:postcode": "21-400",
                "addr:place": "Go\u0142aszyn",
                "addr:housenumber": "29",
                "addr:teryt:simc": 679411,
                "phone": "+48 257982886",
                "email": "zsgolaszyn@gmail.com",
                "website": "http:\/\/www.golaszyn.gminalukow.pl",
                "ref:regon": "061152716",
                "operator": "Gmina \u0141uk\u00f3w",
                "operator:type": "government",
                "amenity": "kindergarten",
                "note": "Parent RSPO: 72643"
            }
        },
        {
            "id": 118846,
            "type": "Feature",
            "geometry": {
                "type": "Point",
                "coordinates": [
                    22.41527,
                    51.97239
                ]
            },
            "properties": {
                "ref:rspo": 118846,
                "official_name": "Zesp\u00f3\u0142 Szk\u00f3\u0142 w Rolach",
                "name": "Zesp\u00f3\u0142 Szk\u00f3\u0142 w Rolach",
                "addr:postcode": "21-400",
                "addr:place": "Role",
                "addr:housenumber": "114",
                "addr:teryt:simc": 679842,
                "phone": "+48 257960873",
                "email": "sp_role@poczta.onet.pl",
                "website": "http:\/\/www.role.gminalukow.pl\/",
                "ref:regon": "061589985",
                "ref:vatin": "PL8252172986",
                "operator": "Gmina \u0141uk\u00f3w",
                "operator:type": "government",
                "landuse": "education",
                "fixme": "amenity=school, amenity=college albo landuse=education w zale\u017cno\u015bci od tego, jakie plac\u00f3wki wchodz\u0105 w sk\u0142ad zespo\u0142u. Sprawd\u017a, kiedy stosowa\u0107 amenity=* a kiedy landuse=education.",
                "note": "Children RSPO: 89802;119656"
            }
        },
        {
            "id": 89802,
            "type": "Feature",
            "geometry": {
                "type": "Point",
                "coordinates": [
                    22.41527,
                    51.972359999999995
                ]
            },
            "properties": {
                "isced:level": "1;2",
                "ref:rspo": 89802,
                "official_name": "Szko\u0142a Podstawowa im. Jana Paw\u0142a II w Rolach",
                "name": "Szko\u0142a Podstawowa",
                "addr:postcode": "21-400",
                "addr:place": "Role",
                "addr:housenumber": "114",
                "addr:teryt:simc": 679842,
                "phone": "+48 257960873",
                "email": "sp_role@poczta.onet.pl",
                "website": "http:\/\/www.role.gminalukow.pl",
                "ref:regon": "001125040",
                "ref:vatin": "PL8251448357",
                "operator": "Gmina \u0141uk\u00f3w",
                "operator:type": "government",
                "amenity": "school",
                "note": "Parent RSPO: 118846"
            }
        },
        {
            "id": 119656,
            "type": "Feature",
            "geometry": {
                "type": "Point",
                "coordinates": [
                    22.41527,
                    51.97233
                ]
            },
            "properties": {
                "ref:rspo": 119656,
                "official_name": "Przedszkole w Rolach",
                "name": "Przedszkole w Rolach",
                "addr:postcode": "21-400",
                "addr:place": "Role",
                "addr:housenumber": "114",
                "addr:teryt:simc": 679842,
                "phone": "+48 257960873",
                "email": "sp_role@poczta.onet.pl",
                "website": "http:\/\/www.role.gminalukow.pl\/",
                "ref:regon": "061598435",
                "operator": "Gmina \u0141uk\u00f3w",
                "operator:type": "government",
                "amenity": "kindergarten",
                "note": "Parent RSPO: 118846"
            }
        },
        {
            "id": 72994,
            "type": "Feature",
            "geometry": {
                "type": "Point",
                "coordinates": [
                    22.2970798,
                    51.9931331
                ]
            },
            "properties": {
                "ref:rspo": 72994,
                "official_name": "Zesp\u00f3\u0142 Szk\u00f3\u0142 w Gr\u0119z\u00f3wce",
                "name": "Zesp\u00f3\u0142 Szk\u00f3\u0142 w Gr\u0119z\u00f3wce",
                "addr:postcode": "21-400",
                "addr:place": "Gr\u0119z\u00f3wka",
                "addr:housenumber": "41",
                "addr:teryt:simc": 679457,
                "phone": "+48 257981524",
                "email": "zsgrezowka@interia.pl",
                "website": "http:\/\/www.grezowka.gminalukow.pl",
                "ref:regon": "060020131",
                "ref:vatin": "PL8252119035",
                "operator": "Gmina \u0141uk\u00f3w",
                "operator:type": "government",
                "landuse": "education",
                "fixme": "amenity=school, amenity=college albo landuse=education w zale\u017cno\u015bci od tego, jakie plac\u00f3wki wchodz\u0105 w sk\u0142ad zespo\u0142u. Sprawd\u017a, kiedy stosowa\u0107 amenity=* a kiedy landuse=education.",
                "note": "Children RSPO: 92223;92224"
            }
        },
        {
            "id": 92223,
            "type": "Feature",
            "geometry": {
                "type": "Point",
                "coordinates": [
                    22.2970798,
                    51.9931031
                ]
            },
            "properties": {
                "ref:rspo": 92223,
                "official_name": "Przedszkole w Gr\u0119z\u00f3wce",
                "name": "Przedszkole w Gr\u0119z\u00f3wce",
                "addr:postcode": "21-400",
                "addr:place": "Gr\u0119z\u00f3wka",
                "addr:housenumber": "41",
                "addr:teryt:simc": 679457,
                "phone": "+48 257981524",
                "email": "zsgrezowka@interia.pl",
                "website": "http:\/\/www.grezowka.gminalukow.pl",
                "ref:regon": "710006852",
                "ref:vatin": "PL8251784629",
                "operator": "Gmina \u0141uk\u00f3w",
                "operator:type": "government",
                "amenity": "kindergarten",
                "note": "Parent RSPO: 72994"
            }
        },
        {
            "id": 92224,
            "type": "Feature",
            "geometry": {
                "type": "Point",
                "coordinates": [
                    22.2970798,
                    51.993073100000004
                ]
            },
            "properties": {
                "isced:level": "1;2",
                "ref:rspo": 92224,
                "official_name": "Szko\u0142a Podstawowa w Gr\u0119z\u00f3wce",
                "name": "Szko\u0142a Podstawowa w Gr\u0119z\u00f3wce",
                "addr:postcode": "21-400",
                "addr:place": "Gr\u0119z\u00f3wka",
                "addr:housenumber": "41",
                "addr:teryt:simc": 679457,
                "phone": "+48 257981524",
                "email": "zsgrezowka@interia.pl",
                "website": "http:\/\/www.grezowka.gminalukow.pl",
                "ref:regon": "001125063",
                "ref:vatin": "PL8251784500",
                "operator": "Gmina \u0141uk\u00f3w",
                "operator:type": "government",
                "amenity": "school",
                "note": "Parent RSPO: 72994"
            }
        },
        {
            "id": 89801,
            "type": "Feature",
            "geometry": {
                "type": "Point",
                "coordinates": [
                    22.4019,
                    52.00126
                ]
            },
            "properties": {
                "ref:rspo": 89801,
                "official_name": "Zesp\u00f3\u0142 Szk\u00f3\u0142 w Krynce",
                "name": "Zesp\u00f3\u0142 Szk\u00f3\u0142 w Krynce",
                "addr:postcode": "21-400",
                "addr:place": "Krynka",
                "addr:housenumber": "250",
                "addr:teryt:simc": 679687,
                "phone": "+48 257975834",
                "email": "krynka@poczta.onet.eu",
                "website": "http:\/\/www.krynka.edupage.org",
                "ref:regon": "060020438",
                "ref:vatin": "PL8252169719",
                "operator": "Gmina \u0141uk\u00f3w",
                "operator:type": "government",
                "landuse": "education",
                "fixme": "amenity=school, amenity=college albo landuse=education w zale\u017cno\u015bci od tego, jakie plac\u00f3wki wchodz\u0105 w sk\u0142ad zespo\u0142u. Sprawd\u017a, kiedy stosowa\u0107 amenity=* a kiedy landuse=education.",
                "note": "Children RSPO: 104201;109062"
            }
        },
        {
            "id": 104201,
            "type": "Feature",
            "geometry": {
                "type": "Point",
                "coordinates": [
                    22.4019,
                    52.00123
                ]
            },
            "properties": {
                "isced:level": "1;2",
                "ref:rspo": 104201,
                "official_name": "Szko\u0142a Podstawowa w Krynce",
                "name": "Szko\u0142a Podstawowa w Krynce",
                "addr:postcode": "21-400",
                "addr:place": "Krynka",
                "addr:housenumber": "250",
                "addr:teryt:simc": 679687,
                "phone": "+48 257975834",
                "email": "wojsob@poczta.onet.pl",
                "website": "http:\/\/www.krynka.edupage.org",
                "ref:regon": "001125057",
                "ref:vatin": "PL8251442722",
                "operator": "Gmina \u0141uk\u00f3w",
                "operator:type": "government",
                "amenity": "school",
                "note": "Parent RSPO: 89801"
            }
        },
        {
            "id": 109062,
            "type": "Feature",
            "geometry": {
                "type": "Point",
                "coordinates": [
                    22.4019,
                    52.001200000000004
                ]
            },
            "properties": {
                "ref:rspo": 109062,
                "official_name": "Przedszkole w Krynce",
                "name": "Przedszkole w Krynce",
                "addr:postcode": "21-400",
                "addr:place": "Krynka",
                "addr:housenumber": "250",
                "addr:teryt:simc": 679687,
                "phone": "+48 257975834",
                "email": "wojsob@poczta.onet.pl",
                "website": "http:\/\/wwww.krynka.home.pl",
                "ref:regon": "061337344",
                "operator": "Gmina \u0141uk\u00f3w",
                "operator:type": "government",
                "amenity": "kindergarten",
                "note": "Parent RSPO: 89801"
            }
        }
    ]
}