{
    "type": "FeatureCollection",
    "features": [
        {
            "id": 7635,
            "type": "Feature",
            "geometry": {
                "type": "Point",
                "coordinates": [
                    22.36066,
                    51.92156
                ]
            },
            "properties": {
                "isced:level": "3",
                "ref:rspo": 7635,
                "official_name": "Rzemie\u015blnicza Bran\u017cowa Szko\u0142a I Stopnia w \u0141ukowie",
                "name": "Rzemie\u015blnicza Bran\u017cowa Szko\u0142a I Stopnia w \u0141ukowie",
                "addr:postcode": "21-400",
                "addr:city": "\u0141uk\u00f3w",
                "addr:street": "\u017belechowska",
                "addr:housenumber": "21",
                "addr:city:simc": 975530,
                "addr:street:sym_ul": 26440,
                "phone": "+48 257981373",
                "email": "rzszz@wp.pl",
                "website": "http:\/\/www.rszlukow.ns48.pl",
                "ref:regon": "061453694",
                "operator": "Cech Rzemios\u0142 R\u00f3\u017cnych W \u0141ukowie",
                "operator:type": "ngo",
                "amenity": "school"
            }
        },
        {
            "id": 28216,
            "type": "Feature",
            "geometry": {
                "type": "Point",
                "coordinates": [
                    22.3646299,
                    51.92162
                ]
            },
            "properties": {
                "ref:rspo": 28216,
                "official_name": "Niepubliczne Przedszkole J\u0119zykowo - Sportowe \"Bajkowy Raj\" z Oddzia\u0142ami Integracyjnymi",
                "name": "Niepubliczne Przedszkole J\u0119zykowo - Sportowe \"Bajkowy Raj\" z Oddzia\u0142ami Integracyjnymi",
                "addr:postcode": "21-400",
                "addr:city": "\u0141uk\u00f3w",
                "addr:street": "Pana Tadeusza",
                "addr:housenumber": "7",
                "addr:city:simc": 975530,
                "addr:street:sym_ul": 15611,
                "phone": "+48 509407188",
                "email": "marek.tarsiuk@wp.pl",
                "ref:regon": "061470563",
                "ref:vatin": "PL8251417109",
                "operator": "Marek Tarasiuk",
                "operator:type": "private",
                "amenity": "kindergarten"
            }
        },
        {
            "id": 31019,
            "type": "Feature",
            "geometry": {
                "type": "Point",
                "coordinates": [
                    22.38344,
                    51.92248
                ]
            },
            "properties": {
                "ref:rspo": 31019,
                "official_name": "Niepubliczne Przedszkole \"Ja\u015b I Ma\u0142gosia\", Agnieszka Go\u0142\u0119gowska 21-400 \u0141uk\u00f3w, Ul. Spokojna 12",
                "name": "Niepubliczne Przedszkole \"Ja\u015b I Ma\u0142gosia\", Agnieszka Go\u0142\u0119gowska 21-400 \u0141uk\u00f3w, Ul. Spokojna 12",
                "addr:postcode": "21-400",
                "addr:city": "\u0141uk\u00f3w",
                "addr:street": "Spokojna",
                "addr:housenumber": "12",
                "addr:city:simc": 975530,
                "addr:street:sym_ul": 20677,
                "phone": "+48 514682871",
                "email": "przedszkolejim@wp.pl",
                "website": "http:\/\/www.lukow.przedszkolejim.pl",
                "ref:regon": "061471924",
                "ref:vatin": "PL8251700762",
                "operator": "Agnieszka Go\u0142\u0119gowska",
                "operator:type": "private",
                "amenity": "kindergarten"
            }
        },
        {
            "id": 48962,
            "type": "Feature",
            "geometry": {
                "type": "Point",
                "coordinates": [
                    22.37162,
                    51.92266
                ]
            },
            "properties": {
                "ref:rspo": 48962,
                "official_name": "Niepubliczne Przedszkole Integracyjne",
                "name": "Niepubliczne Przedszkole Integracyjne",
                "addr:postcode": "21-400",
                "addr:city": "\u0141uk\u00f3w",
                "addr:street": "Stefana \u017beromskiego",
                "addr:housenumber": "23",
                "addr:city:simc": 975530,
                "addr:street:sym_ul": 26469,
                "email": "przedszkole.integracja.terapia@gmail.com",
                "website": "http:\/\/www.dziecko.lukow.pl",
                "ref:regon": "061477074",
                "ref:vatin": "PL8251938624",
                "operator": "O\u015brodek Terapeutyczny Km Jakubiak Sp\u00f3\u0142ka Z Ograniczon\u0105 Odpowiedzialno\u015bci\u0105",
                "operator:type": "private",
                "amenity": "kindergarten"
            }
        },
        {
            "id": 5686,
            "type": "Feature",
            "geometry": {
                "type": "Point",
                "coordinates": [
                    22.37579,
                    51.92274
                ]
            },
            "properties": {
                "isced:level": "3",
                "ref:rspo": 5686,
                "official_name": "Iv Liceum Og\u00f3lnokszta\u0142c\u0105ce im. Jana Paw\u0142a II w \u0141ukowie",
                "name": "Iv Liceum Og\u00f3lnokszta\u0142c\u0105ce",
                "addr:postcode": "21-400",
                "addr:city": "\u0141uk\u00f3w",
                "addr:street": "Adama Antoniego Kry\u0144skiego",
                "addr:housenumber": "10",
                "addr:city:simc": 975530,
                "addr:street:sym_ul": 10070,
                "phone": "+48 257982639",
                "email": "4lolukow@wp.pl",
                "ref:regon": "710057246",
                "operator": "Powiat \u0141ukowski",
                "operator:type": "government",
                "amenity": "school"
            }
        },
        {
            "id": 59946,
            "type": "Feature",
            "geometry": {
                "type": "Point",
                "coordinates": [
                    22.37579,
                    51.922709999999995
                ]
            },
            "properties": {
                "isced:level": "4",
                "ref:rspo": 59946,
                "official_name": "Szko\u0142a Policealna - Medyczne Studium Zawodowe im. Janusza Korczaka w \u0141ukowie",
                "name": "Szko\u0142a Policealna - Medyczne Studium Zawodowe",
                "addr:postcode": "21-400",
                "addr:city": "\u0141uk\u00f3w",
                "addr:street": "Adama Antoniego Kry\u0144skiego",
                "addr:housenumber": "10",
                "addr:city:simc": 975530,
                "addr:street:sym_ul": 10070,
                "phone": "+48 257982639",
                "email": "sekretariat@mszlukow.pl",
                "website": "http:\/\/www.sp.mszlukow.pl",
                "ref:regon": "000290239",
                "ref:vatin": "PL8251042365",
                "operator": "Wojew\u00f3dztwo Lubelskie",
                "operator:type": "government",
                "amenity": "college"
            }
        },
        {
            "id": 11495,
            "type": "Feature",
            "geometry": {
                "type": "Point",
                "coordinates": [
                    22.38103,
                    51.92302
                ]
            },
            "properties": {
                "ref:rspo": 11495,
                "official_name": "Zesp\u00f3\u0142 Szkolno - Przedszkolny w \u0141ukowie",
                "name": "Zesp\u00f3\u0142 Szkolno - Przedszkolny w \u0141ukowie",
                "addr:postcode": "21-400",
                "addr:city": "\u0141uk\u00f3w",
                "addr:street": "Partyzant\u00f3w",
                "addr:housenumber": "15",
                "addr:city:simc": 975530,
                "addr:street:sym_ul": 15733,
                "phone": "+48 257983357",
                "email": "zsp@um.lukow.pl",
                "ref:regon": "061457002",
                "operator": "Miasto \u0141uk\u00f3w",
                "operator:type": "government",
                "landuse": "education",
                "fixme": "amenity=school, amenity=college albo landuse=education w zale\u017cno\u015bci od tego, jakie plac\u00f3wki wchodz\u0105 w sk\u0142ad zespo\u0142u. Sprawd\u017a, kiedy stosowa\u0107 amenity=* a kiedy landuse=education.",
                "note": "Children RSPO: 19301;19302"
            }
        },
        {
            "id": 19301,
            "type": "Feature",
            "geometry": {
                "type": "Point",
                "coordinates": [
                    22.38103,
                    51.92299
                ]
            },
            "properties": {
                "isced:level": "1;2",
                "ref:rspo": 19301,
                "official_name": "Szko\u0142a Podstawowa nr 1 w \u0141ukowie",
                "name": "Szko\u0142a Podstawowa nr 1 w \u0141ukowie",
                "addr:postcode": "21-400",
                "addr:city": "\u0141uk\u00f3w",
                "addr:street": "Partyzant\u00f3w",
                "addr:housenumber": "15",
                "addr:city:simc": 975530,
                "addr:street:sym_ul": 15733,
                "phone": "+48 257983357",
                "email": "zsp@um.lukow.pl",
                "ref:regon": "000267967",
                "ref:vatin": "PL8251011614",
                "operator": "Miasto \u0141uk\u00f3w",
                "operator:type": "government",
                "amenity": "school",
                "note": "Parent RSPO: 11495"
            }
        },
        {
            "id": 19302,
            "type": "Feature",
            "geometry": {
                "type": "Point",
                "coordinates": [
                    22.38103,
                    51.92296
                ]
            },
            "properties": {
                "ref:rspo": 19302,
                "official_name": "Przedszkole Miejskie nr 6 w \u0141ukowie",
                "name": "Przedszkole Miejskie nr 6 w \u0141ukowie",
                "addr:postcode": "21-400",
                "addr:city": "\u0141uk\u00f3w",
                "addr:street": "Partyzant\u00f3w",
                "addr:housenumber": "15",
                "addr:city:simc": 975530,
                "addr:street:sym_ul": 15733,
                "phone": "+48 257983357",
                "email": "zsp@um.lukow.pl",
                "ref:regon": "710005479",
                "ref:vatin": "PL8251778505",
                "operator": "Miasto \u0141uk\u00f3w",
                "operator:type": "government",
                "amenity": "kindergarten",
                "note": "Parent RSPO: 11495"
            }
        },
        {
            "id": 125738,
            "type": "Feature",
            "geometry": {
                "type": "Point",
                "coordinates": [
                    22.37538,
                    51.92318
                ]
            },
            "properties": {
                "ref:rspo": 125738,
                "official_name": "Biblioteka Pedagogiczna w Bia\u0142ej Podlaskiej Filia w \u0141ukowie",
                "name": "Biblioteka Pedagogiczna w Bia\u0142ej Podlaskiej Filia w \u0141ukowie",
                "addr:postcode": "21-400",
                "addr:city": "\u0141uk\u00f3w",
                "addr:street": "Adama Antoniego Kry\u0144skiego",
                "addr:housenumber": "12",
                "addr:city:simc": 975530,
                "addr:street:sym_ul": 10070,
                "phone": "+48 257982279",
                "email": "bpfilialukow@bialabp.edu.pl",
                "ref:regon": "302899160",
                "ref:vatin": "PL5372053550",
                "operator": "Wojew\u00f3dztwo Lubelskie",
                "operator:type": "government",
                "amenity": "library",
                "note": "Parent RSPO: 42061"
            }
        },
        {
            "id": 11466,
            "type": "Feature",
            "geometry": {
                "type": "Point",
                "coordinates": [
                    22.38472,
                    51.92367
                ]
            },
            "properties": {
                "ref:rspo": 11466,
                "official_name": "Przedszkole Miejskie nr 7 w \u0141ukowie \"Szcz\u0119\u015bliwa Si\u00f3demka\"",
                "name": "Przedszkole Miejskie nr 7 w \u0141ukowie \"Szcz\u0119\u015bliwa Si\u00f3demka\"",
                "addr:postcode": "21-400",
                "addr:city": "\u0141uk\u00f3w",
                "addr:street": "Osiedle Unit\u00f3w Podlaskich",
                "addr:housenumber": "18",
                "addr:city:simc": 975530,
                "addr:street:sym_ul": 29397,
                "phone": "+48 257986110",
                "email": "p7@um.lukow.pl",
                "ref:regon": "710005410",
                "ref:vatin": "PL8251778480",
                "operator": "Miasto \u0141uk\u00f3w",
                "operator:type": "government",
                "amenity": "kindergarten"
            }
        },
        {
            "id": 6914,
            "type": "Feature",
            "geometry": {
                "type": "Point",
                "coordinates": [
                    22.38642,
                    51.925
                ]
            },
            "properties": {
                "isced:level": "3",
                "ref:rspo": 6914,
                "official_name": "I Liceum Og\u00f3lnokszta\u0142c\u0105ce im.tadeusza Ko\u015bciuszki w \u0141ukowie",
                "name": "I Liceum Og\u00f3lnokszta\u0142c\u0105ce im.tadeusza Ko\u015bciuszki w \u0141ukowie",
                "addr:postcode": "21-400",
                "addr:city": "\u0141uk\u00f3w",
                "addr:street": "Ksi\u0119dza Kardyna\u0142a Stefana Wyszy\u0144skiego",
                "addr:housenumber": "41",
                "addr:city:simc": 975530,
                "addr:street:sym_ul": 25114,
                "phone": "+48 257982925",
                "email": "liceumkos@o2.pl",
                "website": "http:\/\/www.1lo.lukow.pl",
                "ref:regon": "000891252",
                "operator": "Powiat \u0141ukowski",
                "operator:type": "government",
                "amenity": "school"
            }
        },
        {
            "id": 6915,
            "type": "Feature",
            "geometry": {
                "type": "Point",
                "coordinates": [
                    22.38642,
                    51.924969999999995
                ]
            },
            "properties": {
                "ref:rspo": 6915,
                "official_name": "Poradnia Psychologiczno-Pedagogiczna w \u0141ukowie",
                "name": "Poradnia Psychologiczno-Pedagogiczna w \u0141ukowie",
                "addr:postcode": "21-400",
                "addr:city": "\u0141uk\u00f3w",
                "addr:street": "Ksi\u0119dza Kardyna\u0142a Stefana Wyszy\u0144skiego",
                "addr:housenumber": "41",
                "addr:city:simc": 975530,
                "addr:street:sym_ul": 25114,
                "phone": "+48 257982119",
                "email": "ppp_lukow@interia.pl",
                "ref:regon": "030949821",
                "operator": "Powiat \u0141ukowski",
                "operator:type": "government",
                "healthcare": "counselling",
                "counselling_type": "education",
                "fixme": "w zale\u017cno\u015bci od przedmiotu dzia\u0142alno\u015bci (np. healthcare=counselling + counselling_type=education albo healthcare=psychotherapist)"
            }
        },
        {
            "id": 75570,
            "type": "Feature",
            "geometry": {
                "type": "Point",
                "coordinates": [
                    22.38642,
                    51.92494
                ]
            },
            "properties": {
                "ref:rspo": 75570,
                "official_name": "Pa\u0144stwowa Szko\u0142a Muzyczna I St. im. Mieczys\u0142awa Kar\u0142owicza w \u0141ukowie",
                "name": "Pa\u0144stwowa Szko\u0142a Muzyczna I St.",
                "addr:postcode": "21-400",
                "addr:city": "\u0141uk\u00f3w",
                "addr:street": "Ksi\u0119dza Kardyna\u0142a Stefana Wyszy\u0144skiego",
                "addr:housenumber": "41",
                "addr:city:simc": 975530,
                "addr:street:sym_ul": 25114,
                "phone": "+48 256310523",
                "email": "sekretariat@psm.lukow.pl",
                "website": "http:\/\/psm.lukow.pl",
                "ref:regon": "000277859",
                "operator": "Ministerstwo Kultury I Dziedzictwa Narodowego",
                "operator:type": "public",
                "amenity": "music_school"
            }
        },
        {
            "id": 5943,
            "type": "Feature",
            "geometry": {
                "type": "Point",
                "coordinates": [
                    22.36396,
                    51.92561
                ]
            },
            "properties": {
                "ref:rspo": 5943,
                "official_name": "Zesp\u00f3\u0142 Szk\u00f3\u0142 nr 2 im. Aleksandra \u015awi\u0119tochowskiego w \u0141ukowie",
                "name": "Zesp\u00f3\u0142 Szk\u00f3\u0142 nr 2",
                "addr:postcode": "21-400",
                "addr:city": "\u0141uk\u00f3w",
                "addr:street": "Warszawska",
                "addr:housenumber": "88",
                "addr:city:simc": 975530,
                "addr:street:sym_ul": 23682,
                "phone": "+48 257986634",
                "email": "zs2lukow@pzo.lukow.pl",
                "website": "http:\/\/www.zs2.lukow.pl",
                "ref:regon": "710299759",
                "operator": "Powiat \u0141ukowski",
                "operator:type": "government",
                "landuse": "education",
                "fixme": "amenity=school, amenity=college albo landuse=education w zale\u017cno\u015bci od tego, jakie plac\u00f3wki wchodz\u0105 w sk\u0142ad zespo\u0142u. Sprawd\u017a, kiedy stosowa\u0107 amenity=* a kiedy landuse=education.",
                "note": "Children RSPO: 13618;13619;13620;13623;103847;276636"
            }
        },
        {
            "id": 13618,
            "type": "Feature",
            "geometry": {
                "type": "Point",
                "coordinates": [
                    22.36396,
                    51.92558
                ]
            },
            "properties": {
                "isced:level": "3",
                "ref:rspo": 13618,
                "official_name": "Ii Liceum Og\u00f3lnokszta\u0142c\u0105ce w \u0141ukowie",
                "name": "Ii Liceum Og\u00f3lnokszta\u0142c\u0105ce w \u0141ukowie",
                "addr:postcode": "21-400",
                "addr:city": "\u0141uk\u00f3w",
                "addr:street": "Warszawska",
                "addr:housenumber": "88",
                "addr:city:simc": 975530,
                "addr:street:sym_ul": 23682,
                "phone": "+48 257986634",
                "email": "zs2lukow@pzo.lukow.pl",
                "website": "http:\/\/www.zs2.lukow.pl",
                "ref:regon": "711567386",
                "operator": "Powiat \u0141ukowski",
                "operator:type": "government",
                "amenity": "school",
                "note": "Parent RSPO: 5943"
            }
        },
        {
            "id": 13619,
            "type": "Feature",
            "geometry": {
                "type": "Point",
                "coordinates": [
                    22.36396,
                    51.92555
                ]
            },
            "properties": {
                "isced:level": "3",
                "ref:rspo": 13619,
                "official_name": "Technikum nr 2 w \u0141ukowie",
                "name": "Technikum nr 2 w \u0141ukowie",
                "addr:postcode": "21-400",
                "addr:city": "\u0141uk\u00f3w",
                "addr:street": "Warszawska",
                "addr:housenumber": "88",
                "addr:city:simc": 975530,
                "addr:street:sym_ul": 23682,
                "phone": "+48 257986634",
                "email": "zs2lukow@pzo.lukow.pl",
                "website": "http:\/\/www.zs2.lukow.pl",
                "ref:regon": "030311432",
                "operator": "Powiat \u0141ukowski",
                "operator:type": "government",
                "amenity": "school",
                "note": "Parent RSPO: 5943"
            }
        },
        {
            "id": 13620,
            "type": "Feature",
            "geometry": {
                "type": "Point",
                "coordinates": [
                    22.36396,
                    51.92552
                ]
            },
            "properties": {
                "isced:level": "3",
                "ref:rspo": 13620,
                "official_name": "Bran\u017cowa Szko\u0142a I Stopnia nr 2 z Oddzia\u0142ami Integracyjnymi w \u0141ukowie",
                "name": "Bran\u017cowa Szko\u0142a I Stopnia nr 2 z Oddzia\u0142ami Integracyjnymi w \u0141ukowie",
                "addr:postcode": "21-400",
                "addr:city": "\u0141uk\u00f3w",
                "addr:street": "Warszawska",
                "addr:housenumber": "88",
                "addr:city:simc": 975530,
                "addr:street:sym_ul": 23682,
                "phone": "+48 257986634",
                "email": "zs2lukow@pzo.lukow.pl",
                "website": "http:\/\/www.zs2.lukow.pl",
                "ref:regon": "030311449",
                "operator": "Powiat \u0141ukowski",
                "operator:type": "government",
                "amenity": "school",
                "note": "Parent RSPO: 5943"
            }
        },
        {
            "id": 13623,
            "type": "Feature",
            "geometry": {
                "type": "Point",
                "coordinates": [
                    22.36396,
                    51.925489999999996
                ]
            },
            "properties": {
                "isced:level": "4",
                "ref:rspo": 13623,
                "official_name": "Szko\u0142a Policealna nr 2 w \u0141ukowie",
                "name": "Szko\u0142a Policealna nr 2 w \u0141ukowie",
                "addr:postcode": "21-400",
                "addr:city": "\u0141uk\u00f3w",
                "addr:street": "Warszawska",
                "addr:housenumber": "88",
                "addr:city:simc": 975530,
                "addr:street:sym_ul": 23682,
                "phone": "+48 257986634",
                "email": "zs2lukow@pzo.lukow.pl",
                "ref:regon": "060058270",
                "operator": "Powiat \u0141ukowski",
                "operator:type": "government",
                "amenity": "college",
                "note": "Parent RSPO: 5943"
            }
        },
        {
            "id": 103847,
            "type": "Feature",
            "geometry": {
                "type": "Point",
                "coordinates": [
                    22.36396,
                    51.92546
                ]
            },
            "properties": {
                "isced:level": "3",
                "ref:rspo": 103847,
                "official_name": "Liceum Og\u00f3lnokszta\u0142c\u0105ce nr 2 dla Doros\u0142ych w Zespole Szk\u00f3\u0142 nr 2 w \u0141ukowie",
                "name": "Liceum Og\u00f3lnokszta\u0142c\u0105ce nr 2 dla Doros\u0142ych w Zespole Szk\u00f3\u0142 nr 2 w \u0141ukowie",
                "addr:postcode": "21-400",
                "addr:city": "\u0141uk\u00f3w",
                "addr:street": "Warszawska",
                "addr:housenumber": "88",
                "addr:city:simc": 975530,
                "addr:street:sym_ul": 23682,
                "phone": "+48 257986634",
                "email": "zs2lukow@pzo.lukow.pl",
                "website": "http:\/\/www.zs2.lukow.pl",
                "ref:regon": "061502139",
                "operator": "Powiat \u0141ukowski",
                "operator:type": "government",
                "amenity": "school",
                "note": "Parent RSPO: 5943"
            }
        },
        {
            "id": 276636,
            "type": "Feature",
            "geometry": {
                "type": "Point",
                "coordinates": [
                    22.36396,
                    51.92543
                ]
            },
            "properties": {
                "isced:level": "3",
                "ref:rspo": 276636,
                "official_name": "Bran\u017cowa Szko\u0142a II Stopnia nr 2 w \u0141ukowie",
                "name": "Bran\u017cowa Szko\u0142a II Stopnia nr 2 w \u0141ukowie",
                "addr:postcode": "21-400",
                "addr:city": "\u0141uk\u00f3w",
                "addr:street": "Warszawska",
                "addr:housenumber": "88",
                "addr:city:simc": 975530,
                "addr:street:sym_ul": 23682,
                "phone": "+48 257986634",
                "email": "zs2lukow@pzo.lukow.pl",
                "website": "http:\/\/www.zs2.lukow.pl",
                "ref:regon": "387327037",
                "operator": "Powiat \u0141ukowski",
                "operator:type": "government",
                "amenity": "school",
                "note": "Parent RSPO: 5943"
            }
        },
        {
            "id": 25977,
            "type": "Feature",
            "geometry": {
                "type": "Point",
                "coordinates": [
                    22.38779,
                    51.92593
                ]
            },
            "properties": {
                "isced:level": "3",
                "ref:rspo": 25977,
                "official_name": "Liceum Og\u00f3lnokszta\u0142c\u0105ce dla Doros\u0142ych Edukacji Innowacyjnej w \u0141ukowie",
                "name": "Liceum Og\u00f3lnokszta\u0142c\u0105ce dla Doros\u0142ych Edukacji Innowacyjnej w \u0141ukowie",
                "addr:postcode": "21-400",
                "addr:city": "\u0141uk\u00f3w",
                "addr:street": "Cieszkowizna",
                "addr:housenumber": "13",
                "addr:city:simc": 975530,
                "addr:street:sym_ul": 3053,
                "phone": "+48 257983050",
                "email": "lukow@sei.ipt.pl",
                "website": "http:\/\/www.sei.edu.pl",
                "ref:regon": "061469614",
                "operator": "Instytut Post\u0119powania Tw\u00f3rczego Sp\u00f3\u0142ka Z Ograniczon\u0105 Odpowiedzialno\u015bci\u0105",
                "operator:type": "private",
                "amenity": "school"
            }
        },
        {
            "id": 119220,
            "type": "Feature",
            "geometry": {
                "type": "Point",
                "coordinates": [
                    22.38779,
                    51.9259
                ]
            },
            "properties": {
                "isced:level": "4",
                "ref:rspo": 119220,
                "official_name": "Policealna Szko\u0142a Edukacji Innowacyjnej w \u0141ukowie",
                "name": "Policealna Szko\u0142a Edukacji Innowacyjnej w \u0141ukowie",
                "addr:postcode": "21-400",
                "addr:city": "\u0141uk\u00f3w",
                "addr:street": "Cieszkowizna",
                "addr:housenumber": "13",
                "addr:city:simc": 975530,
                "addr:street:sym_ul": 3053,
                "phone": "+48 257983050",
                "email": "lukow@sei.ipt.pl",
                "website": "http:\/\/www.sei.edu.pl",
                "ref:regon": "061596100",
                "operator": "Instytut Post\u0119powania Tw\u00f3rczego Sp\u00f3\u0142ka Z Ograniczon\u0105 Odpowiedzialno\u015bci\u0105",
                "operator:type": "private",
                "amenity": "college"
            }
        },
        {
            "id": 262528,
            "type": "Feature",
            "geometry": {
                "type": "Point",
                "coordinates": [
                    22.38779,
                    51.92587
                ]
            },
            "properties": {
                "isced:level": "1;2",
                "ref:rspo": 262528,
                "official_name": "Szko\u0142a Podstawowa nr 2 z Oddzia\u0142ami Dwuj\u0119zycznymi",
                "name": "Szko\u0142a Podstawowa nr 2 z Oddzia\u0142ami Dwuj\u0119zycznymi",
                "addr:postcode": "21-400",
                "addr:city": "\u0141uk\u00f3w",
                "addr:street": "Cieszkowizna",
                "addr:housenumber": "13",
                "addr:city:simc": 975530,
                "addr:street:sym_ul": 3053,
                "phone": "+48 257982765",
                "email": "sp2@um.lukow.pl",
                "website": "http:\/\/sp2.lukow.pl",
                "ref:regon": "368029323",
                "operator": "Miasto \u0141uk\u00f3w",
                "operator:type": "government",
                "amenity": "school"
            }
        },
        {
            "id": 11461,
            "type": "Feature",
            "geometry": {
                "type": "Point",
                "coordinates": [
                    22.382720947266,
                    51.927291870117
                ]
            },
            "properties": {
                "ref:rspo": 11461,
                "official_name": "Przedszkole Integracyjne nr 1 w \u0141ukowie",
                "name": "Przedszkole Integracyjne nr 1 w \u0141ukowie",
                "addr:postcode": "21-400",
                "addr:city": "\u0141uk\u00f3w",
                "addr:street": "Ksi\u0119dza Doktora Mariana Bednarczyka",
                "addr:housenumber": "3",
                "addr:city:simc": 975530,
                "addr:street:sym_ul": 52487,
                "phone": "+48 257983435",
                "email": "p1@um.lukow.pl",
                "ref:regon": "710005440",
                "ref:vatin": "PL8251778557",
                "operator": "Miasto \u0141uk\u00f3w",
                "operator:type": "government",
                "amenity": "kindergarten"
            }
        },
        {
            "id": 91903,
            "type": "Feature",
            "geometry": {
                "type": "Point",
                "coordinates": [
                    22.38196,
                    51.92872
                ]
            },
            "properties": {
                "isced:level": "3",
                "ref:rspo": 91903,
                "official_name": "Liceum Og\u00f3lnokszta\u0142c\u0105ce dla Doros\u0142ych w \u0141ukowie",
                "name": "Liceum Og\u00f3lnokszta\u0142c\u0105ce dla Doros\u0142ych w \u0141ukowie",
                "addr:postcode": "21-400",
                "addr:city": "\u0141uk\u00f3w",
                "addr:street": "Eugeniusza Kwiatkowskiego",
                "addr:housenumber": "4",
                "addr:city:simc": 975530,
                "addr:street:sym_ul": 10559,
                "phone": "+48 257972088",
                "email": "lukow.zdz@zdzbp.pl",
                "ref:regon": "061494960",
                "operator": "Zak\u0142ad Doskonalenia Zawodowego W Lublinie",
                "operator:type": "ngo",
                "amenity": "school"
            }
        },
        {
            "id": 104050,
            "type": "Feature",
            "geometry": {
                "type": "Point",
                "coordinates": [
                    22.38196,
                    51.928689999999996
                ]
            },
            "properties": {
                "isced:level": "4",
                "ref:rspo": 104050,
                "official_name": "Policealne Studium Zawodowe Zak\u0142adu Dokskonalenia Zawodowego w \u0141ukowie",
                "name": "Policealne Studium Zawodowe Zak\u0142adu Dokskonalenia Zawodowego w \u0141ukowie",
                "addr:postcode": "21-400",
                "addr:city": "\u0141uk\u00f3w",
                "addr:street": "Eugeniusza Kwiatkowskiego",
                "addr:housenumber": "4",
                "addr:city:simc": 975530,
                "addr:street:sym_ul": 10559,
                "phone": "+48 257972088",
                "email": "lukow.zdz@zdzbp.pl",
                "ref:regon": "061504470",
                "operator": "Zak\u0142ad Doskonalenia Zawodowego W Lublinie",
                "operator:type": "ngo",
                "amenity": "college"
            }
        },
        {
            "id": 107692,
            "type": "Feature",
            "geometry": {
                "type": "Point",
                "coordinates": [
                    22.38196,
                    51.92866
                ]
            },
            "properties": {
                "ref:rspo": 107692,
                "official_name": "Zak\u0142ad Doskonalenia Zawodowego w Lublinie Oddzia\u0142 w Bialej Podlaskiej O\u015brodek Kszta\u0142cenia Zawodowego w \u0141ukowie",
                "name": "Zak\u0142ad Doskonalenia Zawodowego w Lublinie Oddzia\u0142 w Bialej Podlaskiej O\u015brodek Kszta\u0142cenia Zawodowego w \u0141ukowie",
                "addr:postcode": "21-400",
                "addr:city": "\u0141uk\u00f3w",
                "addr:street": "Eugeniusza Kwiatkowskiego",
                "addr:housenumber": "4",
                "addr:city:simc": 975530,
                "addr:street:sym_ul": 10559,
                "phone": "+48 257972088",
                "email": "lukow.zdz@zdzbp.pl",
                "ref:regon": "061513189",
                "operator": "Zak\u0142ad Doskonalenia Zawodowego W Lublinie",
                "operator:type": "ngo",
                "fixme": "w zale\u017cno\u015bci od przedmiotu dzia\u0142alno\u015bci (np. amenity=training + training=*, amenity=dancing_school, amenity=language_school, amenity=music_school)"
            }
        },
        {
            "id": 11462,
            "type": "Feature",
            "geometry": {
                "type": "Point",
                "coordinates": [
                    22.37873,
                    51.93134
                ]
            },
            "properties": {
                "ref:rspo": 11462,
                "official_name": "Przedszkole Miejskie nr 2 w \u0141ukowie",
                "name": "Przedszkole Miejskie nr 2 w \u0141ukowie",
                "addr:postcode": "21-400",
                "addr:city": "\u0141uk\u00f3w",
                "addr:street": "J\u00f3zefa Pi\u0142sudskiego",
                "addr:housenumber": "18",
                "addr:city:simc": 975530,
                "addr:street:sym_ul": 16264,
                "phone": "+48 257982115",
                "email": "p2@um.lukow.pl",
                "ref:regon": "710005396",
                "ref:vatin": "PL8251778540",
                "operator": "Miasto \u0141uk\u00f3w",
                "operator:type": "government",
                "amenity": "kindergarten"
            }
        },
        {
            "id": 6916,
            "type": "Feature",
            "geometry": {
                "type": "Point",
                "coordinates": [
                    22.38739,
                    51.93169
                ]
            },
            "properties": {
                "ref:rspo": 6916,
                "official_name": "Zesp\u00f3\u0142 Plac\u00f3wek w \u0141ukowie",
                "name": "Zesp\u00f3\u0142 Plac\u00f3wek w \u0141ukowie",
                "addr:postcode": "21-400",
                "addr:city": "\u0141uk\u00f3w",
                "addr:street": "Mi\u0119dzyrzecka",
                "addr:housenumber": "70A",
                "addr:city:simc": 975530,
                "addr:street:sym_ul": 12860,
                "phone": "+48 257982772",
                "email": "sekretariat@zsslukow.pl",
                "website": "http:\/\/www.zsslukow.pl",
                "ref:regon": "000200360",
                "operator": "Powiat \u0141ukowski",
                "operator:type": "government",
                "landuse": "education",
                "fixme": "amenity=school, amenity=college albo landuse=education w zale\u017cno\u015bci od tego, jakie plac\u00f3wki wchodz\u0105 w sk\u0142ad zespo\u0142u. Sprawd\u017a, kiedy stosowa\u0107 amenity=* a kiedy landuse=education.",
                "note": "Children RSPO: 22937"
            }
        },
        {
            "id": 91916,
            "type": "Feature",
            "geometry": {
                "type": "Point",
                "coordinates": [
                    22.38739,
                    51.93166
                ]
            },
            "properties": {
                "ref:rspo": 91916,
                "official_name": "Specjalny O\u015brodek Szkolno-Wychowawczy im. Marii Konopnickiej w \u0141ukowie",
                "name": "Specjalny O\u015brodek Szkolno-Wychowawczy",
                "addr:postcode": "21-400",
                "addr:city": "\u0141uk\u00f3w",
                "addr:street": "Mi\u0119dzyrzecka",
                "addr:housenumber": "70a",
                "addr:city:simc": 975530,
                "addr:street:sym_ul": 12860,
                "phone": "+48 257982772",
                "email": "sekretariat@zsslukow.pl",
                "website": "http:\/\/www.zsslukow.pl",
                "ref:regon": "060518368",
                "operator": "Powiat \u0141ukowski",
                "operator:type": "government",
                "amenity": "school",
                "note": "Children RSPO: 110308;111120;111121"
            }
        },
        {
            "id": 22937,
            "type": "Feature",
            "geometry": {
                "type": "Point",
                "coordinates": [
                    22.38739,
                    51.931630000000006
                ]
            },
            "properties": {
                "ref:rspo": 22937,
                "official_name": "O\u015brodek Rewalidacyjno-Wychowawczy im. Marii Konopnickiej w \u0141ukowie",
                "name": "O\u015brodek Rewalidacyjno-Wychowawczy",
                "addr:postcode": "21-400",
                "addr:city": "\u0141uk\u00f3w",
                "addr:street": "Mi\u0119dzyrzecka",
                "addr:housenumber": "70a",
                "addr:city:simc": 975530,
                "addr:street:sym_ul": 12860,
                "phone": "+48 257982772",
                "email": "sekretariat@zsslukow.pl",
                "website": "http:\/\/www.zsslukow.pl",
                "ref:regon": "060663350",
                "operator": "Powiat \u0141ukowski",
                "operator:type": "government",
                "amenity": "school",
                "note": "Parent RSPO: 6916"
            }
        },
        {
            "id": 110308,
            "type": "Feature",
            "geometry": {
                "type": "Point",
                "coordinates": [
                    22.38739,
                    51.9316
                ]
            },
            "properties": {
                "isced:level": "1;2",
                "ref:rspo": 110308,
                "official_name": "Szko\u0142a Podstawowa Specjalna w Sosw w Zp w \u0141ukowie",
                "name": "Szko\u0142a Podstawowa Specjalna w Sosw w Zp w \u0141ukowie",
                "addr:postcode": "21-400",
                "addr:city": "\u0141uk\u00f3w",
                "addr:street": "Mi\u0119dzyrzecka",
                "addr:housenumber": "70A",
                "addr:city:simc": 975530,
                "addr:street:sym_ul": 12860,
                "phone": "+48 257982772",
                "email": "sekretariat@zsslukow.pl",
                "ref:regon": "030308370",
                "operator": "Powiat \u0141ukowski",
                "operator:type": "government",
                "amenity": "school",
                "note": "Parent RSPO: 91916"
            }
        },
        {
            "id": 111120,
            "type": "Feature",
            "geometry": {
                "type": "Point",
                "coordinates": [
                    22.38739,
                    51.93157
                ]
            },
            "properties": {
                "isced:level": "3",
                "ref:rspo": 111120,
                "official_name": "Bran\u017cowa Szko\u0142a I Stopnia Specjalna dla Uczni\u00f3w Niepe\u0142nosprawnych",
                "name": "Bran\u017cowa Szko\u0142a I Stopnia Specjalna dla Uczni\u00f3w Niepe\u0142nosprawnych",
                "addr:postcode": "21-400",
                "addr:city": "\u0141uk\u00f3w",
                "addr:street": "Mi\u0119dzyrzecka",
                "addr:housenumber": "70A",
                "addr:city:simc": 975530,
                "addr:street:sym_ul": 12860,
                "phone": "+48 257982772",
                "email": "sekretariat@zsslukow.pl",
                "ref:regon": "030932447",
                "operator": "Powiat \u0141ukowski",
                "operator:type": "government",
                "amenity": "school",
                "note": "Parent RSPO: 91916"
            }
        },
        {
            "id": 111121,
            "type": "Feature",
            "geometry": {
                "type": "Point",
                "coordinates": [
                    22.38739,
                    51.931540000000005
                ]
            },
            "properties": {
                "ref:rspo": 111121,
                "official_name": "Szko\u0142a Specjalna Przysposabiaj\u0105ca do Pracy w Sosw w Zp w \u0141ukowie",
                "name": "Szko\u0142a Specjalna Przysposabiaj\u0105ca do Pracy w Sosw w Zp w \u0141ukowie",
                "addr:postcode": "21-400",
                "addr:city": "\u0141uk\u00f3w",
                "addr:street": "Mi\u0119dzyrzecka",
                "addr:housenumber": "70A",
                "addr:city:simc": 975530,
                "addr:street:sym_ul": 12860,
                "phone": "+48 257982772",
                "email": "sekretariat@zsslukow.pl",
                "ref:regon": "060057980",
                "operator": "Powiat \u0141ukowski",
                "operator:type": "government",
                "amenity": "school",
                "note": "Parent RSPO: 91916"
            }
        },
        {
            "id": 5944,
            "type": "Feature",
            "geometry": {
                "type": "Point",
                "coordinates": [
                    22.38776,
                    51.93169
                ]
            },
            "properties": {
                "ref:rspo": 5944,
                "official_name": "Zesp\u00f3\u0142 Szk\u00f3\u0142 nr 3 im.w\u0142adys\u0142awa Stanis\u0142awa Reymonta w \u0141ukowie",
                "name": "Zesp\u00f3\u0142 Szk\u00f3\u0142 nr 3 im.w\u0142adys\u0142awa Stanis\u0142awa Reymonta w \u0141ukowie",
                "addr:postcode": "21-400",
                "addr:city": "\u0141uk\u00f3w",
                "addr:street": "Mi\u0119dzyrzecka",
                "addr:housenumber": "70",
                "addr:city:simc": 975530,
                "addr:street:sym_ul": 12860,
                "phone": "+48 257980603",
                "email": "zs3lukow@pzo.lukow.pl",
                "ref:regon": "001014079",
                "operator": "Powiat \u0141ukowski",
                "operator:type": "government",
                "landuse": "education",
                "fixme": "amenity=school, amenity=college albo landuse=education w zale\u017cno\u015bci od tego, jakie plac\u00f3wki wchodz\u0105 w sk\u0142ad zespo\u0142u. Sprawd\u017a, kiedy stosowa\u0107 amenity=* a kiedy landuse=education.",
                "note": "Children RSPO: 13957;13966;91892"
            }
        },
        {
            "id": 13957,
            "type": "Feature",
            "geometry": {
                "type": "Point",
                "coordinates": [
                    22.38776,
                    51.93166
                ]
            },
            "properties": {
                "isced:level": "3",
                "ref:rspo": 13957,
                "official_name": "Iii Liceum Og\u00f3lnokszta\u0142c\u0105ce w \u0141ukowie",
                "name": "Iii Liceum Og\u00f3lnokszta\u0142c\u0105ce w \u0141ukowie",
                "addr:postcode": "21-400",
                "addr:city": "\u0141uk\u00f3w",
                "addr:street": "Mi\u0119dzyrzecka",
                "addr:housenumber": "70",
                "addr:city:simc": 975530,
                "addr:street:sym_ul": 12860,
                "phone": "+48 257980603",
                "email": "zs3lukow@pzo.lukow.pl",
                "ref:regon": "030813978",
                "operator": "Powiat \u0141ukowski",
                "operator:type": "government",
                "amenity": "school",
                "note": "Parent RSPO: 5944"
            }
        },
        {
            "id": 13966,
            "type": "Feature",
            "geometry": {
                "type": "Point",
                "coordinates": [
                    22.38776,
                    51.931630000000006
                ]
            },
            "properties": {
                "isced:level": "4",
                "ref:rspo": 13966,
                "official_name": "Szko\u0142a Policealna nr 3 w \u0141ukowie",
                "name": "Szko\u0142a Policealna nr 3 w \u0141ukowie",
                "addr:postcode": "21-400",
                "addr:city": "\u0141uk\u00f3w",
                "addr:street": "Mi\u0119dzyrzecka",
                "addr:housenumber": "70",
                "addr:city:simc": 975530,
                "addr:street:sym_ul": 12860,
                "phone": "+48 257980603",
                "email": "zs3lukow@pzo.lukow.pl",
                "ref:regon": "060064803",
                "operator": "Powiat \u0141ukowski",
                "operator:type": "government",
                "amenity": "college",
                "note": "Parent RSPO: 5944"
            }
        },
        {
            "id": 91892,
            "type": "Feature",
            "geometry": {
                "type": "Point",
                "coordinates": [
                    22.38776,
                    51.9316
                ]
            },
            "properties": {
                "isced:level": "3",
                "ref:rspo": 91892,
                "official_name": "Technikum nr 3 w \u0141ukowie",
                "name": "Technikum nr 3 w \u0141ukowie",
                "addr:postcode": "21-400",
                "addr:city": "\u0141uk\u00f3w",
                "addr:street": "Mi\u0119dzyrzecka",
                "addr:housenumber": "70",
                "addr:city:simc": 975530,
                "addr:street:sym_ul": 12860,
                "phone": "+48 257980603",
                "email": "zs3lukow@pzo.lukow.pl",
                "ref:regon": "060167489",
                "operator": "Powiat \u0141ukowski",
                "operator:type": "government",
                "amenity": "school",
                "note": "Parent RSPO: 5944"
            }
        },
        {
            "id": 22968,
            "type": "Feature",
            "geometry": {
                "type": "Point",
                "coordinates": [
                    22.37734,
                    51.93204
                ]
            },
            "properties": {
                "ref:rspo": 22968,
                "official_name": "Specjalny O\u015brodek Wychowawczy w \u0141ukowie",
                "name": "Specjalny O\u015brodek Wychowawczy w \u0141ukowie",
                "addr:postcode": "21-400",
                "addr:city": "\u0141uk\u00f3w",
                "addr:street": "Stodolna",
                "addr:housenumber": "3",
                "addr:city:simc": 975530,
                "addr:street:sym_ul": 21193,
                "phone": "+48 257982863",
                "email": "poczta@sow.lukow.pl",
                "ref:regon": "061467029",
                "operator": "Zg.ss.mi\u0142osierdzia \u015aw.wincentego A Paulo, Prowincja Warszawska",
                "operator:type": "religious",
                "amenity": "social_facility",
                "social_facility": "group_home",
                "social_facility:for": "child;juvenile"
            }
        },
        {
            "id": 126961,
            "type": "Feature",
            "geometry": {
                "type": "Point",
                "coordinates": [
                    22.37734,
                    51.93201
                ]
            },
            "properties": {
                "ref:rspo": 126961,
                "official_name": "Niepubliczne Przedszkole Integracyjne Zgromadzenia Si\u00f3str Mi\u0142osierdzia \u015aw. Wincentego A Paulo",
                "name": "Niepubliczne Przedszkole Integracyjne Zgromadzenia Si\u00f3str Mi\u0142osierdzia \u015aw. Wincentego A Paulo",
                "addr:postcode": "21-400",
                "addr:city": "\u0141uk\u00f3w",
                "addr:street": "Stodolna",
                "addr:housenumber": "3",
                "addr:city:simc": 975530,
                "addr:street:sym_ul": 21193,
                "phone": "+48 257982863",
                "email": "poczta@sow.lukow.pl",
                "ref:regon": "360988567",
                "operator": "Zg.ss.mi\u0142osierdzia \u015aw.wincentego A Paulo, Prowincja Warszawska",
                "operator:type": "religious",
                "amenity": "kindergarten"
            }
        },
        {
            "id": 11463,
            "type": "Feature",
            "geometry": {
                "type": "Point",
                "coordinates": [
                    22.38241,
                    51.93204
                ]
            },
            "properties": {
                "ref:rspo": 11463,
                "official_name": "Przedszkole Miejskie nr 3 w \u0141ukowie",
                "name": "Przedszkole Miejskie nr 3 w \u0141ukowie",
                "addr:postcode": "21-400",
                "addr:city": "\u0141uk\u00f3w",
                "addr:street": "Osiedle Bronis\u0142awa Ch\u0105ci\u0144skiego",
                "addr:housenumber": "17",
                "addr:city:simc": 975530,
                "addr:street:sym_ul": 2683,
                "phone": "+48 257982707",
                "email": "p3@um.lukow.pl",
                "ref:regon": "710005404",
                "ref:vatin": "PL8251778534",
                "operator": "Miasto \u0141uk\u00f3w",
                "operator:type": "government",
                "amenity": "kindergarten"
            }
        },
        {
            "id": 124937,
            "type": "Feature",
            "geometry": {
                "type": "Point",
                "coordinates": [
                    22.3899,
                    51.93312
                ]
            },
            "properties": {
                "ref:rspo": 124937,
                "official_name": "Niepubliczne Przedszkole Muzyczne 'Weso\u0142a Nutka'",
                "name": "Niepubliczne Przedszkole Muzyczne 'Weso\u0142a Nutka'",
                "addr:postcode": "21-400",
                "addr:city": "\u0141uk\u00f3w",
                "addr:street": "Boles\u0142awa Prusa",
                "addr:housenumber": "3A",
                "addr:city:simc": 975530,
                "addr:street:sym_ul": 17577,
                "email": "przedszkole@wesolanutka.info",
                "ref:regon": "061728286",
                "operator": "Aneta Gajowa",
                "operator:type": "private",
                "amenity": "kindergarten"
            }
        },
        {
            "id": 19298,
            "type": "Feature",
            "geometry": {
                "type": "Point",
                "coordinates": [
                    22.38326,
                    51.93327
                ]
            },
            "properties": {
                "isced:level": "1;2",
                "ref:rspo": 19298,
                "official_name": "Szko\u0142a Podstawowa nr 4 z Oddzia\u0142ami Integracyjnymi im. Bronis\u0142awa Ch\u0105ci\u0144skiego w \u0141ukowie",
                "name": "Szko\u0142a Podstawowa nr 4 z Oddzia\u0142ami Integracyjnymi",
                "addr:postcode": "21-400",
                "addr:city": "\u0141uk\u00f3w",
                "addr:street": "11 Listopada",
                "addr:housenumber": "20",
                "addr:city:simc": 975530,
                "addr:street:sym_ul": 11205,
                "phone": "+48 257982568",
                "email": "sp4@um.lukow.pl",
                "website": "http:\/\/www.sp4lukow.net",
                "ref:regon": "000717867",
                "ref:vatin": "PL8252180520",
                "operator": "Miasto \u0141uk\u00f3w",
                "operator:type": "government",
                "amenity": "school"
            }
        },
        {
            "id": 11464,
            "type": "Feature",
            "geometry": {
                "type": "Point",
                "coordinates": [
                    22.3835,
                    51.93455
                ]
            },
            "properties": {
                "ref:rspo": 11464,
                "official_name": "Przedszkole Miejskie nr 4 Fantazja w \u0141ukowie",
                "name": "Przedszkole Miejskie nr 4 Fantazja w \u0141ukowie",
                "addr:postcode": "21-400",
                "addr:city": "\u0141uk\u00f3w",
                "addr:street": "Osiedle Leona Klimeckiego",
                "addr:housenumber": "14",
                "addr:city:simc": 975530,
                "addr:street:sym_ul": 8545,
                "phone": "+48 257983221",
                "email": "p4@um.lukow.pl",
                "ref:regon": "710005427",
                "ref:vatin": "PL8251778528",
                "operator": "Miasto \u0141uk\u00f3w",
                "operator:type": "government",
                "amenity": "kindergarten"
            }
        },
        {
            "id": 41186,
            "type": "Feature",
            "geometry": {
                "type": "Point",
                "coordinates": [
                    22.38043,
                    51.93472
                ]
            },
            "properties": {
                "ref:rspo": 41186,
                "official_name": "Niepubliczne Przedszkole Si\u00f3str Nazaretanek im. Jana Paw\u0142a Ii",
                "name": "Niepubliczne Przedszkole Si\u00f3str Nazaretanek",
                "addr:postcode": "21-400",
                "addr:city": "\u0141uk\u00f3w",
                "addr:street": "11 Listopada",
                "addr:housenumber": "5",
                "addr:city:simc": 975530,
                "addr:street:sym_ul": 11205,
                "phone": "+48 257982353",
                "email": "lukow.przedszkole@gmail.com",
                "website": "http:\/\/www.przedszkole.lukow.pl",
                "ref:regon": "061487836",
                "ref:vatin": "PL8251039015",
                "operator": "Zg.ss.naj\u015bwi\u0119tszej Rodziny Z Nazaretu, Prowincja Warszawska",
                "operator:type": "religious",
                "amenity": "kindergarten"
            }
        },
        {
            "id": 5669,
            "type": "Feature",
            "geometry": {
                "type": "Point",
                "coordinates": [
                    22.3803877,
                    51.9356479
                ]
            },
            "properties": {
                "ref:rspo": 5669,
                "official_name": "Zesp\u00f3\u0142 Szk\u00f3\u0142 nr 1 im.henryka Sienkiewicza w \u0141ukowie",
                "name": "Zesp\u00f3\u0142 Szk\u00f3\u0142 nr 1 im.henryka Sienkiewicza w \u0141ukowie",
                "addr:postcode": "21-400",
                "addr:city": "\u0141uk\u00f3w",
                "addr:street": "Aleja Tadeusza Ko\u015bciuszki",
                "addr:housenumber": "10",
                "addr:city:simc": 975530,
                "addr:street:sym_ul": 9576,
                "phone": "+48 257982950",
                "email": "zsz1luk@pro.onet.pl",
                "website": "http:\/\/zs1.lukow.pl",
                "ref:regon": "000197020",
                "operator": "Powiat \u0141ukowski",
                "operator:type": "government",
                "landuse": "education",
                "fixme": "amenity=school, amenity=college albo landuse=education w zale\u017cno\u015bci od tego, jakie plac\u00f3wki wchodz\u0105 w sk\u0142ad zespo\u0142u. Sprawd\u017a, kiedy stosowa\u0107 amenity=* a kiedy landuse=education.",
                "note": "Children RSPO: 13164;13165;13168;126994;276635"
            }
        },
        {
            "id": 13164,
            "type": "Feature",
            "geometry": {
                "type": "Point",
                "coordinates": [
                    22.3803877,
                    51.9356179
                ]
            },
            "properties": {
                "isced:level": "3",
                "ref:rspo": 13164,
                "official_name": "Technikum nr 1 w \u0141ukowie",
                "name": "Technikum nr 1 w \u0141ukowie",
                "addr:postcode": "21-400",
                "addr:city": "\u0141uk\u00f3w",
                "addr:street": "Aleja Tadeusza Ko\u015bciuszki",
                "addr:housenumber": "10",
                "addr:city:simc": 975530,
                "addr:street:sym_ul": 9576,
                "phone": "+48 257982950",
                "email": "zsz1luk@pro.onet.pl",
                "ref:regon": "030311366",
                "operator": "Powiat \u0141ukowski",
                "operator:type": "government",
                "amenity": "school",
                "note": "Parent RSPO: 5669"
            }
        },
        {
            "id": 13165,
            "type": "Feature",
            "geometry": {
                "type": "Point",
                "coordinates": [
                    22.3803877,
                    51.9355879
                ]
            },
            "properties": {
                "isced:level": "3",
                "ref:rspo": 13165,
                "official_name": "Bran\u017cowa Szko\u0142a I Stopnia nr 1 w \u0141ukowie",
                "name": "Bran\u017cowa Szko\u0142a I Stopnia nr 1 w \u0141ukowie",
                "addr:postcode": "21-400",
                "addr:city": "\u0141uk\u00f3w",
                "addr:street": "Aleja Tadeusza Ko\u015bciuszki",
                "addr:housenumber": "10",
                "addr:city:simc": 975530,
                "addr:street:sym_ul": 9576,
                "phone": "+48 257982950",
                "email": "zsz1luk@pro.onet.pl",
                "ref:regon": "030311395",
                "operator": "Powiat \u0141ukowski",
                "operator:type": "government",
                "amenity": "school",
                "note": "Parent RSPO: 5669"
            }
        },
        {
            "id": 13168,
            "type": "Feature",
            "geometry": {
                "type": "Point",
                "coordinates": [
                    22.3803877,
                    51.9355579
                ]
            },
            "properties": {
                "isced:level": "4",
                "ref:rspo": 13168,
                "official_name": "Szko\u0142a Policealna nr 1 w \u0141ukowie",
                "name": "Szko\u0142a Policealna nr 1 w \u0141ukowie",
                "addr:postcode": "21-400",
                "addr:city": "\u0141uk\u00f3w",
                "addr:street": "Aleja Tadeusza Ko\u015bciuszki",
                "addr:housenumber": "10",
                "addr:city:simc": 975530,
                "addr:street:sym_ul": 9576,
                "phone": "+48 257982950",
                "email": "zsz1luk@pro.onet.pl",
                "ref:regon": "061458183",
                "operator": "Powiat \u0141ukowski",
                "operator:type": "government",
                "amenity": "college",
                "note": "Parent RSPO: 5669"
            }
        },
        {
            "id": 126994,
            "type": "Feature",
            "geometry": {
                "type": "Point",
                "coordinates": [
                    22.3803877,
                    51.9355279
                ]
            },
            "properties": {
                "isced:level": "3",
                "ref:rspo": 126994,
                "official_name": "Liceum Og\u00f3lnokszta\u0142c\u0105ce nr 1 dla Doros\u0142ych w \u0141ukowie",
                "name": "Liceum Og\u00f3lnokszta\u0142c\u0105ce nr 1 dla Doros\u0142ych w \u0141ukowie",
                "addr:postcode": "21-400",
                "addr:city": "\u0141uk\u00f3w",
                "addr:street": "Aleja Tadeusza Ko\u015bciuszki",
                "addr:housenumber": "10",
                "addr:city:simc": 975530,
                "addr:street:sym_ul": 9576,
                "phone": "+48 257982950",
                "email": "zsz1luk@pro.onet.pl",
                "ref:regon": "361012236",
                "operator": "Powiat \u0141ukowski",
                "operator:type": "government",
                "amenity": "school",
                "note": "Parent RSPO: 5669"
            }
        },
        {
            "id": 276635,
            "type": "Feature",
            "geometry": {
                "type": "Point",
                "coordinates": [
                    22.3803877,
                    51.9354979
                ]
            },
            "properties": {
                "isced:level": "3",
                "ref:rspo": 276635,
                "official_name": "Bran\u017cowa Szko\u0142a II Stopnia nr 1 w \u0141ukowie",
                "name": "Bran\u017cowa Szko\u0142a II Stopnia nr 1 w \u0141ukowie",
                "addr:postcode": "21-400",
                "addr:city": "\u0141uk\u00f3w",
                "addr:street": "Aleja Tadeusza Ko\u015bciuszki",
                "addr:housenumber": "10",
                "addr:city:simc": 975530,
                "addr:street:sym_ul": 9576,
                "phone": "+48 257982925",
                "email": "zsz1luk@pro.onet.pl",
                "ref:regon": "387326954",
                "operator": "Powiat \u0141ukowski",
                "operator:type": "government",
                "amenity": "school",
                "note": "Parent RSPO: 5669"
            }
        },
        {
            "id": 69450,
            "type": "Feature",
            "geometry": {
                "type": "Point",
                "coordinates": [
                    22.3867,
                    51.93629
                ]
            },
            "properties": {
                "ref:rspo": 69450,
                "official_name": "Niepubliczne Przedszkole Artystyczne \"Koala\"",
                "name": "Niepubliczne Przedszkole Artystyczne \"Koala\"",
                "addr:postcode": "21-400",
                "addr:city": "\u0141uk\u00f3w",
                "addr:street": "Przemys\u0142owa",
                "addr:housenumber": "22A",
                "addr:city:simc": 975530,
                "addr:street:sym_ul": 17742,
                "email": "info@koalaprzedszkole.pl",
                "ref:regon": "061479848",
                "ref:vatin": "PL8252119590",
                "operator": "\"Marbet Piaseccy Sp\u00f3\u0142ka Jawna\"",
                "operator:type": "private",
                "amenity": "kindergarten"
            }
        },
        {
            "id": 130216,
            "type": "Feature",
            "geometry": {
                "type": "Point",
                "coordinates": [
                    22.38421,
                    51.93668
                ]
            },
            "properties": {
                "ref:rspo": 130216,
                "official_name": "Centrum Doradztwa Finansowego",
                "name": "Centrum Doradztwa Finansowego",
                "addr:postcode": "21-400",
                "addr:city": "\u0141uk\u00f3w",
                "addr:street": "Ksi\u0119dza Stanis\u0142awa Brz\u00f3ski",
                "addr:housenumber": "17",
                "addr:city:simc": 975530,
                "addr:street:sym_ul": 2294,
                "phone": "+48 257987702",
                "email": "cdf@cdf.lukow.pl",
                "website": "http:\/\/www.cdf.lukow.pl",
                "ref:regon": "363667020",
                "operator": "Urszula Bancerz",
                "operator:type": "private",
                "fixme": "w zale\u017cno\u015bci od przedmiotu dzia\u0142alno\u015bci (np. amenity=training + training=*, amenity=dancing_school, amenity=language_school, amenity=music_school)"
            }
        },
        {
            "id": 272158,
            "type": "Feature",
            "geometry": {
                "type": "Point",
                "coordinates": [
                    22.38421,
                    51.93665
                ]
            },
            "properties": {
                "ref:rspo": 272158,
                "official_name": "Fundacja Regionalne Inkubatory Przedsi\u0119biorczo\u015bci",
                "name": "Fundacja Regionalne Inkubatory Przedsi\u0119biorczo\u015bci",
                "addr:postcode": "21-400",
                "addr:city": "\u0141uk\u00f3w",
                "addr:street": "Ksi\u0119dza Stanis\u0142awa Brz\u00f3ski",
                "addr:housenumber": "17",
                "addr:city:simc": 975530,
                "addr:street:sym_ul": 2294,
                "phone": "+48 257972008",
                "email": "inkubator@ripfundacja.pl",
                "website": "http:\/\/www.ripfundacja.pl",
                "ref:regon": "383984011",
                "operator": "Fundacja \"Regionalne Inkubatory Przedsi\u0119biorczo\u015bci\"",
                "operator:type": "ngo",
                "fixme": "w zale\u017cno\u015bci od przedmiotu dzia\u0142alno\u015bci (np. amenity=training + training=*, amenity=dancing_school, amenity=language_school, amenity=music_school)"
            }
        },
        {
            "id": 273483,
            "type": "Feature",
            "geometry": {
                "type": "Point",
                "coordinates": [
                    22.38421,
                    51.936620000000005
                ]
            },
            "properties": {
                "ref:rspo": 273483,
                "official_name": "Matpop Mateusz Pop\u0142awski",
                "name": "Matpop Mateusz Pop\u0142awski",
                "addr:postcode": "21-400",
                "addr:city": "\u0141uk\u00f3w",
                "addr:street": "Ksi\u0119dza Stanis\u0142awa Brz\u00f3ski",
                "addr:housenumber": "17",
                "addr:city:simc": 975530,
                "addr:street:sym_ul": 2294,
                "phone": "+48 798001016",
                "email": "mateusz.poplawski91@gmail.com",
                "ref:regon": "384479309",
                "operator": "Mateusz Pop\u0142awski",
                "operator:type": "private",
                "fixme": "w zale\u017cno\u015bci od przedmiotu dzia\u0142alno\u015bci (np. amenity=training + training=*, amenity=dancing_school, amenity=language_school, amenity=music_school)"
            }
        },
        {
            "id": 274555,
            "type": "Feature",
            "geometry": {
                "type": "Point",
                "coordinates": [
                    22.38421,
                    51.93659
                ]
            },
            "properties": {
                "ref:rspo": 274555,
                "official_name": "O\u015brodek Doskonalenia Nauczycieli Meritum",
                "name": "O\u015brodek Doskonalenia Nauczycieli Meritum",
                "addr:postcode": "21-400",
                "addr:city": "\u0141uk\u00f3w",
                "addr:street": "Ksi\u0119dza Stanis\u0142awa Brz\u00f3ski",
                "addr:housenumber": "17",
                "addr:city:simc": 975530,
                "addr:street:sym_ul": 2294,
                "email": "szkolenia@cdf.lukow.pl",
                "website": "http:\/\/www.cdf.lukow.pl",
                "ref:regon": "385956250",
                "ref:vatin": "PL8250000034",
                "operator": "Urszula Bancerz",
                "operator:type": "private",
                "amenity": "training"
            }
        },
        {
            "id": 129645,
            "type": "Feature",
            "geometry": {
                "type": "Point",
                "coordinates": [
                    22.38094,
                    51.93976
                ]
            },
            "properties": {
                "ref:rspo": 129645,
                "official_name": "Niepubliczne Przedszkole Ma\u0142y Odkrywca",
                "name": "Niepubliczne Przedszkole Ma\u0142y Odkrywca",
                "addr:postcode": "21-400",
                "addr:city": "\u0141uk\u00f3w",
                "addr:street": "Jana Paw\u0142a II",
                "addr:housenumber": "37",
                "addr:city:simc": 975530,
                "addr:street:sym_ul": 7123,
                "phone": "+48 535846441",
                "email": "malyodkrywca.przedszkole@gmail.com",
                "ref:regon": "362712065",
                "ref:vatin": "PL8252134023",
                "operator": "El\u017cbieta Pisarska",
                "operator:type": "private",
                "amenity": "kindergarten"
            }
        },
        {
            "id": 11960,
            "type": "Feature",
            "geometry": {
                "type": "Point",
                "coordinates": [
                    22.37698,
                    51.94009
                ]
            },
            "properties": {
                "isced:level": "1;2",
                "ref:rspo": 11960,
                "official_name": "Szko\u0142a Podstawowa nr 5 w \u0141ukowie",
                "name": "Szko\u0142a Podstawowa nr 5 w \u0141ukowie",
                "addr:postcode": "21-400",
                "addr:city": "\u0141uk\u00f3w",
                "addr:street": "Siedlecka",
                "addr:housenumber": "56",
                "addr:city:simc": 975530,
                "addr:street:sym_ul": 19769,
                "phone": "+48 257984657",
                "email": "sp5@um.lukow.pl",
                "ref:regon": "005175520",
                "ref:vatin": "PL8251039802",
                "operator": "Miasto \u0141uk\u00f3w",
                "operator:type": "government",
                "amenity": "school"
            }
        },
        {
            "id": 262530,
            "type": "Feature",
            "geometry": {
                "type": "Point",
                "coordinates": [
                    22.38721,
                    51.94188
                ]
            },
            "properties": {
                "isced:level": "1;2",
                "ref:rspo": 262530,
                "official_name": "Szko\u0142a Podstawowa nr 3",
                "name": "Szko\u0142a Podstawowa nr 3",
                "addr:postcode": "21-400",
                "addr:city": "\u0141uk\u00f3w",
                "addr:street": "Stanis\u0142awa Konarskiego",
                "addr:housenumber": "3",
                "addr:city:simc": 975530,
                "addr:street:sym_ul": 9111,
                "phone": "+48 257982714",
                "email": "sp3@um.lukow.pl",
                "ref:regon": "368029330",
                "operator": "Miasto \u0141uk\u00f3w",
                "operator:type": "government",
                "amenity": "school"
            }
        }
    ]
}