{
    "type": "FeatureCollection",
    "features": [
        {
            "id": 63291,
            "type": "Feature",
            "geometry": {
                "type": "Point",
                "coordinates": [
                    22.49401,
                    51.93601
                ]
            },
            "properties": {
                "isced:level": "1;2",
                "ref:rspo": 63291,
                "official_name": "Szko\u0142a Podstawowa im.\nKs, Biskupa Junoszy Szaniawskiego",
                "name": "Szko\u0142a Podstawowa im.\nKs, Biskupa Junoszy Szaniawskiego",
                "addr:postcode": "21-404",
                "addr:place": "Szaniawy-Matysy",
                "addr:housenumber": "4",
                "addr:city:simc": 693078,
                "phone": "+48 257963064",
                "email": "spszaniawy@op.pl",
                "website": "http:\/\/spszaniawy.szkolnastrona.pl",
                "ref:regon": "001137110",
                "ref:vatin": "PL8251468822",
                "operator": "Gmina Trzebiesz\u00f3w",
                "operator:type": "government",
                "amenity": "school"
            }
        },
        {
            "id": 271973,
            "type": "Feature",
            "geometry": {
                "type": "Point",
                "coordinates": [
                    22.4673,
                    51.95913
                ]
            },
            "properties": {
                "ref:rspo": 271973,
                "official_name": "Zesp\u00f3\u0142 Szkolno - Przedszkolny w D\u0119bowicy",
                "name": "Zesp\u00f3\u0142 Szkolno - Przedszkolny w D\u0119bowicy",
                "addr:postcode": "21-404",
                "addr:place": "D\u0119bowica",
                "addr:housenumber": "70",
                "addr:city:simc": 692831,
                "phone": "+48 257960721",
                "email": "spdebowica@interia.pl",
                "website": "http:\/\/www.spdebowica.szkolnastrona.pl",
                "ref:regon": "383849477",
                "ref:vatin": "PL8252186959",
                "operator": "Gmina Trzebiesz\u00f3w",
                "operator:type": "government",
                "landuse": "education",
                "fixme": "amenity=school, amenity=college albo landuse=education w zale\u017cno\u015bci od tego, jakie plac\u00f3wki wchodz\u0105 w sk\u0142ad zespo\u0142u. Sprawd\u017a, kiedy stosowa\u0107 amenity=* a kiedy landuse=education.",
                "note": "Children RSPO: 63284;271917"
            }
        },
        {
            "id": 63284,
            "type": "Feature",
            "geometry": {
                "type": "Point",
                "coordinates": [
                    22.4673,
                    51.9591
                ]
            },
            "properties": {
                "isced:level": "1;2",
                "ref:rspo": 63284,
                "official_name": "Szko\u0142a Podstawowa Im Janiny I Jana D\u0119bowskich w D\u0119bowicy",
                "name": "Szko\u0142a Podstawowa Im Janiny I Jana D\u0119bowskich w D\u0119bowicy",
                "addr:postcode": "21-404",
                "addr:place": "D\u0119bowica",
                "addr:housenumber": "70",
                "addr:city:simc": 692848,
                "phone": "+48 257960721",
                "email": "spdebowica@interia.pl",
                "website": "http:\/\/www.spdebowica.szkolnastrona.pl",
                "ref:regon": "001137273",
                "operator": "Gmina Trzebiesz\u00f3w",
                "operator:type": "government",
                "amenity": "school",
                "note": "Parent RSPO: 271973"
            }
        },
        {
            "id": 271917,
            "type": "Feature",
            "geometry": {
                "type": "Point",
                "coordinates": [
                    22.4673,
                    51.959070000000004
                ]
            },
            "properties": {
                "ref:rspo": 271917,
                "official_name": "Przedszkole w D\u0119bowicy",
                "name": "Przedszkole w D\u0119bowicy",
                "addr:postcode": "21-404",
                "addr:place": "D\u0119bowica",
                "addr:housenumber": "70",
                "addr:city:simc": 692831,
                "phone": "+48 257960721",
                "email": "spdebowica@interia.pl",
                "website": "http:\/\/www.spdebowica.szkolnastrona.pl",
                "ref:regon": "383785524",
                "operator": "Gmina Trzebiesz\u00f3w",
                "operator:type": "government",
                "amenity": "kindergarten",
                "note": "Parent RSPO: 271973"
            }
        },
        {
            "id": 271974,
            "type": "Feature",
            "geometry": {
                "type": "Point",
                "coordinates": [
                    22.5664,
                    51.98836
                ]
            },
            "properties": {
                "ref:rspo": 271974,
                "official_name": "Zesp\u00f3\u0142 Szkolno - Przedszkolny w Trzebieszowie Drugim",
                "name": "Zesp\u00f3\u0142 Szkolno - Przedszkolny w Trzebieszowie Drugim",
                "addr:postcode": "21-404",
                "addr:place": "Trzebiesz\u00f3w Drugi",
                "addr:housenumber": "94 - 94A",
                "addr:city:simc": 693196,
                "phone": "+48 257960689",
                "email": "sptjg@wp.pl",
                "website": "http:\/\/sptrzebieszow.edupage.org",
                "ref:regon": "383849572",
                "ref:vatin": "PL8252186882",
                "operator": "Gmina Trzebiesz\u00f3w",
                "operator:type": "government",
                "landuse": "education",
                "fixme": "amenity=school, amenity=college albo landuse=education w zale\u017cno\u015bci od tego, jakie plac\u00f3wki wchodz\u0105 w sk\u0142ad zespo\u0142u. Sprawd\u017a, kiedy stosowa\u0107 amenity=* a kiedy landuse=education.",
                "note": "Children RSPO: 63292;114316;271918"
            }
        },
        {
            "id": 271918,
            "type": "Feature",
            "geometry": {
                "type": "Point",
                "coordinates": [
                    22.5664,
                    51.98833
                ]
            },
            "properties": {
                "ref:rspo": 271918,
                "official_name": "Przedszkole w Trzebieszowie Drugim",
                "name": "Przedszkole w Trzebieszowie Drugim",
                "addr:postcode": "21-404",
                "addr:place": "Trzebiesz\u00f3w Drugi",
                "addr:housenumber": "94-94A",
                "addr:city:simc": 693196,
                "phone": "+48 257960689",
                "email": "sptjg@wp.pl",
                "website": "http:\/\/sptrzebieszow.edupage.org",
                "ref:regon": "383785576",
                "operator": "Gmina Trzebiesz\u00f3w",
                "operator:type": "government",
                "amenity": "kindergarten",
                "note": "Parent RSPO: 271974"
            }
        },
        {
            "id": 114316,
            "type": "Feature",
            "geometry": {
                "type": "Point",
                "coordinates": [
                    22.5547,
                    51.98991
                ]
            },
            "properties": {
                "ref:rspo": 114316,
                "official_name": "Gminne Przedszkole w Trzebieszowie",
                "name": "Gminne Przedszkole w Trzebieszowie",
                "addr:postcode": "21-404",
                "addr:place": "Trzebiesz\u00f3w Drugi",
                "addr:housenumber": "90",
                "addr:city:simc": 693196,
                "phone": "+48 257960518",
                "email": "sptjg@wp.pl",
                "website": "http:\/\/gptrzebieszow.edupage.org",
                "ref:regon": "030294389",
                "operator": "Gmina Trzebiesz\u00f3w",
                "operator:type": "government",
                "amenity": "kindergarten",
                "note": "Parent RSPO: 271974"
            }
        },
        {
            "id": 63292,
            "type": "Feature",
            "geometry": {
                "type": "Point",
                "coordinates": [
                    22.55648,
                    51.99072
                ]
            },
            "properties": {
                "isced:level": "1;2",
                "ref:rspo": 63292,
                "official_name": "Szko\u0142a Podstawowa im. Kr\u00f3la W\u0142adys\u0142awa Jagie\u0142\u0142y w Trzebieszowie Drugim",
                "name": "Szko\u0142a Podstawowa",
                "addr:postcode": "21-404",
                "addr:place": "Trzebiesz\u00f3w Drugi",
                "addr:housenumber": "94",
                "addr:city:simc": 693196,
                "phone": "+48 257960689",
                "email": "sptjg@wp.pl",
                "website": "http:\/\/sptrzebieszow.edupage.org",
                "ref:regon": "000718080",
                "operator": "Gmina Trzebiesz\u00f3w",
                "operator:type": "government",
                "amenity": "school",
                "note": "Parent RSPO: 271974"
            }
        },
        {
            "id": 63283,
            "type": "Feature",
            "geometry": {
                "type": "Point",
                "coordinates": [
                    22.46388,
                    51.99444
                ]
            },
            "properties": {
                "isced:level": "1;2",
                "ref:rspo": 63283,
                "official_name": "Szko\u0142a Podstawowa im. Heleny Mniszk\u00f3wny w Celinach",
                "name": "Szko\u0142a Podstawowa",
                "addr:postcode": "21-404",
                "addr:place": "Celiny",
                "addr:housenumber": "86",
                "addr:city:simc": 692765,
                "phone": "+48 257974888",
                "email": "celiny@op.pl",
                "website": "http:\/\/celiny86.edupage.org",
                "ref:regon": "001137267",
                "ref:vatin": "PL8251444253",
                "operator": "Gmina Trzebiesz\u00f3w",
                "operator:type": "government",
                "amenity": "school"
            }
        },
        {
            "id": 63286,
            "type": "Feature",
            "geometry": {
                "type": "Point",
                "coordinates": [
                    22.59118,
                    52.0228899
                ]
            },
            "properties": {
                "isced:level": "1;2",
                "ref:rspo": 63286,
                "official_name": "Szko\u0142a Podstawowa im. J\u00f3zefa Pi\u0142sudskiego \nW Jakuszach",
                "name": "Szko\u0142a Podstawowa",
                "addr:postcode": "21-404",
                "addr:place": "Jakusze",
                "addr:housenumber": "56",
                "addr:city:simc": 692914,
                "phone": "+48 257960241",
                "email": "spjakusze@wp.pl",
                "website": "http:\/\/spjakusze.edupage.org",
                "ref:regon": "001137280",
                "ref:vatin": "PL8251444164",
                "operator": "Gmina Trzebiesz\u00f3w",
                "operator:type": "government",
                "amenity": "school"
            }
        },
        {
            "id": 63290,
            "type": "Feature",
            "geometry": {
                "type": "Point",
                "coordinates": [
                    22.51071,
                    52.04515
                ]
            },
            "properties": {
                "isced:level": "1;2",
                "ref:rspo": 63290,
                "official_name": "Szko\u0142a Podstawowa im. Ks. T. A. Leszczy\u0144skiego w Mik\u0142usach",
                "name": "Szko\u0142a Podstawowa",
                "addr:postcode": "21-404",
                "addr:place": "Mik\u0142usy",
                "addr:housenumber": "37",
                "addr:city:simc": 693003,
                "phone": "+48 257960098",
                "email": "miklusy@vp.pl",
                "website": "http:\/\/spmiklusy.szkolnastrona.pl",
                "ref:regon": "001137103",
                "ref:vatin": "PL8251444158",
                "operator": "Gmina Trzebiesz\u00f3w",
                "operator:type": "government",
                "amenity": "school"
            }
        }
    ]
}