{
    "type": "FeatureCollection",
    "features": [
        {
            "id": 44555,
            "type": "Feature",
            "geometry": {
                "type": "Point",
                "coordinates": [
                    22.3013,
                    51.85716
                ]
            },
            "properties": {
                "isced:level": "1;2",
                "ref:rspo": 44555,
                "official_name": "Publiczna Szko\u0142a Podstawowa w Sarnowie",
                "name": "Publiczna Szko\u0142a Podstawowa w Sarnowie",
                "addr:postcode": "21-421",
                "addr:place": "Sarn\u00f3w",
                "addr:housenumber": "19B",
                "addr:city:simc": 689651,
                "phone": "+48 257962870",
                "email": "szkola.sarnow@stanin.pl",
                "website": "http:\/\/spsarnow.pl",
                "ref:regon": "001128104",
                "ref:vatin": "PL8251396784",
                "operator": "Gmina Stanin",
                "operator:type": "government",
                "amenity": "school"
            }
        },
        {
            "id": 105508,
            "type": "Feature",
            "geometry": {
                "type": "Point",
                "coordinates": [
                    22.2643,
                    51.8626999
                ]
            },
            "properties": {
                "isced:level": "1;2",
                "ref:rspo": 105508,
                "official_name": "Publiczna Szko\u0142a Podstawowa w Jele\u0144cu",
                "name": "Publiczna Szko\u0142a Podstawowa w Jele\u0144cu",
                "addr:postcode": "21-421",
                "addr:place": "Jeleniec",
                "addr:housenumber": "45",
                "addr:city:simc": 689326,
                "phone": "+48 257963455",
                "email": "szkola.jeleniec@stanin.pl",
                "website": "http:\/\/www.spjeleniec.edupage.org",
                "ref:regon": "001128067",
                "ref:vatin": "PL8252180483",
                "operator": "Gmina Stanin",
                "operator:type": "government",
                "amenity": "school"
            }
        },
        {
            "id": 47095,
            "type": "Feature",
            "geometry": {
                "type": "Point",
                "coordinates": [
                    22.19123,
                    51.87163
                ]
            },
            "properties": {
                "ref:rspo": 47095,
                "official_name": "Zesp\u00f3\u0142 Szk\u00f3\u0142 w Staninie",
                "name": "Zesp\u00f3\u0142 Szk\u00f3\u0142 w Staninie",
                "addr:postcode": "21-422",
                "addr:place": "Stanin",
                "addr:housenumber": "149",
                "addr:city:simc": 689711,
                "phone": "+48 257961184",
                "email": "szkola.stanin@stanin.pl",
                "website": "http:\/\/zs-stanin.pl",
                "ref:regon": "060061288",
                "ref:vatin": "PL8252116700",
                "operator": "Gmina Stanin",
                "operator:type": "government",
                "landuse": "education",
                "fixme": "amenity=school, amenity=college albo landuse=education w zale\u017cno\u015bci od tego, jakie plac\u00f3wki wchodz\u0105 w sk\u0142ad zespo\u0142u. Sprawd\u017a, kiedy stosowa\u0107 amenity=* a kiedy landuse=education.",
                "note": "Children RSPO: 114527;114528"
            }
        },
        {
            "id": 114527,
            "type": "Feature",
            "geometry": {
                "type": "Point",
                "coordinates": [
                    22.19123,
                    51.8716
                ]
            },
            "properties": {
                "isced:level": "1;2",
                "ref:rspo": 114527,
                "official_name": "Publiczna Szko\u0142a Podstawowa w Staninie",
                "name": "Publiczna Szko\u0142a Podstawowa w Staninie",
                "addr:postcode": "21-422",
                "addr:place": "Stanin",
                "addr:housenumber": "149",
                "addr:city:simc": 689711,
                "phone": "+48 257961184",
                "email": "szkola.stanin@stanin.pl",
                "website": "http:\/\/zs-stanin.pl",
                "ref:regon": "000718051",
                "ref:vatin": "PL8251397312",
                "operator": "Gmina Stanin",
                "operator:type": "government",
                "amenity": "school",
                "note": "Parent RSPO: 47095"
            }
        },
        {
            "id": 114528,
            "type": "Feature",
            "geometry": {
                "type": "Point",
                "coordinates": [
                    22.19123,
                    51.871570000000006
                ]
            },
            "properties": {
                "ref:rspo": 114528,
                "official_name": "Przedszkole w Staninie",
                "name": "Przedszkole w Staninie",
                "addr:postcode": "21-422",
                "addr:place": "Stanin",
                "addr:housenumber": "149",
                "addr:city:simc": 689711,
                "phone": "+48 257961184",
                "email": "szkola.stanin@stanin.pl",
                "website": "http:\/\/zs-stanin.pl",
                "ref:regon": "030804525",
                "ref:vatin": "PL8252108971",
                "operator": "Gmina Stanin",
                "operator:type": "government",
                "amenity": "kindergarten",
                "note": "Parent RSPO: 47095"
            }
        },
        {
            "id": 44434,
            "type": "Feature",
            "geometry": {
                "type": "Point",
                "coordinates": [
                    22.1318899,
                    51.88618
                ]
            },
            "properties": {
                "ref:rspo": 44434,
                "official_name": "Przedszkole Niepubliczne \"Bajka\" w Kopinie",
                "name": "Przedszkole Niepubliczne \"Bajka\" w Kopinie",
                "addr:postcode": "21-421",
                "addr:place": "Kopina",
                "addr:housenumber": "1",
                "addr:city:simc": 689467,
                "phone": "+48 513741031",
                "email": "llendzion@interia.pl",
                "ref:regon": "061476070",
                "ref:vatin": "PL8252056688",
                "operator": "Leszek Lendzion",
                "operator:type": "private",
                "amenity": "kindergarten"
            }
        },
        {
            "id": 10474,
            "type": "Feature",
            "geometry": {
                "type": "Point",
                "coordinates": [
                    22.06724,
                    51.88927
                ]
            },
            "properties": {
                "isced:level": "1;2",
                "ref:rspo": 10474,
                "official_name": "Niepubliczna Szko\u0142a Podstawowa Z Oddzia\u0142em Przedszkolnym we Wn\u0119trznem",
                "name": "Niepubliczna Szko\u0142a Podstawowa Z Oddzia\u0142em Przedszkolnym we Wn\u0119trznem",
                "addr:postcode": "21-421",
                "addr:place": "Wn\u0119trzne",
                "addr:housenumber": "35 A",
                "addr:city:simc": 689823,
                "phone": "+48 257961903",
                "email": "szkola35edu@onet.eu",
                "ref:regon": "061456126",
                "operator": "Stowarzyszenie Nasze Wn\u0119trzne",
                "operator:type": "ngo",
                "amenity": "school"
            }
        },
        {
            "id": 120430,
            "type": "Feature",
            "geometry": {
                "type": "Point",
                "coordinates": [
                    22.06724,
                    51.88924
                ]
            },
            "properties": {
                "ref:rspo": 120430,
                "official_name": "Niepubliczne Przedszkole we Wn\u0119trznem",
                "name": "Niepubliczne Przedszkole we Wn\u0119trznem",
                "addr:postcode": "21-421",
                "addr:place": "Wn\u0119trzne",
                "addr:housenumber": "35 A",
                "addr:city:simc": 689823,
                "phone": "+48 257961903",
                "email": "szkola35edu@onet.eu",
                "ref:regon": "061607128",
                "operator": "Stowarzyszenie Nasze Wn\u0119trzne",
                "operator:type": "ngo",
                "amenity": "kindergarten"
            }
        },
        {
            "id": 83476,
            "type": "Feature",
            "geometry": {
                "type": "Point",
                "coordinates": [
                    22.22569,
                    51.88936
                ]
            },
            "properties": {
                "ref:rspo": 83476,
                "official_name": "Zesp\u00f3\u0142 Szk\u00f3\u0142 w Tuchowiczu",
                "name": "Zesp\u00f3\u0142 Szk\u00f3\u0142 w Tuchowiczu",
                "addr:postcode": "21-421",
                "addr:place": "Tuchowicz",
                "addr:housenumber": "66C",
                "addr:city:simc": 689786,
                "phone": "+48 257961381",
                "email": "szkola.tuchowicz@stanin.pl",
                "website": "http:\/\/zs-tuchowicz.pl",
                "ref:regon": "060378772",
                "ref:vatin": "PL8252108824",
                "operator": "Gmina Stanin",
                "operator:type": "government",
                "landuse": "education",
                "fixme": "amenity=school, amenity=college albo landuse=education w zale\u017cno\u015bci od tego, jakie plac\u00f3wki wchodz\u0105 w sk\u0142ad zespo\u0142u. Sprawd\u017a, kiedy stosowa\u0107 amenity=* a kiedy landuse=education.",
                "note": "Children RSPO: 105509;115454"
            }
        },
        {
            "id": 105509,
            "type": "Feature",
            "geometry": {
                "type": "Point",
                "coordinates": [
                    22.22569,
                    51.88933
                ]
            },
            "properties": {
                "isced:level": "1;2",
                "ref:rspo": 105509,
                "official_name": "Publiczna Szko\u0142a Podstawowa w Tuchowiczu",
                "name": "Publiczna Szko\u0142a Podstawowa w Tuchowiczu",
                "addr:postcode": "21-421",
                "addr:place": "Tuchowicz",
                "addr:housenumber": "66C",
                "addr:city:simc": 689763,
                "phone": "+48 257961381",
                "email": "szkola.tuchowicz@stanin.pl",
                "website": "http:\/\/zs-tuchowicz.pl",
                "ref:regon": "001128110",
                "ref:vatin": "PL8251397364",
                "operator": "Gmina Stanin",
                "operator:type": "government",
                "amenity": "school",
                "note": "Parent RSPO: 83476"
            }
        },
        {
            "id": 115454,
            "type": "Feature",
            "geometry": {
                "type": "Point",
                "coordinates": [
                    22.22569,
                    51.889300000000006
                ]
            },
            "properties": {
                "ref:rspo": 115454,
                "official_name": "Przedszkole w Tuchowiczu",
                "name": "Przedszkole w Tuchowiczu",
                "addr:postcode": "21-421",
                "addr:place": "Tuchowicz",
                "addr:housenumber": "66C",
                "addr:city:simc": 689786,
                "phone": "+48 257961381",
                "email": "szkola.tuchowicz@stanin.pl",
                "ref:regon": "030804531",
                "ref:vatin": "PL8251817731",
                "operator": "Gmina Stanin",
                "operator:type": "government",
                "amenity": "kindergarten",
                "note": "Parent RSPO: 83476"
            }
        },
        {
            "id": 25672,
            "type": "Feature",
            "geometry": {
                "type": "Point",
                "coordinates": [
                    22.1233088,
                    51.916771
                ]
            },
            "properties": {
                "isced:level": "3",
                "ref:rspo": 25672,
                "official_name": "Liceum Og\u00f3lnokszta\u0142c\u0105ce dla Doros\u0142ych Twp w Zgo\u017adziu",
                "name": "Liceum Og\u00f3lnokszta\u0142c\u0105ce dla Doros\u0142ych Twp w Zgo\u017adziu",
                "addr:postcode": "21-421",
                "addr:place": "Lipniak",
                "addr:housenumber": "5",
                "addr:city:simc": 689527,
                "phone": "+48 257961812",
                "email": "biuro@twp.siedlce.pl",
                "ref:regon": "061469695",
                "operator": "Towarzystwo Wiedzy Powszechnej Oddzia\u0142 Regionalny W Siedlcach",
                "operator:type": "ngo",
                "amenity": "school"
            }
        },
        {
            "id": 114592,
            "type": "Feature",
            "geometry": {
                "type": "Point",
                "coordinates": [
                    22.1233088,
                    51.916740999999995
                ]
            },
            "properties": {
                "isced:level": "1;2",
                "ref:rspo": 114592,
                "official_name": "Publiczna Szko\u0142a Podstawowa im. Stanis\u0142awa Grafika w Zago\u017adziu",
                "name": "Publiczna Szko\u0142a Podstawowa",
                "addr:postcode": "21-421",
                "addr:place": "Lipniak",
                "addr:housenumber": "5",
                "addr:city:simc": 689527,
                "phone": "+48 257961812",
                "email": "szkola.zagozdzie@stanin.pl",
                "website": "http:\/\/pspzagozdzie.edupage.org\/",
                "ref:regon": "001128334",
                "ref:vatin": "PL8252180632",
                "operator": "Gmina Stanin",
                "operator:type": "government",
                "amenity": "school"
            }
        },
        {
            "id": 47088,
            "type": "Feature",
            "geometry": {
                "type": "Point",
                "coordinates": [
                    22.16622,
                    51.9358099
                ]
            },
            "properties": {
                "isced:level": "1;2",
                "ref:rspo": 47088,
                "official_name": "Publiczna Szko\u0142a Podstawowa w Zastawiu",
                "name": "Publiczna Szko\u0142a Podstawowa w Zastawiu",
                "addr:postcode": "21-421",
                "addr:place": "Zastawie",
                "addr:housenumber": "9",
                "addr:city:simc": 689875,
                "phone": "+48 253001219",
                "email": "szkola.zastawie@stanin.pl",
                "website": "http:\/\/www.szkolazastawie.edupage.org",
                "ref:regon": "001128340",
                "ref:vatin": "PL8251396749",
                "operator": "Gmina Stanin",
                "operator:type": "government",
                "amenity": "school"
            }
        }
    ]
}