{
    "type": "FeatureCollection",
    "features": [
        {
            "id": 16012,
            "type": "Feature",
            "geometry": {
                "type": "Point",
                "coordinates": [
                    22.0859099,
                    51.73984
                ]
            },
            "properties": {
                "ref:rspo": 16012,
                "official_name": "Zesp\u00f3\u0142 Szk\u00f3\u0142 w Okrzei",
                "name": "Zesp\u00f3\u0142 Szk\u00f3\u0142 w Okrzei",
                "addr:country": "PL",
                "addr:postcode": "21-480",
                "addr:city": "Okrzeja",
                "addr:street": "Szkolna",
                "addr:housenumber": "1",
                "addr:teryt:simc": 677257,
                "addr:teryt:sym_ul": 21970,
                "contact:phone": "+48 257550913",
                "contact:email": "gimokrzeja@o2.pl",
                "ref:regon": "060057571",
                "ref:vatin": "PL8252157283",
                "operator": "Gmina Krzywda",
                "operator:type": "government",
                "landuse": "education",
                "fixme": "amenity=school, amenity=college albo landuse=education w zale\u017cno\u015bci od tego, jakie plac\u00f3wki wchodz\u0105 w sk\u0142ad zespo\u0142u. Sprawd\u017a, kiedy stosowa\u0107 amenity=* a kiedy landuse=education.",
                "note": "Children RSPO: 26196;125573"
            }
        },
        {
            "id": 26196,
            "type": "Feature",
            "geometry": {
                "type": "Point",
                "coordinates": [
                    22.0859099,
                    51.73981
                ]
            },
            "properties": {
                "isced:level": "1;2",
                "ref:rspo": 26196,
                "official_name": "Szko\u0142a Podstawowa im. Henryka Sienkiewicza w Okrzei",
                "name": "Szko\u0142a Podstawowa",
                "addr:country": "PL",
                "addr:postcode": "21-480",
                "addr:city": "Okrzeja",
                "addr:street": "Szkolna",
                "addr:housenumber": "1",
                "addr:teryt:simc": 677257,
                "addr:teryt:sym_ul": 21970,
                "contact:phone": "+48 257550934",
                "contact:email": "gimokrzeja@o2.pl",
                "contact:website": "https:\/\/zsokrzeja.wixite.com",
                "ref:regon": "001124419",
                "ref:vatin": "PL8251393136",
                "operator": "Gmina Krzywda",
                "operator:type": "government",
                "amenity": "school",
                "note": "Parent RSPO: 16012"
            }
        },
        {
            "id": 125573,
            "type": "Feature",
            "geometry": {
                "type": "Point",
                "coordinates": [
                    22.0859099,
                    51.73978
                ]
            },
            "properties": {
                "ref:rspo": 125573,
                "official_name": "Publiczne Przedszkole w Okrzei",
                "name": "Publiczne Przedszkole w Okrzei",
                "addr:country": "PL",
                "addr:postcode": "21-480",
                "addr:city": "Okrzeja",
                "addr:street": "Szkolna",
                "addr:housenumber": "1",
                "addr:teryt:simc": 677257,
                "addr:teryt:sym_ul": 21970,
                "contact:phone": "+48 257550913",
                "contact:website": "https:\/\/zsokrzeja.wixite.com",
                "ref:regon": "061736512",
                "operator": "Gmina Krzywda",
                "operator:type": "government",
                "amenity": "kindergarten",
                "note": "Parent RSPO: 16012"
            }
        },
        {
            "id": 123707,
            "type": "Feature",
            "geometry": {
                "type": "Point",
                "coordinates": [
                    22.13235,
                    51.74734
                ]
            },
            "properties": {
                "ref:rspo": 123707,
                "official_name": "Zesp\u00f3\u0142 Szk\u00f3\u0142 w Woli Okrzejskiej",
                "name": "Zesp\u00f3\u0142 Szk\u00f3\u0142 w Woli Okrzejskiej",
                "addr:country": "PL",
                "addr:postcode": "21-480",
                "addr:city": "Wola Okrzejska",
                "addr:street": "Henryka Sienkiewicza",
                "addr:housenumber": "96",
                "addr:teryt:simc": 677412,
                "addr:teryt:sym_ul": 19834,
                "contact:phone": "+48 257976039",
                "contact:email": "szkolaokrzejska@op.pl",
                "contact:website": "http:\/\/www.szkolaokrzejska.szkolnastrona.pl",
                "ref:regon": "061711245",
                "ref:vatin": "PL8252174100",
                "operator": "Gmina Krzywda",
                "operator:type": "government",
                "landuse": "education",
                "fixme": "amenity=school, amenity=college albo landuse=education w zale\u017cno\u015bci od tego, jakie plac\u00f3wki wchodz\u0105 w sk\u0142ad zespo\u0142u. Sprawd\u017a, kiedy stosowa\u0107 amenity=* a kiedy landuse=education.",
                "note": "Children RSPO: 125110;125113"
            }
        },
        {
            "id": 125110,
            "type": "Feature",
            "geometry": {
                "type": "Point",
                "coordinates": [
                    22.13235,
                    51.74731
                ]
            },
            "properties": {
                "isced:level": "1;2",
                "ref:rspo": 125110,
                "official_name": "Szko\u0142a Podstawowa im. Henryka Sienkiewicza w Woli Okrzejskiej",
                "name": "Szko\u0142a Podstawowa",
                "addr:country": "PL",
                "addr:postcode": "21-480",
                "addr:city": "Wola Okrzejska",
                "addr:street": "Henryka Sienkiewicza",
                "addr:housenumber": "96",
                "addr:teryt:simc": 677412,
                "addr:teryt:sym_ul": 19834,
                "contact:phone": "+48 257976039",
                "contact:email": "szkolaokrzejska@op.pl",
                "contact:website": "http:\/\/www.szkolaokrzejska.szkolnastrona.pl",
                "ref:regon": "061730060",
                "operator": "Gmina Krzywda",
                "operator:type": "government",
                "amenity": "school",
                "note": "Parent RSPO: 123707"
            }
        },
        {
            "id": 125113,
            "type": "Feature",
            "geometry": {
                "type": "Point",
                "coordinates": [
                    22.13235,
                    51.74728
                ]
            },
            "properties": {
                "ref:rspo": 125113,
                "official_name": "Publiczne Przedszkole w Woli Okrzejskiej",
                "name": "Publiczne Przedszkole w Woli Okrzejskiej",
                "addr:country": "PL",
                "addr:postcode": "21-480",
                "addr:city": "Wola Okrzejska",
                "addr:street": "Henryka Sienkiewicza",
                "addr:housenumber": "96",
                "addr:teryt:simc": 677412,
                "addr:teryt:sym_ul": 19834,
                "contact:phone": "+48 257976039",
                "contact:email": "szkolaokrzejska@op.pl",
                "contact:website": "http:\/\/www.szkolaokrzejska.szkolnastrona.pl",
                "ref:regon": "061730076",
                "operator": "Gmina Krzywda",
                "operator:type": "government",
                "amenity": "kindergarten",
                "note": "Parent RSPO: 123707"
            }
        },
        {
            "id": 130799,
            "type": "Feature",
            "geometry": {
                "type": "Point",
                "coordinates": [
                    22.1973785,
                    51.791666
                ]
            },
            "properties": {
                "ref:rspo": 130799,
                "official_name": "Niepubliczna Specjalistyczna Poradnia Psychologiczno-Pedagogiczna",
                "name": "Niepubliczna Specjalistyczna Poradnia Psychologiczno-Pedagogiczna",
                "addr:country": "PL",
                "addr:postcode": "21-470",
                "addr:city": "Krzywda",
                "addr:street": "Armii Krajowej",
                "addr:housenumber": "31",
                "addr:teryt:simc": 677180,
                "addr:teryt:sym_ul": 432,
                "contact:phone": "+48 502754920",
                "contact:email": "poradniaterapeutyczna@wp.pl",
                "ref:regon": "364534797",
                "operator": "Agnieszka Bia\u0142ach",
                "operator:type": "private",
                "healthcare": "counselling",
                "counselling_type": "education",
                "fixme": "w zale\u017cno\u015bci od przedmiotu dzia\u0142alno\u015bci (np. healthcare=counselling + counselling_type=education albo healthcare=psychotherapist)"
            }
        },
        {
            "id": 196416,
            "type": "Feature",
            "geometry": {
                "type": "Point",
                "coordinates": [
                    22.1973785,
                    51.791636
                ]
            },
            "properties": {
                "ref:rspo": 196416,
                "official_name": "Niepubliczne Przedszkole Integracyjne \"Piotru\u015b Pan\" w Krzywdzie",
                "name": "Niepubliczne Przedszkole Integracyjne \"Piotru\u015b Pan\" w Krzywdzie",
                "addr:country": "PL",
                "addr:postcode": "21-470",
                "addr:city": "Krzywda",
                "addr:street": "Armii Krajowej",
                "addr:housenumber": "31",
                "addr:teryt:simc": 677180,
                "addr:teryt:sym_ul": 432,
                "contact:phone": "+48 502754920",
                "contact:email": "poradniaterapeutyczna@wp.pl",
                "ref:regon": "367997368",
                "operator": "Agnieszka Bia\u0142ach",
                "operator:type": "private",
                "amenity": "kindergarten"
            }
        },
        {
            "id": 15943,
            "type": "Feature",
            "geometry": {
                "type": "Point",
                "coordinates": [
                    22.19788,
                    51.79422
                ]
            },
            "properties": {
                "ref:rspo": 15943,
                "official_name": "Zesp\u00f3\u0142 Szk\u00f3\u0142 w Krzywdzie",
                "name": "Zesp\u00f3\u0142 Szk\u00f3\u0142 w Krzywdzie",
                "addr:country": "PL",
                "addr:postcode": "21-470",
                "addr:city": "Krzywda",
                "addr:street": "Osiedlowa",
                "addr:housenumber": "5",
                "addr:teryt:simc": 677180,
                "addr:teryt:sym_ul": 15300,
                "contact:phone": "+48 257551088",
                "contact:email": "zsspk@wp.pl",
                "ref:regon": "060400543",
                "ref:vatin": "PL8252157739",
                "operator": "Gmina Krzywda",
                "operator:type": "government",
                "landuse": "education",
                "fixme": "amenity=school, amenity=college albo landuse=education w zale\u017cno\u015bci od tego, jakie plac\u00f3wki wchodz\u0105 w sk\u0142ad zespo\u0142u. Sprawd\u017a, kiedy stosowa\u0107 amenity=* a kiedy landuse=education.",
                "note": "Children RSPO: 21768;21937"
            }
        },
        {
            "id": 21768,
            "type": "Feature",
            "geometry": {
                "type": "Point",
                "coordinates": [
                    22.19788,
                    51.79419
                ]
            },
            "properties": {
                "isced:level": "1;2",
                "ref:rspo": 21768,
                "official_name": "Szko\u0142a Podstawowa im. Marii Kownackiej w Krzywdzie",
                "name": "Szko\u0142a Podstawowa",
                "addr:country": "PL",
                "addr:postcode": "21-470",
                "addr:city": "Krzywda",
                "addr:street": "Osiedlowa",
                "addr:housenumber": "5",
                "addr:teryt:simc": 677180,
                "addr:teryt:sym_ul": 15300,
                "contact:phone": "+48 257551088",
                "contact:email": "zsspk@wp.pl",
                "contact:website": "http:\/\/zskrzywda.pl",
                "ref:regon": "005170190",
                "ref:vatin": "PL8251393107",
                "operator": "Gmina Krzywda",
                "operator:type": "government",
                "amenity": "school",
                "note": "Parent RSPO: 15943"
            }
        },
        {
            "id": 21937,
            "type": "Feature",
            "geometry": {
                "type": "Point",
                "coordinates": [
                    22.19788,
                    51.794160000000005
                ]
            },
            "properties": {
                "ref:rspo": 21937,
                "official_name": "Przedszkole w Krzywdzie",
                "name": "Przedszkole w Krzywdzie",
                "addr:country": "PL",
                "addr:postcode": "21-470",
                "addr:city": "Krzywda",
                "addr:street": "Osiedlowa",
                "addr:housenumber": "5",
                "addr:teryt:simc": 677180,
                "addr:teryt:sym_ul": 15300,
                "contact:phone": "+48 257551088",
                "contact:email": "zsspk@wp.pl",
                "contact:website": "http:\/\/zskrzywda.pl",
                "ref:regon": "710006823",
                "ref:vatin": "PL8251416191",
                "operator": "Gmina Krzywda",
                "operator:type": "government",
                "amenity": "kindergarten",
                "note": "Parent RSPO: 15943"
            }
        },
        {
            "id": 123708,
            "type": "Feature",
            "geometry": {
                "type": "Point",
                "coordinates": [
                    22.12915,
                    51.80265
                ]
            },
            "properties": {
                "ref:rspo": 123708,
                "official_name": "Zesp\u00f3\u0142 Szk\u00f3\u0142 w Radory\u017cu Smolanym",
                "name": "Zesp\u00f3\u0142 Szk\u00f3\u0142 w Radory\u017cu Smolanym",
                "addr:country": "PL",
                "addr:postcode": "21-470",
                "addr:place": "Radory\u017c Smolany",
                "addr:housenumber": "26",
                "addr:teryt:simc": 677323,
                "contact:phone": "+48 257551396",
                "contact:email": "sp_radsmol@poczta.onet.pl",
                "contact:website": "http:\/\/zsspradoryz.szkolnastrona.pl",
                "ref:regon": "061711268",
                "ref:vatin": "PL8252174152",
                "operator": "Gmina Krzywda",
                "operator:type": "government",
                "landuse": "education",
                "fixme": "amenity=school, amenity=college albo landuse=education w zale\u017cno\u015bci od tego, jakie plac\u00f3wki wchodz\u0105 w sk\u0142ad zespo\u0142u. Sprawd\u017a, kiedy stosowa\u0107 amenity=* a kiedy landuse=education.",
                "note": "Children RSPO: 125106;125107"
            }
        },
        {
            "id": 125106,
            "type": "Feature",
            "geometry": {
                "type": "Point",
                "coordinates": [
                    22.12915,
                    51.80262
                ]
            },
            "properties": {
                "isced:level": "1;2",
                "ref:rspo": 125106,
                "official_name": "Szko\u0142a Podstawowa Radory\u017cu Smolanym",
                "name": "Szko\u0142a Podstawowa Radory\u017cu Smolanym",
                "addr:country": "PL",
                "addr:postcode": "21-470",
                "addr:place": "Radory\u017c Smolany",
                "addr:housenumber": "26",
                "addr:teryt:simc": 677323,
                "contact:phone": "+48 257551396",
                "contact:email": "sp_radsmol@poczta.onet.pl",
                "contact:website": "http:\/\/zsspradoryz.szkolnastrona.pl\/",
                "ref:regon": "061730024",
                "ref:vatin": "PL8251396577",
                "operator": "Gmina Krzywda",
                "operator:type": "government",
                "amenity": "school",
                "note": "Parent RSPO: 123708"
            }
        },
        {
            "id": 125107,
            "type": "Feature",
            "geometry": {
                "type": "Point",
                "coordinates": [
                    22.12915,
                    51.80259
                ]
            },
            "properties": {
                "ref:rspo": 125107,
                "official_name": "Publiczne Przedszkole w Radory\u017cu Smolanym",
                "name": "Publiczne Przedszkole w Radory\u017cu Smolanym",
                "addr:country": "PL",
                "addr:postcode": "21-470",
                "addr:place": "Radory\u017c Smolany",
                "addr:housenumber": "26",
                "addr:teryt:simc": 677323,
                "contact:phone": "+48 257551396",
                "contact:email": "sp_radsmol@poczta.onet.pl",
                "contact:website": "http:\/\/zsspradoryz.szkolnastrona.pl\/",
                "ref:regon": "061730053",
                "ref:vatin": "PL8252173106",
                "operator": "Gmina Krzywda",
                "operator:type": "government",
                "amenity": "kindergarten",
                "note": "Parent RSPO: 123708"
            }
        },
        {
            "id": 133972,
            "type": "Feature",
            "geometry": {
                "type": "Point",
                "coordinates": [
                    22.16852,
                    51.80421
                ]
            },
            "properties": {
                "isced:level": "1;2",
                "ref:rspo": 133972,
                "official_name": "Szko\u0142a Podstawowa w Radory\u017cu Ko\u015bcielnym",
                "name": "Szko\u0142a Podstawowa w Radory\u017cu Ko\u015bcielnym",
                "addr:country": "PL",
                "addr:postcode": "21-470",
                "addr:place": "Radory\u017c Ko\u015bcielny",
                "addr:housenumber": "42",
                "addr:teryt:simc": 677317,
                "contact:phone": "+48 257551013",
                "contact:email": "spradoryzk@gmail.com",
                "contact:website": "http:\/\/spradoryz-k.edupage.org",
                "ref:regon": "367755754",
                "ref:vatin": "PL8252180129",
                "operator": "Gmina Krzywda",
                "operator:type": "government",
                "amenity": "school"
            }
        },
        {
            "id": 272667,
            "type": "Feature",
            "geometry": {
                "type": "Point",
                "coordinates": [
                    22.16852,
                    51.804179999999995
                ]
            },
            "properties": {
                "ref:rspo": 272667,
                "official_name": "Punkt Przedszkolny Przy Szkole Podstawowej w Radory\u017cu Ko\u015bcielnym",
                "name": "Punkt Przedszkolny Przy Szkole Podstawowej w Radory\u017cu Ko\u015bcielnym",
                "addr:country": "PL",
                "addr:postcode": "21-470",
                "addr:place": "Radory\u017c Ko\u015bcielny",
                "addr:housenumber": "42",
                "addr:teryt:simc": 677317,
                "contact:phone": "+48 257551013",
                "contact:email": "spradoryzk@gmail.com",
                "ref:regon": "384276240",
                "operator": "Gmina Krzywda",
                "operator:type": "government",
                "amenity": "kindergarten"
            }
        },
        {
            "id": 6077,
            "type": "Feature",
            "geometry": {
                "type": "Point",
                "coordinates": [
                    22.13635,
                    51.8063999
                ]
            },
            "properties": {
                "ref:rspo": 6077,
                "official_name": "Zesp\u00f3\u0142 Szk\u00f3\u0142 im.w\u0142adys\u0142awa Tatarkiewicza w Radory\u017cu Smolanym",
                "name": "Zesp\u00f3\u0142 Szk\u00f3\u0142 im.w\u0142adys\u0142awa Tatarkiewicza w Radory\u017cu Smolanym",
                "addr:country": "PL",
                "addr:postcode": "21-470",
                "addr:place": "Radory\u017c Smolany",
                "addr:housenumber": "8C",
                "addr:teryt:simc": 677323,
                "contact:phone": "+48 257551003",
                "contact:email": "zsradoryzsekretariat@wp.pl",
                "contact:website": "http:\/\/zsradoryz.pl",
                "ref:regon": "000096767",
                "operator": "Powiat \u0141ukowski",
                "operator:type": "government",
                "landuse": "education",
                "fixme": "amenity=school, amenity=college albo landuse=education w zale\u017cno\u015bci od tego, jakie plac\u00f3wki wchodz\u0105 w sk\u0142ad zespo\u0142u. Sprawd\u017a, kiedy stosowa\u0107 amenity=* a kiedy landuse=education.",
                "note": "Children RSPO: 15314;15316;15317;15318;15323;273967"
            }
        },
        {
            "id": 15314,
            "type": "Feature",
            "geometry": {
                "type": "Point",
                "coordinates": [
                    22.13635,
                    51.8063699
                ]
            },
            "properties": {
                "isced:level": "3",
                "ref:rspo": 15314,
                "official_name": "Liceum Og\u00f3lnokszta\u0142c\u0105ce w Radory\u017cu Smolanym",
                "name": "Liceum Og\u00f3lnokszta\u0142c\u0105ce w Radory\u017cu Smolanym",
                "addr:country": "PL",
                "addr:postcode": "21-470",
                "addr:place": "Radory\u017c Smolany",
                "addr:housenumber": "8C",
                "addr:teryt:simc": 677323,
                "contact:phone": "+48 257551003",
                "contact:email": "zsradoryzsekretariat@wp.pl",
                "contact:website": "http:\/\/www.zsradoryz.pl",
                "ref:regon": "030813814",
                "operator": "Powiat \u0141ukowski",
                "operator:type": "government",
                "amenity": "school",
                "note": "Parent RSPO: 6077"
            }
        },
        {
            "id": 15316,
            "type": "Feature",
            "geometry": {
                "type": "Point",
                "coordinates": [
                    22.13635,
                    51.806339900000005
                ]
            },
            "properties": {
                "isced:level": "3",
                "ref:rspo": 15316,
                "official_name": "Technikum w Radory\u017cu Smolanym",
                "name": "Technikum w Radory\u017cu Smolanym",
                "addr:country": "PL",
                "addr:postcode": "21-470",
                "addr:place": "Radory\u017c Smolany",
                "addr:housenumber": "8c",
                "addr:teryt:simc": 677323,
                "contact:phone": "+48 257551003",
                "contact:email": "zsradoryzsekretariat@wp.pl",
                "contact:website": "http:\/\/zsradoryz.pl",
                "ref:regon": "030311248",
                "operator": "Powiat \u0141ukowski",
                "operator:type": "government",
                "amenity": "school",
                "note": "Parent RSPO: 6077"
            }
        },
        {
            "id": 15317,
            "type": "Feature",
            "geometry": {
                "type": "Point",
                "coordinates": [
                    22.13635,
                    51.8063099
                ]
            },
            "properties": {
                "isced:level": "3",
                "ref:rspo": 15317,
                "official_name": "Bran\u017cowa Szko\u0142a I Stopnia w Radory\u017cu Smolanym",
                "name": "Bran\u017cowa Szko\u0142a I Stopnia w Radory\u017cu Smolanym",
                "addr:country": "PL",
                "addr:postcode": "21-470",
                "addr:place": "Radory\u017c Smolany",
                "addr:housenumber": "8c",
                "addr:teryt:simc": 677323,
                "contact:phone": "+48 257551003",
                "contact:email": "zsradoryzsekretariat@wp.pl",
                "contact:website": "http:\/\/www.zsradoryz.pl",
                "ref:regon": "061461297",
                "operator": "Powiat \u0141ukowski",
                "operator:type": "government",
                "amenity": "school",
                "note": "Parent RSPO: 6077"
            }
        },
        {
            "id": 15318,
            "type": "Feature",
            "geometry": {
                "type": "Point",
                "coordinates": [
                    22.13635,
                    51.8062799
                ]
            },
            "properties": {
                "isced:level": "3",
                "ref:rspo": 15318,
                "official_name": "Liceum Og\u00f3lnokszta\u0142c\u0105ce dla Doros\u0142ych w Radory\u017cu Smolanym",
                "name": "Liceum Og\u00f3lnokszta\u0142c\u0105ce dla Doros\u0142ych w Radory\u017cu Smolanym",
                "addr:country": "PL",
                "addr:postcode": "21-470",
                "addr:place": "Radory\u017c Smolany",
                "addr:housenumber": "8c",
                "addr:teryt:simc": 677323,
                "contact:phone": "+48 257551003",
                "contact:email": "zsradoryzsekretariat@wp.pl",
                "contact:website": "http:\/\/zsradoryz.pl",
                "ref:regon": "060521844",
                "operator": "Powiat \u0141ukowski",
                "operator:type": "government",
                "amenity": "school",
                "note": "Parent RSPO: 6077"
            }
        },
        {
            "id": 15323,
            "type": "Feature",
            "geometry": {
                "type": "Point",
                "coordinates": [
                    22.13635,
                    51.806249900000005
                ]
            },
            "properties": {
                "isced:level": "4",
                "ref:rspo": 15323,
                "official_name": "Szko\u0142a Policealna w Radory\u017cu Smolanym",
                "name": "Szko\u0142a Policealna w Radory\u017cu Smolanym",
                "addr:country": "PL",
                "addr:postcode": "21-470",
                "addr:place": "Radory\u017c Smolany",
                "addr:housenumber": "8c",
                "addr:teryt:simc": 677323,
                "contact:phone": "+48 257551003",
                "contact:email": "zsradoryzsekretariat@wp.pl",
                "contact:website": "http:\/\/www.zsradoryz.pl",
                "ref:regon": "060169063",
                "operator": "Powiat \u0141ukowski",
                "operator:type": "government",
                "amenity": "college",
                "note": "Parent RSPO: 6077"
            }
        },
        {
            "id": 273967,
            "type": "Feature",
            "geometry": {
                "type": "Point",
                "coordinates": [
                    22.13635,
                    51.8062199
                ]
            },
            "properties": {
                "ref:rspo": 273967,
                "official_name": "Centrum Kszta\u0142cenia Zawodowego w Radory\u017cu Smolanym",
                "name": "Centrum Kszta\u0142cenia Zawodowego w Radory\u017cu Smolanym",
                "addr:country": "PL",
                "addr:postcode": "21-470",
                "addr:place": "Radory\u017c Smolany",
                "addr:housenumber": "8c",
                "addr:teryt:simc": 677323,
                "contact:phone": "+48 257551003",
                "contact:email": "zsradoryzsekretariat@wp.pl",
                "contact:website": "http:\/\/zsradoryz.pl",
                "ref:regon": "384922331",
                "operator": "Powiat \u0141ukowski",
                "operator:type": "government",
                "fixme": "w zale\u017cno\u015bci od przedmiotu dzia\u0142alno\u015bci (np. amenity=training + training=*, amenity=dancing_school, amenity=language_school, amenity=music_school) albo amenity=school, amenity=college, albo landuse=education w zale\u017cno\u015bci od tego, jakie plac\u00f3wki wchodz\u0105 w sk\u0142ad zespo\u0142u. Sprawd\u017a, kiedy stosowa\u0107 amenity=* a kiedy landuse=education.",
                "note": "Parent RSPO: 6077"
            }
        },
        {
            "id": 15761,
            "type": "Feature",
            "geometry": {
                "type": "Point",
                "coordinates": [
                    22.04834,
                    51.81091
                ]
            },
            "properties": {
                "ref:rspo": 15761,
                "official_name": "Zesp\u00f3\u0142 Szk\u00f3\u0142 w Hucie D\u0105browie",
                "name": "Zesp\u00f3\u0142 Szk\u00f3\u0142 w Hucie D\u0105browie",
                "addr:country": "PL",
                "addr:postcode": "21-470",
                "addr:city": "Huta-D\u0105browa",
                "addr:street": "Hutnicza",
                "addr:housenumber": "30",
                "addr:teryt:simc": 677100,
                "addr:teryt:sym_ul": 6825,
                "contact:phone": "+48 257550416",
                "contact:email": "szkola@zshd.eu",
                "contact:website": "http:\/\/www.zshd.eu",
                "ref:regon": "060703901",
                "ref:vatin": "PL8252157202",
                "operator": "Gmina Krzywda",
                "operator:type": "government",
                "landuse": "education",
                "fixme": "amenity=school, amenity=college albo landuse=education w zale\u017cno\u015bci od tego, jakie plac\u00f3wki wchodz\u0105 w sk\u0142ad zespo\u0142u. Sprawd\u017a, kiedy stosowa\u0107 amenity=* a kiedy landuse=education.",
                "note": "Children RSPO: 21257;21767"
            }
        },
        {
            "id": 21257,
            "type": "Feature",
            "geometry": {
                "type": "Point",
                "coordinates": [
                    22.04834,
                    51.81088
                ]
            },
            "properties": {
                "isced:level": "1;2",
                "ref:rspo": 21257,
                "official_name": "Szko\u0142a Podstawowa im. Komisji Edukacji Narodowej w Hucie D\u0105browie",
                "name": "Szko\u0142a Podstawowa",
                "addr:country": "PL",
                "addr:postcode": "21-470",
                "addr:city": "Huta-D\u0105browa",
                "addr:street": "Hutnicza",
                "addr:housenumber": "30",
                "addr:teryt:simc": 677100,
                "addr:teryt:sym_ul": 6825,
                "contact:phone": "+48 257550416",
                "contact:email": "szkola@zshd.eu",
                "contact:website": "http:\/\/www.zshd.eu",
                "ref:regon": "001124425",
                "ref:vatin": "PL8251393165",
                "operator": "Gmina Krzywda",
                "operator:type": "government",
                "amenity": "school",
                "note": "Parent RSPO: 15761"
            }
        },
        {
            "id": 21767,
            "type": "Feature",
            "geometry": {
                "type": "Point",
                "coordinates": [
                    22.04834,
                    51.81085
                ]
            },
            "properties": {
                "ref:rspo": 21767,
                "official_name": "Przedszkole w Hucie D\u0105browie",
                "name": "Przedszkole w Hucie D\u0105browie",
                "addr:country": "PL",
                "addr:postcode": "21-470",
                "addr:city": "Huta-D\u0105browa",
                "addr:street": "Hutnicza",
                "addr:housenumber": "30",
                "addr:teryt:simc": 677100,
                "addr:teryt:sym_ul": 6825,
                "contact:phone": "+48 257550416",
                "contact:email": "szkola@zshd.eu",
                "contact:website": "http:\/\/www.zshd.eu",
                "ref:regon": "710006817",
                "ref:vatin": "PL8251416216",
                "operator": "Gmina Krzywda",
                "operator:type": "government",
                "amenity": "kindergarten",
                "note": "Parent RSPO: 15761"
            }
        },
        {
            "id": 123709,
            "type": "Feature",
            "geometry": {
                "type": "Point",
                "coordinates": [
                    22.11358,
                    51.83599
                ]
            },
            "properties": {
                "ref:rspo": 123709,
                "official_name": "Zesp\u00f3\u0142 Szk\u00f3\u0142 w Fiuk\u00f3wce",
                "name": "Zesp\u00f3\u0142 Szk\u00f3\u0142 w Fiuk\u00f3wce",
                "addr:country": "PL",
                "addr:postcode": "21-470",
                "addr:place": "Fiuk\u00f3wka",
                "addr:housenumber": "9",
                "addr:teryt:simc": 677040,
                "contact:phone": "+48 257550061",
                "contact:email": "spfiukowka@wp.pl",
                "contact:website": "https:\/\/zsfiukowka.edupage.org\/",
                "ref:regon": "061711274",
                "ref:vatin": "PL8252174117",
                "operator": "Gmina Krzywda",
                "operator:type": "government",
                "landuse": "education",
                "fixme": "amenity=school, amenity=college albo landuse=education w zale\u017cno\u015bci od tego, jakie plac\u00f3wki wchodz\u0105 w sk\u0142ad zespo\u0142u. Sprawd\u017a, kiedy stosowa\u0107 amenity=* a kiedy landuse=education.",
                "note": "Children RSPO: 125104;125105"
            }
        },
        {
            "id": 125104,
            "type": "Feature",
            "geometry": {
                "type": "Point",
                "coordinates": [
                    22.11358,
                    51.83596
                ]
            },
            "properties": {
                "isced:level": "1;2",
                "ref:rspo": 125104,
                "official_name": "Szko\u0142a Podstawowa w Fiuk\u00f3wce",
                "name": "Szko\u0142a Podstawowa w Fiuk\u00f3wce",
                "addr:country": "PL",
                "addr:postcode": "21-470",
                "addr:place": "Fiuk\u00f3wka",
                "addr:housenumber": "9",
                "addr:teryt:simc": 677040,
                "contact:phone": "+48 257550061",
                "contact:email": "spfiukowka@wp.pl",
                "contact:website": "https:\/\/zsfiukowka.edupage.org\/",
                "ref:regon": "061729995",
                "operator": "Gmina Krzywda",
                "operator:type": "government",
                "amenity": "school",
                "note": "Parent RSPO: 123709"
            }
        },
        {
            "id": 125105,
            "type": "Feature",
            "geometry": {
                "type": "Point",
                "coordinates": [
                    22.11358,
                    51.835930000000005
                ]
            },
            "properties": {
                "ref:rspo": 125105,
                "official_name": "Publiczne Przedszkole w Fiuk\u00f3wce",
                "name": "Publiczne Przedszkole w Fiuk\u00f3wce",
                "addr:country": "PL",
                "addr:postcode": "21-470",
                "addr:place": "Fiuk\u00f3wka",
                "addr:housenumber": "9",
                "addr:teryt:simc": 677040,
                "contact:phone": "+48 257550061",
                "contact:email": "spfiukowka@wp.pl",
                "contact:website": "https:\/\/zsfiukowka.edupage.org",
                "ref:regon": "061730001",
                "ref:vatin": "PL8252173112",
                "operator": "Gmina Krzywda",
                "operator:type": "government",
                "amenity": "kindergarten",
                "note": "Parent RSPO: 123709"
            }
        }
    ]
}