{
    "type": "FeatureCollection",
    "features": [
        {
            "id": 5373,
            "type": "Feature",
            "geometry": {
                "type": "Point",
                "coordinates": [
                    22.47385,
                    53.63751
                ]
            },
            "properties": {
                "ref:rspo": 5373,
                "official_name": "Zesp\u00f3\u0142 Szk\u00f3\u0142 nr 2 im. 9. Pu\u0142ku Strzelc\u00f3w Konnych w Grajewie",
                "name": "Zesp\u00f3\u0142 Szk\u00f3\u0142 nr 2",
                "addr:postcode": "19-200",
                "addr:city": "Grajewo",
                "addr:street": "Wojska Polskiego",
                "addr:housenumber": "84",
                "addr:city:simc": 957376,
                "addr:street:sym_ul": 24628,
                "phone": "+48 862723181",
                "email": "zsnr2grajewo@wp.pl",
                "website": "http:\/\/www.zs2.grajewo.pl",
                "ref:regon": "450110177",
                "ref:vatin": "PL7191101074",
                "operator": "Powiat Grajewski",
                "operator:type": "government",
                "landuse": "education",
                "fixme": "amenity=school, amenity=college albo landuse=education w zale\u017cno\u015bci od tego, jakie plac\u00f3wki wchodz\u0105 w sk\u0142ad zespo\u0142u. Sprawd\u017a, kiedy stosowa\u0107 amenity=* a kiedy landuse=education.",
                "note": "Children RSPO: 7422;7424"
            }
        },
        {
            "id": 7422,
            "type": "Feature",
            "geometry": {
                "type": "Point",
                "coordinates": [
                    22.47385,
                    53.63748
                ]
            },
            "properties": {
                "isced:level": "3",
                "ref:rspo": 7422,
                "official_name": "Technikum w Grajewie",
                "name": "Technikum w Grajewie",
                "addr:postcode": "19-200",
                "addr:city": "Grajewo",
                "addr:street": "Wojska Polskiego",
                "addr:housenumber": "84",
                "addr:city:simc": 957376,
                "addr:street:sym_ul": 24628,
                "phone": "+48 862723181",
                "email": "zsnr2grajewo@wp.pl",
                "website": "http:\/\/www.zs2.grajewo.pl",
                "ref:regon": "451151020",
                "operator": "Powiat Grajewski",
                "operator:type": "government",
                "amenity": "school",
                "note": "Parent RSPO: 5373"
            }
        },
        {
            "id": 7424,
            "type": "Feature",
            "geometry": {
                "type": "Point",
                "coordinates": [
                    22.47385,
                    53.63745
                ]
            },
            "properties": {
                "isced:level": "3",
                "ref:rspo": 7424,
                "official_name": "Ii Liceum Og\u00f3lnokszta\u0142c\u0105ce w Grajewie",
                "name": "Ii Liceum Og\u00f3lnokszta\u0142c\u0105ce w Grajewie",
                "addr:postcode": "19-200",
                "addr:city": "Grajewo",
                "addr:street": "Wojska Polskiego",
                "addr:housenumber": "84",
                "addr:city:simc": 957376,
                "addr:street:sym_ul": 24628,
                "phone": "+48 862723181",
                "email": "zsnr2grajewo@wp.pl",
                "website": "http:\/\/www.zs2.grajewo.pl",
                "ref:regon": "451204928",
                "operator": "Powiat Grajewski",
                "operator:type": "government",
                "amenity": "school",
                "note": "Parent RSPO: 5373"
            }
        },
        {
            "id": 43878,
            "type": "Feature",
            "geometry": {
                "type": "Point",
                "coordinates": [
                    22.46422,
                    53.64176
                ]
            },
            "properties": {
                "ref:rspo": 43878,
                "official_name": "Przedszkole Miejskie nr 2 w Grajewie",
                "name": "Przedszkole Miejskie nr 2 w Grajewie",
                "addr:postcode": "19-200",
                "addr:city": "Grajewo",
                "addr:street": "Ignacego Krasickiego",
                "addr:housenumber": "2",
                "addr:city:simc": 957376,
                "addr:street:sym_ul": 9830,
                "phone": "+48 862727074",
                "email": "bc.pm2@wp.pl",
                "ref:regon": "450031087",
                "ref:vatin": "PL7191397608",
                "operator": "Miasto Grajewo",
                "operator:type": "government",
                "amenity": "kindergarten"
            }
        },
        {
            "id": 273919,
            "type": "Feature",
            "geometry": {
                "type": "Point",
                "coordinates": [
                    22.46025,
                    53.64205
                ]
            },
            "properties": {
                "ref:rspo": 273919,
                "official_name": "Niepubliczne Przedszkole J\u0119zykowe \"Modernkids\" w Grajewie",
                "name": "Niepubliczne Przedszkole J\u0119zykowe \"Modernkids\" w Grajewie",
                "addr:postcode": "19-200",
                "addr:city": "Grajewo",
                "addr:street": "Wojska Polskiego",
                "addr:housenumber": "50",
                "addr:city:simc": 957376,
                "addr:street:sym_ul": 24628,
                "email": "biuro@modern-school.pl",
                "ref:regon": "384869269",
                "operator": "Ewelina Rutkowska",
                "operator:type": "private",
                "amenity": "kindergarten"
            }
        },
        {
            "id": 43913,
            "type": "Feature",
            "geometry": {
                "type": "Point",
                "coordinates": [
                    22.46707,
                    53.64358
                ]
            },
            "properties": {
                "ref:rspo": 43913,
                "official_name": "Przedszkole Miejskie nr 6 w Grajewie",
                "name": "Przedszkole Miejskie nr 6 w Grajewie",
                "addr:postcode": "19-200",
                "addr:city": "Grajewo",
                "addr:street": "Osiedle Osiedle Po\u0142udnie",
                "addr:housenumber": "34",
                "addr:city:simc": 957376,
                "addr:street:sym_ul": 51579,
                "phone": "+48 862723504",
                "email": "uk.pm6@wp.pl",
                "ref:regon": "450031118",
                "ref:vatin": "PL7191397614",
                "operator": "Miasto Grajewo",
                "operator:type": "government",
                "amenity": "kindergarten"
            }
        },
        {
            "id": 54359,
            "type": "Feature",
            "geometry": {
                "type": "Point",
                "coordinates": [
                    22.4538699,
                    53.64363
                ]
            },
            "properties": {
                "isced:level": "1;2",
                "ref:rspo": 54359,
                "official_name": "Szko\u0142a Podstawowa nr 1 im. K.I. Ga\u0142czy\u0144skiego w Grajewie",
                "name": "Szko\u0142a Podstawowa nr 1",
                "addr:postcode": "19-200",
                "addr:city": "Grajewo",
                "addr:street": "Szkolna",
                "addr:housenumber": "12",
                "addr:city:simc": 957376,
                "addr:street:sym_ul": 21970,
                "phone": "+48 862724828",
                "email": "sp1.grajewo@wp.pl",
                "ref:regon": "000719599",
                "ref:vatin": "PL7191450774",
                "operator": "Miasto Grajewo",
                "operator:type": "government",
                "amenity": "school"
            }
        },
        {
            "id": 274678,
            "type": "Feature",
            "geometry": {
                "type": "Point",
                "coordinates": [
                    22.4538699,
                    53.6436
                ]
            },
            "properties": {
                "isced:level": "3",
                "ref:rspo": 274678,
                "official_name": "Liceum Og\u00f3lnokszta\u0142c\u0105ce dla Doros\u0142ych \"Mentor\" w Grajewie",
                "name": "Liceum Og\u00f3lnokszta\u0142c\u0105ce dla Doros\u0142ych \"Mentor\" w Grajewie",
                "addr:postcode": "19-200",
                "addr:city": "Grajewo",
                "addr:street": "Szkolna",
                "addr:housenumber": "12",
                "addr:city:simc": 957376,
                "addr:street:sym_ul": 21970,
                "phone": "+48 606626907",
                "email": "lucbag@o2.pl",
                "ref:regon": "386213640",
                "operator": "Lucyna Bagi\u0144ska",
                "operator:type": "private",
                "amenity": "school"
            }
        },
        {
            "id": 83713,
            "type": "Feature",
            "geometry": {
                "type": "Point",
                "coordinates": [
                    22.46561,
                    53.64585
                ]
            },
            "properties": {
                "isced:level": "1;2",
                "ref:rspo": 83713,
                "official_name": "Szko\u0142a Podstawowa nr 4 im. Henryka Sienkiewicza w Grajewie",
                "name": "Szko\u0142a Podstawowa nr 4",
                "addr:postcode": "19-200",
                "addr:city": "Grajewo",
                "addr:street": "Konstytucji 3-go Maja",
                "addr:housenumber": "23",
                "addr:city:simc": 957376,
                "addr:street:sym_ul": 31055,
                "phone": "+48 862723078",
                "email": "sekretariat@sp4.grajewo.com",
                "website": "http:\/\/www.sp4.grajewo.com",
                "ref:regon": "000719620",
                "ref:vatin": "PL7191565796",
                "operator": "Miasto Grajewo",
                "operator:type": "government",
                "amenity": "school"
            }
        },
        {
            "id": 7314,
            "type": "Feature",
            "geometry": {
                "type": "Point",
                "coordinates": [
                    22.44916,
                    53.64658
                ]
            },
            "properties": {
                "ref:rspo": 7314,
                "official_name": "Zak\u0142ad Doskonalenia Zawodowego w Bia\u0142ymstoku O\u015brodek Kszta\u0142cenia Zawodowego w Grajewie",
                "name": "Zak\u0142ad Doskonalenia Zawodowego w Bia\u0142ymstoku O\u015brodek Kszta\u0142cenia Zawodowego w Grajewie",
                "addr:postcode": "19-200",
                "addr:city": "Grajewo",
                "addr:street": "Kolejowa",
                "addr:housenumber": "6B",
                "addr:city:simc": 957376,
                "addr:street:sym_ul": 8828,
                "phone": "+48 862726427",
                "email": "grajewo@zdz.bialystok.pl",
                "website": "http:\/\/www.zdz.bialystok.pl",
                "ref:regon": "200720930",
                "ref:vatin": "PL5420000305",
                "operator": "Zak\u0142ad Doskonalenia Zawodowego",
                "operator:type": "ngo",
                "fixme": "w zale\u017cno\u015bci od przedmiotu dzia\u0142alno\u015bci (np. amenity=training + training=*, amenity=dancing_school, amenity=language_school, amenity=music_school)"
            }
        },
        {
            "id": 43337,
            "type": "Feature",
            "geometry": {
                "type": "Point",
                "coordinates": [
                    22.45232,
                    53.64844
                ]
            },
            "properties": {
                "ref:rspo": 43337,
                "official_name": "Prywatna Szko\u0142a Muzyczna I St. w Grajewie",
                "name": "Prywatna Szko\u0142a Muzyczna I St. w Grajewie",
                "addr:postcode": "19-200",
                "addr:city": "Grajewo",
                "addr:street": "Doktora Tadeusza Nowickiego",
                "addr:housenumber": "5",
                "addr:door": "20",
                "addr:city:simc": 957376,
                "addr:street:sym_ul": 48314,
                "phone": "+48 857323161",
                "email": "antonisasinowski@wp.pl",
                "ref:regon": "200735617",
                "operator": "Antoni Sasinowski",
                "operator:type": "private",
                "amenity": "music_school"
            }
        },
        {
            "id": 103542,
            "type": "Feature",
            "geometry": {
                "type": "Point",
                "coordinates": [
                    22.45232,
                    53.64841
                ]
            },
            "properties": {
                "ref:rspo": 103542,
                "official_name": "Pa\u0144stwowa Szko\u0142a Muzyczna I St. im. Jana Sebastiana Bacha w Grajewie",
                "name": "Pa\u0144stwowa Szko\u0142a Muzyczna I St.",
                "addr:postcode": "19-200",
                "addr:city": "Grajewo",
                "addr:street": "Doktora Tadeusza Nowickiego",
                "addr:housenumber": "5",
                "addr:city:simc": 957376,
                "addr:street:sym_ul": 48314,
                "phone": "+48 862722582",
                "email": "psm@hot.pl",
                "website": "http:\/\/psmgrajewo.com",
                "ref:regon": "000929010",
                "operator": "Ministerstwo Kultury I Dziedzictwa Narodowego",
                "operator:type": "public",
                "amenity": "music_school",
                "note": "Children RSPO: 111848"
            }
        },
        {
            "id": 121618,
            "type": "Feature",
            "geometry": {
                "type": "Point",
                "coordinates": [
                    22.46882,
                    53.64875
                ]
            },
            "properties": {
                "ref:rspo": 121618,
                "official_name": "Niepubliczne Przedszkole nr 1 \"Akademia Dobrego Startu\" w Grajewie",
                "name": "Niepubliczne Przedszkole nr 1 \"Akademia Dobrego Startu\" w Grajewie",
                "addr:postcode": "19-200",
                "addr:city": "Grajewo",
                "addr:street": "Targowa",
                "addr:housenumber": "6",
                "addr:city:simc": 957376,
                "addr:street:sym_ul": 22659,
                "phone": "+48 512984936",
                "website": "http:\/\/www.adsgrajewo.pl",
                "ref:regon": "200831812",
                "operator": "Izabela Olszewska",
                "operator:type": "private",
                "amenity": "kindergarten"
            }
        },
        {
            "id": 5375,
            "type": "Feature",
            "geometry": {
                "type": "Point",
                "coordinates": [
                    22.45532,
                    53.6495
                ]
            },
            "properties": {
                "ref:rspo": 5375,
                "official_name": "Zesp\u00f3\u0142 Szk\u00f3\u0142 Specjalnych im. Jana Paw\u0142a II w Grajewie",
                "name": "Zesp\u00f3\u0142 Szk\u00f3\u0142 Specjalnych",
                "addr:postcode": "19-200",
                "addr:city": "Grajewo",
                "addr:street": "E\u0142cka",
                "addr:housenumber": "11",
                "addr:city:simc": 957376,
                "addr:street:sym_ul": 4794,
                "phone": "+48 862723115",
                "email": "zs3grajewo@gmail.com",
                "website": "http:\/\/www.zss3grajewo.szkolna.net",
                "ref:regon": "000719613",
                "ref:vatin": "PL7191008943",
                "operator": "Powiat Grajewski",
                "operator:type": "government",
                "landuse": "education",
                "fixme": "amenity=school, amenity=college albo landuse=education w zale\u017cno\u015bci od tego, jakie plac\u00f3wki wchodz\u0105 w sk\u0142ad zespo\u0142u. Sprawd\u017a, kiedy stosowa\u0107 amenity=* a kiedy landuse=education.",
                "note": "Children RSPO: 7854;7855;7857"
            }
        },
        {
            "id": 7854,
            "type": "Feature",
            "geometry": {
                "type": "Point",
                "coordinates": [
                    22.45532,
                    53.64947
                ]
            },
            "properties": {
                "isced:level": "3",
                "ref:rspo": 7854,
                "official_name": "Bran\u017cowa Szko\u0142a I Stopnia Specjalna w Grajewie",
                "name": "Bran\u017cowa Szko\u0142a I Stopnia Specjalna w Grajewie",
                "addr:postcode": "19-200",
                "addr:city": "Grajewo",
                "addr:street": "E\u0142cka",
                "addr:housenumber": "11",
                "addr:city:simc": 957376,
                "addr:street:sym_ul": 4794,
                "phone": "+48 862723115",
                "email": "zs3grajewo@gmail.com",
                "website": "http:\/\/www.zs3.grajewo.net.pl",
                "ref:regon": "451099288",
                "operator": "Powiat Grajewski",
                "operator:type": "government",
                "amenity": "school",
                "note": "Parent RSPO: 5375"
            }
        },
        {
            "id": 7855,
            "type": "Feature",
            "geometry": {
                "type": "Point",
                "coordinates": [
                    22.45532,
                    53.649440000000006
                ]
            },
            "properties": {
                "isced:level": "1;2",
                "ref:rspo": 7855,
                "official_name": "Szko\u0142a Podstawowa nr 3 Specjalna w Grajewie",
                "name": "Szko\u0142a Podstawowa nr 3 Specjalna w Grajewie",
                "addr:postcode": "19-200",
                "addr:city": "Grajewo",
                "addr:street": "E\u0142cka",
                "addr:housenumber": "11",
                "addr:city:simc": 957376,
                "addr:street:sym_ul": 4794,
                "phone": "+48 862723115",
                "email": "zs3grajewo@gmail.com",
                "website": "http:\/\/www.zs3.grajewo.net.pl",
                "ref:regon": "451099265",
                "operator": "Powiat Grajewski",
                "operator:type": "government",
                "amenity": "school",
                "note": "Parent RSPO: 5375"
            }
        },
        {
            "id": 7857,
            "type": "Feature",
            "geometry": {
                "type": "Point",
                "coordinates": [
                    22.45532,
                    53.64941
                ]
            },
            "properties": {
                "ref:rspo": 7857,
                "official_name": "Szko\u0142a Specjalna Przysposabiaj\u0105ca do Pracy w Grajewie",
                "name": "Szko\u0142a Specjalna Przysposabiaj\u0105ca do Pracy w Grajewie",
                "addr:postcode": "19-200",
                "addr:city": "Grajewo",
                "addr:street": "E\u0142cka",
                "addr:housenumber": "11",
                "addr:city:simc": 957376,
                "addr:street:sym_ul": 4794,
                "phone": "+48 862723115",
                "email": "zs3grajewo@gmail.com",
                "website": "http:\/\/www.zs3.grajewo.net.pl",
                "ref:regon": "200010009",
                "operator": "Powiat Grajewski",
                "operator:type": "government",
                "amenity": "school",
                "note": "Parent RSPO: 5375"
            }
        },
        {
            "id": 262343,
            "type": "Feature",
            "geometry": {
                "type": "Point",
                "coordinates": [
                    22.45352,
                    53.65036
                ]
            },
            "properties": {
                "ref:rspo": 262343,
                "official_name": "Terapeutyczny Punkt Przedszkolny \"Milowy Krok\"",
                "name": "Terapeutyczny Punkt Przedszkolny \"Milowy Krok\"",
                "addr:postcode": "19-200",
                "addr:city": "Grajewo",
                "addr:street": "Adama Mickiewicza",
                "addr:housenumber": "6F",
                "addr:city:simc": 957376,
                "addr:street:sym_ul": 32579,
                "email": "milowykrok.grajewo@gmail.com",
                "ref:regon": "367986092",
                "operator": "Martyna Czubajko",
                "operator:type": "private",
                "amenity": "kindergarten"
            }
        },
        {
            "id": 43912,
            "type": "Feature",
            "geometry": {
                "type": "Point",
                "coordinates": [
                    22.45732,
                    53.65062
                ]
            },
            "properties": {
                "ref:rspo": 43912,
                "official_name": "Przedszkole Miejskie nr 4 w Grajewie",
                "name": "Przedszkole Miejskie nr 4 w Grajewie",
                "addr:postcode": "19-200",
                "addr:city": "Grajewo",
                "addr:street": "E\u0142cka",
                "addr:housenumber": "31",
                "addr:city:simc": 957376,
                "addr:street:sym_ul": 4794,
                "phone": "+48 862722608",
                "email": "kontakt@pm4.grajewo.pl",
                "website": "http:\/\/www.pm4.grajewo.pl",
                "ref:regon": "450031101",
                "ref:vatin": "PL7191378580",
                "operator": "Miasto Grajewo",
                "operator:type": "government",
                "amenity": "kindergarten"
            }
        },
        {
            "id": 5403,
            "type": "Feature",
            "geometry": {
                "type": "Point",
                "coordinates": [
                    22.45283,
                    53.65078
                ]
            },
            "properties": {
                "ref:rspo": 5403,
                "official_name": "Poradnia Psychologiczno-Pedagogiczna w Grajewie",
                "name": "Poradnia Psychologiczno-Pedagogiczna w Grajewie",
                "addr:postcode": "19-200",
                "addr:city": "Grajewo",
                "addr:street": "Adama Mickiewicza",
                "addr:housenumber": "3",
                "addr:city:simc": 957376,
                "addr:street:sym_ul": 32579,
                "phone": "+48 862723587",
                "email": "pppgrajewo@wp.pl",
                "website": "http:\/\/www.ppp.grajewo.com",
                "ref:regon": "000833214",
                "ref:vatin": "PL7191429768",
                "operator": "Powiat Grajewski",
                "operator:type": "government",
                "healthcare": "counselling",
                "counselling_type": "education",
                "fixme": "w zale\u017cno\u015bci od przedmiotu dzia\u0142alno\u015bci (np. healthcare=counselling + counselling_type=education albo healthcare=psychotherapist)"
            }
        },
        {
            "id": 7427,
            "type": "Feature",
            "geometry": {
                "type": "Point",
                "coordinates": [
                    22.45283,
                    53.650749999999995
                ]
            },
            "properties": {
                "ref:rspo": 7427,
                "official_name": "Zesp\u00f3\u0142 Szk\u00f3\u0142 nr 1 w Grajewie",
                "name": "Zesp\u00f3\u0142 Szk\u00f3\u0142 nr 1 w Grajewie",
                "addr:postcode": "19-200",
                "addr:city": "Grajewo",
                "addr:street": "Adama Mickiewicza",
                "addr:housenumber": "3",
                "addr:city:simc": 957376,
                "addr:street:sym_ul": 32579,
                "phone": "+48 862722096",
                "email": "zs1.1lograjewo@gmail.com",
                "website": "http:\/\/www.zs1grajewo.edupage.org",
                "ref:regon": "000228111",
                "ref:vatin": "PL7191003561",
                "operator": "Powiat Grajewski",
                "operator:type": "government",
                "landuse": "education",
                "fixme": "amenity=school, amenity=college albo landuse=education w zale\u017cno\u015bci od tego, jakie plac\u00f3wki wchodz\u0105 w sk\u0142ad zespo\u0142u. Sprawd\u017a, kiedy stosowa\u0107 amenity=* a kiedy landuse=education.",
                "note": "Children RSPO: 80684;80685"
            }
        },
        {
            "id": 80684,
            "type": "Feature",
            "geometry": {
                "type": "Point",
                "coordinates": [
                    22.45283,
                    53.65072
                ]
            },
            "properties": {
                "isced:level": "3",
                "ref:rspo": 80684,
                "official_name": "I Liceum Og\u00f3lnokszta\u0142c\u0105ce im. Miko\u0142aja Kopernika w Grajewie",
                "name": "I Liceum Og\u00f3lnokszta\u0142c\u0105ce",
                "addr:postcode": "19-200",
                "addr:city": "Grajewo",
                "addr:street": "Adama Mickiewicza",
                "addr:housenumber": "3",
                "addr:city:simc": 957376,
                "addr:street:sym_ul": 32579,
                "phone": "+48 862722096",
                "email": "zs1.1lograjewo@gmail.com",
                "website": "https:\/\/zs1grajewo.edupage.org\/",
                "ref:regon": "451151327",
                "operator": "Powiat Grajewski",
                "operator:type": "government",
                "amenity": "school",
                "note": "Parent RSPO: 7427"
            }
        },
        {
            "id": 80685,
            "type": "Feature",
            "geometry": {
                "type": "Point",
                "coordinates": [
                    22.45283,
                    53.65069
                ]
            },
            "properties": {
                "isced:level": "3",
                "ref:rspo": 80685,
                "official_name": "Liceum Og\u00f3lnokszta\u0142c\u0105ce dla Doros\u0142ych w Grajewie",
                "name": "Liceum Og\u00f3lnokszta\u0142c\u0105ce dla Doros\u0142ych w Grajewie",
                "addr:postcode": "19-200",
                "addr:city": "Grajewo",
                "addr:street": "Adama Mickiewicza",
                "addr:housenumber": "3",
                "addr:city:simc": 957376,
                "addr:street:sym_ul": 32579,
                "phone": "+48 862722096",
                "email": "zs1.1lograjewo@gmail.com",
                "website": "http:\/\/www.lograjewo.pl",
                "ref:regon": "451151362",
                "operator": "Powiat Grajewski",
                "operator:type": "government",
                "amenity": "school",
                "note": "Parent RSPO: 7427"
            }
        },
        {
            "id": 83715,
            "type": "Feature",
            "geometry": {
                "type": "Point",
                "coordinates": [
                    22.4537,
                    53.65131
                ]
            },
            "properties": {
                "isced:level": "1;2",
                "ref:rspo": 83715,
                "official_name": "Szko\u0142a Podstawowa nr 2 im. Adama Mickiewicza w Grajewie",
                "name": "Szko\u0142a Podstawowa nr 2",
                "addr:postcode": "19-200",
                "addr:city": "Grajewo",
                "addr:street": "Adama Mickiewicza",
                "addr:housenumber": "1",
                "addr:city:simc": 957376,
                "addr:street:sym_ul": 32579,
                "phone": "+48 862723063",
                "email": "sekretariat@sp2grajewo.szkolnastrona.pl",
                "ref:regon": "000719607",
                "ref:vatin": "PL7191565773",
                "operator": "Miasto Grajewo",
                "operator:type": "government",
                "amenity": "school"
            }
        },
        {
            "id": 121420,
            "type": "Feature",
            "geometry": {
                "type": "Point",
                "coordinates": [
                    22.4537,
                    53.65128
                ]
            },
            "properties": {
                "ref:rspo": 121420,
                "official_name": "Tanmuz Bogus\u0142aw Szlaszy\u0144ski",
                "name": "Tanmuz Bogus\u0142aw Szlaszy\u0144ski",
                "addr:postcode": "19-200",
                "addr:city": "Grajewo",
                "addr:street": "Adama Mickiewicza",
                "addr:housenumber": "1",
                "addr:city:simc": 957376,
                "addr:street:sym_ul": 32579,
                "phone": "+48 609600316",
                "email": "tanmuz@tanmuz.pl",
                "ref:regon": "200828891",
                "operator": "Bogus\u0142aw Szlaszy\u0144ski",
                "operator:type": "private",
                "fixme": "w zale\u017cno\u015bci od przedmiotu dzia\u0142alno\u015bci (np. amenity=training + training=*, amenity=dancing_school, amenity=language_school, amenity=music_school)"
            }
        },
        {
            "id": 125969,
            "type": "Feature",
            "geometry": {
                "type": "Point",
                "coordinates": [
                    22.4537,
                    53.651250000000005
                ]
            },
            "properties": {
                "ref:rspo": 125969,
                "official_name": "Zesp\u00f3\u0142 Wychowania Przedszkolnego Przy Szkole Podstawowej nr 2 im. A. Mickiewicza w Grajewie",
                "name": "Zesp\u00f3\u0142 Wychowania Przedszkolnego Przy Szkole Podstawowej nr 2",
                "addr:postcode": "19-200",
                "addr:city": "Grajewo",
                "addr:street": "Adama Mickiewicza",
                "addr:housenumber": "1",
                "addr:city:simc": 957376,
                "addr:street:sym_ul": 12740,
                "phone": "+48 862726225",
                "ref:regon": "360121035",
                "operator": "Miasto Grajewo",
                "operator:type": "government",
                "amenity": "kindergarten"
            }
        },
        {
            "id": 43911,
            "type": "Feature",
            "geometry": {
                "type": "Point",
                "coordinates": [
                    22.4523,
                    53.65313
                ]
            },
            "properties": {
                "ref:rspo": 43911,
                "official_name": "Przedszkole Miejskie nr 1 w Grajewie",
                "name": "Przedszkole Miejskie nr 1 w Grajewie",
                "addr:postcode": "19-200",
                "addr:city": "Grajewo",
                "addr:street": "11 Listopada",
                "addr:housenumber": "12",
                "addr:city:simc": 957376,
                "addr:street:sym_ul": 31819,
                "phone": "+48 862722107",
                "email": "kontakt@pm1.grajewo.pl",
                "website": "http:\/\/www.pm1.grajewo.pl",
                "ref:regon": "450031093",
                "ref:vatin": "PL7191397554",
                "operator": "Miasto Grajewo",
                "operator:type": "government",
                "amenity": "kindergarten"
            }
        }
    ]
}