{"type":"FeatureCollection","features":[{"id":54391,"type":"Feature","geometry":{"type":"Point","coordinates":[22.19493,53.54345]},"properties":{"isced:level":"1;2","ref:rspo":54391,"official_name":"Szko\u0142a Podstawowa im. Zes\u0142a\u0144c\u00f3w Sybiru w Nied\u017awiadnej","name":"Szko\u0142a Podstawowa","addr:country":"PL","addr:postcode":"19-230","addr:place":"Nied\u017awiadna","addr:housenumber":"49","addr:teryt:sym_ul":406950,"contact:phone":"+48 862725651","contact:email":"niedzwiadna@wp.pl","contact:website":"http:\/\/www.spniedzwiadna.pl","ref:regon":"450088615","ref:vatin":"PL7191396951","operator":"Gmina Szczuczyn","operator:type":"government","amenity":"school"}},{"id":5376,"type":"Feature","geometry":{"type":"Point","coordinates":[22.3511,53.55097]},"properties":{"ref:rspo":5376,"official_name":"Zesp\u00f3\u0142 Szk\u00f3\u0142 im. Boles\u0142awa Podedwornego w Nie\u0107kowie","name":"Zesp\u00f3\u0142 Szk\u00f3\u0142","addr:country":"PL","addr:postcode":"19-230","addr:place":"Nie\u0107kowo","addr:housenumber":"63","addr:teryt:sym_ul":406943,"contact:phone":"+48 862725174","contact:email":"nieckowo@poczta.onet.pl","contact:website":"http:\/\/www.zsnieckowo.com.pl","ref:regon":"000097940","ref:vatin":"PL7191015179","operator":"Powiat Grajewski","operator:type":"government","landuse":"education","fixme":"amenity=school, amenity=college albo landuse=education w zale\u017cno\u015bci od tego, jakie plac\u00f3wki wchodz\u0105 w sk\u0142ad zespo\u0142u. Sprawd\u017a, kiedy stosowa\u0107 amenity=* a kiedy landuse=education.","note":"Children RSPO: 8631;12955;12956;80682"}},{"id":8631,"type":"Feature","geometry":{"type":"Point","coordinates":[22.3511,53.55094]},"properties":{"isced:level":"3","ref:rspo":8631,"official_name":"Liceum Og\u00f3lnokszta\u0142c\u0105ce w Nie\u0107kowie","name":"Liceum Og\u00f3lnokszta\u0142c\u0105ce w Nie\u0107kowie","addr:country":"PL","addr:postcode":"19-230","addr:place":"Nie\u0107kowo","addr:housenumber":"63","addr:teryt:sym_ul":406943,"contact:phone":"+48 862725174","contact:email":"nieckowo@poczta.onet.pl","contact:website":"http:\/\/www.zsnieckowo.com.pl","ref:regon":"451187182","operator":"Powiat Grajewski","operator:type":"government","amenity":"school","note":"Parent RSPO: 5376"}},{"id":12955,"type":"Feature","geometry":{"type":"Point","coordinates":[22.3511,53.55091]},"properties":{"isced:level":"3","ref:rspo":12955,"official_name":"Technikum w Nie\u0107kowie","name":"Technikum w Nie\u0107kowie","addr:country":"PL","addr:postcode":"19-230","addr:place":"Nie\u0107kowo","addr:housenumber":"63","addr:teryt:sym_ul":406943,"contact:phone":"+48 862725174","contact:email":"nieckowo@poczta.onet.pl","contact:website":"http:\/\/www.zsnieckowo.com.pl","ref:regon":"451151505","operator":"Powiat Grajewski","operator:type":"government","amenity":"school","note":"Parent RSPO: 5376"}},{"id":12956,"type":"Feature","geometry":{"type":"Point","coordinates":[22.3511,53.55088]},"properties":{"isced:level":"3","ref:rspo":12956,"official_name":"Bran\u017cowa Szko\u0142a I Stopnia w Nie\u0107kowie","name":"Bran\u017cowa Szko\u0142a I Stopnia w Nie\u0107kowie","addr:country":"PL","addr:postcode":"19-230","addr:place":"Nie\u0107kowo","addr:housenumber":"63","addr:teryt:sym_ul":406943,"contact:phone":"+48 862725174","contact:email":"nieckowo@poczta.onet.pl","contact:website":"http:\/\/www.zsnieckowo.com.pl","ref:regon":"200163931","operator":"Powiat Grajewski","operator:type":"government","amenity":"school","note":"Parent RSPO: 5376"}},{"id":80682,"type":"Feature","geometry":{"type":"Point","coordinates":[22.3511,53.55085]},"properties":{"ref:rspo":80682,"official_name":"Centrum Kszta\u0142cenia Ustawicznego w Nie\u0107kowie","name":"Centrum Kszta\u0142cenia Ustawicznego w Nie\u0107kowie","addr:country":"PL","addr:postcode":"19-230","addr:place":"Nie\u0107kowo","addr:housenumber":"63","addr:teryt:sym_ul":406943,"contact:phone":"+48 862725174","contact:email":"nieckowo@poczta.onet.pl","contact:website":"http:\/\/www.zsnieckowo.com.pl","ref:regon":"200163948","operator":"Powiat Grajewski","operator:type":"government","amenity":"school","fixme":"amenity=school lub amenity=college","note":"Children RSPO: 130037Parent RSPO: 5376"}},{"id":130037,"type":"Feature","geometry":{"type":"Point","coordinates":[22.3511,53.55082]},"properties":{"isced:level":"4","ref:rspo":130037,"official_name":"Szko\u0142a Policealna w Nie\u0107kowie","name":"Szko\u0142a Policealna w Nie\u0107kowie","addr:country":"PL","addr:postcode":"19-230","addr:place":"Nie\u0107kowo","addr:housenumber":"63","addr:teryt:sym_ul":406943,"contact:phone":"+48 862725174","contact:email":"nieckowo@poczta.onet.pl","contact:website":"http:\/\/www.zsnieckowo.com.pl","ref:regon":"451151497","operator":"Powiat Grajewski","operator:type":"government","amenity":"college","note":"Parent RSPO: 80682"}},{"id":58769,"type":"Feature","geometry":{"type":"Point","coordinates":[22.28321,53.56832]},"properties":{"ref:rspo":58769,"official_name":"Zesp\u00f3\u0142 Szkolno-Przedszkolny w Szczuczynie","name":"Zesp\u00f3\u0142 Szkolno-Przedszkolny w Szczuczynie","addr:country":"PL","addr:postcode":"19-230","addr:city":"Szczuczyn","addr:street":"ul. Jana Kili\u0144skiego","addr:housenumber":"42","addr:teryt:simc":8435,"addr:teryt:sym_ul":957560,"contact:phone":"+48 862725032","contact:email":"spszczuczyn@o2.pl","contact:website":"http:\/\/sp-szczuczyn.edupage.org","ref:regon":"451097450","ref:vatin":"PL7191396939","operator":"Gmina Szczuczyn","operator:type":"government","landuse":"education","fixme":"amenity=school, amenity=college albo landuse=education w zale\u017cno\u015bci od tego, jakie plac\u00f3wki wchodz\u0105 w sk\u0142ad zespo\u0142u. Sprawd\u017a, kiedy stosowa\u0107 amenity=* a kiedy landuse=education.","note":"Children RSPO: 68459;68492"}},{"id":68459,"type":"Feature","geometry":{"type":"Point","coordinates":[22.28321,53.56829]},"properties":{"isced:level":"1;2","ref:rspo":68459,"official_name":"Szko\u0142a Podstawowa w Szczuczynie","name":"Szko\u0142a Podstawowa w Szczuczynie","addr:country":"PL","addr:postcode":"19-230","addr:city":"Szczuczyn","addr:street":"ul. Jana Kili\u0144skiego","addr:housenumber":"42","addr:teryt:simc":8435,"addr:teryt:sym_ul":957560,"contact:phone":"+48 862725032","contact:email":"spszczuczyn@o2.pl","contact:website":"http:\/\/sp-szczuczyn.edupage.org","ref:regon":"450088644","ref:vatin":"PL7191396922","operator":"Gmina Szczuczyn","operator:type":"government","amenity":"school","note":"Parent RSPO: 58769"}},{"id":68492,"type":"Feature","geometry":{"type":"Point","coordinates":[22.28321,53.56826]},"properties":{"ref:rspo":68492,"official_name":"Przedszkole Samorz\u0105dowe w Szczuczynie","name":"Przedszkole Samorz\u0105dowe w Szczuczynie","addr:country":"PL","addr:postcode":"19-230","addr:city":"Szczuczyn","addr:street":"ul. Jana Kili\u0144skiego","addr:housenumber":"42","addr:teryt:simc":8435,"addr:teryt:sym_ul":957560,"contact:phone":"+48 862725036","contact:email":"spszczuczyn@o2.pl","contact:website":"http:\/\/sp-szczuczyn.edupage.org","ref:regon":"450010369","ref:vatin":"PL7191396939","operator":"Gmina Szczuczyn","operator:type":"government","amenity":"kindergarten","note":"Parent RSPO: 58769"}},{"id":7214,"type":"Feature","geometry":{"type":"Point","coordinates":[22.28346,53.56937]},"properties":{"ref:rspo":7214,"official_name":"Zesp\u00f3\u0142 Szk\u00f3\u0142 im. Marsza\u0142ka J\u00f3zefa Pi\u0142sudskiego w Szczuczynie","name":"Zesp\u00f3\u0142 Szk\u00f3\u0142","addr:country":"PL","addr:postcode":"19-230","addr:city":"Szczuczyn","addr:street":"ul. Szczuki","addr:housenumber":"1","addr:teryt:simc":21858,"addr:teryt:sym_ul":957560,"contact:phone":"+48 862725012","contact:email":"zswszczuczynie@op.pl","contact:website":"http:\/\/www.zsszczuczyn.pl","ref:regon":"000181562","ref:vatin":"PL7191010130","operator":"Powiat Grajewski","operator:type":"government","landuse":"education","fixme":"amenity=school, amenity=college albo landuse=education w zale\u017cno\u015bci od tego, jakie plac\u00f3wki wchodz\u0105 w sk\u0142ad zespo\u0142u. Sprawd\u017a, kiedy stosowa\u0107 amenity=* a kiedy landuse=education.","note":"Children RSPO: 8705;8706;80683"}},{"id":8705,"type":"Feature","geometry":{"type":"Point","coordinates":[22.28346,53.56934]},"properties":{"isced:level":"3","ref:rspo":8705,"official_name":"Liceum Og\u00f3lnokszta\u0142c\u0105ce w Szczuczynie","name":"Liceum Og\u00f3lnokszta\u0142c\u0105ce w Szczuczynie","addr:country":"PL","addr:postcode":"19-230","addr:city":"Szczuczyn","addr:street":"ul. Szczuki","addr:housenumber":"1","addr:teryt:simc":21858,"addr:teryt:sym_ul":957560,"contact:phone":"+48 862725012","contact:email":"zswszczuczynie@op.pl","contact:website":"http:\/\/www.zsszczuczyn.pl","ref:regon":"451151050","operator":"Powiat Grajewski","operator:type":"government","amenity":"school","note":"Parent RSPO: 7214"}},{"id":8706,"type":"Feature","geometry":{"type":"Point","coordinates":[22.28346,53.56931]},"properties":{"isced:level":"3","ref:rspo":8706,"official_name":"Technikum w Szczuczynie","name":"Technikum w Szczuczynie","addr:country":"PL","addr:postcode":"19-230","addr:city":"Szczuczyn","addr:street":"ul. Szczuki","addr:housenumber":"1","addr:teryt:simc":21858,"addr:teryt:sym_ul":957560,"contact:phone":"+48 862725012","contact:email":"zswszczuczynie@op.pl","contact:website":"http:\/\/www.zsszczuczyn.pl","ref:regon":"451151066","operator":"Powiat Grajewski","operator:type":"government","amenity":"school","note":"Parent RSPO: 7214"}},{"id":80683,"type":"Feature","geometry":{"type":"Point","coordinates":[22.28346,53.56928]},"properties":{"isced:level":"3","ref:rspo":80683,"official_name":"Bran\u017cowa Szko\u0142a I Stopnia w Szczuczynie","name":"Bran\u017cowa Szko\u0142a I Stopnia w Szczuczynie","addr:country":"PL","addr:postcode":"19-230","addr:city":"Szczuczyn","addr:street":"ul. Szczuki","addr:housenumber":"1","addr:teryt:simc":21858,"addr:teryt:sym_ul":957560,"contact:phone":"+48 862725012","contact:email":"zswszczuczynie@op.pl","contact:website":"http:\/\/www.zsszczuczyn.pl","ref:regon":"451151043","operator":"Powiat Grajewski","operator:type":"government","amenity":"school","note":"Parent RSPO: 7214"}}]}