{
    "type": "FeatureCollection",
    "features": [
        {
            "id": 7326,
            "type": "Feature",
            "geometry": {
                "type": "Point",
                "coordinates": [
                    15.90842,
                    52.49611
                ]
            },
            "properties": {
                "ref:rspo": 7326,
                "official_name": "Przedszkole w \u0141owyniu",
                "name": "Przedszkole w \u0141owyniu",
                "addr:postcode": "64-426",
                "addr:city": "\u0141owy\u0144",
                "addr:street": "S\u0142oneczna",
                "addr:housenumber": "24",
                "addr:teryt:simc": 183609,
                "addr:teryt:sym_ul": 20254,
                "phone": "+48 957481925",
                "ref:regon": "210516770",
                "ref:vatin": "PL5951432693",
                "operator": "Gmina Mi\u0119dzych\u00f3d",
                "operator:type": "government",
                "amenity": "kindergarten",
                "note": "Parent RSPO: 4771"
            }
        },
        {
            "id": 265883,
            "type": "Feature",
            "geometry": {
                "type": "Point",
                "coordinates": [
                    15.90498,
                    52.49911
                ]
            },
            "properties": {
                "ref:rspo": 265883,
                "official_name": "Przedszkole \"S\u0142oneczko\" w Mi\u0119dzychodzie",
                "name": "Przedszkole \"S\u0142oneczko\" w Mi\u0119dzychodzie",
                "addr:postcode": "64-400",
                "addr:city": "Mi\u0119dzych\u00f3d",
                "addr:street": "Ko\u015bcielna",
                "addr:housenumber": "2",
                "addr:teryt:simc": 935506,
                "addr:teryt:sym_ul": 9546,
                "email": "mchod.delta@op.pl",
                "ref:regon": "368976345",
                "ref:vatin": "PL5951101192",
                "operator": "Magdalena Zych",
                "operator:type": "private",
                "amenity": "kindergarten"
            }
        },
        {
            "id": 4771,
            "type": "Feature",
            "geometry": {
                "type": "Point",
                "coordinates": [
                    15.90942,
                    52.5004
                ]
            },
            "properties": {
                "ref:rspo": 4771,
                "official_name": "Zesp\u00f3\u0142 Szkolno-Przedszkolny w \u0141owyniu",
                "name": "Zesp\u00f3\u0142 Szkolno-Przedszkolny w \u0141owyniu",
                "addr:postcode": "64-426",
                "addr:city": "\u0141owy\u0144",
                "addr:street": "Szkolna",
                "addr:housenumber": "1",
                "addr:teryt:simc": 183609,
                "addr:teryt:sym_ul": 21970,
                "phone": "+48 957481982",
                "email": "szkola_lowyn@wp.pl",
                "website": "http:\/\/szkolalowyn.edupage.org\/",
                "ref:regon": "634607168",
                "ref:vatin": "PL5951442415",
                "operator": "Gmina Mi\u0119dzych\u00f3d",
                "operator:type": "government",
                "landuse": "education",
                "fixme": "amenity=school, amenity=college albo landuse=education w zale\u017cno\u015bci od tego, jakie plac\u00f3wki wchodz\u0105 w sk\u0142ad zespo\u0142u. Sprawd\u017a, kiedy stosowa\u0107 amenity=* a kiedy landuse=education.",
                "note": "Children RSPO: 6328;7326"
            }
        },
        {
            "id": 6328,
            "type": "Feature",
            "geometry": {
                "type": "Point",
                "coordinates": [
                    15.90942,
                    52.50037
                ]
            },
            "properties": {
                "isced:level": "1;2",
                "ref:rspo": 6328,
                "official_name": "Szko\u0142a Podstawowa w \u0141owyniu",
                "name": "Szko\u0142a Podstawowa w \u0141owyniu",
                "addr:postcode": "64-426",
                "addr:city": "\u0141owy\u0144",
                "addr:street": "Szkolna",
                "addr:housenumber": "1",
                "addr:teryt:simc": 183609,
                "addr:teryt:sym_ul": 21970,
                "phone": "+48 957481982",
                "email": "szkola_lowyn@wp.pl",
                "website": "http:\/\/szkolalowyn.edupage.org",
                "ref:regon": "210303407",
                "ref:vatin": "PL5951432291",
                "operator": "Gmina Mi\u0119dzych\u00f3d",
                "operator:type": "government",
                "amenity": "school",
                "note": "Parent RSPO: 4771"
            }
        },
        {
            "id": 4312,
            "type": "Feature",
            "geometry": {
                "type": "Point",
                "coordinates": [
                    15.96517,
                    52.56408
                ]
            },
            "properties": {
                "ref:rspo": 4312,
                "official_name": "Zesp\u00f3\u0142 Szkolno - Przedszkolny w Kamionnie",
                "name": "Zesp\u00f3\u0142 Szkolno - Przedszkolny w Kamionnie",
                "addr:postcode": "64-421",
                "addr:city": "Kamionna",
                "addr:street": "Powsta\u0144c\u00f3w Wielkopolskich",
                "addr:housenumber": "2",
                "addr:teryt:simc": 183466,
                "addr:teryt:sym_ul": 17377,
                "phone": "+48 957481880",
                "email": "zspkamionna@oswiata-miedzychod.pl",
                "website": "http:\/\/zspkamionna.edupage.org",
                "ref:regon": "634506668",
                "ref:vatin": "PL5951442409",
                "operator": "Gmina Mi\u0119dzych\u00f3d",
                "operator:type": "government",
                "landuse": "education",
                "fixme": "amenity=school, amenity=college albo landuse=education w zale\u017cno\u015bci od tego, jakie plac\u00f3wki wchodz\u0105 w sk\u0142ad zespo\u0142u. Sprawd\u017a, kiedy stosowa\u0107 amenity=* a kiedy landuse=education.",
                "note": "Children RSPO: 6249;6288"
            }
        },
        {
            "id": 6249,
            "type": "Feature",
            "geometry": {
                "type": "Point",
                "coordinates": [
                    15.96517,
                    52.564049999999995
                ]
            },
            "properties": {
                "isced:level": "1;2",
                "ref:rspo": 6249,
                "official_name": "Szko\u0142a Podstawowa im. Powsta\u0144c\u00f3w Wielkopolskich",
                "name": "Szko\u0142a Podstawowa",
                "addr:postcode": "64-421",
                "addr:city": "Kamionna",
                "addr:street": "Powsta\u0144c\u00f3w Wielkopolskich",
                "addr:housenumber": "2",
                "addr:teryt:simc": 183466,
                "addr:teryt:sym_ul": 17377,
                "phone": "+48 957481880",
                "email": "zspkamionna@oswiata-miedzychod.pl",
                "website": "http:\/\/zspkamionna.edupage.org",
                "ref:regon": "210303382",
                "ref:vatin": "PL5951432339",
                "operator": "Gmina Mi\u0119dzych\u00f3d",
                "operator:type": "government",
                "amenity": "school",
                "note": "Parent RSPO: 4312"
            }
        },
        {
            "id": 6288,
            "type": "Feature",
            "geometry": {
                "type": "Point",
                "coordinates": [
                    15.96517,
                    52.56402
                ]
            },
            "properties": {
                "ref:rspo": 6288,
                "official_name": "Przedszkole w Kamionnie",
                "name": "Przedszkole w Kamionnie",
                "addr:postcode": "64-421",
                "addr:city": "Kamionna",
                "addr:street": "Powsta\u0144c\u00f3w Wielkopolskich",
                "addr:housenumber": "2",
                "addr:teryt:simc": 183466,
                "addr:teryt:sym_ul": 17377,
                "phone": "+48 957481880",
                "email": "zspkamionna@oswiata-miedzychod.pl",
                "website": "http:\/\/zspkamionna.edupage.org",
                "ref:regon": "210516758",
                "ref:vatin": "PL5951432322",
                "operator": "Gmina Mi\u0119dzych\u00f3d",
                "operator:type": "government",
                "amenity": "kindergarten",
                "note": "Parent RSPO: 4312"
            }
        },
        {
            "id": 7271,
            "type": "Feature",
            "geometry": {
                "type": "Point",
                "coordinates": [
                    15.89565,
                    52.5963
                ]
            },
            "properties": {
                "ref:rspo": 7271,
                "official_name": "Przedszkole Nr 1 im. Mi\u0142o\u015bnik\u00f3w Przyrody",
                "name": "Przedszkole Nr 1",
                "addr:postcode": "64-400",
                "addr:city": "Mi\u0119dzych\u00f3d",
                "addr:street": "Strzelecka",
                "addr:housenumber": "10",
                "addr:teryt:simc": 935506,
                "addr:teryt:sym_ul": 21381,
                "phone": "+48 957483441",
                "website": "http:\/\/przedszkolenr1miedzychod.prv.pl\/",
                "ref:regon": "210516735",
                "ref:vatin": "PL5951432279",
                "operator": "Gmina Mi\u0119dzych\u00f3d",
                "operator:type": "government",
                "amenity": "kindergarten",
                "note": "Parent RSPO: 131115"
            }
        },
        {
            "id": 132241,
            "type": "Feature",
            "geometry": {
                "type": "Point",
                "coordinates": [
                    15.8982302,
                    52.5978756
                ]
            },
            "properties": {
                "ref:rspo": 132241,
                "official_name": "Niepubliczne Przedszkole \"Mi\u015b\"",
                "name": "Niepubliczne Przedszkole \"Mi\u015b\"",
                "addr:postcode": "64-400",
                "addr:place": "Dzi\u0119cielin",
                "addr:housenumber": "31b",
                "addr:teryt:simc": 183408,
                "email": "ogrodowczyk@op.pl",
                "ref:regon": "365524460",
                "ref:vatin": "PL7871467420",
                "operator": "Rafa\u0142 Ogrodowczyk",
                "operator:type": "private",
                "amenity": "kindergarten"
            }
        },
        {
            "id": 131115,
            "type": "Feature",
            "geometry": {
                "type": "Point",
                "coordinates": [
                    15.88888,
                    52.59873
                ]
            },
            "properties": {
                "ref:rspo": 131115,
                "official_name": "Zesp\u00f3\u0142 Przedszkoli Nr 2 w Mi\u0119dzychodzie",
                "name": "Zesp\u00f3\u0142 Przedszkoli Nr 2 w Mi\u0119dzychodzie",
                "addr:postcode": "64-400",
                "addr:city": "Mi\u0119dzych\u00f3d",
                "addr:street": "Ignacego Daszy\u0144skiego",
                "addr:housenumber": "21",
                "addr:teryt:simc": 935506,
                "addr:teryt:sym_ul": 3639,
                "phone": "+48 957483768",
                "email": "przedszkolezp2_pmi@wp.pl",
                "ref:regon": "364945394",
                "ref:vatin": "PL5951471411",
                "operator": "Gmina Mi\u0119dzych\u00f3d",
                "operator:type": "government",
                "landuse": "education",
                "fixme": "amenity=school, amenity=college albo landuse=education w zale\u017cno\u015bci od tego, jakie plac\u00f3wki wchodz\u0105 w sk\u0142ad zespo\u0142u. Sprawd\u017a, kiedy stosowa\u0107 amenity=* a kiedy landuse=education.",
                "note": "Children RSPO: 7271;7289"
            }
        },
        {
            "id": 7289,
            "type": "Feature",
            "geometry": {
                "type": "Point",
                "coordinates": [
                    15.88888,
                    52.5987
                ]
            },
            "properties": {
                "ref:rspo": 7289,
                "official_name": "Przedszkole Nr 4 Kubu\u015b Puchatek",
                "name": "Przedszkole Nr 4 Kubu\u015b Puchatek",
                "addr:postcode": "64-400",
                "addr:city": "Mi\u0119dzych\u00f3d",
                "addr:street": "Ignacego Daszy\u0144skiego",
                "addr:housenumber": "21",
                "addr:teryt:simc": 935506,
                "addr:teryt:sym_ul": 3639,
                "email": "przedszkole4@gmail.com",
                "website": "http:\/\/www.optymistyczneprzedszkole.pl",
                "ref:regon": "210376085",
                "ref:vatin": "PL5951432351",
                "operator": "Gmina Mi\u0119dzych\u00f3d",
                "operator:type": "government",
                "amenity": "kindergarten",
                "note": "Parent RSPO: 131115"
            }
        },
        {
            "id": 6835,
            "type": "Feature",
            "geometry": {
                "type": "Point",
                "coordinates": [
                    15.88584,
                    52.59964
                ]
            },
            "properties": {
                "isced:level": "1;2",
                "ref:rspo": 6835,
                "official_name": "Szko\u0142a Podstawowa Nr 2 im. Polski Niepodleg\u0142ej w Mi\u0119dzychodzie",
                "name": "Szko\u0142a Podstawowa Nr 2",
                "addr:postcode": "64-400",
                "addr:city": "Mi\u0119dzych\u00f3d",
                "addr:street": "Gorzycka",
                "addr:housenumber": "1",
                "addr:teryt:simc": 935506,
                "addr:teryt:sym_ul": 5841,
                "phone": "+48 957482472",
                "email": "sp2@oswiata-miedzychod.pl",
                "website": "http:\/\/www.sp2miedzychod.szkolnastrona.pl\/",
                "ref:regon": "210303181",
                "ref:vatin": "PL5951471434",
                "operator": "Gmina Mi\u0119dzych\u00f3d",
                "operator:type": "government",
                "amenity": "school"
            }
        },
        {
            "id": 124825,
            "type": "Feature",
            "geometry": {
                "type": "Point",
                "coordinates": [
                    16.02684211731,
                    52.603507995605
                ]
            },
            "properties": {
                "ref:rspo": 124825,
                "official_name": "O\u015brodek Kszta\u0142cenia Kursowego Rzemios\u0142a Przy Cechu Rzemios\u0142 R\u00f3\u017cnych Mi\u0119dzychodzko- Drezdeneckiego w Mi\u0119dzychodzie",
                "name": "O\u015brodek Kszta\u0142cenia Kursowego Rzemios\u0142a Przy Cechu Rzemios\u0142 R\u00f3\u017cnych Mi\u0119dzychodzko- Drezdeneckiego w Mi\u0119dzychodzie",
                "addr:postcode": "64-400",
                "addr:city": "Mi\u0119dzych\u00f3d",
                "addr:street": "3 Maja",
                "addr:housenumber": "2",
                "addr:teryt:simc": 935506,
                "addr:teryt:sym_ul": 11937,
                "phone": "+48 957482612",
                "email": "biuro@miedzychod.icech.pl",
                "website": "http:\/\/www.miedzychod.icech.pl",
                "ref:regon": "302818267",
                "operator": "Cech Rzemios\u0142 R\u00f3\u017cnych Mi\u0119dzychodzko - Drezdenecki W Mi\u0119dzychodzie",
                "operator:type": "cooperative",
                "fixme": "w zale\u017cno\u015bci od przedmiotu dzia\u0142alno\u015bci (np. amenity=training + training=*, amenity=dancing_school, amenity=language_school, amenity=music_school)"
            }
        },
        {
            "id": 9152,
            "type": "Feature",
            "geometry": {
                "type": "Point",
                "coordinates": [
                    15.90674,
                    52.60375
                ]
            },
            "properties": {
                "ref:rspo": 9152,
                "official_name": "Zesp\u00f3\u0142 Szk\u00f3\u0142 Technicznych w Mi\u0119dzychodzie",
                "name": "Zesp\u00f3\u0142 Szk\u00f3\u0142 Technicznych w Mi\u0119dzychodzie",
                "addr:postcode": "64-400",
                "addr:city": "Mi\u0119dzych\u00f3d",
                "addr:street": "\u015awi\u0119tego Jana Paw\u0142a II",
                "addr:housenumber": "6A",
                "addr:teryt:simc": 935506,
                "addr:teryt:sym_ul": 46615,
                "phone": "+48 957482420",
                "email": "zs_technicznych_miedzychod@onet.pl",
                "website": "https:\/\/zstmiedzychod.edupage.org",
                "ref:regon": "639815279",
                "ref:vatin": "PL5951209239",
                "operator": "Powiat Mi\u0119dzychodzki",
                "operator:type": "government",
                "landuse": "education",
                "fixme": "amenity=school, amenity=college albo landuse=education w zale\u017cno\u015bci od tego, jakie plac\u00f3wki wchodz\u0105 w sk\u0142ad zespo\u0142u. Sprawd\u017a, kiedy stosowa\u0107 amenity=* a kiedy landuse=education.",
                "note": "Children RSPO: 12570;12572;12576;12577"
            }
        },
        {
            "id": 9153,
            "type": "Feature",
            "geometry": {
                "type": "Point",
                "coordinates": [
                    15.90674,
                    52.603719999999996
                ]
            },
            "properties": {
                "ref:rspo": 9153,
                "official_name": "Specjalny O\u015brodek Szkolno-Wychowawczy w Mi\u0119dzychodzie",
                "name": "Specjalny O\u015brodek Szkolno-Wychowawczy w Mi\u0119dzychodzie",
                "addr:postcode": "64-400",
                "addr:city": "Mi\u0119dzych\u00f3d",
                "addr:street": "\u015awi\u0119tego Jana Paw\u0142a II",
                "addr:housenumber": "6B",
                "addr:teryt:simc": 935506,
                "addr:teryt:sym_ul": 46615,
                "phone": "+48 957483648",
                "email": "kontakt@soszw.edu.pl",
                "website": "http:\/\/www.soszw.edu.pl",
                "ref:regon": "000841998",
                "ref:vatin": "PL5951209127",
                "operator": "Powiat Mi\u0119dzychodzki",
                "operator:type": "government",
                "amenity": "school",
                "note": "Children RSPO: 12574;12575;12950;119931"
            }
        },
        {
            "id": 9154,
            "type": "Feature",
            "geometry": {
                "type": "Point",
                "coordinates": [
                    15.90674,
                    52.60369
                ]
            },
            "properties": {
                "ref:rspo": 9154,
                "official_name": "Poradnia Psychologiczno-Pedagogiczna w Mi\u0119dzychodzie",
                "name": "Poradnia Psychologiczno-Pedagogiczna w Mi\u0119dzychodzie",
                "addr:postcode": "64-400",
                "addr:city": "Mi\u0119dzych\u00f3d",
                "addr:street": "\u015awi\u0119tego Jana Paw\u0142a II",
                "addr:housenumber": "6A",
                "addr:teryt:simc": 935506,
                "addr:teryt:sym_ul": 46615,
                "phone": "+48 957482621",
                "email": "mchod.poradnia@poczta.fm",
                "ref:regon": "000711882",
                "ref:vatin": "PL5951162472",
                "operator": "Powiat Mi\u0119dzychodzki",
                "operator:type": "government",
                "healthcare": "counselling",
                "counselling_type": "education",
                "fixme": "w zale\u017cno\u015bci od przedmiotu dzia\u0142alno\u015bci (np. healthcare=counselling + counselling_type=education albo healthcare=psychotherapist)"
            }
        },
        {
            "id": 12570,
            "type": "Feature",
            "geometry": {
                "type": "Point",
                "coordinates": [
                    15.90674,
                    52.60366
                ]
            },
            "properties": {
                "isced:level": "3",
                "ref:rspo": 12570,
                "official_name": "Technikum Nr 1 w Mi\u0119dzychodzie",
                "name": "Technikum Nr 1 w Mi\u0119dzychodzie",
                "addr:postcode": "64-400",
                "addr:city": "Mi\u0119dzych\u00f3d",
                "addr:street": "\u015awi\u0119tego Jana Paw\u0142a II",
                "addr:housenumber": "6A",
                "addr:teryt:simc": 935506,
                "addr:teryt:sym_ul": 46615,
                "phone": "+48 957482420",
                "email": "zs_technicznych_miedzychod@onet.pl",
                "website": "http:\/\/www.zstmiedzychod.edupage.pl",
                "ref:regon": "634378526",
                "operator": "Powiat Mi\u0119dzychodzki",
                "operator:type": "government",
                "amenity": "school",
                "note": "Parent RSPO: 9152"
            }
        },
        {
            "id": 12572,
            "type": "Feature",
            "geometry": {
                "type": "Point",
                "coordinates": [
                    15.90674,
                    52.603629999999995
                ]
            },
            "properties": {
                "isced:level": "3",
                "ref:rspo": 12572,
                "official_name": "Bran\u017cowa Szko\u0142a I Stopnia Nr 3 w Mi\u0119dzychodzie",
                "name": "Bran\u017cowa Szko\u0142a I Stopnia Nr 3 w Mi\u0119dzychodzie",
                "addr:postcode": "64-400",
                "addr:city": "Mi\u0119dzych\u00f3d",
                "addr:street": "\u015awi\u0119tego Jana Paw\u0142a II",
                "addr:housenumber": "6a",
                "addr:teryt:simc": 935506,
                "addr:teryt:sym_ul": 46615,
                "phone": "+48 957482478",
                "email": "zs_technicznych_miedzychod@onet.pl",
                "website": "http:\/\/www.zstmiedzychod.edupage.org",
                "ref:regon": "634387695",
                "operator": "Powiat Mi\u0119dzychodzki",
                "operator:type": "government",
                "amenity": "school",
                "note": "Parent RSPO: 9152"
            }
        },
        {
            "id": 12576,
            "type": "Feature",
            "geometry": {
                "type": "Point",
                "coordinates": [
                    15.90674,
                    52.6036
                ]
            },
            "properties": {
                "isced:level": "4",
                "ref:rspo": 12576,
                "official_name": "Szko\u0142a Policealna Nr 1 w Mi\u0119dzychodzie",
                "name": "Szko\u0142a Policealna Nr 1 w Mi\u0119dzychodzie",
                "addr:postcode": "64-400",
                "addr:city": "Mi\u0119dzych\u00f3d",
                "addr:street": "\u015awi\u0119tego Jana Paw\u0142a II",
                "addr:housenumber": "6A",
                "addr:teryt:simc": 935506,
                "addr:teryt:sym_ul": 46615,
                "phone": "+48 957482420",
                "email": "zs_technicznych_miedzychod@onet.pl",
                "website": "http:\/\/www.zstmiedzychod.edupage.org",
                "ref:regon": "639815351",
                "operator": "Powiat Mi\u0119dzychodzki",
                "operator:type": "government",
                "amenity": "college",
                "note": "Parent RSPO: 9152"
            }
        },
        {
            "id": 12577,
            "type": "Feature",
            "geometry": {
                "type": "Point",
                "coordinates": [
                    15.90674,
                    52.60357
                ]
            },
            "properties": {
                "isced:level": "3",
                "ref:rspo": 12577,
                "official_name": "I Liceum Og\u00f3lnokszta\u0142c\u0105ce dla Doros\u0142ych w Mi\u0119dzychodzie",
                "name": "I Liceum Og\u00f3lnokszta\u0142c\u0105ce dla Doros\u0142ych w Mi\u0119dzychodzie",
                "addr:postcode": "64-400",
                "addr:city": "Mi\u0119dzych\u00f3d",
                "addr:street": "\u015awi\u0119tego Jana Paw\u0142a II",
                "addr:housenumber": "6A",
                "addr:teryt:simc": 935506,
                "addr:teryt:sym_ul": 46615,
                "phone": "+48 957482420",
                "email": "zs_technicznych_miedzychod@onet.pl",
                "website": "http:\/\/www.zstmiedzychod.edupage.org",
                "ref:regon": "302210028",
                "operator": "Powiat Mi\u0119dzychodzki",
                "operator:type": "government",
                "amenity": "school",
                "note": "Parent RSPO: 9152"
            }
        },
        {
            "id": 12574,
            "type": "Feature",
            "geometry": {
                "type": "Point",
                "coordinates": [
                    15.90674,
                    52.603539999999995
                ]
            },
            "properties": {
                "isced:level": "3",
                "ref:rspo": 12574,
                "official_name": "Bran\u017cowa Szko\u0142a Specjalna I Stopnia w Mi\u0119dzychodzie",
                "name": "Bran\u017cowa Szko\u0142a Specjalna I Stopnia w Mi\u0119dzychodzie",
                "addr:postcode": "64-400",
                "addr:city": "Mi\u0119dzych\u00f3d",
                "addr:street": "\u015awi\u0119tego Jana Paw\u0142a II",
                "addr:housenumber": "6B",
                "addr:teryt:simc": 935506,
                "addr:teryt:sym_ul": 46615,
                "phone": "+48 957483648",
                "email": "kontakt@soszw.edu.pl",
                "website": "http:\/\/www.soszw.edu.pl",
                "ref:regon": "634504238",
                "operator": "Powiat Mi\u0119dzychodzki",
                "operator:type": "government",
                "amenity": "school",
                "note": "Parent RSPO: 9153"
            }
        },
        {
            "id": 12575,
            "type": "Feature",
            "geometry": {
                "type": "Point",
                "coordinates": [
                    15.90674,
                    52.60351
                ]
            },
            "properties": {
                "ref:rspo": 12575,
                "official_name": "Szko\u0142a Specjalna Przysposabiaj\u0105ca Do Pracy w Mi\u0119dzychodzie",
                "name": "Szko\u0142a Specjalna Przysposabiaj\u0105ca Do Pracy w Mi\u0119dzychodzie",
                "addr:postcode": "64-400",
                "addr:city": "Mi\u0119dzych\u00f3d",
                "addr:street": "\u015awi\u0119tego Jana Paw\u0142a II",
                "addr:housenumber": "6B",
                "addr:teryt:simc": 935506,
                "addr:teryt:sym_ul": 46615,
                "phone": "+48 957483648",
                "email": "kontakt@soszw.edu.pl",
                "website": "http:\/\/www.soszw.edu.pl",
                "ref:regon": "302209976",
                "operator": "Powiat Mi\u0119dzychodzki",
                "operator:type": "government",
                "amenity": "school",
                "note": "Parent RSPO: 9153"
            }
        },
        {
            "id": 12950,
            "type": "Feature",
            "geometry": {
                "type": "Point",
                "coordinates": [
                    15.90674,
                    52.60348
                ]
            },
            "properties": {
                "isced:level": "1;2",
                "ref:rspo": 12950,
                "official_name": "Szko\u0142a Podstawowa Specjalna w Specjalnym O\u015brodku Szkolno-Wychowawczym w Mi\u0119dzychodzie",
                "name": "Szko\u0142a Podstawowa Specjalna w Specjalnym O\u015brodku Szkolno-Wychowawczym w Mi\u0119dzychodzie",
                "addr:postcode": "64-400",
                "addr:city": "Mi\u0119dzych\u00f3d",
                "addr:street": "\u015awi\u0119tego Jana Paw\u0142a II",
                "addr:housenumber": "6B",
                "addr:teryt:simc": 935506,
                "addr:teryt:sym_ul": 46615,
                "phone": "+48 957483648",
                "email": "kontakt@soszw.edu.pl",
                "website": "http:\/\/www.soszw.edu.pl",
                "ref:regon": "634504209",
                "operator": "Powiat Mi\u0119dzychodzki",
                "operator:type": "government",
                "amenity": "school",
                "note": "Parent RSPO: 9153"
            }
        },
        {
            "id": 119931,
            "type": "Feature",
            "geometry": {
                "type": "Point",
                "coordinates": [
                    15.90674,
                    52.603449999999995
                ]
            },
            "properties": {
                "ref:rspo": 119931,
                "official_name": "Przedszkole Specjalne w Mi\u0119dzychodzie",
                "name": "Przedszkole Specjalne w Mi\u0119dzychodzie",
                "addr:postcode": "64-400",
                "addr:city": "Mi\u0119dzych\u00f3d",
                "addr:street": "\u015awi\u0119tego Jana Paw\u0142a II",
                "addr:housenumber": "6b",
                "addr:teryt:simc": 935506,
                "addr:teryt:sym_ul": 46615,
                "phone": "+48 957483648",
                "email": "kontakt@soszw.edu.pl",
                "website": "http:\/\/www.sosz.edu.pl",
                "ref:regon": "302528279",
                "operator": "Powiat Mi\u0119dzychodzki",
                "operator:type": "government",
                "amenity": "kindergarten",
                "note": "Parent RSPO: 9153"
            }
        },
        {
            "id": 131114,
            "type": "Feature",
            "geometry": {
                "type": "Point",
                "coordinates": [
                    15.90698,
                    52.60437
                ]
            },
            "properties": {
                "ref:rspo": 131114,
                "official_name": "Zesp\u00f3\u0142 Przedszkoli Nr 1 w Mi\u0119dzychodzie",
                "name": "Zesp\u00f3\u0142 Przedszkoli Nr 1 w Mi\u0119dzychodzie",
                "addr:postcode": "64-400",
                "addr:city": "Mi\u0119dzych\u00f3d",
                "addr:street": "\u015awi\u0119tego Jana Paw\u0142a II",
                "addr:housenumber": "27",
                "addr:teryt:simc": 935506,
                "addr:teryt:sym_ul": 46615,
                "phone": "+48 957482506",
                "email": "zespol.przedszkoli.nr1@wp.pl",
                "ref:regon": "364945425",
                "operator": "Gmina Mi\u0119dzych\u00f3d",
                "operator:type": "government",
                "landuse": "education",
                "fixme": "amenity=school, amenity=college albo landuse=education w zale\u017cno\u015bci od tego, jakie plac\u00f3wki wchodz\u0105 w sk\u0142ad zespo\u0142u. Sprawd\u017a, kiedy stosowa\u0107 amenity=* a kiedy landuse=education.",
                "note": "Children RSPO: 7283;7303"
            }
        },
        {
            "id": 7283,
            "type": "Feature",
            "geometry": {
                "type": "Point",
                "coordinates": [
                    15.90698,
                    52.60434
                ]
            },
            "properties": {
                "ref:rspo": 7283,
                "official_name": "Przedszkole Nr 3 im. Jana Brzechwy",
                "name": "Przedszkole Nr 3",
                "addr:postcode": "64-400",
                "addr:city": "Mi\u0119dzych\u00f3d",
                "addr:street": "\u015awi\u0119tego Jana Paw\u0142a II",
                "addr:housenumber": "27",
                "addr:teryt:simc": 935506,
                "addr:teryt:sym_ul": 46615,
                "phone": "+48 957482506",
                "email": "zespol.przedszkoli.nr1@wp.pl",
                "website": "http:\/\/zespolprzedszkoli1.szkolnastrona.pl",
                "ref:regon": "210516712",
                "ref:vatin": "PL5951432345",
                "operator": "Gmina Mi\u0119dzych\u00f3d",
                "operator:type": "government",
                "amenity": "kindergarten",
                "note": "Parent RSPO: 131114"
            }
        },
        {
            "id": 83095,
            "type": "Feature",
            "geometry": {
                "type": "Point",
                "coordinates": [
                    15.90002,
                    52.60446
                ]
            },
            "properties": {
                "ref:rspo": 83095,
                "official_name": "Przedszkole Z Oddzia\u0142ami Integracyjnymi Nr 2 im. Cz. Janczarskiego",
                "name": "Przedszkole Z Oddzia\u0142ami Integracyjnymi Nr 2",
                "addr:postcode": "64-400",
                "addr:city": "Mi\u0119dzych\u00f3d",
                "addr:street": "Wincentego Iczka",
                "addr:housenumber": "12",
                "addr:teryt:simc": 935506,
                "addr:teryt:sym_ul": 6844,
                "phone": "+48 957482656",
                "email": "p2integra@wp.pl",
                "ref:regon": "210516729",
                "ref:vatin": "PL5951432380",
                "operator": "Gmina Mi\u0119dzych\u00f3d",
                "operator:type": "government",
                "amenity": "kindergarten"
            }
        },
        {
            "id": 6700,
            "type": "Feature",
            "geometry": {
                "type": "Point",
                "coordinates": [
                    15.89866,
                    52.6059399
                ]
            },
            "properties": {
                "isced:level": "1;2",
                "ref:rspo": 6700,
                "official_name": "Szko\u0142a Podstawowa Nr 1 Imienia Miasta Sto\u0142ecznego Warszawy w Mi\u0119dzychodzie",
                "name": "Szko\u0142a Podstawowa Nr 1 Imienia Miasta Sto\u0142ecznego Warszawy w Mi\u0119dzychodzie",
                "addr:postcode": "64-400",
                "addr:city": "Mi\u0119dzych\u00f3d",
                "addr:street": "17 Stycznia",
                "addr:housenumber": "92",
                "addr:teryt:simc": 935506,
                "addr:teryt:sym_ul": 21445,
                "phone": "+48 957482466",
                "email": "sp1@oswiata-miedzychod.pl",
                "website": "http:\/\/sp1miedzychod.edupage.org",
                "ref:regon": "210303152",
                "ref:vatin": "PL5951471440",
                "operator": "Gmina Mi\u0119dzych\u00f3d",
                "operator:type": "government",
                "amenity": "school"
            }
        },
        {
            "id": 7303,
            "type": "Feature",
            "geometry": {
                "type": "Point",
                "coordinates": [
                    15.92212,
                    52.60599
                ]
            },
            "properties": {
                "ref:rspo": 7303,
                "official_name": "Przedszkole Bajka w Bielsku",
                "name": "Przedszkole Bajka w Bielsku",
                "addr:postcode": "64-400",
                "addr:city": "Bielsko",
                "addr:street": "Armii Pozna\u0144",
                "addr:housenumber": "22",
                "addr:teryt:simc": 183348,
                "addr:teryt:sym_ul": 31886,
                "phone": "+48 957482503",
                "email": "zespol.przedszkoli.nr1@wp.pl",
                "website": "http:\/\/zespolprzedszkoli1.szkolnastrona.pl",
                "ref:regon": "210516793",
                "ref:vatin": "PL5951432405",
                "operator": "Gmina Mi\u0119dzych\u00f3d",
                "operator:type": "government",
                "amenity": "kindergarten",
                "note": "Parent RSPO: 131114"
            }
        },
        {
            "id": 9151,
            "type": "Feature",
            "geometry": {
                "type": "Point",
                "coordinates": [
                    15.90918,
                    52.60601
                ]
            },
            "properties": {
                "isced:level": "3",
                "ref:rspo": 9151,
                "official_name": "Liceum Og\u00f3lnokszta\u0142c\u0105ce im. Jaros\u0142awa D\u0105browskiego w Mi\u0119dzychodzie",
                "name": "Liceum Og\u00f3lnokszta\u0142c\u0105ce",
                "addr:postcode": "64-400",
                "addr:city": "Mi\u0119dzych\u00f3d",
                "addr:street": "Genera\u0142a Sikorskiego",
                "addr:housenumber": "27",
                "addr:teryt:simc": 935506,
                "addr:teryt:sym_ul": 37683,
                "phone": "+48 957482475",
                "email": "liceum-mchod@infrakom.com.pl",
                "website": "http:\/\/www.lomiedzychod.pl",
                "ref:regon": "000229062",
                "ref:vatin": "PL5951165789",
                "operator": "Powiat Mi\u0119dzychodzki",
                "operator:type": "government",
                "amenity": "school"
            }
        },
        {
            "id": 115156,
            "type": "Feature",
            "geometry": {
                "type": "Point",
                "coordinates": [
                    15.90212,
                    52.60646
                ]
            },
            "properties": {
                "ref:rspo": 115156,
                "official_name": "Publiczna Biblioteka Pedagogiczna w Poznaniu Filia w Mi\u0119dzychodzie",
                "name": "Publiczna Biblioteka Pedagogiczna w Poznaniu Filia w Mi\u0119dzychodzie",
                "addr:postcode": "64-400",
                "addr:city": "Mi\u0119dzych\u00f3d",
                "addr:street": "17 Stycznia",
                "addr:housenumber": "143",
                "addr:teryt:simc": 935506,
                "addr:teryt:sym_ul": 21445,
                "phone": "+48 577001326",
                "email": "biblioteka@miedzychod.pbp.poznan.pl",
                "website": "http:\/\/miedzychod.pbp.poznan.pl",
                "ref:regon": "639810550",
                "operator": "Wojew\u00f3dztwo Wielkopolskie",
                "operator:type": "government",
                "amenity": "library",
                "note": "Parent RSPO: 30977"
            }
        },
        {
            "id": 9150,
            "type": "Feature",
            "geometry": {
                "type": "Point",
                "coordinates": [
                    15.90389,
                    52.60913
                ]
            },
            "properties": {
                "ref:rspo": 9150,
                "official_name": "Zesp\u00f3\u0142 Szk\u00f3\u0142 Nr 2 w Mi\u0119dzychodzie",
                "name": "Zesp\u00f3\u0142 Szk\u00f3\u0142 Nr 2 w Mi\u0119dzychodzie",
                "addr:postcode": "64-400",
                "addr:city": "Mi\u0119dzych\u00f3d",
                "addr:street": "Boles\u0142awa Chrobrego",
                "addr:housenumber": "13",
                "addr:teryt:simc": 935506,
                "addr:teryt:sym_ul": 1742,
                "phone": "+48 957482723",
                "email": "zsnr2miedzychod@wp.pl",
                "website": "https:\/\/zs2miedzychod.edupage.org\/",
                "ref:regon": "000232354",
                "ref:vatin": "PL5951213689",
                "operator": "Powiat Mi\u0119dzychodzki",
                "operator:type": "government",
                "landuse": "education",
                "fixme": "amenity=school, amenity=college albo landuse=education w zale\u017cno\u015bci od tego, jakie plac\u00f3wki wchodz\u0105 w sk\u0142ad zespo\u0142u. Sprawd\u017a, kiedy stosowa\u0107 amenity=* a kiedy landuse=education.",
                "note": "Children RSPO: 12567;12578;12579;12581;276036"
            }
        },
        {
            "id": 12567,
            "type": "Feature",
            "geometry": {
                "type": "Point",
                "coordinates": [
                    15.90389,
                    52.6091
                ]
            },
            "properties": {
                "isced:level": "4",
                "ref:rspo": 12567,
                "official_name": "Szko\u0142a Policealna Nr 2 w Mi\u0119dzychodzie",
                "name": "Szko\u0142a Policealna Nr 2 w Mi\u0119dzychodzie",
                "addr:postcode": "64-400",
                "addr:city": "Mi\u0119dzych\u00f3d",
                "addr:street": "Boles\u0142awa Chrobrego",
                "addr:housenumber": "13",
                "addr:teryt:simc": 935506,
                "addr:teryt:sym_ul": 1742,
                "phone": "+48 957482723",
                "email": "zsnr2miedzychod@wp.pl",
                "website": "https:\/\/zs2miedzychod.edupage.org\/",
                "ref:regon": "300121770",
                "operator": "Powiat Mi\u0119dzychodzki",
                "operator:type": "government",
                "amenity": "college",
                "note": "Parent RSPO: 9150"
            }
        },
        {
            "id": 12578,
            "type": "Feature",
            "geometry": {
                "type": "Point",
                "coordinates": [
                    15.90389,
                    52.60907
                ]
            },
            "properties": {
                "isced:level": "3",
                "ref:rspo": 12578,
                "official_name": "Technikum Nr 2 w Mi\u0119dzychodzie",
                "name": "Technikum Nr 2 w Mi\u0119dzychodzie",
                "addr:postcode": "64-400",
                "addr:city": "Mi\u0119dzych\u00f3d",
                "addr:street": "Boles\u0142awa Chrobrego",
                "addr:housenumber": "13",
                "addr:teryt:simc": 935506,
                "addr:teryt:sym_ul": 1742,
                "phone": "+48 957482723",
                "email": "zsnr2miedzychod@wp.pl",
                "website": "https:\/\/zs2miedzychod.edupage.org\/",
                "ref:regon": "639824120",
                "operator": "Powiat Mi\u0119dzychodzki",
                "operator:type": "government",
                "amenity": "school",
                "note": "Parent RSPO: 9150"
            }
        },
        {
            "id": 12579,
            "type": "Feature",
            "geometry": {
                "type": "Point",
                "coordinates": [
                    15.90389,
                    52.60904
                ]
            },
            "properties": {
                "isced:level": "3",
                "ref:rspo": 12579,
                "official_name": "Ii Liceum Og\u00f3lnokszta\u0142c\u0105ce dla Doros\u0142ych w Mi\u0119dzychodzie",
                "name": "Ii Liceum Og\u00f3lnokszta\u0142c\u0105ce dla Doros\u0142ych w Mi\u0119dzychodzie",
                "addr:postcode": "64-400",
                "addr:city": "Mi\u0119dzych\u00f3d",
                "addr:street": "Boles\u0142awa Chrobrego",
                "addr:housenumber": "13",
                "addr:teryt:simc": 935506,
                "addr:teryt:sym_ul": 1742,
                "phone": "+48 957482723",
                "email": "zsnr2miedzychod@wp.pl",
                "website": "https:\/\/zs2miedzychod.edupage.org\/",
                "ref:regon": "302210057",
                "operator": "Powiat Mi\u0119dzychodzki",
                "operator:type": "government",
                "amenity": "school",
                "note": "Parent RSPO: 9150"
            }
        },
        {
            "id": 12581,
            "type": "Feature",
            "geometry": {
                "type": "Point",
                "coordinates": [
                    15.90389,
                    52.60901
                ]
            },
            "properties": {
                "isced:level": "3",
                "ref:rspo": 12581,
                "official_name": "Bran\u017cowa Szko\u0142a I Stopnia Nr 2 w Mi\u0119dzychodzie",
                "name": "Bran\u017cowa Szko\u0142a I Stopnia Nr 2 w Mi\u0119dzychodzie",
                "addr:postcode": "64-400",
                "addr:city": "Mi\u0119dzych\u00f3d",
                "addr:street": "Boles\u0142awa Chrobrego",
                "addr:housenumber": "13",
                "addr:teryt:simc": 935506,
                "addr:teryt:sym_ul": 1742,
                "phone": "+48 957482723",
                "email": "zsnr2miedzychod@wp.pl",
                "website": "https:\/\/zs2miedzychod.edupage.org",
                "ref:regon": "639824108",
                "operator": "Powiat Mi\u0119dzychodzki",
                "operator:type": "government",
                "amenity": "school",
                "note": "Parent RSPO: 9150"
            }
        },
        {
            "id": 276036,
            "type": "Feature",
            "geometry": {
                "type": "Point",
                "coordinates": [
                    15.90389,
                    52.60898
                ]
            },
            "properties": {
                "isced:level": "3",
                "ref:rspo": 276036,
                "official_name": "Bran\u017cowa Szko\u0142a II Stopnia w Mi\u0119dzychodzie",
                "name": "Bran\u017cowa Szko\u0142a II Stopnia w Mi\u0119dzychodzie",
                "addr:postcode": "64-400",
                "addr:city": "Mi\u0119dzych\u00f3d",
                "addr:street": "Boles\u0142awa Chrobrego",
                "addr:housenumber": "13",
                "addr:teryt:simc": 935506,
                "addr:teryt:sym_ul": 1742,
                "phone": "+48 957482723",
                "email": "zsnr2miedzychod@wp.pl",
                "website": "https:\/\/zs2miedzychod.edupage.org\/",
                "ref:regon": "386971799",
                "operator": "Powiat Mi\u0119dzychodzki",
                "operator:type": "government",
                "amenity": "school",
                "note": "Parent RSPO: 9150"
            }
        }
    ]
}