{
    "type": "FeatureCollection",
    "features": [
        {
            "id": 52377,
            "type": "Feature",
            "geometry": {
                "type": "Point",
                "coordinates": [
                    14.62401,
                    53.03533
                ]
            },
            "properties": {
                "isced:level": "1;2",
                "ref:rspo": 52377,
                "official_name": "Szko\u0142a Podstawowa w Swobnicy",
                "name": "Szko\u0142a Podstawowa w Swobnicy",
                "addr:postcode": "74-110",
                "addr:place": "Swobnica",
                "addr:housenumber": "12",
                "addr:city:simc": 772783,
                "phone": "+48 914166812",
                "email": "spswobnica@interia.pl",
                "website": "http:\/\/www.spswobnica.szkolnastrona.pl",
                "ref:regon": "001223400",
                "ref:vatin": "PL8581759540",
                "operator": "Gmina Banie",
                "operator:type": "government",
                "amenity": "school"
            }
        },
        {
            "id": 52379,
            "type": "Feature",
            "geometry": {
                "type": "Point",
                "coordinates": [
                    14.66237,
                    53.10116
                ]
            },
            "properties": {
                "ref:rspo": 52379,
                "official_name": "Przedszkole w Baniach",
                "name": "Przedszkole w Baniach",
                "addr:postcode": "74-110",
                "addr:city": "Banie",
                "addr:street": "Pocztowa",
                "addr:housenumber": "3",
                "addr:city:simc": 772642,
                "addr:street:sym_ul": 16579,
                "phone": "+48 914166331",
                "email": "sekretariat@przedszkole.banie.pl",
                "website": "http:\/\/www.przedszkolebanie.edupage.org",
                "ref:regon": "001003176",
                "ref:vatin": "PL8581540971",
                "operator": "Gmina Banie",
                "operator:type": "government",
                "amenity": "kindergarten"
            }
        },
        {
            "id": 90480,
            "type": "Feature",
            "geometry": {
                "type": "Point",
                "coordinates": [
                    14.66226,
                    53.10236
                ]
            },
            "properties": {
                "isced:level": "1;2",
                "ref:rspo": 90480,
                "official_name": "Szko\u0142a Podstawowa im. Marii Sk\u0142odowskiej -Curie",
                "name": "Szko\u0142a Podstawowa",
                "addr:postcode": "74-110",
                "addr:city": "Banie",
                "addr:street": "Sportowa",
                "addr:housenumber": "1",
                "addr:city:simc": 772642,
                "addr:street:sym_ul": 20683,
                "phone": "+48 914166312",
                "email": "sekretariat@spbanie.pl",
                "website": "http:\/\/www.spbanie.edupage.org",
                "ref:regon": "000265678",
                "ref:vatin": "PL8581768993",
                "operator": "Gmina Banie",
                "operator:type": "government",
                "amenity": "school"
            }
        },
        {
            "id": 52376,
            "type": "Feature",
            "geometry": {
                "type": "Point",
                "coordinates": [
                    14.61061,
                    53.12676
                ]
            },
            "properties": {
                "isced:level": "1;2",
                "ref:rspo": 52376,
                "official_name": "Szko\u0142a Podstawowa im. Miko\u0142aja Kopernika w Lubanowie",
                "name": "Szko\u0142a Podstawowa",
                "addr:postcode": "74-111",
                "addr:place": "Lubanowo",
                "addr:housenumber": "53",
                "addr:city:simc": 772702,
                "phone": "+48 914166728",
                "email": "dyrektor@lubanowosp.pl",
                "website": "http:\/\/www.lubanowosp.pl",
                "ref:regon": "001223417",
                "ref:vatin": "PL8581759557",
                "operator": "Gmina Banie",
                "operator:type": "government",
                "amenity": "school"
            }
        }
    ]
}