{
    "type": "FeatureCollection",
    "features": [
        {
            "id": 56050,
            "type": "Feature",
            "geometry": {
                "type": "Point",
                "coordinates": [
                    14.68444,
                    53.18687
                ]
            },
            "properties": {
                "ref:rspo": 56050,
                "official_name": "Ognisko Przedszkolne Tpd w Sobiemy\u015blu",
                "name": "Ognisko Przedszkolne Tpd w Sobiemy\u015blu",
                "addr:postcode": "74-100",
                "addr:place": "Sobiemy\u015bl",
                "addr:housenumber": "12",
                "addr:city:simc": 776485,
                "phone": "+48 914345128",
                "email": "zarzad@tpd.szczecin.pl",
                "website": "http:\/\/www.tpd.szczecin.pl",
                "ref:regon": "321294326",
                "operator": "Towarzystwo Przyjaci\u00f3\u0142 Dzieci Zachodniopomorski Oddzia\u0142 Regionalny W Szczecinie",
                "operator:type": "ngo",
                "amenity": "kindergarten"
            }
        },
        {
            "id": 118486,
            "type": "Feature",
            "geometry": {
                "type": "Point",
                "coordinates": [
                    14.489919662476,
                    53.196189880371
                ]
            },
            "properties": {
                "ref:rspo": 118486,
                "official_name": "Zesp\u00f3\u0142 Szk\u00f3\u0142 Specjalnych w Nowym Czarnowie",
                "name": "Zesp\u00f3\u0142 Szk\u00f3\u0142 Specjalnych w Nowym Czarnowie",
                "addr:postcode": "74-105",
                "addr:place": "Nowe Czarnowo",
                "addr:housenumber": "-",
                "addr:city:simc": 776440,
                "phone": "+48 913165920",
                "email": "sekretariat@zssnoweczarnowo.pl",
                "website": "http:\/\/zssnoweczarnowo.edupage.org",
                "ref:regon": "321409781",
                "ref:vatin": "PL8581850789",
                "operator": "Powiat Gryfi\u0144ski",
                "operator:type": "government",
                "landuse": "education",
                "fixme": "amenity=school, amenity=college albo landuse=education w zale\u017cno\u015bci od tego, jakie plac\u00f3wki wchodz\u0105 w sk\u0142ad zespo\u0142u. Sprawd\u017a, kiedy stosowa\u0107 amenity=* a kiedy landuse=education.",
                "note": "Children RSPO: 58486;119099"
            }
        },
        {
            "id": 58486,
            "type": "Feature",
            "geometry": {
                "type": "Point",
                "coordinates": [
                    14.489919662476,
                    53.196159880371
                ]
            },
            "properties": {
                "isced:level": "1;2",
                "ref:rspo": 58486,
                "official_name": "Szko\u0142a Podstawowa Specjalna w Nowym Czarnowie",
                "name": "Szko\u0142a Podstawowa Specjalna w Nowym Czarnowie",
                "addr:postcode": "74-105",
                "addr:place": "Nowe Czarnowo",
                "addr:housenumber": "-",
                "addr:city:simc": 776440,
                "phone": "+48 913165920",
                "email": "sekretariat@zssnoweczarnowo.pl",
                "website": "http:\/\/zssnoweczarnowo.edupage.org",
                "ref:regon": "000737806",
                "operator": "Powiat Gryfi\u0144ski",
                "operator:type": "government",
                "amenity": "school",
                "note": "Parent RSPO: 118486"
            }
        },
        {
            "id": 119099,
            "type": "Feature",
            "geometry": {
                "type": "Point",
                "coordinates": [
                    14.489919662476,
                    53.196129880371004
                ]
            },
            "properties": {
                "ref:rspo": 119099,
                "official_name": "Szko\u0142a Specjalna Przysposabiaj\u0105ca do Pracy w Nowym Czarnowie",
                "name": "Szko\u0142a Specjalna Przysposabiaj\u0105ca do Pracy w Nowym Czarnowie",
                "addr:postcode": "74-105",
                "addr:place": "Nowe Czarnowo",
                "addr:housenumber": "-",
                "addr:city:simc": 776380,
                "phone": "+48 913165920",
                "email": "sekretariat@zssnoweczarnowo.pl",
                "website": "http:\/\/zssnoweczarnowo.edupage.org",
                "ref:regon": "321418449",
                "operator": "Powiat Gryfi\u0144ski",
                "operator:type": "government",
                "amenity": "school",
                "note": "Parent RSPO: 118486"
            }
        },
        {
            "id": 56037,
            "type": "Feature",
            "geometry": {
                "type": "Point",
                "coordinates": [
                    14.60907,
                    53.2171
                ]
            },
            "properties": {
                "ref:rspo": 56037,
                "official_name": "Ognisko Przedszkolne Tpd w Chwarstnicy",
                "name": "Ognisko Przedszkolne Tpd w Chwarstnicy",
                "addr:postcode": "74-100",
                "addr:city": "Chwarstnica",
                "addr:street": "Gryfi\u0144ska",
                "addr:housenumber": "6",
                "addr:city:simc": 776249,
                "addr:street:sym_ul": 6287,
                "phone": "+48 914345128",
                "email": "zarzad@tpd.szczecin.pl",
                "website": "http:\/\/www.tpd.szczecin.pl",
                "ref:regon": "321292876",
                "operator": "Towarzystwo Przyjaci\u00f3\u0142 Dzieci Zachodniopomorski Oddzia\u0142 Regionalny W Szczecinie",
                "operator:type": "ngo",
                "amenity": "kindergarten"
            }
        },
        {
            "id": 48101,
            "type": "Feature",
            "geometry": {
                "type": "Point",
                "coordinates": [
                    14.60878,
                    53.21951
                ]
            },
            "properties": {
                "isced:level": "1;2",
                "ref:rspo": 48101,
                "official_name": "Szko\u0142a Podstawowa im. Jana Paw\u0142a II w Chwarstnicy",
                "name": "Szko\u0142a Podstawowa",
                "addr:postcode": "74-100",
                "addr:city": "Chwarstnica",
                "addr:street": "Gryfi\u0144ska",
                "addr:housenumber": "19",
                "addr:city:simc": 776249,
                "addr:street:sym_ul": 6287,
                "phone": "+48 914041613",
                "email": "sp.chwarstnica@op.pl",
                "website": "http:\/\/www.spchwarstnica.pl",
                "ref:regon": "001222903",
                "ref:vatin": "PL8581775757",
                "operator": "Gmina Gryfino",
                "operator:type": "government",
                "amenity": "school"
            }
        },
        {
            "id": 40226,
            "type": "Feature",
            "geometry": {
                "type": "Point",
                "coordinates": [
                    14.48936,
                    53.23769
                ]
            },
            "properties": {
                "ref:rspo": 40226,
                "official_name": "Zesp\u00f3\u0142 Szk\u00f3\u0142 Ponadpodstawowych w Gryfinie",
                "name": "Zesp\u00f3\u0142 Szk\u00f3\u0142 Ponadpodstawowych w Gryfinie",
                "addr:postcode": "74-100",
                "addr:city": "Gryfino",
                "addr:street": "\u0141u\u017cycka",
                "addr:housenumber": "91",
                "addr:city:simc": 979076,
                "addr:street:sym_ul": 11793,
                "phone": "+48 914162503",
                "email": "zsp2.gryfino@wp.pl",
                "website": "http:\/\/www.zsp2gryfino.eu",
                "ref:regon": "000181668",
                "ref:vatin": "PL8580007312",
                "operator": "Powiat Gryfi\u0144ski",
                "operator:type": "government",
                "landuse": "education",
                "fixme": "amenity=school, amenity=college albo landuse=education w zale\u017cno\u015bci od tego, jakie plac\u00f3wki wchodz\u0105 w sk\u0142ad zespo\u0142u. Sprawd\u017a, kiedy stosowa\u0107 amenity=* a kiedy landuse=education.",
                "note": "Children RSPO: 64591;64592;64593;64597;64604"
            }
        },
        {
            "id": 40228,
            "type": "Feature",
            "geometry": {
                "type": "Point",
                "coordinates": [
                    14.48936,
                    53.23766
                ]
            },
            "properties": {
                "ref:rspo": 40228,
                "official_name": "Poradnia Psychologiczno-Pedagogiczna w Gryfinie",
                "name": "Poradnia Psychologiczno-Pedagogiczna w Gryfinie",
                "addr:postcode": "74-100",
                "addr:city": "Gryfino",
                "addr:street": "\u0141u\u017cycka",
                "addr:housenumber": "91",
                "addr:city:simc": 979076,
                "addr:street:sym_ul": 11793,
                "phone": "+48 914162737",
                "email": "gryfino@pppgryfino.pl",
                "website": "http:\/\/www.pppgryfino.pl",
                "ref:regon": "000703233",
                "ref:vatin": "PL8581500233",
                "operator": "Powiat Gryfi\u0144ski",
                "operator:type": "government",
                "healthcare": "counselling",
                "counselling_type": "education",
                "fixme": "w zale\u017cno\u015bci od przedmiotu dzia\u0142alno\u015bci (np. healthcare=counselling + counselling_type=education albo healthcare=psychotherapist)",
                "note": "Children RSPO: 110427"
            }
        },
        {
            "id": 64591,
            "type": "Feature",
            "geometry": {
                "type": "Point",
                "coordinates": [
                    14.48936,
                    53.23763
                ]
            },
            "properties": {
                "isced:level": "3",
                "ref:rspo": 64591,
                "official_name": "Technikum Zawodowe im. Bohater\u00f3w Powstania Warszawskiego",
                "name": "Technikum Zawodowe",
                "addr:postcode": "74-100",
                "addr:city": "Gryfino",
                "addr:street": "\u0141u\u017cycka",
                "addr:housenumber": "91",
                "addr:city:simc": 979076,
                "addr:street:sym_ul": 11793,
                "phone": "+48 914162503",
                "email": "zsp2.gryfino@wp.pl",
                "website": "http:\/\/www.zspgryfino.eu",
                "ref:regon": "812528505",
                "operator": "Powiat Gryfi\u0144ski",
                "operator:type": "government",
                "amenity": "school",
                "note": "Parent RSPO: 40226"
            }
        },
        {
            "id": 64592,
            "type": "Feature",
            "geometry": {
                "type": "Point",
                "coordinates": [
                    14.48936,
                    53.2376
                ]
            },
            "properties": {
                "isced:level": "3",
                "ref:rspo": 64592,
                "official_name": "Ii Liceum Og\u00f3lnokszta\u0142c\u0105ce im. Bohater\u00f3w Powstania Warszawskiego",
                "name": "Ii Liceum Og\u00f3lnokszta\u0142c\u0105ce",
                "addr:postcode": "74-100",
                "addr:city": "Gryfino",
                "addr:street": "\u0141u\u017cycka",
                "addr:housenumber": "91",
                "addr:city:simc": 979076,
                "addr:street:sym_ul": 11793,
                "phone": "+48 914162503",
                "email": "zsp2.gryfino@wp.pl",
                "website": "http:\/\/www.zspgryfino.biz",
                "ref:regon": "812528497",
                "operator": "Powiat Gryfi\u0144ski",
                "operator:type": "government",
                "amenity": "school",
                "note": "Parent RSPO: 40226"
            }
        },
        {
            "id": 64593,
            "type": "Feature",
            "geometry": {
                "type": "Point",
                "coordinates": [
                    14.48936,
                    53.23757
                ]
            },
            "properties": {
                "isced:level": "3",
                "ref:rspo": 64593,
                "official_name": "Bran\u017cowa Szko\u0142a I Stopnia im. Bohater\u00f3w Powstania Warszawskiego",
                "name": "Bran\u017cowa Szko\u0142a I Stopnia",
                "addr:postcode": "74-100",
                "addr:city": "Gryfino",
                "addr:street": "\u0141u\u017cycka",
                "addr:housenumber": "91",
                "addr:city:simc": 979076,
                "addr:street:sym_ul": 11793,
                "phone": "+48 914162503",
                "email": "zsp2.gryfino@wp.pl",
                "website": "http:\/\/www.zspgryfino.eu",
                "ref:regon": "812000490",
                "operator": "Powiat Gryfi\u0144ski",
                "operator:type": "government",
                "amenity": "school",
                "note": "Parent RSPO: 40226"
            }
        },
        {
            "id": 64597,
            "type": "Feature",
            "geometry": {
                "type": "Point",
                "coordinates": [
                    14.48936,
                    53.23754
                ]
            },
            "properties": {
                "isced:level": "3",
                "ref:rspo": 64597,
                "official_name": "Liceum Og\u00f3lnokszta\u0142c\u0105ce dla Doros\u0142ych im. Bohater\u00f3w Powstania Warszawskiego",
                "name": "Liceum Og\u00f3lnokszta\u0142c\u0105ce dla Doros\u0142ych",
                "addr:postcode": "74-100",
                "addr:city": "Gryfino",
                "addr:street": "\u0141u\u017cycka",
                "addr:housenumber": "91",
                "addr:city:simc": 979076,
                "addr:street:sym_ul": 11793,
                "phone": "+48 914162503",
                "email": "zsp2.gryfino@wp.pl",
                "website": "http:\/\/www.zspgryfino.eu",
                "ref:regon": "812000945",
                "operator": "Powiat Gryfi\u0144ski",
                "operator:type": "government",
                "amenity": "school",
                "note": "Parent RSPO: 40226"
            }
        },
        {
            "id": 64604,
            "type": "Feature",
            "geometry": {
                "type": "Point",
                "coordinates": [
                    14.48936,
                    53.23751
                ]
            },
            "properties": {
                "isced:level": "4",
                "ref:rspo": 64604,
                "official_name": "Policealna Szko\u0142a Zawodowa w Gryfinie",
                "name": "Policealna Szko\u0142a Zawodowa w Gryfinie",
                "addr:postcode": "74-100",
                "addr:city": "Gryfino",
                "addr:street": "\u0141u\u017cycka",
                "addr:housenumber": "91",
                "addr:city:simc": 979076,
                "addr:street:sym_ul": 11793,
                "phone": "+48 914162503",
                "email": "zsp2.gryfino@wp.pl",
                "website": "http:\/\/www.zspgryfino.eu",
                "ref:regon": "321290972",
                "operator": "Powiat Gryfi\u0144ski",
                "operator:type": "government",
                "amenity": "college",
                "note": "Parent RSPO: 40226"
            }
        },
        {
            "id": 55713,
            "type": "Feature",
            "geometry": {
                "type": "Point",
                "coordinates": [
                    14.48839,
                    53.2473699
                ]
            },
            "properties": {
                "isced:level": "1;2",
                "ref:rspo": 55713,
                "official_name": "Szko\u0142a Podstawowa nr 1 z Oddzia\u0142ami Integracyjnymi im. Marii D\u0105browskiej w Gryfinie",
                "name": "Szko\u0142a Podstawowa nr 1 z Oddzia\u0142ami Integracyjnymi",
                "addr:postcode": "74-100",
                "addr:city": "Gryfino",
                "addr:street": "\u0141u\u017cycka",
                "addr:housenumber": "22",
                "addr:city:simc": 979076,
                "addr:street:sym_ul": 11793,
                "phone": "+48 914162521",
                "email": "sekretariatsp1gryfino@wp.pl",
                "website": "http:\/\/www.sp1gryfino.szkolnastrona.pl",
                "ref:regon": "000702430",
                "ref:vatin": "PL8581775846",
                "operator": "Gmina Gryfino",
                "operator:type": "government",
                "amenity": "school"
            }
        },
        {
            "id": 52762,
            "type": "Feature",
            "geometry": {
                "type": "Point",
                "coordinates": [
                    14.49618,
                    53.2497
                ]
            },
            "properties": {
                "ref:rspo": 52762,
                "official_name": "Przedszkole nr 5 im. Calineczki w Gryfinie",
                "name": "Przedszkole nr 5",
                "addr:postcode": "74-101",
                "addr:city": "Gryfino",
                "addr:street": "Stefana \u017beromskiego",
                "addr:housenumber": "12",
                "addr:city:simc": 979076,
                "addr:street:sym_ul": 26469,
                "phone": "+48 914163375",
                "email": "calineczkap5@wp.pl",
                "website": "http:\/\/www.calineczka-gryfino.pl",
                "ref:regon": "320911544",
                "ref:vatin": "PL8581837429",
                "operator": "Gmina Gryfino",
                "operator:type": "government",
                "amenity": "kindergarten"
            }
        },
        {
            "id": 56120,
            "type": "Feature",
            "geometry": {
                "type": "Point",
                "coordinates": [
                    14.48987,
                    53.25239
                ]
            },
            "properties": {
                "isced:level": "3",
                "ref:rspo": 56120,
                "official_name": "I Liceum Og\u00f3lnokszta\u0142c\u0105ce im. Aleksandra Omieczy\u0144skiego w Gryfinie",
                "name": "I Liceum Og\u00f3lnokszta\u0142c\u0105ce",
                "addr:postcode": "74-100",
                "addr:city": "Gryfino",
                "addr:street": "Niepodleg\u0142o\u015bci",
                "addr:housenumber": "16",
                "addr:city:simc": 979076,
                "addr:street:sym_ul": 14203,
                "phone": "+48 914162065",
                "email": "zsogryfino@poczta.onet.pl",
                "website": "http:\/\/www.zsogryfino.pl",
                "ref:regon": "320540875",
                "ref:vatin": "PL8581680560",
                "operator": "Powiat Gryfi\u0144ski",
                "operator:type": "government",
                "amenity": "school"
            }
        },
        {
            "id": 52366,
            "type": "Feature",
            "geometry": {
                "type": "Point",
                "coordinates": [
                    14.49766,
                    53.25256
                ]
            },
            "properties": {
                "ref:rspo": 52366,
                "official_name": "Przedszkole nr 3 im. Kubusia Puchatka w Gryfinie",
                "name": "Przedszkole nr 3",
                "addr:postcode": "74-101",
                "addr:city": "Gryfino",
                "addr:street": "Zygmunta Krasi\u0144skiego",
                "addr:housenumber": "29",
                "addr:city:simc": 979076,
                "addr:street:sym_ul": 9848,
                "phone": "+48 914162238",
                "email": "puchatek.przedszkole3@gryfino.pl",
                "website": "http:\/\/www.przedszkole3-gryfino.pl",
                "ref:regon": "320911573",
                "ref:vatin": "PL8581837406",
                "operator": "Gmina Gryfino",
                "operator:type": "government",
                "amenity": "kindergarten"
            }
        },
        {
            "id": 52660,
            "type": "Feature",
            "geometry": {
                "type": "Point",
                "coordinates": [
                    14.4862,
                    53.2533
                ]
            },
            "properties": {
                "ref:rspo": 52660,
                "official_name": "Przedszkole nr 4 z Oddzia\u0142ami Integracyjnymi im. Pszcz\u00f3\u0142ki Mai w Gryfinie",
                "name": "Przedszkole nr 4 z Oddzia\u0142ami Integracyjnymi",
                "addr:postcode": "74-100",
                "addr:city": "Gryfino",
                "addr:street": "Tadeusza Ko\u015bciuszki",
                "addr:housenumber": "17",
                "addr:city:simc": 979076,
                "addr:street:sym_ul": 9582,
                "phone": "+48 914162964",
                "email": "przedszkole4_gryfino@poczta.onet.pl",
                "website": "http:\/\/www.przedszkole4gryfino.edupage.org",
                "ref:regon": "320911567",
                "ref:vatin": "PL8581837412",
                "operator": "Gmina Gryfino",
                "operator:type": "government",
                "amenity": "kindergarten"
            }
        },
        {
            "id": 49284,
            "type": "Feature",
            "geometry": {
                "type": "Point",
                "coordinates": [
                    14.502,
                    53.25443
                ]
            },
            "properties": {
                "isced:level": "1;2",
                "ref:rspo": 49284,
                "official_name": "Szko\u0142a Podstawowa nr 3 im. Noblist\u00f3w Polskich w Gryfinie",
                "name": "Szko\u0142a Podstawowa nr 3",
                "addr:postcode": "74-101",
                "addr:city": "Gryfino",
                "addr:street": "Jaros\u0142awa Iwaszkiewicza",
                "addr:housenumber": "70",
                "addr:city:simc": 979076,
                "addr:street:sym_ul": 6944,
                "phone": "+48 914164711",
                "email": "kontakt@sp3gryfino.pl",
                "website": "http:\/\/www.sp3gryfino.pl",
                "ref:regon": "320697358",
                "operator": "Gmina Gryfino",
                "operator:type": "government",
                "amenity": "school"
            }
        },
        {
            "id": 122153,
            "type": "Feature",
            "geometry": {
                "type": "Point",
                "coordinates": [
                    14.48486,
                    53.2546
                ]
            },
            "properties": {
                "ref:rspo": 122153,
                "official_name": "Niepubliczne Integracyjne Przedszkole Iskierka z Oddzia\u0142ami Og\u00f3lnodost\u0119pnymi I Specjalnymi",
                "name": "Niepubliczne Integracyjne Przedszkole Iskierka z Oddzia\u0142ami Og\u00f3lnodost\u0119pnymi I Specjalnymi",
                "addr:postcode": "74-101",
                "addr:city": "Gryfino",
                "addr:street": "9 Maja",
                "addr:housenumber": "5",
                "addr:city:simc": 979076,
                "addr:street:sym_ul": 11941,
                "phone": "+48 535535036",
                "email": "biuro_gryfino@wp.pl",
                "ref:regon": "321486860",
                "operator": "\"Om\" Sp\u00f3\u0142ka Z Ograniczon\u0105 Odpowiedzialno\u015bci\u0105",
                "operator:type": "private",
                "amenity": "kindergarten"
            }
        },
        {
            "id": 123671,
            "type": "Feature",
            "geometry": {
                "type": "Point",
                "coordinates": [
                    14.48486,
                    53.25457
                ]
            },
            "properties": {
                "ref:rspo": 123671,
                "official_name": "O\u015brodek Szkolenia Craft Adrian Ho\u0142ownia",
                "name": "O\u015brodek Szkolenia Craft Adrian Ho\u0142ownia",
                "addr:postcode": "74-100",
                "addr:city": "Gryfino",
                "addr:street": "1 Maja",
                "addr:housenumber": "5",
                "addr:city:simc": 979076,
                "addr:street:sym_ul": 11926,
                "phone": "+48 881320123",
                "email": "biuro@oscraft.pl",
                "website": "http:\/\/www.oscraft.pl",
                "ref:regon": "321550539",
                "operator": "Adrian Ho\u0142ownia",
                "operator:type": "private",
                "fixme": "w zale\u017cno\u015bci od przedmiotu dzia\u0142alno\u015bci (np. amenity=training + training=*, amenity=dancing_school, amenity=language_school, amenity=music_school)"
            }
        },
        {
            "id": 55717,
            "type": "Feature",
            "geometry": {
                "type": "Point",
                "coordinates": [
                    14.4847,
                    53.25461
                ]
            },
            "properties": {
                "isced:level": "1;2",
                "ref:rspo": 55717,
                "official_name": "Szko\u0142a Podstawowa nr 2 im. Kpt.\u017c.w. Mamerta Stankiewicza w Gryfinie",
                "name": "Szko\u0142a Podstawowa nr 2",
                "addr:postcode": "74-101",
                "addr:city": "Gryfino",
                "addr:street": "9 Maja",
                "addr:housenumber": "4",
                "addr:city:simc": 979076,
                "addr:street:sym_ul": 11941,
                "phone": "+48 914162620",
                "email": "sekretariat@sp2gryfino.pl",
                "website": "http:\/\/www.sp2gryfino.edupage.org",
                "ref:regon": "001222895",
                "ref:vatin": "PL8581775823",
                "operator": "Gmina Gryfino",
                "operator:type": "government",
                "amenity": "school"
            }
        },
        {
            "id": 128219,
            "type": "Feature",
            "geometry": {
                "type": "Point",
                "coordinates": [
                    14.4847,
                    53.25458
                ]
            },
            "properties": {
                "ref:rspo": 128219,
                "official_name": "Szko\u0142a Muzyczna I Stopnia w Gryfinie",
                "name": "Szko\u0142a Muzyczna I Stopnia w Gryfinie",
                "addr:postcode": "74-101",
                "addr:city": "Gryfino",
                "addr:street": "9 Maja",
                "addr:housenumber": "4",
                "addr:city:simc": 979076,
                "addr:street:sym_ul": 11941,
                "phone": "+48 914162620",
                "email": "sekretariatmuzyczna@gryfino.pl",
                "website": "http:\/\/www.muzycznagryfino.pl",
                "ref:regon": "362180697",
                "ref:vatin": "PL8581853925",
                "operator": "Gmina Gryfino",
                "operator:type": "government",
                "amenity": "music_school"
            }
        },
        {
            "id": 52484,
            "type": "Feature",
            "geometry": {
                "type": "Point",
                "coordinates": [
                    14.48738,
                    53.25522
                ]
            },
            "properties": {
                "ref:rspo": 52484,
                "official_name": "Przedszkole nr 2 im. Misia Uszatka w Gryfinie",
                "name": "Przedszkole nr 2",
                "addr:postcode": "74-100",
                "addr:city": "Gryfino",
                "addr:street": "Boles\u0142awa Krzywoustego",
                "addr:housenumber": "5",
                "addr:city:simc": 979076,
                "addr:street:sym_ul": 1749,
                "phone": "+48 914162925",
                "email": "przedszkolenr2@gryfino.pl",
                "website": "http:\/\/www.uszatkaprzedszkole.pl",
                "ref:regon": "320911580",
                "ref:vatin": "PL8581837398",
                "operator": "Gmina Gryfino",
                "operator:type": "government",
                "amenity": "kindergarten"
            }
        },
        {
            "id": 51840,
            "type": "Feature",
            "geometry": {
                "type": "Point",
                "coordinates": [
                    14.49372,
                    53.25642
                ]
            },
            "properties": {
                "ref:rspo": 51840,
                "official_name": "Przedszkole nr 1 im. Krasnala Ha\u0142aba\u0142y w Gryfinie",
                "name": "Przedszkole nr 1",
                "addr:postcode": "74-101",
                "addr:city": "Gryfino",
                "addr:street": "Wojska Polskiego",
                "addr:housenumber": "11",
                "addr:city:simc": 979076,
                "addr:street:sym_ul": 24628,
                "phone": "+48 913332720",
                "email": "halabala@gryfino.pl",
                "website": "http:\/\/www.gryfinoprzedszkole1.pl",
                "ref:regon": "320911604",
                "ref:vatin": "PL8581837381",
                "operator": "Gmina Gryfino",
                "operator:type": "government",
                "amenity": "kindergarten"
            }
        },
        {
            "id": 71023,
            "type": "Feature",
            "geometry": {
                "type": "Point",
                "coordinates": [
                    14.6188041,
                    53.2616261
                ]
            },
            "properties": {
                "isced:level": "1;2",
                "ref:rspo": 71023,
                "official_name": "Szko\u0142a Podstawowa im. Bohater\u00f3w Westerplatte w Gardnie",
                "name": "Szko\u0142a Podstawowa",
                "addr:postcode": "74-100",
                "addr:city": "Gardno",
                "addr:street": "Niepodleg\u0142o\u015bci",
                "addr:housenumber": "1",
                "addr:city:simc": 776338,
                "addr:street:sym_ul": 14203,
                "phone": "+48 914041120",
                "email": "sekretariat@spgardno.pl",
                "website": "http:\/\/www.zsgardno.pl",
                "ref:regon": "001222889",
                "operator": "Gmina Gryfino",
                "operator:type": "government",
                "amenity": "school"
            }
        },
        {
            "id": 270490,
            "type": "Feature",
            "geometry": {
                "type": "Point",
                "coordinates": [
                    14.6188041,
                    53.2615961
                ]
            },
            "properties": {
                "ref:rspo": 270490,
                "official_name": "Niepubliczne Przedszkole Towarzystwa Przyjaci\u00f3\u0142 Dzieci w Gardnie",
                "name": "Niepubliczne Przedszkole Towarzystwa Przyjaci\u00f3\u0142 Dzieci w Gardnie",
                "addr:postcode": "74-100",
                "addr:city": "Gardno",
                "addr:street": "Niepodleg\u0142o\u015bci",
                "addr:housenumber": "1",
                "addr:city:simc": 776338,
                "addr:street:sym_ul": 14203,
                "phone": "+48 914345128",
                "email": "zarzad@tpd.szczecin.pl",
                "website": "http:\/\/www.tpd.szczecin.pl",
                "ref:regon": "382648251",
                "operator": "Towarzystwo Przyjaci\u00f3\u0142 Dzieci Zachodniopomorski Oddzia\u0142 Regionalny W Szczecinie",
                "operator:type": "ngo",
                "amenity": "kindergarten"
            }
        },
        {
            "id": 41226,
            "type": "Feature",
            "geometry": {
                "type": "Point",
                "coordinates": [
                    14.49754,
                    53.28646
                ]
            },
            "properties": {
                "isced:level": "1;2",
                "ref:rspo": 41226,
                "official_name": "Szko\u0142a Podstawowa im. Ks. Barnima I w \u017babnicy",
                "name": "Szko\u0142a Podstawowa",
                "addr:postcode": "74-100",
                "addr:city": "\u017babnica",
                "addr:street": "D\u0142uga",
                "addr:housenumber": "20",
                "addr:city:simc": 776605,
                "addr:street:sym_ul": 3839,
                "phone": "+48 914160232",
                "email": "spzabnica@op.pl",
                "website": "http:\/\/www.spzabnica.edupage.org",
                "ref:regon": "001222866",
                "ref:vatin": "PL8581775792",
                "operator": "Gmina Gryfino",
                "operator:type": "government",
                "amenity": "school"
            }
        },
        {
            "id": 56071,
            "type": "Feature",
            "geometry": {
                "type": "Point",
                "coordinates": [
                    14.55667,
                    53.29383
                ]
            },
            "properties": {
                "ref:rspo": 56071,
                "official_name": "Ognisko Przedszkolne Tpd w Starych Brynkach",
                "name": "Ognisko Przedszkolne Tpd w Starych Brynkach",
                "addr:postcode": "74-100",
                "addr:place": "Stare Brynki",
                "addr:housenumber": "2",
                "addr:city:simc": 776500,
                "phone": "+48 914345128",
                "email": "zarzad@tpd.szczecin.pl",
                "website": "http:\/\/www.tpd.szczecin.pl",
                "ref:regon": "321292847",
                "operator": "Towarzystwo Przyjaci\u00f3\u0142 Dzieci Zachodniopomorski Oddzia\u0142 Regionalny W Szczecinie",
                "operator:type": "ngo",
                "amenity": "kindergarten"
            }
        },
        {
            "id": 72119,
            "type": "Feature",
            "geometry": {
                "type": "Point",
                "coordinates": [
                    14.53754,
                    53.3208
                ]
            },
            "properties": {
                "ref:rspo": 72119,
                "official_name": "Centrum Kszta\u0142cenia Ustawicznego I Praktycznego w Gryfinie",
                "name": "Centrum Kszta\u0142cenia Ustawicznego I Praktycznego w Gryfinie",
                "addr:postcode": "74-100",
                "addr:city": "Gryfino",
                "addr:street": "Szczeci\u0144ska",
                "addr:housenumber": "19",
                "addr:city:simc": 979076,
                "addr:street:sym_ul": 21805,
                "phone": "+48 914162101",
                "email": "cechgryfino_agnieszka@poczta.onet.pl",
                "website": "http:\/\/www.cechgryfino.pl",
                "ref:regon": "321293670",
                "operator": "Cech Rzemios\u0142 R\u00f3\u017cnych I Przedsi\u0119biorc\u00f3w",
                "operator:type": "ngo",
                "fixme": "w zale\u017cno\u015bci od przedmiotu dzia\u0142alno\u015bci (np. amenity=training + training=*, amenity=dancing_school, amenity=language_school, amenity=music_school)"
            }
        },
        {
            "id": 41054,
            "type": "Feature",
            "geometry": {
                "type": "Point",
                "coordinates": [
                    14.54097,
                    53.32448
                ]
            },
            "properties": {
                "isced:level": "1;2",
                "ref:rspo": 41054,
                "official_name": "Szko\u0142a Podstawowa im. Ma\u0142ych Zes\u0142a\u0144c\u00f3w Sybiru w Radziszewie",
                "name": "Szko\u0142a Podstawowa",
                "addr:postcode": "74-100",
                "addr:city": "Radziszewo",
                "addr:street": "Szczeci\u0144ska",
                "addr:housenumber": "54",
                "addr:city:simc": 776462,
                "addr:street:sym_ul": 21805,
                "phone": "+48 914160123",
                "email": "spradziszewo@op.pl",
                "website": "http:\/\/sp-radziszewo.edupage.org",
                "ref:regon": "001222872",
                "ref:vatin": "PL8581775786",
                "operator": "Gmina Gryfino",
                "operator:type": "government",
                "amenity": "school"
            }
        }
    ]
}