{
    "type": "FeatureCollection",
    "features": [
        {
            "id": 34564,
            "type": "Feature",
            "geometry": {
                "type": "Point",
                "coordinates": [
                    14.41287,
                    52.9492199
                ]
            },
            "properties": {
                "isced:level": "1;2",
                "ref:rspo": 34564,
                "official_name": "Szko\u0142a Podstawowa Nr2 im. Kornela Makuszy\u0144skiego w Chojnie",
                "name": "Szko\u0142a Podstawowa Nr2",
                "addr:postcode": "74-500",
                "addr:city": "Chojna",
                "addr:street": "\u017bwirki i Wigury",
                "addr:housenumber": "10",
                "addr:city:simc": 978786,
                "addr:street:sym_ul": 26608,
                "phone": "+48 914142703",
                "email": "sekretariat@sp2chojna.pl",
                "website": "http:\/\/sp2chojna.edupage.org",
                "ref:regon": "811046916",
                "ref:vatin": "PL8581384442",
                "operator": "Gmina Chojna",
                "operator:type": "government",
                "amenity": "school"
            }
        },
        {
            "id": 58444,
            "type": "Feature",
            "geometry": {
                "type": "Point",
                "coordinates": [
                    14.34338,
                    52.9515
                ]
            },
            "properties": {
                "ref:rspo": 58444,
                "official_name": "Bajkowe Przedszkole Miejskie w Chojnie",
                "name": "Bajkowe Przedszkole Miejskie w Chojnie",
                "addr:postcode": "74-500",
                "addr:city": "Chojna",
                "addr:street": "Wilsona",
                "addr:housenumber": "10",
                "addr:city:simc": 978786,
                "addr:street:sym_ul": 24320,
                "phone": "+48 914142650",
                "email": "pmch@poczta.fm",
                "website": "http:\/\/przedszkolakichojna.pl",
                "ref:regon": "320925061",
                "ref:vatin": "PL8581384442",
                "operator": "Gmina Chojna",
                "operator:type": "government",
                "amenity": "kindergarten"
            }
        },
        {
            "id": 110427,
            "type": "Feature",
            "geometry": {
                "type": "Point",
                "coordinates": [
                    14.44058,
                    52.96317
                ]
            },
            "properties": {
                "ref:rspo": 110427,
                "official_name": "Poradnia Psychologiczno-Pedagogiczna w Gryfinie Filia w Chojnie",
                "name": "Poradnia Psychologiczno-Pedagogiczna w Gryfinie Filia w Chojnie",
                "addr:postcode": "74-500",
                "addr:city": "Chojna",
                "addr:street": "Dworcowa",
                "addr:housenumber": "1",
                "addr:city:simc": 978786,
                "addr:street:sym_ul": 4434,
                "phone": "+48 914312829",
                "ref:regon": "703233000",
                "operator": "Powiat Gryfi\u0144ski",
                "operator:type": "government",
                "healthcare": "counselling",
                "counselling_type": "education",
                "fixme": "w zale\u017cno\u015bci od przedmiotu dzia\u0142alno\u015bci (np. healthcare=counselling + counselling_type=education albo healthcare=psychotherapist)",
                "note": "Parent RSPO: 40228"
            }
        },
        {
            "id": 34781,
            "type": "Feature",
            "geometry": {
                "type": "Point",
                "coordinates": [
                    14.44005,
                    52.96366
                ]
            },
            "properties": {
                "ref:rspo": 34781,
                "official_name": "Zesp\u00f3\u0142 Szk\u00f3\u0142 Ponadpodstawowych w Chojnie",
                "name": "Zesp\u00f3\u0142 Szk\u00f3\u0142 Ponadpodstawowych w Chojnie",
                "addr:postcode": "74-500",
                "addr:city": "Chojna",
                "addr:street": "Dworcowa",
                "addr:housenumber": "3",
                "addr:city:simc": 978786,
                "addr:street:sym_ul": 4434,
                "phone": "+48 914142029",
                "email": "zsp1@zsp1chojna.pl",
                "website": "http:\/\/www.zsp1chojna.pl",
                "ref:regon": "812527428",
                "ref:vatin": "PL8581688998",
                "operator": "Powiat Gryfi\u0144ski",
                "operator:type": "government",
                "landuse": "education",
                "fixme": "amenity=school, amenity=college albo landuse=education w zale\u017cno\u015bci od tego, jakie plac\u00f3wki wchodz\u0105 w sk\u0142ad zespo\u0142u. Sprawd\u017a, kiedy stosowa\u0107 amenity=* a kiedy landuse=education.",
                "note": "Children RSPO: 71613;71614;71615;71616;71617"
            }
        },
        {
            "id": 71613,
            "type": "Feature",
            "geometry": {
                "type": "Point",
                "coordinates": [
                    14.44005,
                    52.963629999999995
                ]
            },
            "properties": {
                "isced:level": "3",
                "ref:rspo": 71613,
                "official_name": "Technikum Zawodowe im. Ppor. Ryszarda Kuleszy",
                "name": "Technikum Zawodowe",
                "addr:postcode": "74-500",
                "addr:city": "Chojna",
                "addr:street": "Dworcowa",
                "addr:housenumber": "3",
                "addr:city:simc": 978786,
                "addr:street:sym_ul": 4434,
                "phone": "+48 914142029",
                "email": "zsp1@zsp1chojna.pl",
                "website": "http:\/\/www.zsp1chojna.pl",
                "ref:regon": "812528333",
                "operator": "Powiat Gryfi\u0144ski",
                "operator:type": "government",
                "amenity": "school",
                "note": "Parent RSPO: 34781"
            }
        },
        {
            "id": 71614,
            "type": "Feature",
            "geometry": {
                "type": "Point",
                "coordinates": [
                    14.44005,
                    52.9636
                ]
            },
            "properties": {
                "isced:level": "3",
                "ref:rspo": 71614,
                "official_name": "Technikum Budowlane im. Ppor. Ryszarda Kuleszy",
                "name": "Technikum Budowlane",
                "addr:postcode": "74-500",
                "addr:city": "Chojna",
                "addr:street": "Dworcowa",
                "addr:housenumber": "3",
                "addr:city:simc": 978786,
                "addr:street:sym_ul": 4434,
                "phone": "+48 914142029",
                "email": "zsp1@zsp1chojna.pl",
                "website": "http:\/\/www.zsp1chojna.pl",
                "ref:regon": "812075535",
                "operator": "Powiat Gryfi\u0144ski",
                "operator:type": "government",
                "amenity": "school",
                "note": "Parent RSPO: 34781"
            }
        },
        {
            "id": 71615,
            "type": "Feature",
            "geometry": {
                "type": "Point",
                "coordinates": [
                    14.44005,
                    52.96357
                ]
            },
            "properties": {
                "isced:level": "3",
                "ref:rspo": 71615,
                "official_name": "Liceum Og\u00f3lnokszta\u0142c\u0105ce im. Bohater\u00f3w Spod Siekierek",
                "name": "Liceum Og\u00f3lnokszta\u0142c\u0105ce",
                "addr:postcode": "74-500",
                "addr:city": "Chojna",
                "addr:street": "Dworcowa",
                "addr:housenumber": "3",
                "addr:city:simc": 978786,
                "addr:street:sym_ul": 4434,
                "phone": "+48 914142029",
                "email": "zsp1@zsp1chojna.pl",
                "website": "http:\/\/www.zsp1chojna.pl",
                "ref:regon": "810934543",
                "operator": "Powiat Gryfi\u0144ski",
                "operator:type": "government",
                "amenity": "school",
                "note": "Parent RSPO: 34781"
            }
        },
        {
            "id": 71616,
            "type": "Feature",
            "geometry": {
                "type": "Point",
                "coordinates": [
                    14.44005,
                    52.963539999999995
                ]
            },
            "properties": {
                "isced:level": "3",
                "ref:rspo": 71616,
                "official_name": "Liceum Og\u00f3lnokszta\u0142c\u0105ce dla Doros\u0142ych im. Ppor. Ryszarda Kuleszy",
                "name": "Liceum Og\u00f3lnokszta\u0142c\u0105ce dla Doros\u0142ych",
                "addr:postcode": "74-500",
                "addr:city": "Chojna",
                "addr:street": "Dworcowa",
                "addr:housenumber": "3",
                "addr:city:simc": 978786,
                "addr:street:sym_ul": 4434,
                "phone": "+48 914142029",
                "email": "zsp1@zsp1chojna.pl",
                "website": "http:\/\/www.zsp1chojna.pl",
                "ref:regon": "321292942",
                "operator": "Powiat Gryfi\u0144ski",
                "operator:type": "government",
                "amenity": "school",
                "note": "Parent RSPO: 34781"
            }
        },
        {
            "id": 71617,
            "type": "Feature",
            "geometry": {
                "type": "Point",
                "coordinates": [
                    14.44005,
                    52.96351
                ]
            },
            "properties": {
                "isced:level": "3",
                "ref:rspo": 71617,
                "official_name": "Bran\u017cowa Szko\u0142a I Stopnia im. Ppor. Ryszarda Kuleszy",
                "name": "Bran\u017cowa Szko\u0142a I Stopnia",
                "addr:postcode": "74-500",
                "addr:city": "Chojna",
                "addr:street": "Dworcowa",
                "addr:housenumber": "3",
                "addr:city:simc": 978786,
                "addr:street:sym_ul": 4434,
                "phone": "+48 914142029",
                "email": "zsp1@zsp1chojna.pl",
                "website": "http:\/\/www.zsp1chojna.pl",
                "ref:regon": "812075498",
                "operator": "Powiat Gryfi\u0144ski",
                "operator:type": "government",
                "amenity": "school",
                "note": "Parent RSPO: 34781"
            }
        },
        {
            "id": 262460,
            "type": "Feature",
            "geometry": {
                "type": "Point",
                "coordinates": [
                    14.42424,
                    52.96429
                ]
            },
            "properties": {
                "isced:level": "1;2",
                "ref:rspo": 262460,
                "official_name": "Szko\u0142a Podstawowa Nr 1 im. Janusza Korczaka",
                "name": "Szko\u0142a Podstawowa Nr 1",
                "addr:postcode": "74-500",
                "addr:city": "Chojna",
                "addr:street": "Szkolna",
                "addr:housenumber": "15",
                "addr:city:simc": 978786,
                "addr:street:sym_ul": 21970,
                "phone": "+48 914143955",
                "email": "korczakchojna@wp.pl",
                "ref:regon": "368022150",
                "operator": "Gmina Chojna",
                "operator:type": "government",
                "amenity": "school"
            }
        },
        {
            "id": 40227,
            "type": "Feature",
            "geometry": {
                "type": "Point",
                "coordinates": [
                    14.43412,
                    52.96491
                ]
            },
            "properties": {
                "ref:rspo": 40227,
                "official_name": "Specjalny O\u015brodek Szkolno-Wychowawczy im. Mieszka I w Chojnie",
                "name": "Specjalny O\u015brodek Szkolno-Wychowawczy",
                "addr:postcode": "74-500",
                "addr:city": "Chojna",
                "addr:street": "Podmurze",
                "addr:housenumber": "4",
                "addr:city:simc": 978786,
                "addr:street:sym_ul": 16826,
                "phone": "+48 914141691",
                "email": "osrodek@soswchojna.pl",
                "website": "http:\/\/www.soswchojna.edupage.org",
                "ref:regon": "000179281",
                "ref:vatin": "PL8581375325",
                "operator": "Powiat Gryfi\u0144ski",
                "operator:type": "government",
                "amenity": "school",
                "note": "Children RSPO: 58480;58483;58484"
            }
        },
        {
            "id": 58480,
            "type": "Feature",
            "geometry": {
                "type": "Point",
                "coordinates": [
                    14.43412,
                    52.96488
                ]
            },
            "properties": {
                "isced:level": "1;2",
                "ref:rspo": 58480,
                "official_name": "Szko\u0142a Podstawowa Specjalna",
                "name": "Szko\u0142a Podstawowa Specjalna",
                "addr:postcode": "74-500",
                "addr:city": "Chojna",
                "addr:street": "Podmurze",
                "addr:housenumber": "4",
                "addr:city:simc": 978786,
                "addr:street:sym_ul": 16826,
                "phone": "+48 914141691",
                "email": "osrodek@soswchojna.pl",
                "website": "http:\/\/soswchojna.edupage.org",
                "ref:regon": "000737947",
                "operator": "Powiat Gryfi\u0144ski",
                "operator:type": "government",
                "amenity": "school",
                "note": "Parent RSPO: 40227"
            }
        },
        {
            "id": 58483,
            "type": "Feature",
            "geometry": {
                "type": "Point",
                "coordinates": [
                    14.43412,
                    52.964850000000006
                ]
            },
            "properties": {
                "ref:rspo": 58483,
                "official_name": "Szko\u0142a Specjalna Przysposabiaj\u0105ca Do Pracy",
                "name": "Szko\u0142a Specjalna Przysposabiaj\u0105ca Do Pracy",
                "addr:postcode": "74-500",
                "addr:city": "Chojna",
                "addr:street": "Podmurze",
                "addr:housenumber": "4",
                "addr:city:simc": 978786,
                "addr:street:sym_ul": 16826,
                "phone": "+48 914141691",
                "email": "osrodek@soswchojna.pl",
                "website": "http:\/\/soswchojna.edupage.org",
                "ref:regon": "320404161",
                "operator": "Powiat Gryfi\u0144ski",
                "operator:type": "government",
                "amenity": "school",
                "note": "Parent RSPO: 40227"
            }
        },
        {
            "id": 58484,
            "type": "Feature",
            "geometry": {
                "type": "Point",
                "coordinates": [
                    14.43412,
                    52.96482
                ]
            },
            "properties": {
                "isced:level": "3",
                "ref:rspo": 58484,
                "official_name": "Bran\u017cowa Szko\u0142a Specjalna I Stopnia",
                "name": "Bran\u017cowa Szko\u0142a Specjalna I Stopnia",
                "addr:postcode": "74-500",
                "addr:city": "Chojna",
                "addr:street": "Podmurze",
                "addr:housenumber": "4",
                "addr:city:simc": 978786,
                "addr:street:sym_ul": 16826,
                "phone": "+48 914141691",
                "email": "osrodek@soswchojna.pl",
                "website": "http:\/\/soswchojna.edupage.org",
                "ref:regon": "321098890",
                "operator": "Powiat Gryfi\u0144ski",
                "operator:type": "government",
                "amenity": "school",
                "note": "Parent RSPO: 40227"
            }
        },
        {
            "id": 72120,
            "type": "Feature",
            "geometry": {
                "type": "Point",
                "coordinates": [
                    14.42773,
                    52.96858
                ]
            },
            "properties": {
                "ref:rspo": 72120,
                "official_name": "Salomon Centrum Szkoleniowo-Doradcze",
                "name": "Salomon Centrum Szkoleniowo-Doradcze",
                "addr:postcode": "74-500",
                "addr:city": "Chojna",
                "addr:street": "Aleja Wojska Polskiego",
                "addr:housenumber": "5a",
                "addr:city:simc": 978786,
                "addr:street:sym_ul": 24623,
                "phone": "+48 914142124",
                "email": "anetakurczewska@wp.pl",
                "website": "http:\/\/www.salomonchojna.pl",
                "ref:regon": "321293746",
                "operator": "Aneta Kurczewska-Cie\u015blak",
                "operator:type": "private",
                "fixme": "w zale\u017cno\u015bci od przedmiotu dzia\u0142alno\u015bci (np. amenity=training + training=*, amenity=dancing_school, amenity=language_school, amenity=music_school)"
            }
        },
        {
            "id": 56139,
            "type": "Feature",
            "geometry": {
                "type": "Point",
                "coordinates": [
                    14.33416,
                    52.9798199
                ]
            },
            "properties": {
                "isced:level": "1;2",
                "ref:rspo": 56139,
                "official_name": "Szko\u0142a Podstawowa im. Olimpijczyk\u00f3w Polskich w Krzymowie",
                "name": "Szko\u0142a Podstawowa",
                "addr:postcode": "74-500",
                "addr:place": "Krzym\u00f3w",
                "addr:housenumber": "29",
                "addr:city:simc": 773788,
                "phone": "+48 914143326",
                "email": "edyta_kalarus@sp2chojna.pl",
                "website": "http:\/\/spkrzymow.edupage.pl",
                "ref:regon": "001222671",
                "ref:vatin": "PL8581384442",
                "operator": "Gmina Chojna",
                "operator:type": "government",
                "amenity": "school"
            }
        },
        {
            "id": 53107,
            "type": "Feature",
            "geometry": {
                "type": "Point",
                "coordinates": [
                    14.40053,
                    53.01355
                ]
            },
            "properties": {
                "isced:level": "1;2",
                "ref:rspo": 53107,
                "official_name": "Szko\u0142a Podstawowa im. Wsp\u00f3lnej Europy w Nawodnej",
                "name": "Szko\u0142a Podstawowa",
                "addr:postcode": "74-506",
                "addr:place": "Nawodna",
                "addr:housenumber": "93",
                "addr:city:simc": 773920,
                "phone": "+48 914147247",
                "email": "spnawodna@o2.pl",
                "website": "http:\/\/spnawodna.edupage.org",
                "ref:regon": "001222702",
                "ref:vatin": "PL8581384442",
                "operator": "Gmina Chojna",
                "operator:type": "government",
                "amenity": "school"
            }
        },
        {
            "id": 56022,
            "type": "Feature",
            "geometry": {
                "type": "Point",
                "coordinates": [
                    14.55779,
                    53.02069
                ]
            },
            "properties": {
                "isced:level": "1;2",
                "ref:rspo": 56022,
                "official_name": "Szko\u0142a Podstawowa im. Marii Konopnickiej w Grzybnie",
                "name": "Szko\u0142a Podstawowa",
                "addr:postcode": "74-500",
                "addr:place": "Grzybno",
                "addr:housenumber": "23",
                "addr:city:simc": 773676,
                "phone": "+48 914147795",
                "email": "spgrzybno@op.pl",
                "ref:regon": "001222665",
                "ref:vatin": "PL8581384442",
                "operator": "Gmina Chojna",
                "operator:type": "government",
                "amenity": "school"
            }
        }
    ]
}