{
    "type": "FeatureCollection",
    "features": [
        {
            "id": 25279,
            "type": "Feature",
            "geometry": {
                "type": "Point",
                "coordinates": [
                    14.45731,
                    53.08949
                ]
            },
            "properties": {
                "ref:rspo": 25279,
                "official_name": "Punkt Przedszkolny w Krzywinie",
                "name": "Punkt Przedszkolny w Krzywinie",
                "addr:postcode": "74-121",
                "addr:city": "Krzywin",
                "addr:street": "Kr\u00f3lewiecka",
                "addr:housenumber": "44",
                "addr:city:simc": 785426,
                "addr:street:sym_ul": 9983,
                "phone": "+48 914167587",
                "email": "spwk3@wp.pl",
                "ref:regon": "321282990",
                "operator": "Gmina Widuchowa",
                "operator:type": "government",
                "amenity": "kindergarten"
            }
        },
        {
            "id": 25276,
            "type": "Feature",
            "geometry": {
                "type": "Point",
                "coordinates": [
                    14.45779,
                    53.08977
                ]
            },
            "properties": {
                "isced:level": "1;2",
                "ref:rspo": 25276,
                "official_name": "Szko\u0142a Podstawowa w Krzywinie",
                "name": "Szko\u0142a Podstawowa w Krzywinie",
                "addr:postcode": "74-121",
                "addr:city": "Krzywin",
                "addr:street": "Kr\u00f3lewiecka",
                "addr:housenumber": "42",
                "addr:city:simc": 785426,
                "addr:street:sym_ul": 9983,
                "phone": "+48 914167511",
                "email": "spwk3@wp.pl",
                "website": "http:\/\/www.sp-krzywin.edupage.org",
                "ref:regon": "001223222",
                "ref:vatin": "PL8581729680",
                "operator": "Gmina Widuchowa",
                "operator:type": "government",
                "amenity": "school"
            }
        },
        {
            "id": 25278,
            "type": "Feature",
            "geometry": {
                "type": "Point",
                "coordinates": [
                    14.39074,
                    53.12295
                ]
            },
            "properties": {
                "ref:rspo": 25278,
                "official_name": "Gminne Przedszkole w Widuchowej",
                "name": "Gminne Przedszkole w Widuchowej",
                "addr:postcode": "74-120",
                "addr:city": "Widuchowa",
                "addr:street": "Tatrza\u0144ska",
                "addr:housenumber": "20",
                "addr:city:simc": 785538,
                "addr:street:sym_ul": 22717,
                "phone": "+48 914167239",
                "email": "przedszkolewid@wp.pl",
                "ref:regon": "320903289",
                "ref:vatin": "PL8581837033",
                "operator": "Gmina Widuchowa",
                "operator:type": "government",
                "amenity": "kindergarten"
            }
        },
        {
            "id": 88338,
            "type": "Feature",
            "geometry": {
                "type": "Point",
                "coordinates": [
                    14.39002,
                    53.12636
                ]
            },
            "properties": {
                "isced:level": "1;2",
                "ref:rspo": 88338,
                "official_name": "Publiczna Szko\u0142a Podstawowa w Widuchowej",
                "name": "Publiczna Szko\u0142a Podstawowa w Widuchowej",
                "addr:postcode": "74-120",
                "addr:city": "Widuchowa",
                "addr:street": "Barnima III",
                "addr:housenumber": "1",
                "addr:city:simc": 785538,
                "addr:street:sym_ul": 30329,
                "phone": "+48 914167115",
                "email": "sekretariat@spwiduchowa.pl",
                "website": "https:\/\/spwiduchowa.edupage.org",
                "ref:regon": "000271791",
                "ref:vatin": "PL8581729674",
                "operator": "Gmina Widuchowa",
                "operator:type": "government",
                "amenity": "school"
            }
        }
    ]
}