{
    "type": "FeatureCollection",
    "features": [
        {
            "id": 41958,
            "type": "Feature",
            "geometry": {
                "type": "Point",
                "coordinates": [
                    14.39373,
                    52.85839
                ]
            },
            "properties": {
                "ref:rspo": 41958,
                "official_name": "Szkolne Schronisko M\u0142odzie\u017cowe w Moryniu",
                "name": "Szkolne Schronisko M\u0142odzie\u017cowe w Moryniu",
                "addr:postcode": "74-503",
                "addr:city": "Mory\u0144",
                "addr:street": "Dworcowa",
                "addr:housenumber": "4",
                "addr:teryt:simc": 979283,
                "addr:teryt:sym_ul": 4434,
                "phone": "+48 914146018",
                "email": "zsmoryn@zsmoryn.pl",
                "website": "http:\/\/www.ssm-moryn.pl\/",
                "ref:regon": "320892640",
                "operator": "Gmina Mory\u0144",
                "operator:type": "government",
                "tourism": "hostel",
                "note": "Parent RSPO: 22921"
            }
        },
        {
            "id": 22921,
            "type": "Feature",
            "geometry": {
                "type": "Point",
                "coordinates": [
                    14.39348,
                    52.8584
                ]
            },
            "properties": {
                "ref:rspo": 22921,
                "official_name": "Zesp\u00f3\u0142 Szk\u00f3\u0142 w Moryniu",
                "name": "Zesp\u00f3\u0142 Szk\u00f3\u0142 w Moryniu",
                "addr:postcode": "74-503",
                "addr:city": "Mory\u0144",
                "addr:street": "Dworcowa",
                "addr:housenumber": "6a",
                "addr:teryt:simc": 979283,
                "addr:teryt:sym_ul": 4434,
                "phone": "+48 914146018",
                "email": "zsmoryn@zsmoryn.pl",
                "website": "http:\/\/zsmoryn.pl",
                "ref:regon": "811920307",
                "ref:vatin": "PL8581788553",
                "operator": "Gmina Mory\u0144",
                "operator:type": "government",
                "landuse": "education",
                "fixme": "amenity=school, amenity=college albo landuse=education w zale\u017cno\u015bci od tego, jakie plac\u00f3wki wchodz\u0105 w sk\u0142ad zespo\u0142u. Sprawd\u017a, kiedy stosowa\u0107 amenity=* a kiedy landuse=education.",
                "note": "Children RSPO: 41955;41957;41958"
            }
        },
        {
            "id": 41955,
            "type": "Feature",
            "geometry": {
                "type": "Point",
                "coordinates": [
                    14.39348,
                    52.85837
                ]
            },
            "properties": {
                "isced:level": "1;2",
                "ref:rspo": 41955,
                "official_name": "Szko\u0142a Podstawowa im.st.sier\u017c. M. Majchrzaka w Moryniu",
                "name": "Szko\u0142a Podstawowa im.st.sier\u017c. M. Majchrzaka w Moryniu",
                "addr:postcode": "74-503",
                "addr:city": "Mory\u0144",
                "addr:street": "Dworcowa",
                "addr:housenumber": "6A",
                "addr:teryt:simc": 979283,
                "addr:teryt:sym_ul": 4434,
                "phone": "+48 914146018",
                "email": "zsmoryn@zsmoryn.pl",
                "website": "http:\/\/zsmoryn.pl",
                "ref:regon": "000264957",
                "operator": "Gmina Mory\u0144",
                "operator:type": "government",
                "amenity": "school",
                "note": "Children RSPO: 82465Parent RSPO: 22921"
            }
        },
        {
            "id": 41957,
            "type": "Feature",
            "geometry": {
                "type": "Point",
                "coordinates": [
                    14.4008,
                    52.85887
                ]
            },
            "properties": {
                "ref:rspo": 41957,
                "official_name": "Przedszkole Miejskie",
                "name": "Przedszkole Miejskie",
                "addr:postcode": "74-503",
                "addr:city": "Mory\u0144",
                "addr:street": "Fryderyka Chopina",
                "addr:housenumber": "2",
                "addr:teryt:simc": 979283,
                "addr:teryt:sym_ul": 2849,
                "phone": "+48 914146039",
                "email": "zsmoryn@zsmoryn.pl",
                "website": "http:\/\/zsmoryn.pl",
                "ref:regon": "811691203",
                "operator": "Gmina Mory\u0144",
                "operator:type": "government",
                "amenity": "kindergarten",
                "note": "Parent RSPO: 22921"
            }
        },
        {
            "id": 268613,
            "type": "Feature",
            "geometry": {
                "type": "Point",
                "coordinates": [
                    14.3965,
                    52.86149
                ]
            },
            "properties": {
                "ref:rspo": 268613,
                "official_name": "Niepubliczny Dom Wczas\u00f3w Dzieci\u0119cych w Moryniu",
                "name": "Niepubliczny Dom Wczas\u00f3w Dzieci\u0119cych w Moryniu",
                "addr:postcode": "74-503",
                "addr:city": "Mory\u0144",
                "addr:street": "Jeziorna",
                "addr:housenumber": "8",
                "addr:teryt:simc": 979283,
                "addr:teryt:sym_ul": 7535,
                "phone": "+48 914853543",
                "ref:regon": "381216390",
                "operator": "Towarzystwo Wszechstronnego Rozwoju Collegium",
                "operator:type": "ngo",
                "leisure": "resort"
            }
        },
        {
            "id": 82465,
            "type": "Feature",
            "geometry": {
                "type": "Point",
                "coordinates": [
                    14.47215,
                    52.87004
                ]
            },
            "properties": {
                "isced:level": "1;2",
                "ref:rspo": 82465,
                "official_name": "Szko\u0142a Podstawowa im.st.sier\u017c. M. Majchrzaka w Moryniu Szko\u0142a Filialna w Witnicy",
                "name": "Szko\u0142a Podstawowa im.st.sier\u017c. M. Majchrzaka w Moryniu Szko\u0142a Filialna w Witnicy",
                "addr:postcode": "74-503",
                "addr:city": "Witnica",
                "addr:street": "Mory\u0144ska",
                "addr:housenumber": "15",
                "addr:teryt:simc": 779621,
                "addr:teryt:sym_ul": 13316,
                "phone": "+48 914140625",
                "email": "zsmoryn@poczta.onet.pl",
                "website": "http:\/\/zsmoryn.pl",
                "ref:regon": "264957000",
                "operator": "Gmina Mory\u0144",
                "operator:type": "government",
                "amenity": "school",
                "note": "Parent RSPO: 41955"
            }
        }
    ]
}