{
    "type": "FeatureCollection",
    "features": [
        {
            "id": 14377,
            "type": "Feature",
            "geometry": {
                "type": "Point",
                "coordinates": [
                    21.43177,
                    50.61824
                ]
            },
            "properties": {
                "isced:level": "1;2",
                "ref:rspo": 14377,
                "official_name": "Szko\u0142a Podstawowa w Nawodzicach",
                "name": "Szko\u0142a Podstawowa w Nawodzicach",
                "addr:postcode": "27-640",
                "addr:place": "Nawodzice",
                "addr:housenumber": "80",
                "addr:city:simc": 796097,
                "phone": "+48 158663231",
                "email": "pspnawodzice@interia.eu",
                "ref:regon": "260632550",
                "operator": "Stowarzyszenie \"Nawodzice Dzieciom\"",
                "operator:type": "ngo",
                "amenity": "school"
            }
        },
        {
            "id": 266144,
            "type": "Feature",
            "geometry": {
                "type": "Point",
                "coordinates": [
                    21.43177,
                    50.61821
                ]
            },
            "properties": {
                "ref:rspo": 266144,
                "official_name": "Niepubliczne Przedszkole Przy Szkole Podstawowej w Nawodzicach",
                "name": "Niepubliczne Przedszkole Przy Szkole Podstawowej w Nawodzicach",
                "addr:postcode": "27-640",
                "addr:place": "Nawodzice",
                "addr:housenumber": "80",
                "addr:city:simc": 796097,
                "phone": "+48 158663231",
                "email": "pspnawodzice@interia.eu",
                "website": "http:\/\/pspnawodzice.edupage.org",
                "ref:regon": "369307770",
                "operator": "Stowarzyszenie \"Nawodzice Dzieciom\"",
                "operator:type": "ngo",
                "amenity": "kindergarten"
            }
        },
        {
            "id": 14426,
            "type": "Feature",
            "geometry": {
                "type": "Point",
                "coordinates": [
                    21.45135,
                    50.65591
                ]
            },
            "properties": {
                "isced:level": "1;2",
                "ref:rspo": 14426,
                "official_name": "Publiczna Szko\u0142a Podstawowa im. Jerzego Ossoli\u0144skiego w Klimontowie",
                "name": "Publiczna Szko\u0142a Podstawowa",
                "addr:postcode": "27-640",
                "addr:city": "Klimont\u00f3w",
                "addr:street": "Szkolna",
                "addr:housenumber": "1",
                "addr:city:simc": 795933,
                "addr:street:sym_ul": 21970,
                "phone": "+48 158661018",
                "email": "psp-klimontow@o2.pl",
                "ref:regon": "000563714",
                "ref:vatin": "PL8641696620",
                "operator": "Gmina Klimont\u00f3w",
                "operator:type": "government",
                "amenity": "school"
            }
        },
        {
            "id": 86011,
            "type": "Feature",
            "geometry": {
                "type": "Point",
                "coordinates": [
                    21.45135,
                    50.655879999999996
                ]
            },
            "properties": {
                "ref:rspo": 86011,
                "official_name": "Przedszkole Samorz\u0105dowe w Klimontowie",
                "name": "Przedszkole Samorz\u0105dowe w Klimontowie",
                "addr:postcode": "27-640",
                "addr:city": "Klimont\u00f3w",
                "addr:street": "Szkolna",
                "addr:housenumber": "1",
                "addr:city:simc": 795933,
                "addr:street:sym_ul": 21970,
                "phone": "+48 158661028",
                "email": "przedszkoleklimontow@op.pl",
                "ref:regon": "830013490",
                "ref:vatin": "PL8641151122",
                "operator": "Gmina Klimont\u00f3w",
                "operator:type": "government",
                "amenity": "kindergarten"
            }
        },
        {
            "id": 14439,
            "type": "Feature",
            "geometry": {
                "type": "Point",
                "coordinates": [
                    21.44248,
                    50.65641
                ]
            },
            "properties": {
                "ref:rspo": 14439,
                "official_name": "Przedszkole Si\u00f3str Imienia Jezus",
                "name": "Przedszkole Si\u00f3str Imienia Jezus",
                "addr:postcode": "27-640",
                "addr:city": "Klimont\u00f3w",
                "addr:street": "Krakowska",
                "addr:housenumber": "1",
                "addr:city:simc": 795933,
                "addr:street:sym_ul": 9796,
                "phone": "+48 158344461",
                "email": "przedszkole.sij.klimontow@wp.pl",
                "website": "http:\/\/www.przedszkole-klimontow.edu.pl",
                "ref:regon": "260633838",
                "ref:vatin": "PL8641924541",
                "operator": "Zgromadzenie Si\u00f3str Naj\u015bwi\u0119tszego Imienia Jezus Pod Opiek\u0105 Maryi Panny Wspomo\u017cenia Wiernych",
                "operator:type": "religious",
                "amenity": "kindergarten"
            }
        },
        {
            "id": 265173,
            "type": "Feature",
            "geometry": {
                "type": "Point",
                "coordinates": [
                    21.45127,
                    50.6567
                ]
            },
            "properties": {
                "isced:level": "1;2",
                "ref:rspo": 265173,
                "official_name": "Szko\u0142a Podstawowa Specjalna w Klimontowie Przy Fundacji Szlachetne Anio\u0142y",
                "name": "Szko\u0142a Podstawowa Specjalna w Klimontowie Przy Fundacji Szlachetne Anio\u0142y",
                "addr:postcode": "27-640",
                "addr:city": "Klimont\u00f3w",
                "addr:street": "Siostry Heleny Herman",
                "addr:housenumber": "1",
                "addr:city:simc": 795933,
                "addr:street:sym_ul": 53126,
                "phone": "+48 505482322",
                "email": "mbasak@szlachetne-anioly.pl",
                "website": "http:\/\/www.szlachetne-anioly.pl",
                "ref:regon": "368650419",
                "operator": "Fundacja Szlachetne Anio\u0142y",
                "operator:type": "ngo",
                "amenity": "school"
            }
        },
        {
            "id": 265177,
            "type": "Feature",
            "geometry": {
                "type": "Point",
                "coordinates": [
                    21.45127,
                    50.65667
                ]
            },
            "properties": {
                "ref:rspo": 265177,
                "official_name": "Szko\u0142a Specjalna Przysposabiaj\u0105ca do Pracy w Klimontowie Przy Fundacji Szlachetne Anio\u0142y",
                "name": "Szko\u0142a Specjalna Przysposabiaj\u0105ca do Pracy w Klimontowie Przy Fundacji Szlachetne Anio\u0142y",
                "addr:postcode": "27-640",
                "addr:city": "Klimont\u00f3w",
                "addr:street": "Siostry Heleny Herman",
                "addr:housenumber": "1",
                "addr:city:simc": 795933,
                "addr:street:sym_ul": 53126,
                "phone": "+48 722103020",
                "email": "dchmielewska@szlachetne-anioly.pl",
                "website": "http:\/\/www.szlachetne-anioly.pl",
                "ref:regon": "368656787",
                "operator": "Fundacja Szlachetne Anio\u0142y",
                "operator:type": "ngo",
                "amenity": "school"
            }
        },
        {
            "id": 268590,
            "type": "Feature",
            "geometry": {
                "type": "Point",
                "coordinates": [
                    21.45127,
                    50.65664
                ]
            },
            "properties": {
                "ref:rspo": 268590,
                "official_name": "Przedszkole Terapeutyczne w Klimontowie Przy Fundacji Szlachetne Anio\u0142y",
                "name": "Przedszkole Terapeutyczne w Klimontowie Przy Fundacji Szlachetne Anio\u0142y",
                "addr:postcode": "27-640",
                "addr:city": "Klimont\u00f3w",
                "addr:street": "Siostry Heleny Herman",
                "addr:housenumber": "1",
                "addr:city:simc": 795933,
                "addr:street:sym_ul": 53126,
                "phone": "+48 505482322",
                "email": "mbasak@szlachetne-anioly.pl",
                "website": "http:\/\/www.szlachetne-anioly.pl",
                "ref:regon": "381208811",
                "operator": "Fundacja Szlachetne Anio\u0142y",
                "operator:type": "ngo",
                "amenity": "kindergarten"
            }
        },
        {
            "id": 107587,
            "type": "Feature",
            "geometry": {
                "type": "Point",
                "coordinates": [
                    21.4442999,
                    50.66001
                ]
            },
            "properties": {
                "isced:level": "3",
                "ref:rspo": 107587,
                "official_name": "Liceum Og\u00f3lnokszta\u0142c\u0105ce im. \u015aw. Urszuli Led\u00f3chowskiej w Klimontowie",
                "name": "Liceum Og\u00f3lnokszta\u0142c\u0105ce",
                "addr:postcode": "27-640",
                "addr:city": "Klimont\u00f3w",
                "addr:street": "Doktora Jakuba Zysmana",
                "addr:housenumber": "9",
                "addr:city:simc": 795933,
                "addr:street:sym_ul": 26353,
                "phone": "+48 158661329",
                "email": "liceumklimontow@gmail.com",
                "website": "http:\/\/lo.klimontow.pl",
                "ref:regon": "292810273",
                "operator": "Gmina Klimont\u00f3w",
                "operator:type": "government",
                "amenity": "school"
            }
        },
        {
            "id": 14368,
            "type": "Feature",
            "geometry": {
                "type": "Point",
                "coordinates": [
                    21.37161,
                    50.68176
                ]
            },
            "properties": {
                "isced:level": "1;2",
                "ref:rspo": 14368,
                "official_name": "Szko\u0142a Podstawowa im. Bohater\u00f3w Bitwy Pod Konarami w Konarach",
                "name": "Szko\u0142a Podstawowa",
                "addr:postcode": "27-640",
                "addr:place": "Konary",
                "addr:housenumber": "88",
                "addr:city:simc": 795956,
                "phone": "+48 158661106",
                "email": "spkonary@gmail.com",
                "ref:regon": "260633809",
                "ref:vatin": "PL8641889336",
                "operator": "Stowarzyszenie Rozwoju Wsi Konary",
                "operator:type": "ngo",
                "amenity": "school"
            }
        },
        {
            "id": 120533,
            "type": "Feature",
            "geometry": {
                "type": "Point",
                "coordinates": [
                    21.37161,
                    50.681729999999995
                ]
            },
            "properties": {
                "ref:rspo": 120533,
                "official_name": "Publiczny Punkt Przedszkolny w Szkole Podstawowej w Konarach",
                "name": "Publiczny Punkt Przedszkolny w Szkole Podstawowej w Konarach",
                "addr:postcode": "27-640",
                "addr:place": "Konary",
                "addr:housenumber": "88",
                "addr:city:simc": 795956,
                "phone": "+48 158661106",
                "email": "spkonary@gmail.com",
                "ref:regon": "260725635",
                "operator": "Stowarzyszenie Rozwoju Wsi Konary",
                "operator:type": "ngo",
                "amenity": "kindergarten"
            }
        },
        {
            "id": 14396,
            "type": "Feature",
            "geometry": {
                "type": "Point",
                "coordinates": [
                    21.49765,
                    50.68332
                ]
            },
            "properties": {
                "isced:level": "1;2",
                "ref:rspo": 14396,
                "official_name": "Szko\u0142a Podstawowa w Ossolinie",
                "name": "Szko\u0142a Podstawowa w Ossolinie",
                "addr:postcode": "27-640",
                "addr:place": "Ossolin",
                "addr:housenumber": "21",
                "addr:city:simc": 796157,
                "phone": "+48 158661539",
                "email": "spossolin@gazeta.pl",
                "ref:regon": "260632572",
                "operator": "Stowarzyszenie \" Nasze Dziedzictwo Ossolin\"",
                "operator:type": "ngo",
                "amenity": "school"
            }
        },
        {
            "id": 14386,
            "type": "Feature",
            "geometry": {
                "type": "Point",
                "coordinates": [
                    21.47323,
                    50.69639
                ]
            },
            "properties": {
                "isced:level": "1;2",
                "ref:rspo": 14386,
                "official_name": "Szko\u0142a Podstawowa w Go\u017alicach",
                "name": "Szko\u0142a Podstawowa w Go\u017alicach",
                "addr:postcode": "27-640",
                "addr:place": "Go\u017alice",
                "addr:housenumber": "28",
                "addr:city:simc": 795821,
                "phone": "+48 158661517",
                "email": "spgozlice2@poczta.onet.pl",
                "ref:regon": "260633815",
                "ref:vatin": "PL8641931848",
                "operator": "Stowarzyszenie Ziemia Go\u017alicko - Ossoli\u0144ska",
                "operator:type": "ngo",
                "amenity": "school"
            }
        }
    ]
}