{
    "type": "FeatureCollection",
    "features": [
        {
            "id": 73991,
            "type": "Feature",
            "geometry": {
                "type": "Point",
                "coordinates": [
                    21.74667,
                    50.66207
                ]
            },
            "properties": {
                "ref:rspo": 73991,
                "official_name": "Przedszkole J\u0119zykowe Ja\u015b I Ma\u0142gosia",
                "name": "Przedszkole J\u0119zykowe Ja\u015b I Ma\u0142gosia",
                "addr:country": "PL",
                "addr:postcode": "27-600",
                "addr:city": "Sandomierz",
                "addr:street": "Krzysztofa Kamila Baczy\u0144skiego",
                "addr:housenumber": "18",
                "addr:teryt:simc": 980926,
                "addr:teryt:sym_ul": 569,
                "contact:phone": "+48 158344473",
                "contact:email": "joannaforc@op.pl",
                "contact:website": "http:\/\/www.jasimalgosia.sandomierz.net",
                "ref:regon": "260647243",
                "operator": "Fundacja \"Dla Naszych Dzieci\"",
                "operator:type": "ngo",
                "amenity": "kindergarten"
            }
        },
        {
            "id": 53042,
            "type": "Feature",
            "geometry": {
                "type": "Point",
                "coordinates": [
                    21.7587699,
                    50.66439
                ]
            },
            "properties": {
                "ref:rspo": 53042,
                "official_name": "Przedszkole Samorz\u0105dowe Nr 5",
                "name": "Przedszkole Samorz\u0105dowe Nr 5",
                "addr:country": "PL",
                "addr:postcode": "27-600",
                "addr:city": "Sandomierz",
                "addr:street": "Portowa",
                "addr:housenumber": "28",
                "addr:teryt:simc": 980926,
                "addr:teryt:sym_ul": 17217,
                "contact:phone": "+48 790780696",
                "contact:email": "przed5@um.sandomierz.pl",
                "contact:website": "http:\/\/ps5.sandomierz.szkolnastrona.pl",
                "ref:regon": "292431162",
                "operator": "Gmina Sandomierz",
                "operator:type": "government",
                "amenity": "kindergarten"
            }
        },
        {
            "id": 49640,
            "type": "Feature",
            "geometry": {
                "type": "Point",
                "coordinates": [
                    21.76554,
                    50.66734
                ]
            },
            "properties": {
                "isced:level": "1;2",
                "ref:rspo": 49640,
                "official_name": "Szko\u0142a Podstawowa Nr 3 im. Armii Krajowej w Sandomierzu",
                "name": "Szko\u0142a Podstawowa Nr 3",
                "addr:country": "PL",
                "addr:postcode": "27-600",
                "addr:city": "Sandomierz",
                "addr:street": "Flisak\u00f3w",
                "addr:housenumber": "30",
                "addr:teryt:simc": 980926,
                "addr:teryt:sym_ul": 5071,
                "contact:phone": "+48 158322563",
                "contact:email": "sekretariat@sp3sandomierz.pl",
                "contact:website": "http:\/\/sp3sandomierz.pl",
                "ref:regon": "000837560",
                "ref:vatin": "PL8641764468",
                "operator": "Gmina Sandomierz",
                "operator:type": "government",
                "amenity": "school"
            }
        },
        {
            "id": 86495,
            "type": "Feature",
            "geometry": {
                "type": "Point",
                "coordinates": [
                    21.74226,
                    50.67611
                ]
            },
            "properties": {
                "isced:level": "3",
                "ref:rspo": 86495,
                "official_name": "Katolickie Liceum Og\u00f3lnokszta\u0142c\u0105ce im. \u015aw. Jadwigi Kr\u00f3lowej w Sandomierzu",
                "name": "Katolickie Liceum Og\u00f3lnokszta\u0142c\u0105ce",
                "addr:country": "PL",
                "addr:postcode": "27-600",
                "addr:city": "Sandomierz",
                "addr:street": "\u015awi\u0119tej Kr\u00f3lowej Jadwigi",
                "addr:housenumber": "5",
                "addr:teryt:simc": 980926,
                "addr:teryt:sym_ul": 29695,
                "contact:phone": "+48 158327809",
                "contact:email": "kliceum@hotmail.com",
                "contact:website": "http:\/\/katoliksandomierz.pl",
                "ref:regon": "260650759",
                "ref:vatin": "PL8641464720",
                "operator": "Zg.ss.s\u0142u\u017cek Naj\u015bwi\u0119tszej Maryi Panny Niepokal., Prowincja Sandomierska",
                "operator:type": "religious",
                "amenity": "school"
            }
        },
        {
            "id": 263240,
            "type": "Feature",
            "geometry": {
                "type": "Point",
                "coordinates": [
                    21.74226,
                    50.67608
                ]
            },
            "properties": {
                "isced:level": "1;2",
                "ref:rspo": 263240,
                "official_name": "Katolicka Szko\u0142a Podstawowa im. \u015aw. Jadwigi Kr\u00f3lowej",
                "name": "Katolicka Szko\u0142a Podstawowa",
                "addr:country": "PL",
                "addr:postcode": "27-600",
                "addr:city": "Sandomierz",
                "addr:street": "\u015awi\u0119tej Kr\u00f3lowej Jadwigi",
                "addr:housenumber": "5",
                "addr:teryt:simc": 980926,
                "addr:teryt:sym_ul": 29695,
                "contact:phone": "+48 158327809",
                "contact:email": "kliceum@hotmail.com",
                "contact:website": "http:\/\/www.katoliksandomierz.pl",
                "ref:regon": "368175786",
                "operator": "Zg.ss.s\u0142u\u017cek Naj\u015bwi\u0119tszej Maryi Panny Niepokal., Prowincja Sandomierska",
                "operator:type": "religious",
                "amenity": "school"
            }
        },
        {
            "id": 75954,
            "type": "Feature",
            "geometry": {
                "type": "Point",
                "coordinates": [
                    21.750781,
                    50.6768682
                ]
            },
            "properties": {
                "isced:level": "3",
                "ref:rspo": 75954,
                "official_name": "I Liceum Og\u00f3lnokszta\u0142c\u0105ce Collegium Gostomianum w Sandomierzu",
                "name": "I Liceum Og\u00f3lnokszta\u0142c\u0105ce Collegium Gostomianum w Sandomierzu",
                "addr:country": "PL",
                "addr:postcode": "27-600",
                "addr:city": "Sandomierz",
                "addr:street": "Jana D\u0142ugosza",
                "addr:housenumber": "7",
                "addr:teryt:simc": 980926,
                "addr:teryt:sym_ul": 3851,
                "contact:phone": "+48 158325245",
                "contact:email": "1losand@lo1.sandomierz.pl",
                "contact:website": "http:\/\/www.lo1.sandomierz.pl",
                "ref:regon": "292442310",
                "ref:vatin": "PL8641156970",
                "operator": "Powiat Sandomierski",
                "operator:type": "government",
                "amenity": "school"
            }
        },
        {
            "id": 122699,
            "type": "Feature",
            "geometry": {
                "type": "Point",
                "coordinates": [
                    21.748,
                    50.67847
                ]
            },
            "properties": {
                "ref:rspo": 122699,
                "official_name": "Centrum Kszta\u0142cenia Przedsi\u0119biorc\u00f3w - \u015awi\u0119tokrzyska Akademia Biznesu",
                "name": "Centrum Kszta\u0142cenia Przedsi\u0119biorc\u00f3w - \u015awi\u0119tokrzyska Akademia Biznesu",
                "addr:country": "PL",
                "addr:postcode": "27-600",
                "addr:city": "Sandomierz",
                "addr:street": "Plac J\u00f3zefa Poniatowskiego",
                "addr:housenumber": "2",
                "addr:teryt:simc": 980926,
                "addr:teryt:sym_ul": 17106,
                "contact:phone": "+48 158333400",
                "contact:email": "fundacja@opiwpr.org.pl",
                "ref:regon": "260757500",
                "operator": "O\u015brodek Promowania I Wspierania Przedsi\u0119biorczo\u015bci Rolnej",
                "operator:type": "ngo",
                "fixme": "w zale\u017cno\u015bci od przedmiotu dzia\u0142alno\u015bci (np. amenity=training + training=*, amenity=dancing_school, amenity=language_school, amenity=music_school)"
            }
        },
        {
            "id": 14000,
            "type": "Feature",
            "geometry": {
                "type": "Point",
                "coordinates": [
                    21.75048,
                    50.6800799
                ]
            },
            "properties": {
                "ref:rspo": 14000,
                "official_name": "Pedagogiczna Biblioteka Wojew\u00f3dzka w Kielcach Filia w Sandomierzu",
                "name": "Pedagogiczna Biblioteka Wojew\u00f3dzka w Kielcach Filia w Sandomierzu",
                "addr:country": "PL",
                "addr:postcode": "27-600",
                "addr:city": "Sandomierz",
                "addr:street": "Genera\u0142a Micha\u0142a Sokolnickiego",
                "addr:housenumber": "4",
                "addr:teryt:simc": 980926,
                "addr:teryt:sym_ul": 20489,
                "contact:phone": "+48 158322336",
                "contact:email": "sandomierz@pbw.kielce.pl",
                "contact:website": "http:\/\/www.pbw.kielce.pl",
                "ref:regon": "291170080",
                "operator": "Wojew\u00f3dztwo \u015awi\u0119tokrzyskie",
                "operator:type": "government",
                "amenity": "library",
                "note": "Parent RSPO: 6753"
            }
        },
        {
            "id": 75904,
            "type": "Feature",
            "geometry": {
                "type": "Point",
                "coordinates": [
                    21.7493899,
                    50.6809
                ]
            },
            "properties": {
                "isced:level": "1;2",
                "ref:rspo": 75904,
                "official_name": "Szko\u0142a Podstawowa Specjalna dla Dzieci I M\u0142odzie\u017cy Z Upo\u015bledzeniem Umys\u0142owym w Stopniu Umiarkowanym I Znacznym",
                "name": "Szko\u0142a Podstawowa Specjalna dla Dzieci I M\u0142odzie\u017cy Z Upo\u015bledzeniem Umys\u0142owym w Stopniu Umiarkowanym I Znacznym",
                "addr:country": "PL",
                "addr:postcode": "27-600",
                "addr:city": "Sandomierz",
                "addr:street": "Opatowska",
                "addr:housenumber": "10",
                "addr:teryt:simc": 980926,
                "addr:teryt:sym_ul": 15073,
                "contact:phone": "+48 156445532",
                "contact:email": "edukacja@sandomierz.caritas.pl",
                "ref:regon": "260649549",
                "ref:vatin": "PL8641731931",
                "operator": "Caritas Diecezji Sandomierskiej",
                "operator:type": "religious",
                "amenity": "school"
            }
        },
        {
            "id": 75910,
            "type": "Feature",
            "geometry": {
                "type": "Point",
                "coordinates": [
                    21.7493899,
                    50.68087
                ]
            },
            "properties": {
                "ref:rspo": 75910,
                "official_name": "Szko\u0142a Specjalna Przysposabiaj\u0105ca Do Pracy",
                "name": "Szko\u0142a Specjalna Przysposabiaj\u0105ca Do Pracy",
                "addr:country": "PL",
                "addr:postcode": "27-600",
                "addr:city": "Sandomierz",
                "addr:street": "Opatowska",
                "addr:housenumber": "10",
                "addr:teryt:simc": 980926,
                "addr:teryt:sym_ul": 15073,
                "contact:phone": "+48 156445532",
                "contact:email": "edukacja@sandomierz.caritas.pl",
                "ref:regon": "260649578",
                "operator": "Caritas Diecezji Sandomierskiej",
                "operator:type": "religious",
                "amenity": "school"
            }
        },
        {
            "id": 75912,
            "type": "Feature",
            "geometry": {
                "type": "Point",
                "coordinates": [
                    21.7493899,
                    50.68084
                ]
            },
            "properties": {
                "ref:rspo": 75912,
                "official_name": "Niepubliczna Poradnia Psychologiczno-Pedagogiczna w Sandomierzu",
                "name": "Niepubliczna Poradnia Psychologiczno-Pedagogiczna w Sandomierzu",
                "addr:country": "PL",
                "addr:postcode": "27-600",
                "addr:city": "Sandomierz",
                "addr:street": "Opatowska",
                "addr:housenumber": "10",
                "addr:teryt:simc": 980926,
                "addr:teryt:sym_ul": 15073,
                "contact:phone": "+48 156445532",
                "contact:email": "ggeva@op.pl",
                "ref:regon": "260649584",
                "operator": "Caritas Diecezji Sandomierskiej",
                "operator:type": "religious",
                "healthcare": "counselling",
                "counselling_type": "education",
                "fixme": "w zale\u017cno\u015bci od przedmiotu dzia\u0142alno\u015bci (np. healthcare=counselling + counselling_type=education albo healthcare=psychotherapist)"
            }
        },
        {
            "id": 75917,
            "type": "Feature",
            "geometry": {
                "type": "Point",
                "coordinates": [
                    21.7493899,
                    50.68081
                ]
            },
            "properties": {
                "ref:rspo": 75917,
                "official_name": "O\u015brodek Rehabilitacyjno-Edukacyjny \u201eRado\u015b\u0107 \u017bycia\u201d dla Dzieci I M\u0142odzie\u017cy Niepe\u0142nosprawnej",
                "name": "O\u015brodek Rehabilitacyjno-Edukacyjny \u201eRado\u015b\u0107 \u017bycia\u201d dla Dzieci I M\u0142odzie\u017cy Niepe\u0142nosprawnej",
                "addr:country": "PL",
                "addr:postcode": "27-600",
                "addr:city": "Sandomierz",
                "addr:street": "Opatowska",
                "addr:housenumber": "10",
                "addr:teryt:simc": 980926,
                "addr:teryt:sym_ul": 15073,
                "contact:phone": "+48 156445532",
                "contact:email": "edukacja@sandomierz.caritas.pl",
                "ref:regon": "260649590",
                "ref:vatin": "PL8641634004",
                "operator": "Caritas Diecezji Sandomierskiej",
                "operator:type": "religious",
                "amenity": "school"
            }
        },
        {
            "id": 79285,
            "type": "Feature",
            "geometry": {
                "type": "Point",
                "coordinates": [
                    21.7493899,
                    50.68078
                ]
            },
            "properties": {
                "isced:level": "1;2",
                "ref:rspo": 79285,
                "official_name": "Szko\u0142a Podstawowa Specjalna dla Uczni\u00f3w Z Autyzmem",
                "name": "Szko\u0142a Podstawowa Specjalna dla Uczni\u00f3w Z Autyzmem",
                "addr:country": "PL",
                "addr:postcode": "27-600",
                "addr:city": "Sandomierz",
                "addr:street": "Opatowska",
                "addr:housenumber": "10",
                "addr:teryt:simc": 980926,
                "addr:teryt:sym_ul": 15073,
                "contact:phone": "+48 156445532",
                "contact:email": "edukacja@sandomierz.caritas.pl",
                "ref:regon": "260649667",
                "ref:vatin": "PL8641869635",
                "operator": "Caritas Diecezji Sandomierskiej",
                "operator:type": "religious",
                "amenity": "school"
            }
        },
        {
            "id": 108795,
            "type": "Feature",
            "geometry": {
                "type": "Point",
                "coordinates": [
                    21.7493899,
                    50.68075
                ]
            },
            "properties": {
                "ref:rspo": 108795,
                "official_name": "Przedszkole Specjalne",
                "name": "Przedszkole Specjalne",
                "addr:country": "PL",
                "addr:postcode": "27-600",
                "addr:city": "Sandomierz",
                "addr:street": "Opatowska",
                "addr:housenumber": "10",
                "addr:teryt:simc": 980926,
                "addr:teryt:sym_ul": 15073,
                "contact:phone": "+48 156445532",
                "contact:email": "edukacja@sandomierz.caritas.pl",
                "ref:regon": "260666594",
                "ref:vatin": "PL8641731925",
                "operator": "Caritas Diecezji Sandomierskiej",
                "operator:type": "religious",
                "amenity": "kindergarten"
            }
        },
        {
            "id": 53076,
            "type": "Feature",
            "geometry": {
                "type": "Point",
                "coordinates": [
                    21.73244,
                    50.68319
                ]
            },
            "properties": {
                "ref:rspo": 53076,
                "official_name": "Przedszkole Samorz\u0105dowe Nr 7",
                "name": "Przedszkole Samorz\u0105dowe Nr 7",
                "addr:country": "PL",
                "addr:postcode": "27-600",
                "addr:city": "Sandomierz",
                "addr:street": "Armii Krajowej",
                "addr:housenumber": "5",
                "addr:teryt:simc": 980926,
                "addr:teryt:sym_ul": 432,
                "contact:phone": "+48 158324762",
                "contact:email": "przed7@um.sandomierz.pl",
                "contact:website": "http:\/\/www.sandomierz.pl\/przed7",
                "ref:regon": "292431156",
                "ref:vatin": "PL8641764540",
                "operator": "Gmina Sandomierz",
                "operator:type": "government",
                "amenity": "kindergarten"
            }
        },
        {
            "id": 53053,
            "type": "Feature",
            "geometry": {
                "type": "Point",
                "coordinates": [
                    21.73408,
                    50.68352
                ]
            },
            "properties": {
                "ref:rspo": 53053,
                "official_name": "Przedszkole Samorz\u0105dowe Nr 6",
                "name": "Przedszkole Samorz\u0105dowe Nr 6",
                "addr:country": "PL",
                "addr:postcode": "27-600",
                "addr:city": "Sandomierz",
                "addr:street": "Porucznika Tadeusza Kr\u00f3la",
                "addr:housenumber": "3",
                "addr:teryt:simc": 980926,
                "addr:teryt:sym_ul": 9975,
                "contact:phone": "+48 158324756",
                "contact:email": "przed6@um.sandomierz.pl",
                "contact:website": "http:\/\/www.sandomierz.pl\/przed6",
                "ref:regon": "292431133",
                "ref:vatin": "PL8641764534",
                "operator": "Gmina Sandomierz",
                "operator:type": "government",
                "amenity": "kindergarten"
            }
        },
        {
            "id": 104114,
            "type": "Feature",
            "geometry": {
                "type": "Point",
                "coordinates": [
                    21.7420699,
                    50.6835499
                ]
            },
            "properties": {
                "ref:rspo": 104114,
                "official_name": "Przedszkole Samorz\u0105dowe Nr 3",
                "name": "Przedszkole Samorz\u0105dowe Nr 3",
                "addr:country": "PL",
                "addr:postcode": "27-600",
                "addr:city": "Sandomierz",
                "addr:street": "Juliusza S\u0142owackiego",
                "addr:housenumber": "9",
                "addr:teryt:simc": 980926,
                "addr:teryt:sym_ul": 20291,
                "contact:phone": "+48 158322886",
                "contact:email": "przed3@um.sandomierz.pl",
                "contact:website": "http:\/\/p3sandomierz.pl",
                "ref:regon": "292431191",
                "ref:vatin": "PL8641764511",
                "operator": "Gmina Sandomierz",
                "operator:type": "government",
                "amenity": "kindergarten"
            }
        },
        {
            "id": 75950,
            "type": "Feature",
            "geometry": {
                "type": "Point",
                "coordinates": [
                    21.74769,
                    50.68385
                ]
            },
            "properties": {
                "ref:rspo": 75950,
                "official_name": "Zesp\u00f3\u0142 Szk\u00f3\u0142 Ekonomicznych im. Eugeniusza Kwiatkowskiego w Sandomierzu",
                "name": "Zesp\u00f3\u0142 Szk\u00f3\u0142 Ekonomicznych",
                "addr:country": "PL",
                "addr:postcode": "27-600",
                "addr:city": "Sandomierz",
                "addr:street": "Stefana \u017beromskiego",
                "addr:housenumber": "8",
                "addr:teryt:simc": 980926,
                "addr:teryt:sym_ul": 26469,
                "contact:phone": "+48 158323541",
                "contact:email": "ekonomik.sandomierz@gmail.com",
                "contact:website": "https:\/\/ekonomik.edupage.org",
                "ref:regon": "292441485",
                "ref:vatin": "PL8641341911",
                "operator": "Powiat Sandomierski",
                "operator:type": "government",
                "landuse": "education",
                "fixme": "amenity=school, amenity=college albo landuse=education w zale\u017cno\u015bci od tego, jakie plac\u00f3wki wchodz\u0105 w sk\u0142ad zespo\u0142u. Sprawd\u017a, kiedy stosowa\u0107 amenity=* a kiedy landuse=education.",
                "note": "Children RSPO: 88052;124134"
            }
        },
        {
            "id": 88052,
            "type": "Feature",
            "geometry": {
                "type": "Point",
                "coordinates": [
                    21.74769,
                    50.68382
                ]
            },
            "properties": {
                "isced:level": "3",
                "ref:rspo": 88052,
                "official_name": "Bran\u017cowa Szko\u0142a I Stopnia w Sandomierzu",
                "name": "Bran\u017cowa Szko\u0142a I Stopnia w Sandomierzu",
                "addr:country": "PL",
                "addr:postcode": "27-600",
                "addr:city": "Sandomierz",
                "addr:street": "Stefana \u017beromskiego",
                "addr:housenumber": "8",
                "addr:teryt:simc": 980926,
                "addr:teryt:sym_ul": 26469,
                "contact:phone": "+48 158323541",
                "contact:email": "ekonomik.sandomierz@gmail.com",
                "ref:regon": "292695270",
                "operator": "Powiat Sandomierski",
                "operator:type": "government",
                "amenity": "school",
                "note": "Parent RSPO: 75950"
            }
        },
        {
            "id": 124134,
            "type": "Feature",
            "geometry": {
                "type": "Point",
                "coordinates": [
                    21.74769,
                    50.68379
                ]
            },
            "properties": {
                "isced:level": "3",
                "ref:rspo": 124134,
                "official_name": "Technikum Nr 1 w Sandomierzu",
                "name": "Technikum Nr 1 w Sandomierzu",
                "addr:country": "PL",
                "addr:postcode": "27-600",
                "addr:city": "Sandomierz",
                "addr:street": "Stefana \u017beromskiego",
                "addr:housenumber": "8",
                "addr:teryt:simc": 980926,
                "addr:teryt:sym_ul": 26469,
                "contact:phone": "+48 158323541",
                "contact:email": "ekonomik.sandomierz@gmail.com",
                "ref:regon": "260788535",
                "operator": "Powiat Sandomierski",
                "operator:type": "government",
                "amenity": "school",
                "note": "Parent RSPO: 75950"
            }
        },
        {
            "id": 75956,
            "type": "Feature",
            "geometry": {
                "type": "Point",
                "coordinates": [
                    21.74205,
                    50.68477
                ]
            },
            "properties": {
                "isced:level": "3",
                "ref:rspo": 75956,
                "official_name": "Ii Liceum Og\u00f3lnokszta\u0142c\u0105ce im. Tadeusza Ko\u015bciuszki w Sandomierzu",
                "name": "Ii Liceum Og\u00f3lnokszta\u0142c\u0105ce",
                "addr:country": "PL",
                "addr:postcode": "27-600",
                "addr:city": "Sandomierz",
                "addr:street": "Adama Mickiewicza",
                "addr:housenumber": "9",
                "addr:teryt:simc": 980926,
                "addr:teryt:sym_ul": 12740,
                "contact:phone": "+48 158322245",
                "contact:email": "sekretariat@2lo.sandomierz.pl",
                "contact:website": "http:\/\/2lo.sandomierz.pl",
                "ref:regon": "292455961",
                "ref:vatin": "PL8641202782",
                "operator": "Powiat Sandomierski",
                "operator:type": "government",
                "amenity": "school"
            }
        },
        {
            "id": 104093,
            "type": "Feature",
            "geometry": {
                "type": "Point",
                "coordinates": [
                    21.74205,
                    50.68474
                ]
            },
            "properties": {
                "isced:level": "1;2",
                "ref:rspo": 104093,
                "official_name": "Szko\u0142a Podstawowa Nr 2 im. Kr\u00f3la Kazimierza Wielkiego w Sandomierzu",
                "name": "Szko\u0142a Podstawowa Nr 2",
                "addr:country": "PL",
                "addr:postcode": "27-600",
                "addr:city": "Sandomierz",
                "addr:street": "Adama Mickiewicza",
                "addr:housenumber": "9",
                "addr:teryt:simc": 980926,
                "addr:teryt:sym_ul": 12740,
                "contact:phone": "+48 158322575",
                "contact:email": "sp2@sp2.sandomierz.pl",
                "contact:website": "http:\/\/www.sp2.sandomierz.pl",
                "ref:regon": "001187839",
                "ref:vatin": "PL8641764480",
                "operator": "Gmina Sandomierz",
                "operator:type": "government",
                "amenity": "school"
            }
        },
        {
            "id": 131773,
            "type": "Feature",
            "geometry": {
                "type": "Point",
                "coordinates": [
                    21.7307099,
                    50.68517
                ]
            },
            "properties": {
                "ref:rspo": 131773,
                "official_name": "Niepubliczne Przedszkole \u201eDolina Smerf\u00f3w\u201d",
                "name": "Niepubliczne Przedszkole \u201eDolina Smerf\u00f3w\u201d",
                "addr:country": "PL",
                "addr:postcode": "27-600",
                "addr:city": "Sandomierz",
                "addr:street": "Armii Krajowej",
                "addr:housenumber": "13",
                "addr:teryt:simc": 980926,
                "addr:teryt:sym_ul": 432,
                "contact:phone": "+48 158321509",
                "contact:email": "spgorywysokie@interia.pl",
                "ref:regon": "365342605",
                "operator": "Stowarzyszenie Na Rzecz Ekorozwoju Wsi G\u00f3ry Wysokie",
                "operator:type": "ngo",
                "amenity": "kindergarten"
            }
        },
        {
            "id": 75948,
            "type": "Feature",
            "geometry": {
                "type": "Point",
                "coordinates": [
                    21.7401899,
                    50.68578
                ]
            },
            "properties": {
                "ref:rspo": 75948,
                "official_name": "Poradnia Psychologiczno-Pedagogiczna w Sandomierzu",
                "name": "Poradnia Psychologiczno-Pedagogiczna w Sandomierzu",
                "addr:country": "PL",
                "addr:postcode": "27-600",
                "addr:city": "Sandomierz",
                "addr:street": "Adama Mickiewicza",
                "addr:housenumber": "34",
                "addr:teryt:simc": 980926,
                "addr:teryt:sym_ul": 12740,
                "contact:phone": "+48 158323204",
                "contact:email": "ppp1sandomierz@op.pl",
                "contact:website": "http:\/\/ppp.sandomierz.pl",
                "ref:regon": "292455949",
                "ref:vatin": "PL8641202339",
                "operator": "Powiat Sandomierski",
                "operator:type": "government",
                "healthcare": "counselling",
                "counselling_type": "education",
                "fixme": "w zale\u017cno\u015bci od przedmiotu dzia\u0142alno\u015bci (np. healthcare=counselling + counselling_type=education albo healthcare=psychotherapist)"
            }
        },
        {
            "id": 75949,
            "type": "Feature",
            "geometry": {
                "type": "Point",
                "coordinates": [
                    21.73253,
                    50.68607
                ]
            },
            "properties": {
                "ref:rspo": 75949,
                "official_name": "Zesp\u00f3\u0142 Szk\u00f3\u0142 Technicznych I Og\u00f3lnokszta\u0142c\u0105cych im. Prof. Zbigniewa Strzeleckiego w Sandomierzu",
                "name": "Zesp\u00f3\u0142 Szk\u00f3\u0142 Technicznych I Og\u00f3lnokszta\u0142c\u0105cych",
                "addr:country": "PL",
                "addr:postcode": "27-600",
                "addr:city": "Sandomierz",
                "addr:street": "Juliusza S\u0142owackiego",
                "addr:housenumber": "37",
                "addr:teryt:simc": 980926,
                "addr:teryt:sym_ul": 20291,
                "contact:phone": "+48 797637683",
                "contact:email": "sekretariat@zstio.pl",
                "contact:website": "http:\/\/www.zstio.pl",
                "ref:regon": "292442065",
                "ref:vatin": "PL8641153954",
                "operator": "Powiat Sandomierski",
                "operator:type": "government",
                "landuse": "education",
                "fixme": "amenity=school, amenity=college albo landuse=education w zale\u017cno\u015bci od tego, jakie plac\u00f3wki wchodz\u0105 w sk\u0142ad zespo\u0142u. Sprawd\u017a, kiedy stosowa\u0107 amenity=* a kiedy landuse=education.",
                "note": "Children RSPO: 89540;108770;124131"
            }
        },
        {
            "id": 89540,
            "type": "Feature",
            "geometry": {
                "type": "Point",
                "coordinates": [
                    21.73253,
                    50.68604
                ]
            },
            "properties": {
                "isced:level": "4",
                "ref:rspo": 89540,
                "official_name": "Policealna Szko\u0142a Zawodowa w Sandomierzu",
                "name": "Policealna Szko\u0142a Zawodowa w Sandomierzu",
                "addr:country": "PL",
                "addr:postcode": "27-600",
                "addr:city": "Sandomierz",
                "addr:street": "Juliusza S\u0142owackiego",
                "addr:housenumber": "37",
                "addr:teryt:simc": 980926,
                "addr:teryt:sym_ul": 20291,
                "contact:phone": "+48 797637683",
                "contact:email": "sekretariat@zstio.pl",
                "contact:website": "http:\/\/www.zstio.pl",
                "ref:regon": "292442131",
                "operator": "Powiat Sandomierski",
                "operator:type": "government",
                "amenity": "college",
                "note": "Parent RSPO: 75949"
            }
        },
        {
            "id": 108770,
            "type": "Feature",
            "geometry": {
                "type": "Point",
                "coordinates": [
                    21.73253,
                    50.68601
                ]
            },
            "properties": {
                "isced:level": "3",
                "ref:rspo": 108770,
                "official_name": "Bran\u017cowa Szko\u0142a I Stopnia w Sandomierzu",
                "name": "Bran\u017cowa Szko\u0142a I Stopnia w Sandomierzu",
                "addr:country": "PL",
                "addr:postcode": "27-600",
                "addr:city": "Sandomierz",
                "addr:street": "Juliusza S\u0142owackiego",
                "addr:housenumber": "37",
                "addr:teryt:simc": 980926,
                "addr:teryt:sym_ul": 20291,
                "contact:phone": "+48 797637683",
                "contact:email": "sekretariat@zstio.pl",
                "contact:website": "http:\/\/www.zstio.pl",
                "ref:regon": "292442088",
                "operator": "Powiat Sandomierski",
                "operator:type": "government",
                "amenity": "school",
                "note": "Parent RSPO: 75949"
            }
        },
        {
            "id": 124131,
            "type": "Feature",
            "geometry": {
                "type": "Point",
                "coordinates": [
                    21.73253,
                    50.68598
                ]
            },
            "properties": {
                "isced:level": "3",
                "ref:rspo": 124131,
                "official_name": "Technikum Nr 3 w Sandomierzu",
                "name": "Technikum Nr 3 w Sandomierzu",
                "addr:country": "PL",
                "addr:postcode": "27-600",
                "addr:city": "Sandomierz",
                "addr:street": "Juliusza S\u0142owackiego",
                "addr:housenumber": "37",
                "addr:teryt:simc": 980926,
                "addr:teryt:sym_ul": 20291,
                "contact:phone": "+48 797637683",
                "contact:email": "sekretariat@zstio.pl",
                "contact:website": "http:\/\/www.zstio.pl",
                "ref:regon": "260788529",
                "operator": "Powiat Sandomierski",
                "operator:type": "government",
                "amenity": "school",
                "note": "Parent RSPO: 75949"
            }
        },
        {
            "id": 82740,
            "type": "Feature",
            "geometry": {
                "type": "Point",
                "coordinates": [
                    21.73321,
                    50.687
                ]
            },
            "properties": {
                "isced:level": "3",
                "ref:rspo": 82740,
                "official_name": "Prywatne Liceum Og\u00f3lnokszta\u0142c\u0105ce dla Doros\u0142ych w Sandomierzu",
                "name": "Prywatne Liceum Og\u00f3lnokszta\u0142c\u0105ce dla Doros\u0142ych w Sandomierzu",
                "addr:country": "PL",
                "addr:postcode": "27-600",
                "addr:city": "Sandomierz",
                "addr:street": "Adama Mickiewicza",
                "addr:housenumber": "39",
                "addr:teryt:simc": 980926,
                "addr:teryt:sym_ul": 12740,
                "contact:phone": "+48 530257136",
                "contact:email": "sandomierz@szkolyprestiz.pl",
                "ref:regon": "260649800",
                "operator": "Presti\u017c Duo Sp\u00f3\u0142ka Z Ograniczon\u0105 Odpowiedzialno\u015bci\u0105",
                "operator:type": "private",
                "amenity": "school"
            }
        },
        {
            "id": 82742,
            "type": "Feature",
            "geometry": {
                "type": "Point",
                "coordinates": [
                    21.73321,
                    50.686969999999995
                ]
            },
            "properties": {
                "isced:level": "4",
                "ref:rspo": 82742,
                "official_name": "Policealna Szko\u0142a Zawodowa w Sandomierzu",
                "name": "Policealna Szko\u0142a Zawodowa w Sandomierzu",
                "addr:country": "PL",
                "addr:postcode": "27-600",
                "addr:city": "Sandomierz",
                "addr:street": "Adama Mickiewicza",
                "addr:housenumber": "39",
                "addr:teryt:simc": 980926,
                "addr:teryt:sym_ul": 12740,
                "contact:phone": "+48 530257136",
                "contact:email": "sandomierz@szkolyprestiz.pl",
                "ref:regon": "260649816",
                "operator": "Presti\u017c Duo Sp\u00f3\u0142ka Z Ograniczon\u0105 Odpowiedzialno\u015bci\u0105",
                "operator:type": "private",
                "amenity": "college"
            }
        },
        {
            "id": 104104,
            "type": "Feature",
            "geometry": {
                "type": "Point",
                "coordinates": [
                    21.73321,
                    50.68694
                ]
            },
            "properties": {
                "isced:level": "1;2",
                "ref:rspo": 104104,
                "official_name": "Szko\u0142a Podstawowa Nr 4 im. Jaros\u0142awa Iwaszkiewicza w Sandomierzu",
                "name": "Szko\u0142a Podstawowa Nr 4",
                "addr:country": "PL",
                "addr:postcode": "27-600",
                "addr:city": "Sandomierz",
                "addr:street": "Adama Mickiewicza",
                "addr:housenumber": "39",
                "addr:teryt:simc": 980926,
                "addr:teryt:sym_ul": 12740,
                "contact:phone": "+48 158327392",
                "contact:email": "sp4@sp4.sandomierz.pl",
                "contact:website": "http:\/\/www.sp4sandomierz.pl",
                "ref:regon": "000837554",
                "ref:vatin": "PL8641764474",
                "operator": "Gmina Sandomierz",
                "operator:type": "government",
                "amenity": "school"
            }
        },
        {
            "id": 125546,
            "type": "Feature",
            "geometry": {
                "type": "Point",
                "coordinates": [
                    21.73321,
                    50.68691
                ]
            },
            "properties": {
                "isced:level": "4",
                "ref:rspo": 125546,
                "official_name": "Medyczna Szko\u0142a Policealna w Sandomierzu",
                "name": "Medyczna Szko\u0142a Policealna w Sandomierzu",
                "addr:country": "PL",
                "addr:postcode": "27-600",
                "addr:city": "Sandomierz",
                "addr:street": "Adama Mickiewicza",
                "addr:housenumber": "39",
                "addr:teryt:simc": 980926,
                "addr:teryt:sym_ul": 12740,
                "contact:phone": "+48 530257136",
                "contact:email": "sandomierz@szkolyprestiz.pl",
                "ref:regon": "260799303",
                "operator": "Presti\u017c Duo Sp\u00f3\u0142ka Z Ograniczon\u0105 Odpowiedzialno\u015bci\u0105",
                "operator:type": "private",
                "amenity": "college"
            }
        },
        {
            "id": 79281,
            "type": "Feature",
            "geometry": {
                "type": "Point",
                "coordinates": [
                    21.73145,
                    50.68704
                ]
            },
            "properties": {
                "ref:rspo": 79281,
                "official_name": "Centrum Edukacyjno Szkoleniowe",
                "name": "Centrum Edukacyjno Szkoleniowe",
                "addr:country": "PL",
                "addr:postcode": "27-600",
                "addr:city": "Sandomierz",
                "addr:street": "Armii Krajowej",
                "addr:housenumber": "19 B",
                "addr:teryt:simc": 980926,
                "addr:teryt:sym_ul": 432,
                "contact:phone": "+48 158322790",
                "contact:email": "biuro@szkolbank.sandomierz.pl",
                "ref:regon": "260649638",
                "operator": "Szko\u0142a Bankowa Stalowa Wola-Rzesz\u00f3w International School Of Banking And Finance Sp\u00f3\u0142ka Z Ograniczon\u0105 Odpowiedzialno\u015bci\u0105",
                "operator:type": "private",
                "fixme": "w zale\u017cno\u015bci od przedmiotu dzia\u0142alno\u015bci (np. amenity=training + training=*, amenity=dancing_school, amenity=language_school, amenity=music_school)"
            }
        },
        {
            "id": 49090,
            "type": "Feature",
            "geometry": {
                "type": "Point",
                "coordinates": [
                    21.74527,
                    50.68829
                ]
            },
            "properties": {
                "isced:level": "1;2",
                "ref:rspo": 49090,
                "official_name": "Szko\u0142a Podstawowa Nr 1 im. Miko\u0142aja Kopernika w Sandomierzu",
                "name": "Szko\u0142a Podstawowa Nr 1",
                "addr:country": "PL",
                "addr:postcode": "27-600",
                "addr:city": "Sandomierz",
                "addr:street": "Stefana Okrzei",
                "addr:housenumber": "6",
                "addr:teryt:simc": 980926,
                "addr:teryt:sym_ul": 14914,
                "contact:phone": "+48 158322631",
                "contact:email": "sp1@sp1.sandomierz.pl",
                "contact:website": "http:\/\/www.sp1.sandomierz.pl",
                "ref:regon": "000837531",
                "ref:vatin": "PL8641764445",
                "operator": "Gmina Sandomierz",
                "operator:type": "government",
                "amenity": "school"
            }
        },
        {
            "id": 49974,
            "type": "Feature",
            "geometry": {
                "type": "Point",
                "coordinates": [
                    21.7466,
                    50.68854
                ]
            },
            "properties": {
                "ref:rspo": 49974,
                "official_name": "Przedszkole Samorz\u0105dowe Nr 1",
                "name": "Przedszkole Samorz\u0105dowe Nr 1",
                "addr:country": "PL",
                "addr:postcode": "27-600",
                "addr:city": "Sandomierz",
                "addr:street": "Stefana Okrzei",
                "addr:housenumber": "8",
                "addr:teryt:simc": 980926,
                "addr:teryt:sym_ul": 14914,
                "contact:phone": "+48 158322208",
                "contact:email": "przed1sand@op.pl",
                "contact:website": "http:\/\/www.sandomierz.pl\/przed1",
                "ref:regon": "292431110",
                "ref:vatin": "PL8641764497",
                "operator": "Gmina Sandomierz",
                "operator:type": "government",
                "amenity": "kindergarten"
            }
        },
        {
            "id": 75944,
            "type": "Feature",
            "geometry": {
                "type": "Point",
                "coordinates": [
                    21.74273,
                    50.6891
                ]
            },
            "properties": {
                "ref:rspo": 75944,
                "official_name": "Bursa Szkolna w Sandomierzu",
                "name": "Bursa Szkolna w Sandomierzu",
                "addr:country": "PL",
                "addr:postcode": "27-600",
                "addr:city": "Sandomierz",
                "addr:street": "Wojska Polskiego",
                "addr:housenumber": "22",
                "addr:teryt:simc": 980926,
                "addr:teryt:sym_ul": 24628,
                "contact:phone": "+48 158322853",
                "contact:email": "bursaszkolna1@idsl.pl",
                "contact:website": "http:\/\/www.bursasandomierz.pl",
                "ref:regon": "292883020",
                "ref:vatin": "PL8641816490",
                "operator": "Powiat Sandomierski",
                "operator:type": "government",
                "building": "dormitory"
            }
        },
        {
            "id": 75951,
            "type": "Feature",
            "geometry": {
                "type": "Point",
                "coordinates": [
                    21.74273,
                    50.68907
                ]
            },
            "properties": {
                "ref:rspo": 75951,
                "official_name": "Zesp\u00f3\u0142 Szk\u00f3\u0142 Gastronomicznych I Hotelarskich im. Komisji Edukacji Narodowej w Sandomierzu",
                "name": "Zesp\u00f3\u0142 Szk\u00f3\u0142 Gastronomicznych I Hotelarskich",
                "addr:country": "PL",
                "addr:postcode": "27-600",
                "addr:city": "Sandomierz",
                "addr:street": "Wojska Polskiego",
                "addr:housenumber": "22",
                "addr:teryt:simc": 980926,
                "addr:teryt:sym_ul": 24628,
                "contact:phone": "+48 158322243",
                "contact:email": "zsgih@poczta.onet.pl",
                "contact:website": "http:\/\/www.zsgih.sandomierz.pl",
                "ref:regon": "292448091",
                "ref:vatin": "PL8641216519",
                "operator": "Powiat Sandomierski",
                "operator:type": "government",
                "landuse": "education",
                "fixme": "amenity=school, amenity=college albo landuse=education w zale\u017cno\u015bci od tego, jakie plac\u00f3wki wchodz\u0105 w sk\u0142ad zespo\u0142u. Sprawd\u017a, kiedy stosowa\u0107 amenity=* a kiedy landuse=education.",
                "note": "Children RSPO: 89541;92655;109858;124140"
            }
        },
        {
            "id": 75972,
            "type": "Feature",
            "geometry": {
                "type": "Point",
                "coordinates": [
                    21.74273,
                    50.689040000000006
                ]
            },
            "properties": {
                "ref:rspo": 75972,
                "official_name": "Zak\u0142ad Doskonalenia Zawodowego w Kielcach Centrum Kszta\u0142cenia Zawodowego w Sandomierzu",
                "name": "Zak\u0142ad Doskonalenia Zawodowego w Kielcach Centrum Kszta\u0142cenia Zawodowego w Sandomierzu",
                "addr:country": "PL",
                "addr:postcode": "27-600",
                "addr:city": "Sandomierz",
                "addr:street": "Wojska Polskiego",
                "addr:housenumber": "22",
                "addr:teryt:simc": 980926,
                "addr:teryt:sym_ul": 24628,
                "contact:phone": "+48 516570482",
                "contact:email": "sandomierz@zdz.kielce.pl",
                "ref:regon": "260647763",
                "operator": "Zak\u0142ad Doskonalenia Zawodowego W Kielcach",
                "operator:type": "ngo",
                "fixme": "w zale\u017cno\u015bci od przedmiotu dzia\u0142alno\u015bci (np. amenity=training + training=*, amenity=dancing_school, amenity=language_school, amenity=music_school) albo amenity=school, amenity=college, albo landuse=education w zale\u017cno\u015bci od tego, jakie plac\u00f3wki wchodz\u0105 w sk\u0142ad zespo\u0142u. Sprawd\u017a, kiedy stosowa\u0107 amenity=* a kiedy landuse=education."
            }
        },
        {
            "id": 272901,
            "type": "Feature",
            "geometry": {
                "type": "Point",
                "coordinates": [
                    21.74273,
                    50.68901
                ]
            },
            "properties": {
                "isced:level": "3",
                "ref:rspo": 272901,
                "official_name": "Niepubliczne Liceum Og\u00f3lnokszta\u0142c\u0105ce dla Doros\u0142ych w Sandomierzu Zak\u0142adu Doskonalenia Zawodowego w Kielcach",
                "name": "Niepubliczne Liceum Og\u00f3lnokszta\u0142c\u0105ce dla Doros\u0142ych w Sandomierzu Zak\u0142adu Doskonalenia Zawodowego w Kielcach",
                "addr:country": "PL",
                "addr:postcode": "27-600",
                "addr:city": "Sandomierz",
                "addr:street": "Wojska Polskiego",
                "addr:housenumber": "22",
                "addr:teryt:simc": 980926,
                "addr:teryt:sym_ul": 24628,
                "contact:phone": "+48 601528430",
                "contact:email": "dsarzynska@zdz.kielce.pl",
                "contact:website": "http:\/\/www.zdz.kielce.pl",
                "ref:regon": "384318078",
                "operator": "Zak\u0142ad Doskonalenia Zawodowego W Kielcach",
                "operator:type": "ngo",
                "amenity": "school"
            }
        },
        {
            "id": 272903,
            "type": "Feature",
            "geometry": {
                "type": "Point",
                "coordinates": [
                    21.74273,
                    50.68898
                ]
            },
            "properties": {
                "isced:level": "4",
                "ref:rspo": 272903,
                "official_name": "Niepubliczna Szko\u0142a Policealna w Sandomierzu Zak\u0142adu Doskonalenia Zawodowego w Kielcach",
                "name": "Niepubliczna Szko\u0142a Policealna w Sandomierzu Zak\u0142adu Doskonalenia Zawodowego w Kielcach",
                "addr:country": "PL",
                "addr:postcode": "27-600",
                "addr:city": "Sandomierz",
                "addr:street": "Wojska Polskiego",
                "addr:housenumber": "22",
                "addr:teryt:simc": 980926,
                "addr:teryt:sym_ul": 24628,
                "contact:phone": "+48 601528430",
                "contact:email": "dsarzynska@zdz.kielce.pl",
                "contact:website": "http:\/\/www.sandomierz.zdz.kielce.pl",
                "ref:regon": "384317972",
                "operator": "Zak\u0142ad Doskonalenia Zawodowego W Kielcach",
                "operator:type": "ngo",
                "amenity": "college"
            }
        },
        {
            "id": 274850,
            "type": "Feature",
            "geometry": {
                "type": "Point",
                "coordinates": [
                    21.74273,
                    50.688950000000006
                ]
            },
            "properties": {
                "isced:level": "3",
                "ref:rspo": 274850,
                "official_name": "Niepubliczna Bran\u017cowa Szko\u0142a II Stopnia w Sandomierzu",
                "name": "Niepubliczna Bran\u017cowa Szko\u0142a II Stopnia w Sandomierzu",
                "addr:country": "PL",
                "addr:postcode": "27-600",
                "addr:city": "Sandomierz",
                "addr:street": "Wojska Polskiego",
                "addr:housenumber": "22",
                "addr:teryt:simc": 980926,
                "addr:teryt:sym_ul": 24628,
                "contact:phone": "+48 601528430",
                "contact:email": "dsarzynska@zdz.kielce.pl",
                "contact:website": "http:\/\/www.sandomierz.zdz.kielce.pl",
                "ref:regon": "386330876",
                "operator": "Zak\u0142ad Doskonalenia Zawodowego W Kielcach",
                "operator:type": "ngo",
                "amenity": "school"
            }
        },
        {
            "id": 274862,
            "type": "Feature",
            "geometry": {
                "type": "Point",
                "coordinates": [
                    21.74273,
                    50.68892
                ]
            },
            "properties": {
                "isced:level": "4",
                "ref:rspo": 274862,
                "official_name": "Szko\u0142a Policealna w Sandomierzu Zak\u0142adu Doskonalenia Zawodowego w Kielcach",
                "name": "Szko\u0142a Policealna w Sandomierzu Zak\u0142adu Doskonalenia Zawodowego w Kielcach",
                "addr:country": "PL",
                "addr:postcode": "27-600",
                "addr:city": "Sandomierz",
                "addr:street": "Wojska Polskiego",
                "addr:housenumber": "22",
                "addr:teryt:simc": 980926,
                "addr:teryt:sym_ul": 24628,
                "contact:phone": "+48 692290181",
                "contact:email": "sandomierz@zdz.kielce.pl",
                "ref:regon": "386349516",
                "operator": "Zak\u0142ad Doskonalenia Zawodowego W Kielcach",
                "operator:type": "ngo",
                "amenity": "college"
            }
        },
        {
            "id": 89541,
            "type": "Feature",
            "geometry": {
                "type": "Point",
                "coordinates": [
                    21.74273,
                    50.68889
                ]
            },
            "properties": {
                "isced:level": "3",
                "ref:rspo": 89541,
                "official_name": "Bran\u017cowa Szko\u0142a I Stopnia w Sandomierzu",
                "name": "Bran\u017cowa Szko\u0142a I Stopnia w Sandomierzu",
                "addr:country": "PL",
                "addr:postcode": "27-600",
                "addr:city": "Sandomierz",
                "addr:street": "Wojska Polskiego",
                "addr:housenumber": "22",
                "addr:teryt:simc": 980926,
                "addr:teryt:sym_ul": 24628,
                "contact:phone": "+48 158322243",
                "contact:email": "zsgih@poczta.onet.pl",
                "contact:website": "http:\/\/www.zsgih.sandomierz.pl",
                "ref:regon": "292444265",
                "operator": "Powiat Sandomierski",
                "operator:type": "government",
                "amenity": "school",
                "note": "Parent RSPO: 75951"
            }
        },
        {
            "id": 92655,
            "type": "Feature",
            "geometry": {
                "type": "Point",
                "coordinates": [
                    21.74273,
                    50.688860000000005
                ]
            },
            "properties": {
                "isced:level": "3",
                "ref:rspo": 92655,
                "official_name": "Liceum Og\u00f3lnokszta\u0142c\u0105ce dla Doros\u0142ych w Sandomierzu",
                "name": "Liceum Og\u00f3lnokszta\u0142c\u0105ce dla Doros\u0142ych w Sandomierzu",
                "addr:country": "PL",
                "addr:postcode": "27-600",
                "addr:city": "Sandomierz",
                "addr:street": "Wojska Polskiego",
                "addr:housenumber": "22",
                "addr:teryt:simc": 980926,
                "addr:teryt:sym_ul": 24628,
                "contact:phone": "+48 158322243",
                "contact:email": "zsgih@poczta.onet.pl",
                "ref:regon": "260653611",
                "operator": "Powiat Sandomierski",
                "operator:type": "government",
                "amenity": "school",
                "note": "Parent RSPO: 75951"
            }
        },
        {
            "id": 109858,
            "type": "Feature",
            "geometry": {
                "type": "Point",
                "coordinates": [
                    21.74273,
                    50.68883
                ]
            },
            "properties": {
                "isced:level": "3",
                "ref:rspo": 109858,
                "official_name": "Liceum Og\u00f3lnokszta\u0142c\u0105ce w Sandomierzu",
                "name": "Liceum Og\u00f3lnokszta\u0142c\u0105ce w Sandomierzu",
                "addr:country": "PL",
                "addr:postcode": "27-600",
                "addr:city": "Sandomierz",
                "addr:street": "Wojska Polskiego",
                "addr:housenumber": "22",
                "addr:teryt:simc": 980926,
                "addr:teryt:sym_ul": 24628,
                "contact:phone": "+48 158322243",
                "contact:email": "zsgih@poczta.onet.pl",
                "contact:website": "http:\/\/www.zsgih.sandomierz.pl",
                "ref:regon": "260604529",
                "operator": "Powiat Sandomierski",
                "operator:type": "government",
                "amenity": "school",
                "note": "Parent RSPO: 75951"
            }
        },
        {
            "id": 124140,
            "type": "Feature",
            "geometry": {
                "type": "Point",
                "coordinates": [
                    21.74273,
                    50.6888
                ]
            },
            "properties": {
                "isced:level": "3",
                "ref:rspo": 124140,
                "official_name": "Technikum Nr 2 w Sandomierzu",
                "name": "Technikum Nr 2 w Sandomierzu",
                "addr:country": "PL",
                "addr:postcode": "27-600",
                "addr:city": "Sandomierz",
                "addr:street": "Wojska Polskiego",
                "addr:housenumber": "22",
                "addr:teryt:simc": 980926,
                "addr:teryt:sym_ul": 24628,
                "contact:phone": "+48 158322243",
                "contact:email": "zsgih@poczta.onet.pl",
                "contact:website": "http:\/\/www.zsgih.sandomierz.pl",
                "ref:regon": "260788587",
                "operator": "Powiat Sandomierski",
                "operator:type": "government",
                "amenity": "school",
                "note": "Parent RSPO: 75951"
            }
        },
        {
            "id": 130262,
            "type": "Feature",
            "geometry": {
                "type": "Point",
                "coordinates": [
                    21.73143,
                    50.69177
                ]
            },
            "properties": {
                "ref:rspo": 130262,
                "official_name": "Centrum Edukacji Artystycznej Gama",
                "name": "Centrum Edukacji Artystycznej Gama",
                "addr:country": "PL",
                "addr:postcode": "27-600",
                "addr:city": "Sandomierz",
                "addr:street": "Elizy Orzeszkowej",
                "addr:housenumber": "8",
                "addr:teryt:simc": 980926,
                "addr:teryt:sym_ul": 15211,
                "contact:phone": "+48 601087354",
                "contact:email": "cea.gama@gmail.com",
                "contact:website": "http:\/\/gama-sandomierz.pl",
                "ref:regon": "363727086",
                "operator": "Tomasz Tomaszewski",
                "operator:type": "private",
                "fixme": "w zale\u017cno\u015bci od przedmiotu dzia\u0142alno\u015bci (np. amenity=training + training=*, amenity=dancing_school, amenity=language_school, amenity=music_school)"
            }
        },
        {
            "id": 132130,
            "type": "Feature",
            "geometry": {
                "type": "Point",
                "coordinates": [
                    21.7378,
                    50.69222
                ]
            },
            "properties": {
                "ref:rspo": 132130,
                "official_name": "Przedszkole Niepubliczne Mali Odkrywcy",
                "name": "Przedszkole Niepubliczne Mali Odkrywcy",
                "addr:country": "PL",
                "addr:postcode": "27-600",
                "addr:city": "Sandomierz",
                "addr:street": "Wojska Polskiego",
                "addr:housenumber": "19",
                "addr:teryt:simc": 980926,
                "addr:teryt:sym_ul": 24628,
                "contact:phone": "+48 799924442",
                "contact:email": "maliodkrywcy.sandomierz@gmail.com",
                "contact:website": "http:\/\/mali-odkrywcy.edu.pl",
                "ref:regon": "365480810",
                "operator": "Agnieszka Rembelska",
                "operator:type": "private",
                "amenity": "kindergarten"
            }
        },
        {
            "id": 264569,
            "type": "Feature",
            "geometry": {
                "type": "Point",
                "coordinates": [
                    21.72233,
                    50.69461
                ]
            },
            "properties": {
                "ref:rspo": 264569,
                "official_name": "Niepubliczne Przedszkole Naukowe \u201eAkademia Ma\u0142ych Odkrywc\u00f3w\u201d",
                "name": "Niepubliczne Przedszkole Naukowe \u201eAkademia Ma\u0142ych Odkrywc\u00f3w\u201d",
                "addr:country": "PL",
                "addr:postcode": "27-600",
                "addr:city": "Sandomierz",
                "addr:street": "Morelowa",
                "addr:housenumber": "15",
                "addr:teryt:simc": 980926,
                "addr:teryt:sym_ul": 13283,
                "contact:phone": "+48 606896301",
                "contact:email": "jpkondziola@gmail.com",
                "ref:regon": "368380859",
                "operator": "Stowarzyszenie \"Cz\u0142owiek Cz\u0142owiekowi...\"",
                "operator:type": "ngo",
                "amenity": "kindergarten"
            }
        },
        {
            "id": 275028,
            "type": "Feature",
            "geometry": {
                "type": "Point",
                "coordinates": [
                    21.73474,
                    50.69613
                ]
            },
            "properties": {
                "ref:rspo": 275028,
                "official_name": "Niepubliczna Specjalistyczna Poradnia Psychologiczno-Pedagogiczna Katarzyna G\u0142adosz w Sandomierzu",
                "name": "Niepubliczna Specjalistyczna Poradnia Psychologiczno-Pedagogiczna Katarzyna G\u0142adosz w Sandomierzu",
                "addr:country": "PL",
                "addr:postcode": "27-600",
                "addr:city": "Sandomierz",
                "addr:street": "Marii Sk\u0142odowskiej-Curie",
                "addr:housenumber": "19",
                "addr:teryt:simc": 980926,
                "addr:teryt:sym_ul": 20068,
                "contact:phone": "+48 509830805",
                "contact:email": "nsppp.sandomierz@gmail.com",
                "ref:regon": "386511514",
                "operator": "Katarzyna G\u0142adosz",
                "operator:type": "private",
                "healthcare": "counselling",
                "counselling_type": "education",
                "fixme": "w zale\u017cno\u015bci od przedmiotu dzia\u0142alno\u015bci (np. healthcare=counselling + counselling_type=education albo healthcare=psychotherapist)"
            }
        },
        {
            "id": 122485,
            "type": "Feature",
            "geometry": {
                "type": "Point",
                "coordinates": [
                    21.75181,
                    50.69636
                ]
            },
            "properties": {
                "ref:rspo": 122485,
                "official_name": "Niepubliczne Przedszkole \u201eR\u00f3\u017cowy S\u0142o\u0144\u201d",
                "name": "Niepubliczne Przedszkole \u201eR\u00f3\u017cowy S\u0142o\u0144\u201d",
                "addr:country": "PL",
                "addr:postcode": "27-600",
                "addr:city": "Sandomierz",
                "addr:street": "Doktora Aleksandra Dobkiewicza",
                "addr:housenumber": "12",
                "addr:teryt:simc": 980926,
                "addr:teryt:sym_ul": 3923,
                "contact:phone": "+48 697619550",
                "contact:email": "malduda@interia.pl",
                "contact:website": "http:\/\/www.przedszkolerozowyslon.pl",
                "ref:regon": "260753531",
                "operator": "Ma\u0142gorzata Duda",
                "operator:type": "private",
                "amenity": "kindergarten"
            }
        },
        {
            "id": 86744,
            "type": "Feature",
            "geometry": {
                "type": "Point",
                "coordinates": [
                    21.71742,
                    50.69786
                ]
            },
            "properties": {
                "ref:rspo": 86744,
                "official_name": "O\u015brodek Kszta\u0142cenia Ustawicznego \u201eSannort\u201d",
                "name": "O\u015brodek Kszta\u0142cenia Ustawicznego \u201eSannort\u201d",
                "addr:country": "PL",
                "addr:postcode": "27-600",
                "addr:city": "Sandomierz",
                "addr:street": "O\u017carowska",
                "addr:housenumber": "75",
                "addr:teryt:simc": 980926,
                "addr:teryt:sym_ul": 15494,
                "contact:phone": "+48 158332664",
                "contact:email": "info.sandomierz@sannort.pl",
                "ref:regon": "260649621",
                "operator": "Sannort Sp\u00f3\u0142ka Z Ograniczon\u0105 Odpowiedzialno\u015bci\u0105",
                "operator:type": "private",
                "fixme": "w zale\u017cno\u015bci od przedmiotu dzia\u0142alno\u015bci (np. amenity=training + training=*, amenity=dancing_school, amenity=language_school, amenity=music_school)"
            }
        },
        {
            "id": 75778,
            "type": "Feature",
            "geometry": {
                "type": "Point",
                "coordinates": [
                    21.74992,
                    50.69842
                ]
            },
            "properties": {
                "isced:level": "4",
                "ref:rspo": 75778,
                "official_name": "Medyczna Szko\u0142a Policealna w Sandomierzu",
                "name": "Medyczna Szko\u0142a Policealna w Sandomierzu",
                "addr:country": "PL",
                "addr:postcode": "27-600",
                "addr:city": "Sandomierz",
                "addr:street": "Doktora Zygmunta Schinzla",
                "addr:housenumber": "11",
                "addr:teryt:simc": 980926,
                "addr:teryt:sym_ul": 34347,
                "contact:phone": "+48 158328600",
                "contact:email": "medsan@poczta.onet.pl",
                "ref:regon": "260649526",
                "ref:vatin": "PL8641021721",
                "operator": "Julia Skoczylas",
                "operator:type": "private",
                "amenity": "college"
            }
        },
        {
            "id": 29558,
            "type": "Feature",
            "geometry": {
                "type": "Point",
                "coordinates": [
                    21.7617699,
                    50.69899
                ]
            },
            "properties": {
                "ref:rspo": 29558,
                "official_name": "Zesp\u00f3\u0142 Szk\u00f3\u0142 Centrum Kszta\u0142cenia Rolniczego im. Ziemi Sandomierskiej w Sandomierzu-Mokoszynie",
                "name": "Zesp\u00f3\u0142 Szk\u00f3\u0142 Centrum Kszta\u0142cenia Rolniczego",
                "addr:country": "PL",
                "addr:postcode": "27-600",
                "addr:city": "Sandomierz",
                "addr:street": "Mokoszy\u0144ska",
                "addr:housenumber": "1",
                "addr:teryt:simc": 980926,
                "addr:teryt:sym_ul": 27365,
                "contact:phone": "+48 158323471",
                "contact:email": "mokoszyn1@interia.pl",
                "contact:website": "http:\/\/www.mokoszyn.pl",
                "ref:regon": "292450509",
                "ref:vatin": "PL8641204172",
                "operator": "Ministerstwo Rolnictwa I Rozwoju Wsi",
                "operator:type": "public",
                "landuse": "education",
                "fixme": "amenity=school, amenity=college albo landuse=education w zale\u017cno\u015bci od tego, jakie plac\u00f3wki wchodz\u0105 w sk\u0142ad zespo\u0142u. Sprawd\u017a, kiedy stosowa\u0107 amenity=* a kiedy landuse=education.",
                "note": "Children RSPO: 85069;87716;87718;87719"
            }
        },
        {
            "id": 85069,
            "type": "Feature",
            "geometry": {
                "type": "Point",
                "coordinates": [
                    21.7617699,
                    50.69896
                ]
            },
            "properties": {
                "isced:level": "3",
                "ref:rspo": 85069,
                "official_name": "Technikum w Sandomierzu",
                "name": "Technikum w Sandomierzu",
                "addr:country": "PL",
                "addr:postcode": "27-600",
                "addr:city": "Sandomierz",
                "addr:street": "Mokoszy\u0144ska",
                "addr:housenumber": "1",
                "addr:teryt:simc": 980926,
                "addr:teryt:sym_ul": 27365,
                "contact:phone": "+48 158323471",
                "contact:email": "mokoszyn1@interia.pl",
                "contact:website": "http:\/\/www.mokoszyn.pl",
                "ref:regon": "292450366",
                "operator": "Ministerstwo Rolnictwa I Rozwoju Wsi",
                "operator:type": "public",
                "amenity": "school",
                "note": "Parent RSPO: 29558"
            }
        },
        {
            "id": 87716,
            "type": "Feature",
            "geometry": {
                "type": "Point",
                "coordinates": [
                    21.7617699,
                    50.698930000000004
                ]
            },
            "properties": {
                "isced:level": "3",
                "ref:rspo": 87716,
                "official_name": "Bran\u017cowa Szko\u0142a I Stopnia w Sandomierzu",
                "name": "Bran\u017cowa Szko\u0142a I Stopnia w Sandomierzu",
                "addr:country": "PL",
                "addr:postcode": "27-600",
                "addr:city": "Sandomierz",
                "addr:street": "Mokoszy\u0144ska",
                "addr:housenumber": "1",
                "addr:teryt:simc": 980926,
                "addr:teryt:sym_ul": 27365,
                "contact:phone": "+48 158323471",
                "contact:email": "mokoszyn1@interia.pl",
                "contact:website": "http:\/\/www.mokoszyn.pl",
                "ref:regon": "292450337",
                "operator": "Ministerstwo Rolnictwa I Rozwoju Wsi",
                "operator:type": "public",
                "amenity": "school",
                "note": "Parent RSPO: 29558"
            }
        },
        {
            "id": 87718,
            "type": "Feature",
            "geometry": {
                "type": "Point",
                "coordinates": [
                    21.7617699,
                    50.6989
                ]
            },
            "properties": {
                "isced:level": "4",
                "ref:rspo": 87718,
                "official_name": "Szko\u0142a Policealna w Sandomierzu",
                "name": "Szko\u0142a Policealna w Sandomierzu",
                "addr:country": "PL",
                "addr:postcode": "27-600",
                "addr:city": "Sandomierz",
                "addr:street": "Mokoszy\u0144ska",
                "addr:housenumber": "1",
                "addr:teryt:simc": 980926,
                "addr:teryt:sym_ul": 27365,
                "contact:phone": "+48 158323471",
                "contact:email": "mokoszyn1@interia.pl",
                "contact:website": "http:\/\/www.mokoszyn.pl",
                "ref:regon": "260047052",
                "operator": "Ministerstwo Rolnictwa I Rozwoju Wsi",
                "operator:type": "public",
                "amenity": "college",
                "note": "Parent RSPO: 29558"
            }
        },
        {
            "id": 87719,
            "type": "Feature",
            "geometry": {
                "type": "Point",
                "coordinates": [
                    21.7617699,
                    50.69887
                ]
            },
            "properties": {
                "ref:rspo": 87719,
                "official_name": "Rolnicze Centrum Kszta\u0142cenia Ustawicznego w Sandomierzu",
                "name": "Rolnicze Centrum Kszta\u0142cenia Ustawicznego w Sandomierzu",
                "addr:country": "PL",
                "addr:postcode": "27-600",
                "addr:city": "Sandomierz",
                "addr:street": "Mokoszy\u0144ska",
                "addr:housenumber": "1",
                "addr:teryt:simc": 980926,
                "addr:teryt:sym_ul": 27365,
                "contact:phone": "+48 158323471",
                "contact:email": "mokoszyn1@interia.pl",
                "contact:website": "http:\/\/www.mokoszyn.pl",
                "ref:regon": "260649696",
                "operator": "Ministerstwo Rolnictwa I Rozwoju Wsi",
                "operator:type": "public",
                "fixme": "w zale\u017cno\u015bci od przedmiotu dzia\u0142alno\u015bci (np. amenity=training + training=*, amenity=dancing_school, amenity=language_school, amenity=music_school)",
                "note": "Parent RSPO: 29558"
            }
        }
    ]
}