{
    "type": "FeatureCollection",
    "features": [
        {
            "id": 55430,
            "type": "Feature",
            "geometry": {
                "type": "Point",
                "coordinates": [
                    21.58293,
                    50.52561
                ]
            },
            "properties": {
                "isced:level": "1;2",
                "ref:rspo": 55430,
                "official_name": "Publiczna Szko\u0142a Podstawowa im. Jana Paw\u0142a II w \u0141\u0105\u017cku",
                "name": "Publiczna Szko\u0142a Podstawowa",
                "addr:postcode": "27-670",
                "addr:place": "\u0141\u0105\u017cek",
                "addr:housenumber": "58",
                "addr:city:simc": 797866,
                "phone": "+48 601903466",
                "email": "lazek@autograf.pl",
                "website": "http:\/\/www.psplazek.pl",
                "ref:regon": "001186900",
                "ref:vatin": "PL8641750762",
                "operator": "Gmina \u0141oni\u00f3w",
                "operator:type": "government",
                "amenity": "school"
            }
        },
        {
            "id": 126798,
            "type": "Feature",
            "geometry": {
                "type": "Point",
                "coordinates": [
                    21.58293,
                    50.52558
                ]
            },
            "properties": {
                "ref:rspo": 126798,
                "official_name": "Punkt Przedszkolny w Szkole Podstawowej w \u0141\u0105\u017cku",
                "name": "Punkt Przedszkolny w Szkole Podstawowej w \u0141\u0105\u017cku",
                "addr:postcode": "27-670",
                "addr:place": "\u0141\u0105\u017cek",
                "addr:housenumber": "58",
                "addr:city:simc": 797866,
                "phone": "+48 601903466",
                "email": "lazek@autograf.pl",
                "website": "http:\/\/www.psplazek.pl",
                "ref:regon": "360740034",
                "operator": "Gmina \u0141oni\u00f3w",
                "operator:type": "government",
                "amenity": "kindergarten"
            }
        },
        {
            "id": 81136,
            "type": "Feature",
            "geometry": {
                "type": "Point",
                "coordinates": [
                    21.54209,
                    50.54381
                ]
            },
            "properties": {
                "ref:rspo": 81136,
                "official_name": "Zesp\u00f3\u0142 Szko\u0142y I Przedszkola w \u015awiniarach Starych",
                "name": "Zesp\u00f3\u0142 Szko\u0142y I Przedszkola w \u015awiniarach Starych",
                "addr:postcode": "27-670",
                "addr:place": "\u015awiniary Stare",
                "addr:housenumber": "131",
                "addr:city:simc": 798156,
                "phone": "+48 793839999",
                "email": "pspswiniary@wp.pl",
                "website": "http:\/\/www.zsipswiniary.szkolnastrona.pl",
                "ref:regon": "260648515",
                "operator": "Gmina \u0141oni\u00f3w",
                "operator:type": "government",
                "landuse": "education",
                "fixme": "amenity=school, amenity=college albo landuse=education w zale\u017cno\u015bci od tego, jakie plac\u00f3wki wchodz\u0105 w sk\u0142ad zespo\u0142u. Sprawd\u017a, kiedy stosowa\u0107 amenity=* a kiedy landuse=education.",
                "note": "Children RSPO: 89561;89562"
            }
        },
        {
            "id": 89561,
            "type": "Feature",
            "geometry": {
                "type": "Point",
                "coordinates": [
                    21.54209,
                    50.54378
                ]
            },
            "properties": {
                "ref:rspo": 89561,
                "official_name": "Publiczne Przedszkole w \u015awiniarach Starych",
                "name": "Publiczne Przedszkole w \u015awiniarach Starych",
                "addr:postcode": "27-670",
                "addr:place": "\u015awiniary Stare",
                "addr:housenumber": "131",
                "addr:city:simc": 798156,
                "phone": "+48 793839999",
                "email": "pspswiniary@wp.pl",
                "website": "http:\/\/www.zsipswiniary.loniow.pl",
                "ref:regon": "292444012",
                "ref:vatin": "PL8641750880",
                "operator": "Gmina \u0141oni\u00f3w",
                "operator:type": "government",
                "amenity": "kindergarten",
                "note": "Parent RSPO: 81136"
            }
        },
        {
            "id": 89562,
            "type": "Feature",
            "geometry": {
                "type": "Point",
                "coordinates": [
                    21.54209,
                    50.54375
                ]
            },
            "properties": {
                "isced:level": "1;2",
                "ref:rspo": 89562,
                "official_name": "Publiczna Szko\u0142a Podstawowa im. B\u0142ogos\u0142awionego Jana Paw\u0142a II w \u015awiniarach Starych",
                "name": "Publiczna Szko\u0142a Podstawowa",
                "addr:postcode": "27-670",
                "addr:place": "\u015awiniary Stare",
                "addr:housenumber": "131",
                "addr:city:simc": 798156,
                "phone": "+48 793831037",
                "email": "pspswiniary@wp.pl",
                "website": "http:\/\/www.zsipswiniary.loniow.pl",
                "ref:regon": "001186923",
                "ref:vatin": "PL8641750905",
                "operator": "Gmina \u0141oni\u00f3w",
                "operator:type": "government",
                "amenity": "school",
                "note": "Parent RSPO: 81136"
            }
        },
        {
            "id": 55429,
            "type": "Feature",
            "geometry": {
                "type": "Point",
                "coordinates": [
                    21.52243,
                    50.56244
                ]
            },
            "properties": {
                "ref:rspo": 55429,
                "official_name": "Publiczne Przedszkole w \u0141oniowie",
                "name": "Publiczne Przedszkole w \u0141oniowie",
                "addr:postcode": "27-670",
                "addr:place": "\u0141oni\u00f3w",
                "addr:housenumber": "104",
                "addr:city:simc": 797903,
                "phone": "+48 158669122",
                "email": "pploniow@loniow.pl",
                "ref:regon": "830006603",
                "ref:vatin": "PL8641750779",
                "operator": "Gmina \u0141oni\u00f3w",
                "operator:type": "government",
                "amenity": "kindergarten"
            }
        },
        {
            "id": 89594,
            "type": "Feature",
            "geometry": {
                "type": "Point",
                "coordinates": [
                    21.52243,
                    50.56241
                ]
            },
            "properties": {
                "isced:level": "1;2",
                "ref:rspo": 89594,
                "official_name": "Publiczna Szko\u0142a Podstawowa im. \u015aw. Jana Paw\u0142a II w \u0141oniowie",
                "name": "Publiczna Szko\u0142a Podstawowa",
                "addr:postcode": "27-670",
                "addr:place": "\u0141oni\u00f3w",
                "addr:housenumber": "104",
                "addr:city:simc": 797903,
                "phone": "+48 158669365",
                "email": "pzsloniow@loniow.pl",
                "website": "http:\/\/www.zsloniow.szkolnastrona.pl",
                "ref:regon": "001016291",
                "ref:vatin": "PL8641750897",
                "operator": "Gmina \u0141oni\u00f3w",
                "operator:type": "government",
                "amenity": "school"
            }
        },
        {
            "id": 89563,
            "type": "Feature",
            "geometry": {
                "type": "Point",
                "coordinates": [
                    21.47234,
                    50.58804
                ]
            },
            "properties": {
                "isced:level": "1;2",
                "ref:rspo": 89563,
                "official_name": "Publiczna Szko\u0142a Podstawowa im. Oddzia\u0142u Partyzanckiego \u201eJ\u0119drusie\u201d w Sulis\u0142awicach",
                "name": "Publiczna Szko\u0142a Podstawowa",
                "addr:postcode": "27-670",
                "addr:place": "Sulis\u0142awice",
                "addr:housenumber": "120",
                "addr:city:simc": 798216,
                "phone": "+48 158669366",
                "email": "spsulislawice@loniow.pl",
                "website": "http:\/\/www.spsulislawice.pl",
                "ref:regon": "001186917",
                "ref:vatin": "PL8641750756",
                "operator": "Gmina \u0141oni\u00f3w",
                "operator:type": "government",
                "amenity": "school"
            }
        },
        {
            "id": 126799,
            "type": "Feature",
            "geometry": {
                "type": "Point",
                "coordinates": [
                    21.47234,
                    50.58801
                ]
            },
            "properties": {
                "ref:rspo": 126799,
                "official_name": "Punkt Przedszkolny w Szkole Podstawowej w Sulis\u0142awicach",
                "name": "Punkt Przedszkolny w Szkole Podstawowej w Sulis\u0142awicach",
                "addr:postcode": "27-670",
                "addr:place": "Sulis\u0142awice",
                "addr:housenumber": "120",
                "addr:city:simc": 798216,
                "phone": "+48 505511172",
                "email": "spsulislawice@loniow.pl",
                "website": "http:\/\/www.spsulislawice.pl",
                "ref:regon": "360740130",
                "operator": "Gmina \u0141oni\u00f3w",
                "operator:type": "government",
                "amenity": "kindergarten"
            }
        },
        {
            "id": 55427,
            "type": "Feature",
            "geometry": {
                "type": "Point",
                "coordinates": [
                    21.4432,
                    50.6013499
                ]
            },
            "properties": {
                "isced:level": "1;2",
                "ref:rspo": 55427,
                "official_name": "Publiczna Szko\u0142a Podstawowa w Gieraszowicach",
                "name": "Publiczna Szko\u0142a Podstawowa w Gieraszowicach",
                "addr:postcode": "27-670",
                "addr:place": "Gieraszowice",
                "addr:housenumber": "67",
                "addr:city:simc": 797760,
                "phone": "+48 505431351",
                "email": "pspgieraszowice@loniow.pl",
                "website": "http:\/\/pspgieraszowice.pl",
                "ref:regon": "001186892",
                "ref:vatin": "PL8641750791",
                "operator": "Gmina \u0141oni\u00f3w",
                "operator:type": "government",
                "amenity": "school"
            }
        },
        {
            "id": 126797,
            "type": "Feature",
            "geometry": {
                "type": "Point",
                "coordinates": [
                    21.4432,
                    50.6013199
                ]
            },
            "properties": {
                "ref:rspo": 126797,
                "official_name": "Punkt Przedszkolny w Publicznej Szkole Podstawowej w Gieraszowicach",
                "name": "Punkt Przedszkolny w Publicznej Szkole Podstawowej w Gieraszowicach",
                "addr:postcode": "27-670",
                "addr:place": "Gieraszowice",
                "addr:housenumber": "67",
                "addr:city:simc": 797760,
                "phone": "+48 505431351",
                "email": "pspgieraszowice@loniow.pl",
                "website": "http:\/\/pspgieraszowice.pl",
                "ref:regon": "360739930",
                "operator": "Gmina \u0141oni\u00f3w",
                "operator:type": "government",
                "amenity": "kindergarten"
            }
        }
    ]
}