{
    "type": "FeatureCollection",
    "features": [
        {
            "id": 26351,
            "type": "Feature",
            "geometry": {
                "type": "Point",
                "coordinates": [
                    21.65729,
                    50.74906
                ]
            },
            "properties": {
                "isced:level": "1;2",
                "ref:rspo": 26351,
                "official_name": "Szko\u0142a Podstawowa im. Stanis\u0142awa M\u0142odo\u017ce\u0144ca w Wilczycach",
                "name": "Szko\u0142a Podstawowa",
                "addr:postcode": "27-612",
                "addr:place": "Wilczyce",
                "addr:housenumber": "177",
                "addr:teryt:simc": 809687,
                "phone": "+48 158377273",
                "email": "wilczyce@vp.pl",
                "website": "http:\/\/szkolawilczyce.pl",
                "ref:regon": "001016256",
                "ref:vatin": "PL8641679219",
                "operator": "Gmina Wilczyce",
                "operator:type": "government",
                "amenity": "school"
            }
        },
        {
            "id": 268775,
            "type": "Feature",
            "geometry": {
                "type": "Point",
                "coordinates": [
                    21.65729,
                    50.74903
                ]
            },
            "properties": {
                "ref:rspo": 268775,
                "official_name": "Punkt Przedszkolny w Wilczycach",
                "name": "Punkt Przedszkolny w Wilczycach",
                "addr:postcode": "27-612",
                "addr:place": "Wilczyce",
                "addr:housenumber": "177",
                "addr:teryt:simc": 809687,
                "phone": "+48 158377273",
                "email": "wilczyce@vp.pl",
                "ref:regon": "381248578",
                "operator": "Gmina Wilczyce",
                "operator:type": "government",
                "amenity": "kindergarten"
            }
        },
        {
            "id": 26352,
            "type": "Feature",
            "geometry": {
                "type": "Point",
                "coordinates": [
                    21.70145,
                    50.76334
                ]
            },
            "properties": {
                "isced:level": "1;2",
                "ref:rspo": 26352,
                "official_name": "Szko\u0142a Podstawowa w \u0141ukawie",
                "name": "Szko\u0142a Podstawowa w \u0141ukawie",
                "addr:postcode": "27-612",
                "addr:place": "\u0141ukawa",
                "addr:housenumber": "83",
                "addr:teryt:simc": 809470,
                "phone": "+48 158377222",
                "email": "splukawa@interia.pl",
                "ref:regon": "260646019",
                "operator": "Stowarzyszenie Na Rzecz Wsparcia Rozwoju So\u0142ectwa \u0141ukawa \"Wsp\u00f3lnota Wiejska\"",
                "operator:type": "ngo",
                "amenity": "school"
            }
        },
        {
            "id": 39133,
            "type": "Feature",
            "geometry": {
                "type": "Point",
                "coordinates": [
                    21.70145,
                    50.76331
                ]
            },
            "properties": {
                "ref:rspo": 39133,
                "official_name": "Niepubliczny Punkt Przedszkolny w \u0141ukawie",
                "name": "Niepubliczny Punkt Przedszkolny w \u0141ukawie",
                "addr:postcode": "27-612",
                "addr:place": "\u0141ukawa",
                "addr:housenumber": "83",
                "addr:teryt:simc": 809470,
                "phone": "+48 158377222",
                "email": "splukawa@interia.pl",
                "ref:regon": "260640519",
                "operator": "Stowarzyszenie Na Rzecz Wsparcia Rozwoju So\u0142ectwa \u0141ukawa \"Wsp\u00f3lnota Wiejska\"",
                "operator:type": "ngo",
                "amenity": "kindergarten"
            }
        },
        {
            "id": 17474,
            "type": "Feature",
            "geometry": {
                "type": "Point",
                "coordinates": [
                    21.60384,
                    50.78027
                ]
            },
            "properties": {
                "isced:level": "1;2",
                "ref:rspo": 17474,
                "official_name": "Szko\u0142a Podstawowa w Darominie",
                "name": "Szko\u0142a Podstawowa w Darominie",
                "addr:postcode": "27-612",
                "addr:place": "Daromin",
                "addr:housenumber": "128",
                "addr:teryt:simc": 809351,
                "phone": "+48 158377289",
                "email": "spdaromin1@op.pl",
                "ref:regon": "260634341",
                "operator": "Stowarzyszenie Na Rzecz Wsparcia Rozwoju So\u0142ectwa Daromin \"Moja Miejscowo\u015b\u0107\"",
                "operator:type": "ngo",
                "amenity": "school"
            }
        },
        {
            "id": 17475,
            "type": "Feature",
            "geometry": {
                "type": "Point",
                "coordinates": [
                    21.60384,
                    50.78024
                ]
            },
            "properties": {
                "ref:rspo": 17475,
                "official_name": "Punkt Przedszkolny \u201eNa Wzg\u00f3rzu\u201d w Darominie",
                "name": "Punkt Przedszkolny \u201eNa Wzg\u00f3rzu\u201d w Darominie",
                "addr:postcode": "27-612",
                "addr:place": "Daromin",
                "addr:housenumber": "128",
                "addr:teryt:simc": 809351,
                "phone": "+48 158377289",
                "email": "spdaromin1@op.pl",
                "ref:regon": "260634358",
                "operator": "Stowarzyszenie Na Rzecz Wsparcia Rozwoju So\u0142ectwa Daromin \"Moja Miejscowo\u015b\u0107\"",
                "operator:type": "ngo",
                "amenity": "kindergarten"
            }
        }
    ]
}