{
    "type": "FeatureCollection",
    "features": [
        {
            "id": 14231,
            "type": "Feature",
            "geometry": {
                "type": "Point",
                "coordinates": [
                    21.57992,
                    50.68001
                ]
            },
            "properties": {
                "isced:level": "1;2",
                "ref:rspo": 14231,
                "official_name": "Publiczna Szko\u0142a Podstawowa im. \u015aw. Jadwigi Kr\u00f3lowej w Bilczy",
                "name": "Publiczna Szko\u0142a Podstawowa",
                "addr:country": "PL",
                "addr:postcode": "27-641",
                "addr:place": "Bilcza",
                "addr:housenumber": "75",
                "addr:teryt:simc": 800568,
                "contact:phone": "+48 158365252",
                "contact:email": "spbilcza1@op.pl",
                "contact:website": "http:\/\/pspbilcza.szkolnastrona.pl",
                "ref:regon": "001186449",
                "operator": "Gmina Obraz\u00f3w",
                "operator:type": "government",
                "amenity": "school"
            }
        },
        {
            "id": 119275,
            "type": "Feature",
            "geometry": {
                "type": "Point",
                "coordinates": [
                    21.57992,
                    50.67998
                ]
            },
            "properties": {
                "ref:rspo": 119275,
                "official_name": "Punkt Przedszkolny Przy Publicznej Szkole Podstawowej w Bilczy",
                "name": "Punkt Przedszkolny Przy Publicznej Szkole Podstawowej w Bilczy",
                "addr:country": "PL",
                "addr:postcode": "27-641",
                "addr:place": "Bilcza",
                "addr:housenumber": "75",
                "addr:teryt:simc": 800568,
                "contact:phone": "+48 606823361",
                "contact:email": "stowbilcza@wp.pl",
                "ref:regon": "260717162",
                "operator": "Stowarzyszenie Przyjaci\u00f3\u0142 Szko\u0142y W Bilczy K\/Sandomierza",
                "operator:type": "ngo",
                "amenity": "kindergarten"
            }
        },
        {
            "id": 40053,
            "type": "Feature",
            "geometry": {
                "type": "Point",
                "coordinates": [
                    21.65771,
                    50.68991
                ]
            },
            "properties": {
                "ref:rspo": 40053,
                "official_name": "Punkt Przedszkolny Przy Publicznej Szkole Podstawowej w Obrazowie",
                "name": "Punkt Przedszkolny Przy Publicznej Szkole Podstawowej w Obrazowie",
                "addr:country": "PL",
                "addr:postcode": "27-641",
                "addr:place": "Obraz\u00f3w",
                "addr:housenumber": "118",
                "addr:teryt:simc": 800924,
                "contact:phone": "+48 502111719",
                "contact:email": "naszregionst@gmail.com",
                "ref:regon": "260640608",
                "ref:vatin": "PL8641949038",
                "operator": "Stowarzyszenie \"Nasz Region\"",
                "operator:type": "ngo",
                "amenity": "kindergarten"
            }
        },
        {
            "id": 40614,
            "type": "Feature",
            "geometry": {
                "type": "Point",
                "coordinates": [
                    21.65771,
                    50.689879999999995
                ]
            },
            "properties": {
                "isced:level": "1;2",
                "ref:rspo": 40614,
                "official_name": "Publiczna Szko\u0142a Podstawowa w Obrazowie",
                "name": "Publiczna Szko\u0142a Podstawowa w Obrazowie",
                "addr:country": "PL",
                "addr:postcode": "27-641",
                "addr:place": "Obraz\u00f3w",
                "addr:housenumber": "118",
                "addr:teryt:simc": 800924,
                "contact:phone": "+48 158365175",
                "contact:email": "zsobrazow@o2.pl",
                "contact:website": "http:\/\/www.zsobrazow.pl",
                "ref:regon": "000719145",
                "ref:vatin": "PL8641689620",
                "operator": "Gmina Obraz\u00f3w",
                "operator:type": "government",
                "amenity": "school"
            }
        },
        {
            "id": 40181,
            "type": "Feature",
            "geometry": {
                "type": "Point",
                "coordinates": [
                    21.61872,
                    50.70041
                ]
            },
            "properties": {
                "ref:rspo": 40181,
                "official_name": "Punkt Przedszkolny Przy Publicznej Szkole Podstawowej w G\u0142azowie",
                "name": "Punkt Przedszkolny Przy Publicznej Szkole Podstawowej w G\u0142azowie",
                "addr:country": "PL",
                "addr:postcode": "27-641",
                "addr:place": "G\u0142az\u00f3w",
                "addr:housenumber": "80",
                "addr:teryt:simc": 800700,
                "contact:phone": "+48 502111719",
                "contact:email": "naszregionst@gmail.com",
                "ref:regon": "260640689",
                "ref:vatin": "PL8641949038",
                "operator": "Stowarzyszenie \"Nasz Region\"",
                "operator:type": "ngo",
                "amenity": "kindergarten"
            }
        },
        {
            "id": 106028,
            "type": "Feature",
            "geometry": {
                "type": "Point",
                "coordinates": [
                    21.61872,
                    50.700379999999996
                ]
            },
            "properties": {
                "isced:level": "1;2",
                "ref:rspo": 106028,
                "official_name": "Publiczna Szko\u0142a Podstawowa w G\u0142azowie",
                "name": "Publiczna Szko\u0142a Podstawowa w G\u0142azowie",
                "addr:country": "PL",
                "addr:postcode": "27-641",
                "addr:place": "G\u0142az\u00f3w",
                "addr:housenumber": "80",
                "addr:teryt:simc": 800700,
                "contact:phone": "+48 158365183",
                "contact:email": "pspglazow@op.pl",
                "ref:regon": "260660574",
                "operator": "Stowarzyszenie \"Nasz Region\"",
                "operator:type": "ngo",
                "amenity": "school"
            }
        },
        {
            "id": 14265,
            "type": "Feature",
            "geometry": {
                "type": "Point",
                "coordinates": [
                    21.57074,
                    50.7172399
                ]
            },
            "properties": {
                "isced:level": "1;2",
                "ref:rspo": 14265,
                "official_name": "Publiczna Szko\u0142a Podstawowa im. Batalion\u00f3w Ch\u0142opskich w Kleczanowie",
                "name": "Publiczna Szko\u0142a Podstawowa",
                "addr:country": "PL",
                "addr:postcode": "27-641",
                "addr:place": "Kleczan\u00f3w",
                "addr:housenumber": "145",
                "addr:teryt:simc": 800775,
                "contact:phone": "+48 158366107",
                "contact:email": "pspkleczanow@interia.pl",
                "contact:website": "http:\/\/pspkleczanow.szkolnastrona.pl",
                "ref:regon": "001186478",
                "operator": "Gmina Obraz\u00f3w",
                "operator:type": "government",
                "amenity": "school"
            }
        },
        {
            "id": 40068,
            "type": "Feature",
            "geometry": {
                "type": "Point",
                "coordinates": [
                    21.57074,
                    50.7172099
                ]
            },
            "properties": {
                "ref:rspo": 40068,
                "official_name": "Punkt Przedszkolny \u201eAkademia Przedszkolaka\u201d Przy Publicznej Szkole Podstawowej w Kleczanowie",
                "name": "Punkt Przedszkolny \u201eAkademia Przedszkolaka\u201d Przy Publicznej Szkole Podstawowej w Kleczanowie",
                "addr:country": "PL",
                "addr:postcode": "27-641",
                "addr:place": "Kleczan\u00f3w",
                "addr:housenumber": "145",
                "addr:teryt:simc": 800775,
                "contact:phone": "+48 502111719",
                "contact:email": "naszregionst@gmail.com",
                "contact:website": "http:\/\/www.stowarzyszenienaszregion.pl",
                "ref:regon": "260640666",
                "operator": "Stowarzyszenie \"Nasz Region\"",
                "operator:type": "ngo",
                "amenity": "kindergarten"
            }
        }
    ]
}