{
    "type": "FeatureCollection",
    "features": [
        {
            "id": 3575,
            "type": "Feature",
            "geometry": {
                "type": "Point",
                "coordinates": [
                    21.7743,
                    50.70243
                ]
            },
            "properties": {
                "isced:level": "1;2",
                "ref:rspo": 3575,
                "official_name": "Szko\u0142a Podstawowa im. Kornela Makuszy\u0144skiego w Gierlachowie",
                "name": "Szko\u0142a Podstawowa",
                "addr:postcode": "27-600",
                "addr:place": "Gierlach\u00f3w",
                "addr:housenumber": "96",
                "addr:city:simc": 790114,
                "phone": "+48 158322613",
                "email": "s.p.gierlachow@op.pl",
                "ref:regon": "260624667",
                "operator": "Stowarzyszenie Przyjaci\u00f3\u0142 Przedszkola I Szko\u0142y W Gierlachowie K. Sandomierza",
                "operator:type": "ngo",
                "amenity": "school"
            }
        },
        {
            "id": 124138,
            "type": "Feature",
            "geometry": {
                "type": "Point",
                "coordinates": [
                    21.7743,
                    50.7024
                ]
            },
            "properties": {
                "ref:rspo": 124138,
                "official_name": "Niepubliczne Przedszkole \u201eS\u0142oneczko\u201d w Gierlachowie",
                "name": "Niepubliczne Przedszkole \u201eS\u0142oneczko\u201d w Gierlachowie",
                "addr:postcode": "27-600",
                "addr:place": "Gierlach\u00f3w",
                "addr:housenumber": "96",
                "addr:city:simc": 790114,
                "phone": "+48 158322613",
                "email": "s.p.gierlachow@op.pl",
                "ref:regon": "260788570",
                "operator": "Stowarzyszenie Przyjaci\u00f3\u0142 Przedszkola I Szko\u0142y W Gierlachowie K. Sandomierza",
                "operator:type": "ngo",
                "amenity": "kindergarten"
            }
        },
        {
            "id": 3433,
            "type": "Feature",
            "geometry": {
                "type": "Point",
                "coordinates": [
                    21.81561,
                    50.7058899
                ]
            },
            "properties": {
                "isced:level": "1;2",
                "ref:rspo": 3433,
                "official_name": "Szko\u0142a Podstawowa im. Jana Paw\u0142a II w M\u015bciowie",
                "name": "Szko\u0142a Podstawowa",
                "addr:postcode": "27-600",
                "addr:place": "M\u015bci\u00f3w",
                "addr:housenumber": "100",
                "addr:city:simc": 790261,
                "phone": "+48 158311730",
                "email": "sekretariat@spmsciow.pl",
                "website": "http:\/\/www.spmsciow.pl",
                "ref:regon": "260624644",
                "operator": "Stowarzyszenie O\u015bwiatowo - Kulturalne Przy Szkole Podstawowej Im. Jana Paw\u0142a Ii W M\u015bciowie",
                "operator:type": "ngo",
                "amenity": "school"
            }
        },
        {
            "id": 276933,
            "type": "Feature",
            "geometry": {
                "type": "Point",
                "coordinates": [
                    21.81561,
                    50.7058599
                ]
            },
            "properties": {
                "ref:rspo": 276933,
                "official_name": "Niepubliczne Przedszkole \u201eLolek\u201d w M\u015bciowie",
                "name": "Niepubliczne Przedszkole \u201eLolek\u201d w M\u015bciowie",
                "addr:postcode": "27-600",
                "addr:place": "M\u015bci\u00f3w",
                "addr:housenumber": "100",
                "addr:city:simc": 790261,
                "phone": "+48 158311730",
                "email": "sekretariat@spmsciow.pl",
                "ref:regon": "387859001",
                "operator": "Stowarzyszenie O\u015bwiatowo - Kulturalne Przy Szkole Podstawowej Im. Jana Paw\u0142a Ii W M\u015bciowie",
                "operator:type": "ngo",
                "amenity": "kindergarten"
            }
        },
        {
            "id": 48280,
            "type": "Feature",
            "geometry": {
                "type": "Point",
                "coordinates": [
                    21.78765,
                    50.73744
                ]
            },
            "properties": {
                "ref:rspo": 48280,
                "official_name": "Przedszkole Samorz\u0105dowe w Dwikozach",
                "name": "Przedszkole Samorz\u0105dowe w Dwikozach",
                "addr:postcode": "27-620",
                "addr:city": "Dwikozy",
                "addr:street": "Sp\u00f3\u0142dzielcza",
                "addr:housenumber": "12",
                "addr:city:simc": 789996,
                "addr:street:sym_ul": 20696,
                "phone": "+48 158311272",
                "email": "psdwikozy1@wp.pl",
                "website": "http:\/\/psdwikozy.szkolnastrona.pl",
                "ref:regon": "830006514",
                "ref:vatin": "PL8641673197",
                "operator": "Gmina Dwikozy",
                "operator:type": "government",
                "amenity": "kindergarten"
            }
        },
        {
            "id": 48284,
            "type": "Feature",
            "geometry": {
                "type": "Point",
                "coordinates": [
                    21.78193,
                    50.7378
                ]
            },
            "properties": {
                "isced:level": "1;2",
                "ref:rspo": 48284,
                "official_name": "Szko\u0142a Podstawowa im. Powsta\u0144c\u00f3w Styczniowych w Dwikozach",
                "name": "Szko\u0142a Podstawowa",
                "addr:postcode": "27-620",
                "addr:city": "Dwikozy",
                "addr:street": "Sp\u00f3\u0142dzielcza",
                "addr:housenumber": "21",
                "addr:city:simc": 789996,
                "addr:street:sym_ul": 20696,
                "phone": "+48 158311451",
                "email": "spdwik@poczta.onet.pl",
                "website": "http:\/\/www.spdwikozy.c0.pl",
                "ref:regon": "000655959",
                "ref:vatin": "PL8641673027",
                "operator": "Gmina Dwikozy",
                "operator:type": "government",
                "amenity": "school"
            }
        },
        {
            "id": 88006,
            "type": "Feature",
            "geometry": {
                "type": "Point",
                "coordinates": [
                    21.75778,
                    50.74441
                ]
            },
            "properties": {
                "isced:level": "1;2",
                "ref:rspo": 88006,
                "official_name": "Szko\u0142a Podstawowa im. Powsta\u0144c\u00f3w Styczniowych \u201ePu\u0142awiak\u00f3w\u201d w G\u00f3rach Wysokich",
                "name": "Szko\u0142a Podstawowa",
                "addr:postcode": "27-620",
                "addr:place": "G\u00f3ry Wysokie",
                "addr:housenumber": "61",
                "addr:city:simc": 790143,
                "phone": "+48 158311431",
                "email": "spgorywysokie@interia.pl",
                "ref:regon": "260651144",
                "operator": "Stowarzyszenie Na Rzecz Ekorozwoju Wsi G\u00f3ry Wysokie",
                "operator:type": "ngo",
                "amenity": "school"
            }
        },
        {
            "id": 72295,
            "type": "Feature",
            "geometry": {
                "type": "Point",
                "coordinates": [
                    21.77335,
                    50.7474
                ]
            },
            "properties": {
                "ref:rspo": 72295,
                "official_name": "Niepubliczne Przedszkole \u201eSmerf\u201d w G\u00f3rach Wysokich",
                "name": "Niepubliczne Przedszkole \u201eSmerf\u201d w G\u00f3rach Wysokich",
                "addr:postcode": "27-620",
                "addr:place": "G\u00f3ry Wysokie",
                "addr:housenumber": "46",
                "addr:city:simc": 790143,
                "phone": "+48 158311431",
                "email": "spgorywysokie@interia.pl",
                "ref:regon": "260646500",
                "operator": "Stowarzyszenie Na Rzecz Ekorozwoju Wsi G\u00f3ry Wysokie",
                "operator:type": "ngo",
                "amenity": "kindergarten"
            }
        },
        {
            "id": 3576,
            "type": "Feature",
            "geometry": {
                "type": "Point",
                "coordinates": [
                    21.80828,
                    50.7518699
                ]
            },
            "properties": {
                "isced:level": "1;2",
                "ref:rspo": 3576,
                "official_name": "Szko\u0142a Podstawowa im. Ziemi Sandomierskiej w S\u0142upczy",
                "name": "Szko\u0142a Podstawowa",
                "addr:postcode": "27-620",
                "addr:place": "S\u0142upcza",
                "addr:housenumber": "76",
                "addr:city:simc": 790516,
                "phone": "+48 158311460",
                "email": "spslupcza@gmail.com",
                "website": "http:\/\/www.szkolaslupcza.republika.pl",
                "ref:regon": "260624673",
                "operator": "Stowarzyszenie Inwestujemy W Przysz\u0142o\u015b\u0107 Przy Szkole Podstawowej W S\u0142upczy",
                "operator:type": "ngo",
                "amenity": "school"
            }
        },
        {
            "id": 3466,
            "type": "Feature",
            "geometry": {
                "type": "Point",
                "coordinates": [
                    21.7319,
                    50.75808
                ]
            },
            "properties": {
                "isced:level": "1;2",
                "ref:rspo": 3466,
                "official_name": "Szko\u0142a Podstawowa im. Wincentego Burka w Ga\u0142kowicach",
                "name": "Szko\u0142a Podstawowa",
                "addr:postcode": "27-620",
                "addr:place": "Ga\u0142kowice",
                "addr:housenumber": "21",
                "addr:city:simc": 790083,
                "phone": "+48 158377223",
                "email": "galkowice19wb@poczta.onet.pl",
                "website": "http:\/\/www.spgalkowice.c0.pl",
                "ref:regon": "260624650",
                "operator": "Stowarzyszenie Przyjaci\u00f3\u0142 Szko\u0142y Im. Wincentego Burka W Ga\u0142kowicach K. Sandomierza",
                "operator:type": "ngo",
                "amenity": "school"
            }
        },
        {
            "id": 126655,
            "type": "Feature",
            "geometry": {
                "type": "Point",
                "coordinates": [
                    21.7319,
                    50.75805
                ]
            },
            "properties": {
                "ref:rspo": 126655,
                "official_name": "Niepubliczne Przedszkole \u201eT\u0119czowa Kraina\u201d w Ga\u0142kowicach",
                "name": "Niepubliczne Przedszkole \u201eT\u0119czowa Kraina\u201d w Ga\u0142kowicach",
                "addr:postcode": "27-620",
                "addr:place": "Ga\u0142kowice",
                "addr:housenumber": "21",
                "addr:city:simc": 790083,
                "phone": "+48 158377223",
                "email": "galkowice19wb@poczta.onet.pl",
                "ref:regon": "360586350",
                "operator": "Stowarzyszenie Przyjaci\u00f3\u0142 Szko\u0142y Im. Wincentego Burka W Ga\u0142kowicach K. Sandomierza",
                "operator:type": "ngo",
                "amenity": "kindergarten"
            }
        },
        {
            "id": 3406,
            "type": "Feature",
            "geometry": {
                "type": "Point",
                "coordinates": [
                    21.76373,
                    50.77085
                ]
            },
            "properties": {
                "isced:level": "1;2",
                "ref:rspo": 3406,
                "official_name": "Szko\u0142a Podstawowa im. Zawiszy Czarnego Herbu Sulima w Starym Garbowie",
                "name": "Szko\u0142a Podstawowa",
                "addr:postcode": "27-620",
                "addr:place": "Stary Garb\u00f3w",
                "addr:housenumber": "82",
                "addr:city:simc": 790663,
                "phone": "+48 158341333",
                "email": "szkolagarbow@gmail.com",
                "ref:regon": "260624621",
                "ref:vatin": "PL8641949156",
                "operator": "Stowarzyszenie Edukacyjne Imienia Zawiszy Czarnego",
                "operator:type": "ngo",
                "amenity": "school"
            }
        },
        {
            "id": 123913,
            "type": "Feature",
            "geometry": {
                "type": "Point",
                "coordinates": [
                    21.76373,
                    50.77082
                ]
            },
            "properties": {
                "ref:rspo": 123913,
                "official_name": "Niepubliczne Przedszkole \u201eJab\u0142uszko\u201d w Starym Garbowie",
                "name": "Niepubliczne Przedszkole \u201eJab\u0142uszko\u201d w Starym Garbowie",
                "addr:postcode": "27-620",
                "addr:place": "Stary Garb\u00f3w",
                "addr:housenumber": "82",
                "addr:city:simc": 790663,
                "phone": "+48 158341333",
                "email": "szkolagarbow@gmail.com",
                "ref:regon": "260787040",
                "operator": "Stowarzyszenie Edukacyjne Imienia Zawiszy Czarnego",
                "operator:type": "ngo",
                "amenity": "kindergarten"
            }
        },
        {
            "id": 48281,
            "type": "Feature",
            "geometry": {
                "type": "Point",
                "coordinates": [
                    21.82013,
                    50.77479
                ]
            },
            "properties": {
                "isced:level": "1;2",
                "ref:rspo": 48281,
                "official_name": "Szko\u0142a Podstawowa im. Stefana \u017beromskiego w Winiarach",
                "name": "Szko\u0142a Podstawowa",
                "addr:postcode": "27-620",
                "addr:place": "Winiary",
                "addr:housenumber": "2",
                "addr:city:simc": 790781,
                "phone": "+48 506026040",
                "email": "winiaryszkola@gmail.com",
                "website": "https:\/\/sites.google.com\/site\/szpwiniary\/",
                "ref:regon": "260646255",
                "operator": "Stowarzyszenie Na Rzecz Ekorozwoju Wsi Winiarki, Winiary, K\u0119pa Chwa\u0142owska",
                "operator:type": "ngo",
                "amenity": "school"
            }
        },
        {
            "id": 48282,
            "type": "Feature",
            "geometry": {
                "type": "Point",
                "coordinates": [
                    21.82013,
                    50.77476
                ]
            },
            "properties": {
                "ref:rspo": 48282,
                "official_name": "Niepubliczne Przedszkole Przy Szkole Podstawowej w Winiarach",
                "name": "Niepubliczne Przedszkole Przy Szkole Podstawowej w Winiarach",
                "addr:postcode": "27-620",
                "addr:place": "Winiary",
                "addr:housenumber": "2",
                "addr:city:simc": 790781,
                "phone": "+48 158311190",
                "email": "sp.winiary@onet.eu",
                "website": "https:\/\/sites.google.com\/site\/szpslupcza\/",
                "ref:regon": "260641944",
                "operator": "Stowarzyszenie Na Rzecz Ekorozwoju Wsi Winiarki, Winiary, K\u0119pa Chwa\u0142owska",
                "operator:type": "ngo",
                "amenity": "kindergarten"
            }
        }
    ]
}