{
    "type": "FeatureCollection",
    "features": [
        {
            "id": 66172,
            "type": "Feature",
            "geometry": {
                "type": "Point",
                "coordinates": [
                    19.9311599,
                    52.09512
                ]
            },
            "properties": {
                "ref:rspo": 66172,
                "official_name": "Przedszkole Integracyjne Nr 6 \"Pod \u015awierkami\" w \u0141owiczu, Ul. Ksi\u0119\u017cacka 26",
                "name": "Przedszkole Integracyjne Nr 6 \"Pod \u015awierkami\" w \u0141owiczu, Ul. Ksi\u0119\u017cacka 26",
                "addr:country": "PL",
                "addr:postcode": "99-400",
                "addr:city": "\u0141owicz",
                "addr:street": "Ksi\u0119\u017cacka",
                "addr:housenumber": "26",
                "addr:teryt:simc": 10246,
                "addr:teryt:sym_ul": 977031,
                "contact:phone": "+48 468375303",
                "contact:email": "p10lowicz@op.pl",
                "contact:website": "http:\/\/www.p10lowicz.wikom.pl",
                "ref:regon": "750020588",
                "ref:vatin": "PL8341731200",
                "operator": "Miasto \u0141owicz",
                "operator:type": "government",
                "amenity": "kindergarten"
            }
        },
        {
            "id": 25572,
            "type": "Feature",
            "geometry": {
                "type": "Point",
                "coordinates": [
                    19.93671,
                    52.09534
                ]
            },
            "properties": {
                "ref:rspo": 25572,
                "official_name": "Specjalny O\u015brodek Szkolno-Wychowawczy im. Jana Brzechwy w \u0141owiczu",
                "name": "Specjalny O\u015brodek Szkolno-Wychowawczy",
                "addr:country": "PL",
                "addr:postcode": "99-400",
                "addr:city": "\u0141owicz",
                "addr:street": "Powsta\u0144c\u00f3w 1863 roku",
                "addr:housenumber": "12h",
                "addr:teryt:simc": 17356,
                "addr:teryt:sym_ul": 977031,
                "contact:phone": "+48 468375712",
                "contact:email": "sekretariatsoswlowicz@gmail.com",
                "contact:website": "http:\/\/www.soswlowicz.szkolnastrona.pl",
                "ref:regon": "000197244",
                "ref:vatin": "PL8341037468",
                "operator": "Powiat \u0141owicki",
                "operator:type": "government",
                "amenity": "school",
                "note": "Children RSPO: 53396;53399;53400;127999"
            }
        },
        {
            "id": 53396,
            "type": "Feature",
            "geometry": {
                "type": "Point",
                "coordinates": [
                    19.93671,
                    52.09531
                ]
            },
            "properties": {
                "isced:level": "1;2",
                "ref:rspo": 53396,
                "official_name": "Szko\u0142a Podstawowa Specjalna Specjalnego O\u015brodka Szkolno-Wychowawczego w \u0141owiczu",
                "name": "Szko\u0142a Podstawowa Specjalna Specjalnego O\u015brodka Szkolno-Wychowawczego w \u0141owiczu",
                "addr:country": "PL",
                "addr:postcode": "99-400",
                "addr:city": "\u0141owicz",
                "addr:street": "Powsta\u0144c\u00f3w 1863 roku",
                "addr:housenumber": "12h",
                "addr:teryt:simc": 17356,
                "addr:teryt:sym_ul": 977031,
                "contact:phone": "+48 468375712",
                "contact:email": "sekretariatsoswlowicz@gmail.com",
                "ref:regon": "000901571",
                "ref:vatin": "PL8341037468",
                "operator": "Powiat \u0141owicki",
                "operator:type": "government",
                "amenity": "school",
                "note": "Parent RSPO: 25572"
            }
        },
        {
            "id": 53399,
            "type": "Feature",
            "geometry": {
                "type": "Point",
                "coordinates": [
                    19.93671,
                    52.09528
                ]
            },
            "properties": {
                "ref:rspo": 53399,
                "official_name": "Szko\u0142a Specjalna Przysposabiaj\u0105ca Do Pracy w \u0141owiczu",
                "name": "Szko\u0142a Specjalna Przysposabiaj\u0105ca Do Pracy w \u0141owiczu",
                "addr:country": "PL",
                "addr:postcode": "99-400",
                "addr:city": "\u0141owicz",
                "addr:street": "Powsta\u0144c\u00f3w 1863 roku",
                "addr:housenumber": "12h",
                "addr:teryt:simc": 17356,
                "addr:teryt:sym_ul": 977031,
                "contact:phone": "+48 468375712",
                "contact:email": "sekretariatsoswlowicz@gmail.com",
                "ref:regon": "100246933",
                "ref:vatin": "PL8341037468",
                "operator": "Powiat \u0141owicki",
                "operator:type": "government",
                "amenity": "school",
                "note": "Parent RSPO: 25572"
            }
        },
        {
            "id": 53400,
            "type": "Feature",
            "geometry": {
                "type": "Point",
                "coordinates": [
                    19.93671,
                    52.09525
                ]
            },
            "properties": {
                "isced:level": "3",
                "ref:rspo": 53400,
                "official_name": "Bran\u017cowa Szko\u0142a Specjalna I Stopnia w \u0141owiczu",
                "name": "Bran\u017cowa Szko\u0142a Specjalna I Stopnia w \u0141owiczu",
                "addr:country": "PL",
                "addr:postcode": "99-400",
                "addr:city": "\u0141owicz",
                "addr:street": "Powsta\u0144c\u00f3w 1863 roku",
                "addr:housenumber": "12h",
                "addr:teryt:simc": 17356,
                "addr:teryt:sym_ul": 977031,
                "contact:phone": "+48 468375712",
                "contact:email": "sekretariatsoswlowicz@gmail.com",
                "ref:regon": "750152657",
                "operator": "Powiat \u0141owicki",
                "operator:type": "government",
                "amenity": "school",
                "note": "Parent RSPO: 25572"
            }
        },
        {
            "id": 127999,
            "type": "Feature",
            "geometry": {
                "type": "Point",
                "coordinates": [
                    19.93671,
                    52.09522
                ]
            },
            "properties": {
                "ref:rspo": 127999,
                "official_name": "Przedszkole Specjalne w Specjalnym O\u015brodku Szkolno-Wychowawczym w \u0141owiczu im. Jana Brzechwy w \u0141owiczu",
                "name": "Przedszkole Specjalne w Specjalnym O\u015brodku Szkolno-Wychowawczym w \u0141owiczu",
                "addr:country": "PL",
                "addr:postcode": "99-400",
                "addr:city": "\u0141owicz",
                "addr:street": "Powsta\u0144c\u00f3w 1863 roku",
                "addr:housenumber": "12h",
                "addr:teryt:simc": 17356,
                "addr:teryt:sym_ul": 977031,
                "contact:phone": "+48 468375772",
                "contact:email": "sekretariatsoswlowicz@gmail.com",
                "ref:regon": "362016727",
                "operator": "Powiat \u0141owicki",
                "operator:type": "government",
                "amenity": "kindergarten",
                "note": "Parent RSPO: 25572"
            }
        },
        {
            "id": 26342,
            "type": "Feature",
            "geometry": {
                "type": "Point",
                "coordinates": [
                    19.93556,
                    52.09549
                ]
            },
            "properties": {
                "ref:rspo": 26342,
                "official_name": "Zesp\u00f3\u0142 Szk\u00f3\u0142 Ponadpodstawowych Nr 3 im. W\u0142adys\u0142awa Stanis\u0142awa Reymonta w \u0141owiczu",
                "name": "Zesp\u00f3\u0142 Szk\u00f3\u0142 Ponadpodstawowych Nr 3",
                "addr:country": "PL",
                "addr:postcode": "99-400",
                "addr:city": "\u0141owicz",
                "addr:street": "Powsta\u0144c\u00f3w 1863 roku",
                "addr:housenumber": "12D",
                "addr:teryt:simc": 17356,
                "addr:teryt:sym_ul": 977031,
                "contact:phone": "+48 468370587",
                "contact:email": "zsz3lowicz@poczta.onet.pl",
                "contact:website": "http:\/\/www.zsp3.lowicz.pl",
                "ref:regon": "001254398",
                "ref:vatin": "PL8341421190",
                "operator": "Powiat \u0141owicki",
                "operator:type": "government",
                "landuse": "education",
                "fixme": "amenity=school, amenity=college albo landuse=education w zale\u017cno\u015bci od tego, jakie plac\u00f3wki wchodz\u0105 w sk\u0142ad zespo\u0142u. Sprawd\u017a, kiedy stosowa\u0107 amenity=* a kiedy landuse=education.",
                "note": "Children RSPO: 39190;39194;264518"
            }
        },
        {
            "id": 39190,
            "type": "Feature",
            "geometry": {
                "type": "Point",
                "coordinates": [
                    19.93556,
                    52.095459999999996
                ]
            },
            "properties": {
                "isced:level": "3",
                "ref:rspo": 39190,
                "official_name": "Bran\u017cowa Szko\u0142a I Stopnia Nr 3 w \u0141owiczu",
                "name": "Bran\u017cowa Szko\u0142a I Stopnia Nr 3 w \u0141owiczu",
                "addr:country": "PL",
                "addr:postcode": "99-400",
                "addr:city": "\u0141owicz",
                "addr:street": "Powsta\u0144c\u00f3w 1863 roku",
                "addr:housenumber": "12d",
                "addr:teryt:simc": 17356,
                "addr:teryt:sym_ul": 977031,
                "contact:phone": "+48 468370587",
                "contact:email": "zsz3lowicz@poczta.onet.pl",
                "ref:regon": "750719070",
                "ref:vatin": "PL8341421190",
                "operator": "Powiat \u0141owicki",
                "operator:type": "government",
                "amenity": "school",
                "note": "Parent RSPO: 26342"
            }
        },
        {
            "id": 39194,
            "type": "Feature",
            "geometry": {
                "type": "Point",
                "coordinates": [
                    19.93556,
                    52.09543
                ]
            },
            "properties": {
                "isced:level": "3",
                "ref:rspo": 39194,
                "official_name": "Technikum Nr 3 w \u0141owiczu w Zespole Szk\u00f3\u0142 Ponadpodstawowych Nr 3 Imienia W\u0142adys\u0142awa Stanis\u0142awa Reymonta w \u0141owiczu",
                "name": "Technikum Nr 3 w \u0141owiczu w Zespole Szk\u00f3\u0142 Ponadpodstawowych Nr 3 Imienia W\u0142adys\u0142awa Stanis\u0142awa Reymonta w \u0141owiczu",
                "addr:country": "PL",
                "addr:postcode": "99-400",
                "addr:city": "\u0141owicz",
                "addr:street": "Powsta\u0144c\u00f3w 1863 roku",
                "addr:housenumber": "12d",
                "addr:teryt:simc": 17356,
                "addr:teryt:sym_ul": 977031,
                "contact:phone": "+48 468370587",
                "contact:email": "zsz3lowicz@poczta.onet.pl",
                "ref:regon": "750719087",
                "ref:vatin": "PL8341421190",
                "operator": "Powiat \u0141owicki",
                "operator:type": "government",
                "amenity": "school",
                "note": "Parent RSPO: 26342"
            }
        },
        {
            "id": 264518,
            "type": "Feature",
            "geometry": {
                "type": "Point",
                "coordinates": [
                    19.93556,
                    52.0954
                ]
            },
            "properties": {
                "isced:level": "4",
                "ref:rspo": 264518,
                "official_name": "Szko\u0142a Policealna Nr 1 w \u0141owiczu",
                "name": "Szko\u0142a Policealna Nr 1 w \u0141owiczu",
                "addr:country": "PL",
                "addr:postcode": "99-400",
                "addr:city": "\u0141owicz",
                "addr:street": "Powsta\u0144c\u00f3w 1863 roku",
                "addr:housenumber": "12 D",
                "addr:teryt:simc": 17356,
                "addr:teryt:sym_ul": 977031,
                "contact:phone": "+48 468370587",
                "contact:email": "zsz3lowicz@poczta.onet.pl",
                "ref:regon": "100574034",
                "operator": "Powiat \u0141owicki",
                "operator:type": "government",
                "amenity": "college",
                "note": "Parent RSPO: 26342"
            }
        },
        {
            "id": 39161,
            "type": "Feature",
            "geometry": {
                "type": "Point",
                "coordinates": [
                    19.93039,
                    52.0957099
                ]
            },
            "properties": {
                "ref:rspo": 39161,
                "official_name": "O\u015brodek Kszta\u0142cenia Zawodowego Nr 10",
                "name": "O\u015brodek Kszta\u0142cenia Zawodowego Nr 10",
                "addr:country": "PL",
                "addr:postcode": "99-400",
                "addr:city": "\u0141owicz",
                "addr:street": "Zgoda",
                "addr:housenumber": "13",
                "addr:teryt:simc": 26022,
                "addr:teryt:sym_ul": 977031,
                "contact:phone": "+48 468375111",
                "contact:email": "zdzlowicz@wp.pl",
                "ref:regon": "101487521",
                "ref:vatin": "PL7270126097",
                "operator": "Zak\u0142ad Doskonalenia Zawodowego W \u0141odzi",
                "operator:type": "ngo",
                "fixme": "w zale\u017cno\u015bci od przedmiotu dzia\u0142alno\u015bci (np. amenity=training + training=*, amenity=dancing_school, amenity=language_school, amenity=music_school)"
            }
        },
        {
            "id": 39165,
            "type": "Feature",
            "geometry": {
                "type": "Point",
                "coordinates": [
                    19.93039,
                    52.0956799
                ]
            },
            "properties": {
                "isced:level": "3",
                "ref:rspo": 39165,
                "official_name": "Zaoczne Liceum Og\u00f3lnokszta\u0142c\u0105ce Zak\u0142adu Doskonalenia Zawodowego w \u0141odzi Z Siedzib\u0105 w \u0141owiczu",
                "name": "Zaoczne Liceum Og\u00f3lnokszta\u0142c\u0105ce Zak\u0142adu Doskonalenia Zawodowego w \u0141odzi Z Siedzib\u0105 w \u0141owiczu",
                "addr:country": "PL",
                "addr:postcode": "99-400",
                "addr:city": "\u0141owicz",
                "addr:street": "Zgoda",
                "addr:housenumber": "13",
                "addr:teryt:simc": 26022,
                "addr:teryt:sym_ul": 977031,
                "contact:phone": "+48 468300395",
                "contact:email": "zdz_szkoly_lowicz@wp.pl",
                "ref:regon": "101487343",
                "ref:vatin": "PL7270126097",
                "operator": "Zak\u0142ad Doskonalenia Zawodowego W \u0141odzi",
                "operator:type": "ngo",
                "amenity": "school"
            }
        },
        {
            "id": 91400,
            "type": "Feature",
            "geometry": {
                "type": "Point",
                "coordinates": [
                    19.92473,
                    52.09942
                ]
            },
            "properties": {
                "isced:level": "1;2",
                "ref:rspo": 91400,
                "official_name": "Szko\u0142a Podstawowa Nr 7 im. Jana Paw\u0142a II Z Oddzia\u0142ami Integracyjnymi",
                "name": "Szko\u0142a Podstawowa Nr 7",
                "addr:country": "PL",
                "addr:postcode": "99-400",
                "addr:city": "\u0141owicz",
                "addr:street": "M\u0142odzie\u017cowa",
                "addr:housenumber": "15",
                "addr:teryt:simc": 13096,
                "addr:teryt:sym_ul": 977031,
                "contact:phone": "+48 468377387",
                "contact:email": "sp7lowicz@interia.pl",
                "contact:website": "http:\/\/www.sp7lowicz.pl",
                "ref:regon": "750410639",
                "ref:vatin": "PL8341701771",
                "operator": "Miasto \u0141owicz",
                "operator:type": "government",
                "amenity": "school"
            }
        },
        {
            "id": 26826,
            "type": "Feature",
            "geometry": {
                "type": "Point",
                "coordinates": [
                    19.92796,
                    52.10201
                ]
            },
            "properties": {
                "isced:level": "3",
                "ref:rspo": 26826,
                "official_name": "Ii Liceum Og\u00f3lnokszta\u0142c\u0105ce Imienia Miko\u0142aja Kopernika w \u0141owiczu",
                "name": "Ii Liceum Og\u00f3lnokszta\u0142c\u0105ce Imienia Miko\u0142aja Kopernika w \u0141owiczu",
                "addr:country": "PL",
                "addr:postcode": "99-400",
                "addr:city": "\u0141owicz",
                "addr:street": "U\u0142a\u0144ska",
                "addr:housenumber": "2",
                "addr:teryt:simc": 23345,
                "addr:teryt:sym_ul": 977031,
                "contact:phone": "+48 468300898",
                "contact:email": "liceum@2lolowicz.pl",
                "contact:website": "http:\/\/www.2lolowicz.pl",
                "ref:regon": "750079216",
                "ref:vatin": "PL8341468317",
                "operator": "Powiat \u0141owicki",
                "operator:type": "government",
                "amenity": "school"
            }
        },
        {
            "id": 262487,
            "type": "Feature",
            "geometry": {
                "type": "Point",
                "coordinates": [
                    19.92796,
                    52.10198
                ]
            },
            "properties": {
                "ref:rspo": 262487,
                "official_name": "Zesp\u00f3\u0142 Szk\u00f3\u0142 I Plac\u00f3wek O\u015bwiatowych Wojew\u00f3dztwa \u0141\u00f3dzkiego w \u0141owiczu",
                "name": "Zesp\u00f3\u0142 Szk\u00f3\u0142 I Plac\u00f3wek O\u015bwiatowych Wojew\u00f3dztwa \u0141\u00f3dzkiego w \u0141owiczu",
                "addr:country": "PL",
                "addr:postcode": "99-400",
                "addr:city": "\u0141owicz",
                "addr:street": "U\u0142a\u0144ska",
                "addr:housenumber": "2",
                "addr:teryt:simc": 23345,
                "addr:teryt:sym_ul": 977031,
                "contact:phone": "+48 468375885",
                "contact:email": "sekretariat@zespollowicz.pl",
                "ref:regon": "368023349",
                "operator": "Wojew\u00f3dztwo \u0141\u00f3dzkie",
                "operator:type": "government",
                "landuse": "education",
                "fixme": "amenity=school, amenity=college albo landuse=education w zale\u017cno\u015bci od tego, jakie plac\u00f3wki wchodz\u0105 w sk\u0142ad zespo\u0142u. Sprawd\u017a, kiedy stosowa\u0107 amenity=* a kiedy landuse=education.",
                "note": "Children RSPO: 13459;115376;118966"
            }
        },
        {
            "id": 13063,
            "type": "Feature",
            "geometry": {
                "type": "Point",
                "coordinates": [
                    19.92796,
                    52.10195
                ]
            },
            "properties": {
                "isced:level": "4",
                "ref:rspo": 13063,
                "official_name": "Szko\u0142a Policealna Samorz\u0105du Wojew\u00f3dztwa \u0141\u00f3dzkiego im. Miko\u0142aja Kopernika w \u0141owiczu",
                "name": "Szko\u0142a Policealna Samorz\u0105du Wojew\u00f3dztwa \u0141\u00f3dzkiego",
                "addr:country": "PL",
                "addr:postcode": "99-400",
                "addr:city": "\u0141owicz",
                "addr:street": "U\u0142a\u0144ska",
                "addr:housenumber": "2",
                "addr:teryt:simc": 23345,
                "addr:teryt:sym_ul": 977031,
                "contact:phone": "+48 468375885",
                "contact:email": "sekretariat@zespollowicz.pl",
                "contact:website": "http:\/\/www.zespollowicz.pl",
                "ref:regon": "750800903",
                "ref:vatin": "PL8341742296",
                "operator": "Wojew\u00f3dztwo \u0141\u00f3dzkie",
                "operator:type": "government",
                "amenity": "college",
                "note": "Parent RSPO: 115376"
            }
        },
        {
            "id": 13459,
            "type": "Feature",
            "geometry": {
                "type": "Point",
                "coordinates": [
                    19.92796,
                    52.10192
                ]
            },
            "properties": {
                "ref:rspo": 13459,
                "official_name": "Bursa Samorz\u0105du Wojew\u00f3dztwa \u0141\u00f3dzkiego w \u0141owiczu",
                "name": "Bursa Samorz\u0105du Wojew\u00f3dztwa \u0141\u00f3dzkiego w \u0141owiczu",
                "addr:country": "PL",
                "addr:postcode": "99-400",
                "addr:city": "\u0141owicz",
                "addr:street": "U\u0142a\u0144ska",
                "addr:housenumber": "2",
                "addr:teryt:simc": 23345,
                "addr:teryt:sym_ul": 977031,
                "contact:phone": "+48 468375273",
                "contact:email": "bursa@zespollowicz.pl",
                "contact:website": "http:\/\/www.bursa.lowicz.pl",
                "ref:regon": "100720197",
                "ref:vatin": "PL8341858314",
                "operator": "Wojew\u00f3dztwo \u0141\u00f3dzkie",
                "operator:type": "government",
                "building": "dormitory",
                "note": "Parent RSPO: 262487"
            }
        },
        {
            "id": 115376,
            "type": "Feature",
            "geometry": {
                "type": "Point",
                "coordinates": [
                    19.92796,
                    52.10189
                ]
            },
            "properties": {
                "ref:rspo": 115376,
                "official_name": "\u0141owickie Centrum Kszta\u0142cenia Ustawicznego\nWojew\u00f3dztwa \u0141\u00f3dzkiego w \u0141owiczu",
                "name": "\u0141owickie Centrum Kszta\u0142cenia Ustawicznego\nWojew\u00f3dztwa \u0141\u00f3dzkiego w \u0141owiczu",
                "addr:country": "PL",
                "addr:postcode": "99-400",
                "addr:city": "\u0141owicz",
                "addr:street": "U\u0142a\u0144ska",
                "addr:housenumber": "2",
                "addr:teryt:simc": 23345,
                "addr:teryt:sym_ul": 977031,
                "contact:phone": "+48 468375885",
                "contact:email": "sekretariat@zespollowicz.pl",
                "ref:regon": "101629665",
                "operator": "Wojew\u00f3dztwo \u0141\u00f3dzkie",
                "operator:type": "government",
                "amenity": "school",
                "fixme": "amenity=school lub amenity=college",
                "note": "Children RSPO: 13063Parent RSPO: 262487"
            }
        },
        {
            "id": 118966,
            "type": "Feature",
            "geometry": {
                "type": "Point",
                "coordinates": [
                    19.92796,
                    52.10186
                ]
            },
            "properties": {
                "isced:level": "4",
                "ref:rspo": 118966,
                "official_name": "\u0141owicka Szko\u0142a Policealna Wojew\u00f3dztwa \u0141\u00f3dzkiego w \u0141owiczu",
                "name": "\u0141owicka Szko\u0142a Policealna Wojew\u00f3dztwa \u0141\u00f3dzkiego w \u0141owiczu",
                "addr:country": "PL",
                "addr:postcode": "99-400",
                "addr:city": "\u0141owicz",
                "addr:street": "U\u0142a\u0144ska",
                "addr:housenumber": "2",
                "addr:teryt:simc": 23345,
                "addr:teryt:sym_ul": 977031,
                "contact:phone": "+48 468375885",
                "contact:email": "sekretariat@zespollowicz.pl",
                "contact:website": "http:\/\/www.zespollowicz.pl",
                "ref:regon": "101652204",
                "operator": "Wojew\u00f3dztwo \u0141\u00f3dzkie",
                "operator:type": "government",
                "amenity": "college",
                "note": "Parent RSPO: 262487"
            }
        },
        {
            "id": 85975,
            "type": "Feature",
            "geometry": {
                "type": "Point",
                "coordinates": [
                    19.93686,
                    52.10261
                ]
            },
            "properties": {
                "ref:rspo": 85975,
                "official_name": "Przedszkole Nr 4 \"S\u0142oneczko\" w \u0141owiczu, Ul. Gen. W\u0142adys\u0142awa Sikorskiego 2",
                "name": "Przedszkole Nr 4 \"S\u0142oneczko\" w \u0141owiczu, Ul. Gen. W\u0142adys\u0142awa Sikorskiego 2",
                "addr:country": "PL",
                "addr:postcode": "99-400",
                "addr:city": "\u0141owicz",
                "addr:street": "Genera\u0142a W\u0142adys\u0142awa Sikorskiego",
                "addr:housenumber": "2",
                "addr:teryt:simc": 19907,
                "addr:teryt:sym_ul": 977031,
                "contact:phone": "+48 468375404",
                "contact:email": "p4lowicz@gmail.com",
                "contact:website": "http:\/\/www.p4lowicz.szkolnastrona.pl\/",
                "ref:regon": "750020536",
                "ref:vatin": "PL8341675097",
                "operator": "Miasto \u0141owicz",
                "operator:type": "government",
                "amenity": "kindergarten"
            }
        },
        {
            "id": 71703,
            "type": "Feature",
            "geometry": {
                "type": "Point",
                "coordinates": [
                    19.94577,
                    52.10281
                ]
            },
            "properties": {
                "isced:level": "1;2",
                "ref:rspo": 71703,
                "official_name": "Szko\u0142a Podstawowa Nr 1 im. Tadeusza Ko\u015bciuszki w \u0141owiczu",
                "name": "Szko\u0142a Podstawowa Nr 1",
                "addr:country": "PL",
                "addr:postcode": "99-400",
                "addr:city": "\u0141owicz",
                "addr:street": "Kaliska",
                "addr:housenumber": "12",
                "addr:teryt:simc": 7823,
                "addr:teryt:sym_ul": 977031,
                "contact:phone": "+48 468373785",
                "contact:email": "sp1lowicz@wp.pl",
                "contact:website": "http:\/\/www.sp1lowicz.szkolnastrona.pl",
                "ref:regon": "000258448",
                "ref:vatin": "PL8341247450",
                "operator": "Miasto \u0141owicz",
                "operator:type": "government",
                "amenity": "school"
            }
        },
        {
            "id": 71704,
            "type": "Feature",
            "geometry": {
                "type": "Point",
                "coordinates": [
                    19.9338,
                    52.10291
                ]
            },
            "properties": {
                "isced:level": "1;2",
                "ref:rspo": 71704,
                "official_name": "Szko\u0142a Podstawowa Nr 4 im. Marii Konopnickiej w \u0141owiczu",
                "name": "Szko\u0142a Podstawowa Nr 4",
                "addr:country": "PL",
                "addr:postcode": "99-400",
                "addr:city": "\u0141owicz",
                "addr:street": "Stanis\u0142awa Stanis\u0142awskiego",
                "addr:housenumber": "31a",
                "addr:teryt:simc": 20835,
                "addr:teryt:sym_ul": 977031,
                "contact:phone": "+48 468373694",
                "contact:email": "sekretariat@sp4.lowicz.szkolnastrona.pl",
                "contact:website": "http:\/\/sp4.lowicz.szkolnastrona.pl",
                "ref:regon": "000259360",
                "ref:vatin": "PL8341247527",
                "operator": "Miasto \u0141owicz",
                "operator:type": "government",
                "amenity": "school"
            }
        },
        {
            "id": 85971,
            "type": "Feature",
            "geometry": {
                "type": "Point",
                "coordinates": [
                    19.94195,
                    52.1035899
                ]
            },
            "properties": {
                "ref:rspo": 85971,
                "official_name": "Przedszkole Nr 2 \"Pod T\u0119cz\u0105\" w \u0141owiczu, Ul. Starzy\u0144skiego 5A",
                "name": "Przedszkole Nr 2 \"Pod T\u0119cz\u0105\" w \u0141owiczu, Ul. Starzy\u0144skiego 5A",
                "addr:country": "PL",
                "addr:postcode": "99-400",
                "addr:city": "\u0141owicz",
                "addr:street": "Stefana Starzy\u0144skiego",
                "addr:housenumber": "5a",
                "addr:teryt:simc": 21047,
                "addr:teryt:sym_ul": 977031,
                "contact:phone": "+48 468374007",
                "contact:email": "p2lowicz@gmail.com",
                "contact:website": "http:\/\/www.p2lowicz.szkolnastrona.pl",
                "ref:regon": "750020513",
                "ref:vatin": "PL8341602431",
                "operator": "Miasto \u0141owicz",
                "operator:type": "government",
                "amenity": "kindergarten"
            }
        },
        {
            "id": 25109,
            "type": "Feature",
            "geometry": {
                "type": "Point",
                "coordinates": [
                    19.94671,
                    52.10373
                ]
            },
            "properties": {
                "ref:rspo": 25109,
                "official_name": "Zesp\u00f3\u0142 Szk\u00f3\u0142 Ponadpodstawowych Nr 4 im. W\u0142adys\u0142awa Grabskiego w \u0141owiczu",
                "name": "Zesp\u00f3\u0142 Szk\u00f3\u0142 Ponadpodstawowych Nr 4",
                "addr:country": "PL",
                "addr:postcode": "99-400",
                "addr:city": "\u0141owicz",
                "addr:street": "Kaliska",
                "addr:housenumber": "5a",
                "addr:teryt:simc": 7823,
                "addr:teryt:sym_ul": 977031,
                "contact:phone": "+48 468374949",
                "contact:email": "poczta@zsp4.lowicz.pl",
                "contact:website": "http:\/\/zsp4.lowicz.pl",
                "ref:regon": "000333196",
                "ref:vatin": "PL8341020143",
                "operator": "Powiat \u0141owicki",
                "operator:type": "government",
                "landuse": "education",
                "fixme": "amenity=school, amenity=college albo landuse=education w zale\u017cno\u015bci od tego, jakie plac\u00f3wki wchodz\u0105 w sk\u0142ad zespo\u0142u. Sprawd\u017a, kiedy stosowa\u0107 amenity=* a kiedy landuse=education.",
                "note": "Children RSPO: 42131;42132;264534"
            }
        },
        {
            "id": 42131,
            "type": "Feature",
            "geometry": {
                "type": "Point",
                "coordinates": [
                    19.94671,
                    52.103699999999996
                ]
            },
            "properties": {
                "isced:level": "3",
                "ref:rspo": 42131,
                "official_name": "Iv Liceum Og\u00f3lnokszta\u0142c\u0105ce w \u0141owiczu w Zespole Szk\u00f3\u0142 Ponadpodstawowych Nr 4 Imienia W\u0142adys\u0142awa Grabskiego w \u0141owiczu",
                "name": "Iv Liceum Og\u00f3lnokszta\u0142c\u0105ce w \u0141owiczu w Zespole Szk\u00f3\u0142 Ponadpodstawowych Nr 4 Imienia W\u0142adys\u0142awa Grabskiego w \u0141owiczu",
                "addr:country": "PL",
                "addr:postcode": "99-400",
                "addr:city": "\u0141owicz",
                "addr:street": "Kaliska",
                "addr:housenumber": "5a",
                "addr:teryt:simc": 7823,
                "addr:teryt:sym_ul": 977031,
                "contact:phone": "+48 468374949",
                "contact:email": "poczta@zsp4.lowicz.pl",
                "contact:website": "http:\/\/www.zsp4.lowicz.pl",
                "ref:regon": "750719696",
                "ref:vatin": "PL8341020143",
                "operator": "Powiat \u0141owicki",
                "operator:type": "government",
                "amenity": "school",
                "note": "Parent RSPO: 25109"
            }
        },
        {
            "id": 42132,
            "type": "Feature",
            "geometry": {
                "type": "Point",
                "coordinates": [
                    19.94671,
                    52.10367
                ]
            },
            "properties": {
                "isced:level": "3",
                "ref:rspo": 42132,
                "official_name": "Technikum Nr 4 w \u0141owiczu w Zespole Szk\u00f3\u0142 Ponadpodstawowych Nr 4 Imienia W\u0142adys\u0142awa Grabskiego w \u0141owiczu",
                "name": "Technikum Nr 4 w \u0141owiczu w Zespole Szk\u00f3\u0142 Ponadpodstawowych Nr 4 Imienia W\u0142adys\u0142awa Grabskiego w \u0141owiczu",
                "addr:country": "PL",
                "addr:postcode": "99-400",
                "addr:city": "\u0141owicz",
                "addr:street": "Kaliska",
                "addr:housenumber": "5a",
                "addr:teryt:simc": 7823,
                "addr:teryt:sym_ul": 977031,
                "contact:phone": "+48 468374949",
                "contact:email": "poczta@zsp4.lowicz.pl",
                "contact:website": "http:\/\/www.zsp4.lowicz.pl",
                "ref:regon": "750719673",
                "ref:vatin": "PL8341020143",
                "operator": "Powiat \u0141owicki",
                "operator:type": "government",
                "amenity": "school",
                "note": "Parent RSPO: 25109"
            }
        },
        {
            "id": 264534,
            "type": "Feature",
            "geometry": {
                "type": "Point",
                "coordinates": [
                    19.94671,
                    52.10364
                ]
            },
            "properties": {
                "isced:level": "3",
                "ref:rspo": 264534,
                "official_name": "Bran\u017cowa Szko\u0142a I Stopnia Nr 4 w \u0141owiczu w Zespole Szk\u00f3\u0142 Ponadpodstawowych Nr 4 im. W\u0142adys\u0142awa Grabskiego w \u0141owiczu",
                "name": "Bran\u017cowa Szko\u0142a I Stopnia Nr 4 w \u0141owiczu w Zespole Szk\u00f3\u0142 Ponadpodstawowych Nr 4",
                "addr:country": "PL",
                "addr:postcode": "99-400",
                "addr:city": "\u0141owicz",
                "addr:street": "Kaliska",
                "addr:housenumber": "5 a",
                "addr:teryt:simc": 7823,
                "addr:teryt:sym_ul": 977031,
                "contact:phone": "+48 468374949",
                "contact:email": "poczta@zsp4.lowicz.pl",
                "ref:regon": "750719704",
                "operator": "Powiat \u0141owicki",
                "operator:type": "government",
                "amenity": "school",
                "note": "Parent RSPO: 25109"
            }
        },
        {
            "id": 85968,
            "type": "Feature",
            "geometry": {
                "type": "Point",
                "coordinates": [
                    19.92972,
                    52.1041
                ]
            },
            "properties": {
                "ref:rspo": 85968,
                "official_name": "Przedszkole Nr 1 \"Stokrotka\" w \u0141owiczu, Ul. U\u0142a\u0144ska 1",
                "name": "Przedszkole Nr 1 \"Stokrotka\" w \u0141owiczu, Ul. U\u0142a\u0144ska 1",
                "addr:country": "PL",
                "addr:postcode": "99-400",
                "addr:city": "\u0141owicz",
                "addr:street": "U\u0142a\u0144ska",
                "addr:housenumber": "1",
                "addr:teryt:simc": 23345,
                "addr:teryt:sym_ul": 977031,
                "contact:phone": "+48 468375091",
                "contact:email": "p1lowicz@poczta.onet.pl",
                "contact:website": "http:\/\/p1lowicz.szkolnastrona.pl",
                "ref:regon": "750020507",
                "ref:vatin": "PL8341600136",
                "operator": "Miasto \u0141owicz",
                "operator:type": "government",
                "amenity": "kindergarten"
            }
        },
        {
            "id": 85889,
            "type": "Feature",
            "geometry": {
                "type": "Point",
                "coordinates": [
                    19.9279699,
                    52.10451
                ]
            },
            "properties": {
                "isced:level": "1;2",
                "ref:rspo": 85889,
                "official_name": "Szko\u0142a Podstawowa Nr 2 im. Adama Mickiewicza w \u0141owiczu",
                "name": "Szko\u0142a Podstawowa Nr 2",
                "addr:country": "PL",
                "addr:postcode": "99-400",
                "addr:city": "\u0141owicz",
                "addr:street": "Adama Mickiewicza",
                "addr:housenumber": "1",
                "addr:teryt:simc": 12740,
                "addr:teryt:sym_ul": 977031,
                "contact:phone": "+48 468375704",
                "contact:email": "sp2_lowicz@poczta.onet.pl",
                "contact:website": "http:\/\/www.sp2.lowicz.pl",
                "ref:regon": "000258879",
                "ref:vatin": "PL8341124115",
                "operator": "Miasto \u0141owicz",
                "operator:type": "government",
                "amenity": "school"
            }
        },
        {
            "id": 68574,
            "type": "Feature",
            "geometry": {
                "type": "Point",
                "coordinates": [
                    19.92486,
                    52.10457
                ]
            },
            "properties": {
                "ref:rspo": 68574,
                "official_name": "Niepubliczna Szko\u0142a Muzyczna I St. w \u0141owiczu",
                "name": "Niepubliczna Szko\u0142a Muzyczna I St. w \u0141owiczu",
                "addr:country": "PL",
                "addr:postcode": "99-400",
                "addr:city": "\u0141owicz",
                "addr:street": "Adama Mickiewicza",
                "addr:housenumber": "19",
                "addr:teryt:simc": 12740,
                "addr:teryt:sym_ul": 977031,
                "contact:phone": "+48 602106324",
                "contact:email": "muzycznalowicz@tlen.pl",
                "contact:website": "http:\/\/muzycznalowicz.pl",
                "ref:regon": "101495957",
                "operator": "Joanna Sylwestrzak",
                "operator:type": "private",
                "amenity": "music_school"
            }
        },
        {
            "id": 109278,
            "type": "Feature",
            "geometry": {
                "type": "Point",
                "coordinates": [
                    19.92486,
                    52.10454
                ]
            },
            "properties": {
                "ref:rspo": 109278,
                "official_name": "Niepubliczna Szko\u0142a Muzyczna II St. w \u0141owiczu",
                "name": "Niepubliczna Szko\u0142a Muzyczna II St. w \u0141owiczu",
                "addr:country": "PL",
                "addr:postcode": "99-400",
                "addr:city": "\u0141owicz",
                "addr:street": "Adama Mickiewicza",
                "addr:housenumber": "19",
                "addr:teryt:simc": 12740,
                "addr:teryt:sym_ul": 977031,
                "contact:phone": "+48 468377441",
                "contact:email": "muzycznalowicz@tlen.pl",
                "contact:website": "http:\/\/www.muzycznalowicz.pl",
                "ref:regon": "101603281",
                "operator": "Joanna Sylwestrzak",
                "operator:type": "private",
                "amenity": "music_school"
            }
        },
        {
            "id": 124033,
            "type": "Feature",
            "geometry": {
                "type": "Point",
                "coordinates": [
                    19.92486,
                    52.104510000000005
                ]
            },
            "properties": {
                "ref:rspo": 124033,
                "official_name": "Samorz\u0105dowa Szko\u0142a Muzyczna I Stopnia w \u0141owiczu",
                "name": "Samorz\u0105dowa Szko\u0142a Muzyczna I Stopnia w \u0141owiczu",
                "addr:country": "PL",
                "addr:postcode": "99-400",
                "addr:city": "\u0141owicz",
                "addr:street": "Adama Mickiewicza",
                "addr:housenumber": "19",
                "addr:teryt:simc": 12740,
                "addr:teryt:sym_ul": 977031,
                "contact:phone": "+48 468377441",
                "contact:email": "sekretariat@muzycznawlowiczu.pl",
                "contact:website": "http:\/\/www.muzycznawlowiczu.pl",
                "ref:regon": "101823574",
                "ref:vatin": "PL8341882962",
                "operator": "Miasto \u0141owicz",
                "operator:type": "government",
                "amenity": "music_school"
            }
        },
        {
            "id": 34558,
            "type": "Feature",
            "geometry": {
                "type": "Point",
                "coordinates": [
                    19.94222,
                    52.1048
                ]
            },
            "properties": {
                "ref:rspo": 34558,
                "official_name": "Bursa dla Dziewcz\u0105t Przy Klasztorze Si\u00f3str Bernardynek",
                "name": "Bursa dla Dziewcz\u0105t Przy Klasztorze Si\u00f3str Bernardynek",
                "addr:country": "PL",
                "addr:postcode": "99-400",
                "addr:city": "\u0141owicz",
                "addr:street": "Aleja Henryka Sienkiewicza",
                "addr:housenumber": "15",
                "addr:teryt:simc": 19831,
                "addr:teryt:sym_ul": 977031,
                "contact:phone": "+48 468376420",
                "contact:email": "bursa.ber@wp.pl",
                "contact:website": "http:\/\/www.bursaubernardynek.wordpress.com",
                "ref:regon": "101486898",
                "ref:vatin": "PL8341247220",
                "operator": "Mniszki Iii Zakonu Regularnego \u015aw.franciszka Z Asy\u017cu - Klasztor Si\u00f3str Bernardynek",
                "operator:type": "religious",
                "building": "dormitory"
            }
        },
        {
            "id": 18795,
            "type": "Feature",
            "geometry": {
                "type": "Point",
                "coordinates": [
                    19.94209,
                    52.1054699
                ]
            },
            "properties": {
                "ref:rspo": 18795,
                "official_name": "Biblioteka Pedagogiczna w Skierniewicach Filia w \u0141owiczu",
                "name": "Biblioteka Pedagogiczna w Skierniewicach Filia w \u0141owiczu",
                "addr:country": "PL",
                "addr:postcode": "99-400",
                "addr:city": "\u0141owicz",
                "addr:street": "Aleja Henryka Sienkiewicza",
                "addr:housenumber": "42",
                "addr:teryt:simc": 19831,
                "addr:teryt:sym_ul": 977031,
                "contact:phone": "+48 468376129",
                "contact:email": "bibliotekalowicz@o2.pl",
                "ref:regon": "685280000",
                "operator": "Wojew\u00f3dztwo \u0141\u00f3dzkie",
                "operator:type": "government",
                "amenity": "library",
                "note": "Parent RSPO: 12806"
            }
        },
        {
            "id": 30998,
            "type": "Feature",
            "geometry": {
                "type": "Point",
                "coordinates": [
                    19.9437,
                    52.10642
                ]
            },
            "properties": {
                "isced:level": "3",
                "ref:rspo": 30998,
                "official_name": "Pijarskie Liceum Og\u00f3lnokszta\u0142c\u0105ce Kr\u00f3lowej Pokoju w \u0141owiczu",
                "name": "Pijarskie Liceum Og\u00f3lnokszta\u0142c\u0105ce Kr\u00f3lowej Pokoju w \u0141owiczu",
                "addr:country": "PL",
                "addr:postcode": "99-400",
                "addr:city": "\u0141owicz",
                "addr:street": "Pijarska",
                "addr:housenumber": "2",
                "addr:teryt:simc": 16204,
                "addr:teryt:sym_ul": 977031,
                "contact:phone": "+48 468376610",
                "contact:email": "szkola@pijarska.pl",
                "contact:website": "http:\/\/www.pijarska.pl",
                "ref:regon": "101487461",
                "ref:vatin": "PL8341784337",
                "operator": "Kolegium Zakonu Pijar\u00f3w \u0141owicz",
                "operator:type": "religious",
                "amenity": "school"
            }
        },
        {
            "id": 66174,
            "type": "Feature",
            "geometry": {
                "type": "Point",
                "coordinates": [
                    19.9437,
                    52.10639
                ]
            },
            "properties": {
                "isced:level": "1;2",
                "ref:rspo": 66174,
                "official_name": "Pijarska Szko\u0142a Podstawowa Kr\u00f3lowej Pokoju w \u0141owiczu",
                "name": "Pijarska Szko\u0142a Podstawowa Kr\u00f3lowej Pokoju w \u0141owiczu",
                "addr:country": "PL",
                "addr:postcode": "99-400",
                "addr:city": "\u0141owicz",
                "addr:street": "Pijarska",
                "addr:housenumber": "2",
                "addr:teryt:simc": 16204,
                "addr:teryt:sym_ul": 977031,
                "contact:phone": "+48 468376610",
                "contact:email": "szkola@pijarska.pl",
                "contact:website": "http:\/\/www.pijarska.pl",
                "ref:regon": "101495762",
                "ref:vatin": "PL8341038120",
                "operator": "Kolegium Zakonu Pijar\u00f3w \u0141owicz",
                "operator:type": "religious",
                "amenity": "school"
            }
        },
        {
            "id": 66171,
            "type": "Feature",
            "geometry": {
                "type": "Point",
                "coordinates": [
                    19.92022,
                    52.10654
                ]
            },
            "properties": {
                "ref:rspo": 66171,
                "official_name": "Przedszkole Nr 7 \"Wiosenka\" w \u0141owiczu, Ul. Wiosenna 2",
                "name": "Przedszkole Nr 7 \"Wiosenka\" w \u0141owiczu, Ul. Wiosenna 2",
                "addr:country": "PL",
                "addr:postcode": "99-400",
                "addr:city": "\u0141owicz",
                "addr:street": "Wiosenna",
                "addr:housenumber": "2",
                "addr:teryt:simc": 24364,
                "addr:teryt:sym_ul": 977031,
                "contact:phone": "+48 468371863",
                "contact:email": "przedszkolenr7wlowiczu@gmail.com",
                "contact:website": "http:\/\/www.wiosenka.org",
                "ref:regon": "750020565",
                "ref:vatin": "PL8341674057",
                "operator": "Miasto \u0141owicz",
                "operator:type": "government",
                "amenity": "kindergarten"
            }
        },
        {
            "id": 25573,
            "type": "Feature",
            "geometry": {
                "type": "Point",
                "coordinates": [
                    19.93096,
                    52.10698
                ]
            },
            "properties": {
                "isced:level": "3",
                "ref:rspo": 25573,
                "official_name": "I Liceum Og\u00f3lnokszta\u0142c\u0105ce Imienia J\u00f3zefa Che\u0142mo\u0144skiego w \u0141owiczu",
                "name": "I Liceum Og\u00f3lnokszta\u0142c\u0105ce Imienia J\u00f3zefa Che\u0142mo\u0144skiego w \u0141owiczu",
                "addr:country": "PL",
                "addr:postcode": "99-400",
                "addr:city": "\u0141owicz",
                "addr:street": "Bonifraterska",
                "addr:housenumber": "3",
                "addr:teryt:simc": 1797,
                "addr:teryt:sym_ul": 977031,
                "contact:phone": "+48 468374200",
                "contact:email": "lochelmon1@op.pl",
                "contact:website": "http:\/\/www.lo1lowicz.pl",
                "ref:regon": "000204487",
                "ref:vatin": "PL8341011256",
                "operator": "Powiat \u0141owicki",
                "operator:type": "government",
                "amenity": "school"
            }
        },
        {
            "id": 85974,
            "type": "Feature",
            "geometry": {
                "type": "Point",
                "coordinates": [
                    19.94671,
                    52.10703
                ]
            },
            "properties": {
                "ref:rspo": 85974,
                "official_name": "Przedszkole Nr 3 \"Pszcz\u00f3\u0142ka Maja\" w \u0141owiczu, Ul. 3 Maja 4",
                "name": "Przedszkole Nr 3 \"Pszcz\u00f3\u0142ka Maja\" w \u0141owiczu, Ul. 3 Maja 4",
                "addr:country": "PL",
                "addr:postcode": "99-400",
                "addr:city": "\u0141owicz",
                "addr:street": "3 Maja",
                "addr:housenumber": "4",
                "addr:teryt:simc": 11937,
                "addr:teryt:sym_ul": 977031,
                "contact:phone": "+48 468373763",
                "contact:email": "przedszkole3lowicz@wp.pl",
                "contact:website": "http:\/\/www.p3lowicz.szkolnastrona.pl",
                "ref:regon": "750020520",
                "ref:vatin": "PL8341605808",
                "operator": "Miasto \u0141owicz",
                "operator:type": "government",
                "amenity": "kindergarten"
            }
        },
        {
            "id": 125538,
            "type": "Feature",
            "geometry": {
                "type": "Point",
                "coordinates": [
                    19.94784,
                    52.10742
                ]
            },
            "properties": {
                "ref:rspo": 125538,
                "official_name": "Przedszkole Niepubliczne \"Terefere\"",
                "name": "Przedszkole Niepubliczne \"Terefere\"",
                "addr:country": "PL",
                "addr:postcode": "99-400",
                "addr:city": "\u0141owicz",
                "addr:street": "3 Maja",
                "addr:housenumber": "3",
                "addr:door": "5",
                "addr:teryt:simc": 11937,
                "addr:teryt:sym_ul": 977031,
                "contact:phone": "+48 468372004",
                "contact:email": "marcinmuras@interia.pl",
                "contact:website": "http:\/\/terefere.edu.pl",
                "ref:regon": "101850134",
                "ref:vatin": "PL8341742600",
                "operator": "Marcin Muras",
                "operator:type": "private",
                "amenity": "kindergarten"
            }
        },
        {
            "id": 27941,
            "type": "Feature",
            "geometry": {
                "type": "Point",
                "coordinates": [
                    19.93458,
                    52.10769
                ]
            },
            "properties": {
                "ref:rspo": 27941,
                "official_name": "Zesp\u00f3\u0142 Szk\u00f3\u0142 Ponadpodstawowych Nr 1 im. 10 Pu\u0142ku Piechoty w \u0141owiczu",
                "name": "Zesp\u00f3\u0142 Szk\u00f3\u0142 Ponadpodstawowych Nr 1",
                "addr:country": "PL",
                "addr:postcode": "99-400",
                "addr:city": "\u0141owicz",
                "addr:street": "Podrzeczna",
                "addr:housenumber": "30",
                "addr:teryt:simc": 16846,
                "addr:teryt:sym_ul": 977031,
                "contact:phone": "+48 468374201",
                "contact:email": "zspnr1lowicz@o2.pl",
                "contact:website": "http:\/\/www.zspnr1.lowicz.prv.pl",
                "ref:regon": "000181941",
                "ref:vatin": "PL8341016207",
                "operator": "Powiat \u0141owicki",
                "operator:type": "government",
                "landuse": "education",
                "fixme": "amenity=school, amenity=college albo landuse=education w zale\u017cno\u015bci od tego, jakie plac\u00f3wki wchodz\u0105 w sk\u0142ad zespo\u0142u. Sprawd\u017a, kiedy stosowa\u0107 amenity=* a kiedy landuse=education.",
                "note": "Children RSPO: 39180;39185;275664"
            }
        },
        {
            "id": 39180,
            "type": "Feature",
            "geometry": {
                "type": "Point",
                "coordinates": [
                    19.93458,
                    52.107659999999996
                ]
            },
            "properties": {
                "isced:level": "3",
                "ref:rspo": 39180,
                "official_name": "Bran\u017cowa Szko\u0142a I Stopnia Nr 1 w \u0141owiczu w Zespole Szk\u00f3\u0142 Ponadpodstawowych Nr 1 im. 10 Pu\u0142ku Piechoty w \u0141owiczu",
                "name": "Bran\u017cowa Szko\u0142a I Stopnia Nr 1 w \u0141owiczu w Zespole Szk\u00f3\u0142 Ponadpodstawowych Nr 1",
                "addr:country": "PL",
                "addr:postcode": "99-400",
                "addr:city": "\u0141owicz",
                "addr:street": "Podrzeczna",
                "addr:housenumber": "30",
                "addr:teryt:simc": 16846,
                "addr:teryt:sym_ul": 977031,
                "contact:phone": "+48 468374201",
                "contact:email": "zspnr1lowicz@o2.pl",
                "ref:regon": "750719822",
                "ref:vatin": "PL8341016207",
                "operator": "Powiat \u0141owicki",
                "operator:type": "government",
                "amenity": "school",
                "note": "Parent RSPO: 27941"
            }
        },
        {
            "id": 39185,
            "type": "Feature",
            "geometry": {
                "type": "Point",
                "coordinates": [
                    19.93458,
                    52.10763
                ]
            },
            "properties": {
                "isced:level": "3",
                "ref:rspo": 39185,
                "official_name": "Technikum Nr 1 w \u0141owiczu w Zespole Szk\u00f3\u0142 Ponadpodstawowych Nr 1 im. 10 Pu\u0142ku Piechoty w \u0141owiczu",
                "name": "Technikum Nr 1 w \u0141owiczu w Zespole Szk\u00f3\u0142 Ponadpodstawowych Nr 1",
                "addr:country": "PL",
                "addr:postcode": "99-400",
                "addr:city": "\u0141owicz",
                "addr:street": "Podrzeczna",
                "addr:housenumber": "30",
                "addr:teryt:simc": 16846,
                "addr:teryt:sym_ul": 977031,
                "contact:phone": "+48 468374201",
                "contact:email": "zspnr1lowicz@o2.pl",
                "ref:regon": "100066131",
                "ref:vatin": "PL8341016207",
                "operator": "Powiat \u0141owicki",
                "operator:type": "government",
                "amenity": "school",
                "note": "Parent RSPO: 27941"
            }
        },
        {
            "id": 275664,
            "type": "Feature",
            "geometry": {
                "type": "Point",
                "coordinates": [
                    19.93458,
                    52.1076
                ]
            },
            "properties": {
                "isced:level": "3",
                "ref:rspo": 275664,
                "official_name": "Bran\u017cowa Szko\u0142a II Stopnia w \u0141owiczu",
                "name": "Bran\u017cowa Szko\u0142a II Stopnia w \u0141owiczu",
                "addr:country": "PL",
                "addr:postcode": "99-400",
                "addr:city": "\u0141owicz",
                "addr:street": "Podrzeczna",
                "addr:housenumber": "30",
                "addr:teryt:simc": 16846,
                "addr:teryt:sym_ul": 977031,
                "contact:phone": "+48 468374201",
                "contact:email": "zspnr1lowicz@o2.pl",
                "ref:regon": "386930814",
                "operator": "Powiat \u0141owicki",
                "operator:type": "government",
                "amenity": "school",
                "note": "Parent RSPO: 27941"
            }
        },
        {
            "id": 27930,
            "type": "Feature",
            "geometry": {
                "type": "Point",
                "coordinates": [
                    19.94003,
                    52.11472
                ]
            },
            "properties": {
                "ref:rspo": 27930,
                "official_name": "Zesp\u00f3\u0142 Szk\u00f3\u0142 Ponadpodstawowych Nr 2 Centrum Kszta\u0142cenia Zawodowego im. Tadeusza Ko\u015bciuszki w \u0141owiczu",
                "name": "Zesp\u00f3\u0142 Szk\u00f3\u0142 Ponadpodstawowych Nr 2 Centrum Kszta\u0142cenia Zawodowego",
                "addr:country": "PL",
                "addr:postcode": "99-400",
                "addr:city": "\u0141owicz",
                "addr:street": "Blich",
                "addr:housenumber": "10",
                "addr:teryt:simc": 1409,
                "addr:teryt:sym_ul": 977031,
                "contact:phone": "+48 468373705",
                "contact:email": "blich@zsp2lowicz.pl",
                "contact:website": "http:\/\/www.zsp2lowicz.pl",
                "ref:regon": "000094461",
                "ref:vatin": "PL8341039349",
                "operator": "Powiat \u0141owicki",
                "operator:type": "government",
                "landuse": "education",
                "fixme": "amenity=school, amenity=college albo landuse=education w zale\u017cno\u015bci od tego, jakie plac\u00f3wki wchodz\u0105 w sk\u0142ad zespo\u0142u. Sprawd\u017a, kiedy stosowa\u0107 amenity=* a kiedy landuse=education.",
                "note": "Children RSPO: 41248;41249;41250;130124"
            }
        },
        {
            "id": 41248,
            "type": "Feature",
            "geometry": {
                "type": "Point",
                "coordinates": [
                    19.94003,
                    52.114689999999996
                ]
            },
            "properties": {
                "isced:level": "3",
                "ref:rspo": 41248,
                "official_name": "Bran\u017cowa Szko\u0142a I Stopnia Nr 2 w \u0141owiczu",
                "name": "Bran\u017cowa Szko\u0142a I Stopnia Nr 2 w \u0141owiczu",
                "addr:country": "PL",
                "addr:postcode": "99-400",
                "addr:city": "\u0141owicz",
                "addr:street": "Blich",
                "addr:housenumber": "10",
                "addr:teryt:simc": 1409,
                "addr:teryt:sym_ul": 977031,
                "contact:phone": "+48 468373705",
                "contact:email": "blich@zsp2lowicz.pl",
                "contact:website": "http:\/\/www.zsp2lowicz.pl",
                "ref:regon": "750719800",
                "ref:vatin": "PL8341039349",
                "operator": "Powiat \u0141owicki",
                "operator:type": "government",
                "amenity": "school",
                "note": "Parent RSPO: 27930"
            }
        },
        {
            "id": 41249,
            "type": "Feature",
            "geometry": {
                "type": "Point",
                "coordinates": [
                    19.94003,
                    52.11466
                ]
            },
            "properties": {
                "isced:level": "3",
                "ref:rspo": 41249,
                "official_name": "Technikum Nr 2 w \u0141owiczu w Zespole Szk\u00f3\u0142 Ponadpodstawowych Nr 2 Centrum Kszta\u0142cenia Zawodowego Imienia Tadeusza Ko\u015bciuszki w \u0141owiczu",
                "name": "Technikum Nr 2 w \u0141owiczu w Zespole Szk\u00f3\u0142 Ponadpodstawowych Nr 2 Centrum Kszta\u0142cenia Zawodowego Imienia Tadeusza Ko\u015bciuszki w \u0141owiczu",
                "addr:country": "PL",
                "addr:postcode": "99-400",
                "addr:city": "\u0141owicz",
                "addr:street": "Blich",
                "addr:housenumber": "10",
                "addr:teryt:simc": 1409,
                "addr:teryt:sym_ul": 977031,
                "contact:phone": "+48 468373705",
                "contact:email": "blich@zsp2lowicz.pl",
                "contact:website": "http:\/\/www.zsp2lowicz.pl",
                "ref:regon": "100042604",
                "ref:vatin": "PL8341039349",
                "operator": "Powiat \u0141owicki",
                "operator:type": "government",
                "amenity": "school",
                "note": "Parent RSPO: 27930"
            }
        },
        {
            "id": 41250,
            "type": "Feature",
            "geometry": {
                "type": "Point",
                "coordinates": [
                    19.94003,
                    52.11463
                ]
            },
            "properties": {
                "isced:level": "3",
                "ref:rspo": 41250,
                "official_name": "Liceum Og\u00f3lnokszta\u0142c\u0105ce dla Doros\u0142ych w \u0141owiczu w Zespole Szk\u00f3\u0142 Ponadpodstawowych Nr 2 Centrum Kszta\u0142cenia Zawodowego Imienia Tadeusza Ko\u015bciuszki w \u0141owiczu",
                "name": "Liceum Og\u00f3lnokszta\u0142c\u0105ce dla Doros\u0142ych w \u0141owiczu w Zespole Szk\u00f3\u0142 Ponadpodstawowych Nr 2 Centrum Kszta\u0142cenia Zawodowego Imienia Tadeusza Ko\u015bciuszki w \u0141owiczu",
                "addr:country": "PL",
                "addr:postcode": "99-400",
                "addr:city": "\u0141owicz",
                "addr:street": "Blich",
                "addr:housenumber": "10",
                "addr:teryt:simc": 1409,
                "addr:teryt:sym_ul": 977031,
                "contact:phone": "+48 468373705",
                "contact:email": "blich@zsp2lowicz.pl",
                "contact:website": "http:\/\/www.zsp2lowicz.pl",
                "ref:regon": "750803600",
                "ref:vatin": "PL8341039349",
                "operator": "Powiat \u0141owicki",
                "operator:type": "government",
                "amenity": "school",
                "note": "Parent RSPO: 27930"
            }
        },
        {
            "id": 130124,
            "type": "Feature",
            "geometry": {
                "type": "Point",
                "coordinates": [
                    19.94003,
                    52.114599999999996
                ]
            },
            "properties": {
                "ref:rspo": 130124,
                "official_name": "Centrum Kszta\u0142cenia Zawodowego w Zespole Szk\u00f3\u0142 Ponadpodstawowych Nr 2 Centrum Kszta\u0142cenia Zawodowego im. Tadeusza Ko\u015bciuszki w \u0141owiczu",
                "name": "Centrum Kszta\u0142cenia Zawodowego w Zespole Szk\u00f3\u0142 Ponadpodstawowych Nr 2 Centrum Kszta\u0142cenia Zawodowego",
                "addr:country": "PL",
                "addr:postcode": "99-400",
                "addr:city": "\u0141owicz",
                "addr:street": "Blich",
                "addr:housenumber": "10",
                "addr:teryt:simc": 1409,
                "addr:teryt:sym_ul": 977031,
                "contact:phone": "+48 468373705",
                "ref:regon": "363507396",
                "operator": "Powiat \u0141owicki",
                "operator:type": "government",
                "fixme": "w zale\u017cno\u015bci od przedmiotu dzia\u0142alno\u015bci (np. amenity=training + training=*, amenity=dancing_school, amenity=language_school, amenity=music_school) albo amenity=school, amenity=college, albo landuse=education w zale\u017cno\u015bci od tego, jakie plac\u00f3wki wchodz\u0105 w sk\u0142ad zespo\u0142u. Sprawd\u017a, kiedy stosowa\u0107 amenity=* a kiedy landuse=education.",
                "note": "Parent RSPO: 27930"
            }
        },
        {
            "id": 25611,
            "type": "Feature",
            "geometry": {
                "type": "Point",
                "coordinates": [
                    19.94975,
                    52.11559
                ]
            },
            "properties": {
                "ref:rspo": 25611,
                "official_name": "Poradnia Psychologiczno-Pedagogiczna w \u0141owiczu",
                "name": "Poradnia Psychologiczno-Pedagogiczna w \u0141owiczu",
                "addr:country": "PL",
                "addr:postcode": "99-400",
                "addr:city": "\u0141owicz",
                "addr:street": "Armii Krajowej",
                "addr:housenumber": "6",
                "addr:teryt:simc": 432,
                "addr:teryt:sym_ul": 977031,
                "contact:phone": "+48 468374271",
                "contact:email": "poczta@poradnia.lowicz.pl",
                "ref:regon": "000739478",
                "ref:vatin": "PL8341593198",
                "operator": "Powiat \u0141owicki",
                "operator:type": "government",
                "healthcare": "counselling",
                "counselling_type": "education",
                "fixme": "w zale\u017cno\u015bci od przedmiotu dzia\u0142alno\u015bci (np. healthcare=counselling + counselling_type=education albo healthcare=psychotherapist)"
            }
        },
        {
            "id": 66170,
            "type": "Feature",
            "geometry": {
                "type": "Point",
                "coordinates": [
                    19.95234,
                    52.11659
                ]
            },
            "properties": {
                "ref:rspo": 66170,
                "official_name": "Przedszkole Nr 5 Z Oddzia\u0142ami Integracyjnymi \"Ja\u015b I Ma\u0142gosia\" w \u0141owiczu, Ul. J\u00f3zefa Che\u0142mo\u0144skiego 4",
                "name": "Przedszkole Nr 5 Z Oddzia\u0142ami Integracyjnymi \"Ja\u015b I Ma\u0142gosia\" w \u0141owiczu, Ul. J\u00f3zefa Che\u0142mo\u0144skiego 4",
                "addr:country": "PL",
                "addr:postcode": "99-400",
                "addr:city": "\u0141owicz",
                "addr:street": "J\u00f3zefa Che\u0142mo\u0144skiego",
                "addr:housenumber": "4",
                "addr:teryt:simc": 2706,
                "addr:teryt:sym_ul": 977031,
                "contact:phone": "+48 468373899",
                "contact:email": "p5lowicz@op.pl",
                "contact:website": "http:\/\/www.p5lowicz.wikom.pl",
                "ref:regon": "750020542",
                "ref:vatin": "PL8341669180",
                "operator": "Miasto \u0141owicz",
                "operator:type": "government",
                "amenity": "kindergarten"
            }
        },
        {
            "id": 66178,
            "type": "Feature",
            "geometry": {
                "type": "Point",
                "coordinates": [
                    19.94074,
                    52.11744
                ]
            },
            "properties": {
                "ref:rspo": 66178,
                "official_name": "Przedszkole Niepubliczne Diecezji \u0141owickiej im. B\u0142.boles\u0142awy Lamentw \u0141owiczu",
                "name": "Przedszkole Niepubliczne Diecezji \u0141owickiej",
                "addr:country": "PL",
                "addr:postcode": "99-400",
                "addr:city": "\u0141owicz",
                "addr:street": "Seminaryjna",
                "addr:housenumber": "6",
                "addr:teryt:simc": 19665,
                "addr:teryt:sym_ul": 977031,
                "contact:phone": "+48 468376218",
                "contact:email": "przedszkole1@diecezja.lowicz.pl",
                "contact:website": "http:\/\/www.przedszkole.diecezja.lowicz.pl",
                "ref:regon": "101495963",
                "ref:vatin": "PL8341869140",
                "operator": "Diecezja \u0141owicka",
                "operator:type": "religious",
                "amenity": "kindergarten"
            }
        },
        {
            "id": 30399,
            "type": "Feature",
            "geometry": {
                "type": "Point",
                "coordinates": [
                    19.97226,
                    52.1180499
                ]
            },
            "properties": {
                "isced:level": "1;2",
                "ref:rspo": 30399,
                "official_name": "Szko\u0142a Podstawowa im.janusza Korczaka w Popowie",
                "name": "Szko\u0142a Podstawowa im.janusza Korczaka w Popowie",
                "addr:country": "PL",
                "addr:postcode": "99-400",
                "addr:city": "\u0141owicz",
                "addr:street": "Pozna\u0144ska",
                "addr:housenumber": "4",
                "addr:teryt:simc": 17394,
                "addr:teryt:sym_ul": 977031,
                "contact:phone": "+48 468376305",
                "contact:email": "sppopow1@wp.pl",
                "contact:website": "http:\/\/sppopow1.superszkolna.pl",
                "ref:regon": "001130176",
                "ref:vatin": "PL8341553796",
                "operator": "Gmina \u0141owicz",
                "operator:type": "government",
                "amenity": "school"
            }
        },
        {
            "id": 91657,
            "type": "Feature",
            "geometry": {
                "type": "Point",
                "coordinates": [
                    19.94543,
                    52.11922
                ]
            },
            "properties": {
                "isced:level": "1;2",
                "ref:rspo": 91657,
                "official_name": "Szko\u0142a Podstawowa Nr 3 im. Kard. Karola Wojty\u0142y - Papie\u017ca Polaka",
                "name": "Szko\u0142a Podstawowa Nr 3",
                "addr:country": "PL",
                "addr:postcode": "99-400",
                "addr:city": "\u0141owicz",
                "addr:street": "Grunwaldzka",
                "addr:housenumber": "9",
                "addr:teryt:simc": 6260,
                "addr:teryt:sym_ul": 977031,
                "contact:phone": "+48 468373703",
                "contact:email": "sp3lowicz@wp.pl",
                "contact:website": "http:\/\/www.trojkalowicz.edupage.org",
                "ref:regon": "000259175",
                "ref:vatin": "PL8341789754",
                "operator": "Miasto \u0141owicz",
                "operator:type": "government",
                "amenity": "school"
            }
        }
    ]
}