{"type":"FeatureCollection","features":[{"id":86835,"type":"Feature","geometry":{"type":"Point","coordinates":[19.80298,52.14835]},"properties":{"isced:level":"1;2","ref:rspo":86835,"official_name":"Szko\u0142a Podstawowa im. Pierwszego Marsza\u0142ka Polski J\u00f3zefa Pi\u0142sudskiego w Nowych Zdunach","name":"Szko\u0142a Podstawowa","addr:country":"PL","addr:postcode":"99-440","addr:place":"Nowe Zduny","addr:housenumber":"88","addr:teryt:sym_ul":739930,"contact:phone":"+48 468387537","contact:email":"spzduny@op.pl","contact:website":"http:\/\/spnowezduny.pl","ref:regon":"000563571","ref:vatin":"PL8341036693","operator":"Gmina Zduny","operator:type":"government","amenity":"school"}},{"id":29965,"type":"Feature","geometry":{"type":"Point","coordinates":[19.78082,52.15229]},"properties":{"ref:rspo":29965,"official_name":"Zesp\u00f3\u0142 Szk\u00f3\u0142 Centrum Kszta\u0142cenia Rolniczego im. Jadwigi Dziubi\u0144skiej w Zdu\u0144skiej D\u0105browie","name":"Zesp\u00f3\u0142 Szk\u00f3\u0142 Centrum Kszta\u0142cenia Rolniczego","addr:country":"PL","addr:postcode":"99-440","addr:place":"Zdu\u0144ska D\u0105browa","addr:housenumber":"64","addr:teryt:sym_ul":739952,"contact:phone":"+48 468387495","contact:email":"szkola@zspzd-technikum.pl","contact:website":"http:\/\/www.zspzd-technikum.pl","ref:regon":"000096201","ref:vatin":"PL8341293757","operator":"Ministerstwo Rolnictwa I Rozwoju Wsi","operator:type":"public","landuse":"education","fixme":"amenity=school, amenity=college albo landuse=education w zale\u017cno\u015bci od tego, jakie plac\u00f3wki wchodz\u0105 w sk\u0142ad zespo\u0142u. Sprawd\u017a, kiedy stosowa\u0107 amenity=* a kiedy landuse=education.","note":"Children RSPO: 85065;85066;85068;85070"}},{"id":85065,"type":"Feature","geometry":{"type":"Point","coordinates":[19.78082,52.15226]},"properties":{"isced:level":"3","ref:rspo":85065,"official_name":"Technikum w Zdu\u0144skiej D\u0105browie","name":"Technikum w Zdu\u0144skiej D\u0105browie","addr:country":"PL","addr:postcode":"99-440","addr:place":"Zdu\u0144ska D\u0105browa","addr:housenumber":"64","addr:teryt:sym_ul":739952,"contact:phone":"+48 468387495","contact:email":"szkola@zspzd-technikum.pl","contact:website":"http:\/\/www.zspzd-technikum.pl","ref:regon":"100616502","operator":"Ministerstwo Rolnictwa I Rozwoju Wsi","operator:type":"public","amenity":"school","note":"Parent RSPO: 29965"}},{"id":85066,"type":"Feature","geometry":{"type":"Point","coordinates":[19.78082,52.15223]},"properties":{"isced:level":"3","ref:rspo":85066,"official_name":"Bran\u017cowa Szko\u0142a I Stopnia w Zdu\u0144skiej D\u0105browie","name":"Bran\u017cowa Szko\u0142a I Stopnia w Zdu\u0144skiej D\u0105browie","addr:country":"PL","addr:postcode":"99-440","addr:place":"Zdu\u0144ska D\u0105browa","addr:housenumber":"64","addr:teryt:sym_ul":739952,"contact:phone":"+48 468387495","contact:email":"szkola@zspzd-technikum.pl","contact:website":"http:\/\/www.zspzd-technikum.pl","ref:regon":"750215079","operator":"Ministerstwo Rolnictwa I Rozwoju Wsi","operator:type":"public","amenity":"school","note":"Parent RSPO: 29965"}},{"id":85068,"type":"Feature","geometry":{"type":"Point","coordinates":[19.78082,52.1522]},"properties":{"isced:level":"4","ref:rspo":85068,"official_name":"Szko\u0142a Policealna w Zdu\u0144skiej D\u0105browie","name":"Szko\u0142a Policealna w Zdu\u0144skiej D\u0105browie","addr:country":"PL","addr:postcode":"79-440","addr:place":"Zdu\u0144ska D\u0105browa","addr:housenumber":"64","addr:teryt:sym_ul":739952,"contact:phone":"+48 468387495","contact:email":"szkola@zspzd-technikum.pl","contact:website":"http:\/\/www.zspzd-technikum.pl","ref:regon":"100175759","operator":"Ministerstwo Rolnictwa I Rozwoju Wsi","operator:type":"public","amenity":"college","note":"Parent RSPO: 29965"}},{"id":85070,"type":"Feature","geometry":{"type":"Point","coordinates":[19.78082,52.15217]},"properties":{"ref:rspo":85070,"official_name":"Centrum Kszta\u0142cenia Ustawicznego w Zdu\u0144skiej D\u0105browie","name":"Centrum Kszta\u0142cenia Ustawicznego w Zdu\u0144skiej D\u0105browie","addr:country":"PL","addr:postcode":"99-440","addr:place":"Zdu\u0144ska D\u0105browa","addr:housenumber":"64","addr:teryt:sym_ul":739952,"contact:phone":"+48 468387495","contact:email":"szkola@zspzd-technikum.pl","contact:website":"http:\/\/www.zspzd-technikum.pl","ref:regon":"101501333","operator":"Ministerstwo Rolnictwa I Rozwoju Wsi","operator:type":"public","fixme":"w zale\u017cno\u015bci od przedmiotu dzia\u0142alno\u015bci (np. amenity=training + training=*, amenity=dancing_school, amenity=language_school, amenity=music_school)","note":"Parent RSPO: 29965"}},{"id":86836,"type":"Feature","geometry":{"type":"Point","coordinates":[19.7249171,52.156277]},"properties":{"isced:level":"1;2","ref:rspo":86836,"official_name":"Szko\u0142a Podstawowa im. Janusza Korczaka w B\u0105kowie G\u00f3rnym","name":"Szko\u0142a Podstawowa","addr:country":"PL","addr:postcode":"99-440","addr:place":"B\u0105k\u00f3w G\u00f3rny","addr:housenumber":"123","addr:teryt:sym_ul":739685,"contact:phone":"+48 468387966","contact:email":"spbakow@wp.pl","ref:regon":"001123733","ref:vatin":"PL8341036776","operator":"Gmina Zduny","operator:type":"government","amenity":"school"}}]}