{"type":"FeatureCollection","features":[{"id":41127,"type":"Feature","geometry":{"type":"Point","coordinates":[19.89115,52.04862]},"properties":{"ref:rspo":41127,"official_name":"Zesp\u00f3\u0142 Szk\u00f3\u0142 Stowarzyszenia Na Rzecz Rozwoju O\u015bwiaty Gminy \u0141owicz","name":"Zesp\u00f3\u0142 Szk\u00f3\u0142 Stowarzyszenia Na Rzecz Rozwoju O\u015bwiaty Gminy \u0141owicz","addr:country":"PL","addr:postcode":"99-400","addr:place":"Jamno","addr:housenumber":"112","addr:teryt:sym_ul":730164,"contact:phone":"+48 468389090","contact:email":"spjamno@wp.pl","contact:website":"http:\/\/zsjamno.szkolnastrona.pl","ref:regon":"101488325","ref:vatin":"PL8341880408","operator":"Stowarzyszenie Na Rzecz Rozwoju O\u015bwiaty Gminy \u0141owicz","operator:type":"ngo","landuse":"education","fixme":"amenity=school, amenity=college albo landuse=education w zale\u017cno\u015bci od tego, jakie plac\u00f3wki wchodz\u0105 w sk\u0142ad zespo\u0142u. Sprawd\u017a, kiedy stosowa\u0107 amenity=* a kiedy landuse=education.","note":"Children RSPO: 60475;60480;60580"}},{"id":60475,"type":"Feature","geometry":{"type":"Point","coordinates":[19.89115,52.04859]},"properties":{"isced:level":"1;2","ref:rspo":60475,"official_name":"Szko\u0142a Podstawowa w Jamnie","name":"Szko\u0142a Podstawowa w Jamnie","addr:country":"PL","addr:postcode":"99-400","addr:place":"Jamno","addr:housenumber":"112","addr:teryt:sym_ul":730164,"contact:phone":"+48 468389090","contact:email":"spjamno@wp.pl","contact:website":"http:\/\/zsjamno.szkolnastrona.pl","ref:regon":"101494780","ref:vatin":"PL8341880408","operator":"Stowarzyszenie Na Rzecz Rozwoju O\u015bwiaty Gminy \u0141owicz","operator:type":"ngo","amenity":"school","note":"Parent RSPO: 41127"}},{"id":60580,"type":"Feature","geometry":{"type":"Point","coordinates":[19.94648,52.05333]},"properties":{"isced:level":"1;2","ref:rspo":60580,"official_name":"Szko\u0142a Podstawowa w Wygodzie","name":"Szko\u0142a Podstawowa w Wygodzie","addr:country":"PL","addr:postcode":"99-400","addr:place":"Wygoda","addr:housenumber":"2","addr:teryt:sym_ul":730543,"contact:phone":"+48 468389095","contact:email":"spwygoda@op.pl","contact:website":"http:\/\/zsjamno.szkolnastrona.pl","ref:regon":"101494811","ref:vatin":"PL8341880408","operator":"Stowarzyszenie Na Rzecz Rozwoju O\u015bwiaty Gminy \u0141owicz","operator:type":"ngo","amenity":"school","note":"Parent RSPO: 41127"}},{"id":31038,"type":"Feature","geometry":{"type":"Point","coordinates":[19.86572,52.0775999]},"properties":{"isced:level":"1;2","ref:rspo":31038,"official_name":"Szko\u0142a Podstawowa im.bohater\u00f3w Wrze\u015bnia w D\u0105bkowicach","name":"Szko\u0142a Podstawowa im.bohater\u00f3w Wrze\u015bnia w D\u0105bkowicach","addr:country":"PL","addr:postcode":"99-400","addr:place":"D\u0105bkowice Dolne","addr:housenumber":"50","addr:teryt:sym_ul":730112,"contact:phone":"+48 468371489","contact:email":"spdabkowice@wp.pl","contact:website":"http:\/\/spdabkowice.edupage.org","ref:regon":"001130147","ref:vatin":"PL8341554956","operator":"Gmina \u0141owicz","operator:type":"government","amenity":"school"}},{"id":30314,"type":"Feature","geometry":{"type":"Point","coordinates":[19.96709,52.09396]},"properties":{"isced:level":"1;2","ref:rspo":30314,"official_name":"Szko\u0142a Podstawowa im.marii Konopnickiej w Zielkowicach","name":"Szko\u0142a Podstawowa im.marii Konopnickiej w Zielkowicach","addr:country":"PL","addr:postcode":"99-400","addr:city":"Zielkowice","addr:street":"ul. Starowiejska","addr:housenumber":"101","addr:teryt:simc":20998,"addr:teryt:sym_ul":730595,"contact:phone":"+48 468374315","contact:email":"szkola@spzielkowice.pl","contact:website":"http:\/\/spzielkowice.superszkolna.pl","ref:regon":"001130130","ref:vatin":"PL8341553678","operator":"Gmina \u0141owicz","operator:type":"government","amenity":"school"}},{"id":60480,"type":"Feature","geometry":{"type":"Point","coordinates":[19.89355,52.14542]},"properties":{"isced:level":"1;2","ref:rspo":60480,"official_name":"Szko\u0142a Podstawowa w Nied\u017awiadzie","name":"Szko\u0142a Podstawowa w Nied\u017awiadzie","addr:country":"PL","addr:postcode":"99-400","addr:place":"Nied\u017awiada","addr:housenumber":"43","addr:teryt:sym_ul":730299,"contact:phone":"+48 468389923","contact:email":"spn43@wp.pl","contact:website":"http:\/\/zsjamno.szkolnastrona.pl","ref:regon":"101494774","ref:vatin":"PL8341880408","operator":"Stowarzyszenie Na Rzecz Rozwoju O\u015bwiaty Gminy \u0141owicz","operator:type":"ngo","amenity":"school","note":"Parent RSPO: 41127"}}]}