{
    "type": "FeatureCollection",
    "features": [
        {
            "id": 58821,
            "type": "Feature",
            "geometry": {
                "type": "Point",
                "coordinates": [
                    20.03018,
                    52.02176
                ]
            },
            "properties": {
                "ref:rspo": 58821,
                "official_name": "Przedszkole w Be\u0142chowie",
                "name": "Przedszkole w Be\u0142chowie",
                "addr:postcode": "99-418",
                "addr:city": "Be\u0142ch\u00f3w",
                "addr:street": "1 Maja",
                "addr:housenumber": "9",
                "addr:city:simc": 733100,
                "addr:street:sym_ul": 11926,
                "phone": "+48 664759894",
                "email": "przedszkolebelchow@o2.pl",
                "ref:regon": "750021062",
                "ref:vatin": "PL8341552609",
                "operator": "Gmina Niebor\u00f3w",
                "operator:type": "government",
                "amenity": "kindergarten"
            }
        },
        {
            "id": 58816,
            "type": "Feature",
            "geometry": {
                "type": "Point",
                "coordinates": [
                    20.05542,
                    52.0257
                ]
            },
            "properties": {
                "isced:level": "1;2",
                "ref:rspo": 58816,
                "official_name": "Szko\u0142a Podstawowa im. W\u0142adys\u0142awa Broniewskiego w Be\u0142chowie",
                "name": "Szko\u0142a Podstawowa",
                "addr:postcode": "99-418",
                "addr:place": "Be\u0142ch\u00f3w",
                "addr:housenumber": "85",
                "addr:city:simc": 733100,
                "phone": "+48 468386777",
                "email": "sp_belchow@wp.pl",
                "ref:regon": "001117862",
                "ref:vatin": "PL8341552555",
                "operator": "Gmina Niebor\u00f3w",
                "operator:type": "government",
                "amenity": "school"
            }
        },
        {
            "id": 58818,
            "type": "Feature",
            "geometry": {
                "type": "Point",
                "coordinates": [
                    20.02288,
                    52.03146
                ]
            },
            "properties": {
                "isced:level": "1;2",
                "ref:rspo": 58818,
                "official_name": "Szko\u0142a Podstawowa w Dzierzg\u00f3wku",
                "name": "Szko\u0142a Podstawowa w Dzierzg\u00f3wku",
                "addr:postcode": "99-418",
                "addr:place": "Dzierzg\u00f3wek",
                "addr:housenumber": "15",
                "addr:city:simc": 733211,
                "phone": "+48 468386779",
                "email": "spdzierzgowek@o2.pl",
                "ref:regon": "001115745",
                "ref:vatin": "PL8341552489",
                "operator": "Gmina Niebor\u00f3w",
                "operator:type": "government",
                "amenity": "school"
            }
        },
        {
            "id": 58817,
            "type": "Feature",
            "geometry": {
                "type": "Point",
                "coordinates": [
                    20.0252899,
                    52.06003
                ]
            },
            "properties": {
                "isced:level": "1;2",
                "ref:rspo": 58817,
                "official_name": "Szko\u0142a Podstawowa im. Leokadii Ostrowskiej w Bobrownikach",
                "name": "Szko\u0142a Podstawowa",
                "addr:postcode": "99-418",
                "addr:place": "Bobrowniki",
                "addr:housenumber": "126",
                "addr:city:simc": 733151,
                "phone": "+48 468386710",
                "email": "spbobrowniki@poczta.onet.pl",
                "ref:regon": "001115739",
                "ref:vatin": "PL8341552578",
                "operator": "Gmina Niebor\u00f3w",
                "operator:type": "government",
                "amenity": "school"
            }
        },
        {
            "id": 58820,
            "type": "Feature",
            "geometry": {
                "type": "Point",
                "coordinates": [
                    20.06831,
                    52.0757199
                ]
            },
            "properties": {
                "ref:rspo": 58820,
                "official_name": "Zesp\u00f3\u0142 Plac\u00f3wek O\u015bwiatowych w Nieborowie",
                "name": "Zesp\u00f3\u0142 Plac\u00f3wek O\u015bwiatowych w Nieborowie",
                "addr:postcode": "99-416",
                "addr:city": "Niebor\u00f3w",
                "addr:street": "Aleja Legion\u00f3w Polskich",
                "addr:housenumber": "92",
                "addr:city:simc": 733412,
                "addr:street:sym_ul": 45181,
                "phone": "+48 468385694",
                "email": "szkolanieborow@op.pl",
                "ref:regon": "100072858",
                "ref:vatin": "PL8341794637",
                "operator": "Gmina Niebor\u00f3w",
                "operator:type": "government",
                "landuse": "education",
                "fixme": "amenity=school, amenity=college albo landuse=education w zale\u017cno\u015bci od tego, jakie plac\u00f3wki wchodz\u0105 w sk\u0142ad zespo\u0142u. Sprawd\u017a, kiedy stosowa\u0107 amenity=* a kiedy landuse=education.",
                "note": "Children RSPO: 69850;69851"
            }
        },
        {
            "id": 69850,
            "type": "Feature",
            "geometry": {
                "type": "Point",
                "coordinates": [
                    20.06831,
                    52.0756899
                ]
            },
            "properties": {
                "isced:level": "1;2",
                "ref:rspo": 69850,
                "official_name": "Szko\u0142a Podstawowa w Nieborowie",
                "name": "Szko\u0142a Podstawowa w Nieborowie",
                "addr:postcode": "99-416",
                "addr:city": "Niebor\u00f3w",
                "addr:street": "Aleja Legion\u00f3w Polskich",
                "addr:housenumber": "92",
                "addr:city:simc": 733412,
                "addr:street:sym_ul": 45181,
                "phone": "+48 468385694",
                "email": "szkolanieborow@op.pl",
                "ref:regon": "000273637",
                "operator": "Gmina Niebor\u00f3w",
                "operator:type": "government",
                "amenity": "school",
                "note": "Parent RSPO: 58820"
            }
        },
        {
            "id": 69851,
            "type": "Feature",
            "geometry": {
                "type": "Point",
                "coordinates": [
                    20.06831,
                    52.075659900000005
                ]
            },
            "properties": {
                "ref:rspo": 69851,
                "official_name": "Przedszkole w Nieborowie",
                "name": "Przedszkole w Nieborowie",
                "addr:postcode": "99-416",
                "addr:city": "Niebor\u00f3w",
                "addr:street": "Aleja Legion\u00f3w Polskich",
                "addr:housenumber": "92",
                "addr:city:simc": 733412,
                "addr:street:sym_ul": 45181,
                "phone": "+48 468385694",
                "email": "szkolanieborow@op.pl",
                "ref:regon": "750021056",
                "operator": "Gmina Niebor\u00f3w",
                "operator:type": "government",
                "amenity": "kindergarten",
                "note": "Parent RSPO: 58820"
            }
        },
        {
            "id": 58819,
            "type": "Feature",
            "geometry": {
                "type": "Point",
                "coordinates": [
                    20.0154299,
                    52.0891
                ]
            },
            "properties": {
                "isced:level": "1;2",
                "ref:rspo": 58819,
                "official_name": "Szko\u0142a Podstawowa im. Marii Konopnickiej w Mys\u0142akowie",
                "name": "Szko\u0142a Podstawowa",
                "addr:postcode": "99-416",
                "addr:city": "Mys\u0142ak\u00f3w",
                "addr:street": "Szkolna",
                "addr:housenumber": "32",
                "addr:city:simc": 733323,
                "addr:street:sym_ul": 21970,
                "phone": "+48 468385925",
                "email": "szkolapodstawowamyslakow@poczta.onet.pl",
                "ref:regon": "001115805",
                "ref:vatin": "PL8341552383",
                "operator": "Gmina Niebor\u00f3w",
                "operator:type": "government",
                "amenity": "school"
            }
        },
        {
            "id": 58815,
            "type": "Feature",
            "geometry": {
                "type": "Point",
                "coordinates": [
                    20.05992,
                    52.11158
                ]
            },
            "properties": {
                "isced:level": "1;2",
                "ref:rspo": 58815,
                "official_name": "Szko\u0142a Podstawowa im. Jana Paw\u0142a II w Bednarach",
                "name": "Szko\u0142a Podstawowa",
                "addr:postcode": "99-416",
                "addr:city": "Bednary",
                "addr:street": "Aleja Legion\u00f3w Polskich",
                "addr:housenumber": "61",
                "addr:city:simc": 733004,
                "addr:street:sym_ul": 45181,
                "phone": "+48 468386576",
                "email": "spbednary@wp.pl",
                "ref:regon": "001115640",
                "ref:vatin": "PL8341552414",
                "operator": "Gmina Niebor\u00f3w",
                "operator:type": "government",
                "amenity": "school"
            }
        }
    ]
}