{"type":"FeatureCollection","features":[{"id":23406,"type":"Feature","geometry":{"type":"Point","coordinates":[17.75422,52.039657]},"properties":{"ref:rspo":23406,"official_name":"Centrum Edukacji Atut Wielkopolska","name":"Centrum Edukacji Atut Wielkopolska","addr:country":"PL","addr:postcode":"63-308","addr:place":"Nowa Wie\u015b","addr:housenumber":"14","addr:teryt:sym_ul":197853,"contact:phone":"+48 655119738","contact:email":"grazyna-wlodarczak@ceatut.pl","contact:website":"http:\/\/www.ceatut.pl","ref:regon":"302233360","operator":"Centrum Edukacji Atut - Wielkopolska Jaros\u0142aw Jastrz\u0119bski Sp\u00f3\u0142ka Jawna","operator:type":"private","fixme":"w zale\u017cno\u015bci od przedmiotu dzia\u0142alno\u015bci (np. amenity=training + training=*, amenity=dancing_school, amenity=language_school, amenity=music_school)"}},{"id":34891,"type":"Feature","geometry":{"type":"Point","coordinates":[17.75422,52.039626999999996]},"properties":{"ref:rspo":34891,"official_name":"Przedszkole Publiczne \"Smerfy\" w Nowej Wsi","name":"Przedszkole Publiczne \"Smerfy\" w Nowej Wsi","addr:country":"PL","addr:postcode":"63-308","addr:place":"Nowa Wie\u015b","addr:housenumber":"14","addr:teryt:sym_ul":197853,"contact:phone":"+48 627411314","contact:email":"p.smerfy40@gmail.com","contact:website":"http:\/\/p-smerfy.stronyzklasa.pl","ref:regon":"251590441","ref:vatin":"PL6171987542","operator":"Gmina Giza\u0142ki","operator:type":"government","amenity":"kindergarten"}},{"id":56451,"type":"Feature","geometry":{"type":"Point","coordinates":[17.77044,52.04172]},"properties":{"isced:level":"1;2","ref:rspo":56451,"official_name":"Szko\u0142a Podstawowa im. Ojca \u015aw. Jana Paw\u0142a II w Giza\u0142kach","name":"Szko\u0142a Podstawowa","addr:country":"PL","addr:postcode":"63-308","addr:city":"Giza\u0142ki","addr:street":"ul. Kaliska","addr:housenumber":"25","addr:teryt:simc":7823,"addr:teryt:sym_ul":197882,"contact:phone":"+48 627411514","contact:email":"sekretariat@spgizalki.pl","ref:regon":"000269328","ref:vatin":"PL6171986525","operator":"Gmina Giza\u0142ki","operator:type":"government","amenity":"school"}},{"id":89397,"type":"Feature","geometry":{"type":"Point","coordinates":[17.77044,52.041689999999996]},"properties":{"ref:rspo":89397,"official_name":"Szkolne Schronisko M\u0142odzie\u017cowe Sezonowe w Giza\u0142kach","name":"Szkolne Schronisko M\u0142odzie\u017cowe Sezonowe w Giza\u0142kach","addr:country":"PL","addr:postcode":"63-308","addr:city":"Giza\u0142ki","addr:street":"ul. Kaliska","addr:housenumber":"25","addr:teryt:simc":7823,"addr:teryt:sym_ul":197882,"contact:phone":"+48 627411514","contact:email":"sekretariatzs@zsgizalki.pl","ref:regon":"302275460","operator":"Gmina Giza\u0142ki","operator:type":"government","tourism":"hostel"}},{"id":131965,"type":"Feature","geometry":{"type":"Point","coordinates":[17.77044,52.04166]},"properties":{"isced:level":"3","ref:rspo":131965,"official_name":"Prestige Liceum Og\u00f3lnokszta\u0142c\u0105ce w Giza\u0142kach","name":"Prestige Liceum Og\u00f3lnokszta\u0142c\u0105ce w Giza\u0142kach","addr:country":"PL","addr:postcode":"63-308","addr:city":"Giza\u0142ki","addr:street":"ul. Kaliska","addr:housenumber":"25","addr:teryt:simc":7823,"addr:teryt:sym_ul":197882,"contact:phone":"+48 523533967","ref:regon":"365393123","operator":"Tw\u00f3j Prestige Sp\u00f3\u0142ka Z Ograniczon\u0105 Odpowiedzialno\u015bci\u0105","operator:type":"private","amenity":"school"}},{"id":72513,"type":"Feature","geometry":{"type":"Point","coordinates":[17.941823,52.048612]},"properties":{"isced:level":"1;2","ref:rspo":72513,"official_name":"Szko\u0142a Podstawowa im. Marii Konopnickiej w Bia\u0142ob\u0142otach","name":"Szko\u0142a Podstawowa","addr:country":"PL","addr:postcode":"63-308","addr:place":"Bia\u0142ob\u0142oty","addr:housenumber":"20","addr:teryt:sym_ul":197830,"contact:phone":"+48 627411633","contact:email":"sp_bialobloty@poczta.onet.pl","contact:website":"http:\/\/www.bialobloty.szkolnastrona.pl","ref:regon":"001171301","ref:vatin":"PL6171992862","operator":"Gmina Giza\u0142ki","operator:type":"government","amenity":"school"}},{"id":89396,"type":"Feature","geometry":{"type":"Point","coordinates":[17.941823,52.048581999999996]},"properties":{"ref:rspo":89396,"official_name":"Szkolne Schronisko M\u0142odzie\u017cowe Sezonowe w Bia\u0142ob\u0142otach","name":"Szkolne Schronisko M\u0142odzie\u017cowe Sezonowe w Bia\u0142ob\u0142otach","addr:country":"PL","addr:postcode":"63-308","addr:place":"Bia\u0142ob\u0142oty","addr:housenumber":"20","addr:teryt:sym_ul":197830,"contact:phone":"+48 627411633","contact:email":"sp_bialobloty@poczta.onet.pl","ref:regon":"302275424","operator":"Gmina Giza\u0142ki","operator:type":"government","tourism":"hostel"}},{"id":34889,"type":"Feature","geometry":{"type":"Point","coordinates":[17.73905,52.06535]},"properties":{"isced:level":"1;2","ref:rspo":34889,"official_name":"Szko\u0142a Podstawowa im. Obro\u0144c\u00f3w Tobruku w Tomicach","name":"Szko\u0142a Podstawowa","addr:country":"PL","addr:postcode":"63-308","addr:city":"Tomice","addr:street":"ul. Wrzesi\u0144ska","addr:housenumber":"2","addr:teryt:simc":24851,"addr:teryt:sym_ul":198019,"contact:phone":"+48 627411110","contact:email":"sp_tomice@poczta.onet.pl","contact:website":"http:\/\/sptomice.pl","ref:regon":"250002979","ref:vatin":"PL6171979867","operator":"Gmina Giza\u0142ki","operator:type":"government","amenity":"school"}},{"id":89398,"type":"Feature","geometry":{"type":"Point","coordinates":[17.73905,52.06532]},"properties":{"ref:rspo":89398,"official_name":"Szkolne Schronisko M\u0142odzie\u017cowe Sezonowe w Tomicach","name":"Szkolne Schronisko M\u0142odzie\u017cowe Sezonowe w Tomicach","addr:country":"PL","addr:postcode":"63-308","addr:city":"Tomice","addr:street":"ul. Wrzesi\u0144ska","addr:housenumber":"2","addr:teryt:simc":24851,"addr:teryt:sym_ul":198019,"contact:phone":"+48 627411110","contact:email":"sp_tomice@poczta.onet.pl","ref:regon":"302275447","operator":"Gmina Giza\u0142ki","operator:type":"government","tourism":"hostel"}}]}