{
    "type": "FeatureCollection",
    "features": [
        {
            "id": 8435,
            "type": "Feature",
            "geometry": {
                "type": "Point",
                "coordinates": [
                    17.83975,
                    51.82953
                ]
            },
            "properties": {
                "ref:rspo": 8435,
                "official_name": "Publiczne Przedszkole w Kuczkowie",
                "name": "Publiczne Przedszkole w Kuczkowie",
                "addr:country": "PL",
                "addr:postcode": "63-300",
                "addr:city": "Kuczk\u00f3w",
                "addr:street": "Parkowa",
                "addr:housenumber": "11",
                "addr:teryt:simc": 207043,
                "addr:teryt:sym_ul": 15710,
                "contact:phone": "+48 627418629",
                "contact:email": "zsp_kuczkow@poczta.onet.pl",
                "contact:website": "http:\/\/www.zskuczkow.szkolna.net",
                "ref:regon": "302202738",
                "operator": "Stowarzyszenie \"Pionier\"",
                "operator:type": "ngo",
                "amenity": "kindergarten"
            }
        },
        {
            "id": 115377,
            "type": "Feature",
            "geometry": {
                "type": "Point",
                "coordinates": [
                    17.83975,
                    51.829499999999996
                ]
            },
            "properties": {
                "isced:level": "1;2",
                "ref:rspo": 115377,
                "official_name": "Publiczna Szko\u0142a Podstawowa im. Tw\u00f3rc\u00f3w Ludowych w Kuczkowie",
                "name": "Publiczna Szko\u0142a Podstawowa",
                "addr:country": "PL",
                "addr:postcode": "63-300",
                "addr:city": "Kuczk\u00f3w",
                "addr:street": "Parkowa",
                "addr:housenumber": "11",
                "addr:teryt:simc": 207043,
                "addr:teryt:sym_ul": 15710,
                "contact:phone": "+48 627418629",
                "contact:email": "zsp_kuczkow@poczta.onet.pl",
                "contact:website": "http:\/\/www.zskuczkow.szkolna.net",
                "ref:regon": "302202744",
                "operator": "Stowarzyszenie \"Pionier\"",
                "operator:type": "ngo",
                "amenity": "school"
            }
        },
        {
            "id": 131952,
            "type": "Feature",
            "geometry": {
                "type": "Point",
                "coordinates": [
                    17.787734,
                    51.835032
                ]
            },
            "properties": {
                "ref:rspo": 131952,
                "official_name": "Niepubliczne Przedszkole w Sowinie B\u0142otnej",
                "name": "Niepubliczne Przedszkole w Sowinie B\u0142otnej",
                "addr:country": "PL",
                "addr:postcode": "63-300",
                "addr:place": "Sowina B\u0142otna",
                "addr:housenumber": "30",
                "addr:teryt:simc": 207250,
                "contact:phone": "+48 627419025",
                "contact:email": "zspsowina@pleszew.pl",
                "ref:regon": "365388731",
                "operator": "Stowarzyszenie \"Dolina Giszki\"",
                "operator:type": "ngo",
                "amenity": "kindergarten"
            }
        },
        {
            "id": 131953,
            "type": "Feature",
            "geometry": {
                "type": "Point",
                "coordinates": [
                    17.787734,
                    51.835001999999996
                ]
            },
            "properties": {
                "isced:level": "1;2",
                "ref:rspo": 131953,
                "official_name": "Niepubliczna Szko\u0142a Podstawowa im. Rotmistrza Witolda Pileckiego w Sowinie B\u0142otnej",
                "name": "Niepubliczna Szko\u0142a Podstawowa",
                "addr:country": "PL",
                "addr:postcode": "63-300",
                "addr:place": "Sowina B\u0142otna",
                "addr:housenumber": "30",
                "addr:teryt:simc": 207250,
                "contact:phone": "+48 627419025",
                "contact:email": "zspsowina@pleszew.pl",
                "ref:regon": "365388760",
                "operator": "Stowarzyszenie \"Dolina Giszki\"",
                "operator:type": "ngo",
                "amenity": "school"
            }
        },
        {
            "id": 11772,
            "type": "Feature",
            "geometry": {
                "type": "Point",
                "coordinates": [
                    17.758861,
                    51.843748
                ]
            },
            "properties": {
                "ref:rspo": 11772,
                "official_name": "Zesp\u00f3\u0142 Szk\u00f3\u0142 Publicznych w Taczanowie Drugim",
                "name": "Zesp\u00f3\u0142 Szk\u00f3\u0142 Publicznych w Taczanowie Drugim",
                "addr:country": "PL",
                "addr:postcode": "63-300",
                "addr:place": "Taczan\u00f3w Drugi",
                "addr:housenumber": "32c",
                "addr:teryt:simc": 207273,
                "contact:phone": "+48 627419106",
                "contact:email": "zsptaczanow@pleszew.pl",
                "contact:website": "http:\/\/www.zsptaczanowdrugi.pl",
                "ref:regon": "251471305",
                "ref:vatin": "PL6171950763",
                "operator": "Miasto I Gmina Pleszew",
                "operator:type": "government",
                "landuse": "education",
                "fixme": "amenity=school, amenity=college albo landuse=education w zale\u017cno\u015bci od tego, jakie plac\u00f3wki wchodz\u0105 w sk\u0142ad zespo\u0142u. Sprawd\u017a, kiedy stosowa\u0107 amenity=* a kiedy landuse=education.",
                "note": "Children RSPO: 15641;15642"
            }
        },
        {
            "id": 15641,
            "type": "Feature",
            "geometry": {
                "type": "Point",
                "coordinates": [
                    17.758861,
                    51.843717999999996
                ]
            },
            "properties": {
                "ref:rspo": 15641,
                "official_name": "Publiczne Przedszkole w Taczanowie Drugim",
                "name": "Publiczne Przedszkole w Taczanowie Drugim",
                "addr:country": "PL",
                "addr:postcode": "63-300",
                "addr:place": "Taczan\u00f3w Drugi",
                "addr:housenumber": "32c",
                "addr:teryt:simc": 207273,
                "contact:phone": "+48 627419106",
                "contact:email": "zsptaczanow2@op.pl",
                "contact:website": "http:\/\/www.zsptaczanowdrugi.pl",
                "ref:regon": "301006165",
                "operator": "Miasto I Gmina Pleszew",
                "operator:type": "government",
                "amenity": "kindergarten",
                "note": "Parent RSPO: 11772"
            }
        },
        {
            "id": 15642,
            "type": "Feature",
            "geometry": {
                "type": "Point",
                "coordinates": [
                    17.758861,
                    51.843688
                ]
            },
            "properties": {
                "isced:level": "1;2",
                "ref:rspo": 15642,
                "official_name": "Szko\u0142a Podstawowa im. Bohater\u00f3w Monte Cassino w Taczanowie Drugim",
                "name": "Szko\u0142a Podstawowa",
                "addr:country": "PL",
                "addr:postcode": "63-300",
                "addr:place": "Taczan\u00f3w Drugi",
                "addr:housenumber": "32c",
                "addr:teryt:simc": 207273,
                "contact:phone": "+48 627419106",
                "contact:email": "zsptaczanow@pleszew.pl",
                "contact:website": "http:\/\/www.zsptaczanowdrugi.pl",
                "ref:regon": "001173984",
                "operator": "Miasto I Gmina Pleszew",
                "operator:type": "government",
                "amenity": "school",
                "note": "Parent RSPO: 11772"
            }
        },
        {
            "id": 21106,
            "type": "Feature",
            "geometry": {
                "type": "Point",
                "coordinates": [
                    17.79955,
                    51.86102
                ]
            },
            "properties": {
                "ref:rspo": 21106,
                "official_name": "Publiczne Przedszkole w Dobrej Nadziei",
                "name": "Publiczne Przedszkole w Dobrej Nadziei",
                "addr:country": "PL",
                "addr:postcode": "63-300",
                "addr:city": "Dobra Nadzieja",
                "addr:street": "Ostrowska",
                "addr:housenumber": "40",
                "addr:teryt:simc": 206960,
                "addr:teryt:sym_ul": 15390,
                "contact:phone": "+48 627428381",
                "contact:email": "zspnr3@pleszew.pl",
                "contact:website": "http:\/\/www.trojka.pleszew.pl",
                "ref:regon": "250656155",
                "operator": "Miasto I Gmina Pleszew",
                "operator:type": "government",
                "amenity": "kindergarten",
                "note": "Parent RSPO: 11774"
            }
        },
        {
            "id": 272333,
            "type": "Feature",
            "geometry": {
                "type": "Point",
                "coordinates": [
                    17.81437,
                    51.87754
                ]
            },
            "properties": {
                "ref:rspo": 272333,
                "official_name": "Niepubliczne Przedszkole I \u017b\u0142obek \"Niezapominajka II\"",
                "name": "Niepubliczne Przedszkole I \u017b\u0142obek \"Niezapominajka II\"",
                "addr:country": "PL",
                "addr:postcode": "63-300",
                "addr:city": "Zielona \u0141\u0105ka",
                "addr:street": "D\u0142uga",
                "addr:housenumber": "43",
                "addr:teryt:simc": 207310,
                "addr:teryt:sym_ul": 3839,
                "contact:phone": "+48 663523448",
                "contact:email": "info@niezapominajka-pleszew.pl",
                "contact:website": "http:\/\/www.niezapominajka-pleszew.pl",
                "ref:regon": "384127148",
                "operator": "Monika Gorgosz",
                "operator:type": "private",
                "amenity": "kindergarten"
            }
        },
        {
            "id": 24706,
            "type": "Feature",
            "geometry": {
                "type": "Point",
                "coordinates": [
                    17.7875,
                    51.88319
                ]
            },
            "properties": {
                "ref:rspo": 24706,
                "official_name": "O\u015brodek Szkolenia Rewiz",
                "name": "O\u015brodek Szkolenia Rewiz",
                "addr:country": "PL",
                "addr:postcode": "63-300",
                "addr:city": "Pleszew",
                "addr:street": "Aleje Wojska Polskiego",
                "addr:housenumber": "36",
                "addr:door": "5",
                "addr:teryt:simc": 937280,
                "addr:teryt:sym_ul": 33863,
                "contact:email": "info@rewiz.com.pl",
                "ref:regon": "302234371",
                "operator": "Zygmunt Reszel",
                "operator:type": "private"
            }
        },
        {
            "id": 23910,
            "type": "Feature",
            "geometry": {
                "type": "Point",
                "coordinates": [
                    17.78965,
                    51.88319
                ]
            },
            "properties": {
                "isced:level": "3",
                "ref:rspo": 23910,
                "official_name": "Bran\u017cowa Szko\u0142a I Stopnia Stowarzyszenia 'Edukacja - M\u0142odzie\u017c'",
                "name": "Bran\u017cowa Szko\u0142a I Stopnia Stowarzyszenia 'Edukacja - M\u0142odzie\u017c'",
                "addr:country": "PL",
                "addr:postcode": "63-300",
                "addr:city": "Pleszew",
                "addr:street": "Aleje Wojska Polskiego",
                "addr:housenumber": "21",
                "addr:teryt:simc": 937280,
                "addr:teryt:sym_ul": 33863,
                "contact:phone": "+48 627427131",
                "contact:email": "szkoly_stowarzyszenie@interia.pl",
                "contact:website": "http:\/\/www.edukacja-pleszew.pl",
                "ref:regon": "302234247",
                "operator": "Stowarzyszenie \"Edukacja - M\u0142odzie\u017c\"",
                "operator:type": "ngo",
                "amenity": "school"
            }
        },
        {
            "id": 25548,
            "type": "Feature",
            "geometry": {
                "type": "Point",
                "coordinates": [
                    17.78965,
                    51.88316
                ]
            },
            "properties": {
                "ref:rspo": 25548,
                "official_name": "O\u015brodek Szkolenia Zawodowego Centrum Kszta\u0142cenia I Wychowania Ochotniczych Hufc\u00f3w Pracy w Pleszewie",
                "name": "O\u015brodek Szkolenia Zawodowego Centrum Kszta\u0142cenia I Wychowania Ochotniczych Hufc\u00f3w Pracy w Pleszewie",
                "addr:country": "PL",
                "addr:postcode": "63-300",
                "addr:city": "Pleszew",
                "addr:street": "Aleje Wojska Polskiego",
                "addr:housenumber": "21",
                "addr:teryt:simc": 937280,
                "addr:teryt:sym_ul": 33863,
                "contact:phone": "+48 627420602",
                "contact:email": "ckiwoszpleszew@wp.pl",
                "contact:website": "http:\/\/www.ckiw-pleszew.ohp.pl\/osz",
                "ref:regon": "302239517",
                "operator": "Centrum Kszta\u0142cenia I Wychowania Ochotniczych Hufc\u00f3w Pracy",
                "operator:type": "private"
            }
        },
        {
            "id": 120368,
            "type": "Feature",
            "geometry": {
                "type": "Point",
                "coordinates": [
                    17.78965,
                    51.88313
                ]
            },
            "properties": {
                "ref:rspo": 120368,
                "official_name": "Centrum Szkoleniowe - Propeller Jaros\u0142aw \u015amigielski",
                "name": "Centrum Szkoleniowe - Propeller Jaros\u0142aw \u015amigielski",
                "addr:country": "PL",
                "addr:postcode": "63-300",
                "addr:city": "Pleszew",
                "addr:street": "Aleje Wojska Polskiego",
                "addr:housenumber": "21",
                "addr:door": "`",
                "addr:teryt:simc": 937280,
                "addr:teryt:sym_ul": 33863,
                "contact:phone": "+48 501444885",
                "ref:regon": "302543327",
                "operator": "Jaros\u0142aw \u015amigielski",
                "operator:type": "private"
            }
        },
        {
            "id": 264045,
            "type": "Feature",
            "geometry": {
                "type": "Point",
                "coordinates": [
                    17.78965,
                    51.8831
                ]
            },
            "properties": {
                "isced:level": "1;2",
                "ref:rspo": 264045,
                "official_name": "Szko\u0142a Podstawowa Stowarzyszenie \"Edukacja - M\u0142odzie\u017c\" w Pleszewie",
                "name": "Szko\u0142a Podstawowa Stowarzyszenie \"Edukacja - M\u0142odzie\u017c\" w Pleszewie",
                "addr:country": "PL",
                "addr:postcode": "63-300",
                "addr:city": "Pleszew",
                "addr:street": "Aleje Wojska Polskiego",
                "addr:housenumber": "21",
                "addr:teryt:simc": 937280,
                "addr:teryt:sym_ul": 33863,
                "contact:phone": "+48 627427131",
                "contact:email": "szkoly_stowarzyszenie@interia.pl",
                "contact:website": "http:\/\/www.edukacja-pleszew.pl",
                "ref:regon": "368254965",
                "operator": "Stowarzyszenie \"Edukacja - M\u0142odzie\u017c\"",
                "operator:type": "ngo",
                "amenity": "school"
            }
        },
        {
            "id": 23000,
            "type": "Feature",
            "geometry": {
                "type": "Point",
                "coordinates": [
                    17.78418,
                    51.88395
                ]
            },
            "properties": {
                "ref:rspo": 23000,
                "official_name": "Ochrona Os\u00f3b I Mienia Jerzy Krawczyk",
                "name": "Ochrona Os\u00f3b I Mienia Jerzy Krawczyk",
                "addr:country": "PL",
                "addr:postcode": "63-300",
                "addr:city": "Pleszew",
                "addr:street": "Stefana Batorego",
                "addr:housenumber": "17",
                "addr:teryt:simc": 937280,
                "addr:teryt:sym_ul": 891,
                "contact:phone": "+48 609859001",
                "ref:regon": "302231361",
                "ref:vatin": "PL6171135543",
                "operator": "Jerzy Krawczyk",
                "operator:type": "private"
            }
        },
        {
            "id": 122270,
            "type": "Feature",
            "geometry": {
                "type": "Point",
                "coordinates": [
                    17.7763801,
                    51.8844245
                ]
            },
            "properties": {
                "ref:rspo": 122270,
                "official_name": "Niepubliczne Przedszkole \"Pszcz\u00f3\u0142ka Maja\"",
                "name": "Niepubliczne Przedszkole \"Pszcz\u00f3\u0142ka Maja\"",
                "addr:country": "PL",
                "addr:postcode": "63-300",
                "addr:city": "Pleszew",
                "addr:street": "W\u0142adys\u0142awa Warne\u0144czyka",
                "addr:housenumber": "26",
                "addr:teryt:simc": 937280,
                "addr:teryt:sym_ul": 23668,
                "contact:phone": "+48 698629481",
                "contact:email": "przedszkolemaja1@gmail.com",
                "contact:website": "http:\/\/przedszkole-maja.com.pl",
                "ref:regon": "302667443",
                "ref:vatin": "PL6080071062",
                "operator": "Maja Anna Walendowska",
                "operator:type": "private",
                "amenity": "kindergarten"
            }
        },
        {
            "id": 129618,
            "type": "Feature",
            "geometry": {
                "type": "Point",
                "coordinates": [
                    17.7892,
                    51.88463
                ]
            },
            "properties": {
                "ref:rspo": 129618,
                "official_name": "Niepubliczne Przedszkole I \u017b\u0142obek \"Niezapominajka\" Monika Gorgosz",
                "name": "Niepubliczne Przedszkole I \u017b\u0142obek \"Niezapominajka\" Monika Gorgosz",
                "addr:country": "PL",
                "addr:postcode": "63-300",
                "addr:city": "Pleszew",
                "addr:street": "Sportowa",
                "addr:housenumber": "1",
                "addr:teryt:simc": 937280,
                "addr:teryt:sym_ul": 20683,
                "contact:phone": "+48 663523448",
                "contact:email": "info@niezapominajka-pleszew.pl",
                "contact:website": "http:\/\/www.niezapominajka-pleszew.pl",
                "ref:regon": "362688869",
                "operator": "Monika Gorgosz",
                "operator:type": "private",
                "amenity": "kindergarten"
            }
        },
        {
            "id": 14637,
            "type": "Feature",
            "geometry": {
                "type": "Point",
                "coordinates": [
                    17.86927,
                    51.8850399
                ]
            },
            "properties": {
                "ref:rspo": 14637,
                "official_name": "Publiczne Przedszkole w Brzeziu",
                "name": "Publiczne Przedszkole w Brzeziu",
                "addr:country": "PL",
                "addr:postcode": "63-300",
                "addr:city": "Brzezie",
                "addr:street": "Stawiszy\u0144ska",
                "addr:housenumber": "3",
                "addr:teryt:simc": 206919,
                "addr:teryt:sym_ul": 21094,
                "contact:phone": "+48 627428379",
                "contact:email": "szkolabrzezie@tlen.pl",
                "contact:website": "http:\/\/www.dwojka.pleszew.pl",
                "ref:regon": "301005987",
                "operator": "Miasto I Gmina Pleszew",
                "operator:type": "government",
                "amenity": "kindergarten",
                "note": "Parent RSPO: 11775"
            }
        },
        {
            "id": 264639,
            "type": "Feature",
            "geometry": {
                "type": "Point",
                "coordinates": [
                    17.78093,
                    51.88509
                ]
            },
            "properties": {
                "ref:rspo": 264639,
                "official_name": "Niepubliczne Przedszkole \"Pszcz\u00f3\u0142ka Maja\"",
                "name": "Niepubliczne Przedszkole \"Pszcz\u00f3\u0142ka Maja\"",
                "addr:country": "PL",
                "addr:postcode": "63-300",
                "addr:city": "Pleszew",
                "addr:street": "Podg\u00f3rna",
                "addr:housenumber": "32",
                "addr:teryt:simc": 937280,
                "addr:teryt:sym_ul": 16742,
                "contact:phone": "+48 698629481",
                "contact:email": "przedszkolemaja1@gmail.com",
                "contact:website": "http:\/\/www.przedszkole-maja.com.pl",
                "ref:regon": "368407512",
                "operator": "Maja Anna Walendowska",
                "operator:type": "private",
                "amenity": "kindergarten"
            }
        },
        {
            "id": 11152,
            "type": "Feature",
            "geometry": {
                "type": "Point",
                "coordinates": [
                    17.77835,
                    51.88618
                ]
            },
            "properties": {
                "ref:rspo": 11152,
                "official_name": "Publiczne Przedszkole Nr 2 \"Mi\u015b Uszatek\" w Pleszewie",
                "name": "Publiczne Przedszkole Nr 2 \"Mi\u015b Uszatek\" w Pleszewie",
                "addr:country": "PL",
                "addr:postcode": "63-300",
                "addr:city": "Pleszew",
                "addr:street": "Mieszka I",
                "addr:housenumber": "20",
                "addr:teryt:simc": 937280,
                "addr:teryt:sym_ul": 12832,
                "contact:phone": "+48 627421438",
                "contact:email": "przedszkolenr2@pleszew.pl",
                "contact:website": "http:\/\/uszatek-pleszew.edupage.org",
                "ref:regon": "251595059",
                "ref:vatin": "PL6172017573",
                "operator": "Miasto I Gmina Pleszew",
                "operator:type": "government",
                "amenity": "kindergarten"
            }
        },
        {
            "id": 15634,
            "type": "Feature",
            "geometry": {
                "type": "Point",
                "coordinates": [
                    17.78532,
                    51.88708
                ]
            },
            "properties": {
                "ref:rspo": 15634,
                "official_name": "Centrum Kszta\u0142cenia Zawodowego w Pleszewie",
                "name": "Centrum Kszta\u0142cenia Zawodowego w Pleszewie",
                "addr:country": "PL",
                "addr:postcode": "63-300",
                "addr:city": "Pleszew",
                "addr:street": "Aleje Wojska Polskiego",
                "addr:housenumber": "4",
                "addr:teryt:simc": 937280,
                "addr:teryt:sym_ul": 33863,
                "contact:phone": "+48 627428975",
                "contact:email": "sekretariat@ckz-pleszew.pl",
                "contact:website": "http:\/\/www.ckz-pleszew.pl",
                "ref:regon": "250697480",
                "ref:vatin": "PL6171578157",
                "operator": "Powiat Pleszewski",
                "operator:type": "government",
                "fixme": "w zale\u017cno\u015bci od przedmiotu dzia\u0142alno\u015bci (np. amenity=training + training=*, amenity=dancing_school, amenity=language_school, amenity=music_school) albo amenity=school, amenity=college, albo landuse=education w zale\u017cno\u015bci od tego, jakie plac\u00f3wki wchodz\u0105 w sk\u0142ad zespo\u0142u. Sprawd\u017a, kiedy stosowa\u0107 amenity=* a kiedy landuse=education."
            }
        },
        {
            "id": 31596,
            "type": "Feature",
            "geometry": {
                "type": "Point",
                "coordinates": [
                    17.78587,
                    51.88729
                ]
            },
            "properties": {
                "ref:rspo": 31596,
                "official_name": "Pa\u0144stwowa Szko\u0142a Muzyczna I St. im. Wojciecha Kilara w Pleszewie",
                "name": "Pa\u0144stwowa Szko\u0142a Muzyczna I St.",
                "addr:country": "PL",
                "addr:postcode": "63-300",
                "addr:city": "Pleszew",
                "addr:street": "Aleje Wojska Polskiego",
                "addr:housenumber": "7",
                "addr:teryt:simc": 937280,
                "addr:teryt:sym_ul": 33863,
                "contact:phone": "+48 627422171",
                "contact:email": "psmpleszew@partnet.pl",
                "contact:website": "http:\/\/psmpleszew.republika.pl",
                "ref:regon": "003343835",
                "operator": "Ministerstwo Kultury I Dziedzictwa Narodowego",
                "operator:type": "public",
                "amenity": "music_school"
            }
        },
        {
            "id": 16284,
            "type": "Feature",
            "geometry": {
                "type": "Point",
                "coordinates": [
                    17.85939,
                    51.88738
                ]
            },
            "properties": {
                "ref:rspo": 16284,
                "official_name": "Zesp\u00f3\u0142 Plac\u00f3wek Specjalnych w Pleszewie",
                "name": "Zesp\u00f3\u0142 Plac\u00f3wek Specjalnych w Pleszewie",
                "addr:country": "PL",
                "addr:postcode": "63-300",
                "addr:city": "Pleszew",
                "addr:street": "Osiedlowa",
                "addr:housenumber": "1",
                "addr:teryt:simc": 937280,
                "addr:teryt:sym_ul": 15300,
                "contact:phone": "+48 627427877",
                "contact:email": "sekretariat@zps.pleszew.pl",
                "contact:website": "http:\/\/www.zps.pleszew.pl",
                "ref:regon": "251536275",
                "ref:vatin": "PL6172042312",
                "operator": "Powiat Pleszewski",
                "operator:type": "government",
                "landuse": "education",
                "fixme": "amenity=school, amenity=college albo landuse=education w zale\u017cno\u015bci od tego, jakie plac\u00f3wki wchodz\u0105 w sk\u0142ad zespo\u0142u. Sprawd\u017a, kiedy stosowa\u0107 amenity=* a kiedy landuse=education.",
                "note": "Children RSPO: 17224;17225;263895"
            }
        },
        {
            "id": 17224,
            "type": "Feature",
            "geometry": {
                "type": "Point",
                "coordinates": [
                    17.85939,
                    51.88735
                ]
            },
            "properties": {
                "isced:level": "1;2",
                "ref:rspo": 17224,
                "official_name": "Szko\u0142a Podstawowa Specjalna w Pleszewie",
                "name": "Szko\u0142a Podstawowa Specjalna w Pleszewie",
                "addr:country": "PL",
                "addr:postcode": "63-300",
                "addr:city": "Pleszew",
                "addr:street": "Osiedlowa",
                "addr:housenumber": "1",
                "addr:teryt:simc": 937280,
                "addr:teryt:sym_ul": 15300,
                "contact:phone": "+48 627427877",
                "contact:email": "sekretariat@zps.pleszew.pl",
                "contact:website": "http:\/\/www.zps.pleszew.pl",
                "ref:regon": "251454494",
                "operator": "Powiat Pleszewski",
                "operator:type": "government",
                "amenity": "school",
                "note": "Parent RSPO: 16284"
            }
        },
        {
            "id": 17225,
            "type": "Feature",
            "geometry": {
                "type": "Point",
                "coordinates": [
                    17.85939,
                    51.88732
                ]
            },
            "properties": {
                "ref:rspo": 17225,
                "official_name": "Szko\u0142a Specjalna Przysposabiaj\u0105ca Do Pracy w Pleszewie",
                "name": "Szko\u0142a Specjalna Przysposabiaj\u0105ca Do Pracy w Pleszewie",
                "addr:country": "PL",
                "addr:postcode": "63-300",
                "addr:city": "Pleszew",
                "addr:street": "Osiedlowa",
                "addr:housenumber": "1",
                "addr:teryt:simc": 937280,
                "addr:teryt:sym_ul": 15300,
                "contact:phone": "+48 627427877",
                "contact:email": "sekretariat@zps.pleszew.pl",
                "contact:website": "http:\/\/www.zps.pleszew.pl",
                "ref:regon": "300079742",
                "operator": "Powiat Pleszewski",
                "operator:type": "government",
                "amenity": "school",
                "note": "Parent RSPO: 16284"
            }
        },
        {
            "id": 263895,
            "type": "Feature",
            "geometry": {
                "type": "Point",
                "coordinates": [
                    17.85939,
                    51.88729
                ]
            },
            "properties": {
                "isced:level": "3",
                "ref:rspo": 263895,
                "official_name": "Bran\u017cowa Szko\u0142a Specjalna I Stopnia w Pleszewie",
                "name": "Bran\u017cowa Szko\u0142a Specjalna I Stopnia w Pleszewie",
                "addr:country": "PL",
                "addr:postcode": "63-300",
                "addr:city": "Pleszew",
                "addr:street": "Osiedlowa",
                "addr:housenumber": "1",
                "addr:teryt:simc": 937280,
                "addr:teryt:sym_ul": 15300,
                "contact:phone": "+48 627427877",
                "contact:email": "sekretariat@zps.pleszew.pl",
                "contact:website": "http:\/\/www.zps.pleszew.pl",
                "ref:regon": "368235235",
                "operator": "Powiat Pleszewski",
                "operator:type": "government",
                "amenity": "school",
                "note": "Parent RSPO: 16284"
            }
        },
        {
            "id": 11774,
            "type": "Feature",
            "geometry": {
                "type": "Point",
                "coordinates": [
                    17.78027,
                    51.8876
                ]
            },
            "properties": {
                "ref:rspo": 11774,
                "official_name": "Zesp\u00f3\u0142 Szk\u00f3\u0142 Publicznych Nr 3 w Pleszewie",
                "name": "Zesp\u00f3\u0142 Szk\u00f3\u0142 Publicznych Nr 3 w Pleszewie",
                "addr:country": "PL",
                "addr:postcode": "63-300",
                "addr:city": "Pleszew",
                "addr:street": "Boles\u0142awa Krzywoustego",
                "addr:housenumber": "4",
                "addr:teryt:simc": 937280,
                "addr:teryt:sym_ul": 1749,
                "contact:phone": "+48 627421439",
                "contact:email": "zspnr3@pleszew.pl",
                "contact:website": "http:\/\/www.trojka.pleszew.pl",
                "ref:regon": "251471268",
                "ref:vatin": "PL6172017515",
                "operator": "Miasto I Gmina Pleszew",
                "operator:type": "government",
                "landuse": "education",
                "fixme": "amenity=school, amenity=college albo landuse=education w zale\u017cno\u015bci od tego, jakie plac\u00f3wki wchodz\u0105 w sk\u0142ad zespo\u0142u. Sprawd\u017a, kiedy stosowa\u0107 amenity=* a kiedy landuse=education.",
                "note": "Children RSPO: 21106;21107"
            }
        },
        {
            "id": 129409,
            "type": "Feature",
            "geometry": {
                "type": "Point",
                "coordinates": [
                    17.78027,
                    51.88757
                ]
            },
            "properties": {
                "isced:level": "3",
                "ref:rspo": 129409,
                "official_name": "Niepubliczne Liceum Og\u00f3lnokszta\u0142c\u0105ce w Pleszewie",
                "name": "Niepubliczne Liceum Og\u00f3lnokszta\u0142c\u0105ce w Pleszewie",
                "addr:country": "PL",
                "addr:postcode": "63-300",
                "addr:city": "Pleszew",
                "addr:street": "Boles\u0142awa Krzywoustego",
                "addr:housenumber": "4",
                "addr:teryt:simc": 937280,
                "addr:teryt:sym_ul": 1749,
                "contact:email": "sekretariat@liceum.pleszew.pl",
                "contact:website": "http:\/\/liceum.pleszew.pl",
                "ref:regon": "362589133",
                "operator": "Fundacja Rozwoju Lokalnego Civitas",
                "operator:type": "ngo",
                "amenity": "school"
            }
        },
        {
            "id": 21107,
            "type": "Feature",
            "geometry": {
                "type": "Point",
                "coordinates": [
                    17.78027,
                    51.88754
                ]
            },
            "properties": {
                "isced:level": "1;2",
                "ref:rspo": 21107,
                "official_name": "Szko\u0142a Podstawowa Nr 3 im. Powsta\u0144c\u00f3w Wielkopolskich w Pleszewie",
                "name": "Szko\u0142a Podstawowa Nr 3",
                "addr:country": "PL",
                "addr:postcode": "63-300",
                "addr:city": "Pleszew",
                "addr:street": "Boles\u0142awa Krzywoustego",
                "addr:housenumber": "4",
                "addr:teryt:simc": 937280,
                "addr:teryt:sym_ul": 1749,
                "contact:phone": "+48 627421439",
                "contact:email": "zspnr3@pleszew.pl",
                "contact:website": "http:\/\/www.trojka.pleszew.pl",
                "ref:regon": "000694304",
                "operator": "Miasto I Gmina Pleszew",
                "operator:type": "government",
                "amenity": "school",
                "note": "Parent RSPO: 11774"
            }
        },
        {
            "id": 11773,
            "type": "Feature",
            "geometry": {
                "type": "Point",
                "coordinates": [
                    17.73356,
                    51.88807
                ]
            },
            "properties": {
                "ref:rspo": 11773,
                "official_name": "Zesp\u00f3\u0142 Szk\u00f3\u0142 Publicznych w Kowalewie",
                "name": "Zesp\u00f3\u0142 Szk\u00f3\u0142 Publicznych w Kowalewie",
                "addr:country": "PL",
                "addr:postcode": "63-300",
                "addr:city": "Kowalew",
                "addr:street": "Boles\u0142awa Chrobrego",
                "addr:housenumber": "36",
                "addr:teryt:simc": 207014,
                "addr:teryt:sym_ul": 1742,
                "contact:phone": "+48 627428376",
                "contact:email": "zspkowalew@pleszew.pl",
                "contact:website": "http:\/\/www.kowalew.dmkhosting.net",
                "ref:regon": "251471334",
                "ref:vatin": "PL6172017521",
                "operator": "Miasto I Gmina Pleszew",
                "operator:type": "government",
                "landuse": "education",
                "fixme": "amenity=school, amenity=college albo landuse=education w zale\u017cno\u015bci od tego, jakie plac\u00f3wki wchodz\u0105 w sk\u0142ad zespo\u0142u. Sprawd\u017a, kiedy stosowa\u0107 amenity=* a kiedy landuse=education.",
                "note": "Children RSPO: 15964;15965"
            }
        },
        {
            "id": 15964,
            "type": "Feature",
            "geometry": {
                "type": "Point",
                "coordinates": [
                    17.73356,
                    51.88804
                ]
            },
            "properties": {
                "isced:level": "1;2",
                "ref:rspo": 15964,
                "official_name": "Szko\u0142a Podstawowa im. Jana Paw\u0142a II w Kowalewie",
                "name": "Szko\u0142a Podstawowa",
                "addr:country": "PL",
                "addr:postcode": "63-300",
                "addr:city": "Kowalew",
                "addr:street": "Boles\u0142awa Chrobrego",
                "addr:housenumber": "36",
                "addr:teryt:simc": 207014,
                "addr:teryt:sym_ul": 1742,
                "contact:phone": "+48 627428376",
                "contact:email": "zspkowalew@pleszew.pl",
                "contact:website": "http:\/\/www.zspkowalew.pl",
                "ref:regon": "000629519",
                "operator": "Miasto I Gmina Pleszew",
                "operator:type": "government",
                "amenity": "school",
                "note": "Parent RSPO: 11773"
            }
        },
        {
            "id": 15965,
            "type": "Feature",
            "geometry": {
                "type": "Point",
                "coordinates": [
                    17.73356,
                    51.88801
                ]
            },
            "properties": {
                "ref:rspo": 15965,
                "official_name": "Publiczne Przedszkole im. Jana Paw\u0142a II w Kowalewie",
                "name": "Publiczne Przedszkole",
                "addr:country": "PL",
                "addr:postcode": "63-300",
                "addr:city": "Kowalew",
                "addr:street": "Boles\u0142awa Chrobrego",
                "addr:housenumber": "36",
                "addr:teryt:simc": 207014,
                "addr:teryt:sym_ul": 1742,
                "contact:phone": "+48 627428376",
                "contact:email": "sekretariatkowalew@wp.pl",
                "contact:website": "http:\/\/www.zspkowalew.pl",
                "ref:regon": "251597360",
                "operator": "Miasto I Gmina Pleszew",
                "operator:type": "government",
                "amenity": "kindergarten",
                "note": "Parent RSPO: 11773"
            }
        },
        {
            "id": 24703,
            "type": "Feature",
            "geometry": {
                "type": "Point",
                "coordinates": [
                    17.774,
                    51.88883
                ]
            },
            "properties": {
                "ref:rspo": 24703,
                "official_name": "Liga Obrony Kraju O\u015brodek Szkolenia Zawodowego Kierowc\u00f3w I Dzia\u0142alno\u015bci Wydawniczo - Poligraficznej",
                "name": "Liga Obrony Kraju O\u015brodek Szkolenia Zawodowego Kierowc\u00f3w I Dzia\u0142alno\u015bci Wydawniczo - Poligraficznej",
                "addr:country": "PL",
                "addr:postcode": "63-300",
                "addr:city": "Pleszew",
                "addr:street": "Stanis\u0142awa Augusta Poniatowskiego",
                "addr:housenumber": "7",
                "addr:teryt:simc": 937280,
                "addr:teryt:sym_ul": 35077,
                "contact:phone": "+48 627427662",
                "contact:email": "biuro.oskpleszew@lok.org.pl",
                "contact:website": "http:\/\/www.lok.org.pl",
                "ref:regon": "302268708",
                "operator": "Liga Obrony Kraju Oddzia\u0142 Biura Zarz\u0105du G\u0142\u00f3wnego W Poznaniu",
                "operator:type": "ngo"
            }
        },
        {
            "id": 130016,
            "type": "Feature",
            "geometry": {
                "type": "Point",
                "coordinates": [
                    17.84142,
                    51.88914
                ]
            },
            "properties": {
                "ref:rspo": 130016,
                "official_name": "Ehed Us\u0142ugi Szkoleniowe Eryk Kowcu\u0144",
                "name": "Ehed Us\u0142ugi Szkoleniowe Eryk Kowcu\u0144",
                "addr:country": "PL",
                "addr:postcode": "63-300",
                "addr:city": "Pleszew",
                "addr:street": "Miko\u0142aja Reja",
                "addr:housenumber": "2",
                "addr:door": "2",
                "addr:teryt:simc": 937280,
                "addr:teryt:sym_ul": 32581,
                "contact:phone": "+48 668492757",
                "contact:email": "kowcun@poczta.onet.pl",
                "ref:regon": "363303133",
                "operator": "Eryk Kowcu\u0144",
                "operator:type": "private"
            }
        },
        {
            "id": 130017,
            "type": "Feature",
            "geometry": {
                "type": "Point",
                "coordinates": [
                    17.84142,
                    51.889109999999995
                ]
            },
            "properties": {
                "ref:rspo": 130017,
                "official_name": "Edufin",
                "name": "Edufin",
                "addr:country": "PL",
                "addr:postcode": "63-300",
                "addr:city": "Pleszew",
                "addr:street": "Miko\u0142aja Reja",
                "addr:housenumber": "2",
                "addr:door": "2",
                "addr:teryt:simc": 937280,
                "addr:teryt:sym_ul": 32581,
                "contact:phone": "+48 668492757",
                "contact:email": "biuro@edufin.eu",
                "ref:regon": "363303050",
                "ref:vatin": "PL6080109824",
                "operator": "Edufin Sp\u00f3\u0142ka Z Ograniczon\u0105 Odpowiedzialno\u015bci\u0105",
                "operator:type": "private"
            }
        },
        {
            "id": 133358,
            "type": "Feature",
            "geometry": {
                "type": "Point",
                "coordinates": [
                    17.7757276,
                    51.8894961
                ]
            },
            "properties": {
                "ref:rspo": 133358,
                "official_name": "Niepubliczne Przedszkole Integracyjne \"T\u0119czowa Kraina\"",
                "name": "Niepubliczne Przedszkole Integracyjne \"T\u0119czowa Kraina\"",
                "addr:country": "PL",
                "addr:postcode": "63-300",
                "addr:city": "Pleszew",
                "addr:street": "Rolna",
                "addr:housenumber": "12",
                "addr:teryt:simc": 937280,
                "addr:teryt:sym_ul": 18819,
                "contact:phone": "+48 570540012",
                "contact:email": "apoyo@wp.pl",
                "contact:website": "http:\/\/www.integracyjnepleszew.pl",
                "ref:regon": "367111761",
                "operator": "Stowarzyszenie Apoyo",
                "operator:type": "ngo",
                "amenity": "kindergarten"
            }
        },
        {
            "id": 11153,
            "type": "Feature",
            "geometry": {
                "type": "Point",
                "coordinates": [
                    17.78503,
                    51.8895
                ]
            },
            "properties": {
                "ref:rspo": 11153,
                "official_name": "Publiczne Przedszkole Nr 3 \"S\u0142oneczne\" w Pleszewie",
                "name": "Publiczne Przedszkole Nr 3 \"S\u0142oneczne\" w Pleszewie",
                "addr:country": "PL",
                "addr:postcode": "63-300",
                "addr:city": "Pleszew",
                "addr:street": "Aleje Wojska Polskiego",
                "addr:housenumber": "1",
                "addr:teryt:simc": 937280,
                "addr:teryt:sym_ul": 33863,
                "contact:phone": "+48 627421382",
                "contact:email": "przedszkolenr3@pleszew.pl",
                "contact:website": "http:\/\/www.przedszkole.sloneczne.pleszew.co",
                "ref:regon": "251595065",
                "ref:vatin": "PL6172017596",
                "operator": "Miasto I Gmina Pleszew",
                "operator:type": "government",
                "amenity": "kindergarten"
            }
        },
        {
            "id": 23407,
            "type": "Feature",
            "geometry": {
                "type": "Point",
                "coordinates": [
                    17.78428,
                    51.89286
                ]
            },
            "properties": {
                "ref:rspo": 23407,
                "official_name": "Centrum Rozwoju Kompetencji",
                "name": "Centrum Rozwoju Kompetencji",
                "addr:country": "PL",
                "addr:postcode": "63-300",
                "addr:city": "Pleszew",
                "addr:street": "Ogrodowa",
                "addr:housenumber": "13",
                "addr:teryt:simc": 937280,
                "addr:teryt:sym_ul": 14834,
                "contact:phone": "+48 627426492",
                "contact:email": "crk-pleszew@o2.pl",
                "contact:website": "http:\/\/www.crk.edu.pl",
                "ref:regon": "302231770",
                "ref:vatin": "PL6211138690",
                "operator": "Waldemar Kula",
                "operator:type": "private"
            }
        },
        {
            "id": 128832,
            "type": "Feature",
            "geometry": {
                "type": "Point",
                "coordinates": [
                    17.78428,
                    51.89283
                ]
            },
            "properties": {
                "ref:rspo": 128832,
                "official_name": "Ksi\u0105\u017cnica Pedagogiczna im.alfonsa Parczewskiego w Kaliszu Filia w Pleszewie",
                "name": "Ksi\u0105\u017cnica Pedagogiczna im.alfonsa Parczewskiego w Kaliszu Filia w Pleszewie",
                "addr:country": "PL",
                "addr:postcode": "63-300",
                "addr:city": "Pleszew",
                "addr:street": "Ogrodowa",
                "addr:housenumber": "13",
                "addr:teryt:simc": 937280,
                "addr:teryt:sym_ul": 14834,
                "contact:phone": "+48 627421654",
                "contact:email": "kp.pleszew@kp.kalisz.pl",
                "contact:website": "http:\/\/www.kp.kalisz.pl",
                "ref:regon": "694215000",
                "operator": "Wojew\u00f3dztwo Wielkopolskie",
                "operator:type": "government",
                "amenity": "library",
                "note": "Parent RSPO: 30916"
            }
        },
        {
            "id": 20996,
            "type": "Feature",
            "geometry": {
                "type": "Point",
                "coordinates": [
                    17.78009,
                    51.89365
                ]
            },
            "properties": {
                "ref:rspo": 20996,
                "official_name": "Poradnia Psychologiczno - Pedagogiczna w Pleszewie",
                "name": "Poradnia Psychologiczno - Pedagogiczna w Pleszewie",
                "addr:country": "PL",
                "addr:postcode": "63-300",
                "addr:city": "Pleszew",
                "addr:street": "Juliusza S\u0142owackiego",
                "addr:housenumber": "14",
                "addr:teryt:simc": 937280,
                "addr:teryt:sym_ul": 20286,
                "contact:phone": "+48 627421655",
                "contact:email": "sekretariat@poradnia-pleszew.org.pl",
                "contact:website": "http:\/\/www.poradnia-pleszew.org.pl",
                "ref:regon": "000694310",
                "ref:vatin": "PL6171952070",
                "operator": "Powiat Pleszewski",
                "operator:type": "government",
                "healthcare": "counselling",
                "counselling_type": "education",
                "fixme": "w zale\u017cno\u015bci od przedmiotu dzia\u0142alno\u015bci (np. healthcare=counselling + counselling_type=education albo healthcare=psychotherapist)"
            }
        },
        {
            "id": 23001,
            "type": "Feature",
            "geometry": {
                "type": "Point",
                "coordinates": [
                    17.78038,
                    51.89393
                ]
            },
            "properties": {
                "ref:rspo": 23001,
                "official_name": "Wielkopolski O\u015brodek Szkolenia Medycznych Ratownik\u00f3w Drogowych",
                "name": "Wielkopolski O\u015brodek Szkolenia Medycznych Ratownik\u00f3w Drogowych",
                "addr:country": "PL",
                "addr:postcode": "63-300",
                "addr:city": "Pleszew",
                "addr:street": "Juliusza S\u0142owackiego",
                "addr:housenumber": "19",
                "addr:teryt:simc": 937280,
                "addr:teryt:sym_ul": 20286,
                "contact:phone": "+48 625080585",
                "ref:regon": "302231384",
                "operator": "Polskie Towarzystwo Walki Z Kalectwem Oddzia\u0142 Wojew\u00f3dzki",
                "operator:type": "ngo"
            }
        },
        {
            "id": 11775,
            "type": "Feature",
            "geometry": {
                "type": "Point",
                "coordinates": [
                    17.78385,
                    51.89473
                ]
            },
            "properties": {
                "ref:rspo": 11775,
                "official_name": "Zesp\u00f3\u0142 Szk\u00f3\u0142 Publicznych Nr 2 w Pleszewie",
                "name": "Zesp\u00f3\u0142 Szk\u00f3\u0142 Publicznych Nr 2 w Pleszewie",
                "addr:country": "PL",
                "addr:postcode": "63-300",
                "addr:city": "Pleszew",
                "addr:street": "Ogrodowa",
                "addr:housenumber": "2",
                "addr:teryt:simc": 937280,
                "addr:teryt:sym_ul": 14834,
                "contact:phone": "+48 509205502",
                "contact:email": "zspnr2@pleszew.pl",
                "contact:website": "http:\/\/www.dwojka.pleszew.pl",
                "ref:regon": "251471251",
                "ref:vatin": "PL6172017509",
                "operator": "Miasto I Gmina Pleszew",
                "operator:type": "government",
                "landuse": "education",
                "fixme": "amenity=school, amenity=college albo landuse=education w zale\u017cno\u015bci od tego, jakie plac\u00f3wki wchodz\u0105 w sk\u0142ad zespo\u0142u. Sprawd\u017a, kiedy stosowa\u0107 amenity=* a kiedy landuse=education.",
                "note": "Children RSPO: 14637;14639"
            }
        },
        {
            "id": 14639,
            "type": "Feature",
            "geometry": {
                "type": "Point",
                "coordinates": [
                    17.78385,
                    51.8947
                ]
            },
            "properties": {
                "isced:level": "1;2",
                "ref:rspo": 14639,
                "official_name": "Szko\u0142a Podstawowa Nr 2 im. Kr\u00f3lowej Jadwigi w Pleszewie",
                "name": "Szko\u0142a Podstawowa Nr 2",
                "addr:country": "PL",
                "addr:postcode": "63-300",
                "addr:city": "Pleszew",
                "addr:street": "Ogrodowa",
                "addr:housenumber": "2",
                "addr:teryt:simc": 937280,
                "addr:teryt:sym_ul": 14834,
                "contact:phone": "+48 509205502",
                "contact:email": "zspnr2@pleszew.pl",
                "contact:website": "http:\/\/www.dwojka.pleszew.pl",
                "ref:regon": "000694296",
                "operator": "Miasto I Gmina Pleszew",
                "operator:type": "government",
                "amenity": "school",
                "note": "Parent RSPO: 11775"
            }
        },
        {
            "id": 25411,
            "type": "Feature",
            "geometry": {
                "type": "Point",
                "coordinates": [
                    17.79323,
                    51.8953
                ]
            },
            "properties": {
                "ref:rspo": 25411,
                "official_name": "O\u015brodek Kszta\u0142cenia Ustawicznego 'O\u015bwiata'",
                "name": "O\u015brodek Kszta\u0142cenia Ustawicznego 'O\u015bwiata'",
                "addr:country": "PL",
                "addr:postcode": "63-300",
                "addr:city": "Pleszew",
                "addr:street": "Kaliska",
                "addr:housenumber": "39",
                "addr:teryt:simc": 937280,
                "addr:teryt:sym_ul": 7823,
                "contact:phone": "+48 627421314",
                "ref:regon": "302237263",
                "operator": "Okr\u0119gowa Sp\u00f3\u0142dzielnia Pracy \"O\u015bwiata\" W Poznaniu W Likwidacji",
                "operator:type": "cooperative"
            }
        },
        {
            "id": 26566,
            "type": "Feature",
            "geometry": {
                "type": "Point",
                "coordinates": [
                    17.77489,
                    51.8956
                ]
            },
            "properties": {
                "ref:rspo": 26566,
                "official_name": "Zesp\u00f3\u0142 Szk\u00f3\u0142 Technicznych w Pleszewie",
                "name": "Zesp\u00f3\u0142 Szk\u00f3\u0142 Technicznych w Pleszewie",
                "addr:country": "PL",
                "addr:postcode": "63-300",
                "addr:city": "Pleszew",
                "addr:street": "Zielona",
                "addr:housenumber": "3",
                "addr:teryt:simc": 937280,
                "addr:teryt:sym_ul": 26081,
                "contact:phone": "+48 627421165",
                "contact:email": "sekretariat@zstpleszew.pl",
                "contact:website": "http:\/\/www.zsz-pleszew.pl",
                "ref:regon": "000185169",
                "ref:vatin": "PL6171211770",
                "operator": "Powiat Pleszewski",
                "operator:type": "government",
                "landuse": "education",
                "fixme": "amenity=school, amenity=college albo landuse=education w zale\u017cno\u015bci od tego, jakie plac\u00f3wki wchodz\u0105 w sk\u0142ad zespo\u0142u. Sprawd\u017a, kiedy stosowa\u0107 amenity=* a kiedy landuse=education.",
                "note": "Children RSPO: 53100;55781"
            }
        },
        {
            "id": 53100,
            "type": "Feature",
            "geometry": {
                "type": "Point",
                "coordinates": [
                    17.77489,
                    51.89557
                ]
            },
            "properties": {
                "isced:level": "3",
                "ref:rspo": 53100,
                "official_name": "Ii Liceum Og\u00f3lnokszta\u0142c\u0105ce w Pleszewie",
                "name": "Ii Liceum Og\u00f3lnokszta\u0142c\u0105ce w Pleszewie",
                "addr:country": "PL",
                "addr:postcode": "63-300",
                "addr:city": "Pleszew",
                "addr:street": "Zielona",
                "addr:housenumber": "3",
                "addr:teryt:simc": 937280,
                "addr:teryt:sym_ul": 26081,
                "contact:phone": "+48 627421165",
                "contact:email": "sekretariat@zstpleszew.pl",
                "contact:website": "http:\/\/www.zstpleszew.pl",
                "ref:regon": "251590613",
                "operator": "Powiat Pleszewski",
                "operator:type": "government",
                "amenity": "school",
                "note": "Parent RSPO: 26566"
            }
        },
        {
            "id": 55781,
            "type": "Feature",
            "geometry": {
                "type": "Point",
                "coordinates": [
                    17.77489,
                    51.895540000000004
                ]
            },
            "properties": {
                "isced:level": "3",
                "ref:rspo": 55781,
                "official_name": "Technikum Nr 1 w Pleszewie",
                "name": "Technikum Nr 1 w Pleszewie",
                "addr:country": "PL",
                "addr:postcode": "63-300",
                "addr:city": "Pleszew",
                "addr:street": "Zielona",
                "addr:housenumber": "3",
                "addr:teryt:simc": 937280,
                "addr:teryt:sym_ul": 26081,
                "contact:phone": "+48 627421165",
                "contact:email": "sekretariat@zstpleszew.pl",
                "contact:website": "http:\/\/www.zstpleszew.pl\/",
                "ref:regon": "251537530",
                "operator": "Powiat Pleszewski",
                "operator:type": "government",
                "amenity": "school",
                "note": "Parent RSPO: 26566"
            }
        },
        {
            "id": 11776,
            "type": "Feature",
            "geometry": {
                "type": "Point",
                "coordinates": [
                    17.79016,
                    51.89644
                ]
            },
            "properties": {
                "ref:rspo": 11776,
                "official_name": "Zesp\u00f3\u0142 Szk\u00f3\u0142 Publicznych Nr 1 w Pleszewie",
                "name": "Zesp\u00f3\u0142 Szk\u00f3\u0142 Publicznych Nr 1 w Pleszewie",
                "addr:country": "PL",
                "addr:postcode": "63-300",
                "addr:city": "Pleszew",
                "addr:street": "Szkolna",
                "addr:housenumber": "5",
                "addr:teryt:simc": 937280,
                "addr:teryt:sym_ul": 21970,
                "contact:phone": "+48 627428373",
                "contact:email": "zspnr1@pleszew.pl",
                "contact:website": "http:\/\/www.jedynka.pleszew.pl",
                "ref:regon": "251471245",
                "ref:vatin": "PL6172017490",
                "operator": "Miasto I Gmina Pleszew",
                "operator:type": "government",
                "landuse": "education",
                "fixme": "amenity=school, amenity=college albo landuse=education w zale\u017cno\u015bci od tego, jakie plac\u00f3wki wchodz\u0105 w sk\u0142ad zespo\u0142u. Sprawd\u017a, kiedy stosowa\u0107 amenity=* a kiedy landuse=education.",
                "note": "Children RSPO: 14288;14289"
            }
        },
        {
            "id": 14289,
            "type": "Feature",
            "geometry": {
                "type": "Point",
                "coordinates": [
                    17.79016,
                    51.896409999999996
                ]
            },
            "properties": {
                "isced:level": "1;2",
                "ref:rspo": 14289,
                "official_name": "Szko\u0142a Podstawowa Nr 1 im. 70 Pu\u0142ku Piechoty w Pleszewie",
                "name": "Szko\u0142a Podstawowa Nr 1",
                "addr:country": "PL",
                "addr:postcode": "63-300",
                "addr:city": "Pleszew",
                "addr:street": "Szkolna",
                "addr:housenumber": "5",
                "addr:teryt:simc": 937280,
                "addr:teryt:sym_ul": 21970,
                "contact:phone": "+48 627428373",
                "contact:email": "zspnr1@pleszew.pl",
                "contact:website": "http:\/\/www.jedynka.pleszew.pl",
                "ref:regon": "000694280",
                "operator": "Miasto I Gmina Pleszew",
                "operator:type": "government",
                "amenity": "school",
                "note": "Parent RSPO: 11776"
            }
        },
        {
            "id": 4433,
            "type": "Feature",
            "geometry": {
                "type": "Point",
                "coordinates": [
                    17.78199,
                    51.89676
                ]
            },
            "properties": {
                "ref:rspo": 4433,
                "official_name": "Zesp\u00f3\u0142 Szk\u00f3\u0142 Us\u0142ugowo - Gospodarczych",
                "name": "Zesp\u00f3\u0142 Szk\u00f3\u0142 Us\u0142ugowo - Gospodarczych",
                "addr:country": "PL",
                "addr:postcode": "63-300",
                "addr:city": "Pleszew",
                "addr:street": "Pozna\u0144ska",
                "addr:housenumber": "36",
                "addr:teryt:simc": 937280,
                "addr:teryt:sym_ul": 17394,
                "contact:phone": "+48 625081155",
                "contact:email": "sekretariat@zsug.pl",
                "contact:website": "http:\/\/www.zsug.pl",
                "ref:regon": "000256047",
                "ref:vatin": "PL6171730642",
                "operator": "Powiat Pleszewski",
                "operator:type": "government",
                "landuse": "education",
                "fixme": "amenity=school, amenity=college albo landuse=education w zale\u017cno\u015bci od tego, jakie plac\u00f3wki wchodz\u0105 w sk\u0142ad zespo\u0142u. Sprawd\u017a, kiedy stosowa\u0107 amenity=* a kiedy landuse=education.",
                "note": "Children RSPO: 14914;14915;14918;14919;131483;276879"
            }
        },
        {
            "id": 14914,
            "type": "Feature",
            "geometry": {
                "type": "Point",
                "coordinates": [
                    17.78199,
                    51.89673
                ]
            },
            "properties": {
                "isced:level": "3",
                "ref:rspo": 14914,
                "official_name": "Bran\u017cowa Szko\u0142a I Stopnia Nr 2 im. Hipolita Cegielskiego w Pleszewie",
                "name": "Bran\u017cowa Szko\u0142a I Stopnia Nr 2",
                "addr:country": "PL",
                "addr:postcode": "63-300",
                "addr:city": "Pleszew",
                "addr:street": "Pozna\u0144ska",
                "addr:housenumber": "36",
                "addr:teryt:simc": 937280,
                "addr:teryt:sym_ul": 17394,
                "contact:phone": "+48 625081155",
                "contact:email": "sekretariat@zsug.pl",
                "contact:website": "http:\/\/www.zsug.pl",
                "ref:regon": "251537464",
                "operator": "Powiat Pleszewski",
                "operator:type": "government",
                "amenity": "school",
                "note": "Parent RSPO: 4433"
            }
        },
        {
            "id": 14915,
            "type": "Feature",
            "geometry": {
                "type": "Point",
                "coordinates": [
                    17.78199,
                    51.8967
                ]
            },
            "properties": {
                "isced:level": "3",
                "ref:rspo": 14915,
                "official_name": "Technikum Nr 2 w Pleszewie",
                "name": "Technikum Nr 2 w Pleszewie",
                "addr:country": "PL",
                "addr:postcode": "63-300",
                "addr:city": "Pleszew",
                "addr:street": "Pozna\u0144ska",
                "addr:housenumber": "36",
                "addr:teryt:simc": 937280,
                "addr:teryt:sym_ul": 17394,
                "contact:phone": "+48 625081155",
                "contact:email": "sekretariat@zsug.pl",
                "contact:website": "http:\/\/www.zsug.pl",
                "ref:regon": "251590464",
                "operator": "Powiat Pleszewski",
                "operator:type": "government",
                "amenity": "school",
                "note": "Parent RSPO: 4433"
            }
        },
        {
            "id": 14918,
            "type": "Feature",
            "geometry": {
                "type": "Point",
                "coordinates": [
                    17.78199,
                    51.89667
                ]
            },
            "properties": {
                "isced:level": "4",
                "ref:rspo": 14918,
                "official_name": "Szko\u0142a Policealna dla Doros\u0142ych Nr 2 w Pleszewie",
                "name": "Szko\u0142a Policealna dla Doros\u0142ych Nr 2 w Pleszewie",
                "addr:country": "PL",
                "addr:postcode": "63-300",
                "addr:city": "Pleszew",
                "addr:street": "Pozna\u0144ska",
                "addr:housenumber": "36",
                "addr:teryt:simc": 937280,
                "addr:teryt:sym_ul": 17394,
                "contact:phone": "+48 625081155",
                "contact:email": "sekretariat@zsug.pl",
                "contact:website": "http:\/\/www.zsug.pl",
                "ref:regon": "300100583",
                "operator": "Powiat Pleszewski",
                "operator:type": "government",
                "amenity": "college",
                "note": "Parent RSPO: 4433"
            }
        },
        {
            "id": 14919,
            "type": "Feature",
            "geometry": {
                "type": "Point",
                "coordinates": [
                    17.78199,
                    51.89664
                ]
            },
            "properties": {
                "isced:level": "3",
                "ref:rspo": 14919,
                "official_name": "I Liceum Og\u00f3lnokszta\u0142c\u0105ce dla Doros\u0142ych w Pleszewie",
                "name": "I Liceum Og\u00f3lnokszta\u0142c\u0105ce dla Doros\u0142ych w Pleszewie",
                "addr:country": "PL",
                "addr:postcode": "63-300",
                "addr:city": "Pleszew",
                "addr:street": "Pozna\u0144ska",
                "addr:housenumber": "36",
                "addr:teryt:simc": 937280,
                "addr:teryt:sym_ul": 17394,
                "contact:phone": "+48 625081155",
                "contact:email": "sekretariat@zsug.pl",
                "contact:website": "http:\/\/www.zsug.pl",
                "ref:regon": "300829752",
                "operator": "Powiat Pleszewski",
                "operator:type": "government",
                "amenity": "school",
                "note": "Parent RSPO: 4433"
            }
        },
        {
            "id": 131483,
            "type": "Feature",
            "geometry": {
                "type": "Point",
                "coordinates": [
                    17.78199,
                    51.89661
                ]
            },
            "properties": {
                "ref:rspo": 131483,
                "official_name": "Centrum Kszta\u0142cenia Ustawicznego",
                "name": "Centrum Kszta\u0142cenia Ustawicznego",
                "addr:country": "PL",
                "addr:postcode": "63-300",
                "addr:city": "Pleszew",
                "addr:street": "Pozna\u0144ska",
                "addr:housenumber": "36",
                "addr:teryt:simc": 937280,
                "addr:teryt:sym_ul": 17394,
                "contact:phone": "+48 625081155",
                "contact:email": "sekretariat@zsug.pl",
                "contact:website": "http:\/\/www.zsug.pl",
                "ref:regon": "365197586",
                "operator": "Powiat Pleszewski",
                "operator:type": "government",
                "fixme": "w zale\u017cno\u015bci od przedmiotu dzia\u0142alno\u015bci (np. amenity=training + training=*, amenity=dancing_school, amenity=language_school, amenity=music_school)",
                "note": "Parent RSPO: 4433"
            }
        },
        {
            "id": 276879,
            "type": "Feature",
            "geometry": {
                "type": "Point",
                "coordinates": [
                    17.78199,
                    51.89658
                ]
            },
            "properties": {
                "isced:level": "3",
                "ref:rspo": 276879,
                "official_name": "Bran\u017cowa Szko\u0142a II Stopnia w Pleszewie",
                "name": "Bran\u017cowa Szko\u0142a II Stopnia w Pleszewie",
                "addr:country": "PL",
                "addr:postcode": "63-300",
                "addr:city": "Pleszew",
                "addr:street": "Pozna\u0144ska",
                "addr:housenumber": "36",
                "addr:teryt:simc": 937280,
                "addr:teryt:sym_ul": 17394,
                "contact:phone": "+48 625081155",
                "contact:email": "sekretariat@zsug.pl",
                "contact:website": "http:\/\/www.zsug.pl",
                "ref:regon": "387779331",
                "operator": "Powiat Pleszewski",
                "operator:type": "government",
                "amenity": "school",
                "note": "Parent RSPO: 4433"
            }
        },
        {
            "id": 9327,
            "type": "Feature",
            "geometry": {
                "type": "Point",
                "coordinates": [
                    17.78063,
                    51.8969
                ]
            },
            "properties": {
                "isced:level": "3",
                "ref:rspo": 9327,
                "official_name": "I Liceum Og\u00f3lnokszta\u0142c\u0105ce im. St. Staszica w Pleszewie",
                "name": "I Liceum Og\u00f3lnokszta\u0142c\u0105ce",
                "addr:country": "PL",
                "addr:postcode": "63-300",
                "addr:city": "Pleszew",
                "addr:street": "Pozna\u0144ska",
                "addr:housenumber": "38",
                "addr:teryt:simc": 937280,
                "addr:teryt:sym_ul": 17394,
                "contact:phone": "+48 625080044",
                "contact:email": "lopleszew@lopleszew.pl",
                "contact:website": "http:\/\/www.lopleszew.pl",
                "ref:regon": "000229122",
                "ref:vatin": "PL6171576879",
                "operator": "Powiat Pleszewski",
                "operator:type": "government",
                "amenity": "school"
            }
        },
        {
            "id": 14288,
            "type": "Feature",
            "geometry": {
                "type": "Point",
                "coordinates": [
                    17.7840159,
                    51.897425
                ]
            },
            "properties": {
                "ref:rspo": 14288,
                "official_name": "Publiczne Przedszkole w Marszewie",
                "name": "Publiczne Przedszkole w Marszewie",
                "addr:country": "PL",
                "addr:postcode": "63-300",
                "addr:place": "Marszew",
                "addr:housenumber": "3B",
                "addr:teryt:simc": 207149,
                "contact:phone": "+48 627428380",
                "contact:email": "zspnr1@pleszew.pl",
                "contact:website": "http:\/\/www.jedynkapleszew.pl",
                "ref:regon": "300020565",
                "operator": "Miasto I Gmina Pleszew",
                "operator:type": "government",
                "amenity": "kindergarten",
                "note": "Parent RSPO: 11776"
            }
        },
        {
            "id": 22428,
            "type": "Feature",
            "geometry": {
                "type": "Point",
                "coordinates": [
                    17.78659,
                    51.89787
                ]
            },
            "properties": {
                "ref:rspo": 22428,
                "official_name": "Niepubliczne Przedszkole Ochronka im. B\u0142. Edmunda Bojanowskiego w Pleszewie",
                "name": "Niepubliczne Przedszkole Ochronka",
                "addr:country": "PL",
                "addr:postcode": "63-300",
                "addr:city": "Pleszew",
                "addr:street": "Edmunda Bojanowskiego",
                "addr:housenumber": "1",
                "addr:teryt:simc": 937280,
                "addr:teryt:sym_ul": 1704,
                "contact:phone": "+48 627421180",
                "contact:email": "ochronka-przedszkole@o2.pl",
                "contact:website": "http:\/\/www.ochronka-pleszew.pl",
                "ref:regon": "302232610",
                "ref:vatin": "PL6080087519",
                "operator": "Prowincja \u015awi\u0119tego J\u00f3zefa Zgromadzenia Si\u00f3str S\u0142u\u017cebniczek Niepokalanego Pocz\u0119cia Naj\u015bwi\u0119tszej Maryi Panny",
                "operator:type": "religious",
                "amenity": "kindergarten"
            }
        },
        {
            "id": 11151,
            "type": "Feature",
            "geometry": {
                "type": "Point",
                "coordinates": [
                    17.7824199,
                    51.89847
                ]
            },
            "properties": {
                "ref:rspo": 11151,
                "official_name": "Publiczne Przedszkole Nr 1 \"Bajka\" w Pleszewie",
                "name": "Publiczne Przedszkole Nr 1 \"Bajka\" w Pleszewie",
                "addr:country": "PL",
                "addr:postcode": "63-300",
                "addr:city": "Pleszew",
                "addr:street": "Genera\u0142a J\u00f3zefa Hallera",
                "addr:housenumber": "30",
                "addr:teryt:simc": 937280,
                "addr:teryt:sym_ul": 34447,
                "contact:phone": "+48 627421368",
                "contact:email": "przedszkole1bajka@wp.pl",
                "contact:website": "http:\/\/www.p1bajkapleszew.edupage.org",
                "ref:regon": "251591943",
                "ref:vatin": "PL6172017567",
                "operator": "Miasto I Gmina Pleszew",
                "operator:type": "government",
                "amenity": "kindergarten"
            }
        },
        {
            "id": 131972,
            "type": "Feature",
            "geometry": {
                "type": "Point",
                "coordinates": [
                    17.80021,
                    51.9002
                ]
            },
            "properties": {
                "ref:rspo": 131972,
                "official_name": "Phu \"Info-Kompleks\" Jacek Drosdowski",
                "name": "Phu \"Info-Kompleks\" Jacek Drosdowski",
                "addr:country": "PL",
                "addr:postcode": "63-300",
                "addr:city": "Pleszew",
                "addr:street": "Lenartowicka",
                "addr:housenumber": "2",
                "addr:teryt:simc": 937280,
                "addr:teryt:sym_ul": 10809,
                "contact:phone": "+48 627421120",
                "ref:regon": "365394393",
                "operator": "Jacek Drosdowski",
                "operator:type": "private"
            }
        },
        {
            "id": 128153,
            "type": "Feature",
            "geometry": {
                "type": "Point",
                "coordinates": [
                    17.77373,
                    51.9046499
                ]
            },
            "properties": {
                "ref:rspo": 128153,
                "official_name": "Kim Bhp Katarzyna Kunachowicz",
                "name": "Kim Bhp Katarzyna Kunachowicz",
                "addr:country": "PL",
                "addr:postcode": "63-300",
                "addr:city": "Pleszew",
                "addr:street": "Zachodnia",
                "addr:housenumber": "34",
                "addr:teryt:simc": 937280,
                "addr:teryt:sym_ul": 25305,
                "contact:email": "biuro@obsluga-bhp.eu",
                "ref:regon": "362128700",
                "operator": "Katarzyna Kunachowicz",
                "operator:type": "private",
                "fixme": "w zale\u017cno\u015bci od przedmiotu dzia\u0142alno\u015bci (np. amenity=training + training=*, amenity=dancing_school, amenity=language_school, amenity=music_school) albo amenity=school, amenity=college, albo landuse=education w zale\u017cno\u015bci od tego, jakie plac\u00f3wki wchodz\u0105 w sk\u0142ad zespo\u0142u. Sprawd\u017a, kiedy stosowa\u0107 amenity=* a kiedy landuse=education."
            }
        },
        {
            "id": 11740,
            "type": "Feature",
            "geometry": {
                "type": "Point",
                "coordinates": [
                    17.8305567,
                    51.9075601
                ]
            },
            "properties": {
                "ref:rspo": 11740,
                "official_name": "Zesp\u00f3\u0142 Szk\u00f3\u0142 Publicznych w Lenartowicach",
                "name": "Zesp\u00f3\u0142 Szk\u00f3\u0142 Publicznych w Lenartowicach",
                "addr:country": "PL",
                "addr:postcode": "63-300",
                "addr:place": "Lenartowice",
                "addr:housenumber": "59",
                "addr:teryt:simc": 207066,
                "contact:phone": "+48 627428378",
                "contact:email": "zsplenartowice@wp.pl",
                "contact:website": "http:\/\/www.zsplenartowice.orangespace.pl",
                "ref:regon": "251471280",
                "ref:vatin": "PL6172017484",
                "operator": "Miasto I Gmina Pleszew",
                "operator:type": "government",
                "landuse": "education",
                "fixme": "amenity=school, amenity=college albo landuse=education w zale\u017cno\u015bci od tego, jakie plac\u00f3wki wchodz\u0105 w sk\u0142ad zespo\u0142u. Sprawd\u017a, kiedy stosowa\u0107 amenity=* a kiedy landuse=education.",
                "note": "Children RSPO: 16107;16108"
            }
        },
        {
            "id": 16107,
            "type": "Feature",
            "geometry": {
                "type": "Point",
                "coordinates": [
                    17.8305567,
                    51.907530099999995
                ]
            },
            "properties": {
                "ref:rspo": 16107,
                "official_name": "Publiczne Przedszkole w Lenartowicach",
                "name": "Publiczne Przedszkole w Lenartowicach",
                "addr:country": "PL",
                "addr:postcode": "63-300",
                "addr:place": "Lenartowice",
                "addr:housenumber": "59",
                "addr:teryt:simc": 207066,
                "contact:phone": "+48 627428378",
                "contact:email": "zsplenartowice@wp.pl",
                "contact:website": "http:\/\/www.zsplenartowice.orangespace.pl",
                "ref:regon": "250656178",
                "operator": "Miasto I Gmina Pleszew",
                "operator:type": "government",
                "amenity": "kindergarten",
                "note": "Parent RSPO: 11740"
            }
        },
        {
            "id": 16108,
            "type": "Feature",
            "geometry": {
                "type": "Point",
                "coordinates": [
                    17.8305567,
                    51.9075001
                ]
            },
            "properties": {
                "isced:level": "1;2",
                "ref:rspo": 16108,
                "official_name": "Szko\u0142a Podstawowa im. Marii Konopnickiej w Lenartowicach",
                "name": "Szko\u0142a Podstawowa",
                "addr:country": "PL",
                "addr:postcode": "63-300",
                "addr:place": "Lenartowice",
                "addr:housenumber": "59",
                "addr:teryt:simc": 207066,
                "contact:phone": "+48 627428378",
                "contact:email": "zsplenartowice@pleszew.pl",
                "contact:website": "http:\/\/www.zsplenartowice.orangespace.pl",
                "ref:regon": "001046866",
                "operator": "Miasto I Gmina Pleszew",
                "operator:type": "government",
                "amenity": "school",
                "note": "Parent RSPO: 11740"
            }
        },
        {
            "id": 5188,
            "type": "Feature",
            "geometry": {
                "type": "Point",
                "coordinates": [
                    17.7766859,
                    51.9170572
                ]
            },
            "properties": {
                "ref:rspo": 5188,
                "official_name": "Zesp\u00f3\u0142 Szk\u00f3\u0142centrum Kszta\u0142cenia Rolniczego w Marszewie",
                "name": "Zesp\u00f3\u0142 Szk\u00f3\u0142centrum Kszta\u0142cenia Rolniczego w Marszewie",
                "addr:country": "PL",
                "addr:postcode": "63-300",
                "addr:place": "Marszew",
                "addr:housenumber": "22",
                "addr:teryt:simc": 207149,
                "contact:phone": "+48 627421361",
                "contact:email": "szkola@marszew.pl",
                "contact:website": "http:\/\/www.marszew.pl",
                "ref:regon": "000099748",
                "ref:vatin": "PL6171796776",
                "operator": "Ministerstwo Rolnictwa I Rozwoju Wsi",
                "operator:type": "public",
                "landuse": "education",
                "fixme": "amenity=school, amenity=college albo landuse=education w zale\u017cno\u015bci od tego, jakie plac\u00f3wki wchodz\u0105 w sk\u0142ad zespo\u0142u. Sprawd\u017a, kiedy stosowa\u0107 amenity=* a kiedy landuse=education.",
                "note": "Children RSPO: 10479;10480;11700"
            }
        },
        {
            "id": 10479,
            "type": "Feature",
            "geometry": {
                "type": "Point",
                "coordinates": [
                    17.7766859,
                    51.9170272
                ]
            },
            "properties": {
                "isced:level": "3",
                "ref:rspo": 10479,
                "official_name": "Bran\u017cowa Szko\u0142a I Stopnia im. P\u0142k. Ludwika Bocia\u0144skiego w Marszewie",
                "name": "Bran\u017cowa Szko\u0142a I Stopnia",
                "addr:country": "PL",
                "addr:postcode": "63-300",
                "addr:place": "Marszew",
                "addr:housenumber": "22",
                "addr:teryt:simc": 207149,
                "contact:phone": "+48 627421363",
                "contact:email": "szkola@marszew.pl",
                "contact:website": "http:\/\/www.marszew.pl",
                "ref:regon": "251598394",
                "operator": "Ministerstwo Rolnictwa I Rozwoju Wsi",
                "operator:type": "public",
                "amenity": "school",
                "note": "Parent RSPO: 5188"
            }
        },
        {
            "id": 10480,
            "type": "Feature",
            "geometry": {
                "type": "Point",
                "coordinates": [
                    17.7766859,
                    51.916997200000004
                ]
            },
            "properties": {
                "isced:level": "3",
                "ref:rspo": 10480,
                "official_name": "Technikum im. P\u0142k. Ludwika Bocia\u0144skiego w Marszewie",
                "name": "Technikum",
                "addr:country": "PL",
                "addr:postcode": "63-300",
                "addr:place": "Marszew",
                "addr:housenumber": "22",
                "addr:teryt:simc": 207149,
                "contact:phone": "+48 627421363",
                "contact:email": "szkola@marszew.pl",
                "contact:website": "http:\/\/www.marszew.pl",
                "ref:regon": "251598402",
                "operator": "Ministerstwo Rolnictwa I Rozwoju Wsi",
                "operator:type": "public",
                "amenity": "school",
                "note": "Parent RSPO: 5188"
            }
        },
        {
            "id": 11700,
            "type": "Feature",
            "geometry": {
                "type": "Point",
                "coordinates": [
                    17.7766859,
                    51.9169672
                ]
            },
            "properties": {
                "isced:level": "4",
                "ref:rspo": 11700,
                "official_name": "Szko\u0142a Policealna dla Doros\u0142ych",
                "name": "Szko\u0142a Policealna dla Doros\u0142ych",
                "addr:country": "PL",
                "addr:postcode": "63-300",
                "addr:place": "Marszew",
                "addr:housenumber": "22",
                "addr:teryt:simc": 207149,
                "contact:phone": "+48 627421361",
                "contact:email": "szkola@marszew.pl",
                "contact:website": "http:\/\/www.marszew.pl",
                "ref:regon": "251632949",
                "operator": "Ministerstwo Rolnictwa I Rozwoju Wsi",
                "operator:type": "public",
                "amenity": "college",
                "note": "Parent RSPO: 5188"
            }
        }
    ]
}