{
    "type": "FeatureCollection",
    "features": [
        {
            "id": 92986,
            "type": "Feature",
            "geometry": {
                "type": "Point",
                "coordinates": [
                    17.6229389,
                    51.8080999
                ]
            },
            "properties": {
                "ref:rspo": 92986,
                "official_name": "Zesp\u00f3\u0142 Szk\u00f3\u0142 Publicznych w Ko\u017ami\u0144cu",
                "name": "Zesp\u00f3\u0142 Szk\u00f3\u0142 Publicznych w Ko\u017ami\u0144cu",
                "addr:country": "PL",
                "addr:postcode": "63-330",
                "addr:place": "Ko\u017aminiec",
                "addr:housenumber": "50",
                "addr:teryt:simc": 196500,
                "contact:phone": "+48 691781550",
                "contact:email": "sp-kozminiec@wp.pl",
                "ref:regon": "302289656",
                "operator": "Stowarzyszenie Nasz Ko\u017aminiec",
                "operator:type": "ngo",
                "landuse": "education",
                "fixme": "amenity=school, amenity=college albo landuse=education w zale\u017cno\u015bci od tego, jakie plac\u00f3wki wchodz\u0105 w sk\u0142ad zespo\u0142u. Sprawd\u017a, kiedy stosowa\u0107 amenity=* a kiedy landuse=education.",
                "note": "Children RSPO: 90346;90356"
            }
        },
        {
            "id": 90346,
            "type": "Feature",
            "geometry": {
                "type": "Point",
                "coordinates": [
                    17.6229389,
                    51.8080699
                ]
            },
            "properties": {
                "isced:level": "1;2",
                "ref:rspo": 90346,
                "official_name": "Szko\u0142a Podstawowa w Ko\u017ami\u0144cu",
                "name": "Szko\u0142a Podstawowa w Ko\u017ami\u0144cu",
                "addr:country": "PL",
                "addr:postcode": "63-330",
                "addr:place": "Ko\u017aminiec",
                "addr:housenumber": "50",
                "addr:teryt:simc": 196500,
                "contact:phone": "+48 627414513",
                "contact:email": "sp-kozminiec@wp.pl",
                "ref:regon": "302278180",
                "operator": "Stowarzyszenie Nasz Ko\u017aminiec",
                "operator:type": "ngo",
                "amenity": "school",
                "note": "Parent RSPO: 92986"
            }
        },
        {
            "id": 90356,
            "type": "Feature",
            "geometry": {
                "type": "Point",
                "coordinates": [
                    17.6234161,
                    51.8090431
                ]
            },
            "properties": {
                "ref:rspo": 90356,
                "official_name": "Przedszkole Publiczne w Ko\u017ami\u0144cu",
                "name": "Przedszkole Publiczne w Ko\u017ami\u0144cu",
                "addr:country": "PL",
                "addr:postcode": "63-330",
                "addr:place": "Ko\u017aminiec",
                "addr:housenumber": "48",
                "addr:teryt:simc": 196500,
                "contact:email": "sp-kozminiec@wp.pl",
                "ref:regon": "302278233",
                "operator": "Stowarzyszenie Nasz Ko\u017aminiec",
                "operator:type": "ngo",
                "amenity": "kindergarten",
                "note": "Parent RSPO: 92986"
            }
        },
        {
            "id": 92806,
            "type": "Feature",
            "geometry": {
                "type": "Point",
                "coordinates": [
                    17.6920495,
                    51.8378989
                ]
            },
            "properties": {
                "ref:rspo": 92806,
                "official_name": "Zesp\u00f3\u0142 Szk\u00f3\u0142 Publicznych w Karminie",
                "name": "Zesp\u00f3\u0142 Szk\u00f3\u0142 Publicznych w Karminie",
                "addr:country": "PL",
                "addr:postcode": "63-330",
                "addr:place": "Karmin",
                "addr:housenumber": "23",
                "addr:teryt:simc": 196463,
                "contact:phone": "+48 627414781",
                "contact:email": "zsp_karmin@wp.pl",
                "ref:regon": "302289165",
                "operator": "Stowarzyszenie Spo\u0142eczno O\u015bwiatowe W Karminie",
                "operator:type": "ngo",
                "landuse": "education",
                "fixme": "amenity=school, amenity=college albo landuse=education w zale\u017cno\u015bci od tego, jakie plac\u00f3wki wchodz\u0105 w sk\u0142ad zespo\u0142u. Sprawd\u017a, kiedy stosowa\u0107 amenity=* a kiedy landuse=education.",
                "note": "Children RSPO: 91131;91146"
            }
        },
        {
            "id": 91131,
            "type": "Feature",
            "geometry": {
                "type": "Point",
                "coordinates": [
                    17.6920495,
                    51.8378689
                ]
            },
            "properties": {
                "isced:level": "1;2",
                "ref:rspo": 91131,
                "official_name": "Szko\u0142a Podstawowa w Karminie",
                "name": "Szko\u0142a Podstawowa w Karminie",
                "addr:country": "PL",
                "addr:postcode": "63-330",
                "addr:place": "Karmin",
                "addr:housenumber": "23",
                "addr:teryt:simc": 196463,
                "contact:phone": "+48 627414781",
                "contact:email": "zsp_karmin@wp.pl",
                "ref:regon": "302280690",
                "operator": "Stowarzyszenie Spo\u0142eczno O\u015bwiatowe W Karminie",
                "operator:type": "ngo",
                "amenity": "school",
                "note": "Parent RSPO: 92806"
            }
        },
        {
            "id": 91146,
            "type": "Feature",
            "geometry": {
                "type": "Point",
                "coordinates": [
                    17.6920495,
                    51.8378389
                ]
            },
            "properties": {
                "ref:rspo": 91146,
                "official_name": "Przedszkole Publiczne w Karminie",
                "name": "Przedszkole Publiczne w Karminie",
                "addr:country": "PL",
                "addr:postcode": "63-330",
                "addr:place": "Karmin",
                "addr:housenumber": "23",
                "addr:teryt:simc": 196463,
                "contact:phone": "+48 627414781",
                "contact:email": "zsp_kamin@wp.pl",
                "ref:regon": "302280709",
                "operator": "Stowarzyszenie Spo\u0142eczno O\u015bwiatowe W Karminie",
                "operator:type": "ngo",
                "amenity": "kindergarten",
                "note": "Parent RSPO: 92806"
            }
        },
        {
            "id": 132240,
            "type": "Feature",
            "geometry": {
                "type": "Point",
                "coordinates": [
                    17.679137,
                    51.8602413
                ]
            },
            "properties": {
                "ref:rspo": 132240,
                "official_name": "Szkolne Schronisko M\u0142odzie\u017cowe w So\u015bnicy",
                "name": "Szkolne Schronisko M\u0142odzie\u017cowe w So\u015bnicy",
                "addr:country": "PL",
                "addr:postcode": "63-330",
                "addr:place": "So\u015bnica",
                "addr:housenumber": "84",
                "addr:teryt:simc": 196552,
                "contact:phone": "+48 627413809",
                "contact:email": "sp-dobrzyca@wp.pl",
                "ref:regon": "365520082",
                "operator": "Gmina Dobrzyca",
                "operator:type": "government",
                "tourism": "hostel",
                "note": "Parent RSPO: 22837"
            }
        },
        {
            "id": 22837,
            "type": "Feature",
            "geometry": {
                "type": "Point",
                "coordinates": [
                    17.59816,
                    51.86799
                ]
            },
            "properties": {
                "ref:rspo": 22837,
                "official_name": "Zesp\u00f3\u0142 Szk\u00f3\u0142 Publicznch w Dobrzycy",
                "name": "Zesp\u00f3\u0142 Szk\u00f3\u0142 Publicznch w Dobrzycy",
                "addr:country": "PL",
                "addr:postcode": "63-330",
                "addr:city": "Dobrzyca",
                "addr:street": "Szkolna",
                "addr:housenumber": "4a",
                "addr:teryt:simc": 196380,
                "addr:teryt:sym_ul": 21970,
                "contact:phone": "+48 627413809",
                "contact:email": "sp-dobrzyca@wp.pl",
                "ref:regon": "300009049",
                "operator": "Gmina Dobrzyca",
                "operator:type": "government",
                "landuse": "education",
                "fixme": "amenity=school, amenity=college albo landuse=education w zale\u017cno\u015bci od tego, jakie plac\u00f3wki wchodz\u0105 w sk\u0142ad zespo\u0142u. Sprawd\u017a, kiedy stosowa\u0107 amenity=* a kiedy landuse=education.",
                "note": "Children RSPO: 23297;23313;132240"
            }
        },
        {
            "id": 23831,
            "type": "Feature",
            "geometry": {
                "type": "Point",
                "coordinates": [
                    17.59816,
                    51.86796
                ]
            },
            "properties": {
                "isced:level": "3",
                "ref:rspo": 23831,
                "official_name": "Niepubliczne Liceum Og\u00f3lnokszta\u0142c\u0105ce dla Doros\u0142ych w Dobrzycy",
                "name": "Niepubliczne Liceum Og\u00f3lnokszta\u0142c\u0105ce dla Doros\u0142ych w Dobrzycy",
                "addr:country": "PL",
                "addr:postcode": "63-330",
                "addr:city": "Dobrzyca",
                "addr:street": "Szkolna",
                "addr:housenumber": "4",
                "addr:teryt:simc": 196380,
                "addr:teryt:sym_ul": 21970,
                "contact:phone": "+48 627413081",
                "ref:regon": "302235117",
                "operator": "Pawe\u0142 Dzioba",
                "operator:type": "private",
                "amenity": "school"
            }
        },
        {
            "id": 23297,
            "type": "Feature",
            "geometry": {
                "type": "Point",
                "coordinates": [
                    17.59816,
                    51.86793
                ]
            },
            "properties": {
                "isced:level": "1;2",
                "ref:rspo": 23297,
                "official_name": "Szko\u0142a Podstawowa im. Miko\u0142aja Kopernika w Dobrzycy",
                "name": "Szko\u0142a Podstawowa",
                "addr:country": "PL",
                "addr:postcode": "63-330",
                "addr:city": "Dobrzyca",
                "addr:street": "Szkolna",
                "addr:housenumber": "4a",
                "addr:teryt:simc": 196380,
                "addr:teryt:sym_ul": 21970,
                "contact:phone": "+48 627413809",
                "contact:email": "sp-dobrzyca@wp.pl",
                "contact:website": "http:\/\/dobrzycasp.pl",
                "ref:regon": "251141677",
                "operator": "Gmina Dobrzyca",
                "operator:type": "government",
                "amenity": "school",
                "note": "Parent RSPO: 22837"
            }
        },
        {
            "id": 23313,
            "type": "Feature",
            "geometry": {
                "type": "Point",
                "coordinates": [
                    17.59816,
                    51.8679
                ]
            },
            "properties": {
                "ref:rspo": 23313,
                "official_name": "Przedszkole im. Kubusia Puchatka w Dobrzycy",
                "name": "Przedszkole",
                "addr:country": "PL",
                "addr:postcode": "63-330",
                "addr:city": "Dobrzyca",
                "addr:street": "Szkolna",
                "addr:housenumber": "4",
                "addr:teryt:simc": 196380,
                "addr:teryt:sym_ul": 21970,
                "contact:phone": "+48 627413026",
                "contact:email": "sp-dobrzyca@wp.pl",
                "ref:regon": "251591570",
                "operator": "Gmina Dobrzyca",
                "operator:type": "government",
                "amenity": "kindergarten",
                "note": "Parent RSPO: 22837"
            }
        },
        {
            "id": 119794,
            "type": "Feature",
            "geometry": {
                "type": "Point",
                "coordinates": [
                    17.6690275,
                    51.8743842
                ]
            },
            "properties": {
                "ref:rspo": 119794,
                "official_name": "Zesp\u00f3\u0142 Szkolno-Przedszkolny w Lutyni",
                "name": "Zesp\u00f3\u0142 Szkolno-Przedszkolny w Lutyni",
                "addr:country": "PL",
                "addr:postcode": "63-330",
                "addr:place": "Lutynia",
                "addr:housenumber": "21A",
                "addr:teryt:simc": 196517,
                "contact:phone": "+48 627414318",
                "contact:email": "szkola.lutynia@interia.eu",
                "ref:regon": "302524169",
                "operator": "Stowarzyszenie Na Rzecz Integracji Wsi",
                "operator:type": "ngo",
                "landuse": "education",
                "fixme": "amenity=school, amenity=college albo landuse=education w zale\u017cno\u015bci od tego, jakie plac\u00f3wki wchodz\u0105 w sk\u0142ad zespo\u0142u. Sprawd\u017a, kiedy stosowa\u0107 amenity=* a kiedy landuse=education.",
                "note": "Children RSPO: 91245;91264"
            }
        },
        {
            "id": 91245,
            "type": "Feature",
            "geometry": {
                "type": "Point",
                "coordinates": [
                    17.6690275,
                    51.8743542
                ]
            },
            "properties": {
                "isced:level": "1;2",
                "ref:rspo": 91245,
                "official_name": "Szko\u0142a Podstawowa w Lutyni",
                "name": "Szko\u0142a Podstawowa w Lutyni",
                "addr:country": "PL",
                "addr:postcode": "63-330",
                "addr:place": "Lutynia",
                "addr:housenumber": "21A",
                "addr:teryt:simc": 196517,
                "contact:phone": "+48 627414318",
                "contact:email": "szkola.lutynia@interia.eu",
                "ref:regon": "302280945",
                "operator": "Stowarzyszenie Na Rzecz Integracji Wsi",
                "operator:type": "ngo",
                "amenity": "school",
                "note": "Parent RSPO: 119794"
            }
        },
        {
            "id": 91264,
            "type": "Feature",
            "geometry": {
                "type": "Point",
                "coordinates": [
                    17.6690275,
                    51.874324200000004
                ]
            },
            "properties": {
                "ref:rspo": 91264,
                "official_name": "Przedszkole Publiczne w Lutyni",
                "name": "Przedszkole Publiczne w Lutyni",
                "addr:country": "PL",
                "addr:postcode": "63-330",
                "addr:place": "Lutynia",
                "addr:housenumber": "21A",
                "addr:teryt:simc": 196517,
                "contact:phone": "+48 627414318",
                "contact:email": "szkola.lutynia@interia.eu",
                "ref:regon": "302281005",
                "operator": "Stowarzyszenie Na Rzecz Integracji Wsi",
                "operator:type": "ngo",
                "amenity": "kindergarten",
                "note": "Parent RSPO: 119794"
            }
        },
        {
            "id": 104401,
            "type": "Feature",
            "geometry": {
                "type": "Point",
                "coordinates": [
                    17.5344306,
                    51.8788755
                ]
            },
            "properties": {
                "ref:rspo": 104401,
                "official_name": "Zesp\u00f3\u0142 Szk\u00f3\u0142 Publicznych w Galewie",
                "name": "Zesp\u00f3\u0142 Szk\u00f3\u0142 Publicznych w Galewie",
                "addr:country": "PL",
                "addr:postcode": "63-330",
                "addr:place": "Galew",
                "addr:housenumber": "38",
                "addr:teryt:simc": 196434,
                "contact:phone": "+48 508911308",
                "contact:email": "szkolagalew@jaranet.pl",
                "ref:regon": "302296840",
                "operator": "Stowarzyszenie Na Rzecz Aktywizacji I Integracji Wsi Galew",
                "operator:type": "ngo",
                "landuse": "education",
                "fixme": "amenity=school, amenity=college albo landuse=education w zale\u017cno\u015bci od tego, jakie plac\u00f3wki wchodz\u0105 w sk\u0142ad zespo\u0142u. Sprawd\u017a, kiedy stosowa\u0107 amenity=* a kiedy landuse=education.",
                "note": "Children RSPO: 91157;91166"
            }
        },
        {
            "id": 91157,
            "type": "Feature",
            "geometry": {
                "type": "Point",
                "coordinates": [
                    17.5344306,
                    51.8788455
                ]
            },
            "properties": {
                "isced:level": "1;2",
                "ref:rspo": 91157,
                "official_name": "Szko\u0142a Podstawowa w Galewie",
                "name": "Szko\u0142a Podstawowa w Galewie",
                "addr:country": "PL",
                "addr:postcode": "63-330",
                "addr:place": "Galew",
                "addr:housenumber": "38",
                "addr:teryt:simc": 196434,
                "contact:phone": "+48 508911308",
                "contact:email": "szkolagalew@wp.pl",
                "ref:regon": "302280744",
                "operator": "Stowarzyszenie Na Rzecz Aktywizacji I Integracji Wsi Galew",
                "operator:type": "ngo",
                "amenity": "school",
                "note": "Parent RSPO: 104401"
            }
        },
        {
            "id": 91166,
            "type": "Feature",
            "geometry": {
                "type": "Point",
                "coordinates": [
                    17.5344306,
                    51.8788155
                ]
            },
            "properties": {
                "ref:rspo": 91166,
                "official_name": "Przedszkole Publiczne w Galewie",
                "name": "Przedszkole Publiczne w Galewie",
                "addr:country": "PL",
                "addr:postcode": "63-330",
                "addr:place": "Galew",
                "addr:housenumber": "38",
                "addr:teryt:simc": 196434,
                "contact:phone": "+48 508911308",
                "contact:email": "szkolagalew@wp.pl",
                "ref:regon": "302280773",
                "operator": "Stowarzyszenie Na Rzecz Aktywizacji I Integracji Wsi Galew",
                "operator:type": "ngo",
                "amenity": "kindergarten",
                "note": "Parent RSPO: 104401"
            }
        }
    ]
}