{
    "type": "FeatureCollection",
    "features": [
        {
            "id": 25636,
            "type": "Feature",
            "geometry": {
                "type": "Point",
                "coordinates": [
                    17.7499139,
                    51.9450919
                ]
            },
            "properties": {
                "ref:rspo": 25636,
                "official_name": "Zesp\u00f3\u0142 Szk\u00f3\u0142 Publicznych w Czerminie",
                "name": "Zesp\u00f3\u0142 Szk\u00f3\u0142 Publicznych w Czerminie",
                "addr:postcode": "63-304",
                "addr:place": "Czermin",
                "addr:housenumber": "2B",
                "addr:door": "-",
                "addr:city:simc": 196210,
                "phone": "+48 627416120",
                "email": "spczermin@poczta.onet.pl",
                "ref:regon": "251605556",
                "operator": "Gmina Czermin",
                "operator:type": "government",
                "landuse": "education",
                "fixme": "amenity=school, amenity=college albo landuse=education w zale\u017cno\u015bci od tego, jakie plac\u00f3wki wchodz\u0105 w sk\u0142ad zespo\u0142u. Sprawd\u017a, kiedy stosowa\u0107 amenity=* a kiedy landuse=education.",
                "note": "Children RSPO: 59052;59053"
            }
        },
        {
            "id": 59052,
            "type": "Feature",
            "geometry": {
                "type": "Point",
                "coordinates": [
                    17.7499139,
                    51.9450619
                ]
            },
            "properties": {
                "isced:level": "1;2",
                "ref:rspo": 59052,
                "official_name": "Szko\u0142a Podstawowa im. Lotnik\u00f3w Polskich w Czerminie",
                "name": "Szko\u0142a Podstawowa",
                "addr:postcode": "63-304",
                "addr:place": "Czermin",
                "addr:housenumber": "2B",
                "addr:city:simc": 196210,
                "phone": "+48 627416120",
                "email": "spczermin@poczta.onet.pl",
                "ref:regon": "000566210",
                "ref:vatin": "PL6080009235",
                "operator": "Gmina Czermin",
                "operator:type": "government",
                "amenity": "school",
                "note": "Parent RSPO: 25636"
            }
        },
        {
            "id": 59053,
            "type": "Feature",
            "geometry": {
                "type": "Point",
                "coordinates": [
                    17.7499139,
                    51.945031900000004
                ]
            },
            "properties": {
                "ref:rspo": 59053,
                "official_name": "Przedszkole w Czerminie",
                "name": "Przedszkole w Czerminie",
                "addr:postcode": "63-304",
                "addr:place": "Czermin",
                "addr:housenumber": "2B",
                "addr:city:simc": 196210,
                "phone": "+48 627416120",
                "email": "spczermin@poczta.onet.pl",
                "ref:regon": "251605480",
                "ref:vatin": "PL6080046578",
                "operator": "Gmina Czermin",
                "operator:type": "government",
                "amenity": "kindergarten",
                "note": "Parent RSPO: 25636"
            }
        },
        {
            "id": 130986,
            "type": "Feature",
            "geometry": {
                "type": "Point",
                "coordinates": [
                    17.8150349,
                    51.961251
                ]
            },
            "properties": {
                "ref:rspo": 130986,
                "official_name": "O\u015brodek Rewalidacyjno-Wychowawczy U Dominikanek",
                "name": "O\u015brodek Rewalidacyjno-Wychowawczy U Dominikanek",
                "addr:postcode": "63-304",
                "addr:place": "Broniszewice",
                "addr:housenumber": "91",
                "addr:city:simc": 196204,
                "phone": "+48 517317799",
                "email": "orwudominikanek@wp.pl",
                "ref:regon": "364835091",
                "operator": "Zgromadzenie Si\u00f3str \u015aw. Dominika",
                "operator:type": "religious",
                "amenity": "school"
            }
        },
        {
            "id": 25635,
            "type": "Feature",
            "geometry": {
                "type": "Point",
                "coordinates": [
                    17.817314,
                    51.9674679
                ]
            },
            "properties": {
                "ref:rspo": 25635,
                "official_name": "Zesp\u00f3\u0142 Szk\u00f3\u0142 Publicznych w Broniszewicach",
                "name": "Zesp\u00f3\u0142 Szk\u00f3\u0142 Publicznych w Broniszewicach",
                "addr:postcode": "63-304",
                "addr:place": "Broniszewice",
                "addr:housenumber": "44a",
                "addr:door": "-",
                "addr:city:simc": 196204,
                "phone": "+48 627416482",
                "email": "spbroniszewice@poczta.onet.pl",
                "ref:regon": "251605266",
                "operator": "Gmina Czermin",
                "operator:type": "government",
                "landuse": "education",
                "fixme": "amenity=school, amenity=college albo landuse=education w zale\u017cno\u015bci od tego, jakie plac\u00f3wki wchodz\u0105 w sk\u0142ad zespo\u0142u. Sprawd\u017a, kiedy stosowa\u0107 amenity=* a kiedy landuse=education.",
                "note": "Children RSPO: 59049;59050"
            }
        },
        {
            "id": 59049,
            "type": "Feature",
            "geometry": {
                "type": "Point",
                "coordinates": [
                    17.817314,
                    51.9674379
                ]
            },
            "properties": {
                "isced:level": "1;2",
                "ref:rspo": 59049,
                "official_name": "Szko\u0142a Podstawowa im. Noblist\u00f3w Polskich w Broniszewicach",
                "name": "Szko\u0142a Podstawowa",
                "addr:postcode": "63-304",
                "addr:place": "Broniszewice",
                "addr:housenumber": "44a",
                "addr:city:simc": 196204,
                "phone": "+48 627416482",
                "email": "spbroniszewice@poczta.onet.pl",
                "website": "http:\/\/www.zsbroniszewice.edu.pl",
                "ref:regon": "001173843",
                "ref:vatin": "PL6171811501",
                "operator": "Gmina Czermin",
                "operator:type": "government",
                "amenity": "school",
                "note": "Parent RSPO: 25635"
            }
        },
        {
            "id": 59050,
            "type": "Feature",
            "geometry": {
                "type": "Point",
                "coordinates": [
                    17.817314,
                    51.967407900000005
                ]
            },
            "properties": {
                "ref:rspo": 59050,
                "official_name": "Przedszkole w Broniszewicach",
                "name": "Przedszkole w Broniszewicach",
                "addr:postcode": "63-304",
                "addr:place": "Broniszewice",
                "addr:housenumber": "44a",
                "addr:city:simc": 196204,
                "phone": "+48 627416482",
                "email": "spbroniszewice@poczta.onet.pl",
                "website": "http:\/\/www.zsbroniszewice.edu.pl",
                "ref:regon": "251605243",
                "operator": "Gmina Czermin",
                "operator:type": "government",
                "amenity": "kindergarten",
                "note": "Parent RSPO: 25635"
            }
        },
        {
            "id": 25638,
            "type": "Feature",
            "geometry": {
                "type": "Point",
                "coordinates": [
                    17.7785609,
                    52.002637
                ]
            },
            "properties": {
                "ref:rspo": 25638,
                "official_name": "Zesp\u00f3\u0142 Szk\u00f3\u0142 Publicznych w \u017begocinie",
                "name": "Zesp\u00f3\u0142 Szk\u00f3\u0142 Publicznych w \u017begocinie",
                "addr:postcode": "63-304",
                "addr:place": "\u017begocin",
                "addr:housenumber": "8",
                "addr:door": "-",
                "addr:city:simc": 196351,
                "phone": "+48 627416909",
                "email": "spzegocin@op.pl",
                "ref:regon": "251605579",
                "operator": "Gmina Czermin",
                "operator:type": "government",
                "landuse": "education",
                "fixme": "amenity=school, amenity=college albo landuse=education w zale\u017cno\u015bci od tego, jakie plac\u00f3wki wchodz\u0105 w sk\u0142ad zespo\u0142u. Sprawd\u017a, kiedy stosowa\u0107 amenity=* a kiedy landuse=education.",
                "note": "Children RSPO: 59063;59064;59065;59066"
            }
        },
        {
            "id": 59064,
            "type": "Feature",
            "geometry": {
                "type": "Point",
                "coordinates": [
                    17.7785609,
                    52.002607
                ]
            },
            "properties": {
                "isced:level": "1;2",
                "ref:rspo": 59064,
                "official_name": "Szko\u0142a Podstawowa w \u017begocinie",
                "name": "Szko\u0142a Podstawowa w \u017begocinie",
                "addr:postcode": "63-304",
                "addr:place": "\u017begocin",
                "addr:housenumber": "8",
                "addr:city:simc": 196351,
                "phone": "+48 627416909",
                "email": "spzegocin@op.pl",
                "ref:regon": "001173837",
                "ref:vatin": "PL6171789486",
                "operator": "Gmina Czermin",
                "operator:type": "government",
                "amenity": "school",
                "note": "Parent RSPO: 25638"
            }
        },
        {
            "id": 59065,
            "type": "Feature",
            "geometry": {
                "type": "Point",
                "coordinates": [
                    17.7785609,
                    52.002577
                ]
            },
            "properties": {
                "ref:rspo": 59065,
                "official_name": "Przedszkole w \u017begocinie",
                "name": "Przedszkole w \u017begocinie",
                "addr:postcode": "63-304",
                "addr:place": "\u017begocin",
                "addr:housenumber": "8",
                "addr:city:simc": 196351,
                "phone": "+48 627416909",
                "email": "spzegocin@op.pl",
                "ref:regon": "251605496",
                "ref:vatin": "PL6080046549",
                "operator": "Gmina Czermin",
                "operator:type": "government",
                "amenity": "kindergarten",
                "note": "Parent RSPO: 25638"
            }
        },
        {
            "id": 59066,
            "type": "Feature",
            "geometry": {
                "type": "Point",
                "coordinates": [
                    17.7569511,
                    52.0121289
                ]
            },
            "properties": {
                "ref:rspo": 59066,
                "official_name": "Przedszkole w Wieczynie",
                "name": "Przedszkole w Wieczynie",
                "addr:postcode": "63-304",
                "addr:place": "Wieczyn",
                "addr:housenumber": "50",
                "addr:city:simc": 196339,
                "phone": "+48 509897313",
                "email": "spzegocin@op.pl",
                "ref:regon": "251605504",
                "ref:vatin": "PL6080046532",
                "operator": "Gmina Czermin",
                "operator:type": "government",
                "amenity": "kindergarten",
                "note": "Parent RSPO: 25638"
            }
        },
        {
            "id": 59063,
            "type": "Feature",
            "geometry": {
                "type": "Point",
                "coordinates": [
                    17.7212745,
                    52.0245194
                ]
            },
            "properties": {
                "ref:rspo": 59063,
                "official_name": "Przedszkole w Grabiu",
                "name": "Przedszkole w Grabiu",
                "addr:postcode": "63-304",
                "addr:place": "Grab",
                "addr:housenumber": "18",
                "addr:city:simc": 196240,
                "phone": "+48 627416571",
                "email": "spzegocin@op.pl",
                "ref:regon": "251605214",
                "ref:vatin": "PL6080046555",
                "operator": "Gmina Czermin",
                "operator:type": "government",
                "amenity": "kindergarten",
                "note": "Parent RSPO: 25638"
            }
        }
    ]
}