{"type":"FeatureCollection","features":[{"id":17451,"type":"Feature","geometry":{"type":"Point","coordinates":[18.00989,51.78315]},"properties":{"ref:rspo":17451,"official_name":"Przedszkole Publiczne w Ko\u015bcielnej Wsi","name":"Przedszkole Publiczne w Ko\u015bcielnej Wsi","addr:country":"PL","addr:postcode":"62-811","addr:city":"Ko\u015bcielna Wie\u015b","addr:street":"ul. Ostrowska","addr:housenumber":"1","addr:teryt:simc":15390,"addr:teryt:sym_ul":198433,"contact:phone":"+48 627616626","contact:email":"spkw@goluchow.pl","ref:regon":"251596018","operator":"Gmina Go\u0142uch\u00f3w","operator:type":"government","amenity":"kindergarten","note":"Parent RSPO: 4794"}},{"id":4794,"type":"Feature","geometry":{"type":"Point","coordinates":[18.01092,51.78343]},"properties":{"ref:rspo":4794,"official_name":"Zesp\u00f3\u0142 Szkolno-Przedszkolny w Ko\u015bcielnej Wsi","name":"Zesp\u00f3\u0142 Szkolno-Przedszkolny w Ko\u015bcielnej Wsi","addr:country":"PL","addr:postcode":"62-811","addr:city":"Ko\u015bcielna Wie\u015b","addr:street":"ul. Kaliska","addr:housenumber":"2","addr:teryt:simc":7823,"addr:teryt:sym_ul":198433,"contact:phone":"+48 627616627","contact:email":"spkw@goluchow.pl","ref:regon":"251596030","operator":"Gmina Go\u0142uch\u00f3w","operator:type":"government","landuse":"education","fixme":"amenity=school, amenity=college albo landuse=education w zale\u017cno\u015bci od tego, jakie plac\u00f3wki wchodz\u0105 w sk\u0142ad zespo\u0142u. Sprawd\u017a, kiedy stosowa\u0107 amenity=* a kiedy landuse=education.","note":"Children RSPO: 17428;17451"}},{"id":17428,"type":"Feature","geometry":{"type":"Point","coordinates":[18.01092,51.7834]},"properties":{"isced:level":"1;2","ref:rspo":17428,"official_name":"Szko\u0142a Podstawowa im. Henryka Sucharskiego w Ko\u015bcielnej Wsi","name":"Szko\u0142a Podstawowa","addr:country":"PL","addr:postcode":"62-811","addr:city":"Ko\u015bcielna Wie\u015b","addr:street":"ul. Kaliska","addr:housenumber":"2","addr:teryt:simc":7823,"addr:teryt:sym_ul":198433,"contact:phone":"+48 627616627","contact:email":"spkw@goluchow.pl","ref:regon":"001171206","operator":"Gmina Go\u0142uch\u00f3w","operator:type":"government","amenity":"school","note":"Parent RSPO: 4794"}},{"id":4841,"type":"Feature","geometry":{"type":"Point","coordinates":[17.922383,51.7988189]},"properties":{"ref:rspo":4841,"official_name":"Zesp\u00f3\u0142 Szkolno-Przedszkolny w Kucharkach","name":"Zesp\u00f3\u0142 Szkolno-Przedszkolny w Kucharkach","addr:country":"PL","addr:postcode":"63-322","addr:place":"Kucharki","addr:housenumber":"39","addr:teryt:sym_ul":198479,"contact:phone":"+48 627615528","contact:email":"spkucharki@goluchow.pl","contact:website":"http:\/\/www.zspkucharki.superszkolna.pl","ref:regon":"251599241","operator":"Gmina Go\u0142uch\u00f3w","operator:type":"government","landuse":"education","fixme":"amenity=school, amenity=college albo landuse=education w zale\u017cno\u015bci od tego, jakie plac\u00f3wki wchodz\u0105 w sk\u0142ad zespo\u0142u. Sprawd\u017a, kiedy stosowa\u0107 amenity=* a kiedy landuse=education.","note":"Children RSPO: 17607;17623"}},{"id":17607,"type":"Feature","geometry":{"type":"Point","coordinates":[17.922383,51.7987889]},"properties":{"isced:level":"1;2","ref:rspo":17607,"official_name":"Szko\u0142a Podstawowa im. Arkadego Fiedlera w Kucharkach","name":"Szko\u0142a Podstawowa","addr:country":"PL","addr:postcode":"63-322","addr:place":"Kucharki","addr:housenumber":"39","addr:teryt:sym_ul":198479,"contact:phone":"+48 627615528","contact:email":"spkucharki@goluchow.pl","contact:website":"http:\/\/www.zspkucharki.superszkolna.pl","ref:regon":"001171229","operator":"Gmina Go\u0142uch\u00f3w","operator:type":"government","amenity":"school","note":"Parent RSPO: 4841"}},{"id":17623,"type":"Feature","geometry":{"type":"Point","coordinates":[17.922383,51.7987589]},"properties":{"ref:rspo":17623,"official_name":"Przedszkole Publiczne w Kucharkach","name":"Przedszkole Publiczne w Kucharkach","addr:country":"PL","addr:postcode":"63-322","addr:place":"Kucharki","addr:housenumber":"39","addr:teryt:sym_ul":198479,"contact:phone":"+48 627615528","contact:email":"spkucharki@goluchow.pl","ref:regon":"251599235","operator":"Gmina Go\u0142uch\u00f3w","operator:type":"government","amenity":"kindergarten","note":"Parent RSPO: 4841"}},{"id":129787,"type":"Feature","geometry":{"type":"Point","coordinates":[17.996865,51.812689]},"properties":{"ref:rspo":129787,"official_name":"Zesp\u00f3\u0142 Szkolno-Przedszkolny w Kucharach","name":"Zesp\u00f3\u0142 Szkolno-Przedszkolny w Kucharach","addr:country":"PL","addr:postcode":"63-322","addr:place":"Kuchary","addr:housenumber":"99","addr:teryt:sym_ul":198485,"contact:phone":"+48 627616812","contact:email":"sp-kuchary@wp.pl","ref:regon":"362894511","operator":"Stowarzyszenie Wspierania Wsi \"Wsp\u00f3lne Dobro\"","operator:type":"ngo","landuse":"education","fixme":"amenity=school, amenity=college albo landuse=education w zale\u017cno\u015bci od tego, jakie plac\u00f3wki wchodz\u0105 w sk\u0142ad zespo\u0142u. Sprawd\u017a, kiedy stosowa\u0107 amenity=* a kiedy landuse=education.","note":"Children RSPO: 129789;129790"}},{"id":129789,"type":"Feature","geometry":{"type":"Point","coordinates":[17.996865,51.812659]},"properties":{"isced:level":"1;2","ref:rspo":129789,"official_name":"Szko\u0142a Podstawowa im. Powsta\u0144c\u00f3w Wielkopolskich w Kucharach","name":"Szko\u0142a Podstawowa","addr:country":"PL","addr:postcode":"63-322","addr:place":"Kuchary","addr:housenumber":"99","addr:teryt:sym_ul":198485,"contact:phone":"+48 627616812","contact:email":"sp-kuchary@wp.pl","ref:regon":"362896131","operator":"Stowarzyszenie Wspierania Wsi \"Wsp\u00f3lne Dobro\"","operator:type":"ngo","amenity":"school","note":"Parent RSPO: 129787"}},{"id":129790,"type":"Feature","geometry":{"type":"Point","coordinates":[17.996865,51.812629]},"properties":{"ref:rspo":129790,"official_name":"Publiczne Przedszkole w Kucharach","name":"Publiczne Przedszkole w Kucharach","addr:country":"PL","addr:postcode":"63-322","addr:place":"Kuchary","addr:housenumber":"99","addr:teryt:sym_ul":198485,"contact:phone":"+48 627616812","contact:email":"sp-kuchary@wp.pl","ref:regon":"362903954","operator":"Stowarzyszenie Wspierania Wsi \"Wsp\u00f3lne Dobro\"","operator:type":"ngo","amenity":"kindergarten","note":"Parent RSPO: 129787"}},{"id":17389,"type":"Feature","geometry":{"type":"Point","coordinates":[17.92931,51.84331]},"properties":{"ref:rspo":17389,"official_name":"Przedszkole Publiczne w Go\u0142uchowie","name":"Przedszkole Publiczne w Go\u0142uchowie","addr:country":"PL","addr:postcode":"63-322","addr:city":"Go\u0142uch\u00f3w","addr:street":"ul. Juliusza S\u0142owackiego","addr:housenumber":"1A","addr:teryt:simc":20291,"addr:teryt:sym_ul":198380,"contact:phone":"+48 627615002","contact:email":"spgoluchow@goluchow.pl","contact:website":"http:\/\/www.zspgoluchow.superszkolna.pl","ref:regon":"251596863","operator":"Gmina Go\u0142uch\u00f3w","operator:type":"government","amenity":"kindergarten","note":"Parent RSPO: 4828"}},{"id":4828,"type":"Feature","geometry":{"type":"Point","coordinates":[17.9298,51.84654]},"properties":{"ref:rspo":4828,"official_name":"Zesp\u00f3\u0142 Szkolno-Przedszkolny w Go\u0142uchowie","name":"Zesp\u00f3\u0142 Szkolno-Przedszkolny w Go\u0142uchowie","addr:country":"PL","addr:postcode":"63-322","addr:city":"Go\u0142uch\u00f3w","addr:street":"ul. Czartoryskich","addr:housenumber":"53","addr:teryt:simc":3317,"addr:teryt:sym_ul":198380,"contact:phone":"+48 627615002","contact:email":"spgoluchow@goluchow.pl","contact:website":"http:\/\/www.zspgoluchow.superszkolna.pl","ref:regon":"251596857","operator":"Gmina Go\u0142uch\u00f3w","operator:type":"government","landuse":"education","fixme":"amenity=school, amenity=college albo landuse=education w zale\u017cno\u015bci od tego, jakie plac\u00f3wki wchodz\u0105 w sk\u0142ad zespo\u0142u. Sprawd\u017a, kiedy stosowa\u0107 amenity=* a kiedy landuse=education.","note":"Children RSPO: 16294;17389"}},{"id":16294,"type":"Feature","geometry":{"type":"Point","coordinates":[17.9298,51.846509999999995]},"properties":{"isced:level":"1;2","ref:rspo":16294,"official_name":"Szko\u0142a Podstawowa im. Izabeli Z Czartoryskich Dzia\u0142y\u0144skiej w Go\u0142uchowie","name":"Szko\u0142a Podstawowa","addr:country":"PL","addr:postcode":"63-322","addr:city":"Go\u0142uch\u00f3w","addr:street":"ul. Czartoryskich","addr:housenumber":"53","addr:teryt:simc":3317,"addr:teryt:sym_ul":198380,"contact:phone":"+48 627615002","contact:email":"spgoluchow@goluchow.pl","contact:website":"http:\/\/www.zspgoluchow.superszkolna.pl","ref:regon":"000564323","operator":"Gmina Go\u0142uch\u00f3w","operator:type":"government","amenity":"school","note":"Parent RSPO: 4828"}},{"id":4838,"type":"Feature","geometry":{"type":"Point","coordinates":[17.961138,51.8501819]},"properties":{"ref:rspo":4838,"official_name":"Zesp\u00f3\u0142 Szkolno-Przedszkolny w Jedlcu","name":"Zesp\u00f3\u0142 Szkolno-Przedszkolny w Jedlcu","addr:country":"PL","addr:postcode":"63-322","addr:place":"Jedlec","addr:housenumber":"154","addr:teryt:sym_ul":198404,"contact:phone":"+48 623320561","contact:email":"spjedlec@goluchow.pl","contact:website":"http:\/\/www.zspjedlec.superszkolna.pl","ref:regon":"251592960","operator":"Gmina Go\u0142uch\u00f3w","operator:type":"government","landuse":"education","fixme":"amenity=school, amenity=college albo landuse=education w zale\u017cno\u015bci od tego, jakie plac\u00f3wki wchodz\u0105 w sk\u0142ad zespo\u0142u. Sprawd\u017a, kiedy stosowa\u0107 amenity=* a kiedy landuse=education.","note":"Children RSPO: 17520;17561"}},{"id":17520,"type":"Feature","geometry":{"type":"Point","coordinates":[17.961138,51.8501519]},"properties":{"isced:level":"1;2","ref:rspo":17520,"official_name":"Szko\u0142a Podstawowa im. Kr\u00f3lowej Jadwigi w Jedlcu","name":"Szko\u0142a Podstawowa","addr:country":"PL","addr:postcode":"63-322","addr:place":"Jedlec","addr:housenumber":"154","addr:teryt:sym_ul":198404,"contact:phone":"+48 623320561","contact:email":"spjedlec@goluchow.pl","contact:website":"http:\/\/www.zspjedlec.superszkolna.pl","ref:regon":"001171809","operator":"Gmina Go\u0142uch\u00f3w","operator:type":"government","amenity":"school","note":"Parent RSPO: 4838"}},{"id":17561,"type":"Feature","geometry":{"type":"Point","coordinates":[17.961138,51.850121900000005]},"properties":{"ref:rspo":17561,"official_name":"Przedszkole Publiczne w Jedlcu","name":"Przedszkole Publiczne w Jedlcu","addr:country":"PL","addr:postcode":"63-322","addr:place":"Jedlec","addr:housenumber":"154","addr:teryt:sym_ul":198404,"contact:phone":"+48 623320561","contact:email":"spjedlec@goluchow.pl","contact:website":"http:\/\/www.zspjedlec.superszkolna.pl","ref:regon":"251592641","operator":"Gmina Go\u0142uch\u00f3w","operator:type":"government","amenity":"kindergarten","note":"Parent RSPO: 4838"}},{"id":4873,"type":"Feature","geometry":{"type":"Point","coordinates":[17.826303,51.9008344]},"properties":{"ref:rspo":4873,"official_name":"Zesp\u00f3\u0142 Szkolno-Przedszkolny w Tursku","name":"Zesp\u00f3\u0142 Szkolno-Przedszkolny w Tursku","addr:country":"PL","addr:postcode":"63-322","addr:place":"Tursko","addr:housenumber":"10","addr:teryt:sym_ul":198522,"contact:phone":"+48 627615252","contact:email":"sptursko@goluchow.pl","contact:website":"http:\/\/sptursko.superszkolna.pl","ref:regon":"251590151","operator":"Gmina Go\u0142uch\u00f3w","operator:type":"government","landuse":"education","fixme":"amenity=school, amenity=college albo landuse=education w zale\u017cno\u015bci od tego, jakie plac\u00f3wki wchodz\u0105 w sk\u0142ad zespo\u0142u. Sprawd\u017a, kiedy stosowa\u0107 amenity=* a kiedy landuse=education.","note":"Children RSPO: 22284;22288"}},{"id":22284,"type":"Feature","geometry":{"type":"Point","coordinates":[17.826303,51.9008044]},"properties":{"isced:level":"1;2","ref:rspo":22284,"official_name":"Szko\u0142a Podstawowa im. Armii Krajowej w Tursku","name":"Szko\u0142a Podstawowa","addr:country":"PL","addr:postcode":"63-322","addr:place":"Tursko","addr:housenumber":"10","addr:teryt:sym_ul":198522,"contact:phone":"+48 627615252","contact:email":"sptursko@goluchow.pl","contact:website":"http:\/\/sptursko.superszkolna.pl","ref:regon":"001171212","operator":"Gmina Go\u0142uch\u00f3w","operator:type":"government","amenity":"school","note":"Parent RSPO: 4873"}},{"id":22288,"type":"Feature","geometry":{"type":"Point","coordinates":[17.826303,51.9007744]},"properties":{"ref:rspo":22288,"official_name":"Przedszkole Publiczne w Tursku","name":"Przedszkole Publiczne w Tursku","addr:country":"PL","addr:postcode":"63-322","addr:place":"Tursko","addr:housenumber":"10","addr:teryt:sym_ul":198522,"contact:phone":"+48 627615252","contact:email":"sptursko@goluchow.pl","contact:website":"http:\/\/sptursko.superszkolna.pl","ref:regon":"251590145","operator":"Gmina Go\u0142uch\u00f3w","operator:type":"government","amenity":"kindergarten","note":"Parent RSPO: 4873"}}]}