{
    "type": "FeatureCollection",
    "features": [
        {
            "id": 82483,
            "type": "Feature",
            "geometry": {
                "type": "Point",
                "coordinates": [
                    16.62461,
                    51.62543
                ]
            },
            "properties": {
                "ref:rspo": 82483,
                "official_name": "Zesp\u00f3\u0142 Szko\u0142a Podstawowa I Przedszkole im. Janusza Korczaka w \u015alubowie",
                "name": "Zesp\u00f3\u0142 Szko\u0142a Podstawowa I Przedszkole",
                "addr:postcode": "56-200",
                "addr:place": "\u015alub\u00f3w",
                "addr:housenumber": "54",
                "addr:teryt:simc": 370464,
                "phone": "+48 655436877",
                "email": "zspipslubow@wp.pl",
                "website": "http:\/\/www.zspipslubow.edupage.org",
                "ref:regon": "932678077",
                "ref:vatin": "PL6931963672",
                "operator": "Gmina G\u00f3ra",
                "operator:type": "government",
                "landuse": "education",
                "fixme": "amenity=school, amenity=college albo landuse=education w zale\u017cno\u015bci od tego, jakie plac\u00f3wki wchodz\u0105 w sk\u0142ad zespo\u0142u. Sprawd\u017a, kiedy stosowa\u0107 amenity=* a kiedy landuse=education.",
                "note": "Children RSPO: 111018;111028"
            }
        },
        {
            "id": 111018,
            "type": "Feature",
            "geometry": {
                "type": "Point",
                "coordinates": [
                    16.62461,
                    51.6254
                ]
            },
            "properties": {
                "ref:rspo": 111018,
                "official_name": "Przedszkole w \u015alubowie",
                "name": "Przedszkole w \u015alubowie",
                "addr:postcode": "56-200",
                "addr:place": "\u015alub\u00f3w",
                "addr:housenumber": "54",
                "addr:teryt:simc": 370464,
                "phone": "+48 655436877",
                "email": "zspipslubow@wp.pl",
                "website": "http:\/\/zspipslubow.edupage.org",
                "ref:regon": "932678054",
                "operator": "Gmina G\u00f3ra",
                "operator:type": "government",
                "amenity": "kindergarten",
                "note": "Parent RSPO: 82483"
            }
        },
        {
            "id": 111028,
            "type": "Feature",
            "geometry": {
                "type": "Point",
                "coordinates": [
                    16.62461,
                    51.625370000000004
                ]
            },
            "properties": {
                "isced:level": "1;2",
                "ref:rspo": 111028,
                "official_name": "Szko\u0142a Podstawowa w \u015alubowie",
                "name": "Szko\u0142a Podstawowa w \u015alubowie",
                "addr:postcode": "56-200",
                "addr:place": "\u015alub\u00f3w",
                "addr:housenumber": "54",
                "addr:teryt:simc": 370464,
                "phone": "+48 655436877",
                "email": "zspipslubow@wp.pl",
                "website": "http:\/\/zspipslubow.edupage.org\/",
                "ref:regon": "001118650",
                "operator": "Gmina G\u00f3ra",
                "operator:type": "government",
                "amenity": "school",
                "note": "Parent RSPO: 82483"
            }
        },
        {
            "id": 56377,
            "type": "Feature",
            "geometry": {
                "type": "Point",
                "coordinates": [
                    16.53013,
                    51.66326
                ]
            },
            "properties": {
                "isced:level": "1;2",
                "ref:rspo": 56377,
                "official_name": "Szko\u0142a Podstawowa Nr 1 im. Boles\u0142awa Prusa w G\u00f3rze",
                "name": "Szko\u0142a Podstawowa Nr 1",
                "addr:postcode": "56-200",
                "addr:city": "G\u00f3ra",
                "addr:street": "Marii Konopnickiej",
                "addr:housenumber": "2",
                "addr:teryt:simc": 954449,
                "addr:teryt:sym_ul": 9186,
                "phone": "+48 655432452",
                "email": "szkola@sp1gora.edu.pl",
                "website": "http:\/\/www.sp1gora.edupage.org",
                "ref:regon": "000739716",
                "ref:vatin": "PL6991687862",
                "operator": "Gmina G\u00f3ra",
                "operator:type": "government",
                "amenity": "school"
            }
        },
        {
            "id": 58991,
            "type": "Feature",
            "geometry": {
                "type": "Point",
                "coordinates": [
                    16.5374899,
                    51.6633799
                ]
            },
            "properties": {
                "ref:rspo": 58991,
                "official_name": "Zesp\u00f3\u0142 Szk\u00f3\u0142 im. Gen. Sylwestra Kaliskiego w G\u00f3rze",
                "name": "Zesp\u00f3\u0142 Szk\u00f3\u0142",
                "addr:postcode": "56-200",
                "addr:city": "G\u00f3ra",
                "addr:street": "Armii Polskiej",
                "addr:housenumber": "15a",
                "addr:teryt:simc": 954449,
                "addr:teryt:sym_ul": 437,
                "phone": "+48 655432660",
                "email": "sekretariat@zszgoras.pol.pl",
                "website": "http:\/\/www.zszgoras.pol.pl",
                "ref:regon": "000182001",
                "ref:vatin": "PL6991028740",
                "operator": "Powiat G\u00f3rowski",
                "operator:type": "government",
                "landuse": "education",
                "fixme": "amenity=school, amenity=college albo landuse=education w zale\u017cno\u015bci od tego, jakie plac\u00f3wki wchodz\u0105 w sk\u0142ad zespo\u0142u. Sprawd\u017a, kiedy stosowa\u0107 amenity=* a kiedy landuse=education.",
                "note": "Children RSPO: 82733;82814"
            }
        },
        {
            "id": 82733,
            "type": "Feature",
            "geometry": {
                "type": "Point",
                "coordinates": [
                    16.5374899,
                    51.6633499
                ]
            },
            "properties": {
                "isced:level": "3",
                "ref:rspo": 82733,
                "official_name": "Zesp\u00f3\u0142 Szk\u00f3\u0142 im. Gen. Sylwestra Kaliskiego w G\u00f3rze-Technikum w G\u00f3rze",
                "name": "Zesp\u00f3\u0142 Szk\u00f3\u0142",
                "addr:postcode": "56-200",
                "addr:city": "G\u00f3ra",
                "addr:street": "Armii Polskiej",
                "addr:housenumber": "15a",
                "addr:teryt:simc": 954449,
                "addr:teryt:sym_ul": 437,
                "phone": "+48 655432660",
                "email": "sekretariat@zszgoras.pol.pl",
                "website": "http:\/\/zszgoras.pol.pl",
                "ref:regon": "932831870",
                "operator": "Powiat G\u00f3rowski",
                "operator:type": "government",
                "amenity": "school",
                "note": "Parent RSPO: 58991"
            }
        },
        {
            "id": 82814,
            "type": "Feature",
            "geometry": {
                "type": "Point",
                "coordinates": [
                    16.5374899,
                    51.663319900000005
                ]
            },
            "properties": {
                "isced:level": "3",
                "ref:rspo": 82814,
                "official_name": "Zesp\u00f3\u0142 Szk\u00f3\u0142 im. Gen. Sylwestra Kaliskiego w G\u00f3rze Bran\u017cowa Szko\u0142a I Stopnia w G\u00f3rze",
                "name": "Zesp\u00f3\u0142 Szk\u00f3\u0142",
                "addr:postcode": "56-200",
                "addr:city": "G\u00f3ra",
                "addr:street": "Armii Polskiej",
                "addr:housenumber": "15a",
                "addr:teryt:simc": 954449,
                "addr:teryt:sym_ul": 437,
                "phone": "+48 655432660",
                "email": "sekretariat@zszgoras.pol.pl",
                "website": "http:\/\/www.zszgoras.pol.pl",
                "ref:regon": "932831886",
                "operator": "Powiat G\u00f3rowski",
                "operator:type": "government",
                "amenity": "school",
                "note": "Parent RSPO: 58991"
            }
        },
        {
            "id": 40701,
            "type": "Feature",
            "geometry": {
                "type": "Point",
                "coordinates": [
                    16.53633,
                    51.66405
                ]
            },
            "properties": {
                "ref:rspo": 40701,
                "official_name": "Centrum Kszta\u0142cenia Praktycznego I Ustawicznego w G\u00f3rze",
                "name": "Centrum Kszta\u0142cenia Praktycznego I Ustawicznego w G\u00f3rze",
                "addr:postcode": "56-200",
                "addr:city": "G\u00f3ra",
                "addr:street": "Bartosza G\u0142owackiego",
                "addr:housenumber": "1",
                "addr:teryt:simc": 954449,
                "addr:teryt:sym_ul": 5627,
                "phone": "+48 655432468",
                "email": "ckpiu@ckpiu.edu.pl",
                "website": "http:\/\/www.ckpiu.eu",
                "ref:regon": "932831857",
                "ref:vatin": "PL6932024189",
                "operator": "Powiat G\u00f3rowski",
                "operator:type": "government",
                "landuse": "education",
                "fixme": "amenity=school, amenity=college albo landuse=education w zale\u017cno\u015bci od tego, jakie plac\u00f3wki wchodz\u0105 w sk\u0142ad zespo\u0142u. Sprawd\u017a, kiedy stosowa\u0107 amenity=* a kiedy landuse=education.",
                "note": "Children RSPO: 72868;72870;72871;73490;275662"
            }
        },
        {
            "id": 72868,
            "type": "Feature",
            "geometry": {
                "type": "Point",
                "coordinates": [
                    16.53633,
                    51.66402
                ]
            },
            "properties": {
                "ref:rspo": 72868,
                "official_name": "Centrum Kszta\u0142cenia Ustawicznego w G\u00f3rze",
                "name": "Centrum Kszta\u0142cenia Ustawicznego w G\u00f3rze",
                "addr:postcode": "56-200",
                "addr:city": "G\u00f3ra",
                "addr:street": "Bartosza G\u0142owackiego",
                "addr:housenumber": "1",
                "addr:teryt:simc": 954449,
                "addr:teryt:sym_ul": 5627,
                "phone": "+48 655432468",
                "email": "ckpiu@ckpiu.edu.pl",
                "website": "http:\/\/www.ckpiu.eu",
                "ref:regon": "021905791",
                "operator": "Powiat G\u00f3rowski",
                "operator:type": "government",
                "fixme": "w zale\u017cno\u015bci od przedmiotu dzia\u0142alno\u015bci (np. amenity=training + training=*, amenity=dancing_school, amenity=language_school, amenity=music_school)",
                "note": "Parent RSPO: 40701"
            }
        },
        {
            "id": 72870,
            "type": "Feature",
            "geometry": {
                "type": "Point",
                "coordinates": [
                    16.53633,
                    51.663990000000005
                ]
            },
            "properties": {
                "ref:rspo": 72870,
                "official_name": "Centrum Kszta\u0142cenia Praktycznego I Ustawicznego w G\u00f3rze-Centrum Kszta\u0142cenia Zawodowego w G\u00f3rze",
                "name": "Centrum Kszta\u0142cenia Praktycznego I Ustawicznego w G\u00f3rze-Centrum Kszta\u0142cenia Zawodowego w G\u00f3rze",
                "addr:postcode": "56-200",
                "addr:city": "G\u00f3ra",
                "addr:street": "Bartosza G\u0142owackiego",
                "addr:housenumber": "1",
                "addr:teryt:simc": 954449,
                "addr:teryt:sym_ul": 5627,
                "phone": "+48 655432468",
                "email": "ckpiu@ckpiu.edu.pl",
                "website": "http:\/\/www.ckpiu.eu",
                "ref:regon": "021268746",
                "operator": "Powiat G\u00f3rowski",
                "operator:type": "government",
                "fixme": "w zale\u017cno\u015bci od przedmiotu dzia\u0142alno\u015bci (np. amenity=training + training=*, amenity=dancing_school, amenity=language_school, amenity=music_school) albo amenity=school, amenity=college, albo landuse=education w zale\u017cno\u015bci od tego, jakie plac\u00f3wki wchodz\u0105 w sk\u0142ad zespo\u0142u. Sprawd\u017a, kiedy stosowa\u0107 amenity=* a kiedy landuse=education.",
                "note": "Parent RSPO: 40701"
            }
        },
        {
            "id": 72871,
            "type": "Feature",
            "geometry": {
                "type": "Point",
                "coordinates": [
                    16.53633,
                    51.66396
                ]
            },
            "properties": {
                "isced:level": "3",
                "ref:rspo": 72871,
                "official_name": "Centrum Kszta\u0142cenia Praktycznego I Ustawicznego w G\u00f3rze-Liceum Og\u00f3lnokszta\u0142c\u0105ce dla Doros\u0142ych w G\u00f3rze",
                "name": "Centrum Kszta\u0142cenia Praktycznego I Ustawicznego w G\u00f3rze-Liceum Og\u00f3lnokszta\u0142c\u0105ce dla Doros\u0142ych w G\u00f3rze",
                "addr:postcode": "56-200",
                "addr:city": "G\u00f3ra",
                "addr:street": "Bartosza G\u0142owackiego",
                "addr:housenumber": "1",
                "addr:teryt:simc": 954449,
                "addr:teryt:sym_ul": 5627,
                "phone": "+48 655432468",
                "email": "ckpiu@ckpiu.edu.pl",
                "website": "http:\/\/www.ckpiu.eu",
                "ref:regon": "933031403",
                "operator": "Powiat G\u00f3rowski",
                "operator:type": "government",
                "amenity": "school",
                "note": "Parent RSPO: 40701"
            }
        },
        {
            "id": 73490,
            "type": "Feature",
            "geometry": {
                "type": "Point",
                "coordinates": [
                    16.53633,
                    51.66393
                ]
            },
            "properties": {
                "isced:level": "4",
                "ref:rspo": 73490,
                "official_name": "Centrum Kszta\u0142cenia Praktycznego I Ustawicznego w G\u00f3rze-Szko\u0142a Policealna w G\u00f3rze",
                "name": "Centrum Kszta\u0142cenia Praktycznego I Ustawicznego w G\u00f3rze-Szko\u0142a Policealna w G\u00f3rze",
                "addr:postcode": "56-200",
                "addr:city": "G\u00f3ra",
                "addr:street": "Bartosza G\u0142owackiego",
                "addr:housenumber": "1",
                "addr:teryt:simc": 954449,
                "addr:teryt:sym_ul": 5627,
                "phone": "+48 655432468",
                "email": "ckpiu@ckpiu.edu.pl",
                "website": "http:\/\/www.ckpiu.eu",
                "ref:regon": "020595934",
                "operator": "Powiat G\u00f3rowski",
                "operator:type": "government",
                "amenity": "college",
                "note": "Parent RSPO: 40701"
            }
        },
        {
            "id": 275662,
            "type": "Feature",
            "geometry": {
                "type": "Point",
                "coordinates": [
                    16.53633,
                    51.663900000000005
                ]
            },
            "properties": {
                "isced:level": "3",
                "ref:rspo": 275662,
                "official_name": "Bran\u017cowa Szko\u0142a II Stopnia w Centrum Kszta\u0142cenia Praktycznego I Ustawicznego w G\u00f3rze",
                "name": "Bran\u017cowa Szko\u0142a II Stopnia w Centrum Kszta\u0142cenia Praktycznego I Ustawicznego w G\u00f3rze",
                "addr:postcode": "56-200",
                "addr:city": "G\u00f3ra",
                "addr:street": "Bartosza G\u0142owackiego",
                "addr:housenumber": "1",
                "addr:teryt:simc": 954449,
                "addr:teryt:sym_ul": 5627,
                "phone": "+48 655432468",
                "email": "ckpiu@ckpiu.edu.pl",
                "website": "http:\/\/ckpiu.edu.pl",
                "ref:regon": "386930843",
                "operator": "Powiat G\u00f3rowski",
                "operator:type": "government",
                "amenity": "school",
                "note": "Parent RSPO: 40701"
            }
        },
        {
            "id": 55941,
            "type": "Feature",
            "geometry": {
                "type": "Point",
                "coordinates": [
                    16.53897,
                    51.66665
                ]
            },
            "properties": {
                "ref:rspo": 55941,
                "official_name": "Przedszkole Publiczne Nr 1 im. Marii Konopnickiej w G\u00f3rze",
                "name": "Przedszkole Publiczne Nr 1",
                "addr:postcode": "56-200",
                "addr:city": "G\u00f3ra",
                "addr:street": "Stefana \u017beromskiego",
                "addr:housenumber": "15",
                "addr:teryt:simc": 954449,
                "addr:teryt:sym_ul": 26469,
                "phone": "+48 655432334",
                "email": "sek.p1@gora.com.pl",
                "website": "http:\/\/przedszkole1.pcdn.edu.pl",
                "ref:regon": "410061688",
                "ref:vatin": "PL6991026327",
                "operator": "Gmina G\u00f3ra",
                "operator:type": "government",
                "amenity": "kindergarten"
            }
        },
        {
            "id": 34245,
            "type": "Feature",
            "geometry": {
                "type": "Point",
                "coordinates": [
                    16.5395,
                    51.66846
                ]
            },
            "properties": {
                "ref:rspo": 34245,
                "official_name": "Powiatowe Centrum Doskonalenia Nauczycieli I Poradnictwa Psychologiczno-Pedagogicznego w G\u00f3rze",
                "name": "Powiatowe Centrum Doskonalenia Nauczycieli I Poradnictwa Psychologiczno-Pedagogicznego w G\u00f3rze",
                "addr:postcode": "56-200",
                "addr:city": "G\u00f3ra",
                "addr:street": "Plac Boles\u0142awa Chrobrego",
                "addr:housenumber": "27",
                "addr:teryt:simc": 954449,
                "addr:teryt:sym_ul": 1741,
                "phone": "+48 655441277",
                "email": "pcdn@pcdn.edu.pl",
                "website": "http:\/\/www.pcdn.edu.pl",
                "ref:regon": "932828370",
                "ref:vatin": "PL6931940464",
                "operator": "Powiat G\u00f3rowski",
                "operator:type": "government",
                "landuse": "education",
                "fixme": "amenity=school, amenity=college albo landuse=education w zale\u017cno\u015bci od tego, jakie plac\u00f3wki wchodz\u0105 w sk\u0142ad zespo\u0142u. Sprawd\u017a, kiedy stosowa\u0107 amenity=* a kiedy landuse=education.",
                "note": "Children RSPO: 93000;104076;104077"
            }
        },
        {
            "id": 93000,
            "type": "Feature",
            "geometry": {
                "type": "Point",
                "coordinates": [
                    16.5395,
                    51.66843
                ]
            },
            "properties": {
                "ref:rspo": 93000,
                "official_name": "Powiatowy O\u015brodek Doskonalenia Nauczycieli w G\u00f3rze",
                "name": "Powiatowy O\u015brodek Doskonalenia Nauczycieli w G\u00f3rze",
                "addr:postcode": "56-200",
                "addr:city": "G\u00f3ra",
                "addr:street": "Plac Boles\u0142awa Chrobrego",
                "addr:housenumber": "27",
                "addr:teryt:simc": 954449,
                "addr:teryt:sym_ul": 1741,
                "phone": "+48 655441277",
                "email": "pcdn@pcdn.edu.pl",
                "website": "http:\/\/www.pcdn.edu.pl",
                "ref:regon": "022025282",
                "operator": "Powiat G\u00f3rowski",
                "operator:type": "government",
                "amenity": "training",
                "note": "Parent RSPO: 34245"
            }
        },
        {
            "id": 104076,
            "type": "Feature",
            "geometry": {
                "type": "Point",
                "coordinates": [
                    16.5395,
                    51.668400000000005
                ]
            },
            "properties": {
                "ref:rspo": 104076,
                "official_name": "Filia Dolno\u015bL\u0105skiej Biblioteki Pedagogicznej w G\u00f3rze",
                "name": "Filia Dolno\u015bL\u0105skiej Biblioteki Pedagogicznej w G\u00f3rze",
                "addr:postcode": "56-200",
                "addr:city": "G\u00f3ra",
                "addr:street": "Plac Boles\u0142awa Chrobrego",
                "addr:housenumber": "27",
                "addr:teryt:simc": 954449,
                "addr:teryt:sym_ul": 1741,
                "phone": "+48 655432336",
                "email": "gora@dbp.wroc.pl",
                "website": "http:\/\/www.bp.pcdn.edu.pl",
                "ref:regon": "022030320",
                "operator": "Powiat G\u00f3rowski",
                "operator:type": "government",
                "amenity": "library",
                "note": "Parent RSPO: 34245"
            }
        },
        {
            "id": 104077,
            "type": "Feature",
            "geometry": {
                "type": "Point",
                "coordinates": [
                    16.5395,
                    51.66837
                ]
            },
            "properties": {
                "ref:rspo": 104077,
                "official_name": "Poradnia Psychologiczno-Pedagogiczna w G\u00f3rze",
                "name": "Poradnia Psychologiczno-Pedagogiczna w G\u00f3rze",
                "addr:postcode": "56-200",
                "addr:city": "G\u00f3ra",
                "addr:street": "Plac Boles\u0142awa Chrobrego",
                "addr:housenumber": "27",
                "addr:teryt:simc": 954449,
                "addr:teryt:sym_ul": 1741,
                "phone": "+48 655433364",
                "email": "pppgora@pcdn.edu.pl",
                "website": "http:\/\/www.pcdn.edu.pl",
                "ref:regon": "022032655",
                "operator": "Powiat G\u00f3rowski",
                "operator:type": "government",
                "healthcare": "counselling",
                "counselling_type": "education",
                "fixme": "w zale\u017cno\u015bci od przedmiotu dzia\u0142alno\u015bci (np. healthcare=counselling + counselling_type=education albo healthcare=psychotherapist)",
                "note": "Parent RSPO: 34245"
            }
        },
        {
            "id": 55942,
            "type": "Feature",
            "geometry": {
                "type": "Point",
                "coordinates": [
                    16.53141,
                    51.67008
                ]
            },
            "properties": {
                "ref:rspo": 55942,
                "official_name": "Przedszkole Publiczne Nr 3 im. \"Jasia I Ma\u0142gosi\" w G\u00f3rze",
                "name": "Przedszkole Publiczne Nr 3",
                "addr:postcode": "56-200",
                "addr:city": "G\u00f3ra",
                "addr:street": "Piast\u00f3w",
                "addr:housenumber": "7",
                "addr:teryt:simc": 954449,
                "addr:teryt:sym_ul": 16057,
                "phone": "+48 655432408",
                "email": "sekretariat.p3@gora.com.pl",
                "website": "https:\/\/przedszkole3.pcdngora.edu.pl",
                "ref:regon": "410061553",
                "ref:vatin": "PL6991166577",
                "operator": "Gmina G\u00f3ra",
                "operator:type": "government",
                "amenity": "kindergarten"
            }
        },
        {
            "id": 120366,
            "type": "Feature",
            "geometry": {
                "type": "Point",
                "coordinates": [
                    16.5246567,
                    51.6702109
                ]
            },
            "properties": {
                "ref:rspo": 120366,
                "official_name": "Przedszkole Niepubliczne \"Akademia Malucha\"",
                "name": "Przedszkole Niepubliczne \"Akademia Malucha\"",
                "addr:postcode": "56-200",
                "addr:city": "G\u00f3ra",
                "addr:street": "Osiedle Kazimierza Wielkiego",
                "addr:housenumber": "7",
                "addr:teryt:simc": 954449,
                "addr:teryt:sym_ul": 8263,
                "phone": "+48 603650789",
                "email": "akademiamalucha-gora@wp.pl",
                "website": "http:\/\/akademiamalucha-gora.przedszkolowo.pl",
                "ref:regon": "022261373",
                "operator": "Iwona Karwecka",
                "operator:type": "private",
                "amenity": "kindergarten"
            }
        },
        {
            "id": 56378,
            "type": "Feature",
            "geometry": {
                "type": "Point",
                "coordinates": [
                    16.54268,
                    51.67155
                ]
            },
            "properties": {
                "isced:level": "1;2",
                "ref:rspo": 56378,
                "official_name": "Szko\u0142a Podstawowa Nr 3 im. W\u0142adys\u0142awa Broniewskiego w G\u00f3rze",
                "name": "Szko\u0142a Podstawowa Nr 3",
                "addr:postcode": "56-200",
                "addr:city": "G\u00f3ra",
                "addr:street": "Pozna\u0144ska",
                "addr:housenumber": "2",
                "addr:teryt:simc": 954449,
                "addr:teryt:sym_ul": 17394,
                "phone": "+48 655432417",
                "email": "sp3@sp3gora.edu.pl",
                "website": "http:\/\/www.sp3gora.edupage.org",
                "ref:regon": "000739739",
                "ref:vatin": "PL6991027769",
                "operator": "Gmina G\u00f3ra",
                "operator:type": "government",
                "amenity": "school"
            }
        },
        {
            "id": 118736,
            "type": "Feature",
            "geometry": {
                "type": "Point",
                "coordinates": [
                    16.52272,
                    51.70973
                ]
            },
            "properties": {
                "ref:rspo": 118736,
                "official_name": "Zesp\u00f3\u0142 Szkolno - Przedszkolny Z Oddzia\u0142ami Integracyjnymi w Glince",
                "name": "Zesp\u00f3\u0142 Szkolno - Przedszkolny Z Oddzia\u0142ami Integracyjnymi w Glince",
                "addr:postcode": "56-200",
                "addr:place": "Glinka",
                "addr:housenumber": "6",
                "addr:teryt:simc": 370151,
                "phone": "+48 655432289",
                "email": "zspipglinka@poczta.onet.pl",
                "website": "http:\/\/www.zspipglinka.wixsite.com\/glinka",
                "ref:regon": "022207296",
                "operator": "Gmina G\u00f3ra",
                "operator:type": "government",
                "landuse": "education",
                "fixme": "amenity=school, amenity=college albo landuse=education w zale\u017cno\u015bci od tego, jakie plac\u00f3wki wchodz\u0105 w sk\u0142ad zespo\u0142u. Sprawd\u017a, kiedy stosowa\u0107 amenity=* a kiedy landuse=education.",
                "note": "Children RSPO: 55375;55401"
            }
        },
        {
            "id": 55375,
            "type": "Feature",
            "geometry": {
                "type": "Point",
                "coordinates": [
                    16.52272,
                    51.7097
                ]
            },
            "properties": {
                "isced:level": "1;2",
                "ref:rspo": 55375,
                "official_name": "Szko\u0142a Podstawowa w Glince",
                "name": "Szko\u0142a Podstawowa w Glince",
                "addr:postcode": "56-200",
                "addr:place": "Glinka",
                "addr:housenumber": "6",
                "addr:teryt:simc": 370151,
                "phone": "+48 655432289",
                "email": "zspipglinka@poczta.onet.pl",
                "website": "https:\/\/zspipglinka.wixsite.com\/glinka",
                "ref:regon": "000739745",
                "ref:vatin": "PL5010073925",
                "operator": "Gmina G\u00f3ra",
                "operator:type": "government",
                "amenity": "school",
                "note": "Parent RSPO: 118736"
            }
        },
        {
            "id": 55401,
            "type": "Feature",
            "geometry": {
                "type": "Point",
                "coordinates": [
                    16.52272,
                    51.70967
                ]
            },
            "properties": {
                "ref:rspo": 55401,
                "official_name": "Przedszkole Publiczne w Glince",
                "name": "Przedszkole Publiczne w Glince",
                "addr:postcode": "56-200",
                "addr:place": "Glinka",
                "addr:housenumber": "6",
                "addr:teryt:simc": 370151,
                "phone": "+48 655432289",
                "email": "zspipglinka@poczta.onet.pl",
                "website": "http:\/\/www.zspipglinka.pcdn.edu.pl",
                "ref:regon": "932681240",
                "ref:vatin": "PL5010073919",
                "operator": "Gmina G\u00f3ra",
                "operator:type": "government",
                "amenity": "kindergarten",
                "note": "Parent RSPO: 118736"
            }
        },
        {
            "id": 34641,
            "type": "Feature",
            "geometry": {
                "type": "Point",
                "coordinates": [
                    16.61447,
                    51.71862
                ]
            },
            "properties": {
                "isced:level": "3",
                "ref:rspo": 34641,
                "official_name": "Liceum Og\u00f3lnokszta\u0142c\u0105ce im. Adama Mickiewicza w G\u00f3rze",
                "name": "Liceum Og\u00f3lnokszta\u0142c\u0105ce",
                "addr:postcode": "56-200",
                "addr:city": "G\u00f3ra",
                "addr:street": "Szkolna",
                "addr:housenumber": "1",
                "addr:teryt:simc": 954449,
                "addr:teryt:sym_ul": 21970,
                "phone": "+48 655432341",
                "email": "magdalena.mielczarek@logora.edu.pl",
                "website": "http:\/\/www.logora.pl",
                "ref:regon": "410190440",
                "operator": "Powiat G\u00f3rowski",
                "operator:type": "government",
                "amenity": "school"
            }
        },
        {
            "id": 55988,
            "type": "Feature",
            "geometry": {
                "type": "Point",
                "coordinates": [
                    16.61475,
                    51.7187
                ]
            },
            "properties": {
                "ref:rspo": 55988,
                "official_name": "Zesp\u00f3\u0142 Szko\u0142a Podstawowa I Przedszkole im. \u015aw. Huberta w Czerninie",
                "name": "Zesp\u00f3\u0142 Szko\u0142a Podstawowa I Przedszkole",
                "addr:postcode": "56-200",
                "addr:city": "Czernina",
                "addr:street": "Szkolna",
                "addr:housenumber": "2",
                "addr:teryt:simc": 370122,
                "addr:teryt:sym_ul": 21970,
                "phone": "+48 655436766",
                "email": "sekretariat@zsczernina.edu.pl",
                "website": "http:\/\/www.spczernina.edu.pl\/",
                "ref:regon": "932814913",
                "ref:vatin": "PL6931993288",
                "operator": "Gmina G\u00f3ra",
                "operator:type": "government",
                "landuse": "education",
                "fixme": "amenity=school, amenity=college albo landuse=education w zale\u017cno\u015bci od tego, jakie plac\u00f3wki wchodz\u0105 w sk\u0142ad zespo\u0142u. Sprawd\u017a, kiedy stosowa\u0107 amenity=* a kiedy landuse=education.",
                "note": "Children RSPO: 111153;111159"
            }
        },
        {
            "id": 111153,
            "type": "Feature",
            "geometry": {
                "type": "Point",
                "coordinates": [
                    16.61475,
                    51.718669999999996
                ]
            },
            "properties": {
                "isced:level": "1;2",
                "ref:rspo": 111153,
                "official_name": "Szko\u0142a Podstawowa w Czerninie",
                "name": "Szko\u0142a Podstawowa w Czerninie",
                "addr:postcode": "56-200",
                "addr:city": "Czernina",
                "addr:street": "Szkolna",
                "addr:housenumber": "2",
                "addr:teryt:simc": 370122,
                "addr:teryt:sym_ul": 21970,
                "phone": "+48 655436766",
                "email": "sekretariat@zsczernina.edu.pl",
                "website": "http:\/\/www.zsczernina.edu.pl",
                "ref:regon": "000631380",
                "ref:vatin": "PL6991027835",
                "operator": "Gmina G\u00f3ra",
                "operator:type": "government",
                "amenity": "school",
                "note": "Parent RSPO: 55988"
            }
        },
        {
            "id": 111159,
            "type": "Feature",
            "geometry": {
                "type": "Point",
                "coordinates": [
                    16.61475,
                    51.71864
                ]
            },
            "properties": {
                "ref:rspo": 111159,
                "official_name": "Przedszkole Publiczne w Czerninie",
                "name": "Przedszkole Publiczne w Czerninie",
                "addr:postcode": "56-200",
                "addr:city": "Czernina",
                "addr:street": "Szkolna",
                "addr:housenumber": "2",
                "addr:teryt:simc": 370122,
                "addr:teryt:sym_ul": 21970,
                "phone": "+48 655436766",
                "email": "sekretariat@zsczernina.edu.pl",
                "website": "http:\/\/www.zsczernina.edu.pl",
                "ref:regon": "410061607",
                "ref:vatin": "PL6991026155",
                "operator": "Gmina G\u00f3ra",
                "operator:type": "government",
                "amenity": "kindergarten",
                "note": "Parent RSPO: 55988"
            }
        },
        {
            "id": 56424,
            "type": "Feature",
            "geometry": {
                "type": "Point",
                "coordinates": [
                    16.51527,
                    51.74338
                ]
            },
            "properties": {
                "ref:rspo": 56424,
                "official_name": "Zesp\u00f3\u0142 Szko\u0142a Podstawowa I Przedszkole im. W\u0142adys\u0142awa Reymonta w Witoszycach",
                "name": "Zesp\u00f3\u0142 Szko\u0142a Podstawowa I Przedszkole",
                "addr:postcode": "56-200",
                "addr:place": "Witoszyce",
                "addr:housenumber": "10",
                "addr:teryt:simc": 370501,
                "phone": "+48 655431323",
                "email": "szkolawitoszyce@interia.pl",
                "website": "http:\/\/www.zspipwitoszyce.edu.pl",
                "ref:regon": "932670532",
                "ref:vatin": "PL6931961414",
                "operator": "Gmina G\u00f3ra",
                "operator:type": "government",
                "landuse": "education",
                "fixme": "amenity=school, amenity=college albo landuse=education w zale\u017cno\u015bci od tego, jakie plac\u00f3wki wchodz\u0105 w sk\u0142ad zespo\u0142u. Sprawd\u017a, kiedy stosowa\u0107 amenity=* a kiedy landuse=education.",
                "note": "Children RSPO: 111109;111128"
            }
        },
        {
            "id": 111109,
            "type": "Feature",
            "geometry": {
                "type": "Point",
                "coordinates": [
                    16.51527,
                    51.74335
                ]
            },
            "properties": {
                "isced:level": "1;2",
                "ref:rspo": 111109,
                "official_name": "Szko\u0142a Podstawowa w Witoszycach",
                "name": "Szko\u0142a Podstawowa w Witoszycach",
                "addr:postcode": "56-200",
                "addr:place": "Witoszyce",
                "addr:housenumber": "10",
                "addr:teryt:simc": 370501,
                "phone": "+48 655431323",
                "email": "szkolawitoszyce@interia.pl",
                "website": "http:\/\/www.zspipwitoszyce.edu.pl",
                "ref:regon": "000739751",
                "ref:vatin": "PL6991687916",
                "operator": "Gmina G\u00f3ra",
                "operator:type": "government",
                "amenity": "school",
                "note": "Parent RSPO: 56424"
            }
        },
        {
            "id": 111128,
            "type": "Feature",
            "geometry": {
                "type": "Point",
                "coordinates": [
                    16.51527,
                    51.743320000000004
                ]
            },
            "properties": {
                "ref:rspo": 111128,
                "official_name": "Przedszkole w Witoszycach",
                "name": "Przedszkole w Witoszycach",
                "addr:postcode": "56-200",
                "addr:place": "Witoszyce",
                "addr:housenumber": "10",
                "addr:teryt:simc": 370501,
                "phone": "+48 655431323",
                "email": "szkolawitoszyce@interia.pl",
                "website": "http:\/\/www.zspipwitoszyce.edu.pl",
                "ref:regon": "932670549",
                "operator": "Gmina G\u00f3ra",
                "operator:type": "government",
                "amenity": "kindergarten",
                "note": "Parent RSPO: 56424"
            }
        }
    ]
}