{
    "type": "FeatureCollection",
    "features": [
        {
            "id": 23547,
            "type": "Feature",
            "geometry": {
                "type": "Point",
                "coordinates": [
                    16.54039,
                    51.52412
                ]
            },
            "properties": {
                "isced:level": "1;2",
                "ref:rspo": 23547,
                "official_name": "Szko\u0142a Podstawowa w Jemielnie",
                "name": "Szko\u0142a Podstawowa w Jemielnie",
                "addr:postcode": "56-209",
                "addr:place": "Jemielno",
                "addr:housenumber": "41A",
                "addr:city:simc": 370642,
                "phone": "+48 655447412",
                "email": "zsjemielno@wp.pl",
                "website": "https:\/\/spjemielno.pcdn.edu.pl\/",
                "ref:regon": "000600585",
                "ref:vatin": "PL6932021558",
                "operator": "Gmina Jemielno",
                "operator:type": "government",
                "amenity": "school"
            }
        },
        {
            "id": 113825,
            "type": "Feature",
            "geometry": {
                "type": "Point",
                "coordinates": [
                    16.54039,
                    51.52409
                ]
            },
            "properties": {
                "ref:rspo": 113825,
                "official_name": "Punkt Przedszkolny",
                "name": "Punkt Przedszkolny",
                "addr:postcode": "56-209",
                "addr:place": "Jemielno",
                "addr:housenumber": "41A",
                "addr:city:simc": 370642,
                "phone": "+48 655447412",
                "email": "zsjemielno@wp.pl",
                "website": "http:\/\/www.zsjemielno.pcdn.edu.pl",
                "ref:regon": "022119008",
                "operator": "Gmina Jemielno",
                "operator:type": "government",
                "amenity": "kindergarten"
            }
        },
        {
            "id": 113824,
            "type": "Feature",
            "geometry": {
                "type": "Point",
                "coordinates": [
                    16.42556,
                    51.59143
                ]
            },
            "properties": {
                "ref:rspo": 113824,
                "official_name": "Punkt Przedszkolny",
                "name": "Punkt Przedszkolny",
                "addr:postcode": "56-209",
                "addr:place": "Irz\u0105dze",
                "addr:housenumber": "17d",
                "addr:city:simc": 370636,
                "phone": "+48 655446287",
                "email": "szkola@zsirzadze.pcdn.edu.pl",
                "website": "http:\/\/www.zsirzadze.szkolnastrona.pl\/",
                "ref:regon": "022118954",
                "operator": "Gmina Jemielno",
                "operator:type": "government",
                "amenity": "kindergarten"
            }
        },
        {
            "id": 23548,
            "type": "Feature",
            "geometry": {
                "type": "Point",
                "coordinates": [
                    16.42941,
                    51.59317
                ]
            },
            "properties": {
                "isced:level": "1;2",
                "ref:rspo": 23548,
                "official_name": "Szko\u0142a Podstawowa w Irz\u0105dzach",
                "name": "Szko\u0142a Podstawowa w Irz\u0105dzach",
                "addr:postcode": "56-209",
                "addr:place": "Irz\u0105dze",
                "addr:housenumber": "27",
                "addr:city:simc": 370636,
                "phone": "+48 655446287",
                "email": "szkola@zsirzadze.pcdn.edu.pl",
                "website": "http:\/\/www.zsirzadze.szkolnastrona.pl",
                "ref:regon": "001118212",
                "ref:vatin": "PL6932018728",
                "operator": "Gmina Jemielno",
                "operator:type": "government",
                "amenity": "school"
            }
        }
    ]
}