{
    "type": "FeatureCollection",
    "features": [
        {
            "id": 30190,
            "type": "Feature",
            "geometry": {
                "type": "Point",
                "coordinates": [
                    16.69239,
                    51.52681
                ]
            },
            "properties": {
                "isced:level": "1;2",
                "ref:rspo": 30190,
                "official_name": "Publiczna Szko\u0142a Podstawowa im.marii Kownackiej w P\u0142oskach",
                "name": "Publiczna Szko\u0142a Podstawowa im.marii Kownackiej w P\u0142oskach",
                "addr:postcode": "56-210",
                "addr:place": "P\u0142oski",
                "addr:housenumber": "4",
                "addr:city:simc": 377331,
                "phone": "+48 655439172",
                "email": "spploski@gazeta.pl",
                "website": "http:\/\/pspploski.szkolnastrona.pl",
                "ref:regon": "001202332",
                "ref:vatin": "PL6991706559",
                "operator": "Gmina W\u0105sosz",
                "operator:type": "government",
                "amenity": "school"
            }
        },
        {
            "id": 113990,
            "type": "Feature",
            "geometry": {
                "type": "Point",
                "coordinates": [
                    16.69239,
                    51.526779999999995
                ]
            },
            "properties": {
                "ref:rspo": 113990,
                "official_name": "Punkt Przedszkolny w Publicznej Szkole Podstawowej w P\u0142oskach",
                "name": "Punkt Przedszkolny w Publicznej Szkole Podstawowej w P\u0142oskach",
                "addr:postcode": "56-210",
                "addr:place": "P\u0142oski",
                "addr:housenumber": "4",
                "addr:city:simc": 377331,
                "phone": "+48 655439172",
                "email": "spploski@gazeta.pl",
                "website": "http:\/\/spploski.pcdn.edu.pl",
                "ref:regon": "022121778",
                "operator": "Gmina W\u0105sosz",
                "operator:type": "government",
                "amenity": "kindergarten"
            }
        },
        {
            "id": 27236,
            "type": "Feature",
            "geometry": {
                "type": "Point",
                "coordinates": [
                    16.69217,
                    51.56068
                ]
            },
            "properties": {
                "ref:rspo": 27236,
                "official_name": "Przedszkole Samorz\u0105dowe im.marii Konopnickiej w W\u0105soszu",
                "name": "Przedszkole Samorz\u0105dowe im.marii Konopnickiej w W\u0105soszu",
                "addr:postcode": "56-210",
                "addr:city": "W\u0105sosz",
                "addr:street": "Plac Ko\u015bcielny",
                "addr:housenumber": "2",
                "addr:city:simc": 954662,
                "addr:street:sym_ul": 31111,
                "phone": "+48 655437962",
                "email": "przedszkole@wasosz.gmina.pl",
                "website": "http:\/\/www.spwasosz.biuletyninformacji.pl",
                "ref:regon": "000271035",
                "ref:vatin": "PL6991706683",
                "operator": "Gmina W\u0105sosz",
                "operator:type": "government",
                "amenity": "kindergarten"
            }
        },
        {
            "id": 60209,
            "type": "Feature",
            "geometry": {
                "type": "Point",
                "coordinates": [
                    16.68902,
                    51.56082
                ]
            },
            "properties": {
                "ref:rspo": 60209,
                "official_name": "Specjalny O\u015brodek Szkolno-Wychowawczy im. Janusza Korczaka w W\u0105soszu",
                "name": "Specjalny O\u015brodek Szkolno-Wychowawczy",
                "addr:postcode": "56-210",
                "addr:city": "W\u0105sosz",
                "addr:street": "Janusza Korczaka",
                "addr:housenumber": "6",
                "addr:city:simc": 954662,
                "addr:street:sym_ul": 9329,
                "phone": "+48 655437925",
                "email": "soswwasosz@op.pl",
                "website": "http:\/\/soswwasosz.pcdn.edu.pl",
                "ref:regon": "000946912",
                "ref:vatin": "PL6991706849",
                "operator": "Powiat G\u00f3rowski",
                "operator:type": "government",
                "amenity": "school",
                "note": "Children RSPO: 103534;104111;104123;275579"
            }
        },
        {
            "id": 103534,
            "type": "Feature",
            "geometry": {
                "type": "Point",
                "coordinates": [
                    16.68886,
                    51.56098
                ]
            },
            "properties": {
                "isced:level": "1;2",
                "ref:rspo": 103534,
                "official_name": "Specjalny O\u015brodek Szkolno-Wychowawczy im. Janusza Korczaka w W\u0105soszu Szko\u0142a Podstawowa Specjalna w W\u0105soszu",
                "name": "Specjalny O\u015brodek Szkolno-Wychowawczy",
                "addr:postcode": "56-210",
                "addr:city": "W\u0105sosz",
                "addr:street": "Janusza Korczaka",
                "addr:housenumber": "6",
                "addr:city:simc": 954662,
                "addr:street:sym_ul": 9325,
                "phone": "+48 655437925",
                "email": "soswwasosz@op.pl",
                "website": "http:\/\/www.soswwasosz.pcdn.edu.pl",
                "ref:regon": "001038269",
                "operator": "Powiat G\u00f3rowski",
                "operator:type": "government",
                "amenity": "school",
                "note": "Parent RSPO: 60209"
            }
        },
        {
            "id": 104111,
            "type": "Feature",
            "geometry": {
                "type": "Point",
                "coordinates": [
                    16.68886,
                    51.56095
                ]
            },
            "properties": {
                "isced:level": "3",
                "ref:rspo": 104111,
                "official_name": "Specjalny O\u015brodek Szkolno-Wychowawczy im. Janusza Korczaka w W\u0105soszu Bran\u017cowa Szko\u0142a I Stopnia Specjalna w W\u0105soszu",
                "name": "Specjalny O\u015brodek Szkolno-Wychowawczy",
                "addr:postcode": "56-210",
                "addr:city": "W\u0105sosz",
                "addr:street": "Janusza Korczaka",
                "addr:housenumber": "6",
                "addr:city:simc": 954662,
                "addr:street:sym_ul": 9325,
                "phone": "+48 655437925",
                "email": "soswwasosz@op.pl",
                "website": "http:\/\/www.soswwasosz.pcdn.edu.pl",
                "ref:regon": "932814050",
                "operator": "Powiat G\u00f3rowski",
                "operator:type": "government",
                "amenity": "school",
                "note": "Parent RSPO: 60209"
            }
        },
        {
            "id": 104123,
            "type": "Feature",
            "geometry": {
                "type": "Point",
                "coordinates": [
                    16.68886,
                    51.56092
                ]
            },
            "properties": {
                "ref:rspo": 104123,
                "official_name": "Specjalny O\u015brodek Szkolno-Wychowawczy im. Janusza Korczaka w W\u0105soszu Szko\u0142a Specjalna Przysposabiaj\u0105ca Do Pracy w W\u0105soszu",
                "name": "Specjalny O\u015brodek Szkolno-Wychowawczy",
                "addr:postcode": "56-210",
                "addr:city": "W\u0105sosz",
                "addr:street": "Janusza Korczaka",
                "addr:housenumber": "6",
                "addr:city:simc": 954662,
                "addr:street:sym_ul": 9325,
                "phone": "+48 655437925",
                "email": "soswwasosz@op.pl",
                "website": "http:\/\/www.soswwasosz.pcdn.edu.pl",
                "ref:regon": "020811579",
                "operator": "Powiat G\u00f3rowski",
                "operator:type": "government",
                "amenity": "school",
                "note": "Parent RSPO: 60209"
            }
        },
        {
            "id": 275579,
            "type": "Feature",
            "geometry": {
                "type": "Point",
                "coordinates": [
                    16.68886,
                    51.56089
                ]
            },
            "properties": {
                "ref:rspo": 275579,
                "official_name": "Przedszkole Specjalne w W\u0105soszu w Specjalnym O\u015brodku Szkolno-Wychowawczym im. Janusza Korczaka w W\u0105soszu",
                "name": "Przedszkole Specjalne w W\u0105soszu w Specjalnym O\u015brodku Szkolno-Wychowawczym",
                "addr:postcode": "56-210",
                "addr:city": "W\u0105sosz",
                "addr:street": "Janusza Korczaka",
                "addr:housenumber": "6",
                "addr:city:simc": 954662,
                "addr:street:sym_ul": 9325,
                "phone": "+48 655437925",
                "email": "soswwasosz@op.pl",
                "website": "https:\/\/soswwasosz.pcdn.edu.pl",
                "ref:regon": "386930748",
                "operator": "Powiat G\u00f3rowski",
                "operator:type": "government",
                "amenity": "kindergarten",
                "note": "Parent RSPO: 60209"
            }
        },
        {
            "id": 271724,
            "type": "Feature",
            "geometry": {
                "type": "Point",
                "coordinates": [
                    16.69819,
                    51.56576
                ]
            },
            "properties": {
                "isced:level": "3",
                "ref:rspo": 271724,
                "official_name": "Publiczne Liceum Og\u00f3lnokszta\u0142c\u0105ce",
                "name": "Publiczne Liceum Og\u00f3lnokszta\u0142c\u0105ce",
                "addr:postcode": "56-210",
                "addr:city": "W\u0105sosz",
                "addr:street": "Zacisze",
                "addr:housenumber": "10",
                "addr:city:simc": 954662,
                "addr:street:sym_ul": 25314,
                "phone": "+48 655437836",
                "email": "pspwasosz@interia.pl",
                "ref:regon": "383583039",
                "operator": "Gmina W\u0105sosz",
                "operator:type": "government",
                "amenity": "school",
                "note": "Parent RSPO: 272098"
            }
        },
        {
            "id": 272098,
            "type": "Feature",
            "geometry": {
                "type": "Point",
                "coordinates": [
                    16.69756,
                    51.56656
                ]
            },
            "properties": {
                "ref:rspo": 272098,
                "official_name": "Zesp\u00f3\u0142 Szk\u00f3\u0142 w W\u0105soszu",
                "name": "Zesp\u00f3\u0142 Szk\u00f3\u0142 w W\u0105soszu",
                "addr:postcode": "56-210",
                "addr:city": "W\u0105sosz",
                "addr:street": "Aleja Niepodleg\u0142o\u015bci",
                "addr:housenumber": "10",
                "addr:city:simc": 954662,
                "addr:street:sym_ul": 38299,
                "phone": "+48 655437836",
                "email": "pspwasosz@interia.pl",
                "website": "http:\/\/www.pspwasosz.eu",
                "ref:regon": "383928751",
                "operator": "Gmina W\u0105sosz",
                "operator:type": "government",
                "landuse": "education",
                "fixme": "amenity=school, amenity=college albo landuse=education w zale\u017cno\u015bci od tego, jakie plac\u00f3wki wchodz\u0105 w sk\u0142ad zespo\u0142u. Sprawd\u017a, kiedy stosowa\u0107 amenity=* a kiedy landuse=education.",
                "note": "Children RSPO: 29117;271724"
            }
        },
        {
            "id": 29117,
            "type": "Feature",
            "geometry": {
                "type": "Point",
                "coordinates": [
                    16.69756,
                    51.56653
                ]
            },
            "properties": {
                "isced:level": "1;2",
                "ref:rspo": 29117,
                "official_name": "Publiczna Szko\u0142a Podstawowa im. Boles\u0142awa Chrobrego w W\u0105soszu",
                "name": "Publiczna Szko\u0142a Podstawowa",
                "addr:postcode": "56-210",
                "addr:city": "W\u0105sosz",
                "addr:street": "Aleja Niepodleg\u0142o\u015bci",
                "addr:housenumber": "10",
                "addr:city:simc": 954662,
                "addr:street:sym_ul": 38299,
                "phone": "+48 655437836",
                "email": "pspwasosz@interia.pl",
                "website": "http:\/\/www.pspwasosz.eu",
                "ref:regon": "000271199",
                "ref:vatin": "PL6991702231",
                "operator": "Gmina W\u0105sosz",
                "operator:type": "government",
                "amenity": "school",
                "note": "Parent RSPO: 272098"
            }
        },
        {
            "id": 30189,
            "type": "Feature",
            "geometry": {
                "type": "Point",
                "coordinates": [
                    16.70351,
                    51.61815
                ]
            },
            "properties": {
                "isced:level": "1;2",
                "ref:rspo": 30189,
                "official_name": "Publiczna Szko\u0142a Podstawowa im.juliana Tuwima w Czarnoborsku",
                "name": "Publiczna Szko\u0142a Podstawowa im.juliana Tuwima w Czarnoborsku",
                "addr:postcode": "56-210",
                "addr:place": "Czarnoborsko",
                "addr:housenumber": "10",
                "addr:city:simc": 377118,
                "phone": "+48 655436077",
                "email": "pspczarnoborsko@o2.pl",
                "website": "http:\/\/www.pspczarnoborsko.pcdn.edu.pl",
                "ref:regon": "001202355",
                "ref:vatin": "PL6991702171",
                "operator": "Gmina W\u0105sosz",
                "operator:type": "government",
                "amenity": "school"
            }
        },
        {
            "id": 114000,
            "type": "Feature",
            "geometry": {
                "type": "Point",
                "coordinates": [
                    16.70351,
                    51.61812
                ]
            },
            "properties": {
                "ref:rspo": 114000,
                "official_name": "Punkt Przedszkolny w Publiczej Szkole Podstawowej im.juliana Tuwima w Czarnoborsku",
                "name": "Punkt Przedszkolny w Publiczej Szkole Podstawowej im.juliana Tuwima w Czarnoborsku",
                "addr:postcode": "56-210",
                "addr:place": "Czarnoborsko",
                "addr:housenumber": "10",
                "addr:city:simc": 377118,
                "phone": "+48 655436077",
                "email": "pspczarnoborsko@o2.pl",
                "website": "http:\/\/pspczarnoborsko.pcdn.edu.pl",
                "ref:regon": "022121790",
                "operator": "Gmina W\u0105sosz",
                "operator:type": "government",
                "amenity": "kindergarten"
            }
        }
    ]
}