{
    "type": "FeatureCollection",
    "features": [
        {
            "id": 48822,
            "type": "Feature",
            "geometry": {
                "type": "Point",
                "coordinates": [
                    20.36588,
                    49.55914
                ]
            },
            "properties": {
                "isced:level": "1;2",
                "ref:rspo": 48822,
                "official_name": "Szko\u0142a Podstawowa nr 2 im.jana Matejki w Kamienicy",
                "name": "Szko\u0142a Podstawowa nr 2 im.jana Matejki w Kamienicy",
                "addr:postcode": "34-608",
                "addr:place": "Kamienica",
                "addr:housenumber": "343",
                "addr:city:simc": 432768,
                "phone": "+48 183323091",
                "email": "sp.kamienica@op.pl",
                "ref:regon": "490671795",
                "ref:vatin": "PL7371386931",
                "operator": "Gmina Kamienica",
                "operator:type": "government",
                "amenity": "school"
            }
        },
        {
            "id": 40985,
            "type": "Feature",
            "geometry": {
                "type": "Point",
                "coordinates": [
                    20.34686,
                    49.57293
                ]
            },
            "properties": {
                "ref:rspo": 40985,
                "official_name": "Przedszkole Samorz\u0105dowe w Kamienicy",
                "name": "Przedszkole Samorz\u0105dowe w Kamienicy",
                "addr:postcode": "34-608",
                "addr:place": "Kamienica",
                "addr:housenumber": "490",
                "addr:city:simc": 432768,
                "phone": "+48 183323002",
                "email": "przedszkolekamienica@op.pl",
                "website": "https:\/\/przedszkolekamienica.edupage.org\/",
                "ref:regon": "000971353",
                "ref:vatin": "PL7371834453",
                "operator": "Gmina Kamienica",
                "operator:type": "government",
                "amenity": "kindergarten"
            }
        },
        {
            "id": 49008,
            "type": "Feature",
            "geometry": {
                "type": "Point",
                "coordinates": [
                    20.34686,
                    49.5729
                ]
            },
            "properties": {
                "isced:level": "1;2",
                "ref:rspo": 49008,
                "official_name": "Szko\u0142a Podstawowa nr 1 \nIm.bohater\u00f3w Warszawy w Kamienicy",
                "name": "Szko\u0142a Podstawowa nr 1 \nIm.bohater\u00f3w Warszawy w Kamienicy",
                "addr:postcode": "34-608",
                "addr:place": "Kamienica",
                "addr:housenumber": "490",
                "addr:city:simc": 432768,
                "phone": "+48 183340907",
                "email": "sp1kamienica77@wp.pl",
                "ref:regon": "490671631",
                "ref:vatin": "PL7371386701",
                "operator": "Gmina Kamienica",
                "operator:type": "government",
                "amenity": "school"
            }
        },
        {
            "id": 270663,
            "type": "Feature",
            "geometry": {
                "type": "Point",
                "coordinates": [
                    20.34567,
                    49.5757
                ]
            },
            "properties": {
                "ref:rspo": 270663,
                "official_name": "Przedszkole Niepubliczne \"Ma\u0142y Salomon\"",
                "name": "Przedszkole Niepubliczne \"Ma\u0142y Salomon\"",
                "addr:postcode": "34-608",
                "addr:place": "Kamienica",
                "addr:housenumber": "713",
                "addr:city:simc": 432768,
                "phone": "+48 504891902",
                "email": "wicher.maria@interia.pl",
                "ref:regon": "382851130",
                "ref:vatin": "PL7371994783",
                "operator": "Maria Wicher",
                "operator:type": "private",
                "amenity": "kindergarten"
            }
        },
        {
            "id": 40981,
            "type": "Feature",
            "geometry": {
                "type": "Point",
                "coordinates": [
                    20.29672,
                    49.5840699
                ]
            },
            "properties": {
                "isced:level": "1;2",
                "ref:rspo": 40981,
                "official_name": "Szko\u0142a Podstawowa im.marii Konopnickiej w Zasadnem",
                "name": "Szko\u0142a Podstawowa im.marii Konopnickiej w Zasadnem",
                "addr:postcode": "34-608",
                "addr:place": "Zasadne",
                "addr:housenumber": "91",
                "addr:city:simc": 433986,
                "phone": "+48 183346219",
                "email": "zasszkol@poczta.onet.pl",
                "website": "http:\/\/www.spzasadne.pl",
                "ref:regon": "490671878",
                "ref:vatin": "PL7371386718",
                "operator": "Gmina Kamienica",
                "operator:type": "government",
                "amenity": "school"
            }
        },
        {
            "id": 35066,
            "type": "Feature",
            "geometry": {
                "type": "Point",
                "coordinates": [
                    20.35059,
                    49.59014
                ]
            },
            "properties": {
                "ref:rspo": 35066,
                "official_name": "Zesp\u00f3\u0142 Szko\u0142y I Przedszkola w Zbludzy",
                "name": "Zesp\u00f3\u0142 Szko\u0142y I Przedszkola w Zbludzy",
                "addr:postcode": "34-608",
                "addr:place": "Zbludza",
                "addr:housenumber": "110",
                "addr:city:simc": 434170,
                "phone": "+48 183323018",
                "email": "sp_zbludza@op.pl",
                "ref:regon": "492889825",
                "operator": "Gmina Kamienica",
                "operator:type": "government",
                "landuse": "education",
                "fixme": "amenity=school, amenity=college albo landuse=education w zale\u017cno\u015bci od tego, jakie plac\u00f3wki wchodz\u0105 w sk\u0142ad zespo\u0142u. Sprawd\u017a, kiedy stosowa\u0107 amenity=* a kiedy landuse=education.",
                "note": "Children RSPO: 55953;55955"
            }
        },
        {
            "id": 55953,
            "type": "Feature",
            "geometry": {
                "type": "Point",
                "coordinates": [
                    20.35059,
                    49.590109999999996
                ]
            },
            "properties": {
                "isced:level": "1;2",
                "ref:rspo": 55953,
                "official_name": "Szko\u0142a Podstawowa im.jana Sobieskiego w Zbludzy",
                "name": "Szko\u0142a Podstawowa im.jana Sobieskiego w Zbludzy",
                "addr:postcode": "34-608",
                "addr:place": "Zbludza",
                "addr:housenumber": "110",
                "addr:city:simc": 434170,
                "phone": "+48 183323018",
                "email": "sp_zbludza@op.pl",
                "ref:regon": "490671909",
                "ref:vatin": "PL7371382778",
                "operator": "Gmina Kamienica",
                "operator:type": "government",
                "amenity": "school",
                "note": "Parent RSPO: 35066"
            }
        },
        {
            "id": 55955,
            "type": "Feature",
            "geometry": {
                "type": "Point",
                "coordinates": [
                    20.35059,
                    49.59008
                ]
            },
            "properties": {
                "ref:rspo": 55955,
                "official_name": "Przedszkole",
                "name": "Przedszkole",
                "addr:postcode": "34-608",
                "addr:place": "Zbludza",
                "addr:housenumber": "110",
                "addr:city:simc": 434170,
                "phone": "+48 183323018",
                "email": "sp_zbludza@op.pl",
                "ref:regon": "492889819",
                "operator": "Gmina Kamienica",
                "operator:type": "government",
                "amenity": "kindergarten",
                "note": "Parent RSPO: 35066"
            }
        },
        {
            "id": 55422,
            "type": "Feature",
            "geometry": {
                "type": "Point",
                "coordinates": [
                    20.29885,
                    49.60639
                ]
            },
            "properties": {
                "isced:level": "1;2",
                "ref:rspo": 55422,
                "official_name": "Szko\u0142a Podstawowa nr 1 im.1 Pu\u0142ku Strzelc\u00f3w Podhala\u0144skich Ak w Szczawie",
                "name": "Szko\u0142a Podstawowa nr 1 im.1 Pu\u0142ku Strzelc\u00f3w Podhala\u0144skich Ak w Szczawie",
                "addr:postcode": "34-607",
                "addr:place": "Szczawa",
                "addr:housenumber": "167",
                "addr:city:simc": 433265,
                "phone": "+48 183324006",
                "email": "zspig_szczawa@op.pl",
                "website": "http:\/\/www.sp1szczawa.edu.pl",
                "ref:regon": "490671810",
                "ref:vatin": "PL7372128177",
                "operator": "Gmina Kamienica",
                "operator:type": "government",
                "amenity": "school"
            }
        },
        {
            "id": 55437,
            "type": "Feature",
            "geometry": {
                "type": "Point",
                "coordinates": [
                    20.28726,
                    49.6185199
                ]
            },
            "properties": {
                "isced:level": "1;2",
                "ref:rspo": 55437,
                "official_name": "Szko\u0142a Podstawowa nr 2 im.miko\u0142aja Kopernika w Szczawie",
                "name": "Szko\u0142a Podstawowa nr 2 im.miko\u0142aja Kopernika w Szczawie",
                "addr:postcode": "34-607",
                "addr:place": "Szczawa",
                "addr:housenumber": "290",
                "addr:city:simc": 433265,
                "phone": "+48 183324008",
                "email": "sp2szczawa@op.pl",
                "ref:regon": "490671832",
                "ref:vatin": "PL7371386693",
                "operator": "Gmina Kamienica",
                "operator:type": "government",
                "amenity": "school"
            }
        },
        {
            "id": 40980,
            "type": "Feature",
            "geometry": {
                "type": "Point",
                "coordinates": [
                    20.34757,
                    49.62426
                ]
            },
            "properties": {
                "isced:level": "1;2",
                "ref:rspo": 40980,
                "official_name": "Szko\u0142a Podstawowa im.henryka Sienkiewicza w Zalesiu",
                "name": "Szko\u0142a Podstawowa im.henryka Sienkiewicza w Zalesiu",
                "addr:postcode": "34-608",
                "addr:place": "Zalesie",
                "addr:housenumber": "265",
                "addr:city:simc": 433762,
                "phone": "+48 183346725",
                "email": "spzalesie159@op.pl",
                "ref:regon": "490671849",
                "ref:vatin": "PL7372204808",
                "operator": "Gmina Kamienica",
                "operator:type": "government",
                "amenity": "school"
            }
        }
    ]
}