{"type":"FeatureCollection","features":[{"id":66195,"type":"Feature","geometry":{"type":"Point","coordinates":[20.32386,49.7232]},"properties":{"isced:level":"1;2","ref:rspo":66195,"official_name":"Szko\u0142a Podstawowa im. J\u00f3zefa Marka w Tymbarku","name":"Szko\u0142a Podstawowa","addr:country":"PL","addr:postcode":"34-650","addr:place":"Tymbark","addr:housenumber":"354","addr:teryt:sym_ul":467531,"contact:phone":"+48 183325280","contact:email":"sptymbark@poczta.onet.pl","contact:website":"http:\/\/www.sp.tymbark.pl","ref:regon":"490675340","ref:vatin":"PL7371846226","operator":"Gmina Tymbark","operator:type":"government","amenity":"school"}},{"id":105582,"type":"Feature","geometry":{"type":"Point","coordinates":[20.3320201,49.7240729]},"properties":{"ref:rspo":105582,"official_name":"Niepubliczne Przedszkole \"U Cioci Agatki\"","name":"Niepubliczne Przedszkole \"U Cioci Agatki\"","addr:country":"PL","addr:postcode":"34-650","addr:place":"Tymbark","addr:housenumber":"326","addr:teryt:sym_ul":467531,"contact:phone":"+48 662210699","contact:email":"kontakt@uciociagatki.pl","contact:website":"http:\/\/www.uciociagatki.pl","ref:regon":"122744358","operator":"Agata K\u0119ska","operator:type":"private","amenity":"kindergarten"}},{"id":118456,"type":"Feature","geometry":{"type":"Point","coordinates":[20.3242699,49.7273799]},"properties":{"ref:rspo":118456,"official_name":"Niepubliczna Poradnia Psychologiczno - Pedagogiczna Chiramed","name":"Niepubliczna Poradnia Psychologiczno - Pedagogiczna Chiramed","addr:country":"PL","addr:postcode":"34-650","addr:place":"Tymbark","addr:housenumber":"315","addr:teryt:sym_ul":467531,"contact:phone":"+48 183325220","contact:email":"kontakt@nppp-chiramed.pl","contact:website":"http:\/\/nppp-chiramed.pl\/o-nas.html","ref:regon":"122913252","operator":"\"Chiramed\" Sp\u00f3\u0142ka Z Ograniczon\u0105 Odpowiedzialno\u015bci\u0105","operator:type":"private","healthcare":"councelling","counselling_type":"education","fixme":"w zale\u017cno\u015bci od przedmiotu dzia\u0142alno\u015bci (np. healthcare=councelling + counselling_type=education albo healthcare=psychotherapist)"}},{"id":66199,"type":"Feature","geometry":{"type":"Point","coordinates":[20.32323,49.72937]},"properties":{"ref:rspo":66199,"official_name":"Parafialne Przedszkole Integracyjne im. \u015aw. Kingi w Tymbarku","name":"Parafialne Przedszkole Integracyjne","addr:country":"PL","addr:postcode":"34-650","addr:place":"Tymbark","addr:housenumber":"146","addr:teryt:sym_ul":467531,"contact:phone":"+48 183325151","contact:email":"przedszkoletymbark@op.pl","ref:regon":"122698279","ref:vatin":"PL7371853918","operator":"Parafia Rzym.-Kat. Pw. Narodzenia Naj\u015bwi\u0119tszej Maryi Panny","operator:type":"religious","amenity":"kindergarten"}},{"id":66194,"type":"Feature","geometry":{"type":"Point","coordinates":[20.29955,49.73213]},"properties":{"isced:level":"1;2","ref:rspo":66194,"official_name":"Szko\u0142a Podstawowa im.adama Mickiewicza w Pod\u0142opieniu","name":"Szko\u0142a Podstawowa im.adama Mickiewicza w Pod\u0142opieniu","addr:country":"PL","addr:postcode":"34-650","addr:place":"Pod\u0142opie\u0144","addr:housenumber":"73","addr:teryt:sym_ul":466709,"contact:phone":"+48 183325072","contact:email":"sppodlopien@o2.pl","contact:website":"http:\/\/sppodlopien.pl","ref:regon":"490675416","ref:vatin":"PL7371843570","operator":"Gmina Tymbark","operator:type":"government","amenity":"school"}},{"id":66197,"type":"Feature","geometry":{"type":"Point","coordinates":[20.31845,49.7322]},"properties":{"ref:rspo":66197,"official_name":"Przedszkole Samorz\u0105dowe im. Hansa Christiana Andersena w Tymbarku","name":"Przedszkole Samorz\u0105dowe","addr:country":"PL","addr:postcode":"34-650","addr:place":"Tymbark","addr:housenumber":"495","addr:teryt:sym_ul":467531,"contact:phone":"+48 183325170","contact:email":"nzp@op.pl","contact:website":"http:\/\/www.przedszkole.tymbark.iap.pl","ref:regon":"492047983","ref:vatin":"PL7371862159","operator":"Gmina Tymbark","operator:type":"government","amenity":"kindergarten"}},{"id":123776,"type":"Feature","geometry":{"type":"Point","coordinates":[20.31845,49.732169999999996]},"properties":{"ref:rspo":123776,"official_name":"Niepubliczna Poradnia Psychologiczno - Pedagogiczna \"Szansa\"","name":"Niepubliczna Poradnia Psychologiczno - Pedagogiczna \"Szansa\"","addr:country":"PL","addr:postcode":"34-650","addr:place":"Tymbark","addr:housenumber":"495","addr:teryt:sym_ul":467531,"contact:phone":"+48 606508621","contact:email":"rehtymbark@onet.pl","ref:regon":"123176092","ref:vatin":"PL7371788150","operator":"Stowarzyszenie Na Rzecz Os\u00f3b Z Niepe\u0142nosprawno\u015bci\u0105 \"Przysta\u0144\" Im. Jana Paw\u0142a Ii W Tymbarku","operator:type":"ngo","healthcare":"councelling","counselling_type":"education","fixme":"w zale\u017cno\u015bci od przedmiotu dzia\u0142alno\u015bci (np. healthcare=councelling + counselling_type=education albo healthcare=psychotherapist)"}},{"id":131404,"type":"Feature","geometry":{"type":"Point","coordinates":[20.31845,49.73214]},"properties":{"ref:rspo":131404,"official_name":"Niepubliczny O\u015brodek Rewalidacyjno - Wychowawczy \"Pod Skrzyd\u0142ami\" w Tymbarku","name":"Niepubliczny O\u015brodek Rewalidacyjno - Wychowawczy \"Pod Skrzyd\u0142ami\" w Tymbarku","addr:country":"PL","addr:postcode":"34-650","addr:place":"Tymbark","addr:housenumber":"495","addr:teryt:sym_ul":467531,"contact:phone":"+48 606508621","contact:email":"rehtymbark@onet.pl","contact:website":"http:\/\/www.rehtymbark-dzieci.org","ref:regon":"365166812","ref:vatin":"PL7371788150","operator":"Stowarzyszenie Na Rzecz Os\u00f3b Z Niepe\u0142nosprawno\u015bci\u0105 \"Przysta\u0144\" Im. Jana Paw\u0142a Ii W Tymbarku","operator:type":"ngo","amenity":"school"}},{"id":126624,"type":"Feature","geometry":{"type":"Point","coordinates":[20.32262,49.7361999]},"properties":{"ref:rspo":126624,"official_name":"Spo\u0142eczna Publiczna Szko\u0142a Muzyczna I Stopnia w Tymbarku","name":"Spo\u0142eczna Publiczna Szko\u0142a Muzyczna I Stopnia w Tymbarku","addr:country":"PL","addr:postcode":"34-650","addr:place":"Tymbark","addr:housenumber":"249","addr:teryt:sym_ul":467531,"contact:phone":"+48 182628094","contact:email":"waszkiewiczrosiek@gmail.com","contact:website":"http:\/\/szkola-muzyczna.org","ref:regon":"360565660","operator":"Samodzielne Ko\u0142o Terenowe Nr 99 Spo\u0142ecznego Towarzystwa O\u015bwiatowego W Tymbarku","operator:type":"ngo","amenity":"music_school"}},{"id":4241,"type":"Feature","geometry":{"type":"Point","coordinates":[20.3168599,49.73695]},"properties":{"ref:rspo":4241,"official_name":"Zesp\u00f3\u0142 Szk\u00f3\u0142 im. Komisji Edukacji Narodowej w Tymbarku","name":"Zesp\u00f3\u0142 Szk\u00f3\u0142","addr:country":"PL","addr:postcode":"34-650","addr:place":"Tymbark","addr:housenumber":"349","addr:teryt:sym_ul":467531,"contact:phone":"+48 183325030","contact:email":"zstymb@poczta.onet.pl","contact:website":"http:\/\/zstymbark.pl","ref:regon":"000191804","ref:vatin":"PL7371218659","operator":"Powiat Limanowski","operator:type":"government","landuse":"education","fixme":"amenity=school, amenity=college albo landuse=education w zale\u017cno\u015bci od tego, jakie plac\u00f3wki wchodz\u0105 w sk\u0142ad zespo\u0142u. Sprawd\u017a, kiedy stosowa\u0107 amenity=* a kiedy landuse=education.","note":"Children RSPO: 19536;19619;88279"}},{"id":19619,"type":"Feature","geometry":{"type":"Point","coordinates":[20.3168599,49.73692]},"properties":{"isced:level":"3","ref:rspo":19619,"official_name":"Zesp\u00f3\u0142 Szk\u00f3\u0142 im. Komisji Edukacji Narodowej w Tymbarku - Liceum Og\u00f3lnokszta\u0142c\u0105ce","name":"Zesp\u00f3\u0142 Szk\u00f3\u0142","addr:country":"PL","addr:postcode":"34-650","addr:place":"Tymbark","addr:housenumber":"349","addr:teryt:sym_ul":467531,"contact:phone":"+48 183325030","contact:email":"zstymb@poczta.onet.pl","contact:website":"http:\/\/www.zstymbark.pl","ref:regon":"492839891","operator":"Powiat Limanowski","operator:type":"government","amenity":"school","note":"Parent RSPO: 4241"}},{"id":88279,"type":"Feature","geometry":{"type":"Point","coordinates":[20.3168599,49.73689]},"properties":{"isced:level":"3","ref:rspo":88279,"official_name":"Zesp\u00f3\u0142 Szk\u00f3\u0142 im. Komisji Edukacji Narodowej w Tymbarku - Technikum","name":"Zesp\u00f3\u0142 Szk\u00f3\u0142","addr:country":"PL","addr:postcode":"34-650","addr:place":"Tymbark","addr:housenumber":"349","addr:teryt:sym_ul":467531,"contact:phone":"+48 183325030","contact:email":"zstymb@poczta.onet.pl","contact:website":"http:\/\/www.zstymbark.pl","ref:regon":"492839879","ref:vatin":"PL7371218659","operator":"Powiat Limanowski","operator:type":"government","amenity":"school","note":"Parent RSPO: 4241"}},{"id":272931,"type":"Feature","geometry":{"type":"Point","coordinates":[20.3168599,49.73686]},"properties":{"ref:rspo":272931,"official_name":"Centrum Kszta\u0142cenia Zawodowego w Limanowej - Filia Nr2","name":"Centrum Kszta\u0142cenia Zawodowego w Limanowej - Filia Nr2","addr:country":"PL","addr:postcode":"34-650","addr:place":"Tymbark","addr:housenumber":"349","addr:teryt:sym_ul":467531,"contact:phone":"+48 183325030","contact:email":"zstymb@poczta.onet.pl","contact:website":"http:\/\/www.zstymbark.pl","ref:regon":"122711927","operator":"Powiat Limanowski","operator:type":"government","fixme":"w zale\u017cno\u015bci od przedmiotu dzia\u0142alno\u015bci (np. amenity=training + training=*, amenity=dancing_school, amenity=language_school, amenity=music_school) albo amenity=school, amenity=college, albo landuse=education w zale\u017cno\u015bci od tego, jakie plac\u00f3wki wchodz\u0105 w sk\u0142ad zespo\u0142u. Sprawd\u017a, kiedy stosowa\u0107 amenity=* a kiedy landuse=education.","note":"Parent RSPO: 87779"}},{"id":26612,"type":"Feature","geometry":{"type":"Point","coordinates":[20.31771,49.73745]},"properties":{"ref:rspo":26612,"official_name":"Zesp\u00f3\u0142 Plac\u00f3wek O\u015bwiatowych w Limanowej - Szkolne Sezonowe Schronisko M\u0142odzie\u017cowe w Tymbarku","name":"Zesp\u00f3\u0142 Plac\u00f3wek O\u015bwiatowych w Limanowej - Szkolne Sezonowe Schronisko M\u0142odzie\u017cowe w Tymbarku","addr:country":"PL","addr:postcode":"34-650","addr:place":"Tymbark","addr:housenumber":"348","addr:teryt:sym_ul":467531,"contact:phone":"+48 183325030","contact:email":"zstymb@poczta.onet.pl","ref:regon":"492912518","operator":"Powiat Limanowski","operator:type":"government","tourism":"hostel","note":"Parent RSPO: 8056"}},{"id":66193,"type":"Feature","geometry":{"type":"Point","coordinates":[20.2862699,49.74033]},"properties":{"isced:level":"1;2","ref:rspo":66193,"official_name":"Szko\u0142a Podstawowa im. Tadeusza Ko\u015bciuszki w Zawadce","name":"Szko\u0142a Podstawowa","addr:country":"PL","addr:postcode":"34-650","addr:place":"Zawadka","addr:housenumber":"18","addr:teryt:sym_ul":467790,"contact:phone":"+48 183325036","contact:email":"spzawadka@o2.pl","contact:website":"http:\/\/spzawadka.tymbark.pl","ref:regon":"490675422","ref:vatin":"PL7371840689","operator":"Gmina Tymbark","operator:type":"government","amenity":"school"}},{"id":66198,"type":"Feature","geometry":{"type":"Point","coordinates":[20.34574,49.74846]},"properties":{"isced:level":"1;2","ref:rspo":66198,"official_name":"Niepubliczna Szko\u0142a Podstawowa w Piekie\u0142ku","name":"Niepubliczna Szko\u0142a Podstawowa w Piekie\u0142ku","addr:country":"PL","addr:postcode":"34-650","addr:place":"Piekie\u0142ko","addr:housenumber":"40","addr:teryt:sym_ul":466589,"contact:phone":"+48 183325641","contact:email":"nsping@interia.pl","ref:regon":"122698084","operator":"Stowarzyszenie Rozwoju Wsi Piekie\u0142ko I Okolic","operator:type":"ngo","amenity":"school"}}]}