{
    "type": "FeatureCollection",
    "features": [
        {
            "id": 43468,
            "type": "Feature",
            "geometry": {
                "type": "Point",
                "coordinates": [
                    20.1930536,
                    49.6106782
                ]
            },
            "properties": {
                "isced:level": "1;2",
                "ref:rspo": 43468,
                "official_name": "Szko\u0142a Podstawowa Nr 2, im. \u015aw, Stanis\u0142awa Kostki w Lubomierzu",
                "name": "Szko\u0142a Podstawowa Nr 2,",
                "addr:postcode": "34-736",
                "addr:place": "Lubomierz",
                "addr:housenumber": "302",
                "addr:teryt:simc": 452386,
                "phone": "+48 183315261",
                "email": "sp2lubomierz@mszana.pl",
                "website": "http:\/\/www.sp2lubomierz.edupage.org",
                "ref:regon": "490564941",
                "ref:vatin": "PL7371834476",
                "operator": "Gmina Mszana Dolna",
                "operator:type": "government",
                "amenity": "school"
            }
        },
        {
            "id": 26596,
            "type": "Feature",
            "geometry": {
                "type": "Point",
                "coordinates": [
                    20.1930536,
                    49.6106482
                ]
            },
            "properties": {
                "ref:rspo": 26596,
                "official_name": "Zesp\u00f3\u0142 Plac\u00f3wek O\u015bwiatowych w Limanowej - Szkolne Sezonowe Schronisko M\u0142odzie\u017cowe w Lubomierzu",
                "name": "Zesp\u00f3\u0142 Plac\u00f3wek O\u015bwiatowych w Limanowej - Szkolne Sezonowe Schronisko M\u0142odzie\u017cowe w Lubomierzu",
                "addr:postcode": "34-736",
                "addr:place": "Lubomierz",
                "addr:housenumber": "302",
                "addr:teryt:simc": 452386,
                "phone": "+48 183315261",
                "email": "lubomierz2@wp.pl",
                "ref:regon": "120703616",
                "operator": "Powiat Limanowski",
                "operator:type": "government",
                "tourism": "hostel",
                "note": "Parent RSPO: 8056"
            }
        },
        {
            "id": 43467,
            "type": "Feature",
            "geometry": {
                "type": "Point",
                "coordinates": [
                    20.18614,
                    49.61497
                ]
            },
            "properties": {
                "isced:level": "1;2",
                "ref:rspo": 43467,
                "official_name": "Szko\u0142a Podstawowa Nr 1, im. \u015aw. J\u00f3zefa w Lubomierzu",
                "name": "Szko\u0142a Podstawowa Nr 1,",
                "addr:postcode": "34-736",
                "addr:place": "Lubomierz",
                "addr:housenumber": "345",
                "addr:teryt:simc": 452386,
                "phone": "+48 183315283",
                "email": "sp1lubomierz@mszana.pl",
                "website": "http:\/\/www.sp1lubomierz.pl",
                "ref:regon": "490564935",
                "ref:vatin": "PL7371834513",
                "operator": "Gmina Mszana Dolna",
                "operator:type": "government",
                "amenity": "school"
            }
        },
        {
            "id": 43458,
            "type": "Feature",
            "geometry": {
                "type": "Point",
                "coordinates": [
                    20.03008,
                    49.61659
                ]
            },
            "properties": {
                "ref:rspo": 43458,
                "official_name": "Zesp\u00f3\u0142 Szko\u0142y I Przedszkola w Olsz\u00f3wce",
                "name": "Zesp\u00f3\u0142 Szko\u0142y I Przedszkola w Olsz\u00f3wce",
                "addr:postcode": "34-730",
                "addr:place": "Olsz\u00f3wka",
                "addr:housenumber": "52",
                "addr:teryt:simc": 453925,
                "phone": "+48 183316025",
                "email": "spolszowka@mszana.pl",
                "website": "http:\/\/www.zsipolszowka.szkolnastrona.pl",
                "ref:regon": "492828551",
                "ref:vatin": "PL7371834045",
                "operator": "Gmina Mszana Dolna",
                "operator:type": "government",
                "landuse": "education",
                "fixme": "amenity=school, amenity=college albo landuse=education w zale\u017cno\u015bci od tego, jakie plac\u00f3wki wchodz\u0105 w sk\u0142ad zespo\u0142u. Sprawd\u017a, kiedy stosowa\u0107 amenity=* a kiedy landuse=education.",
                "note": "Children RSPO: 56456;56597"
            }
        },
        {
            "id": 56456,
            "type": "Feature",
            "geometry": {
                "type": "Point",
                "coordinates": [
                    20.03008,
                    49.61656
                ]
            },
            "properties": {
                "isced:level": "1;2",
                "ref:rspo": 56456,
                "official_name": "Szko\u0142a Podstawowa, im. Marii Konopnickiej w Olsz\u00f3wce",
                "name": "Szko\u0142a Podstawowa,",
                "addr:postcode": "34-730",
                "addr:place": "Olsz\u00f3wka",
                "addr:housenumber": "52",
                "addr:teryt:simc": 453925,
                "phone": "+48 183316025",
                "email": "szkolaolszowka@o2.pl",
                "website": "http:\/\/www.zsipolszowka.szkolnastrona.pl",
                "ref:regon": "490564970",
                "operator": "Gmina Mszana Dolna",
                "operator:type": "government",
                "amenity": "school",
                "note": "Parent RSPO: 43458"
            }
        },
        {
            "id": 56597,
            "type": "Feature",
            "geometry": {
                "type": "Point",
                "coordinates": [
                    20.03008,
                    49.616530000000004
                ]
            },
            "properties": {
                "ref:rspo": 56597,
                "official_name": "Przedszkole w Olsz\u00f3wce",
                "name": "Przedszkole w Olsz\u00f3wce",
                "addr:postcode": "34-730",
                "addr:place": "Olsz\u00f3wka",
                "addr:housenumber": "52",
                "addr:teryt:simc": 453925,
                "phone": "+48 183316025",
                "email": "spolszowka@mszana.pl",
                "website": "http:\/\/www.zsipolszowka.szkolnastrona.pl",
                "ref:regon": "492828568",
                "operator": "Gmina Mszana Dolna",
                "operator:type": "government",
                "amenity": "kindergarten",
                "note": "Parent RSPO: 43458"
            }
        },
        {
            "id": 43457,
            "type": "Feature",
            "geometry": {
                "type": "Point",
                "coordinates": [
                    20.14221,
                    49.62699
                ]
            },
            "properties": {
                "ref:rspo": 43457,
                "official_name": "Zesp\u00f3\u0142 Szko\u0142y I Przedszkola w Mszanie G\u00f3rnej",
                "name": "Zesp\u00f3\u0142 Szko\u0142y I Przedszkola w Mszanie G\u00f3rnej",
                "addr:postcode": "34-730",
                "addr:place": "Mszana G\u00f3rna",
                "addr:housenumber": "358",
                "addr:teryt:simc": 453492,
                "phone": "+48 183315206",
                "email": "sp2mszanagorna@mszana.pl",
                "website": "http:\/\/www.zs2ipmszanagorna.c0.pl",
                "ref:regon": "120991911",
                "ref:vatin": "PL7372151822",
                "operator": "Gmina Mszana Dolna",
                "operator:type": "government",
                "landuse": "education",
                "fixme": "amenity=school, amenity=college albo landuse=education w zale\u017cno\u015bci od tego, jakie plac\u00f3wki wchodz\u0105 w sk\u0142ad zespo\u0142u. Sprawd\u017a, kiedy stosowa\u0107 amenity=* a kiedy landuse=education.",
                "note": "Children RSPO: 55293;55406"
            }
        },
        {
            "id": 55293,
            "type": "Feature",
            "geometry": {
                "type": "Point",
                "coordinates": [
                    20.14221,
                    49.62696
                ]
            },
            "properties": {
                "ref:rspo": 55293,
                "official_name": "Przedszkole w Mszanie G\u00f3rnej",
                "name": "Przedszkole w Mszanie G\u00f3rnej",
                "addr:postcode": "34-730",
                "addr:place": "Mszana G\u00f3rna",
                "addr:housenumber": "358",
                "addr:teryt:simc": 453492,
                "phone": "+48 183315206",
                "email": "sp2mszanagorna@mszana.pl",
                "website": "http:\/\/www.zs2ipmszanagorna.c0.pl",
                "ref:regon": "120730062",
                "ref:vatin": "PL7372125115",
                "operator": "Gmina Mszana Dolna",
                "operator:type": "government",
                "amenity": "kindergarten",
                "note": "Parent RSPO: 43457"
            }
        },
        {
            "id": 55406,
            "type": "Feature",
            "geometry": {
                "type": "Point",
                "coordinates": [
                    20.14221,
                    49.62693
                ]
            },
            "properties": {
                "isced:level": "1;2",
                "ref:rspo": 55406,
                "official_name": "Szko\u0142a Podstawowa Nr 2, im. Kazimierza Przerwy - Tetmajera w Mszanie G\u00f3rnej",
                "name": "Szko\u0142a Podstawowa Nr 2,",
                "addr:postcode": "34-730",
                "addr:place": "Mszana G\u00f3rna",
                "addr:housenumber": "358",
                "addr:teryt:simc": 453492,
                "phone": "+48 183315206",
                "email": "sp2mszanagorna@mszana.pl",
                "website": "http:\/\/www.zs2ipmszanagorna.c0.pl",
                "ref:regon": "490564929",
                "ref:vatin": "PL7371834186",
                "operator": "Gmina Mszana Dolna",
                "operator:type": "government",
                "amenity": "school",
                "note": "Parent RSPO: 43457"
            }
        },
        {
            "id": 35245,
            "type": "Feature",
            "geometry": {
                "type": "Point",
                "coordinates": [
                    20.0326999,
                    49.64256
                ]
            },
            "properties": {
                "ref:rspo": 35245,
                "official_name": "Zesp\u00f3\u0142 Plac\u00f3wek O\u015bwiatowych w Rabie Ni\u017cnej",
                "name": "Zesp\u00f3\u0142 Plac\u00f3wek O\u015bwiatowych w Rabie Ni\u017cnej",
                "addr:postcode": "34-730",
                "addr:place": "Raba Ni\u017cna",
                "addr:housenumber": "162",
                "addr:teryt:simc": 454391,
                "phone": "+48 183316005",
                "email": "sprabanizna@mszana.pl",
                "website": "http:\/\/www.zporaba.pl",
                "ref:regon": "490565001",
                "ref:vatin": "PL7371834542",
                "operator": "Gmina Mszana Dolna",
                "operator:type": "government",
                "landuse": "education",
                "fixme": "amenity=school, amenity=college albo landuse=education w zale\u017cno\u015bci od tego, jakie plac\u00f3wki wchodz\u0105 w sk\u0142ad zespo\u0142u. Sprawd\u017a, kiedy stosowa\u0107 amenity=* a kiedy landuse=education.",
                "note": "Children RSPO: 52820;52821"
            }
        },
        {
            "id": 52820,
            "type": "Feature",
            "geometry": {
                "type": "Point",
                "coordinates": [
                    20.0326999,
                    49.64253
                ]
            },
            "properties": {
                "ref:rspo": 52820,
                "official_name": "Przedszkole w Rabie Ni\u017cnej",
                "name": "Przedszkole w Rabie Ni\u017cnej",
                "addr:postcode": "34-730",
                "addr:place": "Raba Ni\u017cna",
                "addr:housenumber": "162",
                "addr:teryt:simc": 454391,
                "phone": "+48 183316005",
                "email": "sprabanizna@mszana.pl",
                "website": "http:\/\/www.zporaba.pl",
                "ref:regon": "492828077",
                "operator": "Gmina Mszana Dolna",
                "operator:type": "government",
                "amenity": "kindergarten",
                "note": "Parent RSPO: 35245"
            }
        },
        {
            "id": 52821,
            "type": "Feature",
            "geometry": {
                "type": "Point",
                "coordinates": [
                    20.0326999,
                    49.642500000000005
                ]
            },
            "properties": {
                "isced:level": "1;2",
                "ref:rspo": 52821,
                "official_name": "Szko\u0142a Podstawowa, im. Wojciecha Rypla w Rabie Ni\u017cnej",
                "name": "Szko\u0142a Podstawowa,",
                "addr:postcode": "34-730",
                "addr:place": "Raba Ni\u017cna",
                "addr:housenumber": "162",
                "addr:teryt:simc": 454391,
                "phone": "+48 183316005",
                "email": "sprabanizna@mszana.pl",
                "website": "http:\/\/www.zporaba.pl",
                "ref:regon": "492828060",
                "ref:vatin": "PL7371834542",
                "operator": "Gmina Mszana Dolna",
                "operator:type": "government",
                "amenity": "school",
                "note": "Parent RSPO: 35245"
            }
        },
        {
            "id": 52852,
            "type": "Feature",
            "geometry": {
                "type": "Point",
                "coordinates": [
                    20.11872,
                    49.64353
                ]
            },
            "properties": {
                "isced:level": "1;2",
                "ref:rspo": 52852,
                "official_name": "Szko\u0142a Podstawowa Nr 1, im. Marii Konopnickiej w Mszanie G\u00f3rnej",
                "name": "Szko\u0142a Podstawowa Nr 1,",
                "addr:postcode": "34-733",
                "addr:place": "Mszana G\u00f3rna",
                "addr:housenumber": "589",
                "addr:teryt:simc": 453492,
                "phone": "+48 183315247",
                "email": "sp1mszanagorna@mszana.pl",
                "website": "http:\/\/www.sp1mszanagorna.pl",
                "ref:regon": "490564912",
                "ref:vatin": "PL7372128823",
                "operator": "Gmina Mszana Dolna",
                "operator:type": "government",
                "amenity": "school"
            }
        },
        {
            "id": 19360,
            "type": "Feature",
            "geometry": {
                "type": "Point",
                "coordinates": [
                    20.17457,
                    49.64518
                ]
            },
            "properties": {
                "ref:rspo": 19360,
                "official_name": "Szko\u0142a G\u00f3rska - Niepubliczna Plac\u00f3wka Kszta\u0142cenia Ustawicznego",
                "name": "Szko\u0142a G\u00f3rska - Niepubliczna Plac\u00f3wka Kszta\u0142cenia Ustawicznego",
                "addr:postcode": "34-733",
                "addr:place": "\u0141\u0119towe",
                "addr:housenumber": "277",
                "addr:teryt:simc": 452802,
                "phone": "+48 183315316",
                "email": "szkola@szkolagorska.eu",
                "website": "https:\/\/szkolagorska.eu\/",
                "ref:regon": "122668864",
                "ref:vatin": "PL9451545580",
                "operator": "Jerzy Suchodo\u0142a",
                "operator:type": "private",
                "fixme": "w zale\u017cno\u015bci od przedmiotu dzia\u0142alno\u015bci (np. amenity=training + training=*, amenity=dancing_school, amenity=language_school, amenity=music_school)"
            }
        },
        {
            "id": 43464,
            "type": "Feature",
            "geometry": {
                "type": "Point",
                "coordinates": [
                    20.15529,
                    49.65084
                ]
            },
            "properties": {
                "isced:level": "1;2",
                "ref:rspo": 43464,
                "official_name": "Szko\u0142a Podstawowa, im. Tadeusza Ko\u015bciuszki w \u0141\u0119towem",
                "name": "Szko\u0142a Podstawowa,",
                "addr:postcode": "34-730",
                "addr:place": "\u0141\u0119towe",
                "addr:housenumber": "238",
                "addr:teryt:simc": 452802,
                "phone": "+48 183315204",
                "email": "spletowe@mszana.pl",
                "website": "http:\/\/www.sp-letowe.pl",
                "ref:regon": "490564964",
                "ref:vatin": "PL7371833956",
                "operator": "Gmina Mszana Dolna",
                "operator:type": "government",
                "amenity": "school"
            }
        },
        {
            "id": 123614,
            "type": "Feature",
            "geometry": {
                "type": "Point",
                "coordinates": [
                    20.15529,
                    49.65081
                ]
            },
            "properties": {
                "ref:rspo": 123614,
                "official_name": "Punkt Przedszkolny \"Bajkowe Przedszkole\"",
                "name": "Punkt Przedszkolny \"Bajkowe Przedszkole\"",
                "addr:postcode": "34-733",
                "addr:place": "\u0141\u0119towe",
                "addr:housenumber": "238",
                "addr:teryt:simc": 452802,
                "phone": "+48 504280694",
                "email": "letowianie@gmail.com",
                "ref:regon": "123165734",
                "operator": "Stowarzyszenie \u0141\u0119towianie",
                "operator:type": "ngo",
                "amenity": "kindergarten"
            }
        },
        {
            "id": 43462,
            "type": "Feature",
            "geometry": {
                "type": "Point",
                "coordinates": [
                    20.01873,
                    49.66452
                ]
            },
            "properties": {
                "isced:level": "1;2",
                "ref:rspo": 43462,
                "official_name": "Szko\u0142a Podstawowa, im. \u015aw. Floriana w Glisnem",
                "name": "Szko\u0142a Podstawowa,",
                "addr:postcode": "34-730",
                "addr:place": "Glisne",
                "addr:housenumber": "70",
                "addr:teryt:simc": 450602,
                "phone": "+48 183316210",
                "email": "spglisne@mszana.pl",
                "website": "http:\/\/szkolaglisne.edupage.org",
                "ref:regon": "490564987",
                "ref:vatin": "PL7371833910",
                "operator": "Gmina Mszana Dolna",
                "operator:type": "government",
                "amenity": "school"
            }
        },
        {
            "id": 118789,
            "type": "Feature",
            "geometry": {
                "type": "Point",
                "coordinates": [
                    20.12988,
                    49.67648
                ]
            },
            "properties": {
                "ref:rspo": 118789,
                "official_name": "Zesp\u00f3\u0142 Szko\u0142y I Przedszkola w \u0141ost\u00f3wce",
                "name": "Zesp\u00f3\u0142 Szko\u0142y I Przedszkola w \u0141ost\u00f3wce",
                "addr:postcode": "34-730",
                "addr:place": "\u0141ost\u00f3wka",
                "addr:housenumber": "245",
                "addr:teryt:simc": 453150,
                "phone": "+48 183349221",
                "email": "splostowka@mszana.pl",
                "website": "http:\/\/zsplostowka.edupage.org",
                "ref:regon": "122921464",
                "operator": "Gmina Mszana Dolna",
                "operator:type": "government",
                "landuse": "education",
                "fixme": "amenity=school, amenity=college albo landuse=education w zale\u017cno\u015bci od tego, jakie plac\u00f3wki wchodz\u0105 w sk\u0142ad zespo\u0142u. Sprawd\u017a, kiedy stosowa\u0107 amenity=* a kiedy landuse=education.",
                "note": "Children RSPO: 43465;43466"
            }
        },
        {
            "id": 43465,
            "type": "Feature",
            "geometry": {
                "type": "Point",
                "coordinates": [
                    20.12988,
                    49.676449999999996
                ]
            },
            "properties": {
                "isced:level": "1;2",
                "ref:rspo": 43465,
                "official_name": "Szko\u0142a Podstawowa, im. Jana Paw\u0142a II w \u0141ost\u00f3wce",
                "name": "Szko\u0142a Podstawowa,",
                "addr:postcode": "34-730",
                "addr:place": "\u0141ost\u00f3wka",
                "addr:housenumber": "245",
                "addr:teryt:simc": 453150,
                "phone": "+48 183349221",
                "email": "splostowka@mszana.pl",
                "website": "http:\/\/zsplostowka.edupage.org",
                "ref:regon": "490564993",
                "ref:vatin": "PL7371834499",
                "operator": "Gmina Mszana Dolna",
                "operator:type": "government",
                "amenity": "school",
                "note": "Parent RSPO: 118789"
            }
        },
        {
            "id": 43466,
            "type": "Feature",
            "geometry": {
                "type": "Point",
                "coordinates": [
                    20.12988,
                    49.67642
                ]
            },
            "properties": {
                "ref:rspo": 43466,
                "official_name": "Przedszkole w \u0141ost\u00f3wce",
                "name": "Przedszkole w \u0141ost\u00f3wce",
                "addr:postcode": "34-730",
                "addr:place": "\u0141ost\u00f3wka",
                "addr:housenumber": "245",
                "addr:teryt:simc": 453150,
                "phone": "+48 183349221",
                "email": "splostowka@mszana.pl",
                "website": "http:\/\/www.splostowka.pl",
                "ref:regon": "122607845",
                "ref:vatin": "PL7372201738",
                "operator": "Gmina Mszana Dolna",
                "operator:type": "government",
                "amenity": "kindergarten",
                "note": "Parent RSPO: 118789"
            }
        },
        {
            "id": 35123,
            "type": "Feature",
            "geometry": {
                "type": "Point",
                "coordinates": [
                    20.03875,
                    49.70196
                ]
            },
            "properties": {
                "ref:rspo": 35123,
                "official_name": "Zesp\u00f3\u0142 Plac\u00f3wek O\u015bwiatowych w Kasince Ma\u0142ej",
                "name": "Zesp\u00f3\u0142 Plac\u00f3wek O\u015bwiatowych w Kasince Ma\u0142ej",
                "addr:postcode": "34-734",
                "addr:place": "Kasinka Ma\u0142a",
                "addr:housenumber": "513",
                "addr:teryt:simc": 451429,
                "phone": "+48 183313096",
                "email": "sp1kasinkamala@mszana.pl",
                "website": "http:\/\/www.zpokasinkamala.edu.pl",
                "ref:regon": "490564875",
                "ref:vatin": "PL7371834565",
                "operator": "Gmina Mszana Dolna",
                "operator:type": "government",
                "landuse": "education",
                "fixme": "amenity=school, amenity=college albo landuse=education w zale\u017cno\u015bci od tego, jakie plac\u00f3wki wchodz\u0105 w sk\u0142ad zespo\u0142u. Sprawd\u017a, kiedy stosowa\u0107 amenity=* a kiedy landuse=education.",
                "note": "Children RSPO: 52734;52774"
            }
        },
        {
            "id": 52734,
            "type": "Feature",
            "geometry": {
                "type": "Point",
                "coordinates": [
                    20.03875,
                    49.70193
                ]
            },
            "properties": {
                "ref:rspo": 52734,
                "official_name": "Przedszkole w Kasince Ma\u0142ej",
                "name": "Przedszkole w Kasince Ma\u0142ej",
                "addr:postcode": "34-734",
                "addr:place": "Kasinka Ma\u0142a",
                "addr:housenumber": "513",
                "addr:teryt:simc": 451429,
                "phone": "+48 183313096",
                "email": "sp1kasinkamala@mszana.pl",
                "website": "http:\/\/www.zpokasinkamala.edu.pl",
                "ref:regon": "492828048",
                "operator": "Gmina Mszana Dolna",
                "operator:type": "government",
                "amenity": "kindergarten",
                "note": "Parent RSPO: 35123"
            }
        },
        {
            "id": 52774,
            "type": "Feature",
            "geometry": {
                "type": "Point",
                "coordinates": [
                    20.03875,
                    49.7019
                ]
            },
            "properties": {
                "isced:level": "1;2",
                "ref:rspo": 52774,
                "official_name": "Szko\u0142a Podstawowa Nr 1, im. W\u0142adys\u0142awa Broniewskiego w Kasince Ma\u0142ej",
                "name": "Szko\u0142a Podstawowa Nr 1,",
                "addr:postcode": "34-734",
                "addr:place": "Kasinka Ma\u0142a",
                "addr:housenumber": "513",
                "addr:teryt:simc": 451429,
                "phone": "+48 183313096",
                "email": "sp1kasinkamala@mszana.pl",
                "website": "http:\/\/www.zpokasinkamala.edu.pl",
                "ref:regon": "492828054",
                "ref:vatin": "PL7371834128",
                "operator": "Gmina Mszana Dolna",
                "operator:type": "government",
                "amenity": "school",
                "note": "Parent RSPO: 35123"
            }
        },
        {
            "id": 272261,
            "type": "Feature",
            "geometry": {
                "type": "Point",
                "coordinates": [
                    20.13633,
                    49.70343
                ]
            },
            "properties": {
                "ref:rspo": 272261,
                "official_name": "Zesp\u00f3\u0142 Szko\u0142y I Przedszkola Nr 2 w Kasinie Wielkiej",
                "name": "Zesp\u00f3\u0142 Szko\u0142y I Przedszkola Nr 2 w Kasinie Wielkiej",
                "addr:postcode": "34-741",
                "addr:place": "Kasina Wielka",
                "addr:housenumber": "762",
                "addr:teryt:simc": 450708,
                "phone": "+48 183314091",
                "email": "sp2kasinawielka@mszana.pl",
                "ref:regon": "384070974",
                "ref:vatin": "PL7372219632",
                "operator": "Gmina Mszana Dolna",
                "operator:type": "government",
                "landuse": "education",
                "fixme": "amenity=school, amenity=college albo landuse=education w zale\u017cno\u015bci od tego, jakie plac\u00f3wki wchodz\u0105 w sk\u0142ad zespo\u0142u. Sprawd\u017a, kiedy stosowa\u0107 amenity=* a kiedy landuse=education.",
                "note": "Children RSPO: 272275;272276"
            }
        },
        {
            "id": 272275,
            "type": "Feature",
            "geometry": {
                "type": "Point",
                "coordinates": [
                    20.13633,
                    49.703399999999995
                ]
            },
            "properties": {
                "isced:level": "1;2",
                "ref:rspo": 272275,
                "official_name": "Szko\u0142a Podstawowa Nr 2 w Kasinie Wielkiej",
                "name": "Szko\u0142a Podstawowa Nr 2 w Kasinie Wielkiej",
                "addr:postcode": "34-741",
                "addr:place": "Kasina Wielka",
                "addr:housenumber": "762",
                "addr:teryt:simc": 450708,
                "phone": "+48 183314091",
                "email": "sp2kasinawielka@mszana.pl",
                "ref:regon": "384073613",
                "operator": "Gmina Mszana Dolna",
                "operator:type": "government",
                "amenity": "school",
                "note": "Parent RSPO: 272261"
            }
        },
        {
            "id": 272276,
            "type": "Feature",
            "geometry": {
                "type": "Point",
                "coordinates": [
                    20.13633,
                    49.70337
                ]
            },
            "properties": {
                "ref:rspo": 272276,
                "official_name": "Przedszkole Nr 2 w Kasinie Wielkiej",
                "name": "Przedszkole Nr 2 w Kasinie Wielkiej",
                "addr:postcode": "34-741",
                "addr:place": "Kasina Wielka",
                "addr:housenumber": "762",
                "addr:teryt:simc": 450708,
                "phone": "+48 183314091",
                "email": "sp2kasinawielka@mszana.pl",
                "ref:regon": "384075411",
                "operator": "Gmina Mszana Dolna",
                "operator:type": "government",
                "amenity": "kindergarten",
                "note": "Parent RSPO: 272261"
            }
        },
        {
            "id": 276546,
            "type": "Feature",
            "geometry": {
                "type": "Point",
                "coordinates": [
                    20.02344,
                    49.70688
                ]
            },
            "properties": {
                "ref:rspo": 276546,
                "official_name": "Niepubliczne Przedszkole \"Bajkowy \u015awiat\"",
                "name": "Niepubliczne Przedszkole \"Bajkowy \u015awiat\"",
                "addr:postcode": "34-734",
                "addr:place": "Kasinka Ma\u0142a",
                "addr:housenumber": "955",
                "addr:teryt:simc": 451429,
                "phone": "+48 515268797",
                "email": "mbajkowyswiat@gmail.com",
                "ref:regon": "387216728",
                "operator": "Marzena Kruczek",
                "operator:type": "private",
                "amenity": "kindergarten"
            }
        },
        {
            "id": 43460,
            "type": "Feature",
            "geometry": {
                "type": "Point",
                "coordinates": [
                    20.0403073,
                    49.7126164
                ]
            },
            "properties": {
                "isced:level": "1;2",
                "ref:rspo": 43460,
                "official_name": "Szko\u0142a Podstawowa Nr 2, im. Juliana Tuwima w Kasince Ma\u0142ej",
                "name": "Szko\u0142a Podstawowa Nr 2,",
                "addr:postcode": "34-734",
                "addr:place": "Kasinka Ma\u0142a",
                "addr:housenumber": "432",
                "addr:teryt:simc": 451429,
                "phone": "+48 183313006",
                "email": "sp2kasinkamala@mszana.pl",
                "website": "http:\/\/www.kasinkasp2.mszana.pl",
                "ref:regon": "490564881",
                "ref:vatin": "PL7371834507",
                "operator": "Gmina Mszana Dolna",
                "operator:type": "government",
                "amenity": "school"
            }
        },
        {
            "id": 35120,
            "type": "Feature",
            "geometry": {
                "type": "Point",
                "coordinates": [
                    20.1384599,
                    49.72449
                ]
            },
            "properties": {
                "ref:rspo": 35120,
                "official_name": "Zesp\u00f3\u0142 Szko\u0142y I Przedszkola Nr 1 w Kasinie Wielkiej",
                "name": "Zesp\u00f3\u0142 Szko\u0142y I Przedszkola Nr 1 w Kasinie Wielkiej",
                "addr:postcode": "34-741",
                "addr:place": "Kasina Wielka",
                "addr:housenumber": "761",
                "addr:teryt:simc": 450708,
                "phone": "+48 183314094",
                "email": "sp1kasinawielka@mszana.pl",
                "website": "http:\/\/www.zpokasinawielka.pl",
                "ref:regon": "490564869",
                "ref:vatin": "PL7371834559",
                "operator": "Gmina Mszana Dolna",
                "operator:type": "government",
                "landuse": "education",
                "fixme": "amenity=school, amenity=college albo landuse=education w zale\u017cno\u015bci od tego, jakie plac\u00f3wki wchodz\u0105 w sk\u0142ad zespo\u0142u. Sprawd\u017a, kiedy stosowa\u0107 amenity=* a kiedy landuse=education.",
                "note": "Children RSPO: 49286;52851"
            }
        },
        {
            "id": 49286,
            "type": "Feature",
            "geometry": {
                "type": "Point",
                "coordinates": [
                    20.1384599,
                    49.72446
                ]
            },
            "properties": {
                "ref:rspo": 49286,
                "official_name": "Przedszkole Nr 1 w Kasinie Wielkiej",
                "name": "Przedszkole Nr 1 w Kasinie Wielkiej",
                "addr:postcode": "34-741",
                "addr:place": "Kasina Wielka",
                "addr:housenumber": "761",
                "addr:teryt:simc": 450708,
                "phone": "+48 183314094",
                "email": "sp1kasinawielka@mszana.pl",
                "website": "http:\/\/www.zpokasinawielka.pl",
                "ref:regon": "492828309",
                "operator": "Gmina Mszana Dolna",
                "operator:type": "government",
                "amenity": "kindergarten",
                "note": "Parent RSPO: 35120"
            }
        },
        {
            "id": 52851,
            "type": "Feature",
            "geometry": {
                "type": "Point",
                "coordinates": [
                    20.1384599,
                    49.724430000000005
                ]
            },
            "properties": {
                "isced:level": "1;2",
                "ref:rspo": 52851,
                "official_name": "Szko\u0142a Podstawowa Nr 1, im. Marii Sk\u0142odowskiej - Curie w Kasinie Wielkiej",
                "name": "Szko\u0142a Podstawowa Nr 1,",
                "addr:postcode": "34-741",
                "addr:place": "Kasina Wielka",
                "addr:housenumber": "761",
                "addr:teryt:simc": 450708,
                "phone": "+48 183314094",
                "email": "sp1kasinawielka@mszana.pl",
                "website": "http:\/\/www.zpokasinawielka.pl",
                "ref:regon": "492828315",
                "ref:vatin": "PL7371834559",
                "operator": "Gmina Mszana Dolna",
                "operator:type": "government",
                "amenity": "school",
                "note": "Parent RSPO: 35120"
            }
        },
        {
            "id": 43461,
            "type": "Feature",
            "geometry": {
                "type": "Point",
                "coordinates": [
                    20.09067,
                    49.72955
                ]
            },
            "properties": {
                "isced:level": "1;2",
                "ref:rspo": 43461,
                "official_name": "Szko\u0142a Podstawowa Nr 3, im. Jana Paw\u0142a II w Kasince Ma\u0142ej",
                "name": "Szko\u0142a Podstawowa Nr 3,",
                "addr:postcode": "34-734",
                "addr:place": "Kasinka Ma\u0142a",
                "addr:housenumber": "733",
                "addr:teryt:simc": 451429,
                "phone": "+48 183313113",
                "email": "sp3kasinkamala@mszana.pl",
                "ref:regon": "490564898",
                "ref:vatin": "PL7371834140",
                "operator": "Gmina Mszana Dolna",
                "operator:type": "government",
                "amenity": "school"
            }
        }
    ]
}