{
    "type": "FeatureCollection",
    "features": [
        {
            "id": 90574,
            "type": "Feature",
            "geometry": {
                "type": "Point",
                "coordinates": [
                    20.21285,
                    49.65017
                ]
            },
            "properties": {
                "isced:level": "1;2",
                "ref:rspo": 90574,
                "official_name": "Szko\u0142a Filialna w P\u00f3\u0142rzeczkach",
                "name": "Szko\u0142a Filialna w P\u00f3\u0142rzeczkach",
                "addr:country": "PL",
                "addr:postcode": "34-643",
                "addr:place": "P\u00f3\u0142rzeczki",
                "addr:housenumber": "216",
                "addr:teryt:sym_ul": 424266,
                "contact:phone": "+48 183332245",
                "contact:email": "zpojurkow@szkola.wp.pl",
                "contact:website": "http:\/\/www.zpojurkow.gminadobra.pl",
                "ref:regon": "492894861",
                "operator": "Gmina Dobra",
                "operator:type": "government",
                "amenity": "school",
                "note": "Parent RSPO: 66290"
            }
        },
        {
            "id": 58557,
            "type": "Feature",
            "geometry": {
                "type": "Point",
                "coordinates": [
                    20.18842,
                    49.66679
                ]
            },
            "properties": {
                "isced:level": "1;2",
                "ref:rspo": 58557,
                "official_name": "Szko\u0142a Podstawowa im. Janusza Korczaka",
                "name": "Szko\u0142a Podstawowa",
                "addr:country": "PL",
                "addr:postcode": "34-643",
                "addr:place": "Wilczyce",
                "addr:housenumber": "109",
                "addr:teryt:sym_ul": 424830,
                "contact:phone": "+48 183332417",
                "contact:email": "szkola.wilczyce@gminadobra.pl",
                "contact:website": "http:\/\/www.spwilczyce.pl",
                "ref:regon": "490670821",
                "ref:vatin": "PL7371832939",
                "operator": "Gmina Dobra",
                "operator:type": "government",
                "amenity": "school"
            }
        },
        {
            "id": 55982,
            "type": "Feature",
            "geometry": {
                "type": "Point",
                "coordinates": [
                    20.26133,
                    49.67807
                ]
            },
            "properties": {
                "isced:level": "1;2",
                "ref:rspo": 55982,
                "official_name": "Szko\u0142a Podstawowa im.batalion\u00f3w Ch\u0142opskich",
                "name": "Szko\u0142a Podstawowa im.batalion\u00f3w Ch\u0142opskich",
                "addr:country": "PL",
                "addr:postcode": "34-643",
                "addr:place": "Chysz\u00f3wki",
                "addr:housenumber": "130",
                "addr:teryt:sym_ul": 422942,
                "contact:phone": "+48 183332189",
                "contact:email": "szkola.chyszowki@interia.pl",
                "contact:website": "http:\/\/www.spchyszowki.gminadobra.pl",
                "ref:regon": "490670867",
                "ref:vatin": "PL7371832916",
                "operator": "Gmina Dobra",
                "operator:type": "government",
                "amenity": "school"
            }
        },
        {
            "id": 53285,
            "type": "Feature",
            "geometry": {
                "type": "Point",
                "coordinates": [
                    20.2334,
                    49.68689
                ]
            },
            "properties": {
                "ref:rspo": 53285,
                "official_name": "Zesp\u00f3\u0142 Plac\u00f3wek O\u015bwiatowych w Jurkowie",
                "name": "Zesp\u00f3\u0142 Plac\u00f3wek O\u015bwiatowych w Jurkowie",
                "addr:country": "PL",
                "addr:postcode": "34-643",
                "addr:place": "Jurk\u00f3w",
                "addr:housenumber": "115",
                "addr:teryt:sym_ul": 423858,
                "contact:phone": "+48 183340020",
                "contact:email": "zpojurkow@szkola.wp.pl",
                "contact:website": "http:\/\/www.zpojurkow.gminadobra.pl",
                "ref:regon": "490670844",
                "ref:vatin": "PL7371832885",
                "operator": "Gmina Dobra",
                "operator:type": "government",
                "landuse": "education",
                "fixme": "amenity=school, amenity=college albo landuse=education w zale\u017cno\u015bci od tego, jakie plac\u00f3wki wchodz\u0105 w sk\u0142ad zespo\u0142u. Sprawd\u017a, kiedy stosowa\u0107 amenity=* a kiedy landuse=education.",
                "note": "Children RSPO: 66290;67796"
            }
        },
        {
            "id": 66290,
            "type": "Feature",
            "geometry": {
                "type": "Point",
                "coordinates": [
                    20.2334,
                    49.686859999999996
                ]
            },
            "properties": {
                "isced:level": "1;2",
                "ref:rspo": 66290,
                "official_name": "Szko\u0142a Podstawowa im. W\u0142adys\u0142awa Orkana w Jurkowie",
                "name": "Szko\u0142a Podstawowa",
                "addr:country": "PL",
                "addr:postcode": "34-643",
                "addr:place": "Jurk\u00f3w",
                "addr:housenumber": "115",
                "addr:teryt:sym_ul": 423858,
                "contact:phone": "+48 183340022",
                "contact:email": "zpojurkow@szkola.wp.pl",
                "contact:website": "http:\/\/www.zpojurkow.gminadobra.pl",
                "ref:regon": "492894861",
                "operator": "Gmina Dobra",
                "operator:type": "government",
                "amenity": "school",
                "note": "Children RSPO: 90574Parent RSPO: 53285"
            }
        },
        {
            "id": 67796,
            "type": "Feature",
            "geometry": {
                "type": "Point",
                "coordinates": [
                    20.2334,
                    49.68683
                ]
            },
            "properties": {
                "ref:rspo": 67796,
                "official_name": "Gminne Przedszkole w Jurkowie",
                "name": "Gminne Przedszkole w Jurkowie",
                "addr:country": "PL",
                "addr:postcode": "34-643",
                "addr:place": "Jurk\u00f3w",
                "addr:housenumber": "115",
                "addr:teryt:sym_ul": 423858,
                "contact:phone": "+48 183340020",
                "contact:email": "zpojurkow@szkola.wp.pl",
                "contact:website": "http:\/\/www.zpojurkow.gminadobra.pl",
                "ref:regon": "492894890",
                "operator": "Gmina Dobra",
                "operator:type": "government",
                "amenity": "kindergarten",
                "note": "Parent RSPO: 53285"
            }
        },
        {
            "id": 90570,
            "type": "Feature",
            "geometry": {
                "type": "Point",
                "coordinates": [
                    20.19171,
                    49.70221
                ]
            },
            "properties": {
                "isced:level": "1;2",
                "ref:rspo": 90570,
                "official_name": "Szko\u0142a Filialna w Gruszowcu",
                "name": "Szko\u0142a Filialna w Gruszowcu",
                "addr:country": "PL",
                "addr:postcode": "34-642",
                "addr:place": "Gruszowiec",
                "addr:housenumber": "31",
                "addr:teryt:sym_ul": 423700,
                "contact:phone": "+48 183330036",
                "ref:regon": "492894884",
                "operator": "Gmina Dobra",
                "operator:type": "government",
                "amenity": "school"
            }
        },
        {
            "id": 132375,
            "type": "Feature",
            "geometry": {
                "type": "Point",
                "coordinates": [
                    20.2451,
                    49.71405
                ]
            },
            "properties": {
                "ref:rspo": 132375,
                "official_name": "Niepubliczne Integracyjne Przedszkole Montessori im. \u015awi\u0119tej Rodziny w Dobrej",
                "name": "Niepubliczne Integracyjne Przedszkole Montessori",
                "addr:country": "PL",
                "addr:postcode": "34-642",
                "addr:place": "Dobra",
                "addr:housenumber": "361a",
                "addr:teryt:sym_ul": 423172,
                "contact:phone": "+48 608683227",
                "contact:email": "agniecha20@vp.pl",
                "ref:regon": "365572430",
                "operator": "Paulina Knapik",
                "operator:type": "private",
                "amenity": "kindergarten"
            }
        },
        {
            "id": 60221,
            "type": "Feature",
            "geometry": {
                "type": "Point",
                "coordinates": [
                    20.24449,
                    49.7158299
                ]
            },
            "properties": {
                "isced:level": "1;2",
                "ref:rspo": 60221,
                "official_name": "Szko\u0142a Podstawowa im. Leopolda W\u0119grzynowicza w Dobrej",
                "name": "Szko\u0142a Podstawowa",
                "addr:country": "PL",
                "addr:postcode": "34-642",
                "addr:place": "Dobra",
                "addr:housenumber": "1",
                "addr:teryt:sym_ul": 423172,
                "contact:phone": "+48 183330009",
                "contact:email": "spdobra1@gmail.com",
                "contact:website": "http:\/\/www.spdobra.gminadobra.pl",
                "ref:regon": "492894884",
                "operator": "Gmina Dobra",
                "operator:type": "government",
                "amenity": "school"
            }
        },
        {
            "id": 3082,
            "type": "Feature",
            "geometry": {
                "type": "Point",
                "coordinates": [
                    20.24606,
                    49.71584
                ]
            },
            "properties": {
                "ref:rspo": 3082,
                "official_name": "Szko\u0142a Muzyczna I Stopnia",
                "name": "Szko\u0142a Muzyczna I Stopnia",
                "addr:country": "PL",
                "addr:postcode": "34-642",
                "addr:place": "Dobra",
                "addr:housenumber": "490",
                "addr:teryt:sym_ul": 423172,
                "contact:phone": "+48 183330454",
                "contact:email": "smdobra490@gmail.com",
                "contact:website": "http:\/\/www.dobramuzyczna.pl",
                "ref:regon": "122633080",
                "ref:vatin": "PL7372201862",
                "operator": "Gmina Dobra",
                "operator:type": "government",
                "amenity": "music_school"
            }
        },
        {
            "id": 66288,
            "type": "Feature",
            "geometry": {
                "type": "Point",
                "coordinates": [
                    20.24606,
                    49.71581
                ]
            },
            "properties": {
                "ref:rspo": 66288,
                "official_name": "Gminne Przedszkole Nr 1 w Dobrej",
                "name": "Gminne Przedszkole Nr 1 w Dobrej",
                "addr:country": "PL",
                "addr:postcode": "34-642",
                "addr:place": "Dobra",
                "addr:housenumber": "490",
                "addr:teryt:sym_ul": 423172,
                "contact:phone": "+48 183330010",
                "contact:email": "przedszkole@gminadobra.pl",
                "contact:website": "http:\/\/www.przedszkole.gminadobra.pl",
                "ref:regon": "000971502",
                "ref:vatin": "PL7371832968",
                "operator": "Gmina Dobra",
                "operator:type": "government",
                "amenity": "kindergarten"
            }
        },
        {
            "id": 5770,
            "type": "Feature",
            "geometry": {
                "type": "Point",
                "coordinates": [
                    20.24934,
                    49.71981
                ]
            },
            "properties": {
                "ref:rspo": 5770,
                "official_name": "Specjalny O\u015brodek Szkolno - Wychowawczy w Dobrej im. Marii Konopnickiej",
                "name": "Specjalny O\u015brodek Szkolno - Wychowawczy w Dobrej",
                "addr:country": "PL",
                "addr:postcode": "34-642",
                "addr:place": "Dobra",
                "addr:housenumber": "364",
                "addr:teryt:sym_ul": 423172,
                "contact:phone": "+48 183330029",
                "contact:email": "soswdobra.dyr@gmail.com",
                "contact:website": "http:\/\/www.sosw-dobra.i1.com.pl",
                "ref:regon": "000195541",
                "ref:vatin": "PL7371217387",
                "operator": "Powiat Limanowski",
                "operator:type": "government",
                "amenity": "school",
                "note": "Children RSPO: 26588;26590;40813"
            }
        },
        {
            "id": 26588,
            "type": "Feature",
            "geometry": {
                "type": "Point",
                "coordinates": [
                    20.24934,
                    49.71978
                ]
            },
            "properties": {
                "isced:level": "1;2",
                "ref:rspo": 26588,
                "official_name": "Specjalny O\u015brodek Szkolno - Wychowawczy im. Marii Konopnickiej w Dobrej - O\u015bmioletnia Szko\u0142a Podstawowa Specjalna",
                "name": "Specjalny O\u015brodek Szkolno - Wychowawczy",
                "addr:country": "PL",
                "addr:postcode": "34-642",
                "addr:place": "Dobra",
                "addr:housenumber": "364",
                "addr:teryt:sym_ul": 423172,
                "contact:phone": "+48 183330029",
                "contact:email": "soswdobra.dyr@gmail.com",
                "contact:website": "http:\/\/www.sosw-dobra.i1.com.pl",
                "ref:regon": "492907026",
                "operator": "Powiat Limanowski",
                "operator:type": "government",
                "amenity": "school",
                "note": "Parent RSPO: 5770"
            }
        },
        {
            "id": 26590,
            "type": "Feature",
            "geometry": {
                "type": "Point",
                "coordinates": [
                    20.24934,
                    49.719750000000005
                ]
            },
            "properties": {
                "isced:level": "3",
                "ref:rspo": 26590,
                "official_name": "Specjalny O\u015brodek Szkolno - Wychowawczy im. Marii Konopnickiej w Dobrej - Bran\u017cowa Szko\u0142a I Stopnia",
                "name": "Specjalny O\u015brodek Szkolno - Wychowawczy",
                "addr:country": "PL",
                "addr:postcode": "34-642",
                "addr:place": "Dobra",
                "addr:housenumber": "364",
                "addr:teryt:sym_ul": 423172,
                "contact:phone": "+48 183330029",
                "contact:email": "soswdodra.dyr@gmail.com",
                "contact:website": "http:\/\/www.sosw-dobra.i1.com.pl",
                "ref:regon": "492907003",
                "operator": "Powiat Limanowski",
                "operator:type": "government",
                "amenity": "school",
                "note": "Parent RSPO: 5770"
            }
        },
        {
            "id": 40813,
            "type": "Feature",
            "geometry": {
                "type": "Point",
                "coordinates": [
                    20.24934,
                    49.71972
                ]
            },
            "properties": {
                "ref:rspo": 40813,
                "official_name": "Specjalny O\u015brodek Szkolno - Wychowawczy w Dobrej im. Marii Konopnickiej - Szko\u0142a Specjalna Przyspasabiaj\u0105ca Do Pracy",
                "name": "Specjalny O\u015brodek Szkolno - Wychowawczy w Dobrej",
                "addr:country": "PL",
                "addr:postcode": "34-642",
                "addr:place": "Dobra",
                "addr:housenumber": "364",
                "addr:teryt:sym_ul": 423172,
                "contact:phone": "+48 183330029",
                "contact:email": "soswdobra.dyr@gmail.com",
                "contact:website": "http:\/\/www.sosw-dobra.i1.com.pl",
                "ref:regon": "121324766",
                "operator": "Powiat Limanowski",
                "operator:type": "government",
                "amenity": "school",
                "note": "Parent RSPO: 5770"
            }
        },
        {
            "id": 26594,
            "type": "Feature",
            "geometry": {
                "type": "Point",
                "coordinates": [
                    20.24934,
                    49.71969
                ]
            },
            "properties": {
                "ref:rspo": 26594,
                "official_name": "Zesp\u00f3\u0142 Plac\u00f3wek O\u015bwiatowych w Limanowej - Szkolne Sezonowe Schronisko M\u0142odzie\u017cowe w Dobrej",
                "name": "Zesp\u00f3\u0142 Plac\u00f3wek O\u015bwiatowych w Limanowej - Szkolne Sezonowe Schronisko M\u0142odzie\u017cowe w Dobrej",
                "addr:country": "PL",
                "addr:postcode": "34-642",
                "addr:place": "Dobra",
                "addr:housenumber": "364",
                "addr:teryt:sym_ul": 423172,
                "contact:phone": "+48 183330123",
                "contact:email": "soswdobra.dyr@gmail.com",
                "ref:regon": "492910264",
                "operator": "Powiat Limanowski",
                "operator:type": "government",
                "tourism": "hostel",
                "note": "Parent RSPO: 8056"
            }
        },
        {
            "id": 90558,
            "type": "Feature",
            "geometry": {
                "type": "Point",
                "coordinates": [
                    20.21258,
                    49.7265
                ]
            },
            "properties": {
                "isced:level": "1;2",
                "ref:rspo": 90558,
                "official_name": "Szko\u0142a Filialna w Por\u0105bce",
                "name": "Szko\u0142a Filialna w Por\u0105bce",
                "addr:country": "PL",
                "addr:postcode": "34-642",
                "addr:place": "Por\u0105bka",
                "addr:housenumber": "112",
                "addr:teryt:sym_ul": 424065,
                "contact:phone": "+48 183330028",
                "ref:regon": "492894884",
                "operator": "Gmina Dobra",
                "operator:type": "government",
                "amenity": "school"
            }
        },
        {
            "id": 278392,
            "type": "Feature",
            "geometry": {
                "type": "Point",
                "coordinates": [
                    20.21258,
                    49.72647
                ]
            },
            "properties": {
                "isced:level": "1;2",
                "ref:rspo": 278392,
                "official_name": "Szko\u0142a Podstawowa Montessori im.\u015bw. Antoniego",
                "name": "Szko\u0142a Podstawowa Montessori im.\u015bw. Antoniego",
                "addr:country": "PL",
                "addr:postcode": "34-642",
                "addr:place": "Por\u0105bka",
                "addr:housenumber": "112",
                "addr:teryt:sym_ul": 424065,
                "contact:email": "szkola.m.montessori@gmail.com",
                "ref:regon": "389879261",
                "operator": "Paulina Knapik",
                "operator:type": "private",
                "amenity": "school"
            }
        },
        {
            "id": 57594,
            "type": "Feature",
            "geometry": {
                "type": "Point",
                "coordinates": [
                    20.21311,
                    49.75026
                ]
            },
            "properties": {
                "isced:level": "1;2",
                "ref:rspo": 57594,
                "official_name": "Szko\u0142a Podstawowa im. Stanis\u0142awa Wyspia\u0144skiego",
                "name": "Szko\u0142a Podstawowa",
                "addr:country": "PL",
                "addr:postcode": "34-625",
                "addr:place": "Str\u00f3\u017ca",
                "addr:housenumber": "1",
                "addr:teryt:sym_ul": 424757,
                "contact:phone": "+48 183331545",
                "contact:email": "dyrstroza@wp.pl",
                "contact:website": "http:\/\/www.spstroza.interia.pl",
                "ref:regon": "490670815",
                "ref:vatin": "PL7371696123",
                "operator": "Gmina Dobra",
                "operator:type": "government",
                "amenity": "school"
            }
        },
        {
            "id": 53374,
            "type": "Feature",
            "geometry": {
                "type": "Point",
                "coordinates": [
                    20.17617,
                    49.7521
                ]
            },
            "properties": {
                "ref:rspo": 53374,
                "official_name": "Zesp\u00f3\u0142 Plac\u00f3wek O\u015bwiatowych w Skrzydlnej",
                "name": "Zesp\u00f3\u0142 Plac\u00f3wek O\u015bwiatowych w Skrzydlnej",
                "addr:country": "PL",
                "addr:postcode": "34-625",
                "addr:place": "Skrzydlna",
                "addr:housenumber": "186",
                "addr:teryt:sym_ul": 424639,
                "contact:phone": "+48 183331006",
                "contact:email": "zposkrzydlna@gmail.cm",
                "contact:website": "http:\/\/www.skrzydlna.iap.pl",
                "ref:regon": "490670838",
                "ref:vatin": "PL7371832879",
                "operator": "Gmina Dobra",
                "operator:type": "government",
                "landuse": "education",
                "fixme": "amenity=school, amenity=college albo landuse=education w zale\u017cno\u015bci od tego, jakie plac\u00f3wki wchodz\u0105 w sk\u0142ad zespo\u0142u. Sprawd\u017a, kiedy stosowa\u0107 amenity=* a kiedy landuse=education.",
                "note": "Children RSPO: 68470;68531"
            }
        },
        {
            "id": 68470,
            "type": "Feature",
            "geometry": {
                "type": "Point",
                "coordinates": [
                    20.17617,
                    49.752069999999996
                ]
            },
            "properties": {
                "ref:rspo": 68470,
                "official_name": "Gminne Przedszkole w Zespole Plac\u00f3wek O\u015bwiatowych w Skrzydlnej",
                "name": "Gminne Przedszkole w Zespole Plac\u00f3wek O\u015bwiatowych w Skrzydlnej",
                "addr:country": "PL",
                "addr:postcode": "34-625",
                "addr:place": "Skrzydlna",
                "addr:housenumber": "186",
                "addr:teryt:sym_ul": 424639,
                "contact:phone": "+48 183331006",
                "contact:email": "dyrskrzydlna@dobra.iap.pl",
                "contact:website": "http:\/\/www.skrzydlna.iap.pl",
                "ref:regon": "492894938",
                "operator": "Gmina Dobra",
                "operator:type": "government",
                "amenity": "kindergarten",
                "note": "Parent RSPO: 53374"
            }
        },
        {
            "id": 68531,
            "type": "Feature",
            "geometry": {
                "type": "Point",
                "coordinates": [
                    20.17617,
                    49.75204
                ]
            },
            "properties": {
                "isced:level": "1;2",
                "ref:rspo": 68531,
                "official_name": "Szko\u0142a Podstawowa im. Jana Paw\u0142a II w Skrzydlnej",
                "name": "Szko\u0142a Podstawowa",
                "addr:country": "PL",
                "addr:postcode": "34-625",
                "addr:place": "Skrzydlna",
                "addr:housenumber": "186",
                "addr:teryt:sym_ul": 424639,
                "contact:phone": "+48 183331006",
                "contact:email": "zposkrzydlna@gmail.com",
                "contact:website": "http:\/\/www.skrzydlna.iap.pl",
                "ref:regon": "492894832",
                "operator": "Gmina Dobra",
                "operator:type": "government",
                "amenity": "school",
                "note": "Parent RSPO: 53374"
            }
        }
    ]
}