{"type":"FeatureCollection","features":[{"id":50346,"type":"Feature","geometry":{"type":"Point","coordinates":[20.51126,49.58041]},"properties":{"isced:level":"1;2","ref:rspo":50346,"official_name":"Szko\u0142a Podstawowa im.kazimierza Pu\u0142askiego w Jadamwoli","name":"Szko\u0142a Podstawowa im.kazimierza Pu\u0142askiego w Jadamwoli","addr:country":"PL","addr:postcode":"34-606","addr:place":"Jadamwola","addr:housenumber":"40","addr:teryt:sym_ul":448841,"contact:phone":"+48 183335073","contact:email":"sp.jadamwola@wp.pl","contact:website":"http:\/\/spjadamwola.pl","ref:regon":"490674138","ref:vatin":"PL7371833287","operator":"Gmina \u0141ukowica","operator:type":"government","amenity":"school"}},{"id":50348,"type":"Feature","geometry":{"type":"Point","coordinates":[20.53297,49.59314]},"properties":{"isced:level":"1;2","ref:rspo":50348,"official_name":"Szko\u0142a Podstawowa im.jana Kochanowskiego w \u015awidniku","name":"Szko\u0142a Podstawowa im.jana Kochanowskiego w \u015awidniku","addr:country":"PL","addr:postcode":"34-606","addr:place":"\u015awidnik","addr:housenumber":"22","addr:teryt:sym_ul":449639,"contact:phone":"+48 183335077","contact:email":"swidnikszkoladyr@op.pl","contact:website":"http:\/\/szkolaswidnik.edu.pl","ref:regon":"490674084","ref:vatin":"PL7371833152","operator":"Gmina \u0141ukowica","operator:type":"government","amenity":"school"}},{"id":50345,"type":"Feature","geometry":{"type":"Point","coordinates":[20.4715,49.59572]},"properties":{"isced:level":"1;2","ref:rspo":50345,"official_name":"Szko\u0142a Podstawowa im.henryka Sienkiewicza w Jastrz\u0119biu","name":"Szko\u0142a Podstawowa im.henryka Sienkiewicza w Jastrz\u0119biu","addr:country":"PL","addr:postcode":"34-606","addr:place":"Jastrz\u0119bie","addr:housenumber":"131","addr:teryt:sym_ul":448887,"contact:phone":"+48 183335254","contact:email":"sp_jastrzebie@op.pl","contact:website":"http:\/\/spjastrzebie.edupage.org","ref:regon":"490674150","ref:vatin":"PL7371833264","operator":"Gmina \u0141ukowica","operator:type":"government","amenity":"school"}},{"id":129932,"type":"Feature","geometry":{"type":"Point","coordinates":[20.5281612,49.5968238]},"properties":{"ref:rspo":129932,"official_name":"Niepubliczne Przedszkole J\u0119zykowo -Sportowe w \u015awidniku","name":"Niepubliczne Przedszkole J\u0119zykowo -Sportowe w \u015awidniku","addr:country":"PL","addr:postcode":"34-600","addr:place":"\u015awidnik","addr:housenumber":"93","addr:door":"93","addr:teryt:sym_ul":449639,"contact:phone":"+48 533511525","contact:email":"swidnikprzedszkole@gmail.com","ref:regon":"363132039","ref:vatin":"PL7372199562","operator":"Karolina Jod\u0142owska","operator:type":"private","amenity":"kindergarten"}},{"id":50352,"type":"Feature","geometry":{"type":"Point","coordinates":[20.4936,49.6039699]},"properties":{"ref:rspo":50352,"official_name":"Przedszkole Samorz\u0105dowe Mi\u015b Uszatek w \u0141ukowicy","name":"Przedszkole Samorz\u0105dowe Mi\u015b Uszatek w \u0141ukowicy","addr:country":"PL","addr:postcode":"34-606","addr:place":"\u0141ukowica","addr:housenumber":"348","addr:teryt:sym_ul":448953,"contact:phone":"+48 183335018","contact:email":"przedszkole348@interia.pl","contact:website":"http:\/\/www.ps.lukowica.przedszkolna.net","ref:regon":"000971235","ref:vatin":"PL7371871690","operator":"Gmina \u0141ukowica","operator:type":"government","amenity":"kindergarten"}},{"id":50342,"type":"Feature","geometry":{"type":"Point","coordinates":[20.49252,49.60442]},"properties":{"isced:level":"1;2","ref:rspo":50342,"official_name":"Szko\u0142a Podstawowa im.marii Sk\u0142odowskiej -Curie w \u0141ukowicy","name":"Szko\u0142a Podstawowa im.marii Sk\u0142odowskiej -Curie w \u0141ukowicy","addr:country":"PL","addr:postcode":"34-606","addr:place":"\u0141ukowica","addr:housenumber":"285","addr:teryt:sym_ul":448953,"contact:phone":"+48 183335012","contact:email":"splukowica@vp.pl","contact:website":"http:\/\/splukowica.edupage.org","ref:regon":"490674061","ref:vatin":"PL7371833206","operator":"Gmina \u0141ukowica","operator:type":"government","amenity":"school"}},{"id":124269,"type":"Feature","geometry":{"type":"Point","coordinates":[20.49237,49.60718]},"properties":{"ref:rspo":124269,"official_name":"Mali Odkrywcy Przedszkole Niepubliczne w \u0141ukowicy 34-606 \u0141ukowica 387","name":"Mali Odkrywcy Przedszkole Niepubliczne w \u0141ukowicy 34-606 \u0141ukowica 387","addr:country":"PL","addr:postcode":"34-606","addr:place":"\u0141ukowica","addr:housenumber":"387","addr:door":"387","addr:teryt:sym_ul":448953,"contact:phone":"+48 730143981","contact:email":"joanna.kurzeja93@gmail.com","ref:regon":"123191683","ref:vatin":"PL7371367939","operator":"Joanna Kurzeja","operator:type":"private","amenity":"kindergarten"}},{"id":50347,"type":"Feature","geometry":{"type":"Point","coordinates":[20.53892,49.60855]},"properties":{"isced:level":"1;2","ref:rspo":50347,"official_name":"Szko\u0142a Podstawowa im.adama Mickiewicza w Stroniu","name":"Szko\u0142a Podstawowa im.adama Mickiewicza w Stroniu","addr:country":"PL","addr:postcode":"34-604","addr:place":"Stronie","addr:housenumber":"2","addr:teryt:sym_ul":449496,"contact:phone":"+48 183336820","contact:email":"sp.stronie@wp.pl","contact:website":"http:\/\/szkolastronie.pl","ref:regon":"490674144","ref:vatin":"PL7371833212","operator":"Gmina \u0141ukowica","operator:type":"government","amenity":"school"}},{"id":103690,"type":"Feature","geometry":{"type":"Point","coordinates":[20.40823,49.62664]},"properties":{"isced:level":"1;2","ref:rspo":103690,"official_name":"Szko\u0142a Podstawowa im.miko\u0142aja Kopernika w M\u0142y\u0144czyskach","name":"Szko\u0142a Podstawowa im.miko\u0142aja Kopernika w M\u0142y\u0144czyskach","addr:country":"PL","addr:postcode":"34-606","addr:place":"M\u0142y\u0144czyska","addr:housenumber":"136","addr:door":"136","addr:teryt:sym_ul":449042,"contact:phone":"+48 183345009","contact:email":"sp.mlynczyska@interia.pl","contact:website":"http:\/\/www.spmlynczyska.pl","ref:regon":"490674078","ref:vatin":"PL7371833790","operator":"Gmina \u0141ukowica","operator:type":"government","amenity":"school"}},{"id":103691,"type":"Feature","geometry":{"type":"Point","coordinates":[20.43781,49.62794]},"properties":{"isced:level":"1;2","ref:rspo":103691,"official_name":"Szko\u0142a Podstawowa im.marii Konopnickiej w Roztoce","name":"Szko\u0142a Podstawowa im.marii Konopnickiej w Roztoce","addr:country":"PL","addr:postcode":"34-606","addr:place":"Roztoka","addr:housenumber":"165","addr:teryt:sym_ul":449361,"contact:phone":"+48 183335312","contact:email":"sproztoka@vp.pl","contact:website":"http:\/\/www.roztoka.edu.pl","ref:regon":"490674121","ref:vatin":"PL7371833270","operator":"Gmina \u0141ukowica","operator:type":"government","amenity":"school"}},{"id":103710,"type":"Feature","geometry":{"type":"Point","coordinates":[20.50496,49.63783]},"properties":{"isced:level":"1;2","ref:rspo":103710,"official_name":"Szko\u0142a Podstawowa Nr 1 im.marii Konopnickiej w Przyszowej","name":"Szko\u0142a Podstawowa Nr 1 im.marii Konopnickiej w Przyszowej","addr:country":"PL","addr:postcode":"34-604","addr:place":"Przyszowa","addr:housenumber":"484","addr:teryt:sym_ul":449190,"contact:phone":"+48 183336008","contact:email":"przyszowa@interia.pl","ref:regon":"490674090","ref:vatin":"PL7372124311","operator":"Gmina \u0141ukowica","operator:type":"government","amenity":"school"}},{"id":125544,"type":"Feature","geometry":{"type":"Point","coordinates":[20.50268,49.64062]},"properties":{"ref:rspo":125544,"official_name":"Niepubliczne Przedszkole Integracyjne\"Chatka Ma\u0142ego Skrzatka\"","name":"Niepubliczne Przedszkole Integracyjne\"Chatka Ma\u0142ego Skrzatka\"","addr:country":"PL","addr:postcode":"34-604","addr:place":"Przyszowa","addr:housenumber":"480","addr:teryt:sym_ul":449190,"contact:phone":"+48 602280814","contact:email":"boguslawadar@interia.pl","contact:website":"http:\/\/www.skrzatek.eu","ref:regon":"123224388","ref:vatin":"PL7371420378","operator":"Bogus\u0142awa Darowska","operator:type":"private","amenity":"kindergarten"}},{"id":271664,"type":"Feature","geometry":{"type":"Point","coordinates":[20.285755157471,49.678634643555]},"properties":{"ref:rspo":271664,"official_name":"Niepubliczne Przedszkole Z Oddzia\u0142ami Integracyjnymi im.\u015bw.jana Paw\u0142a II w \u0141ukowicy","name":"Niepubliczne Przedszkole Z Oddzia\u0142ami Integracyjnymi im.\u015bw.jana Paw\u0142a II w \u0141ukowicy","addr:country":"PL","addr:postcode":"34-606","addr:place":"\u0141ukowica","addr:housenumber":"612","addr:teryt:sym_ul":448953,"contact:phone":"+48 690127661","contact:email":"anna44@interia.pl","contact:website":"http:\/\/przedszkolelukowica.pl","ref:regon":"383506487","ref:vatin":"PL7372023449","operator":"Anna Trystu\u0142a","operator:type":"private","amenity":"kindergarten"}},{"id":50349,"type":"Feature","geometry":{"type":"Point","coordinates":[20.285753250122,49.678638458252]},"properties":{"isced:level":"1;2","ref:rspo":50349,"official_name":"Szko\u0142a Podstawowa Nr 2 Im Henryka Sienkiewicza w Przyszowej","name":"Szko\u0142a Podstawowa Nr 2 Im Henryka Sienkiewicza w Przyszowej","addr:country":"PL","addr:postcode":"34-604","addr:place":"Przyszowa","addr:housenumber":"34","addr:teryt:sym_ul":449190,"contact:phone":"+48 183336016","contact:email":"sp.przyszowa2@wp.pl","contact:website":"http:\/\/sp2przyszowa.malopolska.pl","ref:regon":"490674115","ref:vatin":"PL7371833123","operator":"Gmina \u0141ukowica","operator:type":"government","amenity":"school"}}]}