{
    "type": "FeatureCollection",
    "features": [
        {
            "id": 74659,
            "type": "Feature",
            "geometry": {
                "type": "Point",
                "coordinates": [
                    20.43547,
                    49.64937
                ]
            },
            "properties": {
                "isced:level": "1;2",
                "ref:rspo": 74659,
                "official_name": "Szko\u0142a Podstawowa Nr 2 im. Zygmunta Krasi\u0144skiego w Siekierczynie",
                "name": "Szko\u0142a Podstawowa Nr 2",
                "addr:country": "PL",
                "addr:postcode": "34-600",
                "addr:place": "Siekierczyna",
                "addr:housenumber": "326",
                "addr:teryt:simc": 440035,
                "contact:phone": "+48 183329897",
                "contact:email": "spnr2siekierczyna@neostrada.pl",
                "contact:website": "http:\/\/www.spnr2siekierczyna.pl",
                "ref:regon": "490673038",
                "ref:vatin": "PL7371838020",
                "operator": "Gmina Limanowa",
                "operator:type": "government",
                "amenity": "school"
            }
        },
        {
            "id": 56307,
            "type": "Feature",
            "geometry": {
                "type": "Point",
                "coordinates": [
                    20.53948,
                    49.6552
                ]
            },
            "properties": {
                "isced:level": "1;2",
                "ref:rspo": 56307,
                "official_name": "Szko\u0142a Podstawowa im. Kr\u00f3lowej Jadwigi w Wysokiem",
                "name": "Szko\u0142a Podstawowa",
                "addr:country": "PL",
                "addr:postcode": "34-600",
                "addr:place": "Wysokie",
                "addr:housenumber": "5",
                "addr:teryt:simc": 440696,
                "contact:phone": "+48 183345482",
                "contact:email": "szkolawysokie@wp.pl",
                "contact:website": "http:\/\/www.spwysokie.edupage.org",
                "ref:regon": "490673185",
                "ref:vatin": "PL7371837954",
                "operator": "Gmina Limanowa",
                "operator:type": "government",
                "amenity": "school"
            }
        },
        {
            "id": 60020,
            "type": "Feature",
            "geometry": {
                "type": "Point",
                "coordinates": [
                    20.50062,
                    49.6677
                ]
            },
            "properties": {
                "isced:level": "1;2",
                "ref:rspo": 60020,
                "official_name": "Szko\u0142a Podstawowa im. Juliana Tuwima w Kaninie",
                "name": "Szko\u0142a Podstawowa",
                "addr:country": "PL",
                "addr:postcode": "34-600",
                "addr:place": "Kanina",
                "addr:housenumber": "71",
                "addr:teryt:simc": 438417,
                "contact:phone": "+48 183345362",
                "contact:email": "szkola.kanina@onet.eu",
                "contact:website": "http:\/\/www.spkanina.edu.pl",
                "ref:regon": "490672990",
                "ref:vatin": "PL7371837960",
                "operator": "Gmina Limanowa",
                "operator:type": "government",
                "amenity": "school"
            }
        },
        {
            "id": 127044,
            "type": "Feature",
            "geometry": {
                "type": "Point",
                "coordinates": [
                    20.45348,
                    49.67433
                ]
            },
            "properties": {
                "ref:rspo": 127044,
                "official_name": "Przedszkole \"S\u0142oneczko\"",
                "name": "Przedszkole \"S\u0142oneczko\"",
                "addr:country": "PL",
                "addr:postcode": "34-600",
                "addr:place": "Siekierczyna",
                "addr:housenumber": "357",
                "addr:teryt:simc": 440035,
                "contact:phone": "+48 183376770",
                "contact:email": "midrew@poczta.fm",
                "ref:regon": "361055978",
                "ref:vatin": "PL7371246839",
                "operator": "Gra\u017cyna Michura",
                "operator:type": "private",
                "amenity": "kindergarten"
            }
        },
        {
            "id": 47324,
            "type": "Feature",
            "geometry": {
                "type": "Point",
                "coordinates": [
                    20.45933,
                    49.6749
                ]
            },
            "properties": {
                "isced:level": "1;2",
                "ref:rspo": 47324,
                "official_name": "Szko\u0142a Podstawowa Nr 1 im. Tadeusza Ko\u015bciuszki w Siekierczynie",
                "name": "Szko\u0142a Podstawowa Nr 1",
                "addr:country": "PL",
                "addr:postcode": "34-600",
                "addr:place": "Siekierczyna",
                "addr:housenumber": "31",
                "addr:teryt:simc": 440035,
                "contact:phone": "+48 183371351",
                "contact:email": "spnr1siekierczyna@gmail.com",
                "contact:website": "http:\/\/www.spnr1siekierczyna.fc.pl\/",
                "ref:regon": "490673044",
                "ref:vatin": "PL7371838014",
                "operator": "Gmina Limanowa",
                "operator:type": "government",
                "amenity": "school"
            }
        },
        {
            "id": 73706,
            "type": "Feature",
            "geometry": {
                "type": "Point",
                "coordinates": [
                    20.39675,
                    49.67574
                ]
            },
            "properties": {
                "isced:level": "1;2",
                "ref:rspo": 73706,
                "official_name": "Szko\u0142a Podstawowa Nr 1 im. Bohater\u00f3w Westerplatte w Starej Wsi.",
                "name": "Szko\u0142a Podstawowa Nr 1",
                "addr:country": "PL",
                "addr:postcode": "34-600",
                "addr:place": "Stara Wie\u015b",
                "addr:housenumber": "549",
                "addr:teryt:simc": 440325,
                "contact:phone": "+48 183329291",
                "contact:email": "stara_wies1@poczta.onet.pl",
                "contact:website": "http:\/\/www.spstarawies1.edupage.org",
                "ref:regon": "490672837",
                "ref:vatin": "PL7372201773",
                "operator": "Gmina Limanowa",
                "operator:type": "government",
                "amenity": "school"
            }
        },
        {
            "id": 123082,
            "type": "Feature",
            "geometry": {
                "type": "Point",
                "coordinates": [
                    20.54468,
                    49.67653
                ]
            },
            "properties": {
                "ref:rspo": 123082,
                "official_name": "Przedszkole Montessori w M\u0119cinie",
                "name": "Przedszkole Montessori w M\u0119cinie",
                "addr:country": "PL",
                "addr:postcode": "34-654",
                "addr:place": "M\u0119cina",
                "addr:housenumber": "275",
                "addr:door": "-",
                "addr:teryt:simc": 438825,
                "contact:phone": "+48 509413646",
                "contact:email": "przedszkole.ie.kubusia.puchatka@wp.pl",
                "ref:regon": "123120714",
                "ref:vatin": "PL5521421184",
                "operator": "Joanna Bartoszek-Wilgierz",
                "operator:type": "private",
                "amenity": "kindergarten"
            }
        },
        {
            "id": 75107,
            "type": "Feature",
            "geometry": {
                "type": "Point",
                "coordinates": [
                    20.55354,
                    49.67962
                ]
            },
            "properties": {
                "isced:level": "1;2",
                "ref:rspo": 75107,
                "official_name": "Szko\u0142a Podstawowa Nr 1 im. Jana Paw\u0142a II w M\u0119cinie",
                "name": "Szko\u0142a Podstawowa Nr 1",
                "addr:country": "PL",
                "addr:postcode": "34-654",
                "addr:place": "M\u0119cina",
                "addr:housenumber": "530",
                "addr:teryt:simc": 438825,
                "contact:phone": "+48 183327011",
                "contact:email": "szkola@sp1mecina.pl",
                "contact:website": "http:\/\/sp1mecina.pl",
                "ref:regon": "490511867",
                "ref:vatin": "PL7371933126",
                "operator": "Gmina Limanowa",
                "operator:type": "government",
                "amenity": "school"
            }
        },
        {
            "id": 74222,
            "type": "Feature",
            "geometry": {
                "type": "Point",
                "coordinates": [
                    20.42626,
                    49.67964
                ]
            },
            "properties": {
                "isced:level": "1;2",
                "ref:rspo": 74222,
                "official_name": "Szko\u0142a Podstawowa Nr 2 im. Stanis\u0142awa Konarskiego w Starej Wsi",
                "name": "Szko\u0142a Podstawowa Nr 2",
                "addr:country": "PL",
                "addr:postcode": "34-600",
                "addr:place": "Stara Wie\u015b",
                "addr:housenumber": "459",
                "addr:teryt:simc": 440325,
                "contact:phone": "+48 183329787",
                "contact:email": "zsz2_konarskiego@op.pl",
                "contact:website": "http:\/\/www.zs-starawies2.pl",
                "ref:regon": "490673140",
                "ref:vatin": "PL7371925948",
                "operator": "Gmina Limanowa",
                "operator:type": "government",
                "amenity": "school"
            }
        },
        {
            "id": 56162,
            "type": "Feature",
            "geometry": {
                "type": "Point",
                "coordinates": [
                    20.57225,
                    49.68653
                ]
            },
            "properties": {
                "isced:level": "1;2",
                "ref:rspo": 56162,
                "official_name": "Szko\u0142a Podstawowa im. Kr\u00f3lowej Korony Polskiej w K\u0142odnem",
                "name": "Szko\u0142a Podstawowa",
                "addr:country": "PL",
                "addr:postcode": "34-654",
                "addr:place": "K\u0142odne",
                "addr:housenumber": "144",
                "addr:teryt:simc": 438498,
                "contact:phone": "+48 183327006",
                "contact:email": "spklodne@wp.pl",
                "contact:website": "http:\/\/spklodne.szkolnastrona.pl",
                "ref:regon": "490673110",
                "ref:vatin": "PL7371837931",
                "operator": "Gmina Limanowa",
                "operator:type": "government",
                "amenity": "school"
            }
        },
        {
            "id": 268900,
            "type": "Feature",
            "geometry": {
                "type": "Point",
                "coordinates": [
                    20.4435,
                    49.68771
                ]
            },
            "properties": {
                "ref:rspo": 268900,
                "official_name": "Niepubliczne Przedszkole Integracyjne \"Chatka Ma\u0142ego Skrzatka\"",
                "name": "Niepubliczne Przedszkole Integracyjne \"Chatka Ma\u0142ego Skrzatka\"",
                "addr:country": "PL",
                "addr:postcode": "34-600",
                "addr:place": "Mordarka",
                "addr:housenumber": "755",
                "addr:teryt:simc": 439196,
                "contact:phone": "+48 602280814",
                "contact:email": "boguslawadar@interia.pl",
                "contact:website": "http:\/\/www.skrzatek.eu",
                "ref:regon": "381278094",
                "ref:vatin": "PL7371420378",
                "operator": "Bogus\u0142awa Darowska",
                "operator:type": "private",
                "amenity": "kindergarten"
            }
        },
        {
            "id": 73013,
            "type": "Feature",
            "geometry": {
                "type": "Point",
                "coordinates": [
                    20.50594,
                    49.68996
                ]
            },
            "properties": {
                "isced:level": "1;2",
                "ref:rspo": 73013,
                "official_name": "Szko\u0142a Podstawowa im. Ks. J\u00f3zefa G\u00f3rszczyka w Pisarzowej",
                "name": "Szko\u0142a Podstawowa",
                "addr:country": "PL",
                "addr:postcode": "34-654",
                "addr:place": "Pisarzowa",
                "addr:housenumber": "346",
                "addr:teryt:simc": 439530,
                "contact:phone": "+48 183328109",
                "contact:email": "szkola@pisarzowa.pl",
                "contact:website": "http:\/\/www.pisarzowa.pl",
                "ref:regon": "490672978",
                "ref:vatin": "PL7371927410",
                "operator": "Gmina Limanowa",
                "operator:type": "government",
                "amenity": "school"
            }
        },
        {
            "id": 275683,
            "type": "Feature",
            "geometry": {
                "type": "Point",
                "coordinates": [
                    20.46029,
                    49.6936899
                ]
            },
            "properties": {
                "isced:level": "1;2",
                "ref:rspo": 275683,
                "official_name": "Niepubliczna Szko\u0142a Podstawowa Specjalna \"Zielony Zak\u0105tek\" w Mordarce",
                "name": "Niepubliczna Szko\u0142a Podstawowa Specjalna \"Zielony Zak\u0105tek\" w Mordarce",
                "addr:country": "PL",
                "addr:postcode": "34-600",
                "addr:place": "Mordarka",
                "addr:housenumber": "680",
                "addr:teryt:simc": 439196,
                "contact:phone": "+48 602280814",
                "contact:email": "boguslawadar@interia.pl",
                "ref:regon": "386931765",
                "operator": "Fundacja Weso\u0142y Promyczek",
                "operator:type": "ngo",
                "amenity": "school"
            }
        },
        {
            "id": 29263,
            "type": "Feature",
            "geometry": {
                "type": "Point",
                "coordinates": [
                    20.46117,
                    49.6987499
                ]
            },
            "properties": {
                "isced:level": "1;2",
                "ref:rspo": 29263,
                "official_name": "Szko\u0142a Podstawowa im. Stanis\u0142awa Wyspia\u0144skiego w Mordarce",
                "name": "Szko\u0142a Podstawowa",
                "addr:country": "PL",
                "addr:postcode": "34-600",
                "addr:place": "Mordarka",
                "addr:housenumber": "204",
                "addr:teryt:simc": 439196,
                "contact:phone": "+48 183371230",
                "contact:email": "mordarkaszkola@op.pl",
                "contact:website": "http:\/\/www.spmordarka.pl",
                "ref:regon": "490672889",
                "ref:vatin": "PL7371925925",
                "operator": "Gmina Limanowa",
                "operator:type": "government",
                "amenity": "school"
            }
        },
        {
            "id": 74300,
            "type": "Feature",
            "geometry": {
                "type": "Point",
                "coordinates": [
                    20.5401,
                    49.7012799
                ]
            },
            "properties": {
                "isced:level": "1;2",
                "ref:rspo": 74300,
                "official_name": "Szko\u0142a Podstawowa Nr 2 im. Konstytucji 3-Go Maja w M\u0119cinie",
                "name": "Szko\u0142a Podstawowa Nr 2",
                "addr:country": "PL",
                "addr:postcode": "34-654",
                "addr:place": "M\u0119cina",
                "addr:housenumber": "504",
                "addr:teryt:simc": 438825,
                "contact:phone": "+48 183370721",
                "contact:email": "spmecina@interia.pl",
                "contact:website": "http:\/\/www.sp2mecina.pl\/",
                "ref:regon": "490673073",
                "ref:vatin": "PL7371871709",
                "operator": "Gmina Limanowa",
                "operator:type": "government",
                "amenity": "school"
            }
        },
        {
            "id": 75015,
            "type": "Feature",
            "geometry": {
                "type": "Point",
                "coordinates": [
                    20.4071399,
                    49.74786
                ]
            },
            "properties": {
                "isced:level": "1;2",
                "ref:rspo": 75015,
                "official_name": "Szko\u0142a Podstawowa w M\u0142ynnem",
                "name": "Szko\u0142a Podstawowa w M\u0142ynnem",
                "addr:country": "PL",
                "addr:postcode": "34-600",
                "addr:place": "M\u0142ynne",
                "addr:housenumber": "149",
                "addr:teryt:simc": 438995,
                "contact:phone": "+48 183376158",
                "contact:email": "spmlynne@vp.pl",
                "contact:website": "http:\/\/spmlynne.pl",
                "ref:regon": "490672926",
                "ref:vatin": "PL7371837977",
                "operator": "Gmina Limanowa",
                "operator:type": "government",
                "amenity": "school"
            }
        },
        {
            "id": 73796,
            "type": "Feature",
            "geometry": {
                "type": "Point",
                "coordinates": [
                    20.37982,
                    49.75813
                ]
            },
            "properties": {
                "isced:level": "1;2",
                "ref:rspo": 73796,
                "official_name": "Szko\u0142a Podstawowa im. W\u0142adys\u0142awa Reymonta w Pasierbcu",
                "name": "Szko\u0142a Podstawowa",
                "addr:country": "PL",
                "addr:postcode": "34-600",
                "addr:place": "Pasierbiec",
                "addr:housenumber": "108",
                "addr:teryt:simc": 439463,
                "contact:phone": "+48 183376278",
                "contact:email": "zspasierbiec@onet.eu",
                "contact:website": "http:\/\/www.zspasierbiec.neostrada.pl",
                "ref:regon": "490672910",
                "ref:vatin": "PL7371925919",
                "operator": "Gmina Limanowa",
                "operator:type": "government",
                "amenity": "school"
            }
        },
        {
            "id": 56021,
            "type": "Feature",
            "geometry": {
                "type": "Point",
                "coordinates": [
                    20.33592,
                    49.76451
                ]
            },
            "properties": {
                "isced:level": "1;2",
                "ref:rspo": 56021,
                "official_name": "Szko\u0142a Podstawowa im. Stanis\u0142awa Wyspia\u0144skiego w Rupniowie",
                "name": "Szko\u0142a Podstawowa",
                "addr:country": "PL",
                "addr:postcode": "34-652",
                "addr:place": "Rupni\u00f3w",
                "addr:housenumber": "206",
                "addr:teryt:simc": 439888,
                "contact:phone": "+48 183322356",
                "contact:email": "gimrup@wp.pl",
                "contact:website": "http:\/\/www.sprupniow.pl",
                "ref:regon": "490672850",
                "ref:vatin": "PL7371925888",
                "operator": "Gmina Limanowa",
                "operator:type": "government",
                "amenity": "school"
            }
        },
        {
            "id": 28196,
            "type": "Feature",
            "geometry": {
                "type": "Point",
                "coordinates": [
                    20.33221,
                    49.78584
                ]
            },
            "properties": {
                "isced:level": "1;2",
                "ref:rspo": 28196,
                "official_name": "Szko\u0142a Podstawowa im. Marii D\u0105browskiej w Nowym Rybiu",
                "name": "Szko\u0142a Podstawowa",
                "addr:country": "PL",
                "addr:postcode": "34-652",
                "addr:place": "Nowe Rybie",
                "addr:housenumber": "138",
                "addr:teryt:simc": 439351,
                "contact:phone": "+48 183322106",
                "contact:email": "spnowerybie@poczta.onet.pl",
                "contact:website": "http:\/\/www.spnowerybie.pl",
                "ref:regon": "490673015",
                "ref:vatin": "PL7371837983",
                "operator": "Gmina Limanowa",
                "operator:type": "government",
                "amenity": "school"
            }
        },
        {
            "id": 77920,
            "type": "Feature",
            "geometry": {
                "type": "Point",
                "coordinates": [
                    20.31764,
                    49.8081699
                ]
            },
            "properties": {
                "isced:level": "1;2",
                "ref:rspo": 77920,
                "official_name": "Szko\u0142a Podstawowa w Starym Rybiu",
                "name": "Szko\u0142a Podstawowa w Starym Rybiu",
                "addr:country": "PL",
                "addr:postcode": "34-652",
                "addr:place": "Stare Rybie",
                "addr:housenumber": "9",
                "addr:teryt:simc": 440621,
                "contact:phone": "+48 183322110",
                "contact:email": "starerybie@op.pl",
                "contact:website": "http:\/\/starerybie.000webhostapp.com",
                "ref:regon": "122709712",
                "ref:vatin": "PL7371988908",
                "operator": "Stowarzyszenie Na Rzecz Rozwoju Wsi Stare Rybie",
                "operator:type": "ngo",
                "amenity": "school"
            }
        }
    ]
}