{
    "type": "FeatureCollection",
    "features": [
        {
            "id": 27886,
            "type": "Feature",
            "geometry": {
                "type": "Point",
                "coordinates": [
                    20.06172,
                    49.6073
                ]
            },
            "properties": {
                "isced:level": "1;2",
                "ref:rspo": 27886,
                "official_name": "Szko\u0142a Podstawowa im.w\u0142adys\u0142awa Orkana w Por\u0119bie Wielkiej",
                "name": "Szko\u0142a Podstawowa im.w\u0142adys\u0142awa Orkana w Por\u0119bie Wielkiej",
                "addr:postcode": "34-735",
                "addr:place": "Por\u0119ba Wielka",
                "addr:housenumber": "222",
                "addr:teryt:simc": 456651,
                "phone": "+48 183317012",
                "email": "porebawielkaszkola@op.pl",
                "ref:regon": "490674500",
                "ref:vatin": "PL7371951822",
                "operator": "Gmina Nied\u017awied\u017a",
                "operator:type": "government",
                "amenity": "school"
            }
        },
        {
            "id": 27984,
            "type": "Feature",
            "geometry": {
                "type": "Point",
                "coordinates": [
                    20.06278,
                    49.60788
                ]
            },
            "properties": {
                "ref:rspo": 27984,
                "official_name": "Przedszkole Samorz\u0105dowe w Por\u0119bie Wielkiej",
                "name": "Przedszkole Samorz\u0105dowe w Por\u0119bie Wielkiej",
                "addr:postcode": "34-735",
                "addr:place": "Por\u0119ba Wielka",
                "addr:housenumber": "202",
                "addr:teryt:simc": 456651,
                "phone": "+48 183317102",
                "email": "samorzadoweprzedszkole.porebawielka@neostrada.pl",
                "ref:regon": "000971442",
                "ref:vatin": "PL7371834594",
                "operator": "Gmina Nied\u017awied\u017a",
                "operator:type": "government",
                "amenity": "kindergarten"
            }
        },
        {
            "id": 22203,
            "type": "Feature",
            "geometry": {
                "type": "Point",
                "coordinates": [
                    20.1232599,
                    49.61253
                ]
            },
            "properties": {
                "ref:rspo": 22203,
                "official_name": "Zesp\u00f3\u0142 Plac\u00f3wek O\u015bwiatowych im.katarzyny Smreczy\u0144skiej w Koninie",
                "name": "Zesp\u00f3\u0142 Plac\u00f3wek O\u015bwiatowych im.katarzyny Smreczy\u0144skiej w Koninie",
                "addr:postcode": "34-735",
                "addr:place": "Konina",
                "addr:housenumber": "211",
                "addr:teryt:simc": 455893,
                "phone": "+48 183317015",
                "email": "zpokonina@interia.pl",
                "website": "http:\/\/www.konina.niedzwiedz.pl",
                "ref:regon": "490674523",
                "ref:vatin": "PL7371834625",
                "operator": "Gmina Nied\u017awied\u017a",
                "operator:type": "government",
                "landuse": "education",
                "fixme": "amenity=school, amenity=college albo landuse=education w zale\u017cno\u015bci od tego, jakie plac\u00f3wki wchodz\u0105 w sk\u0142ad zespo\u0142u. Sprawd\u017a, kiedy stosowa\u0107 amenity=* a kiedy landuse=education.",
                "note": "Children RSPO: 26822;26922"
            }
        },
        {
            "id": 26822,
            "type": "Feature",
            "geometry": {
                "type": "Point",
                "coordinates": [
                    20.1232599,
                    49.6125
                ]
            },
            "properties": {
                "isced:level": "1;2",
                "ref:rspo": 26822,
                "official_name": "Zesp\u00f3\u0142 Plac\u00f3wek O\u015bwiatowych im.katarzyny Smreczy\u0144skiej w Koninie-Szko\u0142a Podstawowa",
                "name": "Zesp\u00f3\u0142 Plac\u00f3wek O\u015bwiatowych im.katarzyny Smreczy\u0144skiej w Koninie-Szko\u0142a Podstawowa",
                "addr:postcode": "34-735",
                "addr:place": "Konina",
                "addr:housenumber": "211",
                "addr:teryt:simc": 455893,
                "phone": "+48 183317015",
                "email": "zpokonina@interia.pl",
                "website": "http:\/\/www.konina.niedzwiedz.pl",
                "ref:regon": "492821508",
                "ref:vatin": "PL7371834625",
                "operator": "Gmina Nied\u017awied\u017a",
                "operator:type": "government",
                "amenity": "school",
                "note": "Parent RSPO: 22203"
            }
        },
        {
            "id": 26922,
            "type": "Feature",
            "geometry": {
                "type": "Point",
                "coordinates": [
                    20.1232599,
                    49.61247
                ]
            },
            "properties": {
                "ref:rspo": 26922,
                "official_name": "Zesp\u00f3\u0142 Plac\u00f3wek O\u015bwiatowych im.katarzyny Smreczy\u0144skiej Przedszkole Samorz\u0105dowe w Koninie",
                "name": "Zesp\u00f3\u0142 Plac\u00f3wek O\u015bwiatowych im.katarzyny Smreczy\u0144skiej Przedszkole Samorz\u0105dowe w Koninie",
                "addr:postcode": "34-735",
                "addr:place": "Konina",
                "addr:housenumber": "211",
                "addr:teryt:simc": 455893,
                "phone": "+48 183317015",
                "email": "zpokonina@interia.pl",
                "website": "http:\/\/www.konina.niedzwiedz.pl",
                "ref:regon": "492821514",
                "ref:vatin": "PL7371834625",
                "operator": "Gmina Nied\u017awied\u017a",
                "operator:type": "government",
                "amenity": "kindergarten",
                "note": "Parent RSPO: 22203"
            }
        },
        {
            "id": 26593,
            "type": "Feature",
            "geometry": {
                "type": "Point",
                "coordinates": [
                    20.07018,
                    49.61808
                ]
            },
            "properties": {
                "ref:rspo": 26593,
                "official_name": "Zesp\u00f3\u0142 Plac\u00f3wek O\u015bwiatowych w Limanowej - Szkolne Sezonowe Schronisko M\u0142odzie\u017cowe w Por\u0119bie Wielkiej",
                "name": "Zesp\u00f3\u0142 Plac\u00f3wek O\u015bwiatowych w Limanowej - Szkolne Sezonowe Schronisko M\u0142odzie\u017cowe w Por\u0119bie Wielkiej",
                "addr:postcode": "34-735",
                "addr:place": "Por\u0119ba Wielka",
                "addr:housenumber": "293",
                "addr:teryt:simc": 456651,
                "phone": "+48 183317006",
                "email": "dwdz@dwdz.pl",
                "website": "http:\/\/dwdz.pl",
                "ref:regon": "492906104",
                "operator": "Powiat Limanowski",
                "operator:type": "government",
                "tourism": "hostel",
                "note": "Parent RSPO: 8056"
            }
        },
        {
            "id": 7978,
            "type": "Feature",
            "geometry": {
                "type": "Point",
                "coordinates": [
                    20.07182,
                    49.61824
                ]
            },
            "properties": {
                "ref:rspo": 7978,
                "official_name": "Dom Wczas\u00f3w Dzieci\u0119cych w Por\u0119bie Wielkiej",
                "name": "Dom Wczas\u00f3w Dzieci\u0119cych w Por\u0119bie Wielkiej",
                "addr:postcode": "34-735",
                "addr:place": "Por\u0119ba Wielka",
                "addr:housenumber": "205",
                "addr:teryt:simc": 456651,
                "phone": "+48 183317006",
                "email": "dwdz@dwdz.pl",
                "website": "http:\/\/dwdz.pl",
                "ref:regon": "000197103",
                "ref:vatin": "PL7371008821",
                "operator": "Powiat Limanowski",
                "operator:type": "government",
                "leisure": "resort"
            }
        },
        {
            "id": 119287,
            "type": "Feature",
            "geometry": {
                "type": "Point",
                "coordinates": [
                    20.0833,
                    49.62155
                ]
            },
            "properties": {
                "ref:rspo": 119287,
                "official_name": "Szko\u0142a Muzyczna I-Go Stopnia w Nied\u017awiedziu",
                "name": "Szko\u0142a Muzyczna I-Go Stopnia w Nied\u017awiedziu",
                "addr:postcode": "34-735",
                "addr:place": "Nied\u017awied\u017a",
                "addr:housenumber": "130",
                "addr:teryt:simc": 456190,
                "phone": "+48 733311222",
                "email": "sm1st_niedzwiedz@interia.pl",
                "website": "http:\/\/szkola-muzyczna.eu\/",
                "ref:regon": "122933409",
                "operator": "Gmina Nied\u017awied\u017a",
                "operator:type": "government",
                "amenity": "music_school"
            }
        },
        {
            "id": 278378,
            "type": "Feature",
            "geometry": {
                "type": "Point",
                "coordinates": [
                    20.08089,
                    49.62172
                ]
            },
            "properties": {
                "ref:rspo": 278378,
                "official_name": "Prywatne Przedszkole Marzymisie",
                "name": "Prywatne Przedszkole Marzymisie",
                "addr:postcode": "34-735",
                "addr:place": "Nied\u017awied\u017a",
                "addr:housenumber": "368",
                "addr:teryt:simc": 456190,
                "email": "marzymisieprzedszkole@gmail.com",
                "ref:regon": "389871495",
                "operator": "Renata Kuczaj-Tomala",
                "operator:type": "private",
                "amenity": "kindergarten"
            }
        },
        {
            "id": 27731,
            "type": "Feature",
            "geometry": {
                "type": "Point",
                "coordinates": [
                    20.08289,
                    49.62398
                ]
            },
            "properties": {
                "ref:rspo": 27731,
                "official_name": "Samorz\u0105dowe Przedszkole w Nied\u017awiedziu",
                "name": "Samorz\u0105dowe Przedszkole w Nied\u017awiedziu",
                "addr:postcode": "34-735",
                "addr:place": "Nied\u017awied\u017a",
                "addr:housenumber": "243",
                "addr:teryt:simc": 456190,
                "phone": "+48 183317083",
                "email": "przedszkolewniedzwiedziu@wp.pl",
                "ref:regon": "492889392",
                "ref:vatin": "PL7371936320",
                "operator": "Gmina Nied\u017awied\u017a",
                "operator:type": "government",
                "amenity": "kindergarten"
            }
        },
        {
            "id": 27007,
            "type": "Feature",
            "geometry": {
                "type": "Point",
                "coordinates": [
                    20.08365,
                    49.62459
                ]
            },
            "properties": {
                "isced:level": "1;2",
                "ref:rspo": 27007,
                "official_name": "Szko\u0142a Podstawowa im. W\u0142adys\u0142awa Orkana w Nied\u017awiedziu",
                "name": "Szko\u0142a Podstawowa",
                "addr:postcode": "34-735",
                "addr:place": "Nied\u017awied\u017a",
                "addr:housenumber": "131",
                "addr:teryt:simc": 456190,
                "phone": "+48 183317024",
                "email": "jdudzik.sp@gmail.com",
                "website": "http:\/\/spniedzwiedz.edupage.org",
                "ref:regon": "490674517",
                "ref:vatin": "PL7371925902",
                "operator": "Gmina Nied\u017awied\u017a",
                "operator:type": "government",
                "amenity": "school"
            }
        },
        {
            "id": 23026,
            "type": "Feature",
            "geometry": {
                "type": "Point",
                "coordinates": [
                    20.08213,
                    49.6355
                ]
            },
            "properties": {
                "ref:rspo": 23026,
                "official_name": "Zesp\u00f3\u0142 Plac\u00f3wek O\u015bwiatowych im.jana Paw\u0142a II w Podobinie",
                "name": "Zesp\u00f3\u0142 Plac\u00f3wek O\u015bwiatowych im.jana Paw\u0142a II w Podobinie",
                "addr:postcode": "34-735",
                "addr:place": "Podobin",
                "addr:housenumber": "257",
                "addr:teryt:simc": 456390,
                "phone": "+48 183317018",
                "email": "zpo.podobin@interia.eu",
                "website": "http:\/\/www.zpopodobin.niedzwiedz.pl",
                "ref:regon": "490674530",
                "ref:vatin": "PL7371834648",
                "operator": "Gmina Nied\u017awied\u017a",
                "operator:type": "government",
                "landuse": "education",
                "fixme": "amenity=school, amenity=college albo landuse=education w zale\u017cno\u015bci od tego, jakie plac\u00f3wki wchodz\u0105 w sk\u0142ad zespo\u0142u. Sprawd\u017a, kiedy stosowa\u0107 amenity=* a kiedy landuse=education.",
                "note": "Children RSPO: 27638;64712"
            }
        },
        {
            "id": 27638,
            "type": "Feature",
            "geometry": {
                "type": "Point",
                "coordinates": [
                    20.08213,
                    49.63547
                ]
            },
            "properties": {
                "ref:rspo": 27638,
                "official_name": "Zesp\u00f3\u0142 Plac\u00f3wek O\u015bwiatowych im.jana Paw\u0142a II-Samorz\u0105dowe Przedszkole w Podobinie",
                "name": "Zesp\u00f3\u0142 Plac\u00f3wek O\u015bwiatowych im.jana Paw\u0142a II-Samorz\u0105dowe Przedszkole w Podobinie",
                "addr:postcode": "34-735",
                "addr:place": "Podobin",
                "addr:housenumber": "257",
                "addr:teryt:simc": 456390,
                "phone": "+48 183317018",
                "email": "zpo.podobin@interia.eu",
                "ref:regon": "492820472",
                "ref:vatin": "PL7371834648",
                "operator": "Gmina Nied\u017awied\u017a",
                "operator:type": "government",
                "amenity": "kindergarten",
                "note": "Parent RSPO: 23026"
            }
        },
        {
            "id": 64712,
            "type": "Feature",
            "geometry": {
                "type": "Point",
                "coordinates": [
                    20.08213,
                    49.63544
                ]
            },
            "properties": {
                "isced:level": "1;2",
                "ref:rspo": 64712,
                "official_name": "Zesp\u00f3\u0142 Plac\u00f3wek O\u015bwiatowych im.jana Paw\u0142a II-Szko\u0142a Podstawowa w Podobinie",
                "name": "Zesp\u00f3\u0142 Plac\u00f3wek O\u015bwiatowych im.jana Paw\u0142a II-Szko\u0142a Podstawowa w Podobinie",
                "addr:postcode": "34-735",
                "addr:place": "Podobin",
                "addr:housenumber": "257",
                "addr:teryt:simc": 456390,
                "phone": "+48 183317018",
                "email": "zpo.podobin@interia.eu",
                "ref:regon": "492820450",
                "ref:vatin": "PL7371834648",
                "operator": "Gmina Nied\u017awied\u017a",
                "operator:type": "government",
                "amenity": "school",
                "note": "Parent RSPO: 23026"
            }
        }
    ]
}