{
    "type": "FeatureCollection",
    "features": [
        {
            "id": 86039,
            "type": "Feature",
            "geometry": {
                "type": "Point",
                "coordinates": [
                    20.55743,
                    49.7462
                ]
            },
            "properties": {
                "ref:rspo": 86039,
                "official_name": "Przedszkole Niepubliczne Siostry S\u0142u\u017cebniczki Nmp Np Pw. \u015aw.teresy Ujanowice",
                "name": "Przedszkole Niepubliczne Siostry S\u0142u\u017cebniczki Nmp Np Pw. \u015aw.teresy Ujanowice",
                "addr:postcode": "34-603",
                "addr:place": "Ujanowice",
                "addr:housenumber": "15",
                "addr:city:simc": 438216,
                "phone": "+48 183334166",
                "ref:regon": "122712750",
                "ref:vatin": "PL7371925871",
                "operator": "Zgromadzenie Si\u00f3str S\u0142u\u017cebniczek Naj\u015bwi\u0119tszej Maryi Panny Niepokalanie Pocz\u0119tej Prowincja Tarnowska",
                "operator:type": "religious",
                "amenity": "kindergarten"
            }
        },
        {
            "id": 270411,
            "type": "Feature",
            "geometry": {
                "type": "Point",
                "coordinates": [
                    20.55614,
                    49.74684
                ]
            },
            "properties": {
                "ref:rspo": 270411,
                "official_name": "Przedszkole \"Weso\u0142e Krasnoludki\"",
                "name": "Przedszkole \"Weso\u0142e Krasnoludki\"",
                "addr:postcode": "34-603",
                "addr:place": "Ujanowice",
                "addr:housenumber": "18",
                "addr:city:simc": 438216,
                "phone": "+48 183376770",
                "email": "midrew@poczta.fm",
                "website": "http:\/\/www.przedszkolesloneczko.com.pl",
                "ref:regon": "382546059",
                "ref:vatin": "PL7371246839",
                "operator": "Gra\u017cyna Michura",
                "operator:type": "private",
                "amenity": "kindergarten"
            }
        },
        {
            "id": 263515,
            "type": "Feature",
            "geometry": {
                "type": "Point",
                "coordinates": [
                    20.55751,
                    49.74706
                ]
            },
            "properties": {
                "ref:rspo": 263515,
                "official_name": "Zesp\u00f3\u0142 Szkolno-Przedszkolny w Ujanowicach",
                "name": "Zesp\u00f3\u0142 Szkolno-Przedszkolny w Ujanowicach",
                "addr:postcode": "34-603",
                "addr:place": "Ujanowice",
                "addr:housenumber": "55",
                "addr:city:simc": 438216,
                "phone": "+48 183334011",
                "email": "gimujanowice@szkola.wp.pl",
                "website": "http:\/\/zsujanowice.edu.pl",
                "ref:regon": "368199700",
                "ref:vatin": "PL7372211286",
                "operator": "Gmina Laskowa",
                "operator:type": "government",
                "landuse": "education",
                "fixme": "amenity=school, amenity=college albo landuse=education w zale\u017cno\u015bci od tego, jakie plac\u00f3wki wchodz\u0105 w sk\u0142ad zespo\u0142u. Sprawd\u017a, kiedy stosowa\u0107 amenity=* a kiedy landuse=education.",
                "note": "Children RSPO: 83851;91976"
            }
        },
        {
            "id": 83851,
            "type": "Feature",
            "geometry": {
                "type": "Point",
                "coordinates": [
                    20.55751,
                    49.747029999999995
                ]
            },
            "properties": {
                "ref:rspo": 83851,
                "official_name": "Samorz\u0105dowe Przedszkole w Ujanowicach",
                "name": "Samorz\u0105dowe Przedszkole w Ujanowicach",
                "addr:postcode": "34-603",
                "addr:place": "Ujanowice",
                "addr:housenumber": "55",
                "addr:city:simc": 438216,
                "phone": "+48 183334002",
                "email": "samorzadowe.przedszkole1@neostrada.pl",
                "ref:regon": "492053067",
                "ref:vatin": "PL7372211286",
                "operator": "Gmina Laskowa",
                "operator:type": "government",
                "amenity": "kindergarten",
                "note": "Parent RSPO: 263515"
            }
        },
        {
            "id": 91976,
            "type": "Feature",
            "geometry": {
                "type": "Point",
                "coordinates": [
                    20.55751,
                    49.747
                ]
            },
            "properties": {
                "isced:level": "1;2",
                "ref:rspo": 91976,
                "official_name": "Szko\u0142a Podstawowa im. \u015awi\u0119tej Kingi w Ujanowicach",
                "name": "Szko\u0142a Podstawowa",
                "addr:postcode": "34-603",
                "addr:place": "Ujanowice",
                "addr:housenumber": "55",
                "addr:city:simc": 438216,
                "phone": "+48 183334011",
                "email": "gimujanowice@szkola.wp.pl",
                "website": "http:\/\/www.zsujanowice.edu.org",
                "ref:regon": "490672553",
                "ref:vatin": "PL7372211286",
                "operator": "Gmina Laskowa",
                "operator:type": "government",
                "amenity": "school",
                "note": "Parent RSPO: 263515"
            }
        },
        {
            "id": 83853,
            "type": "Feature",
            "geometry": {
                "type": "Point",
                "coordinates": [
                    20.51934,
                    49.74806
                ]
            },
            "properties": {
                "isced:level": "1;2",
                "ref:rspo": 83853,
                "official_name": "Szko\u0142a Podstawowa im. Tadeusza Ko\u015bciuszki w \u017bmi\u0105cej",
                "name": "Szko\u0142a Podstawowa",
                "addr:postcode": "34-603",
                "addr:place": "\u017bmi\u0105ca",
                "addr:housenumber": "128",
                "addr:city:simc": 438251,
                "phone": "+48 183334023",
                "email": "agatagren@gmail.com",
                "website": "http:\/\/spzmiaca.edupage.org",
                "ref:regon": "490672814",
                "ref:vatin": "PL7371832371",
                "operator": "Gmina Laskowa",
                "operator:type": "government",
                "amenity": "school"
            }
        },
        {
            "id": 83859,
            "type": "Feature",
            "geometry": {
                "type": "Point",
                "coordinates": [
                    20.49285,
                    49.7482
                ]
            },
            "properties": {
                "isced:level": "1;2",
                "ref:rspo": 83859,
                "official_name": "Szko\u0142a Podstawowa w Jaworznej",
                "name": "Szko\u0142a Podstawowa w Jaworznej",
                "addr:postcode": "34-602",
                "addr:place": "Jaworzna",
                "addr:housenumber": "111",
                "addr:city:simc": 437317,
                "phone": "+48 183345017",
                "email": "spjaworzna@onet.pl",
                "website": "http:\/\/spjaworzna.edupage.org",
                "ref:regon": "490672458",
                "ref:vatin": "PL7371831012",
                "operator": "Gmina Laskowa",
                "operator:type": "government",
                "amenity": "school"
            }
        },
        {
            "id": 83852,
            "type": "Feature",
            "geometry": {
                "type": "Point",
                "coordinates": [
                    20.45242,
                    49.75982
                ]
            },
            "properties": {
                "ref:rspo": 83852,
                "official_name": "Samorz\u0105dowe Przedszkole w Laskowej",
                "name": "Samorz\u0105dowe Przedszkole w Laskowej",
                "addr:postcode": "34-602",
                "addr:place": "Laskowa",
                "addr:housenumber": "417",
                "addr:city:simc": 437872,
                "phone": "+48 183333113",
                "email": "zslaskowa@zslaskowa.edu.pl",
                "ref:regon": "000971264",
                "ref:vatin": "PL7372211263",
                "operator": "Gmina Laskowa",
                "operator:type": "government",
                "amenity": "kindergarten",
                "note": "Parent RSPO: 263513"
            }
        },
        {
            "id": 263513,
            "type": "Feature",
            "geometry": {
                "type": "Point",
                "coordinates": [
                    20.44975,
                    49.7610699
                ]
            },
            "properties": {
                "ref:rspo": 263513,
                "official_name": "Zesp\u00f3\u0142 Szkolno-Przedszkolny w Laskowej",
                "name": "Zesp\u00f3\u0142 Szkolno-Przedszkolny w Laskowej",
                "addr:postcode": "34-602",
                "addr:place": "Laskowa",
                "addr:housenumber": "2",
                "addr:city:simc": 437872,
                "phone": "+48 183333010",
                "email": "zslaskowa@zslaskowa.edu.pl",
                "website": "http:\/\/www.zslaskowa.edu.pl",
                "ref:regon": "368199551",
                "ref:vatin": "PL7372211263",
                "operator": "Gmina Laskowa",
                "operator:type": "government",
                "landuse": "education",
                "fixme": "amenity=school, amenity=college albo landuse=education w zale\u017cno\u015bci od tego, jakie plac\u00f3wki wchodz\u0105 w sk\u0142ad zespo\u0142u. Sprawd\u017a, kiedy stosowa\u0107 amenity=* a kiedy landuse=education.",
                "note": "Children RSPO: 83852;90555"
            }
        },
        {
            "id": 90555,
            "type": "Feature",
            "geometry": {
                "type": "Point",
                "coordinates": [
                    20.44975,
                    49.7610399
                ]
            },
            "properties": {
                "isced:level": "1;2",
                "ref:rspo": 90555,
                "official_name": "Szko\u0142a Podstawowa im. Janusza Korczaka w Laskowej",
                "name": "Szko\u0142a Podstawowa",
                "addr:postcode": "34-602",
                "addr:place": "Laskowa",
                "addr:housenumber": "2",
                "addr:city:simc": 437872,
                "phone": "+48 183333010",
                "email": "zslaskowa@zslaskowa.edu.pl",
                "website": "http:\/\/www.zslaskowa.edu.pl",
                "ref:regon": "490672441",
                "ref:vatin": "PL7372211263",
                "operator": "Gmina Laskowa",
                "operator:type": "government",
                "amenity": "school",
                "note": "Parent RSPO: 263513"
            }
        },
        {
            "id": 127119,
            "type": "Feature",
            "geometry": {
                "type": "Point",
                "coordinates": [
                    20.4523588,
                    49.7629817
                ]
            },
            "properties": {
                "ref:rspo": 127119,
                "official_name": "Przedszkole Niepubliczne 'S\u0142oneczko'",
                "name": "Przedszkole Niepubliczne 'S\u0142oneczko'",
                "addr:postcode": "34-602",
                "addr:place": "Laskowa",
                "addr:housenumber": "639",
                "addr:city:simc": 437872,
                "phone": "+48 183376770",
                "email": "midrew@poczta.fm",
                "ref:regon": "361129040",
                "ref:vatin": "PL7371246839",
                "operator": "Gra\u017cyna Michura",
                "operator:type": "private",
                "amenity": "kindergarten"
            }
        },
        {
            "id": 83858,
            "type": "Feature",
            "geometry": {
                "type": "Point",
                "coordinates": [
                    20.55997,
                    49.76672
                ]
            },
            "properties": {
                "isced:level": "1;2",
                "ref:rspo": 83858,
                "official_name": "Szko\u0142a Podstawowa w Sechnej",
                "name": "Szko\u0142a Podstawowa w Sechnej",
                "addr:postcode": "34-603",
                "addr:place": "Sechna",
                "addr:housenumber": "140",
                "addr:city:simc": 438044,
                "phone": "+48 183334016",
                "email": "spsechna@poczta.onet.pl",
                "website": "http:\/\/spsechna.edupage.org",
                "ref:regon": "490672547",
                "ref:vatin": "PL7371832974",
                "operator": "Gmina Laskowa",
                "operator:type": "government",
                "amenity": "school"
            }
        },
        {
            "id": 83857,
            "type": "Feature",
            "geometry": {
                "type": "Point",
                "coordinates": [
                    20.52858,
                    49.77136
                ]
            },
            "properties": {
                "isced:level": "1;2",
                "ref:rspo": 83857,
                "official_name": "Szko\u0142a Podstawowa im. \u015awi\u0119tego J\u00f3zefa w Krosnej",
                "name": "Szko\u0142a Podstawowa",
                "addr:postcode": "34-603",
                "addr:place": "Krosna",
                "addr:housenumber": "109",
                "addr:city:simc": 437642,
                "phone": "+48 183339093",
                "email": "spkrosna@interia.eu",
                "website": "http:\/\/spkrosna.republika.pl",
                "ref:regon": "490672530",
                "ref:vatin": "PL7371832543",
                "operator": "Gmina Laskowa",
                "operator:type": "government",
                "amenity": "school"
            }
        },
        {
            "id": 86040,
            "type": "Feature",
            "geometry": {
                "type": "Point",
                "coordinates": [
                    20.52699,
                    49.77436
                ]
            },
            "properties": {
                "ref:rspo": 86040,
                "official_name": "Przedszkole Niepubliczne Zgromadzenia Si\u00f3str S\u0142u\u017cebniczek Nmp Np Pw. \u015aw. J\u00f3zefa Krosna",
                "name": "Przedszkole Niepubliczne Zgromadzenia Si\u00f3str S\u0142u\u017cebniczek Nmp Np Pw. \u015aw. J\u00f3zefa Krosna",
                "addr:postcode": "34-603",
                "addr:place": "Krosna",
                "addr:housenumber": "54",
                "addr:city:simc": 437642,
                "phone": "+48 183334105",
                "email": "ochronkakrosna@tlen.pl",
                "ref:regon": "122712743",
                "ref:vatin": "PL7371925865",
                "operator": "Zgromadzenie Si\u00f3str S\u0142u\u017cebniczek Naj\u015bwi\u0119tszej Maryi Panny Niepokalanie Pocz\u0119tej Prowincja Tarnowska",
                "operator:type": "religious",
                "amenity": "kindergarten"
            }
        },
        {
            "id": 68706,
            "type": "Feature",
            "geometry": {
                "type": "Point",
                "coordinates": [
                    20.50118,
                    49.78069
                ]
            },
            "properties": {
                "isced:level": "1;2",
                "ref:rspo": 68706,
                "official_name": "Szko\u0142a Podstawowa im. Jana Matejki w Kamionce Ma\u0142ej",
                "name": "Szko\u0142a Podstawowa",
                "addr:postcode": "34-602",
                "addr:place": "Kamionka Ma\u0142a",
                "addr:housenumber": "134",
                "addr:city:simc": 437398,
                "phone": "+48 183334679",
                "email": "spkamionkamala@op.pl",
                "website": "http:\/\/spkamionka.edupage.org\/",
                "ref:regon": "490672501",
                "ref:vatin": "PL7371833413",
                "operator": "Gmina Laskowa",
                "operator:type": "government",
                "amenity": "school"
            }
        }
    ]
}