{
    "type": "FeatureCollection",
    "features": [
        {
            "id": 55303,
            "type": "Feature",
            "geometry": {
                "type": "Point",
                "coordinates": [
                    18.87036,
                    50.13675
                ]
            },
            "properties": {
                "isced:level": "1;2",
                "ref:rspo": 55303,
                "official_name": "Szko\u0142a Podstawowa Nr 6 Z Oddzia\u0142ami Integracyjnymi im. Jana Paw\u0142a II w \u0141aziskach G\u00f3rnych",
                "name": "Szko\u0142a Podstawowa Nr 6 Z Oddzia\u0142ami Integracyjnymi",
                "addr:country": "PL",
                "addr:postcode": "43-173",
                "addr:city": "\u0141aziska G\u00f3rne",
                "addr:street": "Wyrska",
                "addr:housenumber": "4",
                "addr:teryt:simc": 25043,
                "addr:teryt:sym_ul": 941139,
                "contact:phone": "+48 322243246",
                "contact:email": "sekretariat@sp6.laziska.pl",
                "contact:website": "http:\/\/www.sp6.laziska.pl",
                "ref:regon": "001285967",
                "ref:vatin": "PL6351637097",
                "operator": "Miasto \u0141aziska G\u00f3rne",
                "operator:type": "government",
                "amenity": "school"
            }
        },
        {
            "id": 262294,
            "type": "Feature",
            "geometry": {
                "type": "Point",
                "coordinates": [
                    18.86648,
                    50.13967
                ]
            },
            "properties": {
                "isced:level": "1;2",
                "ref:rspo": 262294,
                "official_name": "Szko\u0142a Podstawowa Nr 4 im. Przyjaci\u00f3\u0142 Ziemi w \u0141aziskach G\u00f3rnych",
                "name": "Szko\u0142a Podstawowa Nr 4",
                "addr:country": "PL",
                "addr:postcode": "43-173",
                "addr:city": "\u0141aziska G\u00f3rne",
                "addr:street": "Powsta\u0144c\u00f3w",
                "addr:housenumber": "6",
                "addr:teryt:simc": 17354,
                "addr:teryt:sym_ul": 941139,
                "contact:phone": "+48 327370117",
                "contact:email": "szkola@sp4.laziska.pl",
                "contact:website": "http:\/\/www.sp4.laziska.pl",
                "ref:regon": "367993330",
                "ref:vatin": "PL6351843193",
                "operator": "Miasto \u0141aziska G\u00f3rne",
                "operator:type": "government",
                "amenity": "school"
            }
        },
        {
            "id": 115081,
            "type": "Feature",
            "geometry": {
                "type": "Point",
                "coordinates": [
                    18.83476,
                    50.14
                ]
            },
            "properties": {
                "isced:level": "1;2",
                "ref:rspo": 115081,
                "official_name": "Szko\u0142a Podstawowa Nr 2 im. Piast\u00f3w \u015aL\u0105skich w \u0141aziskach G\u00f3rnych",
                "name": "Szko\u0142a Podstawowa Nr 2",
                "addr:country": "PL",
                "addr:postcode": "43-170",
                "addr:city": "\u0141aziska G\u00f3rne",
                "addr:street": "Cieszy\u0144ska",
                "addr:housenumber": "12",
                "addr:teryt:simc": 3061,
                "addr:teryt:sym_ul": 941139,
                "contact:phone": "+48 322241012",
                "contact:email": "sekretariat@sp2.laziska.pl",
                "contact:website": "http:\/\/sp2laziska.szkolnastrona.pl",
                "ref:regon": "243291510",
                "ref:vatin": "PL6351049897",
                "operator": "Miasto \u0141aziska G\u00f3rne",
                "operator:type": "government",
                "amenity": "school"
            }
        },
        {
            "id": 55286,
            "type": "Feature",
            "geometry": {
                "type": "Point",
                "coordinates": [
                    18.87095,
                    50.14153
                ]
            },
            "properties": {
                "ref:rspo": 55286,
                "official_name": "Przedszkole Nr 6 im. Pod Topol\u0105 w \u0141aziskach G\u00f3rnych",
                "name": "Przedszkole Nr 6",
                "addr:country": "PL",
                "addr:postcode": "43-173",
                "addr:city": "\u0141aziska G\u00f3rne",
                "addr:street": "Kardyna\u0142a Stefana Wyszy\u0144skiego",
                "addr:housenumber": "27",
                "addr:teryt:simc": 25103,
                "addr:teryt:sym_ul": 941139,
                "contact:phone": "+48 322243356",
                "contact:email": "dyrektor@p6.laziska.pl",
                "contact:website": "http:\/\/www.p6laziska.edupage.org",
                "ref:regon": "272001589",
                "ref:vatin": "PL6351637045",
                "operator": "Miasto \u0141aziska G\u00f3rne",
                "operator:type": "government",
                "amenity": "kindergarten"
            }
        },
        {
            "id": 55287,
            "type": "Feature",
            "geometry": {
                "type": "Point",
                "coordinates": [
                    18.83395,
                    50.14341
                ]
            },
            "properties": {
                "ref:rspo": 55287,
                "official_name": "Przedszkole Nr 3 im. Przyjaci\u00f3\u0142 Przyrody w \u0141aziskach G\u00f3rnych",
                "name": "Przedszkole Nr 3",
                "addr:country": "PL",
                "addr:postcode": "43-170",
                "addr:city": "\u0141aziska G\u00f3rne",
                "addr:street": "Zielona",
                "addr:housenumber": "9",
                "addr:teryt:simc": 26081,
                "addr:teryt:sym_ul": 941139,
                "contact:phone": "+48 322241424",
                "contact:email": "dyrektor@p3.laziska.pl",
                "contact:website": "http:\/\/p3.laziska.pl",
                "ref:regon": "272001550",
                "ref:vatin": "PL6351637016",
                "operator": "Miasto \u0141aziska G\u00f3rne",
                "operator:type": "government",
                "amenity": "kindergarten"
            }
        },
        {
            "id": 55301,
            "type": "Feature",
            "geometry": {
                "type": "Point",
                "coordinates": [
                    18.84101,
                    50.15016
                ]
            },
            "properties": {
                "isced:level": "1;2",
                "ref:rspo": 55301,
                "official_name": "Szko\u0142a Podstawowa Nr 1 im. Ksi\u0119dza Pra\u0142ata Konrada Szwedy w \u0141aziskach G\u00f3rnych",
                "name": "Szko\u0142a Podstawowa Nr 1",
                "addr:country": "PL",
                "addr:postcode": "43-170",
                "addr:city": "\u0141aziska G\u00f3rne",
                "addr:street": "Dworcowa",
                "addr:housenumber": "4",
                "addr:teryt:simc": 4434,
                "addr:teryt:sym_ul": 941139,
                "contact:phone": "+48 322241044",
                "contact:email": "sekretariat@sp1.laziska.pl",
                "contact:website": "http:\/\/www.sp1.laziska.pl",
                "ref:regon": "000730218",
                "ref:vatin": "PL6351636904",
                "operator": "Miasto \u0141aziska G\u00f3rne",
                "operator:type": "government",
                "amenity": "school"
            }
        },
        {
            "id": 127955,
            "type": "Feature",
            "geometry": {
                "type": "Point",
                "coordinates": [
                    18.86827,
                    50.15133
                ]
            },
            "properties": {
                "ref:rspo": 127955,
                "official_name": "Niepubliczna Poradnia Psychologiczno - Pedagogiczna - Eureka",
                "name": "Niepubliczna Poradnia Psychologiczno - Pedagogiczna - Eureka",
                "addr:country": "PL",
                "addr:postcode": "43-173",
                "addr:city": "\u0141aziska G\u00f3rne",
                "addr:street": "Miko\u0142owska",
                "addr:housenumber": "2E",
                "addr:teryt:simc": 12898,
                "addr:teryt:sym_ul": 941139,
                "contact:phone": "+48 693755089",
                "contact:email": "kontakt@centrum-eureka.pl",
                "contact:website": "http:\/\/www.centrum-eureka.pl",
                "ref:regon": "361999314",
                "operator": "Eureka Centrum Diagnozy I Terapii Agnieszka Tch\u00f3rz - Dytko",
                "operator:type": "private",
                "healthcare": "counselling",
                "counselling_type": "education",
                "fixme": "w zale\u017cno\u015bci od przedmiotu dzia\u0142alno\u015bci (np. healthcare=counselling + counselling_type=education albo healthcare=psychotherapist)"
            }
        },
        {
            "id": 55290,
            "type": "Feature",
            "geometry": {
                "type": "Point",
                "coordinates": [
                    18.84057,
                    50.15191
                ]
            },
            "properties": {
                "ref:rspo": 55290,
                "official_name": "Przedszkole Nr 5 im. Przyjaci\u00f3\u0142 Bohater\u00f3w Bajek w \u0141aziskach G\u00f3rnych",
                "name": "Przedszkole Nr 5",
                "addr:country": "PL",
                "addr:postcode": "43-170",
                "addr:city": "\u0141aziska G\u00f3rne",
                "addr:street": "Fryderyka Chopina",
                "addr:housenumber": "1",
                "addr:teryt:simc": 2844,
                "addr:teryt:sym_ul": 941139,
                "contact:phone": "+48 322241039",
                "contact:email": "przedszkole@p5.laziska.pl",
                "contact:website": "http:\/\/www.p5.laziska.pl",
                "ref:regon": "272001572",
                "ref:vatin": "PL6351637039",
                "operator": "Miasto \u0141aziska G\u00f3rne",
                "operator:type": "government",
                "amenity": "kindergarten"
            }
        },
        {
            "id": 10583,
            "type": "Feature",
            "geometry": {
                "type": "Point",
                "coordinates": [
                    18.83847,
                    50.1526799
                ]
            },
            "properties": {
                "ref:rspo": 10583,
                "official_name": "Zesp\u00f3\u0142 Szk\u00f3\u0142 Energetycznych I Us\u0142ugowych w \u0141aziskach G\u00f3rnych",
                "name": "Zesp\u00f3\u0142 Szk\u00f3\u0142 Energetycznych I Us\u0142ugowych w \u0141aziskach G\u00f3rnych",
                "addr:country": "PL",
                "addr:postcode": "43-170",
                "addr:city": "\u0141aziska G\u00f3rne",
                "addr:street": "Fryderyka Chopina",
                "addr:housenumber": "11b",
                "addr:teryt:simc": 2844,
                "addr:teryt:sym_ul": 941139,
                "contact:phone": "+48 322242415",
                "contact:email": "sekretariat@zseiulaziska.pl",
                "contact:website": "http:\/\/www.zseiulaziska.pl",
                "ref:regon": "272752769",
                "operator": "Powiat Miko\u0142owski",
                "operator:type": "government",
                "landuse": "education",
                "fixme": "amenity=school, amenity=college albo landuse=education w zale\u017cno\u015bci od tego, jakie plac\u00f3wki wchodz\u0105 w sk\u0142ad zespo\u0142u. Sprawd\u017a, kiedy stosowa\u0107 amenity=* a kiedy landuse=education.",
                "note": "Children RSPO: 34972;34973;34976;275504"
            }
        },
        {
            "id": 34972,
            "type": "Feature",
            "geometry": {
                "type": "Point",
                "coordinates": [
                    18.83847,
                    50.1526499
                ]
            },
            "properties": {
                "isced:level": "3",
                "ref:rspo": 34972,
                "official_name": "Liceum Og\u00f3lnokszta\u0142c\u0105ce dla Doros\u0142ych w \u0141aziskach G\u00f3rnych",
                "name": "Liceum Og\u00f3lnokszta\u0142c\u0105ce dla Doros\u0142ych w \u0141aziskach G\u00f3rnych",
                "addr:country": "PL",
                "addr:postcode": "43-170",
                "addr:city": "\u0141aziska G\u00f3rne",
                "addr:street": "Fryderyka Chopina",
                "addr:housenumber": "11b",
                "addr:teryt:simc": 2844,
                "addr:teryt:sym_ul": 941139,
                "contact:phone": "+48 322242415",
                "contact:email": "zsplaziska@poczta.onet.pl",
                "contact:website": "http:\/\/zseiulaziska.pl",
                "ref:regon": "243069213",
                "operator": "Powiat Miko\u0142owski",
                "operator:type": "government",
                "amenity": "school",
                "note": "Parent RSPO: 10583"
            }
        },
        {
            "id": 34973,
            "type": "Feature",
            "geometry": {
                "type": "Point",
                "coordinates": [
                    18.83847,
                    50.152619900000005
                ]
            },
            "properties": {
                "isced:level": "3",
                "ref:rspo": 34973,
                "official_name": "Technikum Nr 1 w \u0141aziskach G\u00f3rnych",
                "name": "Technikum Nr 1 w \u0141aziskach G\u00f3rnych",
                "addr:country": "PL",
                "addr:postcode": "43-170",
                "addr:city": "\u0141aziska G\u00f3rne",
                "addr:street": "Fryderyka Chopina",
                "addr:housenumber": "11b",
                "addr:teryt:simc": 2844,
                "addr:teryt:sym_ul": 941139,
                "contact:phone": "+48 322242415",
                "contact:email": "zsplaziska@poczta.onet.pl",
                "contact:website": "http:\/\/zseiulaziska.pl",
                "ref:regon": "271590661",
                "ref:vatin": "PL6351576220",
                "operator": "Powiat Miko\u0142owski",
                "operator:type": "government",
                "amenity": "school",
                "note": "Parent RSPO: 10583"
            }
        },
        {
            "id": 34976,
            "type": "Feature",
            "geometry": {
                "type": "Point",
                "coordinates": [
                    18.83847,
                    50.1525899
                ]
            },
            "properties": {
                "isced:level": "3",
                "ref:rspo": 34976,
                "official_name": "Bran\u017cowa Szko\u0142a I Stopnia w \u0141aziskach G\u00f3rnych",
                "name": "Bran\u017cowa Szko\u0142a I Stopnia w \u0141aziskach G\u00f3rnych",
                "addr:country": "PL",
                "addr:postcode": "43-170",
                "addr:city": "\u0141aziska G\u00f3rne",
                "addr:street": "Fryderyka Chopina",
                "addr:housenumber": "11b",
                "addr:teryt:simc": 2844,
                "addr:teryt:sym_ul": 941139,
                "contact:phone": "+48 322242415",
                "contact:email": "zsplaziska@poczta.onet.pl",
                "contact:website": "http:\/\/zseiulaziska.pl",
                "ref:regon": "272714355",
                "ref:vatin": "PL6351576220",
                "operator": "Powiat Miko\u0142owski",
                "operator:type": "government",
                "amenity": "school",
                "note": "Parent RSPO: 10583"
            }
        },
        {
            "id": 275504,
            "type": "Feature",
            "geometry": {
                "type": "Point",
                "coordinates": [
                    18.83847,
                    50.1525599
                ]
            },
            "properties": {
                "isced:level": "3",
                "ref:rspo": 275504,
                "official_name": "Bran\u017cowa Szko\u0142a II Stopnia w \u0141aziskach G\u00f3rnych",
                "name": "Bran\u017cowa Szko\u0142a II Stopnia w \u0141aziskach G\u00f3rnych",
                "addr:country": "PL",
                "addr:postcode": "43-170",
                "addr:city": "\u0141aziska G\u00f3rne",
                "addr:street": "Fryderyka Chopina",
                "addr:housenumber": "11b",
                "addr:teryt:simc": 2844,
                "addr:teryt:sym_ul": 941139,
                "contact:phone": "+48 322242415",
                "contact:email": "sekretariat@zseiulaziska.pl",
                "contact:website": "http:\/\/www.zseiulaziska.pl",
                "ref:regon": "386921264",
                "operator": "Powiat Miko\u0142owski",
                "operator:type": "government",
                "amenity": "school",
                "note": "Parent RSPO: 10583"
            }
        },
        {
            "id": 262296,
            "type": "Feature",
            "geometry": {
                "type": "Point",
                "coordinates": [
                    18.84535,
                    50.15325
                ]
            },
            "properties": {
                "isced:level": "1;2",
                "ref:rspo": 262296,
                "official_name": "Szko\u0142a Podstawowa Nr 3 im. Miko\u0142aja Kopernika w \u0141aziskach G\u00f3rnych",
                "name": "Szko\u0142a Podstawowa Nr 3",
                "addr:country": "PL",
                "addr:postcode": "43-170",
                "addr:city": "\u0141aziska G\u00f3rne",
                "addr:street": "Ogrodowa",
                "addr:housenumber": "48",
                "addr:teryt:simc": 14834,
                "addr:teryt:sym_ul": 941139,
                "contact:phone": "+48 322241066",
                "contact:email": "sekretariat@sp3.laziska.pl",
                "contact:website": "http:\/\/www.sp3.laziska.pl",
                "ref:regon": "367993376",
                "ref:vatin": "PL6351843187",
                "operator": "Miasto \u0141aziska G\u00f3rne",
                "operator:type": "government",
                "amenity": "school"
            }
        },
        {
            "id": 55298,
            "type": "Feature",
            "geometry": {
                "type": "Point",
                "coordinates": [
                    18.87262,
                    50.15442
                ]
            },
            "properties": {
                "ref:rspo": 55298,
                "official_name": "Przedszkole Nr 2 Integracyjne w \u0141aziskach G\u00f3rnych",
                "name": "Przedszkole Nr 2 Integracyjne w \u0141aziskach G\u00f3rnych",
                "addr:country": "PL",
                "addr:postcode": "43-170",
                "addr:city": "\u0141aziska G\u00f3rne",
                "addr:street": "Miodowa",
                "addr:housenumber": "11",
                "addr:teryt:simc": 12991,
                "addr:teryt:sym_ul": 941139,
                "contact:phone": "+48 322241242",
                "contact:email": "dyrektor@p2.laziska.pl",
                "contact:website": "http:\/\/www.p2.laziska.pl",
                "ref:regon": "272001543",
                "ref:vatin": "PL6351636991",
                "operator": "Miasto \u0141aziska G\u00f3rne",
                "operator:type": "government",
                "amenity": "kindergarten"
            }
        },
        {
            "id": 55300,
            "type": "Feature",
            "geometry": {
                "type": "Point",
                "coordinates": [
                    18.87166,
                    50.15453
                ]
            },
            "properties": {
                "isced:level": "1;2",
                "ref:rspo": 55300,
                "official_name": "Szko\u0142a Podstawowa Nr 5 im. Powsta\u0144c\u00f3w \u015aL\u0105skich w \u0141aziskach G\u00f3rnych",
                "name": "Szko\u0142a Podstawowa Nr 5",
                "addr:country": "PL",
                "addr:postcode": "43-173",
                "addr:city": "\u0141aziska G\u00f3rne",
                "addr:street": "Szkolna",
                "addr:housenumber": "4",
                "addr:teryt:simc": 21970,
                "addr:teryt:sym_ul": 941139,
                "contact:phone": "+48 322241207",
                "contact:email": "sekretariat@sp5.laziska.pl",
                "contact:website": "http:\/\/www.sp5.laziska.pl",
                "ref:regon": "000730253",
                "ref:vatin": "PL6351637080",
                "operator": "Miasto \u0141aziska G\u00f3rne",
                "operator:type": "government",
                "amenity": "school"
            }
        },
        {
            "id": 55288,
            "type": "Feature",
            "geometry": {
                "type": "Point",
                "coordinates": [
                    18.8444499,
                    50.15595
                ]
            },
            "properties": {
                "ref:rspo": 55288,
                "official_name": "Przedszkole Nr 7 w \u0141aziskach G\u00f3rnych",
                "name": "Przedszkole Nr 7 w \u0141aziskach G\u00f3rnych",
                "addr:country": "PL",
                "addr:postcode": "43-170",
                "addr:city": "\u0141aziska G\u00f3rne",
                "addr:street": "Dworcowa",
                "addr:housenumber": "49",
                "addr:teryt:simc": 4434,
                "addr:teryt:sym_ul": 941139,
                "contact:phone": "+48 322241828",
                "contact:email": "dyrektor@p7.laziska.pl",
                "contact:website": "http:\/\/www.p7.laziska.pl",
                "ref:regon": "272001595",
                "ref:vatin": "PL6351637051",
                "operator": "Miasto \u0141aziska G\u00f3rne",
                "operator:type": "government",
                "amenity": "kindergarten"
            }
        },
        {
            "id": 55289,
            "type": "Feature",
            "geometry": {
                "type": "Point",
                "coordinates": [
                    18.8673,
                    50.15639
                ]
            },
            "properties": {
                "ref:rspo": 55289,
                "official_name": "Przedszkole Nr 4 im. Krainy U\u015bmiechu w \u0141aziskach G\u00f3rnych",
                "name": "Przedszkole Nr 4",
                "addr:country": "PL",
                "addr:postcode": "43-173",
                "addr:city": "\u0141aziska G\u00f3rne",
                "addr:street": "Mokierska",
                "addr:housenumber": "4",
                "addr:teryt:simc": 13208,
                "addr:teryt:sym_ul": 941139,
                "contact:phone": "+48 322243540",
                "contact:email": "dyrektor@p4.laziska.pl",
                "contact:website": "http:\/\/www.p4.laziska.pl",
                "ref:regon": "272001566",
                "ref:vatin": "PL6351637022",
                "operator": "Miasto \u0141aziska G\u00f3rne",
                "operator:type": "government",
                "amenity": "kindergarten"
            }
        },
        {
            "id": 35220,
            "type": "Feature",
            "geometry": {
                "type": "Point",
                "coordinates": [
                    18.8470799,
                    50.1625299
                ]
            },
            "properties": {
                "ref:rspo": 35220,
                "official_name": "Przedszkole Niepubliczne Kr\u00f3lestwo Maciusia w \u0141aziskach G\u00f3rnych",
                "name": "Przedszkole Niepubliczne Kr\u00f3lestwo Maciusia w \u0141aziskach G\u00f3rnych",
                "addr:country": "PL",
                "addr:postcode": "43-170",
                "addr:city": "\u0141aziska G\u00f3rne",
                "addr:street": "Le\u015bna",
                "addr:housenumber": "5",
                "addr:teryt:simc": 10898,
                "addr:teryt:sym_ul": 941139,
                "contact:phone": "+48 501660373",
                "contact:email": "biuro@nibylandia.slask.pl",
                "contact:website": "http:\/\/www.nibylandia.slask.pl",
                "ref:regon": "243069733",
                "ref:vatin": "PL6351589866",
                "operator": "Karolina Wodarz",
                "operator:type": "private",
                "amenity": "kindergarten"
            }
        }
    ]
}