{
    "type": "FeatureCollection",
    "features": [
        {
            "id": 44543,
            "type": "Feature",
            "geometry": {
                "type": "Point",
                "coordinates": [
                    18.83211,
                    50.08142
                ]
            },
            "properties": {
                "isced:level": "1;2",
                "ref:rspo": 44543,
                "official_name": "Szko\u0142a Podstawowa Nr 9 im.w\u0142adys\u0142awa Broniewskiego w Orzeszu-Zgoniu",
                "name": "Szko\u0142a Podstawowa Nr 9 im.w\u0142adys\u0142awa Broniewskiego w Orzeszu-Zgoniu",
                "addr:country": "PL",
                "addr:postcode": "43-186",
                "addr:city": "Orzesze",
                "addr:street": "ul. Kobi\u00f3rska",
                "addr:housenumber": "1",
                "addr:door": "-",
                "addr:teryt:simc": 8692,
                "addr:teryt:sym_ul": 941984,
                "contact:phone": "+48 322215725",
                "contact:email": "sp9orzesze@poczta.onet.pl",
                "ref:regon": "000730879",
                "ref:vatin": "PL6351636850",
                "operator": "Miasto Orzesze",
                "operator:type": "government",
                "amenity": "school"
            }
        },
        {
            "id": 38897,
            "type": "Feature",
            "geometry": {
                "type": "Point",
                "coordinates": [
                    18.81409,
                    50.09912
                ]
            },
            "properties": {
                "isced:level": "1;2",
                "ref:rspo": 38897,
                "official_name": "Szko\u0142a Podstawowa Nr 8 im.boles\u0142awa Chrobrego",
                "name": "Szko\u0142a Podstawowa Nr 8 im.boles\u0142awa Chrobrego",
                "addr:country": "PL",
                "addr:postcode": "43-180",
                "addr:city": "Orzesze",
                "addr:street": "ul. Boles\u0142awa Chrobrego",
                "addr:housenumber": "64",
                "addr:door": "-",
                "addr:teryt:simc": 1742,
                "addr:teryt:sym_ul": 941984,
                "contact:phone": "+48 322215724",
                "contact:email": "sekretariat@sp8.orzesze.pl",
                "contact:website": "http:\/\/sp8.orzesze.pl\/",
                "ref:regon": "000730862",
                "ref:vatin": "PL6351636844",
                "operator": "Miasto Orzesze",
                "operator:type": "government",
                "amenity": "school"
            }
        },
        {
            "id": 38892,
            "type": "Feature",
            "geometry": {
                "type": "Point",
                "coordinates": [
                    18.7602606,
                    50.1070576
                ]
            },
            "properties": {
                "isced:level": "1;2",
                "ref:rspo": 38892,
                "official_name": "Szko\u0142a Podstawowa Nr 5 im. Janusza Korczaka",
                "name": "Szko\u0142a Podstawowa Nr 5",
                "addr:country": "PL",
                "addr:postcode": "43-180",
                "addr:city": "Orzesze",
                "addr:street": "ul. \u017borska",
                "addr:housenumber": "101",
                "addr:door": "-",
                "addr:teryt:simc": 26520,
                "addr:teryt:sym_ul": 941984,
                "contact:phone": "+48 322215216",
                "contact:email": "sp5@orzesze.pl",
                "contact:website": "http:\/\/www.sp5.orzesze.pl",
                "ref:regon": "000730833",
                "ref:vatin": "PL6351636809",
                "operator": "Miasto Orzesze",
                "operator:type": "government",
                "amenity": "school"
            }
        },
        {
            "id": 133750,
            "type": "Feature",
            "geometry": {
                "type": "Point",
                "coordinates": [
                    18.79779,
                    50.1122
                ]
            },
            "properties": {
                "isced:level": "1;2",
                "ref:rspo": 133750,
                "official_name": "Szko\u0142a Podstawowa Nr 7 im. Henryka Sienkiewicza",
                "name": "Szko\u0142a Podstawowa Nr 7",
                "addr:country": "PL",
                "addr:postcode": "43-180",
                "addr:city": "Orzesze",
                "addr:street": "ul. Uczniowska",
                "addr:housenumber": "1",
                "addr:teryt:simc": 23299,
                "addr:teryt:sym_ul": 941984,
                "contact:phone": "+48 322215060",
                "contact:email": "sp7@orzesze.pl",
                "contact:website": "http:\/\/www.g3orzesze.cba.pl\/",
                "ref:regon": "367586116",
                "operator": "Miasto Orzesze",
                "operator:type": "government",
                "amenity": "school"
            }
        },
        {
            "id": 34313,
            "type": "Feature",
            "geometry": {
                "type": "Point",
                "coordinates": [
                    18.7967799,
                    50.113
                ]
            },
            "properties": {
                "ref:rspo": 34313,
                "official_name": "Przedszkole Nr 7",
                "name": "Przedszkole Nr 7",
                "addr:country": "PL",
                "addr:postcode": "43-180",
                "addr:city": "Orzesze",
                "addr:street": "ul. Mleczna",
                "addr:housenumber": "2",
                "addr:door": "-",
                "addr:teryt:simc": 13054,
                "addr:teryt:sym_ul": 941984,
                "contact:phone": "+48 322213101",
                "contact:email": "p7@orzesze.pl",
                "contact:website": "http:\/\/www.p7.orzesze.pl\/",
                "ref:regon": "272002070",
                "ref:vatin": "PL6351636726",
                "operator": "Miasto Orzesze",
                "operator:type": "government",
                "amenity": "kindergarten"
            }
        },
        {
            "id": 22883,
            "type": "Feature",
            "geometry": {
                "type": "Point",
                "coordinates": [
                    18.80931,
                    50.12154
                ]
            },
            "properties": {
                "ref:rspo": 22883,
                "official_name": "Zesp\u00f3\u0142 Szk\u00f3\u0142 Specjalnych Przy O\u015brodku Terapii Nerwic dla Dzieci I M\u0142odzie\u017cy w Orzeszu",
                "name": "Zesp\u00f3\u0142 Szk\u00f3\u0142 Specjalnych Przy O\u015brodku Terapii Nerwic dla Dzieci I M\u0142odzie\u017cy w Orzeszu",
                "addr:country": "PL",
                "addr:postcode": "43-187",
                "addr:city": "Orzesze",
                "addr:street": "ul. Miko\u0142owska",
                "addr:housenumber": "208",
                "addr:teryt:simc": 12898,
                "addr:teryt:sym_ul": 941984,
                "contact:phone": "+48 322211483",
                "contact:email": "zssorzesze@onet.pl",
                "ref:regon": "276608680",
                "ref:vatin": "PL6351608517",
                "operator": "Wojew\u00f3dztwo \u015al\u0105skie",
                "operator:type": "government",
                "landuse": "education",
                "fixme": "amenity=school, amenity=college albo landuse=education w zale\u017cno\u015bci od tego, jakie plac\u00f3wki wchodz\u0105 w sk\u0142ad zespo\u0142u. Sprawd\u017a, kiedy stosowa\u0107 amenity=* a kiedy landuse=education.",
                "note": "Children RSPO: 93145;118716"
            }
        },
        {
            "id": 93145,
            "type": "Feature",
            "geometry": {
                "type": "Point",
                "coordinates": [
                    18.80931,
                    50.12151
                ]
            },
            "properties": {
                "isced:level": "1;2",
                "ref:rspo": 93145,
                "official_name": "Szko\u0142a Podstawowa Specjalna Nr 11 w Orzeszu",
                "name": "Szko\u0142a Podstawowa Specjalna Nr 11 w Orzeszu",
                "addr:country": "PL",
                "addr:postcode": "43-187",
                "addr:city": "Orzesze",
                "addr:street": "ul. Miko\u0142owska",
                "addr:housenumber": "208",
                "addr:teryt:simc": 12898,
                "addr:teryt:sym_ul": 941984,
                "contact:phone": "+48 322211483",
                "contact:email": "zssorzesze@onet.pl",
                "ref:regon": "000836224",
                "operator": "Wojew\u00f3dztwo \u015al\u0105skie",
                "operator:type": "government",
                "amenity": "school",
                "note": "Parent RSPO: 22883"
            }
        },
        {
            "id": 118716,
            "type": "Feature",
            "geometry": {
                "type": "Point",
                "coordinates": [
                    18.80931,
                    50.121480000000005
                ]
            },
            "properties": {
                "isced:level": "3",
                "ref:rspo": 118716,
                "official_name": "Liceum Og\u00f3lnokszta\u0142c\u0105ce Specjalne Nr Ii",
                "name": "Liceum Og\u00f3lnokszta\u0142c\u0105ce Specjalne Nr Ii",
                "addr:country": "PL",
                "addr:postcode": "43-180",
                "addr:city": "Orzesze",
                "addr:street": "ul. Miko\u0142owska",
                "addr:housenumber": "208",
                "addr:teryt:simc": 12898,
                "addr:teryt:sym_ul": 941984,
                "contact:phone": "+48 322211483",
                "contact:email": "zssorzesze@onet.pl",
                "ref:regon": "243337352",
                "operator": "Wojew\u00f3dztwo \u015al\u0105skie",
                "operator:type": "government",
                "amenity": "school",
                "note": "Parent RSPO: 22883"
            }
        },
        {
            "id": 34312,
            "type": "Feature",
            "geometry": {
                "type": "Point",
                "coordinates": [
                    18.79877,
                    50.12704
                ]
            },
            "properties": {
                "ref:rspo": 34312,
                "official_name": "Przedszkole Nr 6 im. \"Zdrowe Jag\u00f3dki\"",
                "name": "Przedszkole Nr 6",
                "addr:country": "PL",
                "addr:postcode": "43-180",
                "addr:city": "Orzesze",
                "addr:street": "ul. Miko\u0142owska",
                "addr:housenumber": "128",
                "addr:door": "-",
                "addr:teryt:simc": 12898,
                "addr:teryt:sym_ul": 941984,
                "contact:phone": "+48 322213552",
                "contact:email": "p6@orzesze.pl",
                "ref:regon": "272002063",
                "ref:vatin": "PL6351636703",
                "operator": "Miasto Orzesze",
                "operator:type": "government",
                "amenity": "kindergarten"
            }
        },
        {
            "id": 44541,
            "type": "Feature",
            "geometry": {
                "type": "Point",
                "coordinates": [
                    18.79889,
                    50.1284599
                ]
            },
            "properties": {
                "isced:level": "1;2",
                "ref:rspo": 44541,
                "official_name": "Szko\u0142a Podstawowa Nr 6 im. Alfreda Szklarskiego",
                "name": "Szko\u0142a Podstawowa Nr 6",
                "addr:country": "PL",
                "addr:postcode": "43-187",
                "addr:city": "Orzesze",
                "addr:street": "ul. 1000-lecia",
                "addr:housenumber": "3",
                "addr:door": "-",
                "addr:teryt:simc": 9,
                "addr:teryt:sym_ul": 941984,
                "contact:phone": "+48 322215682",
                "contact:email": "sp6@orzesze.pl",
                "contact:website": "http:\/\/www.sp6.orzesze.pl",
                "ref:regon": "000730840",
                "ref:vatin": "PL6351636815",
                "operator": "Miasto Orzesze",
                "operator:type": "government",
                "amenity": "school"
            }
        },
        {
            "id": 34311,
            "type": "Feature",
            "geometry": {
                "type": "Point",
                "coordinates": [
                    18.75477,
                    50.12933
                ]
            },
            "properties": {
                "ref:rspo": 34311,
                "official_name": "Przedszkole Nr 3 T\u0119czowy Promyk",
                "name": "Przedszkole Nr 3 T\u0119czowy Promyk",
                "addr:country": "PL",
                "addr:postcode": "43-180",
                "addr:city": "Orzesze",
                "addr:street": "ul. Szkolna",
                "addr:housenumber": "55",
                "addr:door": "-",
                "addr:teryt:simc": 21970,
                "addr:teryt:sym_ul": 941984,
                "contact:phone": "+48 322215610",
                "contact:email": "p3@orzesze.pl",
                "contact:website": "http:\/\/p3.orzesze.pl",
                "ref:regon": "272002034",
                "ref:vatin": "PL6351636695",
                "operator": "Miasto Orzesze",
                "operator:type": "government",
                "amenity": "kindergarten"
            }
        },
        {
            "id": 133749,
            "type": "Feature",
            "geometry": {
                "type": "Point",
                "coordinates": [
                    18.74977,
                    50.13032
                ]
            },
            "properties": {
                "isced:level": "1;2",
                "ref:rspo": 133749,
                "official_name": "Szko\u0142a Podstawowa Nr 3 im. Stanis\u0142awa Ligonia",
                "name": "Szko\u0142a Podstawowa Nr 3",
                "addr:country": "PL",
                "addr:postcode": "43-180",
                "addr:city": "Orzesze",
                "addr:street": "ul. Szkolna",
                "addr:housenumber": "44",
                "addr:teryt:simc": 21970,
                "addr:teryt:sym_ul": 941984,
                "contact:phone": "+48 322215271",
                "contact:email": "sp3@orzesze.pl",
                "contact:website": "http:\/\/www.sp3.orzesze.pl\/",
                "ref:regon": "367586100",
                "operator": "Miasto Orzesze",
                "operator:type": "government",
                "amenity": "school"
            }
        },
        {
            "id": 34308,
            "type": "Feature",
            "geometry": {
                "type": "Point",
                "coordinates": [
                    18.775,
                    50.14002
                ]
            },
            "properties": {
                "ref:rspo": 34308,
                "official_name": "Przedszkole Z Oddzia\u0142em Integracyjnym Nr 1",
                "name": "Przedszkole Z Oddzia\u0142em Integracyjnym Nr 1",
                "addr:country": "PL",
                "addr:postcode": "43-180",
                "addr:city": "Orzesze",
                "addr:street": "ul. Miarki",
                "addr:housenumber": "4a",
                "addr:door": "-",
                "addr:teryt:simc": 12672,
                "addr:teryt:sym_ul": 941984,
                "contact:phone": "+48 322215278",
                "contact:email": "p1orzesze@o2.pl",
                "ref:regon": "272002011",
                "ref:vatin": "PL6351636672",
                "operator": "Miasto Orzesze",
                "operator:type": "government",
                "amenity": "kindergarten"
            }
        },
        {
            "id": 133751,
            "type": "Feature",
            "geometry": {
                "type": "Point",
                "coordinates": [
                    18.77373,
                    50.14075
                ]
            },
            "properties": {
                "isced:level": "1;2",
                "ref:rspo": 133751,
                "official_name": "Szko\u0142a Podstawowa Nr 1 im. Poleg\u0142ych Na Pasternioku w Orzeszu",
                "name": "Szko\u0142a Podstawowa Nr 1",
                "addr:country": "PL",
                "addr:postcode": "43-180",
                "addr:city": "Orzesze",
                "addr:street": "ul. Miarki",
                "addr:housenumber": "1a",
                "addr:teryt:simc": 12672,
                "addr:teryt:sym_ul": 941984,
                "contact:phone": "+48 322215234",
                "contact:email": "zsorzesze.sekretariat@wp.pl",
                "ref:regon": "367586139",
                "operator": "Miasto Orzesze",
                "operator:type": "government",
                "amenity": "school"
            }
        },
        {
            "id": 38896,
            "type": "Feature",
            "geometry": {
                "type": "Point",
                "coordinates": [
                    18.77597,
                    50.14306
                ]
            },
            "properties": {
                "isced:level": "1;2",
                "ref:rspo": 38896,
                "official_name": "Szko\u0142a Podstawowa Nr 10 im. Gustawa Morcinka",
                "name": "Szko\u0142a Podstawowa Nr 10",
                "addr:country": "PL",
                "addr:postcode": "43-180",
                "addr:city": "Orzesze",
                "addr:street": "ul. Norwida",
                "addr:housenumber": "2",
                "addr:door": "-",
                "addr:teryt:simc": 14317,
                "addr:teryt:sym_ul": 941984,
                "contact:phone": "+48 322215122",
                "contact:email": "sp10wosz@tlen.pl",
                "contact:website": "https:\/\/sp10woszczyce.edupage.org\/",
                "ref:regon": "000730885",
                "ref:vatin": "PL6351636867",
                "operator": "Miasto Orzesze",
                "operator:type": "government",
                "amenity": "school"
            }
        },
        {
            "id": 34603,
            "type": "Feature",
            "geometry": {
                "type": "Point",
                "coordinates": [
                    18.74711,
                    50.1459
                ]
            },
            "properties": {
                "isced:level": "1;2",
                "ref:rspo": 34603,
                "official_name": "Szko\u0142a Podstawowa Nr 4 im.franciszka Stuska",
                "name": "Szko\u0142a Podstawowa Nr 4 im.franciszka Stuska",
                "addr:country": "PL",
                "addr:postcode": "43-180",
                "addr:city": "Orzesze",
                "addr:street": "ul. Stuska",
                "addr:housenumber": "10",
                "addr:door": "-",
                "addr:teryt:simc": 21433,
                "addr:teryt:sym_ul": 941984,
                "contact:phone": "+48 322215558",
                "contact:email": "sp4orzesze@interia.pl",
                "contact:website": "http:\/\/sp4.orzesze.pl",
                "ref:regon": "000730827",
                "ref:vatin": "PL6351636790",
                "operator": "Miasto Orzesze",
                "operator:type": "government",
                "amenity": "school"
            }
        },
        {
            "id": 48860,
            "type": "Feature",
            "geometry": {
                "type": "Point",
                "coordinates": [
                    18.77824,
                    50.14664
                ]
            },
            "properties": {
                "ref:rspo": 48860,
                "official_name": "Zak\u0142ad Szkole\u0144 Bhp Jan Gorgo\u0144",
                "name": "Zak\u0142ad Szkole\u0144 Bhp Jan Gorgo\u0144",
                "addr:country": "PL",
                "addr:postcode": "43-180",
                "addr:city": "Orzesze",
                "addr:street": "ul. Bukowina",
                "addr:housenumber": "3",
                "addr:teryt:simc": 2393,
                "addr:teryt:sym_ul": 941984,
                "contact:phone": "+48 603775715",
                "contact:email": "jangorgon@wp.pl",
                "ref:regon": "243074289",
                "ref:vatin": "PL6351165014",
                "operator": "Jan Gorgo\u0144",
                "operator:type": "private",
                "fixme": "w zale\u017cno\u015bci od przedmiotu dzia\u0142alno\u015bci (np. amenity=training + training=*, amenity=dancing_school, amenity=language_school, amenity=music_school)"
            }
        },
        {
            "id": 126283,
            "type": "Feature",
            "geometry": {
                "type": "Point",
                "coordinates": [
                    18.75285,
                    50.14743
                ]
            },
            "properties": {
                "ref:rspo": 126283,
                "official_name": "Domowe Przedszkole \"Piccolo\"",
                "name": "Domowe Przedszkole \"Piccolo\"",
                "addr:country": "PL",
                "addr:postcode": "43-180",
                "addr:city": "Orzesze",
                "addr:street": "ul. Marksa",
                "addr:housenumber": "13e",
                "addr:teryt:simc": 12381,
                "addr:teryt:sym_ul": 941984,
                "contact:phone": "+48 322212154",
                "ref:regon": "360192822",
                "ref:vatin": "PL6351517482",
                "operator": "Maria Swad\u017aba",
                "operator:type": "private",
                "amenity": "kindergarten"
            }
        },
        {
            "id": 278438,
            "type": "Feature",
            "geometry": {
                "type": "Point",
                "coordinates": [
                    18.7734,
                    50.14812
                ]
            },
            "properties": {
                "ref:rspo": 278438,
                "official_name": "Akademia Malucha \"Zaczarowana Kraina\"",
                "name": "Akademia Malucha \"Zaczarowana Kraina\"",
                "addr:country": "PL",
                "addr:postcode": "43-180",
                "addr:city": "Orzesze",
                "addr:street": "ul. Gliwicka",
                "addr:housenumber": "12",
                "addr:teryt:simc": 5583,
                "addr:teryt:sym_ul": 941984,
                "contact:email": "biuro@zaczarowanakraina.com",
                "contact:website": "http:\/\/www.zaczarowanakraina.com",
                "ref:regon": "389929013",
                "ref:vatin": "PL6351657668",
                "operator": "Katarzyna Juranek",
                "operator:type": "private",
                "amenity": "kindergarten"
            }
        },
        {
            "id": 124834,
            "type": "Feature",
            "geometry": {
                "type": "Point",
                "coordinates": [
                    18.77922,
                    50.14945
                ]
            },
            "properties": {
                "isced:level": "3",
                "ref:rspo": 124834,
                "official_name": "Kolegium Kr\u00f3lewskie Liceum Og\u00f3lnokszta\u0142c\u0105ce dla Doros\u0142ych w Miko\u0142owie",
                "name": "Kolegium Kr\u00f3lewskie Liceum Og\u00f3lnokszta\u0142c\u0105ce dla Doros\u0142ych w Miko\u0142owie",
                "addr:country": "PL",
                "addr:postcode": "43-180",
                "addr:city": "Orzesze",
                "addr:street": "ul. Bukowina",
                "addr:housenumber": "19-21",
                "addr:teryt:simc": 2393,
                "addr:teryt:sym_ul": 941984,
                "contact:phone": "+48 126332606",
                "contact:website": "http:\/\/eduma.pl",
                "ref:regon": "243664105",
                "operator": "Akademie Prentki Sp\u00f3\u0142ka Z Ograniczon\u0105 Odpowiedzialno\u015bci\u0105",
                "operator:type": "private",
                "amenity": "school"
            }
        },
        {
            "id": 124836,
            "type": "Feature",
            "geometry": {
                "type": "Point",
                "coordinates": [
                    18.77922,
                    50.14942
                ]
            },
            "properties": {
                "isced:level": "4",
                "ref:rspo": 124836,
                "official_name": "Szko\u0142a G\u0142\u00f3wna S\u0142u\u017cb Spo\u0142ecznych Kolegium Kr\u00f3lewskie w Orzeszu",
                "name": "Szko\u0142a G\u0142\u00f3wna S\u0142u\u017cb Spo\u0142ecznych Kolegium Kr\u00f3lewskie w Orzeszu",
                "addr:country": "PL",
                "addr:postcode": "43-180",
                "addr:city": "Orzesze",
                "addr:street": "ul. Bukowina",
                "addr:housenumber": "19-21",
                "addr:teryt:simc": 2393,
                "addr:teryt:sym_ul": 941984,
                "contact:phone": "+48 126332606",
                "contact:email": "kolegium.krolewskie@o2.pl",
                "contact:website": "http:\/\/eduma.pl",
                "ref:regon": "243664128",
                "operator": "Akademie Prentki Sp\u00f3\u0142ka Z Ograniczon\u0105 Odpowiedzialno\u015bci\u0105",
                "operator:type": "private",
                "amenity": "college"
            }
        },
        {
            "id": 132031,
            "type": "Feature",
            "geometry": {
                "type": "Point",
                "coordinates": [
                    18.74514,
                    50.15035
                ]
            },
            "properties": {
                "ref:rspo": 132031,
                "official_name": "Niepubliczna Poradnia Psychologiczno - Pedagogiczna \"Happy Kids\"",
                "name": "Niepubliczna Poradnia Psychologiczno - Pedagogiczna \"Happy Kids\"",
                "addr:country": "PL",
                "addr:postcode": "43-180",
                "addr:city": "Orzesze",
                "addr:street": "ul. S\u0142owia\u0144ska",
                "addr:housenumber": "8c",
                "addr:teryt:simc": 20294,
                "addr:teryt:sym_ul": 941984,
                "contact:phone": "+48 783775180",
                "contact:email": "ijanisz@op.pl",
                "ref:regon": "365434170",
                "operator": "Iwona Janisz",
                "operator:type": "private",
                "healthcare": "counselling",
                "counselling_type": "education",
                "fixme": "w zale\u017cno\u015bci od przedmiotu dzia\u0142alno\u015bci (np. healthcare=counselling + counselling_type=education albo healthcare=psychotherapist)"
            }
        },
        {
            "id": 34485,
            "type": "Feature",
            "geometry": {
                "type": "Point",
                "coordinates": [
                    18.7805,
                    50.15097
                ]
            },
            "properties": {
                "isced:level": "1;2",
                "ref:rspo": 34485,
                "official_name": "Szko\u0142a Podstawowa Nr 2 im. Stanis\u0142awa Moniuszki",
                "name": "Szko\u0142a Podstawowa Nr 2",
                "addr:country": "PL",
                "addr:postcode": "43-180",
                "addr:city": "Orzesze",
                "addr:street": "ul. Bukowina",
                "addr:housenumber": "21",
                "addr:door": "-",
                "addr:teryt:simc": 2393,
                "addr:teryt:sym_ul": 941984,
                "contact:phone": "+48 322215298",
                "contact:email": "sp2@orzesze.pl",
                "contact:website": "http:\/\/www.sp2.orzesze.pl",
                "ref:regon": "000730804",
                "ref:vatin": "PL6351636778",
                "operator": "Miasto Orzesze",
                "operator:type": "government",
                "amenity": "school"
            }
        },
        {
            "id": 34310,
            "type": "Feature",
            "geometry": {
                "type": "Point",
                "coordinates": [
                    18.77299,
                    50.15742
                ]
            },
            "properties": {
                "ref:rspo": 34310,
                "official_name": "Przedszkole Nr 2 Orzeszkowe Brzd\u0105ce",
                "name": "Przedszkole Nr 2 Orzeszkowe Brzd\u0105ce",
                "addr:country": "PL",
                "addr:postcode": "43-180",
                "addr:city": "Orzesze",
                "addr:street": "ul. Mi\u0142a",
                "addr:housenumber": "1a",
                "addr:door": "-",
                "addr:teryt:simc": 12947,
                "addr:teryt:sym_ul": 941984,
                "contact:phone": "+48 322213710",
                "contact:email": "p2@orzesze.pl",
                "contact:website": "http:\/\/www.orzeszkowebrzdace.edupage.org",
                "ref:regon": "272002028",
                "ref:vatin": "PL6351636689",
                "operator": "Miasto Orzesze",
                "operator:type": "government",
                "amenity": "kindergarten"
            }
        }
    ]
}