{
    "type": "FeatureCollection",
    "features": [
        {
            "id": 119946,
            "type": "Feature",
            "geometry": {
                "type": "Point",
                "coordinates": [
                    18.91085,
                    50.15989
                ]
            },
            "properties": {
                "ref:rspo": 119946,
                "official_name": "\"Artimedic\" Centrum Doskonalenia Kadr Medycznych",
                "name": "\"Artimedic\" Centrum Doskonalenia Kadr Medycznych",
                "addr:postcode": "43-190",
                "addr:city": "Miko\u0142\u00f3w",
                "addr:street": "S\u0142oneczna",
                "addr:housenumber": "38",
                "addr:city:simc": 941286,
                "addr:street:sym_ul": 20254,
                "phone": "+48 665374999",
                "email": "artur.poczta.pl@gmain.com",
                "ref:regon": "243367867",
                "ref:vatin": "PL6821120458",
                "operator": "Artur Ciesielski",
                "operator:type": "private",
                "fixme": "w zale\u017cno\u015bci od przedmiotu dzia\u0142alno\u015bci (np. amenity=training + training=*, amenity=dancing_school, amenity=language_school, amenity=music_school)"
            }
        },
        {
            "id": 34422,
            "type": "Feature",
            "geometry": {
                "type": "Point",
                "coordinates": [
                    18.89911,
                    50.16102
                ]
            },
            "properties": {
                "ref:rspo": 34422,
                "official_name": "Przedszkole Nr 11 im. \"Le\u015bnych Ludk\u00f3w\" w Miko\u0142owie",
                "name": "Przedszkole Nr 11",
                "addr:postcode": "43-190",
                "addr:city": "Miko\u0142\u00f3w",
                "addr:street": "Marii Kownackiej",
                "addr:housenumber": "1",
                "addr:city:simc": 941286,
                "addr:street:sym_ul": 9694,
                "phone": "+48 322262999",
                "email": "przedszkolenr11mikolow@interia.pl",
                "website": "http:\/\/www.p11.przedszkola.net.pl",
                "ref:regon": "272001773",
                "ref:vatin": "PL6351770123",
                "operator": "Gmina Miko\u0142\u00f3w",
                "operator:type": "government",
                "amenity": "kindergarten"
            }
        },
        {
            "id": 34426,
            "type": "Feature",
            "geometry": {
                "type": "Point",
                "coordinates": [
                    18.89236,
                    50.16449
                ]
            },
            "properties": {
                "ref:rspo": 34426,
                "official_name": "Przedszkole Nr 3 im. \"Kota w Butach\" w Miko\u0142owie",
                "name": "Przedszkole Nr 3",
                "addr:postcode": "43-190",
                "addr:city": "Miko\u0142\u00f3w",
                "addr:street": "Konstytucji 3 Maja",
                "addr:housenumber": "40",
                "addr:city:simc": 941286,
                "addr:street:sym_ul": 9213,
                "phone": "+48 322262556",
                "email": "sekretariat@p3.mikolow.eu",
                "website": "http:\/\/www.p3kotwbutach.edupage.eu",
                "ref:regon": "272001690",
                "ref:vatin": "PL6351773274",
                "operator": "Gmina Miko\u0142\u00f3w",
                "operator:type": "government",
                "amenity": "kindergarten"
            }
        },
        {
            "id": 34423,
            "type": "Feature",
            "geometry": {
                "type": "Point",
                "coordinates": [
                    18.90904,
                    50.16481
                ]
            },
            "properties": {
                "ref:rspo": 34423,
                "official_name": "Przedszkole Nr 12 im. \"Bajkowej Przygody\"",
                "name": "Przedszkole Nr 12",
                "addr:postcode": "43-190",
                "addr:city": "Miko\u0142\u00f3w",
                "addr:street": "Juliusza S\u0142owackiego",
                "addr:housenumber": "18",
                "addr:city:simc": 941286,
                "addr:street:sym_ul": 20291,
                "phone": "+48 322260208",
                "email": "info@p12.mikolow.eu",
                "website": "http:\/\/www.przedszkole12mikolow.pl",
                "ref:regon": "272001780",
                "ref:vatin": "PL6351773280",
                "operator": "Gmina Miko\u0142\u00f3w",
                "operator:type": "government",
                "amenity": "kindergarten"
            }
        },
        {
            "id": 38595,
            "type": "Feature",
            "geometry": {
                "type": "Point",
                "coordinates": [
                    18.88725,
                    50.16531
                ]
            },
            "properties": {
                "ref:rspo": 38595,
                "official_name": "Przedszkole Niepubliczne im. \"Z\u0142otej Rybki\"",
                "name": "Przedszkole Niepubliczne",
                "addr:postcode": "43-190",
                "addr:city": "Miko\u0142\u00f3w",
                "addr:street": "Nowy \u015awiat",
                "addr:housenumber": "12",
                "addr:city:simc": 941286,
                "addr:street:sym_ul": 14535,
                "phone": "+48 327383731",
                "email": "zlota.rybka.przedszkole@gmail.com",
                "website": "http:\/\/www.zlota-rybka.mikolow.blizej.info",
                "ref:regon": "243071026",
                "operator": "Beata Tumidajewicz",
                "operator:type": "private",
                "amenity": "kindergarten"
            }
        },
        {
            "id": 41208,
            "type": "Feature",
            "geometry": {
                "type": "Point",
                "coordinates": [
                    18.90424,
                    50.16534
                ]
            },
            "properties": {
                "ref:rspo": 41208,
                "official_name": "Syntonia Centrum Doskonalenia Nauczycieli",
                "name": "Syntonia Centrum Doskonalenia Nauczycieli",
                "addr:postcode": "43-190",
                "addr:city": "Miko\u0142\u00f3w",
                "addr:street": "Pszczy\u0144ska",
                "addr:housenumber": "25",
                "addr:city:simc": 941286,
                "addr:street:sym_ul": 18045,
                "phone": "+48 604556053",
                "ref:regon": "243076242",
                "ref:vatin": "PL6351591403",
                "operator": "Dane Do Uzupe\u0142nienia",
                "operator:type": "private",
                "amenity": "training"
            }
        },
        {
            "id": 30329,
            "type": "Feature",
            "geometry": {
                "type": "Point",
                "coordinates": [
                    18.90013,
                    50.16551
                ]
            },
            "properties": {
                "isced:level": "1;2",
                "ref:rspo": 30329,
                "official_name": "Szko\u0142a Podstawowa Nr 3 Z Oddzia\u0142ami Integracyjnymi im. Polskich Olimpijczyk\u00f3w w Miko\u0142owie",
                "name": "Szko\u0142a Podstawowa Nr 3 Z Oddzia\u0142ami Integracyjnymi",
                "addr:postcode": "43-190",
                "addr:city": "Miko\u0142\u00f3w",
                "addr:street": "Ksi\u0119dza Biskupa W\u0142adys\u0142awa Bandurskiego",
                "addr:housenumber": "1",
                "addr:city:simc": 941286,
                "addr:street:sym_ul": 685,
                "phone": "+48 322262206",
                "email": "sekretariat@sp3.mikolow.eu",
                "website": "http:\/\/www.sp3mikolow.edupage.org",
                "ref:regon": "000726754",
                "ref:vatin": "PL6351646280",
                "operator": "Gmina Miko\u0142\u00f3w",
                "operator:type": "government",
                "amenity": "school"
            }
        },
        {
            "id": 133887,
            "type": "Feature",
            "geometry": {
                "type": "Point",
                "coordinates": [
                    18.90975,
                    50.1656199
                ]
            },
            "properties": {
                "isced:level": "1;2",
                "ref:rspo": 133887,
                "official_name": "Szko\u0142a Podstawowa Nr 10 im. Jerzego Kukuczki w Miko\u0142owie",
                "name": "Szko\u0142a Podstawowa Nr 10",
                "addr:postcode": "43-190",
                "addr:city": "Miko\u0142\u00f3w",
                "addr:street": "Krakowska",
                "addr:housenumber": "30",
                "addr:city:simc": 941286,
                "addr:street:sym_ul": 9796,
                "phone": "+48 323260150",
                "email": "sekretariat@sp10.mikolow.eu",
                "website": "http:\/\/www.sp10.mikolow.eu",
                "ref:regon": "367710177",
                "operator": "Gmina Miko\u0142\u00f3w",
                "operator:type": "government",
                "amenity": "school"
            }
        },
        {
            "id": 34424,
            "type": "Feature",
            "geometry": {
                "type": "Point",
                "coordinates": [
                    18.91181,
                    50.16616
                ]
            },
            "properties": {
                "ref:rspo": 34424,
                "official_name": "Niepubliczne Przedszkole O Profilu Teatralnym \"Zaczarowany Ogr\u00f3d\"",
                "name": "Niepubliczne Przedszkole O Profilu Teatralnym \"Zaczarowany Ogr\u00f3d\"",
                "addr:postcode": "43-190",
                "addr:city": "Miko\u0142\u00f3w",
                "addr:street": "Cmentarna",
                "addr:housenumber": "4",
                "addr:city:simc": 941286,
                "addr:street:sym_ul": 3114,
                "phone": "+48 782499874",
                "email": "info@przedszkole-mikolow.pl",
                "website": "http:\/\/www.przedszkole-mikolow.pl",
                "ref:regon": "243069176",
                "ref:vatin": "PL9491536469",
                "operator": "Monika Gizaguc",
                "operator:type": "private",
                "amenity": "kindergarten"
            }
        },
        {
            "id": 133886,
            "type": "Feature",
            "geometry": {
                "type": "Point",
                "coordinates": [
                    18.89973,
                    50.16672
                ]
            },
            "properties": {
                "isced:level": "1;2",
                "ref:rspo": 133886,
                "official_name": "Szko\u0142a Podstawowa Nr 1 im. Powsta\u0144c\u00f3w \u015aL\u0105skich w Miko\u0142owie",
                "name": "Szko\u0142a Podstawowa Nr 1",
                "addr:postcode": "43-190",
                "addr:city": "Miko\u0142\u00f3w",
                "addr:street": "Konstytucji 3 Maja",
                "addr:housenumber": "20",
                "addr:city:simc": 941286,
                "addr:street:sym_ul": 9213,
                "phone": "+48 322262338",
                "email": "sekretariat@sp1.mikolow.eu",
                "website": "http:\/\/sp1.mikolow.eu",
                "ref:regon": "367708648",
                "operator": "Gmina Miko\u0142\u00f3w",
                "operator:type": "government",
                "amenity": "school"
            }
        },
        {
            "id": 119949,
            "type": "Feature",
            "geometry": {
                "type": "Point",
                "coordinates": [
                    18.9033149,
                    50.1672201
                ]
            },
            "properties": {
                "isced:level": "3",
                "ref:rspo": 119949,
                "official_name": "Liceum Og\u00f3lnokszta\u0142c\u0105ce dla Doros\u0142ych Centrum Edukacji \"Si\u00f3demka\"",
                "name": "Liceum Og\u00f3lnokszta\u0142c\u0105ce dla Doros\u0142ych Centrum Edukacji \"Si\u00f3demka\"",
                "addr:postcode": "43-190",
                "addr:city": "Miko\u0142\u00f3w",
                "addr:street": "M\u0142y\u0144ska",
                "addr:housenumber": "5",
                "addr:city:simc": 941286,
                "addr:street:sym_ul": 13132,
                "phone": "+48 323078877",
                "email": "biuro@ce7.pl",
                "ref:regon": "243368080",
                "ref:vatin": "PL6482751273",
                "operator": "Fam Sp\u00f3\u0142ka Z Ograniczon\u0105 Odpowiedzialno\u015bci\u0105 W Likwidacji W Upad\u0142o\u015bci",
                "operator:type": "private",
                "amenity": "school"
            }
        },
        {
            "id": 119950,
            "type": "Feature",
            "geometry": {
                "type": "Point",
                "coordinates": [
                    18.9033149,
                    50.1671901
                ]
            },
            "properties": {
                "isced:level": "4",
                "ref:rspo": 119950,
                "official_name": "Policealna Szko\u0142a Ad Rem",
                "name": "Policealna Szko\u0142a Ad Rem",
                "addr:postcode": "43-190",
                "addr:city": "Miko\u0142\u00f3w",
                "addr:street": "M\u0142y\u0144ska",
                "addr:housenumber": "5",
                "addr:city:simc": 941286,
                "addr:street:sym_ul": 13132,
                "phone": "+48 323071333",
                "email": "for3szkola@gmail.com",
                "ref:regon": "243368097",
                "ref:vatin": "PL6312674036",
                "operator": "Edo Sp\u00f3\u0142ka Z Ograniczon\u0105 Odpowiedzialno\u015bci\u0105",
                "operator:type": "private",
                "amenity": "college"
            }
        },
        {
            "id": 128829,
            "type": "Feature",
            "geometry": {
                "type": "Point",
                "coordinates": [
                    18.90605,
                    50.16743
                ]
            },
            "properties": {
                "ref:rspo": 128829,
                "official_name": "Niepubliczna Poradnia Psychologiczno-Pedagogiczna Terapis",
                "name": "Niepubliczna Poradnia Psychologiczno-Pedagogiczna Terapis",
                "addr:postcode": "43-190",
                "addr:city": "Miko\u0142\u00f3w",
                "addr:street": "Skotnica",
                "addr:housenumber": "2",
                "addr:city:simc": 941286,
                "addr:street:sym_ul": 20110,
                "phone": "+48 690303465",
                "email": "terapis.mikolow@gmail.com",
                "ref:regon": "362404493",
                "operator": "Katarzyna Kasica-Ba\u0144kowska",
                "operator:type": "private",
                "healthcare": "counselling",
                "counselling_type": "education",
                "fixme": "w zale\u017cno\u015bci od przedmiotu dzia\u0142alno\u015bci (np. healthcare=counselling + counselling_type=education albo healthcare=psychotherapist)"
            }
        },
        {
            "id": 34318,
            "type": "Feature",
            "geometry": {
                "type": "Point",
                "coordinates": [
                    18.89423,
                    50.16798
                ]
            },
            "properties": {
                "isced:level": "3",
                "ref:rspo": 34318,
                "official_name": "I Liceum Og\u00f3lnokszta\u0142c\u0105ce im. Karola Miarki w Miko\u0142owie",
                "name": "I Liceum Og\u00f3lnokszta\u0142c\u0105ce",
                "addr:postcode": "43-190",
                "addr:city": "Miko\u0142\u00f3w",
                "addr:street": "\u017bwirki i Wigury",
                "addr:housenumber": "25",
                "addr:city:simc": 941286,
                "addr:street:sym_ul": 26608,
                "phone": "+48 322262617",
                "email": "lo1mikolow@miarka.edu.pl",
                "website": "http:\/\/miarka.edu.pl",
                "ref:regon": "000726843",
                "ref:vatin": "PL6351042607",
                "operator": "Powiat Miko\u0142owski",
                "operator:type": "government",
                "amenity": "school"
            }
        },
        {
            "id": 34198,
            "type": "Feature",
            "geometry": {
                "type": "Point",
                "coordinates": [
                    18.90896,
                    50.16808
                ]
            },
            "properties": {
                "ref:rspo": 34198,
                "official_name": "Przedszkole Nr 2 im. \"Kubusia Puchatka\" w Miko\u0142owie",
                "name": "Przedszkole Nr 2",
                "addr:postcode": "43-190",
                "addr:city": "Miko\u0142\u00f3w",
                "addr:street": "Wincentego Janasa",
                "addr:housenumber": "7",
                "addr:city:simc": 941286,
                "addr:street:sym_ul": 7142,
                "phone": "+48 322262559",
                "email": "info@p2.mikolow.eu",
                "website": "http:\/\/www.p2mikolow.republika.pl",
                "ref:regon": "272001684",
                "ref:vatin": "PL6351772369",
                "operator": "Gmina Miko\u0142\u00f3w",
                "operator:type": "government",
                "amenity": "kindergarten"
            }
        },
        {
            "id": 118857,
            "type": "Feature",
            "geometry": {
                "type": "Point",
                "coordinates": [
                    18.90654,
                    50.16818
                ]
            },
            "properties": {
                "ref:rspo": 118857,
                "official_name": "Terapeutyczny Punkt Przedszkolny \"Wyj\u0105tkowa Kraina\"",
                "name": "Terapeutyczny Punkt Przedszkolny \"Wyj\u0105tkowa Kraina\"",
                "addr:postcode": "43-190",
                "addr:city": "Miko\u0142\u00f3w",
                "addr:street": "Krakowska",
                "addr:housenumber": "15",
                "addr:city:simc": 941286,
                "addr:street:sym_ul": 9796,
                "phone": "+48 667932520",
                "email": "przedszkole@wyjatkowakraina.pl",
                "ref:regon": "243341490",
                "operator": "Karina Kocur",
                "operator:type": "private",
                "amenity": "kindergarten"
            }
        },
        {
            "id": 31441,
            "type": "Feature",
            "geometry": {
                "type": "Point",
                "coordinates": [
                    18.8917499,
                    50.16849
                ]
            },
            "properties": {
                "ref:rspo": 31441,
                "official_name": "Przedszkole Nr 1 im. \"Jasia I Ma\u0142gosi\"",
                "name": "Przedszkole Nr 1",
                "addr:postcode": "43-190",
                "addr:city": "Miko\u0142\u00f3w",
                "addr:street": "\u017bwirki i Wigury",
                "addr:housenumber": "29",
                "addr:city:simc": 941286,
                "addr:street:sym_ul": 26608,
                "phone": "+48 322262296",
                "email": "info@p1.mikolow.eu",
                "website": "http:\/\/www.p1jasimalgosia.pl",
                "ref:regon": "272001678",
                "ref:vatin": "PL6351772398",
                "operator": "Gmina Miko\u0142\u00f3w",
                "operator:type": "government",
                "amenity": "kindergarten"
            }
        },
        {
            "id": 29609,
            "type": "Feature",
            "geometry": {
                "type": "Point",
                "coordinates": [
                    18.89859,
                    50.16916
                ]
            },
            "properties": {
                "ref:rspo": 29609,
                "official_name": "Poradnia Psychologiczno - Pedagogiczna w Miko\u0142owie",
                "name": "Poradnia Psychologiczno - Pedagogiczna w Miko\u0142owie",
                "addr:postcode": "43-190",
                "addr:city": "Miko\u0142\u00f3w",
                "addr:street": "\u017bwirki i Wigury",
                "addr:housenumber": "4",
                "addr:city:simc": 941286,
                "addr:street:sym_ul": 26608,
                "phone": "+48 322262071",
                "email": "poradnia@powiat.mikolowski.pl",
                "website": "http:\/\/www.poradnia.mikolowski.pl",
                "ref:regon": "000726837",
                "ref:vatin": "PL6351042062",
                "operator": "Powiat Miko\u0142owski",
                "operator:type": "government",
                "healthcare": "counselling",
                "counselling_type": "education",
                "fixme": "w zale\u017cno\u015bci od przedmiotu dzia\u0142alno\u015bci (np. healthcare=counselling + counselling_type=education albo healthcare=psychotherapist)"
            }
        },
        {
            "id": 49934,
            "type": "Feature",
            "geometry": {
                "type": "Point",
                "coordinates": [
                    18.89859,
                    50.169129999999996
                ]
            },
            "properties": {
                "ref:rspo": 49934,
                "official_name": "Niepubliczna Plac\u00f3wka Kszta\u0142cenia Ustawicznego Powiatowy Uniwersytet Trzeciego Wieku Przy Stowarzyszeniu Wspierania Samorz\u0105dno\u015bci w Miko\u0142owie",
                "name": "Niepubliczna Plac\u00f3wka Kszta\u0142cenia Ustawicznego Powiatowy Uniwersytet Trzeciego Wieku Przy Stowarzyszeniu Wspierania Samorz\u0105dno\u015bci w Miko\u0142owie",
                "addr:postcode": "43-190",
                "addr:city": "Miko\u0142\u00f3w",
                "addr:street": "\u017bwirki i Wigury",
                "addr:housenumber": "4a",
                "addr:city:simc": 941286,
                "addr:street:sym_ul": 26608,
                "phone": "+48 323248155",
                "email": "maria.beczala@mikolow.starostwo.gov.pl",
                "ref:regon": "243074154",
                "ref:vatin": "PL9541002274",
                "operator": "Stowarzyszenie Wspierania Samorz\u0105dno\u015bci",
                "operator:type": "ngo",
                "fixme": "w zale\u017cno\u015bci od przedmiotu dzia\u0142alno\u015bci (np. amenity=training + training=*, amenity=dancing_school, amenity=language_school, amenity=music_school)"
            }
        },
        {
            "id": 48478,
            "type": "Feature",
            "geometry": {
                "type": "Point",
                "coordinates": [
                    18.905839920044,
                    50.169281005859
                ]
            },
            "properties": {
                "ref:rspo": 48478,
                "official_name": "Prywatne Studium Muzyczne w Miko\u0142owie Pod Patronatem Isme",
                "name": "Prywatne Studium Muzyczne w Miko\u0142owie Pod Patronatem Isme",
                "addr:postcode": "43-190",
                "addr:city": "Miko\u0142\u00f3w",
                "addr:street": "Konstantego Prusa",
                "addr:housenumber": "25",
                "addr:city:simc": 941286,
                "addr:street:sym_ul": 17579,
                "phone": "+48 322262813",
                "email": "petrko@op.pl",
                "website": "http:\/\/psmmikolow.dt.pl",
                "ref:regon": "243074088",
                "ref:vatin": "PL6351041252",
                "operator": "Jan Kopiec",
                "operator:type": "private",
                "fixme": "w zale\u017cno\u015bci od przedmiotu dzia\u0142alno\u015bci (np. amenity=community_centre + community_centre:for=child;juvenile, amenity=training + training=*, amenity=dancing_school, amenity=music_school),"
            }
        },
        {
            "id": 35204,
            "type": "Feature",
            "geometry": {
                "type": "Point",
                "coordinates": [
                    18.9019799,
                    50.16964
                ]
            },
            "properties": {
                "ref:rspo": 35204,
                "official_name": "Przedszkole Nr 9 im. Kr\u00f3lewny \u015anie\u017cki w Miko\u0142owie",
                "name": "Przedszkole Nr 9",
                "addr:postcode": "43-190",
                "addr:city": "Miko\u0142\u00f3w",
                "addr:street": "Karola Miarki",
                "addr:housenumber": "7",
                "addr:city:simc": 941286,
                "addr:street:sym_ul": 12674,
                "phone": "+48 322262196",
                "email": "info@p9.mikolow.eu",
                "website": "http:\/\/www.przedszkole9.dlaprzedszkoli.eu",
                "ref:regon": "272001750",
                "ref:vatin": "PL6351772375",
                "operator": "Gmina Miko\u0142\u00f3w",
                "operator:type": "government",
                "amenity": "kindergarten"
            }
        },
        {
            "id": 38452,
            "type": "Feature",
            "geometry": {
                "type": "Point",
                "coordinates": [
                    18.90177,
                    50.16979
                ]
            },
            "properties": {
                "ref:rspo": 38452,
                "official_name": "Ognisko Pracy Pozaszkolnej w Miko\u0142owie",
                "name": "Ognisko Pracy Pozaszkolnej w Miko\u0142owie",
                "addr:postcode": "43-190",
                "addr:city": "Miko\u0142\u00f3w",
                "addr:street": "Karola Miarki",
                "addr:housenumber": "9",
                "addr:city:simc": 941286,
                "addr:street:sym_ul": 12674,
                "phone": "+48 322260511",
                "email": "ognisko@oppmikolow.pl",
                "website": "http:\/\/oppmikolow.pl",
                "ref:regon": "000726814",
                "ref:vatin": "PL6351042033",
                "operator": "Powiat Miko\u0142owski",
                "operator:type": "government",
                "amenity": "community_centre",
                "community_centre:for": "child;juvenile"
            }
        },
        {
            "id": 48382,
            "type": "Feature",
            "geometry": {
                "type": "Point",
                "coordinates": [
                    18.88819,
                    50.17005
                ]
            },
            "properties": {
                "ref:rspo": 48382,
                "official_name": "Perqual",
                "name": "Perqual",
                "addr:postcode": "43-190",
                "addr:city": "Miko\u0142\u00f3w",
                "addr:street": "Osiedle Adama Mickiewicza",
                "addr:housenumber": "24D",
                "addr:door": "8",
                "addr:city:simc": 941286,
                "addr:street:sym_ul": 12736,
                "phone": "+48 327384374",
                "email": "biuro@perqual.pl",
                "website": "http:\/\/perqual.pl",
                "ref:regon": "243073901",
                "ref:vatin": "PL6351356636",
                "operator": "Marcin Weso\u0142owski",
                "operator:type": "private",
                "fixme": "w zale\u017cno\u015bci od przedmiotu dzia\u0142alno\u015bci (np. amenity=training + training=*, amenity=dancing_school, amenity=language_school, amenity=music_school)"
            }
        },
        {
            "id": 38589,
            "type": "Feature",
            "geometry": {
                "type": "Point",
                "coordinates": [
                    18.86021,
                    50.17006
                ]
            },
            "properties": {
                "ref:rspo": 38589,
                "official_name": "Przedszkole Nr 5 im. \"Krainy Bajek\" w Miko\u0142owie",
                "name": "Przedszkole Nr 5",
                "addr:postcode": "43-190",
                "addr:city": "Miko\u0142\u00f3w",
                "addr:street": "Ksi\u0119dza Franciszka G\u00f3rka",
                "addr:housenumber": "27",
                "addr:city:simc": 941286,
                "addr:street:sym_ul": 31591,
                "phone": "+48 322355486",
                "email": "sekretariat@p5.mikolow.eu",
                "website": "http:\/\/www.przedszkole5.com",
                "ref:regon": "271511851",
                "ref:vatin": "PL6351773251",
                "operator": "Gmina Miko\u0142\u00f3w",
                "operator:type": "government",
                "amenity": "kindergarten"
            }
        },
        {
            "id": 40732,
            "type": "Feature",
            "geometry": {
                "type": "Point",
                "coordinates": [
                    18.88681,
                    50.17331
                ]
            },
            "properties": {
                "ref:rspo": 40732,
                "official_name": "Zesp\u00f3\u0142 Szk\u00f3\u0142 Technicznych w Miko\u0142owie",
                "name": "Zesp\u00f3\u0142 Szk\u00f3\u0142 Technicznych w Miko\u0142owie",
                "addr:postcode": "43-190",
                "addr:city": "Miko\u0142\u00f3w",
                "addr:street": "Rybnicka",
                "addr:housenumber": "44",
                "addr:city:simc": 941286,
                "addr:street:sym_ul": 19179,
                "phone": "+48 322262028",
                "email": "poczta@zst.edu.pl",
                "website": "http:\/\/zst.edu.pl",
                "ref:regon": "000198686",
                "ref:vatin": "PL6351198048",
                "operator": "Powiat Miko\u0142owski",
                "operator:type": "government",
                "landuse": "education",
                "fixme": "amenity=school, amenity=college albo landuse=education w zale\u017cno\u015bci od tego, jakie plac\u00f3wki wchodz\u0105 w sk\u0142ad zespo\u0142u. Sprawd\u017a, kiedy stosowa\u0107 amenity=* a kiedy landuse=education.",
                "note": "Children RSPO: 47269;48864;275513"
            }
        },
        {
            "id": 47269,
            "type": "Feature",
            "geometry": {
                "type": "Point",
                "coordinates": [
                    18.88681,
                    50.17328
                ]
            },
            "properties": {
                "isced:level": "3",
                "ref:rspo": 47269,
                "official_name": "Bran\u017cowa Szko\u0142a I Stopnia w Miko\u0142owie",
                "name": "Bran\u017cowa Szko\u0142a I Stopnia w Miko\u0142owie",
                "addr:postcode": "43-190",
                "addr:city": "Miko\u0142\u00f3w",
                "addr:street": "Rybnicka",
                "addr:housenumber": "44",
                "addr:city:simc": 941286,
                "addr:street:sym_ul": 19179,
                "phone": "+48 322262028",
                "email": "poczta@zst.edu.pl",
                "website": "https:\/\/www.zst.edu.pl\/",
                "ref:regon": "272140724",
                "ref:vatin": "PL6351198048",
                "operator": "Powiat Miko\u0142owski",
                "operator:type": "government",
                "amenity": "school",
                "note": "Parent RSPO: 40732"
            }
        },
        {
            "id": 48864,
            "type": "Feature",
            "geometry": {
                "type": "Point",
                "coordinates": [
                    18.88681,
                    50.17325
                ]
            },
            "properties": {
                "isced:level": "3",
                "ref:rspo": 48864,
                "official_name": "Technikum w Miko\u0142owie",
                "name": "Technikum w Miko\u0142owie",
                "addr:postcode": "43-190",
                "addr:city": "Miko\u0142\u00f3w",
                "addr:street": "Rybnicka",
                "addr:housenumber": "44",
                "addr:city:simc": 941286,
                "addr:street:sym_ul": 19179,
                "phone": "+48 322262028",
                "email": "poczta@zst.edu.pl",
                "website": "https:\/\/www.zst.edu.pl\/",
                "ref:regon": "272140753",
                "ref:vatin": "PL6351198048",
                "operator": "Powiat Miko\u0142owski",
                "operator:type": "government",
                "amenity": "school",
                "note": "Parent RSPO: 40732"
            }
        },
        {
            "id": 275513,
            "type": "Feature",
            "geometry": {
                "type": "Point",
                "coordinates": [
                    18.88681,
                    50.17322
                ]
            },
            "properties": {
                "isced:level": "3",
                "ref:rspo": 275513,
                "official_name": "Bran\u017cowa Szko\u0142a II Stopnia w Miko\u0142owie",
                "name": "Bran\u017cowa Szko\u0142a II Stopnia w Miko\u0142owie",
                "addr:postcode": "43-190",
                "addr:city": "Miko\u0142\u00f3w",
                "addr:street": "Rybnicka",
                "addr:housenumber": "44",
                "addr:city:simc": 941286,
                "addr:street:sym_ul": 19179,
                "phone": "+48 322262028",
                "email": "sekretariat@zst.edu.pl",
                "website": "https:\/\/www.zst.edu.pl\/",
                "ref:regon": "386922460",
                "operator": "Powiat Miko\u0142owski",
                "operator:type": "government",
                "amenity": "school",
                "note": "Parent RSPO: 40732"
            }
        },
        {
            "id": 30331,
            "type": "Feature",
            "geometry": {
                "type": "Point",
                "coordinates": [
                    18.90636,
                    50.17403
                ]
            },
            "properties": {
                "isced:level": "1;2",
                "ref:rspo": 30331,
                "official_name": "Szko\u0142a Podstawowa Nr 5 im. Gustawa Morcinka w Miko\u0142owie",
                "name": "Szko\u0142a Podstawowa Nr 5",
                "addr:postcode": "43-190",
                "addr:city": "Miko\u0142\u00f3w",
                "addr:street": "Katowicka",
                "addr:housenumber": "24",
                "addr:city:simc": 941286,
                "addr:street:sym_ul": 8206,
                "phone": "+48 322262468",
                "email": "sekretariat@sp5.mikolow.eu",
                "website": "http:\/\/www.sp5mikolow.eu",
                "ref:regon": "000726777",
                "ref:vatin": "PL6351657556",
                "operator": "Gmina Miko\u0142\u00f3w",
                "operator:type": "government",
                "amenity": "school"
            }
        },
        {
            "id": 124565,
            "type": "Feature",
            "geometry": {
                "type": "Point",
                "coordinates": [
                    18.88501,
                    50.17467
                ]
            },
            "properties": {
                "isced:level": "1;2",
                "ref:rspo": 124565,
                "official_name": "Szko\u0142a Podstawowa Z Oddzia\u0142ami Dwuj\u0119zycznymi Dual im. Ojca F. Jordana",
                "name": "Szko\u0142a Podstawowa Z Oddzia\u0142ami Dwuj\u0119zycznymi Dual",
                "addr:postcode": "43-190",
                "addr:city": "Miko\u0142\u00f3w",
                "addr:street": "Plac Salwatorian\u00f3w",
                "addr:housenumber": "1",
                "addr:city:simc": 941286,
                "addr:street:sym_ul": 28963,
                "phone": "+48 327782468",
                "email": "dualmikolow@dualmikolow.pl",
                "website": "http:\/\/www.dualmikolow.pl",
                "ref:regon": "243658748",
                "operator": "Dual Sp\u00f3\u0142ka Z Ograniczon\u0105 Odpowiedzialno\u015bci\u0105",
                "operator:type": "consortium",
                "amenity": "school"
            }
        },
        {
            "id": 34319,
            "type": "Feature",
            "geometry": {
                "type": "Point",
                "coordinates": [
                    18.88628,
                    50.17549
                ]
            },
            "properties": {
                "isced:level": "3",
                "ref:rspo": 34319,
                "official_name": "Ii Liceum Og\u00f3lnokszta\u0142c\u0105ce im. Rotmistrza Witolda Pileckiego w Miko\u0142owie",
                "name": "Ii Liceum Og\u00f3lnokszta\u0142c\u0105ce",
                "addr:postcode": "43-190",
                "addr:city": "Miko\u0142\u00f3w",
                "addr:street": "Pokoju",
                "addr:housenumber": "4",
                "addr:city:simc": 941286,
                "addr:street:sym_ul": 16942,
                "phone": "+48 322262247",
                "email": "iilomikolow@poczta.onet.pl",
                "website": "http:\/\/www.2lomikolow.pl",
                "ref:regon": "271897313",
                "ref:vatin": "PL6351165623",
                "operator": "Powiat Miko\u0142owski",
                "operator:type": "government",
                "amenity": "school"
            }
        },
        {
            "id": 38451,
            "type": "Feature",
            "geometry": {
                "type": "Point",
                "coordinates": [
                    18.88628,
                    50.17546
                ]
            },
            "properties": {
                "ref:rspo": 38451,
                "official_name": "Zesp\u00f3\u0142 Szk\u00f3\u0142 Nr 2 Specjalnych w Miko\u0142owie",
                "name": "Zesp\u00f3\u0142 Szk\u00f3\u0142 Nr 2 Specjalnych w Miko\u0142owie",
                "addr:postcode": "43-190",
                "addr:city": "Miko\u0142\u00f3w",
                "addr:street": "Pokoju",
                "addr:housenumber": "4a",
                "addr:city:simc": 941286,
                "addr:street:sym_ul": 16942,
                "phone": "+48 322198061",
                "email": "sekretariat@zs2s-mikolow.pl",
                "website": "http:\/\/zs2s-mikolow.pl",
                "ref:regon": "276597662",
                "ref:vatin": "PL6351600504",
                "operator": "Powiat Miko\u0142owski",
                "operator:type": "government",
                "landuse": "education",
                "fixme": "amenity=school, amenity=college albo landuse=education w zale\u017cno\u015bci od tego, jakie plac\u00f3wki wchodz\u0105 w sk\u0142ad zespo\u0142u. Sprawd\u017a, kiedy stosowa\u0107 amenity=* a kiedy landuse=education.",
                "note": "Children RSPO: 58872;59003;59004;272567"
            }
        },
        {
            "id": 58872,
            "type": "Feature",
            "geometry": {
                "type": "Point",
                "coordinates": [
                    18.88628,
                    50.175430000000006
                ]
            },
            "properties": {
                "isced:level": "1;2",
                "ref:rspo": 58872,
                "official_name": "Szko\u0142a Podstawowa Nr 2 Specjalna w Miko\u0142owie",
                "name": "Szko\u0142a Podstawowa Nr 2 Specjalna w Miko\u0142owie",
                "addr:postcode": "43-190",
                "addr:city": "Miko\u0142\u00f3w",
                "addr:street": "Pokoju",
                "addr:housenumber": "4a",
                "addr:city:simc": 941286,
                "addr:street:sym_ul": 16942,
                "phone": "+48 322198061",
                "email": "sekretariat@zs2s-mikolow.pl",
                "website": "http:\/\/zs2s-mikolow.pl",
                "ref:regon": "000787520",
                "ref:vatin": "PL6351600504",
                "operator": "Powiat Miko\u0142owski",
                "operator:type": "government",
                "amenity": "school",
                "note": "Parent RSPO: 38451"
            }
        },
        {
            "id": 59003,
            "type": "Feature",
            "geometry": {
                "type": "Point",
                "coordinates": [
                    18.88628,
                    50.1754
                ]
            },
            "properties": {
                "ref:rspo": 59003,
                "official_name": "Szko\u0142a Specjalna Przysposabiaj\u0105ca Do Pracy w Miko\u0142owie",
                "name": "Szko\u0142a Specjalna Przysposabiaj\u0105ca Do Pracy w Miko\u0142owie",
                "addr:postcode": "43-190",
                "addr:city": "Miko\u0142\u00f3w",
                "addr:street": "Pokoju",
                "addr:housenumber": "4a",
                "addr:city:simc": 941286,
                "addr:street:sym_ul": 16942,
                "phone": "+48 322198061",
                "email": "sekretariat@zs2s-mikolow.pl",
                "website": "http:\/\/zs2s-mikolow.pl",
                "ref:regon": "240717232",
                "ref:vatin": "PL6351600504",
                "operator": "Powiat Miko\u0142owski",
                "operator:type": "government",
                "amenity": "school",
                "note": "Parent RSPO: 38451"
            }
        },
        {
            "id": 59004,
            "type": "Feature",
            "geometry": {
                "type": "Point",
                "coordinates": [
                    18.88628,
                    50.17537
                ]
            },
            "properties": {
                "isced:level": "3",
                "ref:rspo": 59004,
                "official_name": "Bran\u017cowa Szko\u0142a I Stopnia Specjalna w Miko\u0142owie",
                "name": "Bran\u017cowa Szko\u0142a I Stopnia Specjalna w Miko\u0142owie",
                "addr:postcode": "43-190",
                "addr:city": "Miko\u0142\u00f3w",
                "addr:street": "Pokoju",
                "addr:housenumber": "4a",
                "addr:city:simc": 941286,
                "addr:street:sym_ul": 16942,
                "phone": "+48 322198061",
                "email": "sekretariat@zs2s-mikolow.pl",
                "website": "http:\/\/zs2s-mikolow.pl",
                "ref:regon": "241249371",
                "ref:vatin": "PL6351600504",
                "operator": "Powiat Miko\u0142owski",
                "operator:type": "government",
                "amenity": "school",
                "note": "Parent RSPO: 38451"
            }
        },
        {
            "id": 272567,
            "type": "Feature",
            "geometry": {
                "type": "Point",
                "coordinates": [
                    18.88628,
                    50.175340000000006
                ]
            },
            "properties": {
                "isced:level": "3",
                "ref:rspo": 272567,
                "official_name": "Liceum Og\u00f3lnokszta\u0142c\u0105ce Specjalne w Miko\u0142owie",
                "name": "Liceum Og\u00f3lnokszta\u0142c\u0105ce Specjalne w Miko\u0142owie",
                "addr:postcode": "43-190",
                "addr:city": "Miko\u0142\u00f3w",
                "addr:street": "Pokoju",
                "addr:housenumber": "4a",
                "addr:city:simc": 941286,
                "addr:street:sym_ul": 16942,
                "phone": "+48 322198061",
                "email": "sekretariat@zs2s-mikolow.pl",
                "website": "http:\/\/zs2s-mikolow.pl",
                "ref:regon": "384266980",
                "operator": "Powiat Miko\u0142owski",
                "operator:type": "government",
                "amenity": "school",
                "note": "Parent RSPO: 38451"
            }
        },
        {
            "id": 38592,
            "type": "Feature",
            "geometry": {
                "type": "Point",
                "coordinates": [
                    18.90508,
                    50.1761
                ]
            },
            "properties": {
                "ref:rspo": 38592,
                "official_name": "Przedszkole Nr 8",
                "name": "Przedszkole Nr 8",
                "addr:postcode": "43-190",
                "addr:city": "Miko\u0142\u00f3w",
                "addr:street": "Ludwika Wary\u0144skiego",
                "addr:housenumber": "28a",
                "addr:city:simc": 941286,
                "addr:street:sym_ul": 23707,
                "phone": "+48 322260709",
                "email": "sekretariat@p8.mikolow.eu",
                "website": "http:\/\/www.przedszkole8.edupage.org",
                "ref:regon": "272001744",
                "ref:vatin": "PL6351769516",
                "operator": "Gmina Miko\u0142\u00f3w",
                "operator:type": "government",
                "amenity": "kindergarten"
            }
        },
        {
            "id": 38450,
            "type": "Feature",
            "geometry": {
                "type": "Point",
                "coordinates": [
                    18.89288,
                    50.17657
                ]
            },
            "properties": {
                "ref:rspo": 38450,
                "official_name": "Prestige Europejskie Centrum Kszta\u0142cenia",
                "name": "Prestige Europejskie Centrum Kszta\u0142cenia",
                "addr:postcode": "43-190",
                "addr:city": "Miko\u0142\u00f3w",
                "addr:street": "Wyzwolenia",
                "addr:housenumber": "27",
                "addr:city:simc": 941286,
                "addr:street:sym_ul": 25133,
                "phone": "+48 327385190",
                "email": "szkolenia@eck-prestige.pl",
                "website": "http:\/\/eck-prestige.pl",
                "ref:regon": "243074102",
                "ref:vatin": "PL9541892291",
                "operator": "Ma\u0142gorzata Klimas",
                "operator:type": "private",
                "fixme": "w zale\u017cno\u015bci od przedmiotu dzia\u0142alno\u015bci (np. amenity=training + training=*, amenity=dancing_school, amenity=language_school, amenity=music_school)"
            }
        },
        {
            "id": 133773,
            "type": "Feature",
            "geometry": {
                "type": "Point",
                "coordinates": [
                    18.89288,
                    50.176539999999996
                ]
            },
            "properties": {
                "ref:rspo": 133773,
                "official_name": "Helikon Akademia",
                "name": "Helikon Akademia",
                "addr:postcode": "43-190",
                "addr:city": "Miko\u0142\u00f3w",
                "addr:street": "Wyzwolenia",
                "addr:housenumber": "27",
                "addr:city:simc": 941286,
                "addr:street:sym_ul": 25133,
                "phone": "+48 517603281",
                "email": "dariusz.rzepka@helikon.net.pl",
                "ref:regon": "367619040",
                "operator": "\"Helikon\" Sp\u00f3\u0142ka Z Ograniczon\u0105 Odpowiedzialno\u015bci\u0105",
                "operator:type": "private",
                "fixme": "w zale\u017cno\u015bci od przedmiotu dzia\u0142alno\u015bci (np. amenity=training + training=*, amenity=dancing_school, amenity=language_school, amenity=music_school)"
            }
        },
        {
            "id": 268156,
            "type": "Feature",
            "geometry": {
                "type": "Point",
                "coordinates": [
                    18.89288,
                    50.17651
                ]
            },
            "properties": {
                "ref:rspo": 268156,
                "official_name": "Niepubliczna Poradnia Psychologiczno-Pedagogiczna \"Skarb\"",
                "name": "Niepubliczna Poradnia Psychologiczno-Pedagogiczna \"Skarb\"",
                "addr:postcode": "43-190",
                "addr:city": "Miko\u0142\u00f3w",
                "addr:street": "Wyzwolenia",
                "addr:housenumber": "27",
                "addr:city:simc": 941286,
                "addr:street:sym_ul": 25133,
                "phone": "+48 883060677",
                "email": "wspolnyskarb@gmail.com",
                "ref:regon": "380983577",
                "operator": "Fundacja Centrum Terapii I Rozwoju \"Skarb\"",
                "operator:type": "ngo",
                "healthcare": "counselling",
                "counselling_type": "education",
                "fixme": "w zale\u017cno\u015bci od przedmiotu dzia\u0142alno\u015bci (np. healthcare=counselling + counselling_type=education albo healthcare=psychotherapist)"
            }
        },
        {
            "id": 29382,
            "type": "Feature",
            "geometry": {
                "type": "Point",
                "coordinates": [
                    18.8537399,
                    50.17707
                ]
            },
            "properties": {
                "isced:level": "1;2",
                "ref:rspo": 29382,
                "official_name": "Szko\u0142a Podstawowa Nr 7 w Miko\u0142owie",
                "name": "Szko\u0142a Podstawowa Nr 7 w Miko\u0142owie",
                "addr:postcode": "43-190",
                "addr:city": "Miko\u0142\u00f3w",
                "addr:street": "Zamkowa",
                "addr:housenumber": "1",
                "addr:city:simc": 941286,
                "addr:street:sym_ul": 25547,
                "phone": "+48 322261220",
                "email": "sekretariat@sp7.mikolow.eu",
                "website": "http:\/\/sp7mikolow.edupage.org",
                "ref:regon": "000726790",
                "ref:vatin": "PL6351655712",
                "operator": "Gmina Miko\u0142\u00f3w",
                "operator:type": "government",
                "amenity": "school"
            }
        },
        {
            "id": 49756,
            "type": "Feature",
            "geometry": {
                "type": "Point",
                "coordinates": [
                    18.90453,
                    50.17794
                ]
            },
            "properties": {
                "ref:rspo": 49756,
                "official_name": "F.h.u. Kompleksowa Obs\u0142uga Firm P\u0142aza Piotr",
                "name": "F.h.u. Kompleksowa Obs\u0142uga Firm P\u0142aza Piotr",
                "addr:postcode": "43-190",
                "addr:city": "Miko\u0142\u00f3w",
                "addr:street": "Ludwika Wary\u0144skiego",
                "addr:housenumber": "44",
                "addr:city:simc": 941286,
                "addr:street:sym_ul": 23707,
                "phone": "+48 601410530",
                "email": "plazapiotr@poczta.fm",
                "ref:regon": "243074131",
                "ref:vatin": "PL6351037664",
                "operator": "Piotr P\u0142aza",
                "operator:type": "private",
                "fixme": "w zale\u017cno\u015bci od przedmiotu dzia\u0142alno\u015bci (np. amenity=training + training=*, amenity=dancing_school, amenity=language_school, amenity=music_school)"
            }
        },
        {
            "id": 115533,
            "type": "Feature",
            "geometry": {
                "type": "Point",
                "coordinates": [
                    18.8545,
                    50.17857
                ]
            },
            "properties": {
                "ref:rspo": 115533,
                "official_name": "Publiczne Przedszkole Przedszkole Nr 10 w Miko\u0142owie",
                "name": "Publiczne Przedszkole Przedszkole Nr 10 w Miko\u0142owie",
                "addr:postcode": "43-190",
                "addr:city": "Miko\u0142\u00f3w",
                "addr:street": "Grudniowa",
                "addr:housenumber": "1b",
                "addr:city:simc": 941286,
                "addr:street:sym_ul": 6232,
                "phone": "+48 695941803",
                "ref:regon": "243312949",
                "operator": "Gmina Miko\u0142\u00f3w",
                "operator:type": "government",
                "amenity": "kindergarten"
            }
        },
        {
            "id": 30073,
            "type": "Feature",
            "geometry": {
                "type": "Point",
                "coordinates": [
                    18.89088,
                    50.18163
                ]
            },
            "properties": {
                "ref:rspo": 30073,
                "official_name": "Zesp\u00f3\u0142 Szkolno-Przedszkolny w Miko\u0142owie",
                "name": "Zesp\u00f3\u0142 Szkolno-Przedszkolny w Miko\u0142owie",
                "addr:postcode": "43-190",
                "addr:city": "Miko\u0142\u00f3w",
                "addr:street": "Skalna",
                "addr:housenumber": "10",
                "addr:city:simc": 941286,
                "addr:street:sym_ul": 19969,
                "phone": "+48 322260624",
                "email": "sekretariat@zsp.mikolow.eu",
                "website": "http:\/\/www.zsp.mikolow.edupage.org",
                "ref:regon": "271576046",
                "ref:vatin": "PL6351772903",
                "operator": "Gmina Miko\u0142\u00f3w",
                "operator:type": "government",
                "landuse": "education",
                "fixme": "amenity=school, amenity=college albo landuse=education w zale\u017cno\u015bci od tego, jakie plac\u00f3wki wchodz\u0105 w sk\u0142ad zespo\u0142u. Sprawd\u017a, kiedy stosowa\u0107 amenity=* a kiedy landuse=education.",
                "note": "Children RSPO: 34193;34194"
            }
        },
        {
            "id": 34193,
            "type": "Feature",
            "geometry": {
                "type": "Point",
                "coordinates": [
                    18.89088,
                    50.181599999999996
                ]
            },
            "properties": {
                "isced:level": "1;2",
                "ref:rspo": 34193,
                "official_name": "Szko\u0142a Podstawowa Nr 11 w Miko\u0142owie",
                "name": "Szko\u0142a Podstawowa Nr 11 w Miko\u0142owie",
                "addr:postcode": "43-190",
                "addr:city": "Miko\u0142\u00f3w",
                "addr:street": "Skalna",
                "addr:housenumber": "10",
                "addr:city:simc": 941286,
                "addr:street:sym_ul": 19969,
                "phone": "+48 322260624",
                "website": "http:\/\/zsp.mikolow.edupage.org",
                "ref:regon": "277895628",
                "operator": "Gmina Miko\u0142\u00f3w",
                "operator:type": "government",
                "amenity": "school",
                "note": "Parent RSPO: 30073"
            }
        },
        {
            "id": 34194,
            "type": "Feature",
            "geometry": {
                "type": "Point",
                "coordinates": [
                    18.89088,
                    50.18157
                ]
            },
            "properties": {
                "ref:rspo": 34194,
                "official_name": "Przedszkole Nr 13 w Miko\u0142owie",
                "name": "Przedszkole Nr 13 w Miko\u0142owie",
                "addr:postcode": "43-190",
                "addr:city": "Miko\u0142\u00f3w",
                "addr:street": "Skalna",
                "addr:housenumber": "10",
                "addr:city:simc": 941286,
                "addr:street:sym_ul": 19969,
                "phone": "+48 322260624",
                "website": "http:\/\/zsp.mikolow.edupage.org",
                "ref:regon": "277895634",
                "operator": "Gmina Miko\u0142\u00f3w",
                "operator:type": "government",
                "amenity": "kindergarten",
                "note": "Parent RSPO: 30073"
            }
        },
        {
            "id": 31298,
            "type": "Feature",
            "geometry": {
                "type": "Point",
                "coordinates": [
                    18.79951,
                    50.18416
                ]
            },
            "properties": {
                "isced:level": "1;2",
                "ref:rspo": 31298,
                "official_name": "Szko\u0142a Podstawowa Nr 12 im. J\u00f3zefa Janika",
                "name": "Szko\u0142a Podstawowa Nr 12",
                "addr:postcode": "43-190",
                "addr:city": "Miko\u0142\u00f3w",
                "addr:street": "Szkolna",
                "addr:housenumber": "1",
                "addr:city:simc": 941286,
                "addr:street:sym_ul": 21970,
                "phone": "+48 322355597",
                "email": "sekretariat@sp12.mikolow.eu",
                "website": "http:\/\/www.sp12.mikolow.eu",
                "ref:regon": "001193248",
                "ref:vatin": "PL6351705338",
                "operator": "Gmina Miko\u0142\u00f3w",
                "operator:type": "government",
                "amenity": "school"
            }
        },
        {
            "id": 30330,
            "type": "Feature",
            "geometry": {
                "type": "Point",
                "coordinates": [
                    18.9215,
                    50.18845
                ]
            },
            "properties": {
                "isced:level": "1;2",
                "ref:rspo": 30330,
                "official_name": "Szko\u0142a Podstawowa Nr 4 im. Marii Konopnickiej",
                "name": "Szko\u0142a Podstawowa Nr 4",
                "addr:postcode": "43-190",
                "addr:city": "Miko\u0142\u00f3w",
                "addr:street": "Katowicka",
                "addr:housenumber": "122",
                "addr:city:simc": 941286,
                "addr:street:sym_ul": 8206,
                "phone": "+48 322262190",
                "email": "sekretariat@sp4.mikolow.eu",
                "website": "http:\/\/www.sp4mikolow.edupage.org",
                "ref:regon": "000726760",
                "ref:vatin": "PL6351773268",
                "operator": "Gmina Miko\u0142\u00f3w",
                "operator:type": "government",
                "amenity": "school"
            }
        },
        {
            "id": 278951,
            "type": "Feature",
            "geometry": {
                "type": "Point",
                "coordinates": [
                    18.92552,
                    50.18962
                ]
            },
            "properties": {
                "ref:rspo": 278951,
                "official_name": "Niepubliczny Specjalny Punkt Przedszkolny Skarb",
                "name": "Niepubliczny Specjalny Punkt Przedszkolny Skarb",
                "addr:postcode": "43-190",
                "addr:city": "Miko\u0142\u00f3w",
                "addr:street": "Paprotek",
                "addr:housenumber": "28",
                "addr:city:simc": 941286,
                "addr:street:sym_ul": 27594,
                "email": "przedszkoleskarb@gmail.com",
                "website": "https:\/\/fundacjaskarb.pl\/",
                "ref:regon": "520289707",
                "operator": "Fundacja Centrum Terapii I Rozwoju \"Skarb\"",
                "operator:type": "ngo",
                "amenity": "kindergarten"
            }
        },
        {
            "id": 279073,
            "type": "Feature",
            "geometry": {
                "type": "Point",
                "coordinates": [
                    18.92552,
                    50.189589999999995
                ]
            },
            "properties": {
                "ref:rspo": 279073,
                "official_name": "Niepubliczna Poradnia Psychologiczno-Pedagogiczna Akademia Malucha",
                "name": "Niepubliczna Poradnia Psychologiczno-Pedagogiczna Akademia Malucha",
                "addr:postcode": "43-190",
                "addr:city": "Miko\u0142\u00f3w",
                "addr:street": "Paprotek",
                "addr:housenumber": "28",
                "addr:city:simc": 941286,
                "addr:street:sym_ul": 27594,
                "phone": "+48 883060677",
                "email": "bozena.kolanek290667@gmail.com",
                "ref:regon": "520549657",
                "operator": "Centrum Kreatywnego Rozwoju Dziecka Skarb Non-Profit Sp\u00f3\u0142ka Z Ograniczon\u0105 Odpowiedzialno\u015bci\u0105",
                "operator:type": "private",
                "healthcare": "counselling",
                "counselling_type": "education",
                "fixme": "w zale\u017cno\u015bci od przedmiotu dzia\u0142alno\u015bci (np. healthcare=counselling + counselling_type=education albo healthcare=psychotherapist)"
            }
        },
        {
            "id": 38591,
            "type": "Feature",
            "geometry": {
                "type": "Point",
                "coordinates": [
                    18.92287,
                    50.1903999
                ]
            },
            "properties": {
                "ref:rspo": 38591,
                "official_name": "Przedszkole Nr 4 im. \"Z\u0142otego Pantofelka\" w Miko\u0142owie",
                "name": "Przedszkole Nr 4",
                "addr:postcode": "43-190",
                "addr:city": "Miko\u0142\u00f3w",
                "addr:street": "Katowicka",
                "addr:housenumber": "132",
                "addr:city:simc": 941286,
                "addr:street:sym_ul": 8206,
                "phone": "+48 323220956",
                "email": "sekretariat@p4.mikolow.eu",
                "website": "http:\/\/www.p4.mikolow.eu",
                "ref:regon": "272001709",
                "ref:vatin": "PL6351773593",
                "operator": "Gmina Miko\u0142\u00f3w",
                "operator:type": "government",
                "amenity": "kindergarten"
            }
        },
        {
            "id": 34427,
            "type": "Feature",
            "geometry": {
                "type": "Point",
                "coordinates": [
                    18.82182,
                    50.20856
                ]
            },
            "properties": {
                "isced:level": "1;2",
                "ref:rspo": 34427,
                "official_name": "Szko\u0142a Podstawowa Nr 8 im. Wojciecha Korfantego w Miko\u0142owie",
                "name": "Szko\u0142a Podstawowa Nr 8",
                "addr:postcode": "43-190",
                "addr:city": "Miko\u0142\u00f3w",
                "addr:street": "Wolno\u015bci",
                "addr:housenumber": "27",
                "addr:city:simc": 941286,
                "addr:street:sym_ul": 24687,
                "phone": "+48 322261328",
                "email": "sp8mikolow@interia.pl",
                "website": "http:\/\/www.sp8mikolow.edupage.org",
                "ref:regon": "271503030",
                "ref:vatin": "PL6351649574",
                "operator": "Gmina Miko\u0142\u00f3w",
                "operator:type": "government",
                "amenity": "school"
            }
        },
        {
            "id": 43754,
            "type": "Feature",
            "geometry": {
                "type": "Point",
                "coordinates": [
                    18.81729,
                    50.22339
                ]
            },
            "properties": {
                "isced:level": "1;2",
                "ref:rspo": 43754,
                "official_name": "Szko\u0142a Podstawowa Nr 6 im. Jana Paw\u0142a Ii",
                "name": "Szko\u0142a Podstawowa Nr 6",
                "addr:postcode": "43-190",
                "addr:city": "Miko\u0142\u00f3w",
                "addr:street": "Gliwicka",
                "addr:housenumber": "299",
                "addr:city:simc": 941286,
                "addr:street:sym_ul": 5583,
                "phone": "+48 322261370",
                "email": "sekretariat@sp6.mikolow.eu",
                "website": "http:\/\/www.sp6mikolow.szkolnastrona.pl",
                "ref:regon": "000726783",
                "ref:vatin": "PL6351677412",
                "operator": "Gmina Miko\u0142\u00f3w",
                "operator:type": "government",
                "amenity": "school"
            }
        },
        {
            "id": 34421,
            "type": "Feature",
            "geometry": {
                "type": "Point",
                "coordinates": [
                    18.8065399,
                    50.2272
                ]
            },
            "properties": {
                "ref:rspo": 34421,
                "official_name": "Przedszkole Nr 6 im. Krasnala Ha\u0142aba\u0142y",
                "name": "Przedszkole Nr 6",
                "addr:postcode": "43-190",
                "addr:city": "Miko\u0142\u00f3w",
                "addr:street": "Gliwicka",
                "addr:housenumber": "367",
                "addr:city:simc": 941286,
                "addr:street:sym_ul": 5583,
                "phone": "+48 322261367",
                "website": "http:\/\/przedszkole6.com",
                "ref:regon": "272001721",
                "ref:vatin": "PL6351770531",
                "operator": "Gmina Miko\u0142\u00f3w",
                "operator:type": "government",
                "amenity": "kindergarten"
            }
        },
        {
            "id": 16748,
            "type": "Feature",
            "geometry": {
                "type": "Point",
                "coordinates": [
                    18.80634,
                    50.22811
                ]
            },
            "properties": {
                "ref:rspo": 16748,
                "official_name": "Regionalne Centrum Logopedyczno-Szkoleniowe Kreacji Wizerunku Publicznego Ascot Niepubliczna Plac\u00f3wka Doskonalenia Nauczycieli",
                "name": "Regionalne Centrum Logopedyczno-Szkoleniowe Kreacji Wizerunku Publicznego Ascot Niepubliczna Plac\u00f3wka Doskonalenia Nauczycieli",
                "addr:postcode": "43-190",
                "addr:city": "Miko\u0142\u00f3w",
                "addr:street": "Gliwicka",
                "addr:housenumber": "366",
                "addr:city:simc": 941286,
                "addr:street:sym_ul": 5583,
                "phone": "+48 323225445",
                "email": "biuro@ascot.com.pl",
                "website": "http:\/\/www.ascot.com.pl",
                "ref:regon": "243046590",
                "ref:vatin": "PL6341851593",
                "operator": "Dane Do Uzupe\u0142nienia",
                "operator:type": "private",
                "amenity": "training"
            }
        },
        {
            "id": 38449,
            "type": "Feature",
            "geometry": {
                "type": "Point",
                "coordinates": [
                    18.80634,
                    50.22808
                ]
            },
            "properties": {
                "ref:rspo": 38449,
                "official_name": "Zesp\u00f3\u0142 Szk\u00f3\u0142 Nr 1 Specjalnych w Miko\u0142owie",
                "name": "Zesp\u00f3\u0142 Szk\u00f3\u0142 Nr 1 Specjalnych w Miko\u0142owie",
                "addr:postcode": "43-190",
                "addr:city": "Miko\u0142\u00f3w",
                "addr:street": "Gliwicka",
                "addr:housenumber": "366",
                "addr:city:simc": 941286,
                "addr:street:sym_ul": 5583,
                "phone": "+48 323220462",
                "email": "zss1@powiat.mikolowski.pl",
                "website": "http:\/\/zss1borowawies.pl",
                "ref:regon": "240410427",
                "ref:vatin": "PL6351743534",
                "operator": "Powiat Miko\u0142owski",
                "operator:type": "government",
                "landuse": "education",
                "fixme": "amenity=school, amenity=college albo landuse=education w zale\u017cno\u015bci od tego, jakie plac\u00f3wki wchodz\u0105 w sk\u0142ad zespo\u0142u. Sprawd\u017a, kiedy stosowa\u0107 amenity=* a kiedy landuse=education.",
                "note": "Children RSPO: 56475;133986"
            }
        },
        {
            "id": 56475,
            "type": "Feature",
            "geometry": {
                "type": "Point",
                "coordinates": [
                    18.80634,
                    50.22805
                ]
            },
            "properties": {
                "isced:level": "1;2",
                "ref:rspo": 56475,
                "official_name": "Szko\u0142a Podstawowa Nr 1 Specjalna w Miko\u0142owie im. Ksi\u0119dza Jana Twardowskiego",
                "name": "Szko\u0142a Podstawowa Nr 1 Specjalna w Miko\u0142owie",
                "addr:postcode": "43-190",
                "addr:city": "Miko\u0142\u00f3w",
                "addr:street": "Gliwicka",
                "addr:housenumber": "366",
                "addr:city:simc": 941286,
                "addr:street:sym_ul": 5583,
                "phone": "+48 323220462",
                "email": "zss1@powiat.mikolowski.pl",
                "website": "http:\/\/zss1borowawies.pl",
                "ref:regon": "240410456",
                "ref:vatin": "PL6351743534",
                "operator": "Powiat Miko\u0142owski",
                "operator:type": "government",
                "amenity": "school",
                "note": "Parent RSPO: 38449"
            }
        },
        {
            "id": 133986,
            "type": "Feature",
            "geometry": {
                "type": "Point",
                "coordinates": [
                    18.80634,
                    50.22802
                ]
            },
            "properties": {
                "ref:rspo": 133986,
                "official_name": "Szko\u0142a Specjalna Przysposabiaj\u0105ca Do Pracy Nr 2 w Miko\u0142owie",
                "name": "Szko\u0142a Specjalna Przysposabiaj\u0105ca Do Pracy Nr 2 w Miko\u0142owie",
                "addr:postcode": "43-190",
                "addr:city": "Miko\u0142\u00f3w",
                "addr:street": "Gliwicka",
                "addr:housenumber": "366",
                "addr:city:simc": 941286,
                "addr:street:sym_ul": 5583,
                "phone": "+48 323220462",
                "email": "zss1@powiat.mikolowski.pl",
                "website": "http:\/\/www.zss1borowawies.pl",
                "ref:regon": "367768722",
                "operator": "Powiat Miko\u0142owski",
                "operator:type": "government",
                "amenity": "school",
                "note": "Parent RSPO: 38449"
            }
        }
    ]
}