{
    "type": "FeatureCollection",
    "features": [
        {
            "id": 7955,
            "type": "Feature",
            "geometry": {
                "type": "Point",
                "coordinates": [
                    18.88217,
                    50.10404
                ]
            },
            "properties": {
                "ref:rspo": 7955,
                "official_name": "Gminne Przedszkole w Gostyni",
                "name": "Gminne Przedszkole w Gostyni",
                "addr:postcode": "43-176",
                "addr:city": "Gosty\u0144",
                "addr:street": "Pszczy\u0144ska",
                "addr:housenumber": "366a",
                "addr:city:simc": 224981,
                "addr:street:sym_ul": 18045,
                "phone": "+48 322187655",
                "email": "przedszkolegostyn@wyry.pl",
                "website": "http:\/\/przedszkolegostyn.wyry.pl",
                "ref:regon": "241413586",
                "operator": "Gmina Wyry",
                "operator:type": "government",
                "amenity": "kindergarten"
            }
        },
        {
            "id": 88154,
            "type": "Feature",
            "geometry": {
                "type": "Point",
                "coordinates": [
                    18.86983,
                    50.10501
                ]
            },
            "properties": {
                "isced:level": "1;2",
                "ref:rspo": 88154,
                "official_name": "Szko\u0142a Podstawowa im.bohater\u00f3w Wrze\u015bnia 1939 w Gostyni",
                "name": "Szko\u0142a Podstawowa im.bohater\u00f3w Wrze\u015bnia 1939 w Gostyni",
                "addr:postcode": "43-176",
                "addr:city": "Gosty\u0144",
                "addr:street": "Rybnicka",
                "addr:housenumber": "141",
                "addr:city:simc": 224981,
                "addr:street:sym_ul": 19179,
                "phone": "+48 322187600",
                "email": "szkola.gostyn@wyry.pl",
                "website": "http:\/\/www.spgostyn.edupage.org",
                "ref:regon": "000725832",
                "ref:vatin": "PL6351677435",
                "operator": "Gmina Wyry",
                "operator:type": "government",
                "amenity": "school"
            }
        },
        {
            "id": 130644,
            "type": "Feature",
            "geometry": {
                "type": "Point",
                "coordinates": [
                    18.88183,
                    50.11153
                ]
            },
            "properties": {
                "ref:rspo": 130644,
                "official_name": "Niepubliczne Przedszkole Troskliwe Misie",
                "name": "Niepubliczne Przedszkole Troskliwe Misie",
                "addr:postcode": "43-176",
                "addr:city": "Gosty\u0144",
                "addr:street": "Pszczy\u0144ska",
                "addr:housenumber": "449",
                "addr:door": "-",
                "addr:city:simc": 224981,
                "addr:street:sym_ul": 18045,
                "phone": "+48 327977041",
                "email": "troskliwemisiegostyn@poczta.fm",
                "website": "http:\/\/www.troskliwe-misie.com.pl",
                "ref:regon": "364280121",
                "operator": "Marcin Damasiewicz",
                "operator:type": "private",
                "amenity": "kindergarten"
            }
        },
        {
            "id": 263286,
            "type": "Feature",
            "geometry": {
                "type": "Point",
                "coordinates": [
                    18.88183,
                    50.1115
                ]
            },
            "properties": {
                "ref:rspo": 263286,
                "official_name": "Niepubliczne Przedszkole Radosne Troskliwe Misie",
                "name": "Niepubliczne Przedszkole Radosne Troskliwe Misie",
                "addr:postcode": "43-176",
                "addr:city": "Gosty\u0144",
                "addr:street": "Pszczy\u0144ska",
                "addr:housenumber": "449",
                "addr:city:simc": 224981,
                "addr:street:sym_ul": 18045,
                "phone": "+48 327977041",
                "email": "troskliwemisiegostyn@poczta.fm",
                "website": "http:\/\/www.troskliwe-misie.com.pl",
                "ref:regon": "368179293",
                "operator": "Marcin Damasiewicz",
                "operator:type": "private",
                "amenity": "kindergarten"
            }
        },
        {
            "id": 48383,
            "type": "Feature",
            "geometry": {
                "type": "Point",
                "coordinates": [
                    18.88055,
                    50.11196
                ]
            },
            "properties": {
                "ref:rspo": 48383,
                "official_name": "Plac\u00f3wka Doradztwa, Szkole\u0144 I Dokszta\u0142cania Zawodowego \"Zkling2\"",
                "name": "Plac\u00f3wka Doradztwa, Szkole\u0144 I Dokszta\u0142cania Zawodowego \"Zkling2\"",
                "addr:postcode": "43-176",
                "addr:city": "Gosty\u0144",
                "addr:street": "\u0141ucznik\u00f3w",
                "addr:housenumber": "1",
                "addr:city:simc": 224981,
                "addr:street:sym_ul": 11740,
                "phone": "+48 323260293",
                "email": "zkling@zkling.pl",
                "website": "http:\/\/zkling.pl",
                "ref:regon": "243073960",
                "ref:vatin": "PL6351056101",
                "operator": "Mariusz Kurzywilk",
                "operator:type": "private",
                "fixme": "w zale\u017cno\u015bci od przedmiotu dzia\u0142alno\u015bci (np. amenity=training + training=*, amenity=dancing_school, amenity=language_school, amenity=music_school)"
            }
        },
        {
            "id": 131570,
            "type": "Feature",
            "geometry": {
                "type": "Point",
                "coordinates": [
                    18.84449,
                    50.11816
                ]
            },
            "properties": {
                "ref:rspo": 131570,
                "official_name": "Prywatne Przedszkole J\u0119zykowe Oxfordzik",
                "name": "Prywatne Przedszkole J\u0119zykowe Oxfordzik",
                "addr:postcode": "43-176",
                "addr:city": "Gosty\u0144",
                "addr:street": "Wojciecha Drzyma\u0142y",
                "addr:housenumber": "8E",
                "addr:city:simc": 224981,
                "addr:street:sym_ul": 4319,
                "phone": "+48 798961539",
                "email": "przedszkoleoxfordzik@gmail.com",
                "website": "http:\/\/www.przedszkoleoxfordzik.pl",
                "ref:regon": "365226856",
                "ref:vatin": "PL9491938759",
                "operator": "Marta Rybczy\u0144ska",
                "operator:type": "private",
                "amenity": "kindergarten"
            }
        },
        {
            "id": 7954,
            "type": "Feature",
            "geometry": {
                "type": "Point",
                "coordinates": [
                    18.90326,
                    50.12989
                ]
            },
            "properties": {
                "ref:rspo": 7954,
                "official_name": "Gminne Przedszkole w Wyrach",
                "name": "Gminne Przedszkole w Wyrach",
                "addr:postcode": "43-175",
                "addr:city": "Wyry",
                "addr:street": "Aleksandra Puszkina",
                "addr:housenumber": "10A",
                "addr:city:simc": 224998,
                "addr:street:sym_ul": 18209,
                "phone": "+48 327782441",
                "email": "przedszkole.wyry@przedszkolewyry.com",
                "website": "http:\/\/przedszkolewyry.com",
                "ref:regon": "241411682",
                "operator": "Gmina Wyry",
                "operator:type": "government",
                "amenity": "kindergarten"
            }
        },
        {
            "id": 88032,
            "type": "Feature",
            "geometry": {
                "type": "Point",
                "coordinates": [
                    18.90326,
                    50.12986
                ]
            },
            "properties": {
                "isced:level": "1;2",
                "ref:rspo": 88032,
                "official_name": "Szko\u0142a Podstawowa w Wyrach",
                "name": "Szko\u0142a Podstawowa w Wyrach",
                "addr:postcode": "43-175",
                "addr:city": "Wyry",
                "addr:street": "Aleksandra Puszkina",
                "addr:housenumber": "10",
                "addr:city:simc": 224998,
                "addr:street:sym_ul": 18209,
                "phone": "+48 322187244",
                "email": "spwyry@wyry.pl",
                "website": "http:\/\/spwyry.edupage.org",
                "ref:regon": "000725849",
                "ref:vatin": "PL6351677429",
                "operator": "Gmina Wyry",
                "operator:type": "government",
                "amenity": "school"
            }
        },
        {
            "id": 41824,
            "type": "Feature",
            "geometry": {
                "type": "Point",
                "coordinates": [
                    18.9008499,
                    50.13101
                ]
            },
            "properties": {
                "ref:rspo": 41824,
                "official_name": "O\u015brodek Rehabilitacyjno - Edukacyjno - Wychowawczy Psouu",
                "name": "O\u015brodek Rehabilitacyjno - Edukacyjno - Wychowawczy Psouu",
                "addr:postcode": "43-175",
                "addr:city": "Wyry",
                "addr:street": "Ksi\u0119dza Franciszka Bojdo\u0142a",
                "addr:housenumber": "3a",
                "addr:city:simc": 224998,
                "addr:street:sym_ul": 1714,
                "phone": "+48 322187001",
                "email": "orew.wyry@psouu.org.pl",
                "ref:regon": "243074898",
                "ref:vatin": "PL6351198002",
                "operator": "Polskie Stowarzyszenie Na Rzecz Os\u00f3b Z Niepe\u0142nosprawno\u015bci\u0105 Intelektualn\u0105 Ko\u0142o W Miko\u0142owie",
                "operator:type": "ngo",
                "amenity": "school"
            }
        }
    ]
}