{
    "type": "FeatureCollection",
    "features": [
        {
            "id": 38448,
            "type": "Feature",
            "geometry": {
                "type": "Point",
                "coordinates": [
                    18.7704442,
                    50.176312
                ]
            },
            "properties": {
                "ref:rspo": 38448,
                "official_name": "Zesp\u00f3\u0142 Szk\u00f3\u0142 Ponadpodstawowych w Ornontowicach",
                "name": "Zesp\u00f3\u0142 Szk\u00f3\u0142 Ponadpodstawowych w Ornontowicach",
                "addr:country": "PL",
                "addr:postcode": "43-178",
                "addr:city": "Ornontowice",
                "addr:street": "Dworcowa",
                "addr:housenumber": "1",
                "addr:teryt:simc": 218437,
                "addr:teryt:sym_ul": 4434,
                "contact:phone": "+48 322354600",
                "contact:email": "sekretariat@zspornontowice.pl",
                "contact:website": "http:\/\/zspornontowice.pl",
                "ref:regon": "000096164",
                "ref:vatin": "PL9690905780",
                "operator": "Powiat Miko\u0142owski",
                "operator:type": "government",
                "landuse": "education",
                "fixme": "amenity=school, amenity=college albo landuse=education w zale\u017cno\u015bci od tego, jakie plac\u00f3wki wchodz\u0105 w sk\u0142ad zespo\u0142u. Sprawd\u017a, kiedy stosowa\u0107 amenity=* a kiedy landuse=education.",
                "note": "Children RSPO: 55084;55096;55402;275507"
            }
        },
        {
            "id": 55084,
            "type": "Feature",
            "geometry": {
                "type": "Point",
                "coordinates": [
                    18.7704442,
                    50.176282
                ]
            },
            "properties": {
                "isced:level": "3",
                "ref:rspo": 55084,
                "official_name": "Liceum Og\u00f3lnokszta\u0142c\u0105ce w Ornontowicach",
                "name": "Liceum Og\u00f3lnokszta\u0142c\u0105ce w Ornontowicach",
                "addr:country": "PL",
                "addr:postcode": "43-178",
                "addr:city": "Ornontowice",
                "addr:street": "Dworcowa",
                "addr:housenumber": "1",
                "addr:teryt:simc": 218437,
                "addr:teryt:sym_ul": 4434,
                "contact:phone": "+48 322354600",
                "contact:email": "sekretariat@zspornontowice.pl",
                "contact:website": "https:\/\/zspornontowice.edupage.org\/",
                "ref:regon": "277862586",
                "ref:vatin": "PL9690905780",
                "operator": "Powiat Miko\u0142owski",
                "operator:type": "government",
                "amenity": "school",
                "note": "Parent RSPO: 38448"
            }
        },
        {
            "id": 55096,
            "type": "Feature",
            "geometry": {
                "type": "Point",
                "coordinates": [
                    18.7704442,
                    50.176252000000005
                ]
            },
            "properties": {
                "isced:level": "3",
                "ref:rspo": 55096,
                "official_name": "Technikum w Ornontowicach",
                "name": "Technikum w Ornontowicach",
                "addr:country": "PL",
                "addr:postcode": "43-178",
                "addr:city": "Ornontowice",
                "addr:street": "Dworcowa",
                "addr:housenumber": "1",
                "addr:teryt:simc": 218437,
                "addr:teryt:sym_ul": 4434,
                "contact:phone": "+48 322354600",
                "contact:email": "sekretariat@zspornontowice.pl",
                "contact:website": "http:\/\/zspornontowice.pl",
                "ref:regon": "276145718",
                "ref:vatin": "PL9690905780",
                "operator": "Powiat Miko\u0142owski",
                "operator:type": "government",
                "amenity": "school",
                "note": "Parent RSPO: 38448"
            }
        },
        {
            "id": 55402,
            "type": "Feature",
            "geometry": {
                "type": "Point",
                "coordinates": [
                    18.7704442,
                    50.176222
                ]
            },
            "properties": {
                "isced:level": "3",
                "ref:rspo": 55402,
                "official_name": "Bran\u017cowa Szko\u0142a I Stopnia w Ornontowicach",
                "name": "Bran\u017cowa Szko\u0142a I Stopnia w Ornontowicach",
                "addr:country": "PL",
                "addr:postcode": "43-178",
                "addr:city": "Ornontowice",
                "addr:street": "Dworcowa",
                "addr:housenumber": "1",
                "addr:teryt:simc": 218437,
                "addr:teryt:sym_ul": 4434,
                "contact:phone": "+48 322354600",
                "contact:email": "sekretariat@zspornontowice.pl",
                "contact:website": "https:\/\/zspornontowice.edupage.org\/",
                "ref:regon": "276633659",
                "ref:vatin": "PL9690905780",
                "operator": "Powiat Miko\u0142owski",
                "operator:type": "government",
                "amenity": "school",
                "note": "Parent RSPO: 38448"
            }
        },
        {
            "id": 275507,
            "type": "Feature",
            "geometry": {
                "type": "Point",
                "coordinates": [
                    18.7704442,
                    50.176192
                ]
            },
            "properties": {
                "isced:level": "3",
                "ref:rspo": 275507,
                "official_name": "Bran\u017cowa Szko\u0142a II Stopnia w Ornontowicach",
                "name": "Bran\u017cowa Szko\u0142a II Stopnia w Ornontowicach",
                "addr:country": "PL",
                "addr:postcode": "43-178",
                "addr:city": "Ornontowice",
                "addr:street": "Dworcowa",
                "addr:housenumber": "1",
                "addr:teryt:simc": 218437,
                "addr:teryt:sym_ul": 4434,
                "contact:phone": "+48 322354600",
                "contact:email": "sekretariat@zspornontowice.pl",
                "contact:website": "https:\/\/zspornontowice.edupage.org\/",
                "ref:regon": "386922163",
                "operator": "Powiat Miko\u0142owski",
                "operator:type": "government",
                "amenity": "school",
                "note": "Parent RSPO: 38448"
            }
        },
        {
            "id": 90844,
            "type": "Feature",
            "geometry": {
                "type": "Point",
                "coordinates": [
                    18.76389,
                    50.17915
                ]
            },
            "properties": {
                "ref:rspo": 90844,
                "official_name": "Katolickie Przedszkole Niepubliczne Si\u00f3str S\u0142u\u017cebniczek Nmp Np\nIm. Anio\u0142\u00f3w Str\u00f3\u017c\u00f3w\nW Ornontowicach",
                "name": "Katolickie Przedszkole Niepubliczne Si\u00f3str S\u0142u\u017cebniczek Nmp Np\nIm. Anio\u0142\u00f3w Str\u00f3\u017c\u00f3w\nW Ornontowicach",
                "addr:country": "PL",
                "addr:postcode": "43-178",
                "addr:city": "Ornontowice",
                "addr:street": "Zamkowa",
                "addr:housenumber": "2",
                "addr:teryt:simc": 218437,
                "addr:teryt:sym_ul": 25547,
                "contact:phone": "+48 694772917",
                "contact:email": "przedszkole.ornontowice@gmail.com",
                "ref:regon": "243110855",
                "ref:vatin": "PL6351790835",
                "operator": "Zgromadzenie Si\u00f3str S\u0142u\u017cebniczek Nmp Np  Prowincja Katowicka",
                "operator:type": "religious",
                "amenity": "kindergarten"
            }
        },
        {
            "id": 91308,
            "type": "Feature",
            "geometry": {
                "type": "Point",
                "coordinates": [
                    18.76268,
                    50.18195
                ]
            },
            "properties": {
                "ref:rspo": 91308,
                "official_name": "Zesp\u00f3\u0142 Szkolno-Przedszkolny w Gminie Ornontowice",
                "name": "Zesp\u00f3\u0142 Szkolno-Przedszkolny w Gminie Ornontowice",
                "addr:country": "PL",
                "addr:postcode": "43-178",
                "addr:city": "Ornontowice",
                "addr:street": "Zwyci\u0119stwa",
                "addr:housenumber": "7",
                "addr:teryt:simc": 218437,
                "addr:teryt:sym_ul": 26326,
                "contact:phone": "+48 322355016",
                "contact:email": "zsp@ornontowice.edu.pl",
                "contact:website": "http:\/\/www.ornontowice.edu.pl",
                "ref:regon": "240128955",
                "ref:vatin": "PL6351719984",
                "operator": "Gmina Ornontowice",
                "operator:type": "government",
                "landuse": "education",
                "fixme": "amenity=school, amenity=college albo landuse=education w zale\u017cno\u015bci od tego, jakie plac\u00f3wki wchodz\u0105 w sk\u0142ad zespo\u0142u. Sprawd\u017a, kiedy stosowa\u0107 amenity=* a kiedy landuse=education.",
                "note": "Children RSPO: 92537;92538"
            }
        },
        {
            "id": 92537,
            "type": "Feature",
            "geometry": {
                "type": "Point",
                "coordinates": [
                    18.76268,
                    50.18192
                ]
            },
            "properties": {
                "ref:rspo": 92537,
                "official_name": "Przedszkole im. Kubusia Puchatka w Zespole Szkolno-Przedszkolnym w Gminie Ornontowice",
                "name": "Przedszkole",
                "addr:country": "PL",
                "addr:postcode": "43-178",
                "addr:city": "Ornontowice",
                "addr:street": "Zwyci\u0119stwa",
                "addr:housenumber": "7",
                "addr:teryt:simc": 218437,
                "addr:teryt:sym_ul": 26326,
                "contact:phone": "+48 322355016",
                "contact:email": "zsp@ornontowice.edu.pl",
                "contact:website": "http:\/\/www.ornontowice.edu.pl",
                "ref:regon": "271512490",
                "operator": "Gmina Ornontowice",
                "operator:type": "government",
                "amenity": "kindergarten",
                "note": "Parent RSPO: 91308"
            }
        },
        {
            "id": 92538,
            "type": "Feature",
            "geometry": {
                "type": "Point",
                "coordinates": [
                    18.76268,
                    50.18189
                ]
            },
            "properties": {
                "isced:level": "1;2",
                "ref:rspo": 92538,
                "official_name": "Szko\u0142a Podstawowa im. Karola Miarki w Zespole Szkolno-Przedszkolnym w Gminie Ornontowice",
                "name": "Szko\u0142a Podstawowa",
                "addr:country": "PL",
                "addr:postcode": "43-178",
                "addr:city": "Ornontowice",
                "addr:street": "Zwyci\u0119stwa",
                "addr:housenumber": "7",
                "addr:teryt:simc": 218437,
                "addr:teryt:sym_ul": 26326,
                "contact:phone": "+48 322355016",
                "contact:email": "zsp@ornontowice.edu.pl",
                "contact:website": "http:\/\/www.ornontowice.edu.pl",
                "ref:regon": "001193260",
                "operator": "Gmina Ornontowice",
                "operator:type": "government",
                "amenity": "school",
                "note": "Parent RSPO: 91308"
            }
        }
    ]
}