{
    "type": "FeatureCollection",
    "features": [
        {
            "id": 107070,
            "type": "Feature",
            "geometry": {
                "type": "Point",
                "coordinates": [
                    16.97192,
                    50.69663
                ]
            },
            "properties": {
                "ref:rspo": 107070,
                "official_name": "Specjalny O\u015brodek Szkolno Wychowawczy w Skoroszowicach",
                "name": "Specjalny O\u015brodek Szkolno Wychowawczy w Skoroszowicach",
                "addr:country": "PL",
                "addr:postcode": "57-100",
                "addr:place": "Skoroszowice",
                "addr:housenumber": "20",
                "addr:teryt:sym_ul": 880640,
                "contact:phone": "+48 713930329",
                "contact:email": "szkola_skoro@o2.pl",
                "contact:website": "http:\/\/www.skoroszowice.pl",
                "ref:regon": "932116570",
                "ref:vatin": "PL9141442839",
                "operator": "Powiat Strzeli\u0144ski",
                "operator:type": "government",
                "amenity": "school",
                "note": "Children RSPO: 107071;107073;107074Parent RSPO: 47127"
            }
        },
        {
            "id": 107071,
            "type": "Feature",
            "geometry": {
                "type": "Point",
                "coordinates": [
                    16.97192,
                    50.6966
                ]
            },
            "properties": {
                "isced:level": "3",
                "ref:rspo": 107071,
                "official_name": "Bran\u017cowa Szko\u0142a I Stopnia w Skoroszowicach",
                "name": "Bran\u017cowa Szko\u0142a I Stopnia w Skoroszowicach",
                "addr:country": "PL",
                "addr:postcode": "57-100",
                "addr:place": "Skoroszowice",
                "addr:housenumber": "20",
                "addr:teryt:sym_ul": 880640,
                "contact:phone": "+48 713930329",
                "contact:email": "osrodekszkolny@wp.pl",
                "contact:website": "http:\/\/www.skoroszowice.pl",
                "ref:regon": "932116528",
                "ref:vatin": "PL9141443000",
                "operator": "Powiat Strzeli\u0144ski",
                "operator:type": "government",
                "amenity": "school",
                "note": "Parent RSPO: 107070"
            }
        },
        {
            "id": 107073,
            "type": "Feature",
            "geometry": {
                "type": "Point",
                "coordinates": [
                    16.97192,
                    50.69657
                ]
            },
            "properties": {
                "ref:rspo": 107073,
                "official_name": "Szko\u0142a Specjalna Przysposabiaj\u0105ca Do Pracy w Skoroszowicach",
                "name": "Szko\u0142a Specjalna Przysposabiaj\u0105ca Do Pracy w Skoroszowicach",
                "addr:country": "PL",
                "addr:postcode": "57-100",
                "addr:place": "Skoroszowice",
                "addr:housenumber": "20",
                "addr:teryt:sym_ul": 880640,
                "contact:email": "szkola_skoro@o2.pl",
                "contact:website": "http:\/\/www.skoroszowice.pl",
                "ref:regon": "020418474",
                "ref:vatin": "PL9141443000",
                "operator": "Powiat Strzeli\u0144ski",
                "operator:type": "government",
                "amenity": "school",
                "note": "Parent RSPO: 107070"
            }
        },
        {
            "id": 107074,
            "type": "Feature",
            "geometry": {
                "type": "Point",
                "coordinates": [
                    16.97192,
                    50.69654
                ]
            },
            "properties": {
                "isced:level": "1;2",
                "ref:rspo": 107074,
                "official_name": "Szko\u0142a Podstawowa Specjalna w Skoroszowicach",
                "name": "Szko\u0142a Podstawowa Specjalna w Skoroszowicach",
                "addr:country": "PL",
                "addr:postcode": "57-100",
                "addr:place": "Skoroszowice",
                "addr:housenumber": "20",
                "addr:teryt:sym_ul": 880640,
                "contact:phone": "+48 713930329",
                "contact:email": "osrodekszkolny@wp.pl",
                "contact:website": "http:\/\/www.skoroszowice.pl",
                "ref:regon": "001040912",
                "ref:vatin": "PL9141442905",
                "operator": "Powiat Strzeli\u0144ski",
                "operator:type": "government",
                "amenity": "school",
                "note": "Parent RSPO: 107070"
            }
        },
        {
            "id": 113937,
            "type": "Feature",
            "geometry": {
                "type": "Point",
                "coordinates": [
                    17.0180599,
                    50.70411
                ]
            },
            "properties": {
                "ref:rspo": 113937,
                "official_name": "Top Education Sobies\u0142aw Sowa",
                "name": "Top Education Sobies\u0142aw Sowa",
                "addr:country": "PL",
                "addr:postcode": "57-100",
                "addr:place": "Kazan\u00f3w",
                "addr:housenumber": "35",
                "addr:teryt:sym_ul": 880461,
                "contact:phone": "+48 661993983",
                "ref:regon": "022207787",
                "operator": "Sobies\u0142aw Sowa",
                "operator:type": "private",
                "fixme": "w zale\u017cno\u015bci od przedmiotu dzia\u0142alno\u015bci (np. amenity=training + training=*, amenity=dancing_school, amenity=language_school, amenity=music_school)"
            }
        },
        {
            "id": 86333,
            "type": "Feature",
            "geometry": {
                "type": "Point",
                "coordinates": [
                    17.03951,
                    50.72958
                ]
            },
            "properties": {
                "ref:rspo": 86333,
                "official_name": "Klub dla Dzieci \"Stokrotka\"",
                "name": "Klub dla Dzieci \"Stokrotka\"",
                "addr:country": "PL",
                "addr:postcode": "57-100",
                "addr:city": "Bia\u0142y Ko\u015bci\u00f3\u0142",
                "addr:street": "Cedrowa",
                "addr:housenumber": "27",
                "addr:teryt:simc": 2566,
                "addr:teryt:sym_ul": 880283,
                "contact:email": "stokrotkabialykosciol@gmail.com",
                "ref:regon": "022010889",
                "operator": "Zdzis\u0142awa Nejman",
                "operator:type": "private",
                "amenity": "kindergarten"
            }
        },
        {
            "id": 273643,
            "type": "Feature",
            "geometry": {
                "type": "Point",
                "coordinates": [
                    17.03864,
                    50.72978
                ]
            },
            "properties": {
                "ref:rspo": 273643,
                "official_name": "Przedszkole Z Warto\u015bciami",
                "name": "Przedszkole Z Warto\u015bciami",
                "addr:country": "PL",
                "addr:postcode": "57-100",
                "addr:city": "Strzelin",
                "addr:street": "Kamienna",
                "addr:housenumber": "1",
                "addr:door": "A",
                "addr:teryt:simc": 7879,
                "addr:teryt:sym_ul": 987331,
                "contact:phone": "+48 604698465",
                "contact:email": "kontakt@szkolazwartosciami.pl",
                "contact:website": "http:\/\/szkolazwartosciami.pl",
                "ref:regon": "384552360",
                "operator": "Marta Konsencjusz",
                "operator:type": "private",
                "amenity": "kindergarten"
            }
        },
        {
            "id": 86332,
            "type": "Feature",
            "geometry": {
                "type": "Point",
                "coordinates": [
                    17.04125,
                    50.7303
                ]
            },
            "properties": {
                "isced:level": "1;2",
                "ref:rspo": 86332,
                "official_name": "Publiczna Szko\u0142a Podstawowa w Bia\u0142ym Ko\u015bciele",
                "name": "Publiczna Szko\u0142a Podstawowa w Bia\u0142ym Ko\u015bciele",
                "addr:country": "PL",
                "addr:postcode": "57-100",
                "addr:city": "Bia\u0142y Ko\u015bci\u00f3\u0142",
                "addr:street": "Kamienna",
                "addr:housenumber": "18",
                "addr:teryt:simc": 7879,
                "addr:teryt:sym_ul": 880283,
                "contact:phone": "+48 713930616",
                "contact:email": "sp-bialykosciol@wp.pl",
                "ref:regon": "001180955",
                "ref:vatin": "PL9141350988",
                "operator": "Gmina Strzelin",
                "operator:type": "government",
                "amenity": "school"
            }
        },
        {
            "id": 88575,
            "type": "Feature",
            "geometry": {
                "type": "Point",
                "coordinates": [
                    17.10702,
                    50.74937
                ]
            },
            "properties": {
                "isced:level": "1;2",
                "ref:rspo": 88575,
                "official_name": "Publiczna Szko\u0142a Podstawowa w Kuropatniku",
                "name": "Publiczna Szko\u0142a Podstawowa w Kuropatniku",
                "addr:country": "PL",
                "addr:postcode": "57-100",
                "addr:city": "Kuropatnik",
                "addr:street": "Szkolna",
                "addr:housenumber": "1",
                "addr:teryt:simc": 21970,
                "addr:teryt:sym_ul": 880490,
                "contact:phone": "+48 713921558",
                "contact:email": "spkuropatnik@wp.pl",
                "contact:website": "http:\/\/www.kuropatnik.edupage.org",
                "ref:regon": "001180978",
                "ref:vatin": "PL9141489054",
                "operator": "Gmina Strzelin",
                "operator:type": "government",
                "amenity": "school"
            }
        },
        {
            "id": 84171,
            "type": "Feature",
            "geometry": {
                "type": "Point",
                "coordinates": [
                    17.11123,
                    50.75073
                ]
            },
            "properties": {
                "ref:rspo": 84171,
                "official_name": "Niepubliczne Przedszkole J\u0119zykowe \"Micha\u0142ek\"",
                "name": "Niepubliczne Przedszkole J\u0119zykowe \"Micha\u0142ek\"",
                "addr:country": "PL",
                "addr:postcode": "57-100",
                "addr:city": "Strzelin",
                "addr:street": "\u015awi\u0119tego Jana",
                "addr:housenumber": "10",
                "addr:teryt:simc": 7113,
                "addr:teryt:sym_ul": 987331,
                "contact:email": "biuro@przedszkole-michalek-strzelin.pl",
                "ref:regon": "022009998",
                "ref:vatin": "PL6922449119",
                "operator": "\"Micha\u0142ek\" Sp\u00f3\u0142ka Z Ograniczon\u0105 Odpowiedzialno\u015bci\u0105",
                "operator:type": "private",
                "amenity": "kindergarten"
            }
        },
        {
            "id": 84721,
            "type": "Feature",
            "geometry": {
                "type": "Point",
                "coordinates": [
                    17.11518,
                    50.75216
                ]
            },
            "properties": {
                "ref:rspo": 84721,
                "official_name": "Niepubliczne Przedszkole Ekologiczne\"Eko-Przedszkolak\"",
                "name": "Niepubliczne Przedszkole Ekologiczne\"Eko-Przedszkolak\"",
                "addr:country": "PL",
                "addr:postcode": "57-100",
                "addr:city": "Strzelin",
                "addr:street": "\u015awi\u0119tego Jana",
                "addr:housenumber": "5",
                "addr:teryt:simc": 7113,
                "addr:teryt:sym_ul": 987331,
                "contact:email": "marta.kons@wp.pl",
                "contact:website": "http:\/\/ekoprzedszkolak.pl",
                "ref:regon": "022009892",
                "operator": "Marta Konsencjusz",
                "operator:type": "private",
                "amenity": "kindergarten"
            }
        },
        {
            "id": 84170,
            "type": "Feature",
            "geometry": {
                "type": "Point",
                "coordinates": [
                    17.11584,
                    50.75239
                ]
            },
            "properties": {
                "ref:rspo": 84170,
                "official_name": "Przedszkole Miejskie w Strzelinie \"Kolorowa Kraina\"",
                "name": "Przedszkole Miejskie w Strzelinie \"Kolorowa Kraina\"",
                "addr:country": "PL",
                "addr:postcode": "57-100",
                "addr:city": "Strzelin",
                "addr:street": "Przedszkolna",
                "addr:housenumber": "1",
                "addr:teryt:simc": 17683,
                "addr:teryt:sym_ul": 987331,
                "contact:phone": "+48 717501578",
                "contact:email": "przedszkole-strzelin@wp.pl",
                "ref:regon": "001012525",
                "ref:vatin": "PL9141350787",
                "operator": "Gmina Strzelin",
                "operator:type": "government",
                "amenity": "kindergarten"
            }
        },
        {
            "id": 121320,
            "type": "Feature",
            "geometry": {
                "type": "Point",
                "coordinates": [
                    17.070049285889,
                    50.765239715576
                ]
            },
            "properties": {
                "ref:rspo": 121320,
                "official_name": "Libra Centrum Us\u0142ug Medycznych I Szkoleniowych Niepubliczny O\u015brodek Doskonalenia Nauczycieli",
                "name": "Libra Centrum Us\u0142ug Medycznych I Szkoleniowych Niepubliczny O\u015brodek Doskonalenia Nauczycieli",
                "addr:country": "PL",
                "addr:postcode": "57-100",
                "addr:city": "G\u0119siniec",
                "addr:street": "Jod\u0142owa",
                "addr:housenumber": "2",
                "addr:teryt:simc": 7582,
                "addr:teryt:sym_ul": 880395,
                "contact:phone": "+48 600888670",
                "contact:email": "biuro@libramedical.pl",
                "contact:website": "http:\/\/www.libramedical.pl",
                "ref:regon": "022323105",
                "ref:vatin": "PL8821801171",
                "operator": "Dane Do Uzupe\u0142nienia",
                "operator:type": "private",
                "fixme": "w zale\u017cno\u015bci od przedmiotu dzia\u0142alno\u015bci (np. amenity=training + training=*, amenity=dancing_school, amenity=language_school, amenity=music_school) albo amenity=school, amenity=college, albo landuse=education w zale\u017cno\u015bci od tego, jakie plac\u00f3wki wchodz\u0105 w sk\u0142ad zespo\u0142u. Sprawd\u017a, kiedy stosowa\u0107 amenity=* a kiedy landuse=education."
            }
        },
        {
            "id": 88490,
            "type": "Feature",
            "geometry": {
                "type": "Point",
                "coordinates": [
                    17.03708,
                    50.77435
                ]
            },
            "properties": {
                "ref:rspo": 88490,
                "official_name": "Niepubliczne Przedszkole Z Oddzia\u0142ami Integracyjnymi w Mikoszowie Przy Stowarzyszeniu \u015aw. Celestyna",
                "name": "Niepubliczne Przedszkole Z Oddzia\u0142ami Integracyjnymi w Mikoszowie Przy Stowarzyszeniu \u015aw. Celestyna",
                "addr:country": "PL",
                "addr:postcode": "57-100",
                "addr:place": "Mikosz\u00f3w",
                "addr:housenumber": "27",
                "addr:teryt:sym_ul": 880544,
                "contact:phone": "+48 713958102",
                "contact:email": "sekretariat@celestyn.pl",
                "contact:website": "http:\/\/www.celestyn.pl",
                "ref:regon": "022014373",
                "operator": "Stowarzyszenie \u015aw. Celestyna",
                "operator:type": "ngo",
                "amenity": "kindergarten"
            }
        },
        {
            "id": 104820,
            "type": "Feature",
            "geometry": {
                "type": "Point",
                "coordinates": [
                    17.03708,
                    50.774319999999996
                ]
            },
            "properties": {
                "isced:level": "1;2",
                "ref:rspo": 104820,
                "official_name": "Niepubliczna Szko\u0142a Podstawowa w Mikoszowie",
                "name": "Niepubliczna Szko\u0142a Podstawowa w Mikoszowie",
                "addr:country": "PL",
                "addr:postcode": "57-100",
                "addr:place": "Mikosz\u00f3w",
                "addr:housenumber": "27",
                "addr:teryt:sym_ul": 880544,
                "contact:phone": "+48 713958101",
                "contact:email": "sekretariat@celestyn.pl",
                "contact:website": "http:\/\/www.cekestyn.pl",
                "ref:regon": "022035234",
                "ref:vatin": "PL9141275815",
                "operator": "Stowarzyszenie \u015aw. Celestyna",
                "operator:type": "ngo",
                "amenity": "school"
            }
        },
        {
            "id": 105443,
            "type": "Feature",
            "geometry": {
                "type": "Point",
                "coordinates": [
                    17.03708,
                    50.77429
                ]
            },
            "properties": {
                "ref:rspo": 105443,
                "official_name": "O\u015brodek Rewalidacyjno-Wychowawczy w Mikoszowie",
                "name": "O\u015brodek Rewalidacyjno-Wychowawczy w Mikoszowie",
                "addr:country": "PL",
                "addr:postcode": "57-100",
                "addr:place": "Mikosz\u00f3w",
                "addr:housenumber": "27",
                "addr:teryt:sym_ul": 880544,
                "contact:phone": "+48 713958101",
                "contact:email": "sekretariat@celestyn.pl",
                "contact:website": "http:\/\/www.celestyn.pl",
                "ref:regon": "022047740",
                "ref:vatin": "PL9141275815",
                "operator": "Stowarzyszenie \u015aw. Celestyna",
                "operator:type": "ngo",
                "amenity": "school"
            }
        },
        {
            "id": 121208,
            "type": "Feature",
            "geometry": {
                "type": "Point",
                "coordinates": [
                    17.03708,
                    50.77426
                ]
            },
            "properties": {
                "ref:rspo": 121208,
                "official_name": "Niepubliczna Szko\u0142a Specjalna Przysposabiajac\u0105 Do Pracy w Mikoszowie",
                "name": "Niepubliczna Szko\u0142a Specjalna Przysposabiajac\u0105 Do Pracy w Mikoszowie",
                "addr:country": "PL",
                "addr:postcode": "57-100",
                "addr:place": "Mikosz\u00f3w",
                "addr:housenumber": "27",
                "addr:teryt:sym_ul": 880544,
                "contact:phone": "+48 139958101",
                "contact:email": "sekretariat@celestyn.pl",
                "contact:website": "http:\/\/www.celestyn.pl",
                "ref:regon": "022316217",
                "ref:vatin": "PL9141275815",
                "operator": "Stowarzyszenie \u015aw. Celestyna",
                "operator:type": "ngo",
                "amenity": "school"
            }
        },
        {
            "id": 47127,
            "type": "Feature",
            "geometry": {
                "type": "Point",
                "coordinates": [
                    17.0607,
                    50.7775899
                ]
            },
            "properties": {
                "ref:rspo": 47127,
                "official_name": "Zesp\u00f3\u0142 Plac\u00f3wek O\u015bwiatowych w Strzelinie",
                "name": "Zesp\u00f3\u0142 Plac\u00f3wek O\u015bwiatowych w Strzelinie",
                "addr:country": "PL",
                "addr:postcode": "57-100",
                "addr:city": "Strzelin",
                "addr:street": "Z\u0105bkowicka",
                "addr:housenumber": "30",
                "addr:teryt:simc": 25881,
                "addr:teryt:sym_ul": 987331,
                "contact:phone": "+48 713927830",
                "ref:regon": "020590776",
                "ref:vatin": "PL9141531796",
                "operator": "Powiat Strzeli\u0144ski",
                "operator:type": "government",
                "landuse": "education",
                "fixme": "amenity=school, amenity=college albo landuse=education w zale\u017cno\u015bci od tego, jakie plac\u00f3wki wchodz\u0105 w sk\u0142ad zespo\u0142u. Sprawd\u017a, kiedy stosowa\u0107 amenity=* a kiedy landuse=education.",
                "note": "Children RSPO: 81313;107070"
            }
        },
        {
            "id": 81313,
            "type": "Feature",
            "geometry": {
                "type": "Point",
                "coordinates": [
                    17.0607,
                    50.7775599
                ]
            },
            "properties": {
                "ref:rspo": 81313,
                "official_name": "M\u0142odzie\u017cowy O\u015brodek Socjoterapii w Strzelinie",
                "name": "M\u0142odzie\u017cowy O\u015brodek Socjoterapii w Strzelinie",
                "addr:country": "PL",
                "addr:postcode": "57-100",
                "addr:city": "Strzelin",
                "addr:street": "Z\u0105bkowicka",
                "addr:housenumber": "30",
                "addr:teryt:simc": 25881,
                "addr:teryt:sym_ul": 987331,
                "contact:phone": "+48 713927830",
                "contact:email": "osrodekszkolny@wp.pl",
                "contact:website": "http:\/\/www.mos-strzelin.pl",
                "ref:regon": "020590753",
                "ref:vatin": "PL9141531804",
                "operator": "Powiat Strzeli\u0144ski",
                "operator:type": "government",
                "fixme": "amenity=social_facility + social_facility=group_home + social_facility:for=juvenile",
                "note": "Children RSPO: 263254Parent RSPO: 47127"
            }
        },
        {
            "id": 263254,
            "type": "Feature",
            "geometry": {
                "type": "Point",
                "coordinates": [
                    17.0607,
                    50.777529900000005
                ]
            },
            "properties": {
                "isced:level": "1;2",
                "ref:rspo": 263254,
                "official_name": "Szko\u0142a Podstawowa Specjalna",
                "name": "Szko\u0142a Podstawowa Specjalna",
                "addr:country": "PL",
                "addr:postcode": "57-100",
                "addr:city": "Strzelin",
                "addr:street": "Z\u0105bkowicka",
                "addr:housenumber": "30",
                "addr:teryt:simc": 25881,
                "addr:teryt:sym_ul": 987331,
                "contact:phone": "+48 713927830",
                "contact:email": "osrodekszkolny@wp.pl",
                "contact:website": "http:\/\/www.mos-strzelin.pl",
                "ref:regon": "368178023",
                "operator": "Powiat Strzeli\u0144ski",
                "operator:type": "government",
                "amenity": "school",
                "note": "Parent RSPO: 81313"
            }
        },
        {
            "id": 85003,
            "type": "Feature",
            "geometry": {
                "type": "Point",
                "coordinates": [
                    17.06406,
                    50.77873
                ]
            },
            "properties": {
                "ref:rspo": 85003,
                "official_name": "Niepubliczne Przedszkole \"Bajka\"",
                "name": "Niepubliczne Przedszkole \"Bajka\"",
                "addr:country": "PL",
                "addr:postcode": "57-100",
                "addr:city": "Strzelin",
                "addr:street": "Ksi\u0119dza Jerzego Popie\u0142uszki",
                "addr:housenumber": "3",
                "addr:teryt:simc": 39974,
                "addr:teryt:sym_ul": 987331,
                "contact:phone": "+48 713920340",
                "contact:email": "bajka-strzelin@wp.pl",
                "ref:regon": "022010671",
                "operator": "Stanis\u0142awa Pielech",
                "operator:type": "private",
                "amenity": "kindergarten"
            }
        },
        {
            "id": 88488,
            "type": "Feature",
            "geometry": {
                "type": "Point",
                "coordinates": [
                    17.087,
                    50.77907
                ]
            },
            "properties": {
                "isced:level": "1;2",
                "ref:rspo": 88488,
                "official_name": "Publiczna Szko\u0142a Podstawowa Nr 5 im. Bolka I \u015awidnickiego",
                "name": "Publiczna Szko\u0142a Podstawowa Nr 5",
                "addr:country": "PL",
                "addr:postcode": "57-100",
                "addr:city": "Strzelin",
                "addr:street": "Brzegowa",
                "addr:housenumber": "67",
                "addr:teryt:simc": 2229,
                "addr:teryt:sym_ul": 987331,
                "contact:phone": "+48 713921692",
                "contact:email": "bolko5@poczta.onet.pl",
                "contact:website": "http:\/\/www.bolko5republika.pl",
                "ref:regon": "001267805",
                "ref:vatin": "PL9141354176",
                "operator": "Gmina Strzelin",
                "operator:type": "government",
                "amenity": "school"
            }
        },
        {
            "id": 104822,
            "type": "Feature",
            "geometry": {
                "type": "Point",
                "coordinates": [
                    17.06452,
                    50.7802099
                ]
            },
            "properties": {
                "isced:level": "3",
                "ref:rspo": 104822,
                "official_name": "Liceum Og\u00f3lnokszta\u0142c\u0105ce dla Doros\u0142ych Halmur w Strzelinie",
                "name": "Liceum Og\u00f3lnokszta\u0142c\u0105ce dla Doros\u0142ych Halmur w Strzelinie",
                "addr:country": "PL",
                "addr:postcode": "57-100",
                "addr:city": "Strzelin",
                "addr:street": "Plac 1 Maja",
                "addr:housenumber": "10",
                "addr:teryt:simc": 11924,
                "addr:teryt:sym_ul": 987331,
                "contact:phone": "+48 501474054",
                "contact:email": "becekewa@gmail.com",
                "contact:website": "http:\/\/www.facebook.com\/liceumhalmur",
                "ref:regon": "022037670",
                "ref:vatin": "PL9141136108",
                "operator": "Ewa Jankowska-B\u0119cek",
                "operator:type": "private",
                "amenity": "school"
            }
        },
        {
            "id": 263024,
            "type": "Feature",
            "geometry": {
                "type": "Point",
                "coordinates": [
                    17.06452,
                    50.7801799
                ]
            },
            "properties": {
                "isced:level": "1;2",
                "ref:rspo": 263024,
                "official_name": "Publiczna Szko\u0142a Podstawowa Nr 3",
                "name": "Publiczna Szko\u0142a Podstawowa Nr 3",
                "addr:country": "PL",
                "addr:postcode": "57-100",
                "addr:city": "Strzelin",
                "addr:street": "Plac 1 Maja",
                "addr:housenumber": "10",
                "addr:teryt:simc": 11924,
                "addr:teryt:sym_ul": 987331,
                "contact:phone": "+48 713921413",
                "contact:email": "g2-strzelin@wp.pl",
                "contact:website": "http:\/\/sp3strzelin.szkolnastrona.pl",
                "ref:regon": "368092379",
                "ref:vatin": "PL9141567676",
                "operator": "Gmina Strzelin",
                "operator:type": "government",
                "amenity": "school"
            }
        },
        {
            "id": 118674,
            "type": "Feature",
            "geometry": {
                "type": "Point",
                "coordinates": [
                    17.07476,
                    50.78067
                ]
            },
            "properties": {
                "ref:rspo": 118674,
                "official_name": "Centrum Kszta\u0142cenia Zawodowego I Ustawicznego w Strzelinie",
                "name": "Centrum Kszta\u0142cenia Zawodowego I Ustawicznego w Strzelinie",
                "addr:country": "PL",
                "addr:postcode": "57-100",
                "addr:city": "Strzelin",
                "addr:street": "Stanis\u0142awa Staszica",
                "addr:housenumber": "5",
                "addr:teryt:simc": 21071,
                "addr:teryt:sym_ul": 987331,
                "contact:phone": "+48 713920008",
                "contact:email": "sekretariat@technikumstrzelin.pl",
                "contact:website": "http:\/\/www.technikumstrzelin.pl",
                "ref:regon": "022207089",
                "operator": "Powiat Strzeli\u0144ski",
                "operator:type": "government",
                "landuse": "education",
                "fixme": "amenity=school, amenity=college albo landuse=education w zale\u017cno\u015bci od tego, jakie plac\u00f3wki wchodz\u0105 w sk\u0142ad zespo\u0142u. Sprawd\u017a, kiedy stosowa\u0107 amenity=* a kiedy landuse=education.",
                "note": "Children RSPO: 79824;104740;121338;121339;276108"
            }
        },
        {
            "id": 79824,
            "type": "Feature",
            "geometry": {
                "type": "Point",
                "coordinates": [
                    17.07476,
                    50.78064
                ]
            },
            "properties": {
                "isced:level": "3",
                "ref:rspo": 79824,
                "official_name": "Bran\u017cowa Szko\u0142a I Stopnia im. Bohater\u00f3w Westerplatte w Centrum Kszta\u0142cenia Zawodowego I Ustawicznego w Strzelinie",
                "name": "Bran\u017cowa Szko\u0142a I Stopnia",
                "addr:country": "PL",
                "addr:postcode": "57-100",
                "addr:city": "Strzelin",
                "addr:street": "Stanis\u0142awa Staszica",
                "addr:housenumber": "5",
                "addr:teryt:simc": 21071,
                "addr:teryt:sym_ul": 987331,
                "contact:phone": "+48 713920008",
                "contact:email": "sekretariat@technikumstrzelin.pl",
                "contact:website": "http:\/\/www.technikumstrzelin.pl",
                "ref:regon": "932825420",
                "ref:vatin": "PL9141563603",
                "operator": "Powiat Strzeli\u0144ski",
                "operator:type": "government",
                "amenity": "school",
                "note": "Parent RSPO: 118674"
            }
        },
        {
            "id": 104740,
            "type": "Feature",
            "geometry": {
                "type": "Point",
                "coordinates": [
                    17.07476,
                    50.78061
                ]
            },
            "properties": {
                "isced:level": "3",
                "ref:rspo": 104740,
                "official_name": "Technikum w Centrum Kszta\u0142cenia Zawodowego I Ustawicznego w Strzelinie",
                "name": "Technikum w Centrum Kszta\u0142cenia Zawodowego I Ustawicznego w Strzelinie",
                "addr:country": "PL",
                "addr:postcode": "57-100",
                "addr:city": "Strzelin",
                "addr:street": "Stanis\u0142awa Staszica",
                "addr:housenumber": "5",
                "addr:teryt:simc": 21071,
                "addr:teryt:sym_ul": 987331,
                "contact:phone": "+48 713920008",
                "contact:email": "sekretariat@technikumstrzelin.pl",
                "contact:website": "http:\/\/www.technikumstrzelin.pl",
                "ref:regon": "932825450",
                "ref:vatin": "PL9141563603",
                "operator": "Powiat Strzeli\u0144ski",
                "operator:type": "government",
                "amenity": "school",
                "note": "Parent RSPO: 118674"
            }
        },
        {
            "id": 121338,
            "type": "Feature",
            "geometry": {
                "type": "Point",
                "coordinates": [
                    17.07476,
                    50.78058
                ]
            },
            "properties": {
                "ref:rspo": 121338,
                "official_name": "Centrum Kszta\u0142cenia Ustawicznego w Strzelinie",
                "name": "Centrum Kszta\u0142cenia Ustawicznego w Strzelinie",
                "addr:country": "PL",
                "addr:postcode": "57-100",
                "addr:city": "Strzelin",
                "addr:street": "Stanis\u0142awa Staszica",
                "addr:housenumber": "5",
                "addr:teryt:simc": 21071,
                "addr:teryt:sym_ul": 987331,
                "contact:phone": "+48 713920008",
                "contact:email": "sekretariat@technikumstrzelin.pl",
                "contact:website": "http:\/\/www.technikumstrzelin.pl",
                "ref:regon": "022323128",
                "operator": "Powiat Strzeli\u0144ski",
                "operator:type": "government",
                "fixme": "w zale\u017cno\u015bci od przedmiotu dzia\u0142alno\u015bci (np. amenity=training + training=*, amenity=dancing_school, amenity=language_school, amenity=music_school)",
                "note": "Parent RSPO: 118674"
            }
        },
        {
            "id": 121339,
            "type": "Feature",
            "geometry": {
                "type": "Point",
                "coordinates": [
                    17.07476,
                    50.78055
                ]
            },
            "properties": {
                "ref:rspo": 121339,
                "official_name": "Centrum Kszta\u0142cenia Zawodowego w Strzelinie",
                "name": "Centrum Kszta\u0142cenia Zawodowego w Strzelinie",
                "addr:country": "PL",
                "addr:postcode": "57-100",
                "addr:city": "Strzelin",
                "addr:street": "Stanis\u0142awa Staszica",
                "addr:housenumber": "5",
                "addr:teryt:simc": 21071,
                "addr:teryt:sym_ul": 987331,
                "contact:phone": "+48 713920008",
                "contact:email": "sekretariat@technikumstrzelin.pl",
                "contact:website": "http:\/\/www.technikumstrzelin.pl",
                "ref:regon": "022323134",
                "operator": "Powiat Strzeli\u0144ski",
                "operator:type": "government",
                "fixme": "w zale\u017cno\u015bci od przedmiotu dzia\u0142alno\u015bci (np. amenity=training + training=*, amenity=dancing_school, amenity=language_school, amenity=music_school) albo amenity=school, amenity=college, albo landuse=education w zale\u017cno\u015bci od tego, jakie plac\u00f3wki wchodz\u0105 w sk\u0142ad zespo\u0142u. Sprawd\u017a, kiedy stosowa\u0107 amenity=* a kiedy landuse=education.",
                "note": "Parent RSPO: 118674"
            }
        },
        {
            "id": 276108,
            "type": "Feature",
            "geometry": {
                "type": "Point",
                "coordinates": [
                    17.07476,
                    50.78052
                ]
            },
            "properties": {
                "isced:level": "3",
                "ref:rspo": 276108,
                "official_name": "Bran\u017cowa Szko\u0142a II Stopnia w Strzelinie w Centrum Kszta\u0142cenia Zawodowego I Ustawicznego w Strzelinie",
                "name": "Bran\u017cowa Szko\u0142a II Stopnia w Strzelinie w Centrum Kszta\u0142cenia Zawodowego I Ustawicznego w Strzelinie",
                "addr:country": "PL",
                "addr:postcode": "57-100",
                "addr:city": "Strzelin",
                "addr:street": "Stanis\u0142awa Staszica",
                "addr:housenumber": "5",
                "addr:teryt:simc": 21071,
                "addr:teryt:sym_ul": 987331,
                "contact:phone": "+48 713920008",
                "contact:email": "sekretariat@technikumstrzelin.pl",
                "contact:website": "http:\/\/www.technikumstrzelin.pl",
                "ref:regon": "386993720",
                "operator": "Powiat Strzeli\u0144ski",
                "operator:type": "government",
                "amenity": "school",
                "note": "Parent RSPO: 118674"
            }
        },
        {
            "id": 131630,
            "type": "Feature",
            "geometry": {
                "type": "Point",
                "coordinates": [
                    17.06241,
                    50.78084
                ]
            },
            "properties": {
                "isced:level": "1;2",
                "ref:rspo": 131630,
                "official_name": "Szko\u0142a Podstawowa Z Warto\u015bciami",
                "name": "Szko\u0142a Podstawowa Z Warto\u015bciami",
                "addr:country": "PL",
                "addr:postcode": "57-100",
                "addr:city": "Strzelin",
                "addr:street": "Kamienna",
                "addr:housenumber": "1A",
                "addr:teryt:simc": 7879,
                "addr:teryt:sym_ul": 987331,
                "contact:phone": "+48 604698465",
                "contact:email": "mkonsencjusz@gmail.com",
                "ref:regon": "365337254",
                "operator": "Marta Konsencjusz",
                "operator:type": "private",
                "amenity": "school"
            }
        },
        {
            "id": 121489,
            "type": "Feature",
            "geometry": {
                "type": "Point",
                "coordinates": [
                    17.06616,
                    50.78246
                ]
            },
            "properties": {
                "ref:rspo": 121489,
                "official_name": "Niepubliczne Przedszkole \"Akademia U\u015bmiechu\"",
                "name": "Niepubliczne Przedszkole \"Akademia U\u015bmiechu\"",
                "addr:country": "PL",
                "addr:postcode": "57-100",
                "addr:city": "Strzelin",
                "addr:street": "Adama Mickiewicza",
                "addr:housenumber": "1",
                "addr:door": "12",
                "addr:teryt:simc": 12740,
                "addr:teryt:sym_ul": 987331,
                "contact:phone": "+48 725474232",
                "contact:email": "goluzd.elwira1993@gmail.com",
                "ref:regon": "022329562",
                "operator": "P.h.u. \"P\u0142omyk\" Elwira Go\u0142uzd",
                "operator:type": "consortium",
                "amenity": "kindergarten"
            }
        },
        {
            "id": 127700,
            "type": "Feature",
            "geometry": {
                "type": "Point",
                "coordinates": [
                    17.06603,
                    50.78295
                ]
            },
            "properties": {
                "ref:rspo": 127700,
                "official_name": "O\u015brodek Szkoleniowy Haliny Goli\u0144skiej w Strzelinie",
                "name": "O\u015brodek Szkoleniowy Haliny Goli\u0144skiej w Strzelinie",
                "addr:country": "PL",
                "addr:postcode": "57-100",
                "addr:city": "Strzelin",
                "addr:street": "Adama Mickiewicza",
                "addr:housenumber": "8",
                "addr:teryt:simc": 12740,
                "addr:teryt:sym_ul": 987331,
                "contact:phone": "+48 501474054",
                "contact:email": "becekewa@gmail.com",
                "ref:regon": "361827464",
                "ref:vatin": "PL9141136108",
                "operator": "Ewa Jankowska-B\u0119cek",
                "operator:type": "private",
                "fixme": "w zale\u017cno\u015bci od przedmiotu dzia\u0142alno\u015bci (np. amenity=training + training=*, amenity=dancing_school, amenity=language_school, amenity=music_school)"
            }
        },
        {
            "id": 104745,
            "type": "Feature",
            "geometry": {
                "type": "Point",
                "coordinates": [
                    17.0698599,
                    50.78302
                ]
            },
            "properties": {
                "ref:rspo": 104745,
                "official_name": "Poradnia Psychologiczno-Pedagogiczna w Strzelinie",
                "name": "Poradnia Psychologiczno-Pedagogiczna w Strzelinie",
                "addr:country": "PL",
                "addr:postcode": "57-100",
                "addr:city": "Strzelin",
                "addr:street": "Pocztowa",
                "addr:housenumber": "17",
                "addr:door": "1",
                "addr:teryt:simc": 16579,
                "addr:teryt:sym_ul": 987331,
                "contact:phone": "+48 713920749",
                "contact:email": "ppp_strzelin@wp.pl",
                "contact:website": "http:\/\/www.poradnia-strzelin.edu.pl",
                "ref:regon": "932174566",
                "ref:vatin": "PL9141442791",
                "operator": "Powiat Strzeli\u0144ski",
                "operator:type": "government",
                "healthcare": "counselling",
                "counselling_type": "education",
                "fixme": "w zale\u017cno\u015bci od przedmiotu dzia\u0142alno\u015bci (np. healthcare=counselling + counselling_type=education albo healthcare=psychotherapist)"
            }
        },
        {
            "id": 120757,
            "type": "Feature",
            "geometry": {
                "type": "Point",
                "coordinates": [
                    17.07573,
                    50.78347
                ]
            },
            "properties": {
                "ref:rspo": 120757,
                "official_name": "Niepubliczne Przedszkole J\u0119zykowe\"Ma\u0142y Odkrywca\"",
                "name": "Niepubliczne Przedszkole J\u0119zykowe\"Ma\u0142y Odkrywca\"",
                "addr:country": "PL",
                "addr:postcode": "57-100",
                "addr:city": "Strzelin",
                "addr:street": "Adama Asnyka",
                "addr:housenumber": "7",
                "addr:teryt:simc": 470,
                "addr:teryt:sym_ul": 987331,
                "contact:phone": "+48 600692600",
                "contact:email": "odkrywca.mj@gmail.com",
                "contact:website": "http:\/\/www.maly-odkrywca.edu.pl",
                "ref:regon": "022290423",
                "ref:vatin": "PL9141124393",
                "operator": "Magdalena Walenczak-De Moor",
                "operator:type": "private",
                "amenity": "kindergarten"
            }
        },
        {
            "id": 6122,
            "type": "Feature",
            "geometry": {
                "type": "Point",
                "coordinates": [
                    17.07137,
                    50.78348
                ]
            },
            "properties": {
                "ref:rspo": 6122,
                "official_name": "Zesp\u00f3\u0142 Szk\u00f3\u0142 Og\u00f3lnokszta\u0142c\u0105cych",
                "name": "Zesp\u00f3\u0142 Szk\u00f3\u0142 Og\u00f3lnokszta\u0142c\u0105cych",
                "addr:country": "PL",
                "addr:postcode": "57-100",
                "addr:city": "Strzelin",
                "addr:street": "Jana Paw\u0142a II",
                "addr:housenumber": "23",
                "addr:teryt:simc": 7123,
                "addr:teryt:sym_ul": 987331,
                "contact:phone": "+48 713921364",
                "contact:email": "sekretariat@lostrzelin.pl",
                "contact:website": "http:\/\/www.lostrzelin.pl",
                "ref:regon": "020126694",
                "ref:vatin": "PL9141263640",
                "operator": "Powiat Strzeli\u0144ski",
                "operator:type": "government",
                "landuse": "education",
                "fixme": "amenity=school, amenity=college albo landuse=education w zale\u017cno\u015bci od tego, jakie plac\u00f3wki wchodz\u0105 w sk\u0142ad zespo\u0142u. Sprawd\u017a, kiedy stosowa\u0107 amenity=* a kiedy landuse=education.",
                "note": "Children RSPO: 104823;105340"
            }
        },
        {
            "id": 104823,
            "type": "Feature",
            "geometry": {
                "type": "Point",
                "coordinates": [
                    17.07137,
                    50.783449999999995
                ]
            },
            "properties": {
                "isced:level": "3",
                "ref:rspo": 104823,
                "official_name": "Liceum Og\u00f3lnokszta\u0142cace im.marii Sk\u0142odowskiej-Curie w Zespole Szk\u00f3\u0142 Og\u00f3lnokszta\u0142c\u0105cych w Strzelinie",
                "name": "Liceum Og\u00f3lnokszta\u0142cace im.marii Sk\u0142odowskiej-Curie w Zespole Szk\u00f3\u0142 Og\u00f3lnokszta\u0142c\u0105cych w Strzelinie",
                "addr:country": "PL",
                "addr:postcode": "57-100",
                "addr:city": "Strzelin",
                "addr:street": "Jana Paw\u0142a II",
                "addr:housenumber": "23",
                "addr:teryt:simc": 7123,
                "addr:teryt:sym_ul": 987331,
                "contact:phone": "+48 713921364",
                "contact:email": "sekretariat@lostrzelin.pl",
                "contact:website": "http:\/\/www.lostrzelin.pl",
                "ref:regon": "000233804",
                "ref:vatin": "PL9141263640",
                "operator": "Powiat Strzeli\u0144ski",
                "operator:type": "government",
                "amenity": "school",
                "note": "Parent RSPO: 6122"
            }
        },
        {
            "id": 105340,
            "type": "Feature",
            "geometry": {
                "type": "Point",
                "coordinates": [
                    17.07137,
                    50.78342
                ]
            },
            "properties": {
                "isced:level": "3",
                "ref:rspo": 105340,
                "official_name": "Liceum Og\u00f3lnokszta\u0142c\u0105ce dla Doros\u0142ych w Zespole Szk\u00f3\u0142 Og\u00f3lnokszta\u0142c\u0105cych w Strzelinie",
                "name": "Liceum Og\u00f3lnokszta\u0142c\u0105ce dla Doros\u0142ych w Zespole Szk\u00f3\u0142 Og\u00f3lnokszta\u0142c\u0105cych w Strzelinie",
                "addr:country": "PL",
                "addr:postcode": "57-100",
                "addr:city": "Strzelin",
                "addr:street": "Jana Paw\u0142a II",
                "addr:housenumber": "23",
                "addr:teryt:simc": 7123,
                "addr:teryt:sym_ul": 987331,
                "contact:phone": "+48 713921364",
                "contact:email": "sekretariat@lostrzelin.pl",
                "contact:website": "http:\/\/www.lostrzelin.pl",
                "ref:regon": "020126688",
                "ref:vatin": "PL9141263640",
                "operator": "Powiat Strzeli\u0144ski",
                "operator:type": "government",
                "amenity": "school",
                "note": "Parent RSPO: 6122"
            }
        },
        {
            "id": 121678,
            "type": "Feature",
            "geometry": {
                "type": "Point",
                "coordinates": [
                    17.07173,
                    50.78379
                ]
            },
            "properties": {
                "ref:rspo": 121678,
                "official_name": "Pa\u0144stwowa Szko\u0142a Muzyczna I Stopnia w Strzelinie",
                "name": "Pa\u0144stwowa Szko\u0142a Muzyczna I Stopnia w Strzelinie",
                "addr:country": "PL",
                "addr:postcode": "57-100",
                "addr:city": "Strzelin",
                "addr:street": "Jana Paw\u0142a II",
                "addr:housenumber": "25",
                "addr:teryt:simc": 7123,
                "addr:teryt:sym_ul": 987331,
                "contact:phone": "+48 713920764",
                "contact:email": "sekretariat@psmstrzelin.pl",
                "contact:website": "http:\/\/www.psmstrzelin.pl",
                "ref:regon": "022344863",
                "ref:vatin": "PL9141563856",
                "operator": "Ministerstwo Kultury I Dziedzictwa Narodowego",
                "operator:type": "public",
                "amenity": "music_school"
            }
        },
        {
            "id": 49372,
            "type": "Feature",
            "geometry": {
                "type": "Point",
                "coordinates": [
                    17.06344,
                    50.78558
                ]
            },
            "properties": {
                "isced:level": "1;2",
                "ref:rspo": 49372,
                "official_name": "Publiczna Szko\u0142a Podstawowa Nr 4 im. Tadeusza Ko\u015bciuszki",
                "name": "Publiczna Szko\u0142a Podstawowa Nr 4",
                "addr:country": "PL",
                "addr:postcode": "57-100",
                "addr:city": "Strzelin",
                "addr:street": "Henryka Sienkiewicza",
                "addr:housenumber": "41",
                "addr:teryt:simc": 19834,
                "addr:teryt:sym_ul": 987331,
                "contact:phone": "+48 713920561",
                "contact:email": "pspncz@interia.pl",
                "contact:website": "http:\/\/www.psp4.strzelin.pl",
                "ref:regon": "000592288",
                "ref:vatin": "PL9141371080",
                "operator": "Gmina Strzelin",
                "operator:type": "government",
                "amenity": "school"
            }
        },
        {
            "id": 84722,
            "type": "Feature",
            "geometry": {
                "type": "Point",
                "coordinates": [
                    17.07481,
                    50.78919
                ]
            },
            "properties": {
                "ref:rspo": 84722,
                "official_name": "Niepubliczne Przedszkole Wyspa Bergamuta",
                "name": "Niepubliczne Przedszkole Wyspa Bergamuta",
                "addr:country": "PL",
                "addr:postcode": "57-100",
                "addr:city": "Strzelin",
                "addr:street": "Genera\u0142a Stefana Grota-Roweckiego",
                "addr:housenumber": "11",
                "addr:teryt:simc": 50609,
                "addr:teryt:sym_ul": 987331,
                "contact:email": "vveroniczka@interia.pl",
                "ref:regon": "022009870",
                "operator": "Weronika Maceluch",
                "operator:type": "private",
                "amenity": "kindergarten"
            }
        },
        {
            "id": 277484,
            "type": "Feature",
            "geometry": {
                "type": "Point",
                "coordinates": [
                    17.12297,
                    50.79358
                ]
            },
            "properties": {
                "ref:rspo": 277484,
                "official_name": "Przedszkole Parkowe",
                "name": "Przedszkole Parkowe",
                "addr:country": "PL",
                "addr:postcode": "57-100",
                "addr:place": "Krzepice",
                "addr:housenumber": "8",
                "addr:teryt:sym_ul": 880478,
                "contact:phone": "+48 601145524",
                "contact:email": "przedszkole.krzepice@onet.pl",
                "ref:regon": "388996527",
                "ref:vatin": "PL8971042761",
                "operator": "Andrzej Krzywik",
                "operator:type": "private",
                "amenity": "kindergarten"
            }
        },
        {
            "id": 128109,
            "type": "Feature",
            "geometry": {
                "type": "Point",
                "coordinates": [
                    17.0611,
                    50.83016
                ]
            },
            "properties": {
                "ref:rspo": 128109,
                "official_name": "Centrum Kszta\u0142cenia Zawodowego I Ustawicznego w Ludowie Polskim",
                "name": "Centrum Kszta\u0142cenia Zawodowego I Ustawicznego w Ludowie Polskim",
                "addr:country": "PL",
                "addr:postcode": "57-100",
                "addr:place": "Lud\u00f3w Polski",
                "addr:housenumber": "16",
                "addr:teryt:sym_ul": 880538,
                "contact:phone": "+48 713923586",
                "contact:email": "ckziulp@gmail.com",
                "contact:website": "http:\/\/www.ckziuludowpolski.pl",
                "ref:regon": "362125362",
                "operator": "Powiat Strzeli\u0144ski",
                "operator:type": "government",
                "landuse": "education",
                "fixme": "amenity=school, amenity=college albo landuse=education w zale\u017cno\u015bci od tego, jakie plac\u00f3wki wchodz\u0105 w sk\u0142ad zespo\u0142u. Sprawd\u017a, kiedy stosowa\u0107 amenity=* a kiedy landuse=education.",
                "note": "Children RSPO: 105334;105335;130696;276109"
            }
        },
        {
            "id": 105334,
            "type": "Feature",
            "geometry": {
                "type": "Point",
                "coordinates": [
                    17.0611,
                    50.83013
                ]
            },
            "properties": {
                "isced:level": "3",
                "ref:rspo": 105334,
                "official_name": "Technikum im. Prof. Tadeusza Konopi\u0144skiego w Centrum Kszta\u0142cenia Zawodowego I Ustawicznego w Ludowie Polskim",
                "name": "Technikum",
                "addr:country": "PL",
                "addr:postcode": "57-100",
                "addr:place": "Lud\u00f3w Polski",
                "addr:housenumber": "16",
                "addr:teryt:sym_ul": 880538,
                "contact:phone": "+48 713923586",
                "contact:email": "ckziulp@gmail.com",
                "contact:website": "http:\/\/www.ckziuludowpolski.pl",
                "ref:regon": "020047470",
                "ref:vatin": "PL9141563603",
                "operator": "Powiat Strzeli\u0144ski",
                "operator:type": "government",
                "amenity": "school",
                "note": "Parent RSPO: 128109"
            }
        },
        {
            "id": 105335,
            "type": "Feature",
            "geometry": {
                "type": "Point",
                "coordinates": [
                    17.0611,
                    50.8301
                ]
            },
            "properties": {
                "isced:level": "3",
                "ref:rspo": 105335,
                "official_name": "Bran\u017cowa Szko\u0142a I Stopnia im. Prof. Tadeusza Konopi\u0144skiego w Centrum Kszta\u0142cania Zawodowego I Ustawicznego w Ludowie Polskim",
                "name": "Bran\u017cowa Szko\u0142a I Stopnia",
                "addr:country": "PL",
                "addr:postcode": "57-100",
                "addr:place": "Lud\u00f3w Polski",
                "addr:housenumber": "16",
                "addr:teryt:sym_ul": 880538,
                "contact:phone": "+48 713923586",
                "contact:email": "ckziulp@gmail.com",
                "contact:website": "http:\/\/www.ckziuludowpolski.pl",
                "ref:regon": "932282221",
                "ref:vatin": "PL9141563603",
                "operator": "Powiat Strzeli\u0144ski",
                "operator:type": "government",
                "amenity": "school",
                "note": "Parent RSPO: 128109"
            }
        },
        {
            "id": 130696,
            "type": "Feature",
            "geometry": {
                "type": "Point",
                "coordinates": [
                    17.0611,
                    50.83007
                ]
            },
            "properties": {
                "ref:rspo": 130696,
                "official_name": "Centrum Kszta\u0142cenia Zawodowego w Ludowie Polskim",
                "name": "Centrum Kszta\u0142cenia Zawodowego w Ludowie Polskim",
                "addr:country": "PL",
                "addr:postcode": "57-100",
                "addr:place": "Lud\u00f3w Polski",
                "addr:housenumber": "16",
                "addr:teryt:sym_ul": 880538,
                "contact:phone": "+48 713920373",
                "contact:email": "ckziulp@gmail.com",
                "contact:website": "http:\/\/www.ckziuludowpolski.pl",
                "ref:regon": "364385498",
                "operator": "Powiat Strzeli\u0144ski",
                "operator:type": "government",
                "fixme": "w zale\u017cno\u015bci od przedmiotu dzia\u0142alno\u015bci (np. amenity=training + training=*, amenity=dancing_school, amenity=language_school, amenity=music_school) albo amenity=school, amenity=college, albo landuse=education w zale\u017cno\u015bci od tego, jakie plac\u00f3wki wchodz\u0105 w sk\u0142ad zespo\u0142u. Sprawd\u017a, kiedy stosowa\u0107 amenity=* a kiedy landuse=education.",
                "note": "Parent RSPO: 128109"
            }
        },
        {
            "id": 276109,
            "type": "Feature",
            "geometry": {
                "type": "Point",
                "coordinates": [
                    17.0611,
                    50.83004
                ]
            },
            "properties": {
                "isced:level": "3",
                "ref:rspo": 276109,
                "official_name": "Bran\u017cowa Szko\u0142a II Stopnia w Ludowie Polskim w Centrum Kszta\u0142cenia Zawodowego I Ustawicznegow Ludowie Polskim",
                "name": "Bran\u017cowa Szko\u0142a II Stopnia w Ludowie Polskim w Centrum Kszta\u0142cenia Zawodowego I Ustawicznegow Ludowie Polskim",
                "addr:country": "PL",
                "addr:postcode": "57-100",
                "addr:place": "Lud\u00f3w Polski",
                "addr:housenumber": "16",
                "addr:teryt:sym_ul": 880538,
                "contact:phone": "+48 713923586",
                "contact:email": "ckziulp@gmail.com",
                "contact:website": "http:\/\/www.ckziuludowpolski.p",
                "ref:regon": "386993944",
                "operator": "Powiat Strzeli\u0144ski",
                "operator:type": "government",
                "amenity": "school",
                "note": "Parent RSPO: 128109"
            }
        }
    ]
}