{
    "type": "FeatureCollection",
    "features": [
        {
            "id": 90665,
            "type": "Feature",
            "geometry": {
                "type": "Point",
                "coordinates": [
                    17.22872,
                    50.7281199
                ]
            },
            "properties": {
                "ref:rspo": 90665,
                "official_name": "Punkt Przedszkolny Przy Szkole Podstawowej im. Unii Europejskiej w Wawrzyszowie",
                "name": "Punkt Przedszkolny Przy Szkole Podstawowej",
                "addr:postcode": "57-120",
                "addr:place": "Wawrzysz\u00f3w",
                "addr:housenumber": "37",
                "addr:city:simc": 882371,
                "phone": "+48 713930027",
                "ref:regon": "022017785",
                "operator": "Gmina Wi\u0105z\u00f3w",
                "operator:type": "government",
                "amenity": "kindergarten"
            }
        },
        {
            "id": 90697,
            "type": "Feature",
            "geometry": {
                "type": "Point",
                "coordinates": [
                    17.22872,
                    50.7280899
                ]
            },
            "properties": {
                "isced:level": "1;2",
                "ref:rspo": 90697,
                "official_name": "Szko\u0142a Podstawowa im. Unii Europejskiej w Wawrzyszowie",
                "name": "Szko\u0142a Podstawowa",
                "addr:postcode": "57-120",
                "addr:place": "Wawrzysz\u00f3w",
                "addr:housenumber": "37",
                "addr:city:simc": 882371,
                "phone": "+48 713930027",
                "email": "spwawrzyszow@wp.pl",
                "website": "http:\/\/spwawrzyszow.stronyzklasa.pl",
                "ref:regon": "001181127",
                "ref:vatin": "PL9141296467",
                "operator": "Gmina Wi\u0105z\u00f3w",
                "operator:type": "government",
                "amenity": "school"
            }
        },
        {
            "id": 73529,
            "type": "Feature",
            "geometry": {
                "type": "Point",
                "coordinates": [
                    17.30886,
                    50.80036
                ]
            },
            "properties": {
                "isced:level": "1;2",
                "ref:rspo": 73529,
                "official_name": "Szko\u0142a Podstawowa im. Jana Paw\u0142a II w Jaworowie",
                "name": "Szko\u0142a Podstawowa",
                "addr:postcode": "57-120",
                "addr:place": "Jawor\u00f3w",
                "addr:housenumber": "9a",
                "addr:city:simc": 882201,
                "phone": "+48 713942542",
                "email": "spjaworow@spjaworow.pl",
                "website": "http:\/\/spjaworow.pl",
                "ref:regon": "001181133",
                "ref:vatin": "PL9141296131",
                "operator": "Gmina Wi\u0105z\u00f3w",
                "operator:type": "government",
                "amenity": "school"
            }
        },
        {
            "id": 73530,
            "type": "Feature",
            "geometry": {
                "type": "Point",
                "coordinates": [
                    17.30886,
                    50.800329999999995
                ]
            },
            "properties": {
                "ref:rspo": 73530,
                "official_name": "Punkt Przedszkolny w Szkole Podstawowej im. Jana Paw\u0142a II w Jaworowie",
                "name": "Punkt Przedszkolny w Szkole Podstawowej",
                "addr:postcode": "57-120",
                "addr:place": "Jawor\u00f3w",
                "addr:housenumber": "9a",
                "addr:city:simc": 882201,
                "phone": "+48 713942542",
                "email": "spjaworow@spjaworow.pl",
                "website": "http:\/\/www.spjaworow.pl",
                "ref:regon": "022005374",
                "operator": "Gmina Wi\u0105z\u00f3w",
                "operator:type": "government",
                "amenity": "kindergarten"
            }
        },
        {
            "id": 73272,
            "type": "Feature",
            "geometry": {
                "type": "Point",
                "coordinates": [
                    17.20198,
                    50.81091
                ]
            },
            "properties": {
                "ref:rspo": 73272,
                "official_name": "Przedszkole Miejskie Bajkowy Ogr\u00f3d w Wi\u0105zowie",
                "name": "Przedszkole Miejskie Bajkowy Ogr\u00f3d w Wi\u0105zowie",
                "addr:postcode": "57-120",
                "addr:city": "Wi\u0105z\u00f3w",
                "addr:street": "Pocztowa",
                "addr:housenumber": "6a",
                "addr:city:simc": 987437,
                "addr:street:sym_ul": 16579,
                "phone": "+48 713931079",
                "email": "przedszkolewiazow@poczta.fm",
                "website": "https:\/\/przedszkolewiazow.edupage.org\/",
                "ref:regon": "000925465",
                "ref:vatin": "PL9141426562",
                "operator": "Gmina Wi\u0105z\u00f3w",
                "operator:type": "government",
                "amenity": "kindergarten"
            }
        },
        {
            "id": 127705,
            "type": "Feature",
            "geometry": {
                "type": "Point",
                "coordinates": [
                    17.21067,
                    50.813
                ]
            },
            "properties": {
                "ref:rspo": 127705,
                "official_name": "Regionalny O\u015brodek Doskonalenia -Kursy \"Arka\" Marian Tatarek",
                "name": "Regionalny O\u015brodek Doskonalenia -Kursy \"Arka\" Marian Tatarek",
                "addr:postcode": "57-120",
                "addr:city": "Wi\u0105z\u00f3w",
                "addr:street": "Stanis\u0142awa Wyspia\u0144skiego",
                "addr:housenumber": "1",
                "addr:city:simc": 987437,
                "addr:street:sym_ul": 25084,
                "phone": "+48 691716555",
                "email": "biuro@szkoleniakursy.com",
                "website": "http:\/\/www.szkoleniakursy.com",
                "ref:regon": "361827487",
                "ref:vatin": "PL9141122448",
                "operator": "Marian Tatarek",
                "operator:type": "private"
            }
        },
        {
            "id": 90695,
            "type": "Feature",
            "geometry": {
                "type": "Point",
                "coordinates": [
                    17.21106,
                    50.81374
                ]
            },
            "properties": {
                "isced:level": "1;2",
                "ref:rspo": 90695,
                "official_name": "Szko\u0142a Podstawowa im. Piast\u00f3w \u015aL\u0105skich w Wi\u0105zowie",
                "name": "Szko\u0142a Podstawowa",
                "addr:postcode": "57-120",
                "addr:city": "Wi\u0105z\u00f3w",
                "addr:street": "1 Maja",
                "addr:housenumber": "31",
                "addr:city:simc": 987437,
                "addr:street:sym_ul": 11926,
                "phone": "+48 713931322",
                "email": "spwiazow@poczta.onet.pl",
                "website": "http:\/\/www.spwiazow.edupage.org",
                "ref:regon": "000560443",
                "ref:vatin": "PL9141520077",
                "operator": "Gmina Wi\u0105z\u00f3w",
                "operator:type": "government",
                "amenity": "school"
            }
        },
        {
            "id": 73271,
            "type": "Feature",
            "geometry": {
                "type": "Point",
                "coordinates": [
                    17.20917,
                    50.84279
                ]
            },
            "properties": {
                "ref:rspo": 73271,
                "official_name": "Szko\u0142a Muzyczna I Stopnia w Witowicach",
                "name": "Szko\u0142a Muzyczna I Stopnia w Witowicach",
                "addr:postcode": "57-120",
                "addr:place": "Witowice",
                "addr:housenumber": "39",
                "addr:city:simc": 882388,
                "phone": "+48 713931354",
                "email": "sekretarkawitowice@o2.pl",
                "website": "http:\/\/www.smwitowice.pl",
                "ref:regon": "021689614",
                "ref:vatin": "PL9141561946",
                "operator": "Gmina Wi\u0105z\u00f3w",
                "operator:type": "government",
                "amenity": "music_school"
            }
        }
    ]
}