{
    "type": "FeatureCollection",
    "features": [
        {
            "id": 123088,
            "type": "Feature",
            "geometry": {
                "type": "Point",
                "coordinates": [
                    14.73234,
                    53.43634
                ]
            },
            "properties": {
                "ref:rspo": 123088,
                "official_name": "Przedszkole Niepubliczne \"Kacper\"",
                "name": "Przedszkole Niepubliczne \"Kacper\"",
                "addr:country": "PL",
                "addr:postcode": "70-896",
                "addr:city": "Za\u0142om",
                "addr:street": "Wierzbowa",
                "addr:housenumber": "2",
                "addr:teryt:simc": 775652,
                "addr:teryt:sym_ul": 24170,
                "contact:email": "przedszkole@kacper.edu.pl",
                "contact:website": "http:\/\/www.kacper.edu.pl",
                "ref:regon": "321521868",
                "operator": "Agnieszka \u0141\u0119cka",
                "operator:type": "private",
                "amenity": "kindergarten"
            }
        },
        {
            "id": 262952,
            "type": "Feature",
            "geometry": {
                "type": "Point",
                "coordinates": [
                    14.76461,
                    53.45761
                ]
            },
            "properties": {
                "ref:rspo": 262952,
                "official_name": "Przedszkole Publiczne \"B\u0142awatek\" w Kliniskach Wielkich",
                "name": "Przedszkole Publiczne \"B\u0142awatek\" w Kliniskach Wielkich",
                "addr:country": "PL",
                "addr:postcode": "72-123",
                "addr:city": "Kliniska Wielkie",
                "addr:street": "S\u0142oneczna",
                "addr:housenumber": "5",
                "addr:teryt:simc": 775304,
                "addr:teryt:sym_ul": 20254,
                "contact:email": "g.gwadera@wp.pl",
                "contact:website": "http:\/\/przedszkolekliniska.pl",
                "ref:regon": "368080502",
                "operator": "New Odyssey Sp\u00f3\u0142ka Z Ograniczon\u0105 Odpowiedzialno\u015bci\u0105",
                "operator:type": "private",
                "amenity": "kindergarten"
            }
        },
        {
            "id": 123032,
            "type": "Feature",
            "geometry": {
                "type": "Point",
                "coordinates": [
                    14.77184,
                    53.45977
                ]
            },
            "properties": {
                "ref:rspo": 123032,
                "official_name": "Niepubliczne Przedszkole S\u0142oneczko Towarzystwa Przyjaci\u00f3\u0142 Dzieci w Kliniskach Wielkich",
                "name": "Niepubliczne Przedszkole S\u0142oneczko Towarzystwa Przyjaci\u00f3\u0142 Dzieci w Kliniskach Wielkich",
                "addr:country": "PL",
                "addr:postcode": "72-123",
                "addr:city": "Kliniska Wielkie",
                "addr:street": "Szczeci\u0144ska",
                "addr:housenumber": "24",
                "addr:teryt:simc": 775304,
                "addr:teryt:sym_ul": 21805,
                "contact:phone": "+48 914345128",
                "contact:email": "zarzad@tpd.szczecin.pl",
                "contact:website": "http:\/\/www.tpd.szczecin.pl",
                "ref:regon": "321519392",
                "operator": "Towarzystwo Przyjaci\u00f3\u0142 Dzieci Zachodniopomorski Oddzia\u0142 Regionalny W Szczecinie",
                "operator:type": "ngo",
                "amenity": "kindergarten"
            }
        },
        {
            "id": 26341,
            "type": "Feature",
            "geometry": {
                "type": "Point",
                "coordinates": [
                    14.77467,
                    53.46238
                ]
            },
            "properties": {
                "isced:level": "1;2",
                "ref:rspo": 26341,
                "official_name": "Szko\u0142a Podstawowa im. Prof. Wies\u0142awa Grochowskiego w Kliniskach Wielkich",
                "name": "Szko\u0142a Podstawowa",
                "addr:country": "PL",
                "addr:postcode": "72-123",
                "addr:city": "Kliniska Wielkie",
                "addr:street": "Piastowska",
                "addr:housenumber": "11",
                "addr:teryt:simc": 775304,
                "addr:teryt:sym_ul": 16046,
                "contact:phone": "+48 914181406",
                "contact:email": "sp@kliniska.edu.pl",
                "contact:website": "http:\/\/kliniska.edu.pl",
                "ref:regon": "001222613",
                "ref:vatin": "PL8561234248",
                "operator": "Gmina Goleni\u00f3w",
                "operator:type": "government",
                "amenity": "school"
            }
        },
        {
            "id": 128489,
            "type": "Feature",
            "geometry": {
                "type": "Point",
                "coordinates": [
                    14.7057,
                    53.50308
                ]
            },
            "properties": {
                "isced:level": "1;2",
                "ref:rspo": 128489,
                "official_name": "Szko\u0142a Podstawowa im. Kardyna\u0142a Stefana Wyszy\u0144skiego w Lubczynie",
                "name": "Szko\u0142a Podstawowa",
                "addr:country": "PL",
                "addr:postcode": "72-105",
                "addr:city": "Lubczyna",
                "addr:street": "Lipowa",
                "addr:housenumber": "14",
                "addr:teryt:simc": 775379,
                "addr:teryt:sym_ul": 11139,
                "contact:phone": "+48 914191628",
                "contact:email": "szkola@lubczyna.pl",
                "contact:website": "http:\/\/lubczyna.pl",
                "ref:regon": "362303160",
                "ref:vatin": "PL8561234219",
                "operator": "Gmina Goleni\u00f3w",
                "operator:type": "government",
                "amenity": "school"
            }
        },
        {
            "id": 30133,
            "type": "Feature",
            "geometry": {
                "type": "Point",
                "coordinates": [
                    14.75676,
                    53.53326
                ]
            },
            "properties": {
                "isced:level": "1;2",
                "ref:rspo": 30133,
                "official_name": "Szko\u0142a Podstawowa im. Joanny Kulmowej w Komarowie",
                "name": "Szko\u0142a Podstawowa",
                "addr:country": "PL",
                "addr:postcode": "72-105",
                "addr:place": "Komarowo",
                "addr:housenumber": "8",
                "addr:teryt:simc": 775333,
                "contact:phone": "+48 914191820",
                "contact:email": "sekretariat@spkomarowo.goleniow.pl",
                "contact:website": "http:\/\/www.spkomarowo.goleniow.pl",
                "ref:regon": "810171542",
                "ref:vatin": "PL8561234254",
                "operator": "Gmina Goleni\u00f3w",
                "operator:type": "government",
                "amenity": "school"
            }
        },
        {
            "id": 131629,
            "type": "Feature",
            "geometry": {
                "type": "Point",
                "coordinates": [
                    14.86144,
                    53.54368
                ]
            },
            "properties": {
                "ref:rspo": 131629,
                "official_name": "Publiczne Przedszkole Puchatkowa Kraina w Goleniowie",
                "name": "Publiczne Przedszkole Puchatkowa Kraina w Goleniowie",
                "addr:country": "PL",
                "addr:postcode": "72-100",
                "addr:city": "Goleni\u00f3w",
                "addr:street": "Plac Stra\u017cacki",
                "addr:housenumber": "10",
                "addr:teryt:simc": 978929,
                "addr:teryt:sym_ul": 42811,
                "contact:email": "biuro@puchatkowakraina.pl",
                "contact:website": "http:\/\/www.puchatkowakraina.pl",
                "ref:regon": "365321224",
                "operator": "Piotr Czy\u017cowicz",
                "operator:type": "private",
                "amenity": "kindergarten"
            }
        },
        {
            "id": 24147,
            "type": "Feature",
            "geometry": {
                "type": "Point",
                "coordinates": [
                    14.85428,
                    53.54455
                ]
            },
            "properties": {
                "isced:level": "1;2",
                "ref:rspo": 24147,
                "official_name": "Szko\u0142a Podstawowa Nr 3 im. Jana Brzechwy w Goleniowie",
                "name": "Szko\u0142a Podstawowa Nr 3",
                "addr:country": "PL",
                "addr:postcode": "72-100",
                "addr:city": "Goleni\u00f3w",
                "addr:street": "Jod\u0142owa",
                "addr:housenumber": "33",
                "addr:teryt:simc": 978929,
                "addr:teryt:sym_ul": 7582,
                "contact:phone": "+48 914182425",
                "contact:email": "sekretariat@sp3goleniow.pl",
                "contact:website": "http:\/\/www.sp3goleniow.pl\/",
                "ref:regon": "001222961",
                "ref:vatin": "PL8561168557",
                "operator": "Gmina Goleni\u00f3w",
                "operator:type": "government",
                "amenity": "school"
            }
        },
        {
            "id": 26831,
            "type": "Feature",
            "geometry": {
                "type": "Point",
                "coordinates": [
                    14.9545762,
                    53.5458344
                ]
            },
            "properties": {
                "ref:rspo": 26831,
                "official_name": "Przedszkole Publiczne w Mostach",
                "name": "Przedszkole Publiczne w Mostach",
                "addr:country": "PL",
                "addr:postcode": "72-132",
                "addr:place": "Mosty",
                "addr:housenumber": "49b",
                "addr:teryt:simc": 775474,
                "contact:phone": "+48 914181272",
                "contact:email": "szkola@zspmosty.pl",
                "contact:website": "http:\/\/www.zspmosty.pl",
                "ref:regon": "811663690",
                "ref:vatin": "PL8561658149",
                "operator": "Gmina Goleni\u00f3w",
                "operator:type": "government",
                "amenity": "kindergarten",
                "note": "Parent RSPO: 24330"
            }
        },
        {
            "id": 4921,
            "type": "Feature",
            "geometry": {
                "type": "Point",
                "coordinates": [
                    14.86217,
                    53.54637
                ]
            },
            "properties": {
                "ref:rspo": 4921,
                "official_name": "Niepubliczne Przedszkole Puchatek",
                "name": "Niepubliczne Przedszkole Puchatek",
                "addr:country": "PL",
                "addr:postcode": "72-100",
                "addr:city": "Goleni\u00f3w",
                "addr:street": "Stargardzka",
                "addr:housenumber": "17",
                "addr:teryt:simc": 978929,
                "addr:teryt:sym_ul": 20908,
                "contact:email": "info@przedszkole-goleniow.pl",
                "contact:website": "http:\/\/przedszkole-goleniow.pl",
                "ref:regon": "321264673",
                "ref:vatin": "PL8561415576",
                "operator": "Piotr Czy\u017cowicz",
                "operator:type": "private",
                "amenity": "kindergarten"
            }
        },
        {
            "id": 24330,
            "type": "Feature",
            "geometry": {
                "type": "Point",
                "coordinates": [
                    14.95493,
                    53.54905
                ]
            },
            "properties": {
                "ref:rspo": 24330,
                "official_name": "Zesp\u00f3\u0142 Szk\u00f3\u0142 Publicznych im. Lotnik\u00f3w Polskich w Mostach",
                "name": "Zesp\u00f3\u0142 Szk\u00f3\u0142 Publicznych",
                "addr:country": "PL",
                "addr:postcode": "72-132",
                "addr:place": "Mosty",
                "addr:housenumber": "4",
                "addr:teryt:simc": 775474,
                "contact:phone": "+48 914181211",
                "contact:email": "szkola@zspmosty.pl",
                "contact:website": "http:\/\/www.zspmosty.pl",
                "ref:regon": "812518300",
                "ref:vatin": "PL8561691017",
                "operator": "Gmina Goleni\u00f3w",
                "operator:type": "government",
                "landuse": "education",
                "fixme": "amenity=school, amenity=college albo landuse=education w zale\u017cno\u015bci od tego, jakie plac\u00f3wki wchodz\u0105 w sk\u0142ad zespo\u0142u. Sprawd\u017a, kiedy stosowa\u0107 amenity=* a kiedy landuse=education.",
                "note": "Children RSPO: 26831;26903"
            }
        },
        {
            "id": 26903,
            "type": "Feature",
            "geometry": {
                "type": "Point",
                "coordinates": [
                    14.95493,
                    53.54902
                ]
            },
            "properties": {
                "isced:level": "1;2",
                "ref:rspo": 26903,
                "official_name": "Szko\u0142a Podstawowa w Mostach",
                "name": "Szko\u0142a Podstawowa w Mostach",
                "addr:country": "PL",
                "addr:postcode": "72-132",
                "addr:place": "Mosty",
                "addr:housenumber": "4",
                "addr:teryt:simc": 775474,
                "contact:phone": "+48 914181211",
                "contact:email": "szkola@zspmosty.pl",
                "contact:website": "http:\/\/www.zspmosty.pl",
                "ref:regon": "001222599",
                "ref:vatin": "PL8561168592",
                "operator": "Gmina Goleni\u00f3w",
                "operator:type": "government",
                "amenity": "school",
                "note": "Parent RSPO: 24330"
            }
        },
        {
            "id": 42788,
            "type": "Feature",
            "geometry": {
                "type": "Point",
                "coordinates": [
                    14.84375,
                    53.55442
                ]
            },
            "properties": {
                "ref:rspo": 42788,
                "official_name": "O\u015brodek Szkole\u0144 S.k.",
                "name": "O\u015brodek Szkole\u0144 S.k.",
                "addr:country": "PL",
                "addr:postcode": "72-100",
                "addr:city": "Goleni\u00f3w",
                "addr:street": "Fabryczna",
                "addr:housenumber": "2",
                "addr:teryt:simc": 978929,
                "addr:teryt:sym_ul": 4863,
                "contact:phone": "+48 914071845",
                "contact:email": "osrodekszkolensk@gmail.com",
                "ref:regon": "321288610",
                "ref:vatin": "PL8561149198",
                "operator": "Krzysztof Sroka",
                "operator:type": "private",
                "fixme": "w zale\u017cno\u015bci od przedmiotu dzia\u0142alno\u015bci (np. amenity=training + training=*, amenity=dancing_school, amenity=language_school, amenity=music_school)"
            }
        },
        {
            "id": 27950,
            "type": "Feature",
            "geometry": {
                "type": "Point",
                "coordinates": [
                    14.81929,
                    53.55845
                ]
            },
            "properties": {
                "isced:level": "1;2",
                "ref:rspo": 27950,
                "official_name": "Szko\u0142a Podstawowa Nr 4 im. Boles\u0142awa Chrobrego w Goleniowie",
                "name": "Szko\u0142a Podstawowa Nr 4",
                "addr:country": "PL",
                "addr:postcode": "72-100",
                "addr:city": "Goleni\u00f3w",
                "addr:street": "Szczeci\u0144ska",
                "addr:housenumber": "36",
                "addr:teryt:simc": 978929,
                "addr:teryt:sym_ul": 21805,
                "contact:phone": "+48 914183560",
                "contact:email": "sp4@sp4.goleniow.pl",
                "contact:website": "http:\/\/www.sp4.goleniow.pl",
                "ref:regon": "000702506",
                "ref:vatin": "PL8561251867",
                "operator": "Gmina Goleni\u00f3w",
                "operator:type": "government",
                "amenity": "school"
            }
        },
        {
            "id": 7060,
            "type": "Feature",
            "geometry": {
                "type": "Point",
                "coordinates": [
                    14.84292,
                    53.56044
                ]
            },
            "properties": {
                "ref:rspo": 7060,
                "official_name": "Poradnia Psychologiczno - Pedagogiczna w Goleniowie",
                "name": "Poradnia Psychologiczno - Pedagogiczna w Goleniowie",
                "addr:country": "PL",
                "addr:postcode": "72-100",
                "addr:city": "Goleni\u00f3w",
                "addr:street": "Maszewska",
                "addr:housenumber": "2",
                "addr:teryt:simc": 978929,
                "addr:teryt:sym_ul": 12460,
                "contact:phone": "+48 914183119",
                "contact:email": "sekretariat@pppgoleniow.pl",
                "contact:website": "http:\/\/www.poradniagoleniow.pl",
                "ref:regon": "810485690",
                "ref:vatin": "PL8561082442",
                "operator": "Powiat Goleniowski",
                "operator:type": "government",
                "healthcare": "counselling",
                "counselling_type": "education",
                "fixme": "w zale\u017cno\u015bci od przedmiotu dzia\u0142alno\u015bci (np. healthcare=counselling + counselling_type=education albo healthcare=psychotherapist)"
            }
        },
        {
            "id": 131942,
            "type": "Feature",
            "geometry": {
                "type": "Point",
                "coordinates": [
                    14.82551,
                    53.56059
                ]
            },
            "properties": {
                "ref:rspo": 131942,
                "official_name": "Przedszkole Niepubliczne \"Akademia Malucha\"",
                "name": "Przedszkole Niepubliczne \"Akademia Malucha\"",
                "addr:country": "PL",
                "addr:postcode": "72-100",
                "addr:city": "Goleni\u00f3w",
                "addr:street": "Marii Konopnickiej",
                "addr:housenumber": "5",
                "addr:teryt:simc": 978929,
                "addr:teryt:sym_ul": 9186,
                "contact:email": "maluchy.edu@gmail.com",
                "contact:website": "http:\/\/www.maluchy.edu.pl",
                "ref:regon": "365386583",
                "ref:vatin": "PL9860101320",
                "operator": "Hanna Karpi\u0144ska",
                "operator:type": "private",
                "amenity": "kindergarten"
            }
        },
        {
            "id": 7593,
            "type": "Feature",
            "geometry": {
                "type": "Point",
                "coordinates": [
                    14.84421,
                    53.5607
                ]
            },
            "properties": {
                "ref:rspo": 7593,
                "official_name": "Zesp\u00f3\u0142 Szk\u00f3\u0142 Nr 1 w Goleniowie",
                "name": "Zesp\u00f3\u0142 Szk\u00f3\u0142 Nr 1 w Goleniowie",
                "addr:country": "PL",
                "addr:postcode": "72-100",
                "addr:city": "Goleni\u00f3w",
                "addr:street": "Maszewska",
                "addr:housenumber": "6",
                "addr:teryt:simc": 978929,
                "addr:teryt:sym_ul": 12460,
                "contact:phone": "+48 914182821",
                "contact:email": "sekretariat@zs1goleniow.edu.pl",
                "contact:website": "http:\/\/zs1goleniow.edu.pl",
                "ref:regon": "000180568",
                "ref:vatin": "PL8561251910",
                "operator": "Powiat Goleniowski",
                "operator:type": "government",
                "landuse": "education",
                "fixme": "amenity=school, amenity=college albo landuse=education w zale\u017cno\u015bci od tego, jakie plac\u00f3wki wchodz\u0105 w sk\u0142ad zespo\u0142u. Sprawd\u017a, kiedy stosowa\u0107 amenity=* a kiedy landuse=education.",
                "note": "Children RSPO: 8319;10337;10374"
            }
        },
        {
            "id": 272192,
            "type": "Feature",
            "geometry": {
                "type": "Point",
                "coordinates": [
                    14.84421,
                    53.560669999999995
                ]
            },
            "properties": {
                "ref:rspo": 272192,
                "official_name": "Centrum Modelowania Przestrzennego Tomasz Wr\u00f3blewski",
                "name": "Centrum Modelowania Przestrzennego Tomasz Wr\u00f3blewski",
                "addr:country": "PL",
                "addr:postcode": "72-100",
                "addr:city": "Goleni\u00f3w",
                "addr:street": "Maszewska",
                "addr:housenumber": "6",
                "addr:teryt:simc": 978929,
                "addr:teryt:sym_ul": 12460,
                "contact:email": "tomasz.wroblewski@me.com",
                "contact:website": "http:\/\/school3d.pro",
                "ref:regon": "384010328",
                "operator": "Tomasz Wr\u00f3blewski",
                "operator:type": "private",
                "fixme": "w zale\u017cno\u015bci od przedmiotu dzia\u0142alno\u015bci (np. amenity=training + training=*, amenity=dancing_school, amenity=language_school, amenity=music_school)"
            }
        },
        {
            "id": 8319,
            "type": "Feature",
            "geometry": {
                "type": "Point",
                "coordinates": [
                    14.84421,
                    53.56064
                ]
            },
            "properties": {
                "isced:level": "3",
                "ref:rspo": 8319,
                "official_name": "I Liceum Og\u00f3lnokszta\u0142c\u0105ce im. Stefana \u017beromskiego w Goleniowie",
                "name": "I Liceum Og\u00f3lnokszta\u0142c\u0105ce",
                "addr:country": "PL",
                "addr:postcode": "72-100",
                "addr:city": "Goleni\u00f3w",
                "addr:street": "Maszewska",
                "addr:housenumber": "6",
                "addr:teryt:simc": 978929,
                "addr:teryt:sym_ul": 12460,
                "contact:phone": "+48 914180050",
                "contact:email": "sekretariat@zs1goleniow.edu.pl",
                "contact:website": "http:\/\/zs1goleniow.edu.pl",
                "ref:regon": "812633314",
                "operator": "Powiat Goleniowski",
                "operator:type": "government",
                "amenity": "school",
                "note": "Parent RSPO: 7593"
            }
        },
        {
            "id": 10337,
            "type": "Feature",
            "geometry": {
                "type": "Point",
                "coordinates": [
                    14.84421,
                    53.56061
                ]
            },
            "properties": {
                "isced:level": "3",
                "ref:rspo": 10337,
                "official_name": "Technikum Nr 1 w Goleniowie",
                "name": "Technikum Nr 1 w Goleniowie",
                "addr:country": "PL",
                "addr:postcode": "72-100",
                "addr:city": "Goleni\u00f3w",
                "addr:street": "Maszewska",
                "addr:housenumber": "6",
                "addr:teryt:simc": 978929,
                "addr:teryt:sym_ul": 12460,
                "contact:phone": "+48 914180050",
                "contact:email": "sekretariat@zs1goleniow.edu.pl",
                "contact:website": "http:\/\/zs1goleniow.edu.pl",
                "ref:regon": "320405634",
                "operator": "Powiat Goleniowski",
                "operator:type": "government",
                "amenity": "school",
                "note": "Parent RSPO: 7593"
            }
        },
        {
            "id": 10374,
            "type": "Feature",
            "geometry": {
                "type": "Point",
                "coordinates": [
                    14.84421,
                    53.560579999999995
                ]
            },
            "properties": {
                "isced:level": "3",
                "ref:rspo": 10374,
                "official_name": "Bran\u017cowa Szko\u0142a I Stopnia w Goleniowie",
                "name": "Bran\u017cowa Szko\u0142a I Stopnia w Goleniowie",
                "addr:country": "PL",
                "addr:postcode": "72-100",
                "addr:city": "Goleni\u00f3w",
                "addr:street": "Maszewska",
                "addr:housenumber": "6",
                "addr:teryt:simc": 978929,
                "addr:teryt:sym_ul": 12460,
                "contact:phone": "+48 914182821",
                "contact:email": "sekretariat@zs1goleniow.edu.pl",
                "contact:website": "http:\/\/zs1goleniow.edu.pl",
                "ref:regon": "812076888",
                "operator": "Powiat Goleniowski",
                "operator:type": "government",
                "amenity": "school",
                "note": "Parent RSPO: 7593"
            }
        },
        {
            "id": 40057,
            "type": "Feature",
            "geometry": {
                "type": "Point",
                "coordinates": [
                    14.82614,
                    53.56082
                ]
            },
            "properties": {
                "ref:rspo": 40057,
                "official_name": "O\u015brodek Rehabilitacyjno - Edukacyjno - Wychowawczy Profi - Med w Goleniowie",
                "name": "O\u015brodek Rehabilitacyjno - Edukacyjno - Wychowawczy Profi - Med w Goleniowie",
                "addr:country": "PL",
                "addr:postcode": "72-100",
                "addr:city": "Goleni\u00f3w",
                "addr:street": "Marii Konopnickiej",
                "addr:housenumber": "10A",
                "addr:teryt:simc": 978929,
                "addr:teryt:sym_ul": 9186,
                "contact:phone": "+48 913506000",
                "contact:email": "biuro@orewgoleniow.pl",
                "contact:website": "http:\/\/www.orewgoleniow.pl\/",
                "ref:regon": "321287763",
                "ref:vatin": "PL8561846253",
                "operator": "O\u015brodek Rehabilitacyjno Edukacyjno Wychowawczy Profi-Med Sp\u00f3\u0142ka Z Ograniczon\u0105 Odpowiedzialno\u015bci\u0105",
                "operator:type": "private",
                "amenity": "school"
            }
        },
        {
            "id": 31190,
            "type": "Feature",
            "geometry": {
                "type": "Point",
                "coordinates": [
                    14.82523,
                    53.561
                ]
            },
            "properties": {
                "ref:rspo": 31190,
                "official_name": "Przedszkole Niepubliczne \"S\u0142oneczna Jedynka\" w Goleniowie",
                "name": "Przedszkole Niepubliczne \"S\u0142oneczna Jedynka\" w Goleniowie",
                "addr:country": "PL",
                "addr:postcode": "72-100",
                "addr:city": "Goleni\u00f3w",
                "addr:street": "Marii Konopnickiej",
                "addr:housenumber": "10",
                "addr:teryt:simc": 978929,
                "addr:teryt:sym_ul": 9186,
                "contact:phone": "+48 914317129",
                "contact:email": "przedszkole_goleniow@interia.pl",
                "contact:website": "http:\/\/www.slonecznajedynka.pl",
                "ref:regon": "321285675",
                "ref:vatin": "PL8561117152",
                "operator": "Gra\u017cyna Lewandowska",
                "operator:type": "private",
                "amenity": "kindergarten"
            }
        },
        {
            "id": 26322,
            "type": "Feature",
            "geometry": {
                "type": "Point",
                "coordinates": [
                    14.81992,
                    53.56106
                ]
            },
            "properties": {
                "ref:rspo": 26322,
                "official_name": "Przedszkole Z Oddzia\u0142ami Integracyjnymi \u201eT\u0119czowa Kraina\u201d",
                "name": "Przedszkole Z Oddzia\u0142ami Integracyjnymi \u201eT\u0119czowa Kraina\u201d",
                "addr:country": "PL",
                "addr:postcode": "72-100",
                "addr:city": "Goleni\u00f3w",
                "addr:street": "Piaskowa",
                "addr:housenumber": "9",
                "addr:teryt:simc": 978929,
                "addr:teryt:sym_ul": 16033,
                "contact:phone": "+48 914071363",
                "contact:email": "ppi6@op.pl",
                "contact:website": "http:\/\/www.teczowakraina-goleniow.pl\/",
                "ref:regon": "321285729",
                "ref:vatin": "PL8561165122",
                "operator": "Agnieszka Saczywko",
                "operator:type": "private",
                "amenity": "kindergarten"
            }
        },
        {
            "id": 44514,
            "type": "Feature",
            "geometry": {
                "type": "Point",
                "coordinates": [
                    14.83273,
                    53.56167
                ]
            },
            "properties": {
                "ref:rspo": 44514,
                "official_name": "O\u015brodek Kszta\u0142cenia Zawodowego",
                "name": "O\u015brodek Kszta\u0142cenia Zawodowego",
                "addr:country": "PL",
                "addr:postcode": "72-100",
                "addr:city": "Goleni\u00f3w",
                "addr:street": "Konstytucji 3 Maja",
                "addr:housenumber": "19",
                "addr:teryt:simc": 978929,
                "addr:teryt:sym_ul": 9213,
                "contact:email": "stargard@wzdz.pl",
                "ref:regon": "321288030",
                "ref:vatin": "PL8510107787",
                "operator": "Wojew\u00f3dzki Zak\u0142ad Doskonalenia Zawodowego W Szczecinie",
                "operator:type": "ngo",
                "fixme": "w zale\u017cno\u015bci od przedmiotu dzia\u0142alno\u015bci (np. amenity=training + training=*, amenity=dancing_school, amenity=language_school, amenity=music_school)"
            }
        },
        {
            "id": 68190,
            "type": "Feature",
            "geometry": {
                "type": "Point",
                "coordinates": [
                    14.83273,
                    53.56164
                ]
            },
            "properties": {
                "ref:rspo": 68190,
                "official_name": "Centrum Kszta\u0142cenia Ustawicznego I Praktycznego w Goleniowie",
                "name": "Centrum Kszta\u0142cenia Ustawicznego I Praktycznego w Goleniowie",
                "addr:country": "PL",
                "addr:postcode": "72-100",
                "addr:city": "Goleni\u00f3w",
                "addr:street": "Konstytucji 3 Maja",
                "addr:housenumber": "19",
                "addr:teryt:simc": 978929,
                "addr:teryt:sym_ul": 9213,
                "contact:phone": "+48 914182553",
                "contact:email": "cech_goleniow@op.pl",
                "ref:regon": "321297371",
                "ref:vatin": "PL8561083306",
                "operator": "Cech Rzemie\u015blnik\u00f3w I Przedsi\u0119biorc\u00f3w",
                "operator:type": "ngo",
                "fixme": "w zale\u017cno\u015bci od przedmiotu dzia\u0142alno\u015bci (np. amenity=training + training=*, amenity=dancing_school, amenity=language_school, amenity=music_school)"
            }
        },
        {
            "id": 23604,
            "type": "Feature",
            "geometry": {
                "type": "Point",
                "coordinates": [
                    14.83662,
                    53.56188
                ]
            },
            "properties": {
                "isced:level": "1;2",
                "ref:rspo": 23604,
                "official_name": "Szko\u0142a Podstawowa Nr 2 im. Henryka Sienkiewicza w Goleniowie",
                "name": "Szko\u0142a Podstawowa Nr 2",
                "addr:country": "PL",
                "addr:postcode": "72-100",
                "addr:city": "Goleni\u00f3w",
                "addr:street": "Szarych Szereg\u00f3w",
                "addr:housenumber": "14",
                "addr:teryt:simc": 978929,
                "addr:teryt:sym_ul": 21787,
                "contact:phone": "+48 914182137",
                "contact:email": "sekretariat@sp2.goleniow.pl",
                "contact:website": "http:\/\/www.sp2.goleniow.pl",
                "ref:regon": "001222576",
                "ref:vatin": "PL8561270310",
                "operator": "Gmina Goleni\u00f3w",
                "operator:type": "government",
                "amenity": "school"
            }
        },
        {
            "id": 24383,
            "type": "Feature",
            "geometry": {
                "type": "Point",
                "coordinates": [
                    14.83147,
                    53.5621
                ]
            },
            "properties": {
                "ref:rspo": 24383,
                "official_name": "Prywatne Przedszkole J\u0119zykowe \"Promyczek\" w Goleniowie",
                "name": "Prywatne Przedszkole J\u0119zykowe \"Promyczek\" w Goleniowie",
                "addr:country": "PL",
                "addr:postcode": "72-100",
                "addr:city": "Goleni\u00f3w",
                "addr:street": "Konstytucji 3 Maja",
                "addr:housenumber": "29",
                "addr:teryt:simc": 978929,
                "addr:teryt:sym_ul": 9213,
                "contact:phone": "+48 914073262",
                "contact:email": "promyczekgol@onet.pl",
                "ref:regon": "321282949",
                "operator": "Centrum Tw\u00f3rczego Rozwoju \"Bystrzak\" Sp\u00f3\u0142ka Z Ograniczon\u0105 Odpowiedzialno\u015bci\u0105",
                "operator:type": "private",
                "amenity": "kindergarten"
            }
        },
        {
            "id": 24454,
            "type": "Feature",
            "geometry": {
                "type": "Point",
                "coordinates": [
                    14.83147,
                    53.56207
                ]
            },
            "properties": {
                "isced:level": "1;2",
                "ref:rspo": 24454,
                "official_name": "Prywatna J\u0119zykowa Szko\u0142a Podstawowa \"Cogito\" im. Ksi\u0119cia Barnima I w Goleniowie",
                "name": "Prywatna J\u0119zykowa Szko\u0142a Podstawowa \"Cogito\"",
                "addr:country": "PL",
                "addr:postcode": "72-100",
                "addr:city": "Goleni\u00f3w",
                "addr:street": "Konstytucji 3 Maja",
                "addr:housenumber": "29",
                "addr:teryt:simc": 978929,
                "addr:teryt:sym_ul": 9213,
                "contact:phone": "+48 914073262",
                "contact:email": "promyczekgol@onet.pl",
                "ref:regon": "321282317",
                "operator": "Centrum Edukacyjne \"Cogito\" Sp\u00f3\u0142ka Z Ograniczon\u0105 Odpowiedzialno\u015bci\u0105",
                "operator:type": "private",
                "amenity": "school"
            }
        },
        {
            "id": 68189,
            "type": "Feature",
            "geometry": {
                "type": "Point",
                "coordinates": [
                    14.82506,
                    53.56214
                ]
            },
            "properties": {
                "ref:rspo": 68189,
                "official_name": "Centrum Kszta\u0142cenia Ustawicznego I Praktycznego Lingua Ejp",
                "name": "Centrum Kszta\u0142cenia Ustawicznego I Praktycznego Lingua Ejp",
                "addr:country": "PL",
                "addr:postcode": "72-100",
                "addr:city": "Goleni\u00f3w",
                "addr:street": "Szczeci\u0144ska",
                "addr:housenumber": "6a",
                "addr:teryt:simc": 978929,
                "addr:teryt:sym_ul": 21805,
                "contact:phone": "+48 914072250",
                "contact:email": "jpastewski@pro.onet.pl",
                "contact:website": "http:\/\/www.lingua.ejp.com",
                "ref:regon": "321307589",
                "ref:vatin": "PL8561025591",
                "operator": "Ewa Pastewska",
                "operator:type": "private",
                "fixme": "w zale\u017cno\u015bci od przedmiotu dzia\u0142alno\u015bci (np. amenity=training + training=*, amenity=dancing_school, amenity=language_school, amenity=music_school)"
            }
        },
        {
            "id": 268488,
            "type": "Feature",
            "geometry": {
                "type": "Point",
                "coordinates": [
                    14.82813,
                    53.56262
                ]
            },
            "properties": {
                "ref:rspo": 268488,
                "official_name": "Muzyczne Przedszkole",
                "name": "Muzyczne Przedszkole",
                "addr:country": "PL",
                "addr:postcode": "72-100",
                "addr:city": "Goleni\u00f3w",
                "addr:street": "Tadeusza Ko\u015bciuszki",
                "addr:housenumber": "12",
                "addr:teryt:simc": 978929,
                "addr:teryt:sym_ul": 9582,
                "contact:email": "krzysztof.sypien@interia.pl",
                "ref:regon": "381194919",
                "operator": "Fundacja Centrum Rozwoju",
                "operator:type": "ngo",
                "amenity": "kindergarten"
            }
        },
        {
            "id": 129770,
            "type": "Feature",
            "geometry": {
                "type": "Point",
                "coordinates": [
                    14.81945,
                    53.56376
                ]
            },
            "properties": {
                "ref:rspo": 129770,
                "official_name": "Przedszkole Publiczne \"Bajkowa Akademia\"",
                "name": "Przedszkole Publiczne \"Bajkowa Akademia\"",
                "addr:country": "PL",
                "addr:postcode": "72-100",
                "addr:city": "Goleni\u00f3w",
                "addr:street": "Jana Matejki",
                "addr:housenumber": "22",
                "addr:teryt:simc": 978929,
                "addr:teryt:sym_ul": 12489,
                "contact:email": "bajkowa-akademia@wp.pl",
                "contact:website": "http:\/\/www.bajkowa-akademia.pl",
                "ref:regon": "362866259",
                "operator": "\"Abat\" Sp\u00f3\u0142ka Z Ograniczon\u0105 Odpowiedzialno\u015bci\u0105",
                "operator:type": "private",
                "amenity": "kindergarten"
            }
        },
        {
            "id": 23900,
            "type": "Feature",
            "geometry": {
                "type": "Point",
                "coordinates": [
                    14.81707,
                    53.56388
                ]
            },
            "properties": {
                "ref:rspo": 23900,
                "official_name": "Przedszkole Publiczne Nr 2 im. Wandy Chotomskiej w Goleniowie",
                "name": "Przedszkole Publiczne Nr 2",
                "addr:country": "PL",
                "addr:postcode": "72-100",
                "addr:city": "Goleni\u00f3w",
                "addr:street": "Akacjowa",
                "addr:housenumber": "19",
                "addr:teryt:simc": 978929,
                "addr:teryt:sym_ul": 157,
                "contact:phone": "+48 914182631",
                "contact:email": "przedszkole@pp2.goleniow.pl",
                "contact:website": "http:\/\/pp2.goleniow.pl",
                "ref:regon": "320761292",
                "ref:vatin": "PL8561822459",
                "operator": "Gmina Goleni\u00f3w",
                "operator:type": "government",
                "amenity": "kindergarten"
            }
        },
        {
            "id": 26320,
            "type": "Feature",
            "geometry": {
                "type": "Point",
                "coordinates": [
                    14.83228,
                    53.56424
                ]
            },
            "properties": {
                "ref:rspo": 26320,
                "official_name": "Przedszkole Niepubliczne \"Misiowe Przedszkole\" w Goleniowie",
                "name": "Przedszkole Niepubliczne \"Misiowe Przedszkole\" w Goleniowie",
                "addr:country": "PL",
                "addr:postcode": "72-100",
                "addr:city": "Goleni\u00f3w",
                "addr:street": "Pocztowa",
                "addr:housenumber": "15",
                "addr:door": "18",
                "addr:teryt:simc": 978929,
                "addr:teryt:sym_ul": 16579,
                "contact:email": "misioweprzedszkole@gmail.com",
                "contact:website": "http:\/\/www.misioweprzedszkolegoleniow.szkolnastrona.pl",
                "ref:regon": "321283699",
                "ref:vatin": "PL8561010626",
                "operator": "Katarzyna Roszko",
                "operator:type": "private",
                "amenity": "kindergarten"
            }
        },
        {
            "id": 196391,
            "type": "Feature",
            "geometry": {
                "type": "Point",
                "coordinates": [
                    14.82461,
                    53.5645
                ]
            },
            "properties": {
                "isced:level": "1;2",
                "ref:rspo": 196391,
                "official_name": "Szko\u0142a Podstawowa Nr 1 im. Noblist\u00f3w Polskich w Goleniowie",
                "name": "Szko\u0142a Podstawowa Nr 1",
                "addr:country": "PL",
                "addr:postcode": "72-100",
                "addr:city": "Goleni\u00f3w",
                "addr:street": "Jana Kili\u0144skiego",
                "addr:housenumber": "11",
                "addr:teryt:simc": 978929,
                "addr:teryt:sym_ul": 8435,
                "contact:phone": "+48 914182126",
                "contact:email": "sekretariat@sp1.goleniow.pl",
                "contact:website": "http:\/\/sp1.goleniow.pl",
                "ref:regon": "367991549",
                "ref:vatin": "PL8561866936",
                "operator": "Gmina Goleni\u00f3w",
                "operator:type": "government",
                "amenity": "school"
            }
        },
        {
            "id": 262707,
            "type": "Feature",
            "geometry": {
                "type": "Point",
                "coordinates": [
                    14.83603,
                    53.56639
                ]
            },
            "properties": {
                "ref:rspo": 262707,
                "official_name": "Przedszkole Publiczne \"Stokrotka\" w Goleniowie",
                "name": "Przedszkole Publiczne \"Stokrotka\" w Goleniowie",
                "addr:country": "PL",
                "addr:postcode": "72-100",
                "addr:city": "Goleni\u00f3w",
                "addr:street": "Bohater\u00f3w Warszawy",
                "addr:housenumber": "21",
                "addr:teryt:simc": 978929,
                "addr:teryt:sym_ul": 1679,
                "contact:phone": "+48 914184440",
                "contact:email": "ijaruta@wp.pl",
                "contact:website": "http:\/\/stokrotkagoleniow.pl",
                "ref:regon": "368053184",
                "operator": "Run Forrest Sp\u00f3\u0142ka Z Ograniczon\u0105 Odpowiedzialno\u015bci\u0105",
                "operator:type": "private",
                "amenity": "kindergarten"
            }
        },
        {
            "id": 31128,
            "type": "Feature",
            "geometry": {
                "type": "Point",
                "coordinates": [
                    14.83577,
                    53.56665
                ]
            },
            "properties": {
                "isced:level": "1;2",
                "ref:rspo": 31128,
                "official_name": "Szko\u0142a Podstawowa Nr 8 im. Kardyna\u0142a Augusta Hlonda w Goleniowie",
                "name": "Szko\u0142a Podstawowa Nr 8",
                "addr:country": "PL",
                "addr:postcode": "72-100",
                "addr:city": "Goleni\u00f3w",
                "addr:street": "Szkolna",
                "addr:housenumber": "13",
                "addr:teryt:simc": 978929,
                "addr:teryt:sym_ul": 21970,
                "contact:phone": "+48 914071075",
                "contact:email": "sekretariat@szkolna13.pl",
                "contact:website": "http:\/\/www.szkolna13.pl",
                "ref:regon": "321285267",
                "ref:vatin": "PL8561568914",
                "operator": "Zesp\u00f3\u0142 Szk\u00f3\u0142 Prywatnych \"Szkolna 13\" W Goleniowie Sp\u00f3\u0142ka Z Ograniczon\u0105 Odpowiedzialno\u015bci\u0105",
                "operator:type": "private",
                "amenity": "school"
            }
        },
        {
            "id": 266929,
            "type": "Feature",
            "geometry": {
                "type": "Point",
                "coordinates": [
                    14.83577,
                    53.56662
                ]
            },
            "properties": {
                "isced:level": "3",
                "ref:rspo": 266929,
                "official_name": "Publiczne Liceum Og\u00f3lnokszta\u0142c\u0105ce im. Kardyna\u0142a Augusta Hlonda w Goleniowie",
                "name": "Publiczne Liceum Og\u00f3lnokszta\u0142c\u0105ce",
                "addr:country": "PL",
                "addr:postcode": "72-100",
                "addr:city": "Goleni\u00f3w",
                "addr:street": "Szkolna",
                "addr:housenumber": "13",
                "addr:teryt:simc": 978929,
                "addr:teryt:sym_ul": 21970,
                "contact:phone": "+48 914071075",
                "contact:email": "sekretariat@szkolna13.pl",
                "contact:website": "http:\/\/www.szkolna13.pl",
                "ref:regon": "369749692",
                "ref:vatin": "PL8561850668",
                "operator": "Zesp\u00f3\u0142 Szk\u00f3\u0142 Prywatnych \"Szkolna 13\" W Goleniowie Sp\u00f3\u0142ka Z Ograniczon\u0105 Odpowiedzialno\u015bci\u0105",
                "operator:type": "private",
                "amenity": "school"
            }
        },
        {
            "id": 25795,
            "type": "Feature",
            "geometry": {
                "type": "Point",
                "coordinates": [
                    14.83266,
                    53.56768
                ]
            },
            "properties": {
                "ref:rspo": 25795,
                "official_name": "Przedszkole Publiczne Nr 4 \u201eNiezapominajka\u201d w Goleniowie",
                "name": "Przedszkole Publiczne Nr 4 \u201eNiezapominajka\u201d w Goleniowie",
                "addr:country": "PL",
                "addr:postcode": "72-100",
                "addr:city": "Goleni\u00f3w",
                "addr:street": "Kr\u00f3la W\u0142adys\u0142awa Jagie\u0142\u0142y",
                "addr:housenumber": "12",
                "addr:teryt:simc": 978929,
                "addr:teryt:sym_ul": 7043,
                "contact:phone": "+48 914666677",
                "contact:email": "przedszkole@pp4.goleniow.pl",
                "contact:website": "http:\/\/pp4.goleniow.edu.pl",
                "ref:regon": "320762469",
                "ref:vatin": "PL8561822413",
                "operator": "Gmina Goleni\u00f3w",
                "operator:type": "government",
                "amenity": "kindergarten"
            }
        },
        {
            "id": 124310,
            "type": "Feature",
            "geometry": {
                "type": "Point",
                "coordinates": [
                    14.83438,
                    53.56774
                ]
            },
            "properties": {
                "ref:rspo": 124310,
                "official_name": "Punkt Przedszkolny \"T\u0119czowa Kraina\"",
                "name": "Punkt Przedszkolny \"T\u0119czowa Kraina\"",
                "addr:country": "PL",
                "addr:postcode": "72-100",
                "addr:city": "Goleni\u00f3w",
                "addr:street": "Szkolna",
                "addr:housenumber": "7",
                "addr:teryt:simc": 978929,
                "addr:teryt:sym_ul": 21970,
                "contact:phone": "+48 511503375",
                "contact:email": "tkpunkt@op.pl",
                "ref:regon": "321563513",
                "operator": "Agnieszka Saczywko",
                "operator:type": "private",
                "amenity": "kindergarten"
            }
        },
        {
            "id": 133228,
            "type": "Feature",
            "geometry": {
                "type": "Point",
                "coordinates": [
                    14.82235,
                    53.56785
                ]
            },
            "properties": {
                "ref:rspo": 133228,
                "official_name": "Przedszkole Niepubliczne \"Weso\u0142e Smyki\"",
                "name": "Przedszkole Niepubliczne \"Weso\u0142e Smyki\"",
                "addr:country": "PL",
                "addr:postcode": "72-100",
                "addr:city": "Goleni\u00f3w",
                "addr:street": "Wojska Polskiego",
                "addr:housenumber": "10A",
                "addr:teryt:simc": 978929,
                "addr:teryt:sym_ul": 24628,
                "contact:email": "przedszkolegoleniow@gmail.com",
                "contact:website": "http:\/\/www.wesolesmyki.pl",
                "ref:regon": "366843226",
                "operator": "Joanna Furdyna",
                "operator:type": "private",
                "amenity": "kindergarten"
            }
        },
        {
            "id": 196394,
            "type": "Feature",
            "geometry": {
                "type": "Point",
                "coordinates": [
                    14.83152961731,
                    53.568260192871
                ]
            },
            "properties": {
                "isced:level": "1;2",
                "ref:rspo": 196394,
                "official_name": "Szko\u0142a Podstawowa Z Oddzia\u0142ami Sportowymi Nr 5 im. Ks. Jana Twardowskiego w Goleniowie",
                "name": "Szko\u0142a Podstawowa Z Oddzia\u0142ami Sportowymi Nr 5",
                "addr:country": "PL",
                "addr:postcode": "72-100",
                "addr:city": "Goleni\u00f3w",
                "addr:street": "Cypriana Kamila Norwida",
                "addr:housenumber": "1",
                "addr:teryt:simc": 978929,
                "addr:teryt:sym_ul": 14319,
                "contact:phone": "+48 914182753",
                "contact:email": "sp5@goleniow.edu.pl",
                "contact:website": "http:\/\/sp5.goleniow.edu.pl",
                "ref:regon": "367991609",
                "ref:vatin": "PL8561866959",
                "operator": "Gmina Goleni\u00f3w",
                "operator:type": "government",
                "amenity": "school"
            }
        },
        {
            "id": 10473,
            "type": "Feature",
            "geometry": {
                "type": "Point",
                "coordinates": [
                    14.82004,
                    53.56974
                ]
            },
            "properties": {
                "ref:rspo": 10473,
                "official_name": "Szko\u0142a Muzyczna I Stopnia w Goleniowie",
                "name": "Szko\u0142a Muzyczna I Stopnia w Goleniowie",
                "addr:country": "PL",
                "addr:postcode": "72-100",
                "addr:city": "Goleni\u00f3w",
                "addr:street": "Niepodleg\u0142o\u015bci",
                "addr:housenumber": "1",
                "addr:teryt:simc": 978929,
                "addr:teryt:sym_ul": 14203,
                "contact:phone": "+48 914313266",
                "contact:email": "sekretariat@smgoleniow.pl",
                "contact:website": "http:\/\/www.szkola-muzyczna-goleniow.pl",
                "ref:regon": "000816664",
                "ref:vatin": "PL8561018160",
                "operator": "Powiat Goleniowski",
                "operator:type": "government",
                "amenity": "music_school",
                "note": "Children RSPO: 17403"
            }
        },
        {
            "id": 4219,
            "type": "Feature",
            "geometry": {
                "type": "Point",
                "coordinates": [
                    14.81947,
                    53.57073
                ]
            },
            "properties": {
                "ref:rspo": 4219,
                "official_name": "Zesp\u00f3\u0142 Szk\u00f3\u0142 Specjalnych w Goleniowie",
                "name": "Zesp\u00f3\u0142 Szk\u00f3\u0142 Specjalnych w Goleniowie",
                "addr:country": "PL",
                "addr:postcode": "72-100",
                "addr:city": "Goleni\u00f3w",
                "addr:street": "Niepodleg\u0142o\u015bci",
                "addr:housenumber": "1B",
                "addr:teryt:simc": 978929,
                "addr:teryt:sym_ul": 14203,
                "contact:phone": "+48 914184274",
                "contact:email": "zssgol@wp.pl",
                "contact:website": "http:\/\/www.zssgol.pl",
                "ref:regon": "810032734",
                "ref:vatin": "PL8561082287",
                "operator": "Powiat Goleniowski",
                "operator:type": "government",
                "landuse": "education",
                "fixme": "amenity=school, amenity=college albo landuse=education w zale\u017cno\u015bci od tego, jakie plac\u00f3wki wchodz\u0105 w sk\u0142ad zespo\u0142u. Sprawd\u017a, kiedy stosowa\u0107 amenity=* a kiedy landuse=education.",
                "note": "Children RSPO: 7096;7517;7519"
            }
        },
        {
            "id": 7096,
            "type": "Feature",
            "geometry": {
                "type": "Point",
                "coordinates": [
                    14.81947,
                    53.570699999999995
                ]
            },
            "properties": {
                "isced:level": "3",
                "ref:rspo": 7096,
                "official_name": "Bran\u017cowa Szko\u0142a I Stopnia Specjalna Nr 1 w Goleniowie",
                "name": "Bran\u017cowa Szko\u0142a I Stopnia Specjalna Nr 1 w Goleniowie",
                "addr:country": "PL",
                "addr:postcode": "72-100",
                "addr:city": "Goleni\u00f3w",
                "addr:street": "Niepodleg\u0142o\u015bci",
                "addr:housenumber": "1B",
                "addr:teryt:simc": 978929,
                "addr:teryt:sym_ul": 14203,
                "contact:phone": "+48 914184274",
                "contact:email": "zssgol@wp.pl",
                "contact:website": "http:\/\/www.zssgol.pl",
                "ref:regon": "321268139",
                "operator": "Powiat Goleniowski",
                "operator:type": "government",
                "amenity": "school",
                "note": "Parent RSPO: 4219"
            }
        },
        {
            "id": 7517,
            "type": "Feature",
            "geometry": {
                "type": "Point",
                "coordinates": [
                    14.81947,
                    53.57067
                ]
            },
            "properties": {
                "isced:level": "1;2",
                "ref:rspo": 7517,
                "official_name": "Szko\u0142a Podstawowa Specjalna w Goleniowie",
                "name": "Szko\u0142a Podstawowa Specjalna w Goleniowie",
                "addr:country": "PL",
                "addr:postcode": "72-100",
                "addr:city": "Goleni\u00f3w",
                "addr:street": "Niepodleg\u0142o\u015bci",
                "addr:housenumber": "1B",
                "addr:teryt:simc": 978929,
                "addr:teryt:sym_ul": 14203,
                "contact:phone": "+48 914184274",
                "contact:email": "zssgol@wp.pl",
                "contact:website": "http:\/\/www.zssgol.pl",
                "ref:regon": "811993157",
                "operator": "Powiat Goleniowski",
                "operator:type": "government",
                "amenity": "school",
                "note": "Parent RSPO: 4219"
            }
        },
        {
            "id": 7519,
            "type": "Feature",
            "geometry": {
                "type": "Point",
                "coordinates": [
                    14.81947,
                    53.57064
                ]
            },
            "properties": {
                "ref:rspo": 7519,
                "official_name": "Szko\u0142a Specjalna Przysposabiaj\u0105ca Do Pracy w Goleniowie",
                "name": "Szko\u0142a Specjalna Przysposabiaj\u0105ca Do Pracy w Goleniowie",
                "addr:country": "PL",
                "addr:postcode": "72-100",
                "addr:city": "Goleni\u00f3w",
                "addr:street": "Niepodleg\u0142o\u015bci",
                "addr:housenumber": "1B",
                "addr:teryt:simc": 978929,
                "addr:teryt:sym_ul": 14203,
                "contact:phone": "+48 914184274",
                "contact:email": "zssgol@wp.pl",
                "contact:website": "http:\/\/www.zssgol.pl",
                "ref:regon": "320556043",
                "operator": "Powiat Goleniowski",
                "operator:type": "government",
                "amenity": "school",
                "note": "Parent RSPO: 4219"
            }
        },
        {
            "id": 25680,
            "type": "Feature",
            "geometry": {
                "type": "Point",
                "coordinates": [
                    14.74264,
                    53.59626
                ]
            },
            "properties": {
                "isced:level": "1;2",
                "ref:rspo": 25680,
                "official_name": "Szko\u0142a Podstawowa im. Jana Paw\u0142a II w Kr\u0119psku",
                "name": "Szko\u0142a Podstawowa",
                "addr:country": "PL",
                "addr:postcode": "72-113",
                "addr:city": "Kr\u0119psko",
                "addr:street": "Szkolna",
                "addr:housenumber": "2",
                "addr:teryt:simc": 775356,
                "addr:teryt:sym_ul": 21970,
                "contact:phone": "+48 914189527",
                "contact:email": "sekretariat@spkrepsko.goleniow.pl",
                "contact:website": "http:\/\/spkrepsko.goleniow.pl\/",
                "ref:regon": "001264936",
                "ref:vatin": "PL8561165240",
                "operator": "Gmina Goleni\u00f3w",
                "operator:type": "government",
                "amenity": "school"
            }
        },
        {
            "id": 24282,
            "type": "Feature",
            "geometry": {
                "type": "Point",
                "coordinates": [
                    14.853030204773,
                    53.617599487305
                ]
            },
            "properties": {
                "ref:rspo": 24282,
                "official_name": "Zesp\u00f3\u0142 Szk\u00f3\u0142 Publicznych w Bia\u0142uniu",
                "name": "Zesp\u00f3\u0142 Szk\u00f3\u0142 Publicznych w Bia\u0142uniu",
                "addr:country": "PL",
                "addr:postcode": "72-100",
                "addr:city": "Bia\u0142u\u0144",
                "addr:street": "Sielankowa",
                "addr:housenumber": "4",
                "addr:teryt:simc": 775149,
                "addr:teryt:sym_ul": 19796,
                "contact:phone": "+48 914189925",
                "contact:email": "sekretariat@bialun.szkola.pl",
                "contact:website": "http:\/\/bialun.szkola.pl\/",
                "ref:regon": "320595801",
                "ref:vatin": "PL8561808100",
                "operator": "Gmina Goleni\u00f3w",
                "operator:type": "government",
                "landuse": "education",
                "fixme": "amenity=school, amenity=college albo landuse=education w zale\u017cno\u015bci od tego, jakie plac\u00f3wki wchodz\u0105 w sk\u0142ad zespo\u0142u. Sprawd\u017a, kiedy stosowa\u0107 amenity=* a kiedy landuse=education.",
                "note": "Children RSPO: 30317;30477"
            }
        },
        {
            "id": 30317,
            "type": "Feature",
            "geometry": {
                "type": "Point",
                "coordinates": [
                    14.853030204773,
                    53.617569487305
                ]
            },
            "properties": {
                "ref:rspo": 30317,
                "official_name": "Przedszkole Publiczne w Bia\u0142uniu",
                "name": "Przedszkole Publiczne w Bia\u0142uniu",
                "addr:country": "PL",
                "addr:postcode": "72-100",
                "addr:city": "Bia\u0142u\u0144",
                "addr:street": "Sielankowa",
                "addr:housenumber": "4",
                "addr:teryt:simc": 775149,
                "addr:teryt:sym_ul": 19796,
                "contact:phone": "+48 914189925",
                "contact:email": "sekretariat@bialun.szkola.pl",
                "contact:website": "http:\/\/bialun.szkola.pl",
                "ref:regon": "320557255",
                "ref:vatin": "PL8561803752",
                "operator": "Gmina Goleni\u00f3w",
                "operator:type": "government",
                "amenity": "kindergarten",
                "note": "Parent RSPO: 24282"
            }
        },
        {
            "id": 30477,
            "type": "Feature",
            "geometry": {
                "type": "Point",
                "coordinates": [
                    14.853030204773,
                    53.617539487305
                ]
            },
            "properties": {
                "isced:level": "1;2",
                "ref:rspo": 30477,
                "official_name": "Szko\u0142a Podstawowa im. Marka Kota\u0144skiego w Bia\u0142uniu",
                "name": "Szko\u0142a Podstawowa",
                "addr:country": "PL",
                "addr:postcode": "72-100",
                "addr:city": "Bia\u0142u\u0144",
                "addr:street": "Sielankowa",
                "addr:housenumber": "4",
                "addr:teryt:simc": 775149,
                "addr:teryt:sym_ul": 19796,
                "contact:phone": "+48 914189925",
                "contact:email": "sekretariat@bialun.szkola.pl",
                "contact:website": "http:\/\/bialun.szkola.pl",
                "ref:regon": "001222620",
                "ref:vatin": "PL8561176166",
                "operator": "Gmina Goleni\u00f3w",
                "operator:type": "government",
                "amenity": "school",
                "note": "Parent RSPO: 24282"
            }
        }
    ]
}