{
    "type": "FeatureCollection",
    "features": [
        {
            "id": 34341,
            "type": "Feature",
            "geometry": {
                "type": "Point",
                "coordinates": [
                    22.00249,
                    53.26527
                ]
            },
            "properties": {
                "isced:level": "1;2",
                "ref:rspo": 34341,
                "official_name": "Szko\u0142a Podstawowa w Chludniach",
                "name": "Szko\u0142a Podstawowa w Chludniach",
                "addr:country": "PL",
                "addr:postcode": "18-516",
                "addr:place": "Chludnie",
                "addr:housenumber": "2",
                "addr:teryt:simc": 401207,
                "contact:phone": "+48 862791023",
                "contact:email": "bezpiecznichludnie@wp.pl",
                "contact:website": "http:\/\/szkola-chludnie.pl",
                "ref:regon": "001120516",
                "ref:vatin": "PL2910085371",
                "operator": "Gmina Ma\u0142y P\u0142ock",
                "operator:type": "government",
                "amenity": "school"
            }
        },
        {
            "id": 34339,
            "type": "Feature",
            "geometry": {
                "type": "Point",
                "coordinates": [
                    22.08111,
                    53.2719
                ]
            },
            "properties": {
                "isced:level": "1;2",
                "ref:rspo": 34339,
                "official_name": "Szko\u0142a Podstawowa w Rogienicach Wielkich",
                "name": "Szko\u0142a Podstawowa w Rogienicach Wielkich",
                "addr:country": "PL",
                "addr:postcode": "18-516",
                "addr:city": "Rogienice Wielkie",
                "addr:street": "D\u0142uga",
                "addr:housenumber": "1",
                "addr:teryt:simc": 401443,
                "addr:teryt:sym_ul": 3839,
                "contact:phone": "+48 862791070",
                "contact:email": "rogienicewielkie@vp.pl",
                "ref:regon": "001120522",
                "ref:vatin": "PL2910085394",
                "operator": "Gmina Ma\u0142y P\u0142ock",
                "operator:type": "government",
                "amenity": "school"
            }
        },
        {
            "id": 34340,
            "type": "Feature",
            "geometry": {
                "type": "Point",
                "coordinates": [
                    22.02269,
                    53.31125
                ]
            },
            "properties": {
                "isced:level": "1;2",
                "ref:rspo": 34340,
                "official_name": "Szko\u0142a Podstawowa im. Jana Kochanowskiego w Ma\u0142ym P\u0142ocku",
                "name": "Szko\u0142a Podstawowa",
                "addr:country": "PL",
                "addr:postcode": "18-516",
                "addr:city": "Ma\u0142y P\u0142ock",
                "addr:street": "Jana Kochanowskiego",
                "addr:housenumber": "25",
                "addr:teryt:simc": 991166,
                "addr:teryt:sym_ul": 8728,
                "contact:phone": "+48 862791343",
                "contact:email": "spmalyplock@wp.pl",
                "contact:website": "http:\/\/malyplock.szkolna.net",
                "ref:regon": "000269995",
                "ref:vatin": "PL7211147732",
                "operator": "Gmina Ma\u0142y P\u0142ock",
                "operator:type": "government",
                "amenity": "school"
            }
        },
        {
            "id": 28608,
            "type": "Feature",
            "geometry": {
                "type": "Point",
                "coordinates": [
                    21.93859,
                    53.31589
                ]
            },
            "properties": {
                "isced:level": "1;2",
                "ref:rspo": 28608,
                "official_name": "Szko\u0142a Podstawowa w K\u0105tach",
                "name": "Szko\u0142a Podstawowa w K\u0105tach",
                "addr:country": "PL",
                "addr:postcode": "18-516",
                "addr:place": "K\u0105ty",
                "addr:housenumber": "168",
                "addr:teryt:simc": 401265,
                "contact:phone": "+48 862791381",
                "contact:email": "spkaty0@poczta.onet.pl",
                "ref:regon": "001120500",
                "ref:vatin": "PL2910085388",
                "operator": "Gmina Ma\u0142y P\u0142ock",
                "operator:type": "government",
                "amenity": "school"
            }
        }
    ]
}