{
    "type": "FeatureCollection",
    "features": [
        {
            "id": 29147,
            "type": "Feature",
            "geometry": {
                "type": "Point",
                "coordinates": [
                    21.9505899,
                    53.39262
                ]
            },
            "properties": {
                "isced:level": "3",
                "ref:rspo": 29147,
                "official_name": "Bran\u017cowa Szko\u0142a I Stopnia w Kolnie Zak\u0142ad Doskonalenia Zawodowego w \u0141om\u017cy",
                "name": "Bran\u017cowa Szko\u0142a I Stopnia w Kolnie Zak\u0142ad Doskonalenia Zawodowego w \u0141om\u017cy",
                "addr:postcode": "18-500",
                "addr:city": "Kolno",
                "addr:street": "Ksi\u0119cia Janusza I",
                "addr:housenumber": "40",
                "addr:city:simc": 957420,
                "addr:street:sym_ul": 7226,
                "phone": "+48 862782854",
                "email": "zdzkolno@wp.pl",
                "ref:regon": "200734150",
                "operator": "Zak\u0142ad Doskonalenia Zawodowego W \u0141om\u017cy",
                "operator:type": "ngo",
                "amenity": "school"
            }
        },
        {
            "id": 263794,
            "type": "Feature",
            "geometry": {
                "type": "Point",
                "coordinates": [
                    21.9505899,
                    53.39259
                ]
            },
            "properties": {
                "isced:level": "1;2",
                "ref:rspo": 263794,
                "official_name": "Szko\u0142a Podstawowa w Kolnie Zak\u0142ad Doskonalenia Zawodowego w \u0141om\u017cy",
                "name": "Szko\u0142a Podstawowa w Kolnie Zak\u0142ad Doskonalenia Zawodowego w \u0141om\u017cy",
                "addr:postcode": "18-500",
                "addr:city": "Kolno",
                "addr:street": "Ksi\u0119cia Janusza I",
                "addr:housenumber": "40",
                "addr:city:simc": 957420,
                "addr:street:sym_ul": 7226,
                "phone": "+48 862782854",
                "email": "zdzkolno@wp.pl",
                "ref:regon": "368224993",
                "operator": "Zak\u0142ad Doskonalenia Zawodowego W \u0141om\u017cy",
                "operator:type": "ngo",
                "amenity": "school"
            }
        },
        {
            "id": 21701,
            "type": "Feature",
            "geometry": {
                "type": "Point",
                "coordinates": [
                    21.931730270386,
                    53.4084815979
                ]
            },
            "properties": {
                "ref:rspo": 21701,
                "official_name": "Zesp\u00f3\u0142 Szk\u00f3\u0142 Technicznych w Kolnie",
                "name": "Zesp\u00f3\u0142 Szk\u00f3\u0142 Technicznych w Kolnie",
                "addr:postcode": "18-500",
                "addr:city": "Kolno",
                "addr:street": "Teofila Kubraka",
                "addr:housenumber": "6",
                "addr:city:simc": 957420,
                "addr:street:sym_ul": 10312,
                "phone": "+48 862782702",
                "email": "zstkolno@wp.pl",
                "website": "http:\/\/www.zstkolno.pl",
                "ref:regon": "000182171",
                "ref:vatin": "PL7211139589",
                "operator": "Powiat Kolne\u0144ski",
                "operator:type": "government",
                "landuse": "education",
                "fixme": "amenity=school, amenity=college albo landuse=education w zale\u017cno\u015bci od tego, jakie plac\u00f3wki wchodz\u0105 w sk\u0142ad zespo\u0142u. Sprawd\u017a, kiedy stosowa\u0107 amenity=* a kiedy landuse=education.",
                "note": "Children RSPO: 27512;27602;27730;27777;48443"
            }
        },
        {
            "id": 105251,
            "type": "Feature",
            "geometry": {
                "type": "Point",
                "coordinates": [
                    21.931730270386,
                    53.4084515979
                ]
            },
            "properties": {
                "ref:rspo": 105251,
                "official_name": "Powiatowa Biblioteka Pedagogiczna w Kolnie",
                "name": "Powiatowa Biblioteka Pedagogiczna w Kolnie",
                "addr:postcode": "18-500",
                "addr:city": "Kolno",
                "addr:street": "Teofila Kubraka",
                "addr:housenumber": "6",
                "addr:city:simc": 957420,
                "addr:street:sym_ul": 10312,
                "phone": "+48 862782433",
                "email": "biblioteka@powiatkolno.pl",
                "ref:regon": "200751881",
                "ref:vatin": "PL2910224861",
                "operator": "Powiat Kolne\u0144ski",
                "operator:type": "government",
                "amenity": "library"
            }
        },
        {
            "id": 27512,
            "type": "Feature",
            "geometry": {
                "type": "Point",
                "coordinates": [
                    21.931730270386,
                    53.4084215979
                ]
            },
            "properties": {
                "isced:level": "3",
                "ref:rspo": 27512,
                "official_name": "Ii Liceum Og\u00f3lnokszta\u0142c\u0105ce im. Kardyna\u0142a Stefana Wyszy\u0144skiego w Kolnie",
                "name": "Ii Liceum Og\u00f3lnokszta\u0142c\u0105ce",
                "addr:postcode": "18-500",
                "addr:city": "Kolno",
                "addr:street": "Teofila Kubraka",
                "addr:housenumber": "6",
                "addr:city:simc": 957420,
                "addr:street:sym_ul": 10312,
                "phone": "+48 862782702",
                "email": "zstkolno@wp.pl",
                "website": "http:\/\/www.zstkolno.pl",
                "ref:regon": "451189465",
                "operator": "Powiat Kolne\u0144ski",
                "operator:type": "government",
                "amenity": "school",
                "note": "Parent RSPO: 21701"
            }
        },
        {
            "id": 27602,
            "type": "Feature",
            "geometry": {
                "type": "Point",
                "coordinates": [
                    21.931730270386,
                    53.4083915979
                ]
            },
            "properties": {
                "isced:level": "3",
                "ref:rspo": 27602,
                "official_name": "Ii Liceum Og\u00f3lnokszta\u0142c\u0105ce dla Doros\u0142ych im. Kardyna\u0142a Stefana Wyszy\u0144skiego w Kolnie",
                "name": "Ii Liceum Og\u00f3lnokszta\u0142c\u0105ce dla Doros\u0142ych",
                "addr:postcode": "18-500",
                "addr:city": "Kolno",
                "addr:street": "Teofila Kubraka",
                "addr:housenumber": "6",
                "addr:city:simc": 957420,
                "addr:street:sym_ul": 10312,
                "phone": "+48 862782702",
                "email": "zstkolno@wp.pl",
                "website": "http:\/\/www.zstkolno.pl",
                "ref:regon": "200703416",
                "operator": "Powiat Kolne\u0144ski",
                "operator:type": "government",
                "amenity": "school",
                "note": "Parent RSPO: 21701"
            }
        },
        {
            "id": 27730,
            "type": "Feature",
            "geometry": {
                "type": "Point",
                "coordinates": [
                    21.931730270386,
                    53.4083615979
                ]
            },
            "properties": {
                "isced:level": "3",
                "ref:rspo": 27730,
                "official_name": "Technikum im. Kardyna\u0142a Stefana Wyszy\u0144skiego w Kolnie",
                "name": "Technikum",
                "addr:postcode": "18-500",
                "addr:city": "Kolno",
                "addr:street": "Teofila Kubraka",
                "addr:housenumber": "6",
                "addr:city:simc": 957420,
                "addr:street:sym_ul": 10312,
                "phone": "+48 862782702",
                "email": "zstkolno@wp.pl",
                "website": "http:\/\/www.zstkolno.pl",
                "ref:regon": "451151557",
                "operator": "Powiat Kolne\u0144ski",
                "operator:type": "government",
                "amenity": "school",
                "note": "Parent RSPO: 21701"
            }
        },
        {
            "id": 27777,
            "type": "Feature",
            "geometry": {
                "type": "Point",
                "coordinates": [
                    21.931730270386,
                    53.4083315979
                ]
            },
            "properties": {
                "isced:level": "4",
                "ref:rspo": 27777,
                "official_name": "Szko\u0142a Policealna im. Kardyna\u0142a Stefana Wyszy\u0144skiego w Kolnie",
                "name": "Szko\u0142a Policealna",
                "addr:postcode": "18-500",
                "addr:city": "Kolno",
                "addr:street": "Teofila Kubraka",
                "addr:housenumber": "6",
                "addr:city:simc": 957420,
                "addr:street:sym_ul": 10312,
                "phone": "+48 862782702",
                "email": "zstkolno@wp.pl",
                "website": "http:\/\/www.zstkolno.pl",
                "ref:regon": "200703422",
                "operator": "Powiat Kolne\u0144ski",
                "operator:type": "government",
                "amenity": "college",
                "note": "Parent RSPO: 21701"
            }
        },
        {
            "id": 48443,
            "type": "Feature",
            "geometry": {
                "type": "Point",
                "coordinates": [
                    21.931730270386,
                    53.4083015979
                ]
            },
            "properties": {
                "isced:level": "3",
                "ref:rspo": 48443,
                "official_name": "Bran\u017cowa Szko\u0142a I Stopnia im. Kardyna\u0142a Stefana Wyszy\u0144skiego w Kolnie",
                "name": "Bran\u017cowa Szko\u0142a I Stopnia",
                "addr:postcode": "18-500",
                "addr:city": "Kolno",
                "addr:street": "Teofila Kubraka",
                "addr:housenumber": "6",
                "addr:city:simc": 957420,
                "addr:street:sym_ul": 10312,
                "phone": "+48 862782702",
                "email": "zstkolno@wp.pl",
                "website": "http:\/\/www.zstkolno.pl",
                "ref:regon": "451151540",
                "operator": "Powiat Kolne\u0144ski",
                "operator:type": "government",
                "amenity": "school",
                "note": "Parent RSPO: 21701"
            }
        },
        {
            "id": 113930,
            "type": "Feature",
            "geometry": {
                "type": "Point",
                "coordinates": [
                    21.93033,
                    53.40919
                ]
            },
            "properties": {
                "ref:rspo": 113930,
                "official_name": "Pa\u0144stwowa Szko\u0142a Muzyczna I St. w \u0141om\u017cy Filia w Kolnie",
                "name": "Pa\u0144stwowa Szko\u0142a Muzyczna I St. w \u0141om\u017cy Filia w Kolnie",
                "addr:postcode": "18-500",
                "addr:city": "Kolno",
                "addr:street": "Wojska Polskiego",
                "addr:housenumber": "31",
                "addr:city:simc": 957420,
                "addr:street:sym_ul": 24628,
                "phone": "+48 862782491",
                "ref:regon": "280519000",
                "operator": "Ministerstwo Kultury I Dziedzictwa Narodowego",
                "operator:type": "public",
                "amenity": "music_school",
                "note": "Parent RSPO: 112108"
            }
        },
        {
            "id": 80696,
            "type": "Feature",
            "geometry": {
                "type": "Point",
                "coordinates": [
                    21.93117,
                    53.40931
                ]
            },
            "properties": {
                "isced:level": "1;2",
                "ref:rspo": 80696,
                "official_name": "Szko\u0142a Podstawowa Nr 1 im. Tadeusza Ko\u015bciuszki w Kolnie",
                "name": "Szko\u0142a Podstawowa Nr 1",
                "addr:postcode": "18-500",
                "addr:city": "Kolno",
                "addr:street": "Wojska Polskiego",
                "addr:housenumber": "22",
                "addr:city:simc": 957420,
                "addr:street:sym_ul": 24628,
                "phone": "+48 862782124",
                "email": "szkola_podstawowanrjeden@op.pl",
                "website": "http:\/\/szkolanrjeden.edupage.org",
                "ref:regon": "000719808",
                "ref:vatin": "PL2910088642",
                "operator": "Miasto Kolno",
                "operator:type": "government",
                "amenity": "school"
            }
        },
        {
            "id": 80700,
            "type": "Feature",
            "geometry": {
                "type": "Point",
                "coordinates": [
                    21.92615,
                    53.41127
                ]
            },
            "properties": {
                "ref:rspo": 80700,
                "official_name": "Przedszkole Miejskie Nr 4 w Kolnie",
                "name": "Przedszkole Miejskie Nr 4 w Kolnie",
                "addr:postcode": "18-500",
                "addr:city": "Kolno",
                "addr:street": "Wojska Polskiego",
                "addr:housenumber": "65a",
                "addr:city:simc": 957420,
                "addr:street:sym_ul": 24628,
                "phone": "+48 862782006",
                "email": "przedszkole.miejskie.kolno@gmail.com",
                "website": "http:\/\/pm4kolno.edupage.org",
                "ref:regon": "450004133",
                "ref:vatin": "PL7211145012",
                "operator": "Miasto Kolno",
                "operator:type": "government",
                "amenity": "kindergarten"
            }
        },
        {
            "id": 66395,
            "type": "Feature",
            "geometry": {
                "type": "Point",
                "coordinates": [
                    21.93472,
                    53.41133
                ]
            },
            "properties": {
                "isced:level": "1;2",
                "ref:rspo": 66395,
                "official_name": "Szko\u0142a Podstawowa Nr 2 im. Henryka Sienkiewicza w Kolnie",
                "name": "Szko\u0142a Podstawowa Nr 2",
                "addr:postcode": "18-500",
                "addr:city": "Kolno",
                "addr:street": "Szkolna",
                "addr:housenumber": "8",
                "addr:city:simc": 957420,
                "addr:street:sym_ul": 21970,
                "phone": "+48 862782336",
                "email": "sp2sekretariat@tlen.pl",
                "website": "http:\/\/sp2kolno.pl",
                "ref:regon": "000719814",
                "ref:vatin": "PL2910015353",
                "operator": "Miasto Kolno",
                "operator:type": "government",
                "amenity": "school"
            }
        },
        {
            "id": 43956,
            "type": "Feature",
            "geometry": {
                "type": "Point",
                "coordinates": [
                    21.92765,
                    53.41178
                ]
            },
            "properties": {
                "isced:level": "3",
                "ref:rspo": 43956,
                "official_name": "I Liceum Og\u00f3lnokszta\u0142c\u0105ce im. Adama Mickiewicza w Kolnie",
                "name": "I Liceum Og\u00f3lnokszta\u0142c\u0105ce",
                "addr:postcode": "18-500",
                "addr:city": "Kolno",
                "addr:street": "Wojska Polskiego",
                "addr:housenumber": "34",
                "addr:city:simc": 957420,
                "addr:street:sym_ul": 24628,
                "phone": "+48 862782661",
                "email": "zspkolno@op.pl",
                "website": "http:\/\/www.1lokolno.pl",
                "ref:regon": "000228134",
                "ref:vatin": "PL7211136705",
                "operator": "Powiat Kolne\u0144ski",
                "operator:type": "government",
                "amenity": "school"
            }
        },
        {
            "id": 21510,
            "type": "Feature",
            "geometry": {
                "type": "Point",
                "coordinates": [
                    21.92849,
                    53.4124399
                ]
            },
            "properties": {
                "ref:rspo": 21510,
                "official_name": "Poradnia Psychologiczno-Pedagogiczna w Kolnie",
                "name": "Poradnia Psychologiczno-Pedagogiczna w Kolnie",
                "addr:postcode": "18-500",
                "addr:city": "Kolno",
                "addr:street": "11 Listopada",
                "addr:housenumber": "1",
                "addr:city:simc": 957420,
                "addr:street:sym_ul": 11205,
                "phone": "+48 862782181",
                "email": "ppp@powiatkolno.pl",
                "website": "http:\/\/www.pppkolno.pl",
                "ref:regon": "000833310",
                "ref:vatin": "PL2910087594",
                "operator": "Powiat Kolne\u0144ski",
                "operator:type": "government",
                "healthcare": "counselling",
                "counselling_type": "education",
                "fixme": "w zale\u017cno\u015bci od przedmiotu dzia\u0142alno\u015bci (np. healthcare=counselling + counselling_type=education albo healthcare=psychotherapist)"
            }
        },
        {
            "id": 35033,
            "type": "Feature",
            "geometry": {
                "type": "Point",
                "coordinates": [
                    21.92849,
                    53.4124099
                ]
            },
            "properties": {
                "ref:rspo": 35033,
                "official_name": "Bursa Szkolna w Kolnie",
                "name": "Bursa Szkolna w Kolnie",
                "addr:postcode": "18-500",
                "addr:city": "Kolno",
                "addr:street": "11 Listopada",
                "addr:housenumber": "1",
                "addr:city:simc": 957420,
                "addr:street:sym_ul": 11205,
                "phone": "+48 862782122",
                "email": "bsz@powiatkolno.pl",
                "website": "http:\/\/bursakolno.pl",
                "ref:regon": "000675459",
                "ref:vatin": "PL7211140173",
                "operator": "Powiat Kolne\u0144ski",
                "operator:type": "government",
                "building": "dormitory"
            }
        },
        {
            "id": 80701,
            "type": "Feature",
            "geometry": {
                "type": "Point",
                "coordinates": [
                    21.92119,
                    53.41289
                ]
            },
            "properties": {
                "ref:rspo": 80701,
                "official_name": "Niepubliczne Przedszkole \"Bajkowy \u015awiat\" w Kolnie",
                "name": "Niepubliczne Przedszkole \"Bajkowy \u015awiat\" w Kolnie",
                "addr:postcode": "18-500",
                "addr:city": "Kolno",
                "addr:street": "Wojska Polskiego",
                "addr:housenumber": "46 T",
                "addr:city:simc": 957420,
                "addr:street:sym_ul": 24628,
                "phone": "+48 512544131",
                "email": "barbaraglazer@wp.pl",
                "ref:regon": "200741428",
                "ref:vatin": "PL7211069191",
                "operator": "Barbara Glazer",
                "operator:type": "private",
                "amenity": "kindergarten"
            }
        },
        {
            "id": 264022,
            "type": "Feature",
            "geometry": {
                "type": "Point",
                "coordinates": [
                    21.92968,
                    53.41339
                ]
            },
            "properties": {
                "ref:rspo": 264022,
                "official_name": "Przedszkole Niepubliczne \"Kredka\" w Kolnie",
                "name": "Przedszkole Niepubliczne \"Kredka\" w Kolnie",
                "addr:postcode": "18-500",
                "addr:city": "Kolno",
                "addr:street": "11 Listopada",
                "addr:housenumber": "15 A",
                "addr:city:simc": 957420,
                "addr:street:sym_ul": 11205,
                "phone": "+48 692734788",
                "email": "otis.lomza@gmail.com",
                "ref:regon": "368253658",
                "ref:vatin": "PL7581497849",
                "operator": "Dorota Zwierzy\u0144ska",
                "operator:type": "private",
                "amenity": "kindergarten"
            }
        }
    ]
}