{
    "type": "FeatureCollection",
    "features": [
        {
            "id": 48622,
            "type": "Feature",
            "geometry": {
                "type": "Point",
                "coordinates": [
                    21.90682,
                    53.3524
                ]
            },
            "properties": {
                "isced:level": "1;2",
                "ref:rspo": 48622,
                "official_name": "Szko\u0142a Podstawowa im. Kardyna\u0142a Stefana Wyszy\u0144skiego w Janowie",
                "name": "Szko\u0142a Podstawowa",
                "addr:postcode": "18-500",
                "addr:place": "Janowo",
                "addr:housenumber": "35",
                "addr:teryt:simc": 399500,
                "phone": "+48 862623242",
                "email": "spwjanowie@wp.pl",
                "website": "https:\/\/janowo.edupage.org\/",
                "ref:regon": "000719837",
                "ref:vatin": "PL2910083768",
                "operator": "Gmina Kolno",
                "operator:type": "government",
                "amenity": "school"
            }
        },
        {
            "id": 48626,
            "type": "Feature",
            "geometry": {
                "type": "Point",
                "coordinates": [
                    21.96876,
                    53.37042
                ]
            },
            "properties": {
                "isced:level": "1;2",
                "ref:rspo": 48626,
                "official_name": "Szko\u0142a Podstawowa im. Papie\u017ca Jana Paw\u0142a II w Borkowie",
                "name": "Szko\u0142a Podstawowa",
                "addr:postcode": "18-500",
                "addr:place": "Borkowo",
                "addr:housenumber": "72",
                "addr:teryt:simc": 399350,
                "phone": "+48 862786010",
                "email": "spborkowo@gminakolno.pl",
                "website": "http:\/\/www.spborkowo.pl",
                "ref:regon": "000719843",
                "ref:vatin": "PL2910085425",
                "operator": "Gmina Kolno",
                "operator:type": "government",
                "amenity": "school"
            }
        },
        {
            "id": 49513,
            "type": "Feature",
            "geometry": {
                "type": "Point",
                "coordinates": [
                    22.04229,
                    53.38738
                ]
            },
            "properties": {
                "isced:level": "1;2",
                "ref:rspo": 49513,
                "official_name": "Szko\u0142a Podstawowa w Zaskrodziu",
                "name": "Szko\u0142a Podstawowa w Zaskrodziu",
                "addr:postcode": "18-500",
                "addr:place": "Zaskrodzie",
                "addr:housenumber": "66",
                "addr:teryt:simc": 399953,
                "phone": "+48 864743335",
                "email": "spz66@wp.pl",
                "ref:regon": "000719850",
                "ref:vatin": "PL2910083751",
                "operator": "Gmina Kolno",
                "operator:type": "government",
                "amenity": "school"
            }
        },
        {
            "id": 64896,
            "type": "Feature",
            "geometry": {
                "type": "Point",
                "coordinates": [
                    21.86722,
                    53.3876599
                ]
            },
            "properties": {
                "isced:level": "1;2",
                "ref:rspo": 64896,
                "official_name": "Szko\u0142a Podstawowa w Zabielu",
                "name": "Szko\u0142a Podstawowa w Zabielu",
                "addr:postcode": "18-500",
                "addr:place": "Zabiele",
                "addr:housenumber": "110",
                "addr:teryt:simc": 399901,
                "phone": "+48 862783014",
                "email": "spzabiele110@onet.pl",
                "website": "http:\/\/www.zsszabiele.edupage.pl",
                "ref:regon": "000719820",
                "ref:vatin": "PL2910141721",
                "operator": "Gmina Kolno",
                "operator:type": "government",
                "amenity": "school"
            }
        },
        {
            "id": 263958,
            "type": "Feature",
            "geometry": {
                "type": "Point",
                "coordinates": [
                    21.86722,
                    53.3876299
                ]
            },
            "properties": {
                "ref:rspo": 263958,
                "official_name": "Punkt Przedszkolny w Zabielu",
                "name": "Punkt Przedszkolny w Zabielu",
                "addr:postcode": "18-500",
                "addr:place": "Zabiele",
                "addr:housenumber": "110",
                "addr:teryt:simc": 399901,
                "phone": "+48 862783014",
                "email": "spzabiele110@onet.pl",
                "ref:regon": "368253612",
                "operator": "Gmina Kolno",
                "operator:type": "government",
                "amenity": "kindergarten"
            }
        },
        {
            "id": 25964,
            "type": "Feature",
            "geometry": {
                "type": "Point",
                "coordinates": [
                    21.86651,
                    53.42681
                ]
            },
            "properties": {
                "ref:rspo": 25964,
                "official_name": "Punkt Przedszkolny w Czerwonem",
                "name": "Punkt Przedszkolny w Czerwonem",
                "addr:postcode": "18-500",
                "addr:place": "Czerwone",
                "addr:housenumber": "56",
                "addr:teryt:simc": 399410,
                "phone": "+48 862782737",
                "ref:regon": "200733328",
                "operator": "Gmina Kolno",
                "operator:type": "government",
                "amenity": "kindergarten"
            }
        },
        {
            "id": 48621,
            "type": "Feature",
            "geometry": {
                "type": "Point",
                "coordinates": [
                    21.86651,
                    53.42678
                ]
            },
            "properties": {
                "isced:level": "1;2",
                "ref:rspo": 48621,
                "official_name": "Szko\u0142a Podstawowa im.marsza\u0142ka J\u00f3zefa Pi\u0142sudskiego w Czerwonem",
                "name": "Szko\u0142a Podstawowa im.marsza\u0142ka J\u00f3zefa Pi\u0142sudskiego w Czerwonem",
                "addr:postcode": "18-500",
                "addr:place": "Czerwone",
                "addr:housenumber": "56",
                "addr:teryt:simc": 399410,
                "phone": "+48 862782737",
                "email": "spcjp@onet.eu",
                "ref:regon": "000719866",
                "ref:vatin": "PL2910085419",
                "operator": "Gmina Kolno",
                "operator:type": "government",
                "amenity": "school"
            }
        },
        {
            "id": 49511,
            "type": "Feature",
            "geometry": {
                "type": "Point",
                "coordinates": [
                    21.9185899,
                    53.47422
                ]
            },
            "properties": {
                "isced:level": "1;2",
                "ref:rspo": 49511,
                "official_name": "Szko\u0142a Podstawowa im. Or\u0142a Bia\u0142ego w Wykowie",
                "name": "Szko\u0142a Podstawowa",
                "addr:postcode": "18-500",
                "addr:place": "Wykowo",
                "addr:housenumber": "14",
                "addr:teryt:simc": 399887,
                "phone": "+48 507110804",
                "email": "spwykowo@poczta.onet.pl",
                "ref:regon": "000719895",
                "ref:vatin": "PL2910086666",
                "operator": "Gmina Kolno",
                "operator:type": "government",
                "amenity": "school"
            }
        },
        {
            "id": 25965,
            "type": "Feature",
            "geometry": {
                "type": "Point",
                "coordinates": [
                    22.01158,
                    53.47428
                ]
            },
            "properties": {
                "ref:rspo": 25965,
                "official_name": "Publiczne Przedszkole w Lachowie",
                "name": "Publiczne Przedszkole w Lachowie",
                "addr:postcode": "18-500",
                "addr:place": "Lachowo",
                "addr:housenumber": "21",
                "addr:teryt:simc": 399670,
                "email": "dyrfilipki6@wp.pl",
                "ref:regon": "200733280",
                "operator": "Gmina Kolno",
                "operator:type": "government",
                "amenity": "kindergarten"
            }
        },
        {
            "id": 48623,
            "type": "Feature",
            "geometry": {
                "type": "Point",
                "coordinates": [
                    22.01158,
                    53.47425
                ]
            },
            "properties": {
                "isced:level": "1;2",
                "ref:rspo": 48623,
                "official_name": "Szko\u0142a Podstawowa w Lachowie",
                "name": "Szko\u0142a Podstawowa w Lachowie",
                "addr:postcode": "18-500",
                "addr:place": "Lachowo",
                "addr:housenumber": "21",
                "addr:teryt:simc": 399670,
                "phone": "+48 862787127",
                "email": "szkolalachowo@wp.pl",
                "ref:regon": "000599652",
                "ref:vatin": "PL2910083745",
                "operator": "Gmina Kolno",
                "operator:type": "government",
                "amenity": "school"
            }
        }
    ]
}