{
    "type": "FeatureCollection",
    "features": [
        {
            "id": 80369,
            "type": "Feature",
            "geometry": {
                "type": "Point",
                "coordinates": [
                    21.72598,
                    53.38814
                ]
            },
            "properties": {
                "isced:level": "1;2",
                "ref:rspo": 80369,
                "official_name": "Szko\u0142a Podstawowa z Oddzia\u0142ami Integracyjnymi im. Ks. Jana Twardowskiego w Turo\u015bli",
                "name": "Szko\u0142a Podstawowa z Oddzia\u0142ami Integracyjnymi",
                "addr:postcode": "18-525",
                "addr:city": "Turo\u015bl",
                "addr:street": "Jana Paw\u0142a II",
                "addr:housenumber": "28",
                "addr:city:simc": 409440,
                "addr:street:sym_ul": 7123,
                "phone": "+48 862786203",
                "email": "spturosl@wp.pl",
                "website": "http:\/\/www.spturosl.edupage.pl",
                "ref:regon": "000557688",
                "operator": "Gmina Turo\u015bl",
                "operator:type": "government",
                "amenity": "school"
            }
        },
        {
            "id": 125986,
            "type": "Feature",
            "geometry": {
                "type": "Point",
                "coordinates": [
                    21.72598,
                    53.38811
                ]
            },
            "properties": {
                "ref:rspo": 125986,
                "official_name": "Szkolne Schronisko M\u0142odzie\u017cowe Przy Szkole Podstawowej z Oddzia\u0142ami Integracyjnymi im. Ks. Jana Twardowskiego w Turo\u015bli",
                "name": "Szkolne Schronisko M\u0142odzie\u017cowe Przy Szkole Podstawowej z Oddzia\u0142ami Integracyjnymi",
                "addr:postcode": "18-525",
                "addr:city": "Turo\u015bl",
                "addr:street": "Jana Paw\u0142a II",
                "addr:housenumber": "28",
                "addr:city:simc": 409440,
                "addr:street:sym_ul": 7123,
                "phone": "+48 862786203",
                "ref:regon": "360128474",
                "operator": "Gmina Turo\u015bl",
                "operator:type": "government",
                "tourism": "hostel"
            }
        },
        {
            "id": 90626,
            "type": "Feature",
            "geometry": {
                "type": "Point",
                "coordinates": [
                    21.79649,
                    53.39204
                ]
            },
            "properties": {
                "isced:level": "1;2",
                "ref:rspo": 90626,
                "official_name": "Szko\u0142a Podstawowa im. Marii Konopnickiej w Ptakach",
                "name": "Szko\u0142a Podstawowa",
                "addr:postcode": "18-525",
                "addr:place": "Ptaki",
                "addr:housenumber": "27",
                "addr:city:simc": 409396,
                "phone": "+48 862786125",
                "email": "spptaki@wp.pl",
                "website": "http:\/\/spptaki.edupage.org",
                "ref:regon": "001129138",
                "operator": "Gmina Turo\u015bl",
                "operator:type": "government",
                "amenity": "school"
            }
        },
        {
            "id": 125987,
            "type": "Feature",
            "geometry": {
                "type": "Point",
                "coordinates": [
                    21.79649,
                    53.39201
                ]
            },
            "properties": {
                "ref:rspo": 125987,
                "official_name": "Szkolne Schronisko M\u0142odzie\u017cowe Przy Szkole Podstawowej im. Marii Konopnickiej w Ptakach",
                "name": "Szkolne Schronisko M\u0142odzie\u017cowe Przy Szkole Podstawowej",
                "addr:postcode": "18-525",
                "addr:place": "Ptaki",
                "addr:housenumber": "27",
                "addr:city:simc": 409396,
                "phone": "+48 862786125",
                "ref:regon": "360128511",
                "operator": "Gmina Turo\u015bl",
                "operator:type": "government",
                "tourism": "hostel"
            }
        },
        {
            "id": 90628,
            "type": "Feature",
            "geometry": {
                "type": "Point",
                "coordinates": [
                    21.62548,
                    53.44888
                ]
            },
            "properties": {
                "isced:level": "1;2",
                "ref:rspo": 90628,
                "official_name": "Szko\u0142a Podstawowa w Ksebkach",
                "name": "Szko\u0142a Podstawowa w Ksebkach",
                "addr:postcode": "18-525",
                "addr:place": "Ksebki",
                "addr:housenumber": "38",
                "addr:city:simc": 409278,
                "phone": "+48 862786103",
                "email": "spksebki38@vp.pl",
                "ref:regon": "001129322",
                "operator": "Gmina Turo\u015bl",
                "operator:type": "government",
                "amenity": "school"
            }
        },
        {
            "id": 90627,
            "type": "Feature",
            "geometry": {
                "type": "Point",
                "coordinates": [
                    21.74972,
                    53.46319
                ]
            },
            "properties": {
                "isced:level": "1;2",
                "ref:rspo": 90627,
                "official_name": "Szko\u0142a Podstawowa w \u0141asze",
                "name": "Szko\u0142a Podstawowa w \u0141asze",
                "addr:postcode": "18-525",
                "addr:place": "\u0141acha",
                "addr:housenumber": "96",
                "addr:city:simc": 409315,
                "phone": "+48 862786185",
                "email": "szkolalacha@wp.pl",
                "ref:regon": "001129121",
                "operator": "Gmina Turo\u015bl",
                "operator:type": "government",
                "amenity": "school"
            }
        },
        {
            "id": 80370,
            "type": "Feature",
            "geometry": {
                "type": "Point",
                "coordinates": [
                    21.6698999,
                    53.46513
                ]
            },
            "properties": {
                "isced:level": "1;2",
                "ref:rspo": 80370,
                "official_name": "Szko\u0142a Podstawowa im. Stanis\u0142awa Krupki w Lemanie",
                "name": "Szko\u0142a Podstawowa",
                "addr:postcode": "18-525",
                "addr:place": "Leman",
                "addr:housenumber": "48",
                "addr:city:simc": 409284,
                "phone": "+48 862786383",
                "email": "leszekszkola@interia.pl",
                "website": "http:\/\/www.leman-kurpie.pl",
                "ref:regon": "001129368",
                "operator": "Gmina Turo\u015bl",
                "operator:type": "government",
                "amenity": "school"
            }
        }
    ]
}