{
    "type": "FeatureCollection",
    "features": [
        {
            "id": 9299,
            "type": "Feature",
            "geometry": {
                "type": "Point",
                "coordinates": [
                    16.79863,
                    54.29069
                ]
            },
            "properties": {
                "isced:level": "1;2",
                "ref:rspo": 9299,
                "official_name": "Szko\u0142a Podstawowa im.gen.stefana Roweckiego-Grota w \u017bukowie",
                "name": "Szko\u0142a Podstawowa im.gen.stefana Roweckiego-Grota w \u017bukowie",
                "addr:postcode": "76-124",
                "addr:place": "\u017bukowo",
                "addr:housenumber": "65",
                "addr:city:simc": 750557,
                "phone": "+48 598582223",
                "email": "spzukowo@gminaslawno.pl",
                "ref:regon": "001276773",
                "operator": "Gmina S\u0142awno",
                "operator:type": "government",
                "amenity": "school"
            }
        },
        {
            "id": 118427,
            "type": "Feature",
            "geometry": {
                "type": "Point",
                "coordinates": [
                    16.74705,
                    54.30715
                ]
            },
            "properties": {
                "ref:rspo": 118427,
                "official_name": "Przedszkole Gminne w Gwiazdowie",
                "name": "Przedszkole Gminne w Gwiazdowie",
                "addr:postcode": "76-124",
                "addr:place": "Gwiazdowo",
                "addr:housenumber": "43",
                "addr:city:simc": 750273,
                "phone": "+48 598582220",
                "email": "przedszkolegwiazdowo@gminaslawno.pl",
                "ref:regon": "321408385",
                "operator": "Gmina S\u0142awno",
                "operator:type": "government",
                "amenity": "kindergarten"
            }
        },
        {
            "id": 9294,
            "type": "Feature",
            "geometry": {
                "type": "Point",
                "coordinates": [
                    16.63225,
                    54.34245
                ]
            },
            "properties": {
                "isced:level": "1;2",
                "ref:rspo": 9294,
                "official_name": "Szko\u0142a Podstawowa im.gen.augusta Emila Fieldorfa Ps\"Nil\" w Bobrowicach",
                "name": "Szko\u0142a Podstawowa im.gen.augusta Emila Fieldorfa Ps\"Nil\" w Bobrowicach",
                "addr:postcode": "76-100",
                "addr:place": "Bobrowice",
                "addr:housenumber": "22",
                "addr:city:simc": 750238,
                "phone": "+48 598103314",
                "email": "spbobrowice@gminaslawno.pl",
                "ref:regon": "001276945",
                "operator": "Gmina S\u0142awno",
                "operator:type": "government",
                "amenity": "school"
            }
        },
        {
            "id": 9297,
            "type": "Feature",
            "geometry": {
                "type": "Point",
                "coordinates": [
                    16.70893,
                    54.36482
                ]
            },
            "properties": {
                "isced:level": "1;2",
                "ref:rspo": 9297,
                "official_name": "Szko\u0142a Podstawowa im.\u017co\u0142nierzy Armii Krajowej w Warszkowie",
                "name": "Szko\u0142a Podstawowa im.\u017co\u0142nierzy Armii Krajowej w Warszkowie",
                "addr:postcode": "76-100",
                "addr:city": "Warszkowo",
                "addr:street": "Szkolna",
                "addr:housenumber": "17",
                "addr:city:simc": 750505,
                "addr:street:sym_ul": 21970,
                "phone": "+48 598105413",
                "email": "spwarszkowo@gminaslawno.pl",
                "website": "http:\/\/spwarszkowo.pl",
                "ref:regon": "001141240",
                "operator": "Gmina S\u0142awno",
                "operator:type": "government",
                "amenity": "school"
            }
        },
        {
            "id": 9296,
            "type": "Feature",
            "geometry": {
                "type": "Point",
                "coordinates": [
                    16.70741,
                    54.39414
                ]
            },
            "properties": {
                "isced:level": "1;2",
                "ref:rspo": 9296,
                "official_name": "Szko\u0142a Podstawowa im.jana Kochanowskiego w S\u0142awsku",
                "name": "Szko\u0142a Podstawowa im.jana Kochanowskiego w S\u0142awsku",
                "addr:postcode": "76-100",
                "addr:place": "S\u0142awsko",
                "addr:housenumber": "97a",
                "addr:city:simc": 750416,
                "phone": "+48 598103802",
                "email": "spslawsko@gminaslawno.pl",
                "ref:regon": "001276780",
                "operator": "Gmina S\u0142awno",
                "operator:type": "government",
                "amenity": "school"
            }
        },
        {
            "id": 9298,
            "type": "Feature",
            "geometry": {
                "type": "Point",
                "coordinates": [
                    16.77859,
                    54.39941
                ]
            },
            "properties": {
                "isced:level": "1;2",
                "ref:rspo": 9298,
                "official_name": "Szko\u0142a Podstawowa we Wrze\u015bnicy",
                "name": "Szko\u0142a Podstawowa we Wrze\u015bnicy",
                "addr:postcode": "76-122",
                "addr:place": "Wrze\u015bnica",
                "addr:housenumber": "19a",
                "addr:city:simc": 750534,
                "phone": "+48 598108823",
                "email": "spwrzesnica@gminaslawno.pl",
                "website": "http:\/\/szkolawrzesnica.pl",
                "ref:regon": "001141346",
                "operator": "Gmina S\u0142awno",
                "operator:type": "government",
                "amenity": "school"
            }
        },
        {
            "id": 120099,
            "type": "Feature",
            "geometry": {
                "type": "Point",
                "coordinates": [
                    16.77764,
                    54.39967
                ]
            },
            "properties": {
                "ref:rspo": 120099,
                "official_name": "Przedszkole Niepubliczne \"Ekoludki\" we Wrze\u015bnicy",
                "name": "Przedszkole Niepubliczne \"Ekoludki\" we Wrze\u015bnicy",
                "addr:postcode": "76-100",
                "addr:place": "Wrze\u015bnica",
                "addr:housenumber": "111",
                "addr:city:simc": 750534,
                "email": "jednoscwrzesnica@o2.pl",
                "website": "http:\/\/www.ekoludki.edu.pl",
                "ref:regon": "321429051",
                "operator": "Stowarzyszenie Na Rzecz Rozwoju Wsi Wrze\u015bnica \"Jedno\u015b\u0107\"",
                "operator:type": "ngo",
                "amenity": "kindergarten"
            }
        },
        {
            "id": 68305,
            "type": "Feature",
            "geometry": {
                "type": "Point",
                "coordinates": [
                    16.40694,
                    54.44094
                ]
            },
            "properties": {
                "ref:rspo": 68305,
                "official_name": "Przedszkole Niepubliczne Pajacyki w Warszkowie",
                "name": "Przedszkole Niepubliczne Pajacyki w Warszkowie",
                "addr:postcode": "76-100",
                "addr:city": "Warszkowo",
                "addr:street": "Jana Paw\u0142a II",
                "addr:housenumber": "1",
                "addr:city:simc": 750505,
                "addr:street:sym_ul": 7123,
                "email": "pajacyki.pl@wp.pl",
                "ref:regon": "321296331",
                "ref:vatin": "PL4990561158",
                "operator": "Stowarzyszenie Przyjaci\u00f3\u0142 Warszkowa",
                "operator:type": "ngo",
                "amenity": "kindergarten"
            }
        }
    ]
}