{
    "type": "FeatureCollection",
    "features": [
        {
            "id": 59743,
            "type": "Feature",
            "geometry": {
                "type": "Point",
                "coordinates": [
                    16.41368,
                    54.41845
                ]
            },
            "properties": {
                "isced:level": "3",
                "ref:rspo": 59743,
                "official_name": "Liceum Og\u00f3lnokszta\u0142c\u0105ce dla Doros\u0142ych \"Etna\"",
                "name": "Liceum Og\u00f3lnokszta\u0142c\u0105ce dla Doros\u0142ych \"Etna\"",
                "addr:postcode": "76-150",
                "addr:city": "Dar\u0142owo",
                "addr:street": "Szpitalna",
                "addr:housenumber": "1",
                "addr:city:simc": 949833,
                "addr:street:sym_ul": 22073,
                "phone": "+48 943461460",
                "email": "uczelnia.kwsnh@wp.pl",
                "ref:regon": "321296259",
                "ref:vatin": "PL6691343093",
                "operator": "Joanna Walczak",
                "operator:type": "private",
                "amenity": "school"
            }
        },
        {
            "id": 90246,
            "type": "Feature",
            "geometry": {
                "type": "Point",
                "coordinates": [
                    16.41368,
                    54.41842
                ]
            },
            "properties": {
                "ref:rspo": 90246,
                "official_name": "Zesp\u00f3\u0142 Szk\u00f3\u0142 Morskich w Dar\u0142owie",
                "name": "Zesp\u00f3\u0142 Szk\u00f3\u0142 Morskich w Dar\u0142owie",
                "addr:postcode": "76-150",
                "addr:city": "Dar\u0142owo",
                "addr:street": "Szpitalna",
                "addr:housenumber": "1",
                "addr:city:simc": 949833,
                "addr:street:sym_ul": 22073,
                "phone": "+48 943142426",
                "email": "zespolszkolmorskich@gmail.com",
                "website": "http:\/\/www.zsm.darlowo.pl",
                "ref:regon": "000144779",
                "ref:vatin": "PL4990202413",
                "operator": "Powiat S\u0142awie\u0144ski",
                "operator:type": "government",
                "landuse": "education",
                "fixme": "amenity=school, amenity=college albo landuse=education w zale\u017cno\u015bci od tego, jakie plac\u00f3wki wchodz\u0105 w sk\u0142ad zespo\u0142u. Sprawd\u017a, kiedy stosowa\u0107 amenity=* a kiedy landuse=education.",
                "note": "Children RSPO: 91162;126787;126790"
            }
        },
        {
            "id": 91162,
            "type": "Feature",
            "geometry": {
                "type": "Point",
                "coordinates": [
                    16.41368,
                    54.41839
                ]
            },
            "properties": {
                "isced:level": "3",
                "ref:rspo": 91162,
                "official_name": "Technikum Morskie",
                "name": "Technikum Morskie",
                "addr:postcode": "76-150",
                "addr:city": "Dar\u0142owo",
                "addr:street": "Szpitalna",
                "addr:housenumber": "1",
                "addr:city:simc": 949833,
                "addr:street:sym_ul": 22073,
                "phone": "+48 943142426",
                "email": "zespolszkolmorskich@gmail.com",
                "website": "http:\/\/www.zsm.darlowo.pl",
                "ref:regon": "331455313",
                "operator": "Powiat S\u0142awie\u0144ski",
                "operator:type": "government",
                "amenity": "school",
                "note": "Parent RSPO: 90246"
            }
        },
        {
            "id": 126787,
            "type": "Feature",
            "geometry": {
                "type": "Point",
                "coordinates": [
                    16.41368,
                    54.41836
                ]
            },
            "properties": {
                "isced:level": "3",
                "ref:rspo": 126787,
                "official_name": "Liceum Og\u00f3lnokszta\u0142c\u0105ce im.stefana \u017beromskiego",
                "name": "Liceum Og\u00f3lnokszta\u0142c\u0105ce im.stefana \u017beromskiego",
                "addr:postcode": "76-150",
                "addr:city": "Dar\u0142owo",
                "addr:street": "Szpitalna",
                "addr:housenumber": "1",
                "addr:city:simc": 949833,
                "addr:street:sym_ul": 22073,
                "phone": "+48 943142426",
                "email": "zespolszkolmorskich@gmail.com",
                "website": "http:\/\/www.zsm.darlowo.pl",
                "ref:regon": "331359058",
                "ref:vatin": "PL6691106246",
                "operator": "Powiat S\u0142awie\u0144ski",
                "operator:type": "government",
                "amenity": "school",
                "note": "Parent RSPO: 90246"
            }
        },
        {
            "id": 126790,
            "type": "Feature",
            "geometry": {
                "type": "Point",
                "coordinates": [
                    16.41368,
                    54.41833
                ]
            },
            "properties": {
                "isced:level": "3",
                "ref:rspo": 126790,
                "official_name": "Bran\u017cowa Szko\u0142a I Stopnia",
                "name": "Bran\u017cowa Szko\u0142a I Stopnia",
                "addr:postcode": "76-150",
                "addr:city": "Dar\u0142owo",
                "addr:street": "Szpitalna",
                "addr:housenumber": "1",
                "addr:city:simc": 949833,
                "addr:street:sym_ul": 22073,
                "phone": "+48 943142426",
                "email": "zespolszkolmorskich@gmail.com",
                "website": "http:\/\/www.zsm.darlowo.pl",
                "ref:regon": "331359087",
                "ref:vatin": "PL6691106246",
                "operator": "Powiat S\u0142awie\u0144ski",
                "operator:type": "government",
                "amenity": "school",
                "note": "Parent RSPO: 90246"
            }
        },
        {
            "id": 84011,
            "type": "Feature",
            "geometry": {
                "type": "Point",
                "coordinates": [
                    16.412580490112,
                    54.419078826904
                ]
            },
            "properties": {
                "isced:level": "1;2",
                "ref:rspo": 84011,
                "official_name": "Szko\u0142a Podstawowa Nr 3 w Dar\u0142owie im.kr\u00f3la Eryka Pomorskiego",
                "name": "Szko\u0142a Podstawowa Nr 3 w Dar\u0142owie im.kr\u00f3la Eryka Pomorskiego",
                "addr:postcode": "76-150",
                "addr:city": "Dar\u0142owo",
                "addr:street": "Szkolna",
                "addr:housenumber": "12",
                "addr:city:simc": 949833,
                "addr:street:sym_ul": 21970,
                "phone": "+48 943142470",
                "email": "sp3@darlowo.pl",
                "website": "http:\/\/www.sp3.darlowo.pl",
                "ref:regon": "000580894",
                "ref:vatin": "PL6691038651",
                "operator": "Miasto Dar\u0142owo",
                "operator:type": "government",
                "amenity": "school"
            }
        },
        {
            "id": 86964,
            "type": "Feature",
            "geometry": {
                "type": "Point",
                "coordinates": [
                    16.412580490112,
                    54.419048826903996
                ]
            },
            "properties": {
                "ref:rspo": 86964,
                "official_name": "Niepubliczne Przedszkole \" Przedszkole Przy Szkole\"",
                "name": "Niepubliczne Przedszkole \" Przedszkole Przy Szkole\"",
                "addr:postcode": "76-150",
                "addr:city": "Dar\u0142owo",
                "addr:street": "Szkolna",
                "addr:housenumber": "9",
                "addr:city:simc": 949833,
                "addr:street:sym_ul": 21970,
                "phone": "+48 600892760",
                "email": "przedszkoleprzyszkole2012@gmail.com",
                "ref:regon": "321301842",
                "ref:vatin": "PL6691101875",
                "operator": "Wac\u0142aw Wysocki",
                "operator:type": "private",
                "amenity": "kindergarten"
            }
        },
        {
            "id": 86397,
            "type": "Feature",
            "geometry": {
                "type": "Point",
                "coordinates": [
                    16.41942,
                    54.41972
                ]
            },
            "properties": {
                "ref:rspo": 86397,
                "official_name": "Przedszkole Niepubliczne \"Promyczek\"",
                "name": "Przedszkole Niepubliczne \"Promyczek\"",
                "addr:postcode": "76-150",
                "addr:city": "Dar\u0142owo",
                "addr:street": "Fryderyka Chopina",
                "addr:housenumber": "6",
                "addr:city:simc": 949833,
                "addr:street:sym_ul": 2849,
                "phone": "+48 503994807",
                "email": "biuropromyczek@o2.pl",
                "ref:regon": "321301546",
                "ref:vatin": "PL4990288805",
                "operator": "Niepubliczny \u017b\u0142obek I Przedszkole \"Promyczek\" Sp\u00f3\u0142ka Z Ograniczon\u0105 Odpowiedzialno\u015bci\u0105",
                "operator:type": "private",
                "amenity": "kindergarten"
            }
        },
        {
            "id": 131515,
            "type": "Feature",
            "geometry": {
                "type": "Point",
                "coordinates": [
                    16.40997,
                    54.42198
                ]
            },
            "properties": {
                "ref:rspo": 131515,
                "official_name": "Niepubliczna Poradnia Psychologiczno-Pedagogiczna \"Ja\u015b I Ma\u0142gosia\"",
                "name": "Niepubliczna Poradnia Psychologiczno-Pedagogiczna \"Ja\u015b I Ma\u0142gosia\"",
                "addr:postcode": "76-150",
                "addr:city": "Dar\u0142owo",
                "addr:street": "Pocztowa",
                "addr:housenumber": "1",
                "addr:door": "3a",
                "addr:city:simc": 949833,
                "addr:street:sym_ul": 16579,
                "phone": "+48 943070124",
                "email": "biuro@fikk.pl",
                "website": "http:\/\/www.jasimalgosia.pl",
                "ref:regon": "365207310",
                "ref:vatin": "PL6731898622",
                "operator": "\"Ja\u015b I Ma\u0142gosia\" Szko\u0142y I Plac\u00f3wki Terapeutyczne",
                "operator:type": "ngo",
                "healthcare": "counselling",
                "counselling_type": "education",
                "fixme": "w zale\u017cno\u015bci od przedmiotu dzia\u0142alno\u015bci (np. healthcare=counselling + counselling_type=education albo healthcare=psychotherapist)"
            }
        },
        {
            "id": 84012,
            "type": "Feature",
            "geometry": {
                "type": "Point",
                "coordinates": [
                    16.41658,
                    54.42222
                ]
            },
            "properties": {
                "ref:rspo": 84012,
                "official_name": "Przedszkole Nr 2 im. Janiny Porazi\u0144skiej w Dar\u0142owie",
                "name": "Przedszkole Nr 2",
                "addr:postcode": "76-150",
                "addr:city": "Dar\u0142owo",
                "addr:street": "Kr\u00f3lowej Jadwigi",
                "addr:housenumber": "3",
                "addr:city:simc": 949833,
                "addr:street:sym_ul": 10003,
                "phone": "+48 943140221",
                "email": "przedszkolenr2@darlowo.pl",
                "website": "http:\/\/przedszkolenr2darlowo.prv.pl\/",
                "ref:regon": "330243951",
                "ref:vatin": "PL6691105784",
                "operator": "Miasto Dar\u0142owo",
                "operator:type": "government",
                "amenity": "kindergarten"
            }
        },
        {
            "id": 92392,
            "type": "Feature",
            "geometry": {
                "type": "Point",
                "coordinates": [
                    16.4106,
                    54.42271
                ]
            },
            "properties": {
                "ref:rspo": 92392,
                "official_name": "Powiatowa Poradnia Psychologiczno-Pedagogiczna w S\u0142awnie Filia w Dar\u0142owie",
                "name": "Powiatowa Poradnia Psychologiczno-Pedagogiczna w S\u0142awnie Filia w Dar\u0142owie",
                "addr:postcode": "76-150",
                "addr:city": "Dar\u0142owo",
                "addr:street": "Franciszka\u0144ska",
                "addr:housenumber": "2",
                "addr:city:simc": 949833,
                "addr:street:sym_ul": 5151,
                "phone": "+48 943141149",
                "email": "sekretariat@poradnia-slawno.pl",
                "ref:regon": "331084087",
                "ref:vatin": "PL8391994284",
                "operator": "Powiat S\u0142awie\u0144ski",
                "operator:type": "government",
                "healthcare": "counselling",
                "counselling_type": "education",
                "fixme": "w zale\u017cno\u015bci od przedmiotu dzia\u0142alno\u015bci (np. healthcare=counselling + counselling_type=education albo healthcare=psychotherapist)",
                "note": "Parent RSPO: 90873"
            }
        },
        {
            "id": 109326,
            "type": "Feature",
            "geometry": {
                "type": "Point",
                "coordinates": [
                    16.40427,
                    54.42287
                ]
            },
            "properties": {
                "ref:rspo": 109326,
                "official_name": "Przedszkole Niepubliczne \"Akademia Przedszkolaka\"",
                "name": "Przedszkole Niepubliczne \"Akademia Przedszkolaka\"",
                "addr:postcode": "76-150",
                "addr:city": "Dar\u0142owo",
                "addr:street": "Morska",
                "addr:housenumber": "53",
                "addr:city:simc": 949833,
                "addr:street:sym_ul": 13296,
                "phone": "+48 943142773",
                "email": "a.p.darlowo@gmail.com",
                "ref:regon": "321335380",
                "ref:vatin": "PL6691487248",
                "operator": "Iwona Ja\u017cwi\u0144ska",
                "operator:type": "private",
                "amenity": "kindergarten"
            }
        },
        {
            "id": 86242,
            "type": "Feature",
            "geometry": {
                "type": "Point",
                "coordinates": [
                    16.42511,
                    54.42788
                ]
            },
            "properties": {
                "ref:rspo": 86242,
                "official_name": "Przedszkole Niepubliczne \"Great Sasetka\"",
                "name": "Przedszkole Niepubliczne \"Great Sasetka\"",
                "addr:postcode": "76-150",
                "addr:city": "Dar\u0142owo",
                "addr:street": "\"Majora Henryka Dobrza\u0144skiego \"\"Hubala\"\"\"",
                "addr:housenumber": "8",
                "addr:city:simc": 949833,
                "addr:street:sym_ul": 6771,
                "phone": "+48 726148266",
                "email": "biuro@sasetka.pl",
                "website": "http:\/\/www.przedszkole-sasetka.pl",
                "ref:regon": "321301492",
                "ref:vatin": "PL4990397434",
                "operator": "4Kids Sp\u00f3\u0142ka Z Ograniczon\u0105 Odpowiedzialno\u015bci\u0105",
                "operator:type": "private",
                "amenity": "kindergarten"
            }
        },
        {
            "id": 86241,
            "type": "Feature",
            "geometry": {
                "type": "Point",
                "coordinates": [
                    16.42533,
                    54.42815
                ]
            },
            "properties": {
                "ref:rspo": 86241,
                "official_name": "Niepubliczne Przedszkole \"Smyk\"",
                "name": "Niepubliczne Przedszkole \"Smyk\"",
                "addr:postcode": "76-150",
                "addr:city": "Dar\u0142owo",
                "addr:street": "\"Majora Henryka Dobrza\u0144skiego \"\"Hubala\"\"\"",
                "addr:housenumber": "11",
                "addr:city:simc": 949833,
                "addr:street:sym_ul": 6771,
                "phone": "+48 698819423",
                "email": "przedszkolesmyk@poczta.onet.pl",
                "ref:regon": "321301470",
                "ref:vatin": "PL7542743913",
                "operator": "Agnieszka Staniszewska",
                "operator:type": "private",
                "amenity": "kindergarten"
            }
        },
        {
            "id": 114915,
            "type": "Feature",
            "geometry": {
                "type": "Point",
                "coordinates": [
                    16.37744,
                    54.43495
                ]
            },
            "properties": {
                "isced:level": "1;2",
                "ref:rspo": 114915,
                "official_name": "Spo\u0142eczna Szko\u0142a Podstawowa im.lotnik\u00f3w Morskich Sto w Dar\u0142owie",
                "name": "Spo\u0142eczna Szko\u0142a Podstawowa im.lotnik\u00f3w Morskich Sto w Dar\u0142owie",
                "addr:postcode": "76-150",
                "addr:city": "Dar\u0142owo",
                "addr:street": "Zwyci\u0119stwa",
                "addr:housenumber": "1",
                "addr:city:simc": 949833,
                "addr:street:sym_ul": 26326,
                "phone": "+48 943142051",
                "email": "sp4darlowo@interia.pl",
                "website": "http:\/\/www.spoleczna.darlowo.info",
                "ref:regon": "321385247",
                "ref:vatin": "PL4990642508",
                "operator": "Samodzielne Ko\u0142o Terenowe Nr 238 Spo\u0142ecznego Towarzystwa O\u015bwiatowego W Dar\u0142owie",
                "operator:type": "ngo",
                "amenity": "school"
            }
        }
    ]
}