{
    "type": "FeatureCollection",
    "features": [
        {
            "id": 22293,
            "type": "Feature",
            "geometry": {
                "type": "Point",
                "coordinates": [
                    16.73261,
                    54.43469
                ]
            },
            "properties": {
                "isced:level": "1;2",
                "ref:rspo": 22293,
                "official_name": "Szko\u0142a Podstawowa w Staniewicach",
                "name": "Szko\u0142a Podstawowa w Staniewicach",
                "addr:postcode": "76-113",
                "addr:place": "Staniewice",
                "addr:housenumber": "61",
                "addr:city:simc": 749270,
                "phone": "+48 598108623",
                "email": "szkola_staniewice@onet.pl",
                "website": "http:\/\/www.szkolastaniewice.edu.pl",
                "ref:regon": "001141122",
                "ref:vatin": "PL4990244742",
                "operator": "Gmina Postomino",
                "operator:type": "government",
                "amenity": "school"
            }
        },
        {
            "id": 44525,
            "type": "Feature",
            "geometry": {
                "type": "Point",
                "coordinates": [
                    16.77918,
                    54.45937
                ]
            },
            "properties": {
                "isced:level": "1;2",
                "ref:rspo": 44525,
                "official_name": "Szko\u0142a Podstawowa w Pieszczu",
                "name": "Szko\u0142a Podstawowa w Pieszczu",
                "addr:postcode": "76-113",
                "addr:place": "Pieszcz",
                "addr:housenumber": "46",
                "addr:city:simc": 749212,
                "phone": "+48 598108696",
                "email": "sekretariat@sppieszcz.pl",
                "website": "http:\/\/www.sppieszcz.pl",
                "ref:regon": "001141091",
                "ref:vatin": "PL4990415646",
                "operator": "Gmina Postomino",
                "operator:type": "government",
                "amenity": "school"
            }
        },
        {
            "id": 46664,
            "type": "Feature",
            "geometry": {
                "type": "Point",
                "coordinates": [
                    16.7126899,
                    54.48966
                ]
            },
            "properties": {
                "isced:level": "1;2",
                "ref:rspo": 46664,
                "official_name": "Szko\u0142a Podstawowa im. Ppor. Emilii Gierczak w Postominie",
                "name": "Szko\u0142a Podstawowa",
                "addr:postcode": "76-113",
                "addr:place": "Postomino",
                "addr:housenumber": "15a",
                "addr:city:simc": 749229,
                "phone": "+48 598108521",
                "email": "zspostomino@wp.pl",
                "website": "http:\/\/www.zspostomino.edupage.org",
                "ref:regon": "000270366",
                "ref:vatin": "PL4990415669",
                "operator": "Gmina Postomino",
                "operator:type": "government",
                "amenity": "school"
            }
        },
        {
            "id": 22268,
            "type": "Feature",
            "geometry": {
                "type": "Point",
                "coordinates": [
                    16.6155,
                    54.50982
                ]
            },
            "properties": {
                "ref:rspo": 22268,
                "official_name": "Zesp\u00f3\u0142 Szk\u00f3\u0142 Spo\u0142ecznych w Korlinie",
                "name": "Zesp\u00f3\u0142 Szk\u00f3\u0142 Spo\u0142ecznych w Korlinie",
                "addr:postcode": "76-113",
                "addr:place": "Korlino",
                "addr:housenumber": "4A",
                "addr:city:simc": 749070,
                "phone": "+48 598109723",
                "email": "szkolakorlino@op.pl",
                "website": "http:\/\/www.szkolakorlino.pl",
                "ref:regon": "321281542",
                "ref:vatin": "PL4990576473",
                "operator": "Stowarzyszenie Rozwoju Wsi Korlino, \u0141\u0105cko, \u0141\u0119\u017cek, Kr\u00f3lewo \"Razem\" W Korlinie",
                "operator:type": "ngo",
                "landuse": "education",
                "fixme": "amenity=school, amenity=college albo landuse=education w zale\u017cno\u015bci od tego, jakie plac\u00f3wki wchodz\u0105 w sk\u0142ad zespo\u0142u. Sprawd\u017a, kiedy stosowa\u0107 amenity=* a kiedy landuse=education.",
                "note": "Children RSPO: 42912;42913"
            }
        },
        {
            "id": 61805,
            "type": "Feature",
            "geometry": {
                "type": "Point",
                "coordinates": [
                    16.6155,
                    54.509789999999995
                ]
            },
            "properties": {
                "ref:rspo": 61805,
                "official_name": "Szkolne Schronisko M\u0142odzie\u017cowe w Korlinie",
                "name": "Szkolne Schronisko M\u0142odzie\u017cowe w Korlinie",
                "addr:postcode": "76-113",
                "addr:place": "Korlino",
                "addr:housenumber": "4a",
                "addr:city:simc": 749070,
                "phone": "+48 598109723",
                "email": "szkolakorlino@op.pl",
                "website": "http:\/\/www.szkolakorlino.pl",
                "ref:regon": "321296325",
                "ref:vatin": "PL4990563714",
                "operator": "Stowarzyszenie Rozwoju Wsi Korlino, \u0141\u0105cko, \u0141\u0119\u017cek, Kr\u00f3lewo \"Razem\" W Korlinie",
                "operator:type": "ngo",
                "tourism": "hostel"
            }
        },
        {
            "id": 42912,
            "type": "Feature",
            "geometry": {
                "type": "Point",
                "coordinates": [
                    16.6155,
                    54.50976
                ]
            },
            "properties": {
                "isced:level": "1;2",
                "ref:rspo": 42912,
                "official_name": "Spo\u0142eczna Szko\u0142a Podstawowa w Korlinie",
                "name": "Spo\u0142eczna Szko\u0142a Podstawowa w Korlinie",
                "addr:postcode": "76-113",
                "addr:place": "Korlino",
                "addr:housenumber": "4A",
                "addr:city:simc": 749070,
                "phone": "+48 598109723",
                "email": "szkolakorlino@op.pl",
                "website": "http:\/\/www.szkolakorlino.pl",
                "ref:regon": "321290179",
                "operator": "Stowarzyszenie Rozwoju Wsi Korlino, \u0141\u0105cko, \u0141\u0119\u017cek, Kr\u00f3lewo \"Razem\" W Korlinie",
                "operator:type": "ngo",
                "amenity": "school",
                "note": "Parent RSPO: 22268"
            }
        },
        {
            "id": 42913,
            "type": "Feature",
            "geometry": {
                "type": "Point",
                "coordinates": [
                    16.6155,
                    54.50973
                ]
            },
            "properties": {
                "ref:rspo": 42913,
                "official_name": "Spo\u0142eczne Przedszkole w Korlinie",
                "name": "Spo\u0142eczne Przedszkole w Korlinie",
                "addr:postcode": "76-113",
                "addr:place": "Korlino",
                "addr:housenumber": "4A",
                "addr:city:simc": 749070,
                "phone": "+48 598109723",
                "email": "szkolakorlino@op.pl",
                "website": "http:\/\/www.szkolakorlino.pl",
                "ref:regon": "321290216",
                "operator": "Stowarzyszenie Rozwoju Wsi Korlino, \u0141\u0105cko, \u0141\u0119\u017cek, Kr\u00f3lewo \"Razem\" W Korlinie",
                "operator:type": "ngo",
                "amenity": "kindergarten",
                "note": "Parent RSPO: 22268"
            }
        },
        {
            "id": 42914,
            "type": "Feature",
            "geometry": {
                "type": "Point",
                "coordinates": [
                    16.5406144,
                    54.5394447
                ]
            },
            "properties": {
                "isced:level": "1;2",
                "ref:rspo": 42914,
                "official_name": "Szko\u0142a Podstawowa w Jaros\u0142awcu",
                "name": "Szko\u0142a Podstawowa w Jaros\u0142awcu",
                "addr:postcode": "76-107",
                "addr:city": "Jaros\u0142awiec",
                "addr:street": "Ba\u0142tycka",
                "addr:housenumber": "65B",
                "addr:city:simc": 749034,
                "addr:street:sym_ul": 656,
                "phone": "+48 598109417",
                "email": "sekretariat@zsjar.pl",
                "website": "http:\/\/www.zsjar.pl",
                "ref:regon": "001141085",
                "ref:vatin": "PL4990415652",
                "operator": "Gmina Postomino",
                "operator:type": "government",
                "amenity": "school"
            }
        }
    ]
}