{
    "type": "FeatureCollection",
    "features": [
        {
            "id": 125009,
            "type": "Feature",
            "geometry": {
                "type": "Point",
                "coordinates": [
                    16.361314,
                    54.308623
                ]
            },
            "properties": {
                "isced:level": "1;2",
                "ref:rspo": 125009,
                "official_name": "Spo\u0142eczna Szko\u0142a Podstawowa w Dobies\u0142awiu",
                "name": "Spo\u0142eczna Szko\u0142a Podstawowa w Dobies\u0142awiu",
                "addr:postcode": "76-150",
                "addr:place": "Dobies\u0142aw",
                "addr:housenumber": "3a",
                "addr:city:simc": 305283,
                "phone": "+48 943149389",
                "email": "sekretariat@dobieslaw.com.pl",
                "website": "http:\/\/www.dobieslaw.com.pl",
                "ref:regon": "321572179",
                "ref:vatin": "PL4990646819",
                "operator": "Stowarzyszenie Na Rzecz Rozwoju Szko\u0142y W Dobies\u0142awiu I Wsi Dobies\u0142aw, Wiekowo, Wiekowice",
                "operator:type": "ngo",
                "amenity": "school"
            }
        },
        {
            "id": 122001,
            "type": "Feature",
            "geometry": {
                "type": "Point",
                "coordinates": [
                    16.397085,
                    54.339099
                ]
            },
            "properties": {
                "isced:level": "1;2",
                "ref:rspo": 122001,
                "official_name": "Spo\u0142eczna Szko\u0142a Podstawowa im. Kpt. Kazimierza Filipowicza Ps. \"Kord\"",
                "name": "Spo\u0142eczna Szko\u0142a Podstawowa",
                "addr:postcode": "76-150",
                "addr:place": "Je\u017cyczki",
                "addr:housenumber": "29",
                "addr:city:simc": 305372,
                "phone": "+48 943149224",
                "email": "spjezyczki@op.pl",
                "website": "http:\/\/www.jezyczki.pl\/szkola\/szkola.html",
                "ref:regon": "321483330",
                "operator": "Stowarzyszenie Rozwoju Szko\u0142y \"Szansa\"",
                "operator:type": "ngo",
                "amenity": "school"
            }
        },
        {
            "id": 105621,
            "type": "Feature",
            "geometry": {
                "type": "Point",
                "coordinates": [
                    16.5154849,
                    54.357678
                ]
            },
            "properties": {
                "isced:level": "1;2",
                "ref:rspo": 105621,
                "official_name": "Spo\u0142eczna Szko\u0142a Podstawowa w S\u0142owinie",
                "name": "Spo\u0142eczna Szko\u0142a Podstawowa w S\u0142owinie",
                "addr:postcode": "76-150",
                "addr:place": "S\u0142owino",
                "addr:housenumber": "78",
                "addr:city:simc": 305544,
                "phone": "+48 943143435",
                "email": "sekretariatslowino@gmail.com",
                "website": "http:\/\/szkolaslowino.szkolna.net",
                "ref:regon": "321305018",
                "ref:vatin": "PL4990648681",
                "operator": "Stowarzyszenie Na Rzecz Rozwoju Szko\u0142y I Wsi W S\u0142owinie \"Ku Przysz\u0142o\u015bci\"",
                "operator:type": "ngo",
                "amenity": "school"
            }
        },
        {
            "id": 86754,
            "type": "Feature",
            "geometry": {
                "type": "Point",
                "coordinates": [
                    16.32518,
                    54.38558
                ]
            },
            "properties": {
                "isced:level": "1;2",
                "ref:rspo": 86754,
                "official_name": "Szko\u0142a Podstawowa im. Ratownik\u00f3w Morskich w D\u0105bkach",
                "name": "Szko\u0142a Podstawowa",
                "addr:postcode": "76-156",
                "addr:city": "D\u0105bki",
                "addr:street": "Dar\u0142owska",
                "addr:housenumber": "6",
                "addr:city:simc": 305260,
                "addr:street:sym_ul": 3616,
                "phone": "+48 943148623",
                "email": "sekretariat@spdabki.pl",
                "website": "http:\/\/www.spdabki.pl",
                "ref:regon": "330583032",
                "ref:vatin": "PL4990181898",
                "operator": "Gmina Dar\u0142owo",
                "operator:type": "government",
                "amenity": "school"
            }
        },
        {
            "id": 85176,
            "type": "Feature",
            "geometry": {
                "type": "Point",
                "coordinates": [
                    16.55385,
                    54.401839
                ]
            },
            "properties": {
                "isced:level": "1;2",
                "ref:rspo": 85176,
                "official_name": "Szko\u0142a Podstawowa w Starym Jaros\u0142awiu",
                "name": "Szko\u0142a Podstawowa w Starym Jaros\u0142awiu",
                "addr:postcode": "76-150",
                "addr:place": "Stary Jaros\u0142aw",
                "addr:housenumber": "71",
                "addr:city:simc": 305573,
                "phone": "+48 943148791",
                "email": "szkola@staryjaroslaw.pl",
                "website": "http:\/\/www.staryjaroslaw.pl",
                "ref:regon": "330386277",
                "ref:vatin": "PL4990181906",
                "operator": "Gmina Dar\u0142owo",
                "operator:type": "government",
                "amenity": "school"
            }
        },
        {
            "id": 87829,
            "type": "Feature",
            "geometry": {
                "type": "Point",
                "coordinates": [
                    16.488079,
                    54.457539
                ]
            },
            "properties": {
                "isced:level": "1;2",
                "ref:rspo": 87829,
                "official_name": "Szko\u0142a Podstawowa im. Ludzi Morza w Kopnicy",
                "name": "Szko\u0142a Podstawowa",
                "addr:postcode": "76-150",
                "addr:place": "Kopnica",
                "addr:housenumber": "24",
                "addr:city:simc": 305410,
                "phone": "+48 943155572",
                "email": "sekretariat@spkopnica.pl",
                "website": "http:\/\/www.spkopnica.pl",
                "ref:regon": "330386260",
                "ref:vatin": "PL4990181929",
                "operator": "Gmina Dar\u0142owo",
                "operator:type": "government",
                "amenity": "school"
            }
        }
    ]
}