{
    "type": "FeatureCollection",
    "features": [
        {
            "id": 17037,
            "type": "Feature",
            "geometry": {
                "type": "Point",
                "coordinates": [
                    16.67067,
                    54.34794
                ]
            },
            "properties": {
                "ref:rspo": 17037,
                "official_name": "Przedszkole Nr 3 im. Jasia I Ma\u0142gosi",
                "name": "Przedszkole Nr 3",
                "addr:country": "PL",
                "addr:postcode": "76-100",
                "addr:city": "S\u0142awno",
                "addr:street": "ul. Filtrowa",
                "addr:housenumber": "1",
                "addr:teryt:simc": 5015,
                "addr:teryt:sym_ul": 977410,
                "contact:phone": "+48 598103252",
                "contact:email": "jas.malgosia@op.pl",
                "ref:regon": "320594799",
                "ref:vatin": "PL4990583208",
                "operator": "Miasto S\u0142awno",
                "operator:type": "government",
                "amenity": "kindergarten"
            }
        },
        {
            "id": 90247,
            "type": "Feature",
            "geometry": {
                "type": "Point",
                "coordinates": [
                    16.66809,
                    54.35893
                ]
            },
            "properties": {
                "ref:rspo": 90247,
                "official_name": "Plac\u00f3wka Szkolenia Zawodowego \"Inkubator Przedsi\u0119biorczo\u015bci\"",
                "name": "Plac\u00f3wka Szkolenia Zawodowego \"Inkubator Przedsi\u0119biorczo\u015bci\"",
                "addr:country": "PL",
                "addr:postcode": "76-100",
                "addr:city": "S\u0142awno",
                "addr:street": "ul. J\u00f3zefa Che\u0142mo\u0144skiego",
                "addr:housenumber": "30",
                "addr:teryt:simc": 2706,
                "addr:teryt:sym_ul": 977410,
                "contact:phone": "+48 598104803",
                "contact:email": "inkubator@powiatslawno.pl",
                "contact:website": "http:\/\/www.inkubator.slawno.ta.pl",
                "ref:regon": "321304770",
                "ref:vatin": "PL4990324978",
                "operator": "Stowarzyszenie Na Rzecz Rozwoju Powiatu S\u0142awie\u0144skiego",
                "operator:type": "private",
                "fixme": "w zale\u017cno\u015bci od przedmiotu dzia\u0142alno\u015bci (np. amenity=training + training=*, amenity=dancing_school, amenity=language_school, amenity=music_school)"
            }
        },
        {
            "id": 17009,
            "type": "Feature",
            "geometry": {
                "type": "Point",
                "coordinates": [
                    16.67833,
                    54.36022
                ]
            },
            "properties": {
                "ref:rspo": 17009,
                "official_name": "Przedszkole Nr 2 im. Jana Brzechwy",
                "name": "Przedszkole Nr 2",
                "addr:country": "PL",
                "addr:postcode": "76-100",
                "addr:city": "S\u0142awno",
                "addr:street": "ul. Jedno\u015bci Narodowej",
                "addr:housenumber": "22",
                "addr:teryt:simc": 7435,
                "addr:teryt:sym_ul": 977410,
                "contact:phone": "+48 598103875",
                "contact:email": "brzechwolandia@slawno.pl",
                "contact:website": "http:\/\/www.brzechwolandia.slawno.pl",
                "ref:regon": "320594753",
                "ref:vatin": "PL4990583220",
                "operator": "Miasto S\u0142awno",
                "operator:type": "government",
                "amenity": "kindergarten"
            }
        },
        {
            "id": 272773,
            "type": "Feature",
            "geometry": {
                "type": "Point",
                "coordinates": [
                    16.68156,
                    54.36024
                ]
            },
            "properties": {
                "isced:level": "1;2",
                "ref:rspo": 272773,
                "official_name": "Szko\u0142a Podstawowa Nr 2",
                "name": "Szko\u0142a Podstawowa Nr 2",
                "addr:country": "PL",
                "addr:postcode": "76-100",
                "addr:city": "S\u0142awno",
                "addr:street": "pl. Plac Sportowy",
                "addr:housenumber": "1",
                "addr:teryt:simc": 42815,
                "addr:teryt:sym_ul": 977410,
                "contact:phone": "+48 597597111",
                "contact:email": "sekretariat@sp2slawno.pl",
                "contact:website": "https:\/\/sp2slawno.edupage.org\/",
                "ref:regon": "384286763",
                "operator": "Miasto S\u0142awno",
                "operator:type": "government",
                "amenity": "school"
            }
        },
        {
            "id": 7531,
            "type": "Feature",
            "geometry": {
                "type": "Point",
                "coordinates": [
                    16.67592,
                    54.3614
                ]
            },
            "properties": {
                "ref:rspo": 7531,
                "official_name": "Specjalny O\u015brodek Szkolno Wychowawczy dla Dzieci I M\u0142odziezy Niepe\u0142nosprawnej Im Marii Grzegorzewskiej",
                "name": "Specjalny O\u015brodek Szkolno Wychowawczy dla Dzieci I M\u0142odziezy Niepe\u0142nosprawnej Im Marii Grzegorzewskiej",
                "addr:country": "PL",
                "addr:postcode": "76-100",
                "addr:city": "S\u0142awno",
                "addr:street": "ul. Miko\u0142aja Kopernika",
                "addr:housenumber": "9",
                "addr:teryt:simc": 9282,
                "addr:teryt:sym_ul": 977410,
                "contact:phone": "+48 598103606",
                "contact:email": "osw_slawno@onet.pl",
                "contact:website": "http:\/\/www.oswslawno.com",
                "ref:regon": "331104170",
                "ref:vatin": "PL8391979178",
                "operator": "Powiat S\u0142awie\u0144ski",
                "operator:type": "government",
                "amenity": "school",
                "note": "Children RSPO: 8698;89850;90243;90245;91252"
            }
        },
        {
            "id": 90873,
            "type": "Feature",
            "geometry": {
                "type": "Point",
                "coordinates": [
                    16.67592,
                    54.36137
                ]
            },
            "properties": {
                "ref:rspo": 90873,
                "official_name": "Powiatowa Poradnia Psychologiczno-Pedagogiczna",
                "name": "Powiatowa Poradnia Psychologiczno-Pedagogiczna",
                "addr:country": "PL",
                "addr:postcode": "76-100",
                "addr:city": "S\u0142awno",
                "addr:street": "ul. Miko\u0142aja Kopernika",
                "addr:housenumber": "9",
                "addr:teryt:simc": 9282,
                "addr:teryt:sym_ul": 977410,
                "contact:phone": "+48 598107135",
                "contact:email": "sekretariat@poradnia-slawno.pl",
                "ref:regon": "331084087",
                "ref:vatin": "PL8391994284",
                "operator": "Powiat S\u0142awie\u0144ski",
                "operator:type": "government",
                "healthcare": "counselling",
                "counselling_type": "education",
                "fixme": "w zale\u017cno\u015bci od przedmiotu dzia\u0142alno\u015bci (np. healthcare=counselling + counselling_type=education albo healthcare=psychotherapist)",
                "note": "Children RSPO: 92392"
            }
        },
        {
            "id": 8698,
            "type": "Feature",
            "geometry": {
                "type": "Point",
                "coordinates": [
                    16.67592,
                    54.361340000000006
                ]
            },
            "properties": {
                "ref:rspo": 8698,
                "official_name": "Szko\u0142a Specjalna Przysposabiaj\u0105ca Do Pracy",
                "name": "Szko\u0142a Specjalna Przysposabiaj\u0105ca Do Pracy",
                "addr:country": "PL",
                "addr:postcode": "76-100",
                "addr:city": "S\u0142awno",
                "addr:street": "ul. Miko\u0142aja Kopernika",
                "addr:housenumber": "9",
                "addr:teryt:simc": 9282,
                "addr:teryt:sym_ul": 977410,
                "contact:phone": "+48 598103606",
                "contact:email": "osw_slawno@onet.pl",
                "contact:website": "http:\/\/www.oswslawno.com",
                "ref:regon": "321269564",
                "ref:vatin": "PL8391979178",
                "operator": "Powiat S\u0142awie\u0144ski",
                "operator:type": "government",
                "amenity": "school",
                "note": "Parent RSPO: 7531"
            }
        },
        {
            "id": 89850,
            "type": "Feature",
            "geometry": {
                "type": "Point",
                "coordinates": [
                    16.67592,
                    54.36131
                ]
            },
            "properties": {
                "isced:level": "3",
                "ref:rspo": 89850,
                "official_name": "Specjalny O\u015brodek Szkolno-Wychowawczy dla Dzieci I M\u0142odzie\u017cy Niepe\u0142nosprawnej im. Marii Grzegorzewskiej Bran\u017cowa Szko\u0142a I Stopnia",
                "name": "Specjalny O\u015brodek Szkolno-Wychowawczy dla Dzieci I M\u0142odzie\u017cy Niepe\u0142nosprawnej",
                "addr:country": "PL",
                "addr:postcode": "76-100",
                "addr:city": "S\u0142awno",
                "addr:street": "ul. Miko\u0142aja Kopernika",
                "addr:housenumber": "9",
                "addr:teryt:simc": 9282,
                "addr:teryt:sym_ul": 977410,
                "contact:phone": "+48 598103606",
                "contact:email": "osw_slawno@onet.pl",
                "contact:website": "http:\/\/www.oswslawno.com",
                "ref:regon": "331453248",
                "ref:vatin": "PL8391979178",
                "operator": "Powiat S\u0142awie\u0144ski",
                "operator:type": "government",
                "amenity": "school",
                "note": "Parent RSPO: 7531"
            }
        },
        {
            "id": 90243,
            "type": "Feature",
            "geometry": {
                "type": "Point",
                "coordinates": [
                    16.67592,
                    54.36128
                ]
            },
            "properties": {
                "isced:level": "1;2",
                "ref:rspo": 90243,
                "official_name": "Specjalny O\u015brodek Szkoln O-Wychowawczy dla Dzieci I M\u0142odzie\u017cy Niepe\u0142nosprawnej im. Marii Grzegorzewskiej Szko\u0142a Podstawowa",
                "name": "Specjalny O\u015brodek Szkoln O-Wychowawczy dla Dzieci I M\u0142odzie\u017cy Niepe\u0142nosprawnej",
                "addr:country": "PL",
                "addr:postcode": "76-100",
                "addr:city": "S\u0142awno",
                "addr:street": "ul. Miko\u0142aja Kopernika",
                "addr:housenumber": "9",
                "addr:teryt:simc": 9282,
                "addr:teryt:sym_ul": 977410,
                "contact:phone": "+48 598103606",
                "contact:email": "osw_slawno@onet.pl",
                "contact:website": "http:\/\/www.oswslawno.com",
                "ref:regon": "320130960",
                "ref:vatin": "PL8391979178",
                "operator": "Powiat S\u0142awie\u0144ski",
                "operator:type": "government",
                "amenity": "school",
                "note": "Parent RSPO: 7531"
            }
        },
        {
            "id": 90245,
            "type": "Feature",
            "geometry": {
                "type": "Point",
                "coordinates": [
                    16.67592,
                    54.361250000000005
                ]
            },
            "properties": {
                "isced:level": "3",
                "ref:rspo": 90245,
                "official_name": "Specjalny O\u015brodek Szkolno-Wychowawczy dla Dzieci I M\u0142odzie\u017cy Niepe\u0142nosprawnej im. Marii Grzegorzewskiej Technikum \u017bywienia I Us\u0142ug Gastronomicznych",
                "name": "Specjalny O\u015brodek Szkolno-Wychowawczy dla Dzieci I M\u0142odzie\u017cy Niepe\u0142nosprawnej",
                "addr:country": "PL",
                "addr:postcode": "76-100",
                "addr:city": "S\u0142awno",
                "addr:street": "ul. Miko\u0142aja Kopernika",
                "addr:housenumber": "9",
                "addr:teryt:simc": 9282,
                "addr:teryt:sym_ul": 977410,
                "contact:phone": "+48 598103606",
                "contact:email": "osw_slawno@onet.pl",
                "contact:website": "http:\/\/www.oswslawno.com",
                "ref:regon": "331453254",
                "ref:vatin": "PL8391979178",
                "operator": "Powiat S\u0142awie\u0144ski",
                "operator:type": "government",
                "amenity": "school",
                "note": "Parent RSPO: 7531"
            }
        },
        {
            "id": 91252,
            "type": "Feature",
            "geometry": {
                "type": "Point",
                "coordinates": [
                    16.67592,
                    54.36122
                ]
            },
            "properties": {
                "ref:rspo": 91252,
                "official_name": "Przedszkole Przy Specjalnym O\u015brodku Szkolno-Wychowawczym dla Dzieci I M\u0142odzie\u017cy Niepe\u0142nosprawnej I. Marii Grzegorzewskiej",
                "name": "Przedszkole Przy Specjalnym O\u015brodku Szkolno-Wychowawczym dla Dzieci I M\u0142odzie\u017cy Niepe\u0142nosprawnej I. Marii Grzegorzewskiej",
                "addr:country": "PL",
                "addr:postcode": "76-100",
                "addr:city": "S\u0142awno",
                "addr:street": "ul. Miko\u0142aja Kopernika",
                "addr:housenumber": "9",
                "addr:teryt:simc": 9282,
                "addr:teryt:sym_ul": 977410,
                "contact:phone": "+48 598103606",
                "contact:email": "osw_slawno@onet.pl",
                "contact:website": "http:\/\/www.oswslawno.com",
                "ref:regon": "331453231",
                "ref:vatin": "PL8391979178",
                "operator": "Powiat S\u0142awie\u0144ski",
                "operator:type": "government",
                "amenity": "kindergarten",
                "note": "Parent RSPO: 7531"
            }
        },
        {
            "id": 17837,
            "type": "Feature",
            "geometry": {
                "type": "Point",
                "coordinates": [
                    16.67369,
                    54.36274
                ]
            },
            "properties": {
                "ref:rspo": 17837,
                "official_name": "Niepubliczne Przedszkole \"S\u0142oneczko\"",
                "name": "Niepubliczne Przedszkole \"S\u0142oneczko\"",
                "addr:country": "PL",
                "addr:postcode": "76-100",
                "addr:city": "S\u0142awno",
                "addr:street": "ul. Armii Krajowej",
                "addr:housenumber": "21",
                "addr:teryt:simc": 432,
                "addr:teryt:sym_ul": 977410,
                "contact:phone": "+48 503099958",
                "contact:email": "przedszkolegonda@interia.pl",
                "ref:regon": "321277374",
                "ref:vatin": "PL8391768352",
                "operator": "Gra\u017cyna Go\u0144da",
                "operator:type": "private",
                "amenity": "kindergarten"
            }
        },
        {
            "id": 56577,
            "type": "Feature",
            "geometry": {
                "type": "Point",
                "coordinates": [
                    16.68591,
                    54.36289
                ]
            },
            "properties": {
                "ref:rspo": 56577,
                "official_name": "Zesp\u00f3\u0142 Szk\u00f3\u0142 w S\u0142awnie im. Jana Henryka D\u0105browskiego",
                "name": "Zesp\u00f3\u0142 Szk\u00f3\u0142 w S\u0142awnie",
                "addr:country": "PL",
                "addr:postcode": "76-100",
                "addr:city": "S\u0142awno",
                "addr:street": "ul. Augusta Cieszkowskiego",
                "addr:housenumber": "4",
                "addr:teryt:simc": 3055,
                "addr:teryt:sym_ul": 977410,
                "contact:phone": "+48 598107662",
                "contact:email": "licslawno@poczta.onet.pl",
                "contact:website": "http:\/\/liceumslawno.com",
                "ref:regon": "331097078",
                "ref:vatin": "PL8391873126",
                "operator": "Powiat S\u0142awie\u0144ski",
                "operator:type": "government",
                "landuse": "education",
                "fixme": "amenity=school, amenity=college albo landuse=education w zale\u017cno\u015bci od tego, jakie plac\u00f3wki wchodz\u0105 w sk\u0142ad zespo\u0142u. Sprawd\u017a, kiedy stosowa\u0107 amenity=* a kiedy landuse=education.",
                "note": "Children RSPO: 83975;83982"
            }
        },
        {
            "id": 83975,
            "type": "Feature",
            "geometry": {
                "type": "Point",
                "coordinates": [
                    16.68591,
                    54.36286
                ]
            },
            "properties": {
                "isced:level": "3",
                "ref:rspo": 83975,
                "official_name": "I Liceum Og\u00f3lnokszta\u0142c\u0105ce dla Doros\u0142ych w S\u0142awnie",
                "name": "I Liceum Og\u00f3lnokszta\u0142c\u0105ce dla Doros\u0142ych w S\u0142awnie",
                "addr:country": "PL",
                "addr:postcode": "76-100",
                "addr:city": "S\u0142awno",
                "addr:street": "ul. Augusta Cieszkowskiego",
                "addr:housenumber": "4",
                "addr:teryt:simc": 3055,
                "addr:teryt:sym_ul": 977410,
                "contact:phone": "+48 598107662",
                "contact:email": "licslawno@poczta.onet.pl",
                "ref:regon": "320070470",
                "operator": "Powiat S\u0142awie\u0144ski",
                "operator:type": "government",
                "amenity": "school",
                "note": "Parent RSPO: 56577"
            }
        },
        {
            "id": 83982,
            "type": "Feature",
            "geometry": {
                "type": "Point",
                "coordinates": [
                    16.68591,
                    54.36283
                ]
            },
            "properties": {
                "isced:level": "3",
                "ref:rspo": 83982,
                "official_name": "I Liceum Og\u00f3lnokszta\u0142c\u0105ce w S\u0142awnie",
                "name": "I Liceum Og\u00f3lnokszta\u0142c\u0105ce w S\u0142awnie",
                "addr:country": "PL",
                "addr:postcode": "76-100",
                "addr:city": "S\u0142awno",
                "addr:street": "ul. Augusta Cieszkowskiego",
                "addr:housenumber": "4",
                "addr:teryt:simc": 3055,
                "addr:teryt:sym_ul": 977410,
                "contact:phone": "+48 598107662",
                "contact:email": "licslawno@poczta.onet.pl",
                "ref:regon": "331354180",
                "operator": "Powiat S\u0142awie\u0144ski",
                "operator:type": "government",
                "amenity": "school",
                "note": "Parent RSPO: 56577"
            }
        },
        {
            "id": 17731,
            "type": "Feature",
            "geometry": {
                "type": "Point",
                "coordinates": [
                    16.6847,
                    54.36293
                ]
            },
            "properties": {
                "ref:rspo": 17731,
                "official_name": "Przedszkole Nr 4 im.krasnala Ha\u0142aba\u0142y",
                "name": "Przedszkole Nr 4 im.krasnala Ha\u0142aba\u0142y",
                "addr:country": "PL",
                "addr:postcode": "76-100",
                "addr:city": "S\u0142awno",
                "addr:street": "ul. Augusta Cieszkowskiego",
                "addr:housenumber": "1",
                "addr:teryt:simc": 3055,
                "addr:teryt:sym_ul": 977410,
                "contact:phone": "+48 598107957",
                "contact:email": "przedszkole4@slawno.pl",
                "contact:website": "http:\/\/przedszkole4.slawno.pl",
                "ref:regon": "320594782",
                "ref:vatin": "PL4990583237",
                "operator": "Miasto S\u0142awno",
                "operator:type": "government",
                "amenity": "kindergarten"
            }
        },
        {
            "id": 112295,
            "type": "Feature",
            "geometry": {
                "type": "Point",
                "coordinates": [
                    16.67599,
                    54.36355
                ]
            },
            "properties": {
                "ref:rspo": 112295,
                "official_name": "Pa\u0144stwowa Szko\u0142a Muzyczna I St. w S\u0142upsku Filia w S\u0142awnie",
                "name": "Pa\u0144stwowa Szko\u0142a Muzyczna I St. w S\u0142upsku Filia w S\u0142awnie",
                "addr:country": "PL",
                "addr:postcode": "76-100",
                "addr:city": "S\u0142awno",
                "addr:street": "ul. Adama Mickiewicza",
                "addr:housenumber": "7",
                "addr:teryt:simc": 12740,
                "addr:teryt:sym_ul": 977410,
                "contact:phone": "+48 598103415",
                "contact:email": "filiaslawno@psm.slupsk.pl",
                "ref:regon": "220039747",
                "operator": "Ministerstwo Kultury I Dziedzictwa Narodowego",
                "operator:type": "public",
                "amenity": "music_school",
                "note": "Parent RSPO: 22928"
            }
        },
        {
            "id": 18496,
            "type": "Feature",
            "geometry": {
                "type": "Point",
                "coordinates": [
                    16.68421,
                    54.36475
                ]
            },
            "properties": {
                "ref:rspo": 18496,
                "official_name": "Przedszkole Niepubliczne \"Radosny Maluch\"",
                "name": "Przedszkole Niepubliczne \"Radosny Maluch\"",
                "addr:country": "PL",
                "addr:postcode": "76-100",
                "addr:city": "S\u0142awno",
                "addr:street": "ul. Gda\u0144ska",
                "addr:housenumber": "24",
                "addr:teryt:simc": 5431,
                "addr:teryt:sym_ul": 977410,
                "contact:phone": "+48 668380200",
                "contact:email": "biuro@goldenamber.pl",
                "ref:regon": "321277919",
                "ref:vatin": "PL8391197866",
                "operator": "Joanna Marcinkowska",
                "operator:type": "private",
                "amenity": "kindergarten"
            }
        },
        {
            "id": 16751,
            "type": "Feature",
            "geometry": {
                "type": "Point",
                "coordinates": [
                    16.67829,
                    54.36517
                ]
            },
            "properties": {
                "ref:rspo": 16751,
                "official_name": "Przedszkole Nr 1 im. Kubusia Puchatka",
                "name": "Przedszkole Nr 1",
                "addr:country": "PL",
                "addr:postcode": "76-100",
                "addr:city": "S\u0142awno",
                "addr:street": "al. Aleja Wojska Polskiego",
                "addr:housenumber": "2",
                "addr:teryt:simc": 33790,
                "addr:teryt:sym_ul": 977410,
                "contact:phone": "+48 598107880",
                "contact:email": "przedszkole1slawno@wp.pl",
                "contact:website": "http:\/\/przedszkole1.slawno.pl",
                "ref:regon": "320594776",
                "ref:vatin": "PL4990583214",
                "operator": "Miasto S\u0142awno",
                "operator:type": "government",
                "amenity": "kindergarten"
            }
        },
        {
            "id": 60724,
            "type": "Feature",
            "geometry": {
                "type": "Point",
                "coordinates": [
                    16.6721,
                    54.36529
                ]
            },
            "properties": {
                "ref:rspo": 60724,
                "official_name": "\"Mgm\" Sp\u00f3\u0142ka Z O.o. Nadmorskie Centrum Edukacji Zawodowej w S\u0142awnie",
                "name": "\"Mgm\" Sp\u00f3\u0142ka Z O.o. Nadmorskie Centrum Edukacji Zawodowej w S\u0142awnie",
                "addr:country": "PL",
                "addr:postcode": "76-100",
                "addr:city": "S\u0142awno",
                "addr:street": "al. Aleja Wojska Polskiego",
                "addr:housenumber": "23",
                "addr:teryt:simc": 33790,
                "addr:teryt:sym_ul": 977410,
                "contact:phone": "+48 598104489",
                "contact:email": "knap@knap.pl",
                "contact:website": "http:\/\/knap.pl",
                "ref:regon": "321293373",
                "ref:vatin": "PL8390203659",
                "operator": "\"Mgm\" Sp\u00f3\u0142ka Z Ograniczon\u0105 Odpowiedzialno\u015bci\u0105",
                "operator:type": "private",
                "fixme": "w zale\u017cno\u015bci od przedmiotu dzia\u0142alno\u015bci (np. amenity=training + training=*, amenity=dancing_school, amenity=language_school, amenity=music_school)"
            }
        },
        {
            "id": 56739,
            "type": "Feature",
            "geometry": {
                "type": "Point",
                "coordinates": [
                    16.68018,
                    54.36916
                ]
            },
            "properties": {
                "ref:rspo": 56739,
                "official_name": "Zesp\u00f3\u0142 Szk\u00f3\u0142 Agrotechnicznych w S\u0142awnie",
                "name": "Zesp\u00f3\u0142 Szk\u00f3\u0142 Agrotechnicznych w S\u0142awnie",
                "addr:country": "PL",
                "addr:postcode": "76-100",
                "addr:city": "S\u0142awno",
                "addr:street": "ul. Stefanii Sempo\u0142owskiej",
                "addr:housenumber": "2",
                "addr:teryt:simc": 19674,
                "addr:teryt:sym_ul": 977410,
                "contact:phone": "+48 598107010",
                "contact:email": "zsa@zsaslawno.pl",
                "contact:website": "http:\/\/zsaslawno.pl",
                "ref:regon": "000097005",
                "ref:vatin": "PL8391989490",
                "operator": "Powiat S\u0142awie\u0144ski",
                "operator:type": "government",
                "landuse": "education",
                "fixme": "amenity=school, amenity=college albo landuse=education w zale\u017cno\u015bci od tego, jakie plac\u00f3wki wchodz\u0105 w sk\u0142ad zespo\u0142u. Sprawd\u017a, kiedy stosowa\u0107 amenity=* a kiedy landuse=education.",
                "note": "Children RSPO: 84494;104257;277216"
            }
        },
        {
            "id": 84494,
            "type": "Feature",
            "geometry": {
                "type": "Point",
                "coordinates": [
                    16.68018,
                    54.36913
                ]
            },
            "properties": {
                "isced:level": "3",
                "ref:rspo": 84494,
                "official_name": "Technikum",
                "name": "Technikum",
                "addr:country": "PL",
                "addr:postcode": "76-100",
                "addr:city": "S\u0142awno",
                "addr:street": "ul. Stefanii Sempo\u0142owskiej",
                "addr:housenumber": "2",
                "addr:teryt:simc": 19674,
                "addr:teryt:sym_ul": 977410,
                "contact:phone": "+48 598107010",
                "contact:email": "zsa@zsaslawno.pl",
                "contact:website": "http:\/\/zsaslawno.pl",
                "ref:regon": "331453410",
                "operator": "Powiat S\u0142awie\u0144ski",
                "operator:type": "government",
                "amenity": "school",
                "note": "Parent RSPO: 56739"
            }
        },
        {
            "id": 104257,
            "type": "Feature",
            "geometry": {
                "type": "Point",
                "coordinates": [
                    16.68018,
                    54.3691
                ]
            },
            "properties": {
                "isced:level": "3",
                "ref:rspo": 104257,
                "official_name": "Bran\u017cowa Szko\u0142a I Stopnia",
                "name": "Bran\u017cowa Szko\u0142a I Stopnia",
                "addr:country": "PL",
                "addr:postcode": "76-100",
                "addr:city": "S\u0142awno",
                "addr:street": "ul. Stefanii Sempo\u0142owskiej",
                "addr:housenumber": "2",
                "addr:teryt:simc": 19674,
                "addr:teryt:sym_ul": 977410,
                "contact:phone": "+48 598107010",
                "contact:email": "zsa@zsaslawno.pl",
                "contact:website": "http:\/\/zsaslawno.pl",
                "ref:regon": "331359466",
                "operator": "Powiat S\u0142awie\u0144ski",
                "operator:type": "government",
                "amenity": "school",
                "note": "Parent RSPO: 56739"
            }
        },
        {
            "id": 277216,
            "type": "Feature",
            "geometry": {
                "type": "Point",
                "coordinates": [
                    16.68018,
                    54.36907
                ]
            },
            "properties": {
                "isced:level": "3",
                "ref:rspo": 277216,
                "official_name": "Bran\u017cowa Szko\u0142a II Stopnia w Zespole Szk\u00f3\u0142 Agrotechnicznych w S\u0142awnie",
                "name": "Bran\u017cowa Szko\u0142a II Stopnia w Zespole Szk\u00f3\u0142 Agrotechnicznych w S\u0142awnie",
                "addr:country": "PL",
                "addr:postcode": "76-100",
                "addr:city": "S\u0142awno",
                "addr:street": "ul. Stefanii Sempo\u0142owskiej",
                "addr:housenumber": "2",
                "addr:teryt:simc": 19674,
                "addr:teryt:sym_ul": 977410,
                "contact:phone": "+48 598107010",
                "contact:email": "zsa@zsaslawno.pl",
                "contact:website": "http:\/\/www.zsaslawno.pl",
                "ref:regon": "388383463",
                "operator": "Powiat S\u0142awie\u0144ski",
                "operator:type": "government",
                "amenity": "school",
                "note": "Parent RSPO: 56739"
            }
        },
        {
            "id": 19067,
            "type": "Feature",
            "geometry": {
                "type": "Point",
                "coordinates": [
                    16.67978,
                    54.36966
                ]
            },
            "properties": {
                "isced:level": "1;2",
                "ref:rspo": 19067,
                "official_name": "Szko\u0142a Podstawowa Nr 3",
                "name": "Szko\u0142a Podstawowa Nr 3",
                "addr:country": "PL",
                "addr:postcode": "76-100",
                "addr:city": "S\u0142awno",
                "addr:street": "ul. Stefanii Sempo\u0142owskiej",
                "addr:housenumber": "3",
                "addr:teryt:simc": 19674,
                "addr:teryt:sym_ul": 977410,
                "contact:phone": "+48 598107380",
                "contact:email": "sekretariat@sp3.slawno.pl",
                "contact:website": "http:\/\/www.spp3.slawno.pl",
                "ref:regon": "000908060",
                "ref:vatin": "PL8391769392",
                "operator": "Miasto S\u0142awno",
                "operator:type": "government",
                "amenity": "school"
            }
        }
    ]
}