{
    "type": "FeatureCollection",
    "features": [
        {
            "id": 92849,
            "type": "Feature",
            "geometry": {
                "type": "Point",
                "coordinates": [
                    15.79295,
                    51.06363
                ]
            },
            "properties": {
                "isced:level": "1;2",
                "ref:rspo": 92849,
                "official_name": "Szko\u0142a Podstawowa im. W\u0142odzimierza Puchalskiego w Proboszczowie",
                "name": "Szko\u0142a Podstawowa",
                "addr:postcode": "59-524",
                "addr:place": "Proboszcz\u00f3w",
                "addr:housenumber": "107",
                "addr:teryt:simc": 366422,
                "phone": "+48 768775031",
                "email": "ulapanek@op.pl",
                "website": "http:\/\/www.spproboszczow.pl",
                "ref:regon": "001239625",
                "ref:vatin": "PL6941581618",
                "operator": "Gmina Pielgrzymka",
                "operator:type": "government",
                "amenity": "school"
            }
        },
        {
            "id": 93182,
            "type": "Feature",
            "geometry": {
                "type": "Point",
                "coordinates": [
                    15.77465,
                    51.09639
                ]
            },
            "properties": {
                "ref:rspo": 93182,
                "official_name": "Gminne Przedszkole w Twardocicach",
                "name": "Gminne Przedszkole w Twardocicach",
                "addr:postcode": "59-524",
                "addr:place": "Twardocice",
                "addr:housenumber": "53",
                "addr:teryt:simc": 366445,
                "phone": "+48 768775082",
                "email": "sekretariat@twardocice.pl",
                "website": "http:\/\/www.gp.twardocice.pl",
                "ref:regon": "021166589",
                "ref:vatin": "PL6941667998",
                "operator": "Gmina Pielgrzymka",
                "operator:type": "government",
                "amenity": "kindergarten"
            }
        },
        {
            "id": 263662,
            "type": "Feature",
            "geometry": {
                "type": "Point",
                "coordinates": [
                    15.77465,
                    51.09636
                ]
            },
            "properties": {
                "isced:level": "1;2",
                "ref:rspo": 263662,
                "official_name": "Szko\u0142a Podstawowa im. Jana Paw\u0142a II w Pielgrzymce Filia w Twardocicach",
                "name": "Szko\u0142a Podstawowa",
                "addr:postcode": "59-524",
                "addr:place": "Twardocice",
                "addr:housenumber": "53",
                "addr:teryt:simc": 366445,
                "phone": "+48 768775082",
                "email": "osppielgrzym@poczta.onet.pl",
                "ref:regon": "581646000",
                "operator": "Gmina Pielgrzymka",
                "operator:type": "government",
                "amenity": "school",
                "note": "Parent RSPO: 92852"
            }
        },
        {
            "id": 92852,
            "type": "Feature",
            "geometry": {
                "type": "Point",
                "coordinates": [
                    15.81802,
                    51.12004
                ]
            },
            "properties": {
                "isced:level": "1;2",
                "ref:rspo": 92852,
                "official_name": "Szko\u0142a Podstawowa im. Jana Paw\u0142a II w Pielgrzymce",
                "name": "Szko\u0142a Podstawowa",
                "addr:postcode": "59-524",
                "addr:place": "Pielgrzymka",
                "addr:housenumber": "109A",
                "addr:teryt:simc": 366416,
                "phone": "+48 768775094",
                "email": "osppielgrzym@poczta.onet.pl",
                "ref:regon": "000581646",
                "ref:vatin": "PL6941581630",
                "operator": "Gmina Pielgrzymka",
                "operator:type": "government",
                "amenity": "school",
                "note": "Children RSPO: 263659;263662"
            }
        },
        {
            "id": 263659,
            "type": "Feature",
            "geometry": {
                "type": "Point",
                "coordinates": [
                    15.7793476,
                    51.1477065
                ]
            },
            "properties": {
                "isced:level": "1;2",
                "ref:rspo": 263659,
                "official_name": "Szko\u0142a Podstawowa im. Jana Paw\u0142a II w Pielgrzymce Filia w Nowej Wsi Grodziskiej",
                "name": "Szko\u0142a Podstawowa",
                "addr:postcode": "59-524",
                "addr:place": "Nowa Wie\u015b Grodziska",
                "addr:housenumber": "67",
                "addr:teryt:simc": 366385,
                "phone": "+48 768775225",
                "email": "sp_nwg@o2.pl",
                "ref:regon": "581646000",
                "operator": "Gmina Pielgrzymka",
                "operator:type": "government",
                "amenity": "school",
                "note": "Parent RSPO: 92852"
            }
        },
        {
            "id": 92851,
            "type": "Feature",
            "geometry": {
                "type": "Point",
                "coordinates": [
                    15.73063,
                    51.16275
                ]
            },
            "properties": {
                "isced:level": "1;2",
                "ref:rspo": 92851,
                "official_name": "Szko\u0142a Podstawowa w S\u0119dzimirowie",
                "name": "Szko\u0142a Podstawowa w S\u0119dzimirowie",
                "addr:postcode": "59-524",
                "addr:place": "S\u0119dzimir\u00f3w",
                "addr:housenumber": "46",
                "addr:teryt:simc": 366439,
                "phone": "+48 768775296",
                "email": "sp.sedzimirow@wp.pl",
                "ref:regon": "022026360",
                "ref:vatin": "PL6941559292",
                "operator": "Stowarzyszenie Na Rzecz Rozwoju Wsi S\u0119dzimir\u00f3w",
                "operator:type": "ngo",
                "amenity": "school"
            }
        }
    ]
}