{"type":"FeatureCollection","features":[{"id":25581,"type":"Feature","geometry":{"type":"Point","coordinates":[15.94772,51.08383]},"properties":{"isced:level":"1;2","ref:rspo":25581,"official_name":"Szko\u0142a Podstawowa im. Stanis\u0142awa Staszica w Wilkowie-Osiedlu","name":"Szko\u0142a Podstawowa","addr:country":"PL","addr:postcode":"59-500","addr:city":"Wilk\u00f3w-Osiedle","addr:street":"ul. Szkolna","addr:housenumber":"6","addr:teryt:simc":21970,"addr:teryt:sym_ul":368734,"contact:phone":"+48 768783272","contact:email":"sp_wilkow@wp.pl","contact:website":"http:\/\/www.sp.wilkow-osiedle.pl","ref:regon":"000271058","ref:vatin":"PL6941066684","operator":"Gmina Z\u0142otoryja","operator:type":"government","amenity":"school"}},{"id":120598,"type":"Feature","geometry":{"type":"Point","coordinates":[15.94772,51.0838]},"properties":{"ref:rspo":120598,"official_name":"Punkt Przedszkolny w Wilkowie- Osiedlu","name":"Punkt Przedszkolny w Wilkowie- Osiedlu","addr:country":"PL","addr:postcode":"59-500","addr:city":"Wilk\u00f3w-Osiedle","addr:street":"ul. Szkolna","addr:housenumber":"6","addr:teryt:simc":21970,"addr:teryt:sym_ul":368734,"contact:phone":"+48 768783272","contact:email":"sp_wilkow@wp.pl","ref:regon":"022272247","operator":"Gmina Z\u0142otoryja","operator:type":"government","amenity":"kindergarten"}},{"id":105081,"type":"Feature","geometry":{"type":"Point","coordinates":[15.88846,51.11234]},"properties":{"ref:rspo":105081,"official_name":"Zak\u0142ad Poprawczy w Jerzmanicach - Zdroju","name":"Zak\u0142ad Poprawczy w Jerzmanicach - Zdroju","addr:country":"PL","addr:postcode":"59-500","addr:place":"Jerzmanice-Zdr\u00f3j","addr:housenumber":"20","addr:teryt:sym_ul":368533,"contact:phone":"+48 768783858","contact:email":"sekretariat@jerzmanice.zp.gov.pl","contact:website":"http:\/\/www.jerzmanice.zp.gov.pl","ref:regon":"000325400","operator":"Ministerstwo Sprawiedliwo\u015bci","operator:type":"public","note":"Children RSPO: 124921;124923"}},{"id":124921,"type":"Feature","geometry":{"type":"Point","coordinates":[15.88846,51.11231]},"properties":{"isced:level":"1;2","ref:rspo":124921,"official_name":"Szko\u0142a Podstawowa w Zak\u0142adzie Poprawczym w Jerzmanicach Zdroju","name":"Szko\u0142a Podstawowa w Zak\u0142adzie Poprawczym w Jerzmanicach Zdroju","addr:country":"PL","addr:postcode":"59-500","addr:place":"Jerzmanice-Zdr\u00f3j","addr:housenumber":"20","addr:teryt:sym_ul":368533,"contact:phone":"+48 768783858","contact:email":"sekretariat@jerzmanice.zp.gov.pl","contact:website":"http:\/\/www.jerzmanice.zp.gov.pl\/","ref:regon":"391035751","operator":"Ministerstwo Sprawiedliwo\u015bci","operator:type":"public","amenity":"school","note":"Parent RSPO: 105081"}},{"id":124923,"type":"Feature","geometry":{"type":"Point","coordinates":[15.88846,51.112280000000005]},"properties":{"isced:level":"3","ref:rspo":124923,"official_name":"Bran\u017cowa Szko\u0142a I Stopnia w Zak\u0142adzie Poprawczym w Jerzmanicach Zdroju","name":"Bran\u017cowa Szko\u0142a I Stopnia w Zak\u0142adzie Poprawczym w Jerzmanicach Zdroju","addr:country":"PL","addr:postcode":"59-500","addr:place":"Jerzmanice-Zdr\u00f3j","addr:housenumber":"20","addr:teryt:sym_ul":368533,"contact:phone":"+48 768783858","contact:email":"sekretariat@jerzmanice.zp.gov.pl","contact:website":"http:\/\/www.jerzmanice.zp.gov.pl\/","ref:regon":"391035745","operator":"Ministerstwo Sprawiedliwo\u015bci","operator:type":"public","amenity":"school","note":"Parent RSPO: 105081"}},{"id":25578,"type":"Feature","geometry":{"type":"Point","coordinates":[15.98285,51.12857]},"properties":{"isced:level":"1;2","ref:rspo":25578,"official_name":"Szko\u0142a Podstawowa w Rokitnicy","name":"Szko\u0142a Podstawowa w Rokitnicy","addr:country":"PL","addr:postcode":"59-500","addr:place":"Rokitnica","addr:housenumber":"35","addr:teryt:sym_ul":368680,"contact:phone":"+48 768783122","contact:email":"szkola.rokitnica@zlotoryja.com.pl","contact:website":"http:\/\/www.sp-rokitnica.pl","ref:regon":"001240338","ref:vatin":"PL6941519536","operator":"Gmina Z\u0142otoryja","operator:type":"government","amenity":"school"}},{"id":120595,"type":"Feature","geometry":{"type":"Point","coordinates":[15.98285,51.12854]},"properties":{"ref:rspo":120595,"official_name":"Punkt Przedszkolny w Rokitnicy","name":"Punkt Przedszkolny w Rokitnicy","addr:country":"PL","addr:postcode":"59-500","addr:place":"Rokitnica","addr:housenumber":"35","addr:teryt:sym_ul":368680,"contact:phone":"+48 768783122","contact:email":"sekretariat.rokitnica1@op.pl","ref:regon":"022272141","operator":"Gmina Z\u0142otoryja","operator:type":"government","amenity":"kindergarten"}},{"id":25577,"type":"Feature","geometry":{"type":"Point","coordinates":[15.9922,51.17809]},"properties":{"isced:level":"1;2","ref:rspo":25577,"official_name":"Szko\u0142a Podstawowa w Giera\u0142towcu","name":"Szko\u0142a Podstawowa w Giera\u0142towcu","addr:country":"PL","addr:postcode":"59-500","addr:place":"Giera\u0142towiec","addr:housenumber":"42","addr:teryt:sym_ul":368510,"contact:phone":"+48 768781523","contact:email":"spgieraltowiec@vp.pl","contact:website":"http:\/\/www.spgieraltowiec.edupage.org","ref:regon":"001240166","ref:vatin":"PL6941071320","operator":"Gmina Z\u0142otoryja","operator:type":"government","amenity":"school"}},{"id":120593,"type":"Feature","geometry":{"type":"Point","coordinates":[15.9922,51.178059999999995]},"properties":{"ref:rspo":120593,"official_name":"Punkt Przedszkolny w Giera\u0142towcu","name":"Punkt Przedszkolny w Giera\u0142towcu","addr:country":"PL","addr:postcode":"59-500","addr:place":"Giera\u0142towiec","addr:housenumber":"42","addr:teryt:sym_ul":368510,"contact:phone":"+48 768781523","contact:email":"spgieraltowiec@vp.pl","ref:regon":"022272187","operator":"Gmina Z\u0142otoryja","operator:type":"government","amenity":"kindergarten"}}]}