{
    "type": "FeatureCollection",
    "features": [
        {
            "id": 35137,
            "type": "Feature",
            "geometry": {
                "type": "Point",
                "coordinates": [
                    20.51698,
                    49.97198
                ]
            },
            "properties": {
                "ref:rspo": 35137,
                "official_name": "Zesp\u00f3\u0142 Szkolno-Przedszkolny w \u0141azach",
                "name": "Zesp\u00f3\u0142 Szkolno-Przedszkolny w \u0141azach",
                "addr:postcode": "32-765",
                "addr:place": "\u0141azy",
                "addr:housenumber": "50",
                "addr:city:simc": 830167,
                "phone": "+48 146851541",
                "email": "poczta@psplazy.pl",
                "website": "https:\/\/zsplazy.szkolnastrona.pl",
                "ref:regon": "852744577",
                "operator": "Gmina Rzezawa",
                "operator:type": "government",
                "landuse": "education",
                "fixme": "amenity=school, amenity=college albo landuse=education w zale\u017cno\u015bci od tego, jakie plac\u00f3wki wchodz\u0105 w sk\u0142ad zespo\u0142u. Sprawd\u017a, kiedy stosowa\u0107 amenity=* a kiedy landuse=education.",
                "note": "Children RSPO: 43963;43969"
            }
        },
        {
            "id": 43963,
            "type": "Feature",
            "geometry": {
                "type": "Point",
                "coordinates": [
                    20.51698,
                    49.97195
                ]
            },
            "properties": {
                "ref:rspo": 43963,
                "official_name": "Zesp\u00f3\u0142 Szkolno - Przedszkolny Publiczne Przedszkole w \u0141azach",
                "name": "Zesp\u00f3\u0142 Szkolno - Przedszkolny Publiczne Przedszkole w \u0141azach",
                "addr:postcode": "32-765",
                "addr:place": "\u0141azy",
                "addr:housenumber": "50",
                "addr:city:simc": 830167,
                "phone": "+48 146851541",
                "email": "poczta@psplazy.pl",
                "website": "https:\/\/zsplazy.szkolnastrona.pl",
                "ref:regon": "852717793",
                "ref:vatin": "PL8681767208",
                "operator": "Gmina Rzezawa",
                "operator:type": "government",
                "amenity": "kindergarten",
                "note": "Parent RSPO: 35137"
            }
        },
        {
            "id": 43969,
            "type": "Feature",
            "geometry": {
                "type": "Point",
                "coordinates": [
                    20.51698,
                    49.971920000000004
                ]
            },
            "properties": {
                "isced:level": "1;2",
                "ref:rspo": 43969,
                "official_name": "Zesp\u00f3\u0142 Szkolno - Przedszkolny Publiczna Szko\u0142a Podstawowa im. \u015aw. Jana Paw\u0142a II w \u0141azach",
                "name": "Zesp\u00f3\u0142 Szkolno - Przedszkolny Publiczna Szko\u0142a Podstawowa",
                "addr:postcode": "32-765",
                "addr:place": "\u0141azy",
                "addr:housenumber": "50",
                "addr:city:simc": 830167,
                "phone": "+48 146851541",
                "email": "poczta@psplazy.pl",
                "website": "https:\/\/zsplazy.szkolnastrona.pl",
                "ref:regon": "001188589",
                "ref:vatin": "PL8681675541",
                "operator": "Gmina Rzezawa",
                "operator:type": "government",
                "amenity": "school",
                "note": "Parent RSPO: 35137"
            }
        },
        {
            "id": 35195,
            "type": "Feature",
            "geometry": {
                "type": "Point",
                "coordinates": [
                    20.50428,
                    49.98373
                ]
            },
            "properties": {
                "ref:rspo": 35195,
                "official_name": "Publiczne Przedszkole w Krzeczowie",
                "name": "Publiczne Przedszkole w Krzeczowie",
                "addr:postcode": "32-700",
                "addr:city": "Krzecz\u00f3w",
                "addr:street": "Szkolna",
                "addr:housenumber": "2",
                "addr:city:simc": 830121,
                "addr:street:sym_ul": 21970,
                "phone": "+48 146858300",
                "email": "ppkrzeczow200@wp.pl",
                "ref:regon": "850520431",
                "ref:vatin": "PL8681675446",
                "operator": "Gmina Rzezawa",
                "operator:type": "government",
                "amenity": "kindergarten"
            }
        },
        {
            "id": 39016,
            "type": "Feature",
            "geometry": {
                "type": "Point",
                "coordinates": [
                    20.50428,
                    49.9837
                ]
            },
            "properties": {
                "isced:level": "1;2",
                "ref:rspo": 39016,
                "official_name": "Publiczna Szko\u0142a Podstawowa im. Janusza Korczaka w Krzeczowie",
                "name": "Publiczna Szko\u0142a Podstawowa",
                "addr:postcode": "32-700",
                "addr:city": "Krzecz\u00f3w",
                "addr:street": "Szkolna",
                "addr:housenumber": "2",
                "addr:city:simc": 830121,
                "addr:street:sym_ul": 21970,
                "phone": "+48 146858200",
                "email": "pspkrzeczow200@interia.pl",
                "website": "https:\/\/pspkrzeczow.edupage.org\/",
                "ref:regon": "001188572",
                "ref:vatin": "PL8681675682",
                "operator": "Gmina Rzezawa",
                "operator:type": "government",
                "amenity": "school"
            }
        },
        {
            "id": 69179,
            "type": "Feature",
            "geometry": {
                "type": "Point",
                "coordinates": [
                    20.51614,
                    49.98781
                ]
            },
            "properties": {
                "isced:level": "1;2",
                "ref:rspo": 69179,
                "official_name": "Publiczna Szko\u0142a Podstawowa im. \u015aw. Jadwigi Kr\u00f3lowej w Rzezawie",
                "name": "Publiczna Szko\u0142a Podstawowa",
                "addr:postcode": "32-765",
                "addr:city": "Rzezawa",
                "addr:street": "Szkolna",
                "addr:housenumber": "11",
                "addr:city:simc": 830240,
                "addr:street:sym_ul": 21970,
                "phone": "+48 146127832",
                "email": "sprzezawa@gmail.com",
                "website": "http:\/\/www.sprzezawa.szkolnastrona.pl",
                "ref:regon": "001188603",
                "ref:vatin": "PL8681675274",
                "operator": "Gmina Rzezawa",
                "operator:type": "government",
                "amenity": "school"
            }
        },
        {
            "id": 35116,
            "type": "Feature",
            "geometry": {
                "type": "Point",
                "coordinates": [
                    20.51616,
                    49.98859
                ]
            },
            "properties": {
                "ref:rspo": 35116,
                "official_name": "Publiczne Przedszkole w Rzezawie",
                "name": "Publiczne Przedszkole w Rzezawie",
                "addr:postcode": "32-765",
                "addr:city": "Rzezawa",
                "addr:street": "Szkolna",
                "addr:housenumber": "11a",
                "addr:city:simc": 830240,
                "addr:street:sym_ul": 21970,
                "phone": "+48 792001798",
                "email": "pprz1@op.pl",
                "ref:regon": "850520336",
                "ref:vatin": "PL8681675340",
                "operator": "Gmina Rzezawa",
                "operator:type": "government",
                "amenity": "kindergarten"
            }
        },
        {
            "id": 35141,
            "type": "Feature",
            "geometry": {
                "type": "Point",
                "coordinates": [
                    20.5130899,
                    49.99001
                ]
            },
            "properties": {
                "ref:rspo": 35141,
                "official_name": "Przedszkole Niepubliczne Ochronka \u015aw. J\u00f3zefa Ss S\u0142u\u017cebniczek Nmp Np w Rzezawie",
                "name": "Przedszkole Niepubliczne Ochronka \u015aw. J\u00f3zefa Ss S\u0142u\u017cebniczek Nmp Np w Rzezawie",
                "addr:postcode": "32-765",
                "addr:city": "Rzezawa",
                "addr:street": "Wi\u015bniowa",
                "addr:housenumber": "1",
                "addr:city:simc": 830240,
                "addr:street:sym_ul": 24412,
                "phone": "+48 146858520",
                "email": "siostryrzezawa@poczta.fm",
                "ref:regon": "122692093",
                "ref:vatin": "PL8681751762",
                "operator": "Zgromadzenie Si\u00f3str S\u0142u\u017cebniczek Naj\u015bwi\u0119tszej Maryi Panny Niepokalanie Pocz\u0119tej Prowincja Tarnowska",
                "operator:type": "religious",
                "amenity": "kindergarten"
            }
        },
        {
            "id": 35130,
            "type": "Feature",
            "geometry": {
                "type": "Point",
                "coordinates": [
                    20.53912,
                    49.99012
                ]
            },
            "properties": {
                "isced:level": "1;2",
                "ref:rspo": 35130,
                "official_name": "Publiczna Szko\u0142a Podstawowa im. Rotmistrza Witolda Pileckiego w Jod\u0142\u00f3wce",
                "name": "Publiczna Szko\u0142a Podstawowa",
                "addr:postcode": "32-765",
                "addr:place": "Jod\u0142\u00f3wka",
                "addr:housenumber": "274",
                "addr:city:simc": 830090,
                "phone": "+48 146858450",
                "email": "pspjodlowka@op.pl",
                "website": "http:\/\/www.pspjodlowka.szkolnastrona.pl",
                "ref:regon": "001188566",
                "ref:vatin": "PL8681675587",
                "operator": "Gmina Rzezawa",
                "operator:type": "government",
                "amenity": "school"
            }
        },
        {
            "id": 35126,
            "type": "Feature",
            "geometry": {
                "type": "Point",
                "coordinates": [
                    20.54457,
                    49.9925
                ]
            },
            "properties": {
                "ref:rspo": 35126,
                "official_name": "Publiczne Przedszkole w Jod\u0142\u00f3wce",
                "name": "Publiczne Przedszkole w Jod\u0142\u00f3wce",
                "addr:postcode": "32-765",
                "addr:place": "Jod\u0142\u00f3wka",
                "addr:housenumber": "145",
                "addr:city:simc": 830090,
                "phone": "+48 146858222",
                "email": "przedszkolejodlowka@o2.pl",
                "website": "http:\/\/www.przedszkolejodlowka.szkolnastrona.pl",
                "ref:regon": "850520365",
                "ref:vatin": "PL8681675386",
                "operator": "Gmina Rzezawa",
                "operator:type": "government",
                "amenity": "kindergarten"
            }
        },
        {
            "id": 35135,
            "type": "Feature",
            "geometry": {
                "type": "Point",
                "coordinates": [
                    20.52837,
                    50.01605
                ]
            },
            "properties": {
                "ref:rspo": 35135,
                "official_name": "Zesp\u00f3\u0142 Szkolno-Przedszkolny w Borku",
                "name": "Zesp\u00f3\u0142 Szkolno-Przedszkolny w Borku",
                "addr:postcode": "32-765",
                "addr:place": "Borek",
                "addr:housenumber": "148",
                "addr:city:simc": 829885,
                "phone": "+48 146129816",
                "email": "borek148@wp.pl",
                "website": "http:\/\/zspborek.szkolnastrona.pl",
                "ref:regon": "852744525",
                "operator": "Gmina Rzezawa",
                "operator:type": "government",
                "landuse": "education",
                "fixme": "amenity=school, amenity=college albo landuse=education w zale\u017cno\u015bci od tego, jakie plac\u00f3wki wchodz\u0105 w sk\u0142ad zespo\u0142u. Sprawd\u017a, kiedy stosowa\u0107 amenity=* a kiedy landuse=education.",
                "note": "Children RSPO: 41999;42472"
            }
        },
        {
            "id": 41999,
            "type": "Feature",
            "geometry": {
                "type": "Point",
                "coordinates": [
                    20.52837,
                    50.01602
                ]
            },
            "properties": {
                "ref:rspo": 41999,
                "official_name": "Zesp\u00f3\u0142 Szkolno-Przedszkolny Publiczne Przedszkole w Borku",
                "name": "Zesp\u00f3\u0142 Szkolno-Przedszkolny Publiczne Przedszkole w Borku",
                "addr:postcode": "32-765",
                "addr:place": "Borek",
                "addr:housenumber": "148",
                "addr:city:simc": 829885,
                "phone": "+48 146129816",
                "email": "borek148@wp.pl",
                "website": "http:\/\/www.zspborek.szkolnastrona.pl",
                "ref:regon": "850520402",
                "ref:vatin": "PL8681675475",
                "operator": "Gmina Rzezawa",
                "operator:type": "government",
                "amenity": "kindergarten",
                "note": "Parent RSPO: 35135"
            }
        },
        {
            "id": 42472,
            "type": "Feature",
            "geometry": {
                "type": "Point",
                "coordinates": [
                    20.52837,
                    50.01599
                ]
            },
            "properties": {
                "isced:level": "1;2",
                "ref:rspo": 42472,
                "official_name": "Zesp\u00f3\u0142 Szkolno - Przedszkolny Publiczna Szko\u0142a Podstawowa im. \u015aw. Kingi w Borku",
                "name": "Zesp\u00f3\u0142 Szkolno - Przedszkolny Publiczna Szko\u0142a Podstawowa",
                "addr:postcode": "32-765",
                "addr:place": "Borek",
                "addr:housenumber": "148",
                "addr:city:simc": 829885,
                "phone": "+48 146129816",
                "email": "borek148@wp.pl",
                "website": "http:\/\/www.zspborek.szkolnastrona.pl",
                "ref:regon": "001189130",
                "ref:vatin": "PL8681675647",
                "operator": "Gmina Rzezawa",
                "operator:type": "government",
                "amenity": "school",
                "note": "Parent RSPO: 35135"
            }
        },
        {
            "id": 35143,
            "type": "Feature",
            "geometry": {
                "type": "Point",
                "coordinates": [
                    20.49636,
                    50.02068
                ]
            },
            "properties": {
                "isced:level": "1;2",
                "ref:rspo": 35143,
                "official_name": "Publiczna Szko\u0142a Podstawowa Z Oddzia\u0142em Przedszkolnym w Ostrowie Kr\u00f3lewskim",
                "name": "Publiczna Szko\u0142a Podstawowa Z Oddzia\u0142em Przedszkolnym w Ostrowie Kr\u00f3lewskim",
                "addr:postcode": "32-765",
                "addr:place": "Ostr\u00f3w Kr\u00f3lewski",
                "addr:housenumber": "48",
                "addr:city:simc": 830227,
                "phone": "+48 146859580",
                "email": "ostrowk@op.pl",
                "website": "http:\/\/spostrowkrolewski.blogspot.com\/",
                "ref:regon": "122689375",
                "ref:vatin": "PL8681787352",
                "operator": "Stowarzyszenie Rozwoju Wsi Ostr\u00f3w Kr\u00f3lewski",
                "operator:type": "ngo",
                "amenity": "school"
            }
        },
        {
            "id": 35122,
            "type": "Feature",
            "geometry": {
                "type": "Point",
                "coordinates": [
                    20.5809,
                    50.02679
                ]
            },
            "properties": {
                "ref:rspo": 35122,
                "official_name": "Zesp\u00f3\u0142 Szkolno - Przedszkolny Publiczne Przedszkole Z Oddzia\u0142em Integracyjnym w D\u0105br\u00f3wce Z Oddzia\u0142em Zamiejscowym w Bratucicach",
                "name": "Zesp\u00f3\u0142 Szkolno - Przedszkolny Publiczne Przedszkole Z Oddzia\u0142em Integracyjnym w D\u0105br\u00f3wce Z Oddzia\u0142em Zamiejscowym w Bratucicach",
                "addr:postcode": "32-712",
                "addr:place": "D\u0105br\u00f3wka",
                "addr:housenumber": "2",
                "addr:city:simc": 830049,
                "phone": "+48 146851080",
                "email": "szkoladabrowka@onet.eu",
                "website": "http:\/\/www.zspdabrowka.pl",
                "ref:regon": "850520359",
                "ref:vatin": "PL8681675498",
                "operator": "Gmina Rzezawa",
                "operator:type": "government",
                "amenity": "kindergarten",
                "note": "Parent RSPO: 268526"
            }
        },
        {
            "id": 268526,
            "type": "Feature",
            "geometry": {
                "type": "Point",
                "coordinates": [
                    20.5594499,
                    50.03313
                ]
            },
            "properties": {
                "ref:rspo": 268526,
                "official_name": "Zesp\u00f3\u0142 Szkolno - Przedszkolny w D\u0105br\u00f3wce",
                "name": "Zesp\u00f3\u0142 Szkolno - Przedszkolny w D\u0105br\u00f3wce",
                "addr:postcode": "32-712",
                "addr:place": "D\u0105br\u00f3wka",
                "addr:housenumber": "1",
                "addr:city:simc": 830049,
                "phone": "+48 146851080",
                "email": "sekretariat@zspdabrowka.pl",
                "website": "http:\/\/www.zspdabrowka.pl",
                "ref:regon": "381200040",
                "operator": "Gmina Rzezawa",
                "operator:type": "government",
                "landuse": "education",
                "fixme": "amenity=school, amenity=college albo landuse=education w zale\u017cno\u015bci od tego, jakie plac\u00f3wki wchodz\u0105 w sk\u0142ad zespo\u0142u. Sprawd\u017a, kiedy stosowa\u0107 amenity=* a kiedy landuse=education.",
                "note": "Children RSPO: 35122;42856"
            }
        },
        {
            "id": 42856,
            "type": "Feature",
            "geometry": {
                "type": "Point",
                "coordinates": [
                    20.5594499,
                    50.0331
                ]
            },
            "properties": {
                "isced:level": "1;2",
                "ref:rspo": 42856,
                "official_name": "Zesp\u00f3\u0142 Szkolno - Przedszkolny Publiczna Szko\u0142a Podstawowa im. Prymasa Stefana Kardyna\u0142a Wyszy\u0144skiego w D\u0105br\u00f3wce",
                "name": "Zesp\u00f3\u0142 Szkolno - Przedszkolny Publiczna Szko\u0142a Podstawowa",
                "addr:postcode": "32-712",
                "addr:place": "D\u0105br\u00f3wka",
                "addr:housenumber": "1",
                "addr:city:simc": 830049,
                "phone": "+48 146851080",
                "email": "szkoladabrowka@onet.eu",
                "website": "http:\/\/www.zspdabrowka.pl",
                "ref:regon": "001189146",
                "ref:vatin": "PL8681675676",
                "operator": "Gmina Rzezawa",
                "operator:type": "government",
                "amenity": "school",
                "note": "Parent RSPO: 268526"
            }
        },
        {
            "id": 35121,
            "type": "Feature",
            "geometry": {
                "type": "Point",
                "coordinates": [
                    20.53059,
                    50.05981
                ]
            },
            "properties": {
                "isced:level": "1;2",
                "ref:rspo": 35121,
                "official_name": "Publiczna Szko\u0142a Podstawowa im. Gen. Leopolda Okulickiego w Okulicach",
                "name": "Publiczna Szko\u0142a Podstawowa",
                "addr:postcode": "32-712",
                "addr:place": "Okulice",
                "addr:housenumber": "51",
                "addr:city:simc": 830196,
                "phone": "+48 146120975",
                "email": "pspokulice@xl.wp.pl",
                "website": "http:\/\/www.pspokulice.szkolnastrona.pl",
                "ref:regon": "001188595",
                "ref:vatin": "PL8681675618",
                "operator": "Gmina Rzezawa",
                "operator:type": "government",
                "amenity": "school"
            }
        },
        {
            "id": 35138,
            "type": "Feature",
            "geometry": {
                "type": "Point",
                "coordinates": [
                    20.53672,
                    50.06089
                ]
            },
            "properties": {
                "ref:rspo": 35138,
                "official_name": "Ochronka Zgromadzenia Si\u00f3str S\u0142u\u017cebniczek Bdnp Niepubliczne Przedszkole w Okulicach",
                "name": "Ochronka Zgromadzenia Si\u00f3str S\u0142u\u017cebniczek Bdnp Niepubliczne Przedszkole w Okulicach",
                "addr:postcode": "32-712",
                "addr:place": "Okulice",
                "addr:housenumber": "1",
                "addr:city:simc": 830196,
                "phone": "+48 146851058",
                "ref:regon": "122692153",
                "ref:vatin": "PL8681709754",
                "operator": "Zg.ss.s\u0142u\u017cebniczek Bdnp, Prowincja Krakowska",
                "operator:type": "religious",
                "amenity": "kindergarten"
            }
        }
    ]
}