{
    "type": "FeatureCollection",
    "features": [
        {
            "id": 40179,
            "type": "Feature",
            "geometry": {
                "type": "Point",
                "coordinates": [
                    20.42415,
                    49.96112
                ]
            },
            "properties": {
                "ref:rspo": 40179,
                "official_name": "Poradnia Psychologiczno - Pedagogiczna im. Stefana Szumana w Bochni",
                "name": "Poradnia Psychologiczno - Pedagogiczna",
                "addr:postcode": "32-700",
                "addr:city": "Bochnia",
                "addr:street": "Genera\u0142a Henryka D\u0105browskiego",
                "addr:housenumber": "1B",
                "addr:city:simc": 981682,
                "addr:street:sym_ul": 3673,
                "phone": "+48 146123691",
                "email": "ppp@powiat.bochnia.pl",
                "ref:regon": "852538731",
                "ref:vatin": "PL8681609030",
                "operator": "Powiat Boche\u0144ski",
                "operator:type": "government",
                "healthcare": "counselling",
                "counselling_type": "education",
                "fixme": "w zale\u017cno\u015bci od przedmiotu dzia\u0142alno\u015bci (np. healthcare=counselling + counselling_type=education albo healthcare=psychotherapist)"
            }
        },
        {
            "id": 24920,
            "type": "Feature",
            "geometry": {
                "type": "Point",
                "coordinates": [
                    20.42415,
                    49.96109
                ]
            },
            "properties": {
                "ref:rspo": 24920,
                "official_name": "Biblioteka Pedagogiczna w Tarnowie Filia w Bochni",
                "name": "Biblioteka Pedagogiczna w Tarnowie Filia w Bochni",
                "addr:postcode": "32-700",
                "addr:city": "Bochnia",
                "addr:street": "Genera\u0142a Henryka D\u0105browskiego",
                "addr:housenumber": "1B",
                "addr:city:simc": 981682,
                "addr:street:sym_ul": 3673,
                "phone": "+48 146123354",
                "email": "bochnia@bpt.edu.pl",
                "website": "http:\/\/www.bpt.edu.pl",
                "ref:regon": "850002311",
                "operator": "Wojew\u00f3dztwo Ma\u0142opolskie",
                "operator:type": "government",
                "amenity": "library",
                "note": "Parent RSPO: 18897"
            }
        },
        {
            "id": 129725,
            "type": "Feature",
            "geometry": {
                "type": "Point",
                "coordinates": [
                    20.41423,
                    49.96301
                ]
            },
            "properties": {
                "ref:rspo": 129725,
                "official_name": "Ochronka Parafii \u015aw. Paw\u0142a Aposto\u0142a Niepubliczne Przedszkole w Bochni",
                "name": "Ochronka Parafii \u015aw. Paw\u0142a Aposto\u0142a Niepubliczne Przedszkole w Bochni",
                "addr:postcode": "32-700",
                "addr:city": "Bochnia",
                "addr:street": "Stanis\u0142awa Wyspia\u0144skiego",
                "addr:housenumber": "25a",
                "addr:city:simc": 981682,
                "addr:street:sym_ul": 25084,
                "phone": "+48 799097098",
                "email": "ochronka.parafia@gmail.com",
                "ref:regon": "362793282",
                "operator": "Parafia Rzym.-Kat. Pw. \u015awi\u0119tego Paw\u0142a Aposto\u0142a",
                "operator:type": "religious",
                "amenity": "kindergarten"
            }
        },
        {
            "id": 38878,
            "type": "Feature",
            "geometry": {
                "type": "Point",
                "coordinates": [
                    20.42202,
                    49.9641499
                ]
            },
            "properties": {
                "isced:level": "1;2",
                "ref:rspo": 38878,
                "official_name": "Szko\u0142a Podstawowa nr 5 im.jana Matejki w Bochni",
                "name": "Szko\u0142a Podstawowa nr 5 im.jana Matejki w Bochni",
                "addr:postcode": "32-700",
                "addr:city": "Bochnia",
                "addr:street": "Kazimierza Wielkiego",
                "addr:housenumber": "71",
                "addr:city:simc": 981682,
                "addr:street:sym_ul": 8265,
                "phone": "+48 146122391",
                "email": "bochnia@ps5.pl",
                "website": "http:\/\/ps5.pl",
                "ref:regon": "001202177",
                "ref:vatin": "PL8681678404",
                "operator": "Gmina Miasta Bochnia",
                "operator:type": "government",
                "amenity": "school"
            }
        },
        {
            "id": 38879,
            "type": "Feature",
            "geometry": {
                "type": "Point",
                "coordinates": [
                    20.4105,
                    49.96526
                ]
            },
            "properties": {
                "isced:level": "1;2",
                "ref:rspo": 38879,
                "official_name": "Szko\u0142a Podstawowa nr 7 im.jana Paw\u0142a II w Bochni",
                "name": "Szko\u0142a Podstawowa nr 7 im.jana Paw\u0142a II w Bochni",
                "addr:postcode": "32-700",
                "addr:city": "Bochnia",
                "addr:street": "Genera\u0142a Tadeusza Jakubowskiego",
                "addr:housenumber": "12",
                "addr:city:simc": 981682,
                "addr:street:sym_ul": 7087,
                "phone": "+48 146126163",
                "email": "sekretariat@psp7bochnia.edu.pl",
                "ref:regon": "005690104",
                "ref:vatin": "PL8681673950",
                "operator": "Gmina Miasta Bochnia",
                "operator:type": "government",
                "amenity": "school"
            }
        },
        {
            "id": 38881,
            "type": "Feature",
            "geometry": {
                "type": "Point",
                "coordinates": [
                    20.4105,
                    49.96523
                ]
            },
            "properties": {
                "ref:rspo": 38881,
                "official_name": "Miejskie Przedszkole nr 1 w Bochni",
                "name": "Miejskie Przedszkole nr 1 w Bochni",
                "addr:postcode": "32-700",
                "addr:city": "Bochnia",
                "addr:street": "Genera\u0142a Tadeusza Jakubowskiego",
                "addr:housenumber": "12",
                "addr:city:simc": 981682,
                "addr:street:sym_ul": 7087,
                "phone": "+48 146126094",
                "email": "cieslakatarzyna@wp.pl",
                "ref:regon": "120724564",
                "ref:vatin": "PL8681900044",
                "operator": "Gmina Miasta Bochnia",
                "operator:type": "government",
                "amenity": "kindergarten"
            }
        },
        {
            "id": 38890,
            "type": "Feature",
            "geometry": {
                "type": "Point",
                "coordinates": [
                    20.44179,
                    49.96539
                ]
            },
            "properties": {
                "ref:rspo": 38890,
                "official_name": "Miejskie Przedszkole nr 6 w Bochni",
                "name": "Miejskie Przedszkole nr 6 w Bochni",
                "addr:postcode": "32-700",
                "addr:city": "Bochnia",
                "addr:street": "Murowianka",
                "addr:housenumber": "28",
                "addr:city:simc": 981682,
                "addr:street:sym_ul": 13498,
                "phone": "+48 146123816",
                "email": "przedszkole@przedszkole6.bochnia.org",
                "ref:regon": "850454906",
                "ref:vatin": "PL8681673944",
                "operator": "Gmina Miasta Bochnia",
                "operator:type": "government",
                "amenity": "kindergarten"
            }
        },
        {
            "id": 44641,
            "type": "Feature",
            "geometry": {
                "type": "Point",
                "coordinates": [
                    20.42305,
                    49.9654
                ]
            },
            "properties": {
                "ref:rspo": 44641,
                "official_name": "Specjalny O\u015brodek Szkolno - Wychowawczy im. Ks. Jana Twardowskiego w Bochni",
                "name": "Specjalny O\u015brodek Szkolno - Wychowawczy",
                "addr:postcode": "32-700",
                "addr:city": "Bochnia",
                "addr:street": "Kazimierza Wielkiego",
                "addr:housenumber": "67",
                "addr:city:simc": 981682,
                "addr:street:sym_ul": 8265,
                "phone": "+48 146122665",
                "email": "soswbochnia@interia.pl",
                "ref:regon": "850285177",
                "ref:vatin": "PL8681020248",
                "operator": "Powiat Boche\u0144ski",
                "operator:type": "government",
                "amenity": "school",
                "note": "Children RSPO: 66698;66700;66701;67674"
            }
        },
        {
            "id": 66698,
            "type": "Feature",
            "geometry": {
                "type": "Point",
                "coordinates": [
                    20.42305,
                    49.96537
                ]
            },
            "properties": {
                "ref:rspo": 66698,
                "official_name": "Szko\u0142a Specjalna Przysposobiaj\u0105ca do Pracy w Specjalnym O\u015brodku Szkolno - Wychowawczym im. Ks. J. Twardowskiego w Bochni",
                "name": "Szko\u0142a Specjalna Przysposobiaj\u0105ca do Pracy w Specjalnym O\u015brodku Szkolno - Wychowawczym",
                "addr:postcode": "32-700",
                "addr:city": "Bochnia",
                "addr:street": "Kazimierza Wielkiego",
                "addr:housenumber": "67",
                "addr:city:simc": 981682,
                "addr:street:sym_ul": 8265,
                "phone": "+48 146122665",
                "email": "sosw@powiat.bochnia.pl",
                "website": "http:\/\/www.sosw.bochnia.pl",
                "ref:regon": "120754128",
                "operator": "Powiat Boche\u0144ski",
                "operator:type": "government",
                "amenity": "school",
                "note": "Parent RSPO: 44641"
            }
        },
        {
            "id": 66700,
            "type": "Feature",
            "geometry": {
                "type": "Point",
                "coordinates": [
                    20.42305,
                    49.965340000000005
                ]
            },
            "properties": {
                "ref:rspo": 66700,
                "official_name": "Przedszkole Specjalne nr 7 w Specjalnym O\u015brodku Szkolno - Wychowawczym im. Ks. J. Twardowskiego w Bochni",
                "name": "Przedszkole Specjalne nr 7 w Specjalnym O\u015brodku Szkolno - Wychowawczym",
                "addr:postcode": "32-700",
                "addr:city": "Bochnia",
                "addr:street": "Kazimierza Wielkiego",
                "addr:housenumber": "67",
                "addr:city:simc": 981682,
                "addr:street:sym_ul": 8265,
                "phone": "+48 146122665",
                "email": "sosw@powiat.bochnia.pl",
                "website": "http:\/\/www.sosw.bochnia.pl",
                "ref:regon": "121861642",
                "operator": "Powiat Boche\u0144ski",
                "operator:type": "government",
                "amenity": "kindergarten",
                "note": "Parent RSPO: 44641"
            }
        },
        {
            "id": 66701,
            "type": "Feature",
            "geometry": {
                "type": "Point",
                "coordinates": [
                    20.42305,
                    49.96531
                ]
            },
            "properties": {
                "isced:level": "1;2",
                "ref:rspo": 66701,
                "official_name": "Szko\u0142a Podstawowa Specjalna w Specjalnym O\u015brodku Szkolno - Wychowawczym im. Ks. J. Twardowskiego w Bochni",
                "name": "Szko\u0142a Podstawowa Specjalna w Specjalnym O\u015brodku Szkolno - Wychowawczym",
                "addr:postcode": "32-700",
                "addr:city": "Bochnia",
                "addr:street": "Kazimierza Wielkiego",
                "addr:housenumber": "67",
                "addr:city:simc": 981682,
                "addr:street:sym_ul": 8265,
                "phone": "+48 146122665",
                "email": "sosw@powiat.bochnia.pl",
                "website": "http:\/\/www.sosw.bochnia.pl",
                "ref:regon": "120110460",
                "operator": "Powiat Boche\u0144ski",
                "operator:type": "government",
                "amenity": "school",
                "note": "Parent RSPO: 44641"
            }
        },
        {
            "id": 67674,
            "type": "Feature",
            "geometry": {
                "type": "Point",
                "coordinates": [
                    20.42305,
                    49.96528
                ]
            },
            "properties": {
                "isced:level": "3",
                "ref:rspo": 67674,
                "official_name": "Bran\u017cowa Szko\u0142a Specjalna I Stopnia w Specjalnym O\u015brodku Szkolno - Wychowawczym im. Ks. J. Twardowskiego w Bochni",
                "name": "Bran\u017cowa Szko\u0142a Specjalna I Stopnia w Specjalnym O\u015brodku Szkolno - Wychowawczym",
                "addr:postcode": "32-700",
                "addr:city": "Bochnia",
                "addr:street": "Kazimierza Wielkiego",
                "addr:housenumber": "67",
                "addr:city:simc": 981682,
                "addr:street:sym_ul": 8265,
                "phone": "+48 146122665",
                "email": "soswbochnia@interia.pl",
                "ref:regon": "120110425",
                "operator": "Powiat Boche\u0144ski",
                "operator:type": "government",
                "amenity": "school",
                "note": "Parent RSPO: 44641"
            }
        },
        {
            "id": 6808,
            "type": "Feature",
            "geometry": {
                "type": "Point",
                "coordinates": [
                    20.42115,
                    49.96543
                ]
            },
            "properties": {
                "ref:rspo": 6808,
                "official_name": "Zesp\u00f3\u0142 Szk\u00f3\u0142 nr 3 im. Ks. Prof. J\u00f3zefa Tischnera",
                "name": "Zesp\u00f3\u0142 Szk\u00f3\u0142 nr 3",
                "addr:postcode": "32-700",
                "addr:city": "Bochnia",
                "addr:street": "Krakowska",
                "addr:housenumber": "20",
                "addr:city:simc": 981682,
                "addr:street:sym_ul": 9796,
                "phone": "+48 146122779",
                "email": "zs3@powiat.bochnia.pl",
                "website": "http:\/\/www.zs3.bochnia.pl",
                "ref:regon": "000180522",
                "ref:vatin": "PL8681021673",
                "operator": "Powiat Boche\u0144ski",
                "operator:type": "government",
                "landuse": "education",
                "fixme": "amenity=school, amenity=college albo landuse=education w zale\u017cno\u015bci od tego, jakie plac\u00f3wki wchodz\u0105 w sk\u0142ad zespo\u0142u. Sprawd\u017a, kiedy stosowa\u0107 amenity=* a kiedy landuse=education.",
                "note": "Children RSPO: 8971;9007;9322;34582;276440"
            }
        },
        {
            "id": 8971,
            "type": "Feature",
            "geometry": {
                "type": "Point",
                "coordinates": [
                    20.42115,
                    49.965399999999995
                ]
            },
            "properties": {
                "isced:level": "3",
                "ref:rspo": 8971,
                "official_name": "Technikum nr 3 w Zespole Szk\u00f3\u0142 nr 3 im. Ks. Prof. J\u00f3zefa Tischnera w Bochni, Ul. Krakowska 20",
                "name": "Technikum nr 3 w Zespole Szk\u00f3\u0142 nr 3",
                "addr:postcode": "32-700",
                "addr:city": "Bochnia",
                "addr:street": "Krakowska",
                "addr:housenumber": "20",
                "addr:city:simc": 981682,
                "addr:street:sym_ul": 9796,
                "phone": "+48 146122779",
                "email": "zs3@powiat.bochnia.pl",
                "website": "http:\/\/www.zs3.bochnia.pl",
                "ref:regon": "852645059",
                "operator": "Powiat Boche\u0144ski",
                "operator:type": "government",
                "amenity": "school",
                "note": "Parent RSPO: 6808"
            }
        },
        {
            "id": 9007,
            "type": "Feature",
            "geometry": {
                "type": "Point",
                "coordinates": [
                    20.42115,
                    49.96537
                ]
            },
            "properties": {
                "isced:level": "3",
                "ref:rspo": 9007,
                "official_name": "Bran\u017cowa Szko\u0142a I Stopnia nr 3 w Zespole Szk\u00f3\u0142 nr 3 im. Ks.prof. J\u00f3zefa Tischnera w Bochni, Ul. Krakowska 20",
                "name": "Bran\u017cowa Szko\u0142a I Stopnia nr 3 w Zespole Szk\u00f3\u0142 nr 3",
                "addr:postcode": "32-700",
                "addr:city": "Bochnia",
                "addr:street": "Krakowska",
                "addr:housenumber": "20",
                "addr:city:simc": 981682,
                "addr:street:sym_ul": 9796,
                "phone": "+48 146122779",
                "email": "zs3@powiat.bochnia.pl",
                "website": "http:\/\/www.zs3.bochnia.pl",
                "ref:regon": "852645094",
                "operator": "Powiat Boche\u0144ski",
                "operator:type": "government",
                "amenity": "school",
                "note": "Parent RSPO: 6808"
            }
        },
        {
            "id": 9322,
            "type": "Feature",
            "geometry": {
                "type": "Point",
                "coordinates": [
                    20.42115,
                    49.96534
                ]
            },
            "properties": {
                "isced:level": "3",
                "ref:rspo": 9322,
                "official_name": "I Liceum Og\u00f3lnokszta\u0142c\u0105ce dla Doros\u0142ych w Zespole Szk\u00f3\u0142 nr 3 im. Ks. Prof. J\u00f3zefa Tischnera w Bochni, Ul. Krakowska 20",
                "name": "I Liceum Og\u00f3lnokszta\u0142c\u0105ce dla Doros\u0142ych w Zespole Szk\u00f3\u0142 nr 3",
                "addr:postcode": "32-700",
                "addr:city": "Bochnia",
                "addr:street": "Krakowska",
                "addr:housenumber": "20",
                "addr:city:simc": 981682,
                "addr:street:sym_ul": 9796,
                "phone": "+48 146122779",
                "email": "zs3@powiat.bochnia.pl",
                "website": "http:\/\/www.zs3.bochnia.pl",
                "ref:regon": "122651289",
                "operator": "Powiat Boche\u0144ski",
                "operator:type": "government",
                "amenity": "school",
                "note": "Parent RSPO: 6808"
            }
        },
        {
            "id": 34582,
            "type": "Feature",
            "geometry": {
                "type": "Point",
                "coordinates": [
                    20.42115,
                    49.965309999999995
                ]
            },
            "properties": {
                "isced:level": "4",
                "ref:rspo": 34582,
                "official_name": "Szko\u0142a Policealna Pracownik\u00f3w S\u0142u\u017cb Medycznych I Spo\u0142ecznych dla Doros\u0142ych",
                "name": "Szko\u0142a Policealna Pracownik\u00f3w S\u0142u\u017cb Medycznych I Spo\u0142ecznych dla Doros\u0142ych",
                "addr:postcode": "32-700",
                "addr:city": "Bochnia",
                "addr:street": "Krakowska",
                "addr:housenumber": "20",
                "addr:city:simc": 981682,
                "addr:street:sym_ul": 9796,
                "phone": "+48 146122779",
                "email": "zs3@powiat.bochnia.pl",
                "website": "http:\/\/www.zs3.bochnia.pl",
                "ref:regon": "122607874",
                "ref:vatin": "PL8681960075",
                "operator": "Powiat Boche\u0144ski",
                "operator:type": "government",
                "amenity": "college",
                "note": "Parent RSPO: 6808"
            }
        },
        {
            "id": 276440,
            "type": "Feature",
            "geometry": {
                "type": "Point",
                "coordinates": [
                    20.42115,
                    49.96528
                ]
            },
            "properties": {
                "isced:level": "3",
                "ref:rspo": 276440,
                "official_name": "Bran\u017cowa Szko\u0142a II Stopnia nr 2 w Zespole Szk\u00f3\u0142 nr 3 im. Ks. Prof. J\u00f3zefa Tischnera w Bochni",
                "name": "Bran\u017cowa Szko\u0142a II Stopnia nr 2 w Zespole Szk\u00f3\u0142 nr 3",
                "addr:postcode": "32-700",
                "addr:city": "Bochnia",
                "addr:street": "Krakowska",
                "addr:housenumber": "20",
                "addr:city:simc": 981682,
                "addr:street:sym_ul": 9796,
                "phone": "+48 146122779",
                "email": "zs3@powiat.bochnia.pl",
                "website": "http:\/\/www.zs3.bochnia.pl",
                "ref:regon": "387144526",
                "operator": "Powiat Boche\u0144ski",
                "operator:type": "government",
                "amenity": "school",
                "note": "Parent RSPO: 6808"
            }
        },
        {
            "id": 125212,
            "type": "Feature",
            "geometry": {
                "type": "Point",
                "coordinates": [
                    20.44904,
                    49.9656499
                ]
            },
            "properties": {
                "ref:rspo": 125212,
                "official_name": "Domowe Przedszkole",
                "name": "Domowe Przedszkole",
                "addr:postcode": "32-700",
                "addr:city": "Bochnia",
                "addr:street": "Brze\u017anicka",
                "addr:housenumber": "55D",
                "addr:door": "5",
                "addr:city:simc": 981682,
                "addr:street:sym_ul": 2254,
                "phone": "+48 607757967",
                "email": "domoweprzedszkole@interia.pl",
                "ref:regon": "123212669",
                "ref:vatin": "PL5272703830",
                "operator": "Domowe Przedszkole Sp\u00f3\u0142ka Z Ograniczon\u0105 Odpowiedzialno\u015bci\u0105",
                "operator:type": "private",
                "amenity": "kindergarten"
            }
        },
        {
            "id": 38883,
            "type": "Feature",
            "geometry": {
                "type": "Point",
                "coordinates": [
                    20.41254,
                    49.966
                ]
            },
            "properties": {
                "ref:rspo": 38883,
                "official_name": "Miejskie Przedszkole nr 2 w Bochni",
                "name": "Miejskie Przedszkole nr 2 w Bochni",
                "addr:postcode": "32-700",
                "addr:city": "Bochnia",
                "addr:street": "Legion\u00f3w Polskich",
                "addr:housenumber": "8",
                "addr:city:simc": 981682,
                "addr:street:sym_ul": 10775,
                "phone": "+48 513108734",
                "email": "przedszkole2bochnia@gmail.com",
                "website": "https:\/\/przedszkole2bochnia.edupage.org\/",
                "ref:regon": "850454852",
                "ref:vatin": "PL8681307582",
                "operator": "Gmina Miasta Bochnia",
                "operator:type": "government",
                "amenity": "kindergarten"
            }
        },
        {
            "id": 34581,
            "type": "Feature",
            "geometry": {
                "type": "Point",
                "coordinates": [
                    20.41675,
                    49.96683
                ]
            },
            "properties": {
                "ref:rspo": 34581,
                "official_name": "Zesp\u00f3\u0142 Szk\u00f3\u0142 nr 1 im. Stanis\u0142awa Staszica w Bochni",
                "name": "Zesp\u00f3\u0142 Szk\u00f3\u0142 nr 1",
                "addr:postcode": "32-700",
                "addr:city": "Bochnia",
                "addr:street": "Edwarda Windakiewicza",
                "addr:housenumber": "23",
                "addr:city:simc": 981682,
                "addr:street:sym_ul": 24335,
                "phone": "+48 146122603",
                "email": "zs1@powiat.bochnia.pl",
                "ref:regon": "000185146",
                "ref:vatin": "PL8681020219",
                "operator": "Powiat Boche\u0144ski",
                "operator:type": "government",
                "landuse": "education",
                "fixme": "amenity=school, amenity=college albo landuse=education w zale\u017cno\u015bci od tego, jakie plac\u00f3wki wchodz\u0105 w sk\u0142ad zespo\u0142u. Sprawd\u017a, kiedy stosowa\u0107 amenity=* a kiedy landuse=education.",
                "note": "Children RSPO: 48680;62395;62396"
            }
        },
        {
            "id": 48680,
            "type": "Feature",
            "geometry": {
                "type": "Point",
                "coordinates": [
                    20.41675,
                    49.9668
                ]
            },
            "properties": {
                "isced:level": "3",
                "ref:rspo": 48680,
                "official_name": "Iv Liceum Og\u00f3lnokszta\u0142c\u0105ce w Zespole Szk\u00f3\u0142 nr 1 im. Stanis\u0142awa Staszica w Bochni, Ul. Windakiewicza 23",
                "name": "Iv Liceum Og\u00f3lnokszta\u0142c\u0105ce w Zespole Szk\u00f3\u0142 nr 1",
                "addr:postcode": "32-700",
                "addr:city": "Bochnia",
                "addr:street": "Edwarda Windakiewicza",
                "addr:housenumber": "23",
                "addr:city:simc": 981682,
                "addr:street:sym_ul": 24335,
                "phone": "+48 146122603",
                "email": "zs1@powiat.bochnia.pl",
                "ref:regon": "852713909",
                "operator": "Powiat Boche\u0144ski",
                "operator:type": "government",
                "amenity": "school",
                "note": "Parent RSPO: 34581"
            }
        },
        {
            "id": 62395,
            "type": "Feature",
            "geometry": {
                "type": "Point",
                "coordinates": [
                    20.41675,
                    49.966770000000004
                ]
            },
            "properties": {
                "isced:level": "3",
                "ref:rspo": 62395,
                "official_name": "Technikum nr 1 w Zespole Szk\u00f3\u0142 nr 1 im. Stanis\u0142awa Staszica w Bochni, Ul. Windakiewicza 23",
                "name": "Technikum nr 1 w Zespole Szk\u00f3\u0142 nr 1",
                "addr:postcode": "32-700",
                "addr:city": "Bochnia",
                "addr:street": "Edwarda Windakiewicza",
                "addr:housenumber": "23",
                "addr:city:simc": 981682,
                "addr:street:sym_ul": 24335,
                "phone": "+48 146122603",
                "email": "zs1@powiat.bochnia.pl",
                "ref:regon": "852713915",
                "operator": "Powiat Boche\u0144ski",
                "operator:type": "government",
                "amenity": "school",
                "note": "Parent RSPO: 34581"
            }
        },
        {
            "id": 62396,
            "type": "Feature",
            "geometry": {
                "type": "Point",
                "coordinates": [
                    20.41675,
                    49.96674
                ]
            },
            "properties": {
                "isced:level": "3",
                "ref:rspo": 62396,
                "official_name": "Bran\u017cowa Szko\u0142a I Stopnia nr 1 w Zespole Szk\u00f3\u0142 nr 1 im. Stanis\u0142awa Staszica w Bochni, Ul. Windakiewicza 23",
                "name": "Bran\u017cowa Szko\u0142a I Stopnia nr 1 w Zespole Szk\u00f3\u0142 nr 1",
                "addr:postcode": "32-700",
                "addr:city": "Bochnia",
                "addr:street": "Edwarda Windakiewicza",
                "addr:housenumber": "23",
                "addr:city:simc": 981682,
                "addr:street:sym_ul": 24335,
                "phone": "+48 146122603",
                "email": "zs1@powiat.bochnia.pl",
                "website": "http:\/\/www.zs1.bochnia.pl",
                "ref:regon": "852715506",
                "operator": "Powiat Boche\u0144ski",
                "operator:type": "government",
                "amenity": "school",
                "note": "Parent RSPO: 34581"
            }
        },
        {
            "id": 119881,
            "type": "Feature",
            "geometry": {
                "type": "Point",
                "coordinates": [
                    20.4064799,
                    49.96696
                ]
            },
            "properties": {
                "ref:rspo": 119881,
                "official_name": "Niepubliczne Przedszkole \"Ma\u0142y Odkrywca\" w Bochni Urszula Goli\u0144ska",
                "name": "Niepubliczne Przedszkole \"Ma\u0142y Odkrywca\" w Bochni Urszula Goli\u0144ska",
                "addr:postcode": "32-700",
                "addr:city": "Bochnia",
                "addr:street": "Pu\u0142kownika J\u00f3zefa Serugi",
                "addr:housenumber": "25",
                "addr:city:simc": 981682,
                "addr:street:sym_ul": 30338,
                "phone": "+48 793390119",
                "email": "przedszkole@malyodkrywca.eu",
                "ref:regon": "122943626",
                "operator": "Urszula Goli\u0144ska",
                "operator:type": "private",
                "amenity": "kindergarten"
            }
        },
        {
            "id": 38884,
            "type": "Feature",
            "geometry": {
                "type": "Point",
                "coordinates": [
                    20.4306899,
                    49.96723
                ]
            },
            "properties": {
                "ref:rspo": 38884,
                "official_name": "Miejskie Przedszkole \"G\u00f3rniczy K\u0105cik\" nr 3 w Bochni",
                "name": "Miejskie Przedszkole \"G\u00f3rniczy K\u0105cik\" nr 3 w Bochni",
                "addr:postcode": "32-700",
                "addr:city": "Bochnia",
                "addr:street": "K\u0105cik",
                "addr:housenumber": "7",
                "addr:city:simc": 981682,
                "addr:street:sym_ul": 8281,
                "phone": "+48 146122845",
                "email": "mp3bochnia@poczta.fm",
                "ref:regon": "850454875",
                "ref:vatin": "PL8681294804",
                "operator": "Gmina Miasta Bochnia",
                "operator:type": "government",
                "amenity": "kindergarten"
            }
        },
        {
            "id": 269592,
            "type": "Feature",
            "geometry": {
                "type": "Point",
                "coordinates": [
                    20.42488,
                    49.96764
                ]
            },
            "properties": {
                "ref:rspo": 269592,
                "official_name": "Niepubliczne Ognisko Artystyczne Szko\u0142a Rysunku Zalubowski",
                "name": "Niepubliczne Ognisko Artystyczne Szko\u0142a Rysunku Zalubowski",
                "addr:postcode": "32-700",
                "addr:city": "Bochnia",
                "addr:street": "Bia\u0142a",
                "addr:housenumber": "23",
                "addr:city:simc": 981682,
                "addr:street:sym_ul": 1132,
                "phone": "+48 533458111",
                "email": "kontakt@zalubowski.pl",
                "ref:regon": "381582202",
                "operator": "Galeria Zalubowski - Rafa\u0142 Zalubowski. Eduart S.c.",
                "operator:type": "consortium",
                "fixme": "w zale\u017cno\u015bci od przedmiotu dzia\u0142alno\u015bci (np. amenity=community_centre + community_centre:for=child;juvenile, amenity=training + training=*, amenity=dancing_school, amenity=music_school),"
            }
        },
        {
            "id": 131843,
            "type": "Feature",
            "geometry": {
                "type": "Point",
                "coordinates": [
                    20.4323,
                    49.96795
                ]
            },
            "properties": {
                "ref:rspo": 131843,
                "official_name": "Przedszkole Terapeutyczne Sensori",
                "name": "Przedszkole Terapeutyczne Sensori",
                "addr:postcode": "32-700",
                "addr:city": "Bochnia",
                "addr:street": "S\u0105decka",
                "addr:housenumber": "10",
                "addr:city:simc": 981682,
                "addr:street:sym_ul": 19578,
                "email": "przedszkolesensori@gmail.com",
                "website": "http:\/\/www.przedszkolesensori.pl",
                "ref:regon": "365359356",
                "operator": "Barbara Pajor",
                "operator:type": "private",
                "amenity": "kindergarten"
            }
        },
        {
            "id": 40178,
            "type": "Feature",
            "geometry": {
                "type": "Point",
                "coordinates": [
                    20.42318,
                    49.96799
                ]
            },
            "properties": {
                "ref:rspo": 40178,
                "official_name": "Bursa Szkolna im. Polski Niepodleg\u0142ej w Bochni",
                "name": "Bursa Szkolna",
                "addr:postcode": "32-700",
                "addr:city": "Bochnia",
                "addr:street": "Ludwika Stasiaka",
                "addr:housenumber": "8",
                "addr:city:simc": 981682,
                "addr:street:sym_ul": 21051,
                "phone": "+48 146117673",
                "email": "bursa@powiat.bochnia.pl",
                "website": "http:\/\/www.bursa.bochnia.pl",
                "ref:regon": "852526254",
                "ref:vatin": "PL8681721235",
                "operator": "Powiat Boche\u0144ski",
                "operator:type": "government",
                "building": "dormitory"
            }
        },
        {
            "id": 64633,
            "type": "Feature",
            "geometry": {
                "type": "Point",
                "coordinates": [
                    20.42114,
                    49.96846
                ]
            },
            "properties": {
                "ref:rspo": 64633,
                "official_name": "Ochronka Zgromadzenia Si\u00f3str S\u0142u\u017cebniczek Bdnp Niepubliczne Przedszkole",
                "name": "Ochronka Zgromadzenia Si\u00f3str S\u0142u\u017cebniczek Bdnp Niepubliczne Przedszkole",
                "addr:postcode": "32-700",
                "addr:city": "Bochnia",
                "addr:street": "Oracka",
                "addr:housenumber": "77",
                "addr:city:simc": 981682,
                "addr:street:sym_ul": 15106,
                "phone": "+48 146123800",
                "email": "ochronka@onet.eu",
                "ref:regon": "122704488",
                "ref:vatin": "PL8681666677",
                "operator": "Zg.ss.s\u0142u\u017cebniczek Bdnp, Prowincja Krakowska",
                "operator:type": "religious",
                "amenity": "kindergarten"
            }
        },
        {
            "id": 34578,
            "type": "Feature",
            "geometry": {
                "type": "Point",
                "coordinates": [
                    20.4241,
                    49.96858
                ]
            },
            "properties": {
                "ref:rspo": 34578,
                "official_name": "Zesp\u00f3\u0142 Szk\u00f3\u0142 nr 2 im. Stanis\u0142awa Konarskiego w Bochni",
                "name": "Zesp\u00f3\u0142 Szk\u00f3\u0142 nr 2",
                "addr:postcode": "32-700",
                "addr:city": "Bochnia",
                "addr:street": "Ludwika Stasiaka",
                "addr:housenumber": "1",
                "addr:city:simc": 981682,
                "addr:street:sym_ul": 21051,
                "phone": "+48 146122730",
                "email": "zs2@powiat.bochnia.pl",
                "website": "http:\/\/www.zs2-bochnia.pl\/",
                "ref:regon": "000189517",
                "ref:vatin": "PL8681012415",
                "operator": "Powiat Boche\u0144ski",
                "operator:type": "government",
                "landuse": "education",
                "fixme": "amenity=school, amenity=college albo landuse=education w zale\u017cno\u015bci od tego, jakie plac\u00f3wki wchodz\u0105 w sk\u0142ad zespo\u0142u. Sprawd\u017a, kiedy stosowa\u0107 amenity=* a kiedy landuse=education.",
                "note": "Children RSPO: 46562;46563;262931;276442"
            }
        },
        {
            "id": 46562,
            "type": "Feature",
            "geometry": {
                "type": "Point",
                "coordinates": [
                    20.4241,
                    49.96855
                ]
            },
            "properties": {
                "isced:level": "3",
                "ref:rspo": 46562,
                "official_name": "Technikum nr 2 w Zespole Szk\u00f3\u0142 nr 2 im. Stanis\u0142awa Konarskiego w Bochni",
                "name": "Technikum nr 2 w Zespole Szk\u00f3\u0142 nr 2",
                "addr:postcode": "32-700",
                "addr:city": "Bochnia",
                "addr:street": "Ludwika Stasiaka",
                "addr:housenumber": "1",
                "addr:city:simc": 981682,
                "addr:street:sym_ul": 21051,
                "phone": "+48 146122730",
                "email": "zs2@powiat.bochnia.pl",
                "website": "http:\/\/www.zs2-bochnia.pl\/",
                "ref:regon": "852714079",
                "operator": "Powiat Boche\u0144ski",
                "operator:type": "government",
                "amenity": "school",
                "note": "Parent RSPO: 34578"
            }
        },
        {
            "id": 46563,
            "type": "Feature",
            "geometry": {
                "type": "Point",
                "coordinates": [
                    20.4241,
                    49.968520000000005
                ]
            },
            "properties": {
                "isced:level": "3",
                "ref:rspo": 46563,
                "official_name": "Bran\u017cowa Szko\u0142a I Stopnia nr 2 w Zespole Szk\u00f3\u0142 nr 2 im. Stanis\u0142awa Konarskiego w Bochni",
                "name": "Bran\u017cowa Szko\u0142a I Stopnia nr 2 w Zespole Szk\u00f3\u0142 nr 2",
                "addr:postcode": "32-700",
                "addr:city": "Bochnia",
                "addr:street": "Ludwika Stasiaka",
                "addr:housenumber": "1",
                "addr:city:simc": 981682,
                "addr:street:sym_ul": 21051,
                "phone": "+48 146122730",
                "email": "zs2@powiat.bochnia.pl",
                "website": "http:\/\/www.zs2-bochnia.pl\/",
                "ref:regon": "852714100",
                "operator": "Powiat Boche\u0144ski",
                "operator:type": "government",
                "amenity": "school",
                "note": "Parent RSPO: 34578"
            }
        },
        {
            "id": 262931,
            "type": "Feature",
            "geometry": {
                "type": "Point",
                "coordinates": [
                    20.4241,
                    49.96849
                ]
            },
            "properties": {
                "isced:level": "3",
                "ref:rspo": 262931,
                "official_name": "Ii Liceum Og\u00f3lnokszta\u0142c\u0105ce dla Doros\u0142ych w Bochni",
                "name": "Ii Liceum Og\u00f3lnokszta\u0142c\u0105ce dla Doros\u0142ych w Bochni",
                "addr:postcode": "32-700",
                "addr:city": "Bochnia",
                "addr:street": "Ludwika Stasiaka",
                "addr:housenumber": "1",
                "addr:city:simc": 981682,
                "addr:street:sym_ul": 21051,
                "phone": "+48 146122730",
                "email": "zs2@powiat.bochnia.pl",
                "website": "http:\/\/www.zs2-bochnia.pl\/",
                "ref:regon": "368075116",
                "operator": "Powiat Boche\u0144ski",
                "operator:type": "government",
                "amenity": "school",
                "note": "Parent RSPO: 34578"
            }
        },
        {
            "id": 276442,
            "type": "Feature",
            "geometry": {
                "type": "Point",
                "coordinates": [
                    20.4241,
                    49.96846
                ]
            },
            "properties": {
                "isced:level": "3",
                "ref:rspo": 276442,
                "official_name": "Bran\u017cowa Szko\u0142a II Stopnia nr 1 w Zespole Szk\u00f3\u0142 nr 2 im. Stanis\u0142awa Konarskiego w Bochni",
                "name": "Bran\u017cowa Szko\u0142a II Stopnia nr 1 w Zespole Szk\u00f3\u0142 nr 2",
                "addr:postcode": "32-700",
                "addr:city": "Bochnia",
                "addr:street": "Ludwika Stasiaka",
                "addr:housenumber": "1",
                "addr:city:simc": 981682,
                "addr:street:sym_ul": 21051,
                "phone": "+48 146122730",
                "email": "zs2@powiat.bochnia.pl",
                "ref:regon": "387144472",
                "operator": "Powiat Boche\u0144ski",
                "operator:type": "government",
                "amenity": "school",
                "note": "Parent RSPO: 34578"
            }
        },
        {
            "id": 38871,
            "type": "Feature",
            "geometry": {
                "type": "Point",
                "coordinates": [
                    20.4276899,
                    49.96861
                ]
            },
            "properties": {
                "isced:level": "1;2",
                "ref:rspo": 38871,
                "official_name": "Szko\u0142a Podstawowa nr 1 im.stanis\u0142awa Jachowicza w Bochni",
                "name": "Szko\u0142a Podstawowa nr 1 im.stanis\u0142awa Jachowicza w Bochni",
                "addr:postcode": "32-700",
                "addr:city": "Bochnia",
                "addr:street": "Bia\u0142a",
                "addr:housenumber": "2",
                "addr:city:simc": 981682,
                "addr:street:sym_ul": 1132,
                "phone": "+48 146122588",
                "email": "jachowicz@sp1bochnia.edu.pl",
                "ref:regon": "001201976",
                "ref:vatin": "PL8681679295",
                "operator": "Gmina Miasta Bochnia",
                "operator:type": "government",
                "amenity": "school"
            }
        },
        {
            "id": 124192,
            "type": "Feature",
            "geometry": {
                "type": "Point",
                "coordinates": [
                    20.42386,
                    49.96898
                ]
            },
            "properties": {
                "isced:level": "3",
                "ref:rspo": 124192,
                "official_name": "I Liceum Og\u00f3lnokszta\u0142c\u0105ce im. Kr\u00f3la Kazimierza Wlk. w Bochni",
                "name": "I Liceum Og\u00f3lnokszta\u0142c\u0105ce",
                "addr:postcode": "32-700",
                "addr:city": "Bochnia",
                "addr:street": "Plac Ksi\u0119dza Antoniego Czapli\u0144skiego",
                "addr:housenumber": "1",
                "addr:city:simc": 981682,
                "addr:street:sym_ul": 30341,
                "phone": "+48 146115062",
                "email": "1lo@powiat.bochnia.pl",
                "website": "http:\/\/www.1lo.bochnia.pl",
                "ref:regon": "123189976",
                "operator": "Powiat Boche\u0144ski",
                "operator:type": "government",
                "amenity": "school"
            }
        },
        {
            "id": 132507,
            "type": "Feature",
            "geometry": {
                "type": "Point",
                "coordinates": [
                    20.42963,
                    49.96919
                ]
            },
            "properties": {
                "ref:rspo": 132507,
                "official_name": "Zesp\u00f3\u0142 Szk\u00f3\u0142 Sigma w Bochni",
                "name": "Zesp\u00f3\u0142 Szk\u00f3\u0142 Sigma w Bochni",
                "addr:postcode": "32-700",
                "addr:city": "Bochnia",
                "addr:street": "Rynek",
                "addr:housenumber": "9",
                "addr:city:simc": 981682,
                "addr:street:sym_ul": 19252,
                "phone": "+48 733500950",
                "email": "bochnia@sigma.org.pl",
                "website": "http:\/\/www.sigma.org.pl",
                "ref:regon": "365694445",
                "operator": "Centrum Edukacji Sigma Sp\u00f3\u0142ka Z Ograniczon\u0105 Odpowiedzialno\u015bci\u0105",
                "operator:type": "private",
                "landuse": "education",
                "fixme": "amenity=school, amenity=college albo landuse=education w zale\u017cno\u015bci od tego, jakie plac\u00f3wki wchodz\u0105 w sk\u0142ad zespo\u0142u. Sprawd\u017a, kiedy stosowa\u0107 amenity=* a kiedy landuse=education.",
                "note": "Children RSPO: 129616;129617"
            }
        },
        {
            "id": 277203,
            "type": "Feature",
            "geometry": {
                "type": "Point",
                "coordinates": [
                    20.42963,
                    49.969159999999995
                ]
            },
            "properties": {
                "ref:rspo": 277203,
                "official_name": "O\u015brodek Szkoleniowy Sigma w Bochni",
                "name": "O\u015brodek Szkoleniowy Sigma w Bochni",
                "addr:postcode": "32-700",
                "addr:city": "Bochnia",
                "addr:street": "Rynek",
                "addr:housenumber": "9",
                "addr:city:simc": 981682,
                "addr:street:sym_ul": 19252,
                "phone": "+48 733500950",
                "email": "bochnia@sigma.org.pl",
                "ref:regon": "388331880",
                "operator": "Centrum Edukacji Sigma Sp\u00f3\u0142ka Z Ograniczon\u0105 Odpowiedzialno\u015bci\u0105",
                "operator:type": "private",
                "fixme": "w zale\u017cno\u015bci od przedmiotu dzia\u0142alno\u015bci (np. amenity=training + training=*, amenity=dancing_school, amenity=language_school, amenity=music_school)"
            }
        },
        {
            "id": 129616,
            "type": "Feature",
            "geometry": {
                "type": "Point",
                "coordinates": [
                    20.42963,
                    49.96913
                ]
            },
            "properties": {
                "isced:level": "4",
                "ref:rspo": 129616,
                "official_name": "Policealna Szko\u0142a Zawodowa Sigma w Bochni",
                "name": "Policealna Szko\u0142a Zawodowa Sigma w Bochni",
                "addr:postcode": "32-700",
                "addr:city": "Bochnia",
                "addr:street": "Rynek",
                "addr:housenumber": "9",
                "addr:city:simc": 981682,
                "addr:street:sym_ul": 19252,
                "phone": "+48 733500950",
                "email": "bochnia@sigma.org.pl",
                "website": "http:\/\/www.sigma.org.pl",
                "ref:regon": "362689627",
                "operator": "Centrum Edukacji Sigma Sp\u00f3\u0142ka Z Ograniczon\u0105 Odpowiedzialno\u015bci\u0105",
                "operator:type": "private",
                "amenity": "college",
                "note": "Parent RSPO: 132507"
            }
        },
        {
            "id": 129617,
            "type": "Feature",
            "geometry": {
                "type": "Point",
                "coordinates": [
                    20.42963,
                    49.9691
                ]
            },
            "properties": {
                "isced:level": "3",
                "ref:rspo": 129617,
                "official_name": "Liceum Og\u00f3lnokszta\u0142c\u0105ce dla Doros\u0142ych Sigma w Bochni",
                "name": "Liceum Og\u00f3lnokszta\u0142c\u0105ce dla Doros\u0142ych Sigma w Bochni",
                "addr:postcode": "32-700",
                "addr:city": "Bochnia",
                "addr:street": "Rynek",
                "addr:housenumber": "9",
                "addr:city:simc": 981682,
                "addr:street:sym_ul": 19252,
                "phone": "+48 733500950",
                "email": "bochnia@sigma.org.pl",
                "website": "http:\/\/www.sigma.org.pl",
                "ref:regon": "362689484",
                "operator": "Centrum Edukacji Sigma Sp\u00f3\u0142ka Z Ograniczon\u0105 Odpowiedzialno\u015bci\u0105",
                "operator:type": "private",
                "amenity": "school",
                "note": "Parent RSPO: 132507"
            }
        },
        {
            "id": 49004,
            "type": "Feature",
            "geometry": {
                "type": "Point",
                "coordinates": [
                    20.429942,
                    49.9693118
                ]
            },
            "properties": {
                "ref:rspo": 49004,
                "official_name": "Niepubliczna Poradnia Psychologiczno - Pedagogoczna \"Optimum\" w Bochni",
                "name": "Niepubliczna Poradnia Psychologiczno - Pedagogoczna \"Optimum\" w Bochni",
                "addr:postcode": "32-700",
                "addr:city": "Bochnia",
                "addr:street": "Rynek",
                "addr:housenumber": "7",
                "addr:city:simc": 981682,
                "addr:street:sym_ul": 19252,
                "phone": "+48 607336558",
                "email": "optimumbochnia@interia.pl",
                "website": "http:\/\/www.optimumbochnia.prv.pl",
                "ref:regon": "122696429",
                "operator": "Katarzyna Knapik",
                "operator:type": "private",
                "healthcare": "counselling",
                "counselling_type": "education",
                "fixme": "w zale\u017cno\u015bci od przedmiotu dzia\u0142alno\u015bci (np. healthcare=counselling + counselling_type=education albo healthcare=psychotherapist)"
            }
        },
        {
            "id": 38876,
            "type": "Feature",
            "geometry": {
                "type": "Point",
                "coordinates": [
                    20.44071,
                    49.96944
                ]
            },
            "properties": {
                "isced:level": "1;2",
                "ref:rspo": 38876,
                "official_name": "Szko\u0142a Podstawowa nr 4 im.\u015bw.barbary w Bochni",
                "name": "Szko\u0142a Podstawowa nr 4 im.\u015bw.barbary w Bochni",
                "addr:postcode": "32-700",
                "addr:city": "Bochnia",
                "addr:street": "Konfederat\u00f3w Barskich",
                "addr:housenumber": "27",
                "addr:city:simc": 981682,
                "addr:street:sym_ul": 9136,
                "phone": "+48 146122492",
                "email": "psp4bochnia@wp.pl",
                "ref:regon": "001202007",
                "ref:vatin": "PL8681680269",
                "operator": "Gmina Miasta Bochnia",
                "operator:type": "government",
                "amenity": "school"
            }
        },
        {
            "id": 32089,
            "type": "Feature",
            "geometry": {
                "type": "Point",
                "coordinates": [
                    20.44107,
                    49.96946
                ]
            },
            "properties": {
                "isced:level": "3",
                "ref:rspo": 32089,
                "official_name": "Ii Liceum Og\u00f3lnokszta\u0142c\u0105ce im. Or\u0142a Bia\u0142ego w Bochni",
                "name": "Ii Liceum Og\u00f3lnokszta\u0142c\u0105ce",
                "addr:postcode": "32-700",
                "addr:city": "Bochnia",
                "addr:street": "Konfederat\u00f3w Barskich",
                "addr:housenumber": "29",
                "addr:city:simc": 981682,
                "addr:street:sym_ul": 9136,
                "phone": "+48 146119420",
                "email": "2lo@powiat.bochnia.pl",
                "website": "http:\/\/www.2lobochnia.pl",
                "ref:regon": "851808677",
                "ref:vatin": "PL8681689170",
                "operator": "Powiat Boche\u0144ski",
                "operator:type": "government",
                "amenity": "school"
            }
        },
        {
            "id": 38875,
            "type": "Feature",
            "geometry": {
                "type": "Point",
                "coordinates": [
                    20.42443,
                    49.97043
                ]
            },
            "properties": {
                "isced:level": "1;2",
                "ref:rspo": 38875,
                "official_name": "Szko\u0142a Podstawowa nr 2 im. Kazimierza Brodzi\u0144skiego w Bochni",
                "name": "Szko\u0142a Podstawowa nr 2",
                "addr:postcode": "32-700",
                "addr:city": "Bochnia",
                "addr:street": "Oracka",
                "addr:housenumber": "6",
                "addr:city:simc": 981682,
                "addr:street:sym_ul": 15106,
                "phone": "+48 146480078",
                "email": "sp2-bochnia@wp.pl",
                "website": "http:\/\/www.sp2bochnia.aplus.pl\/",
                "ref:regon": "001201982",
                "ref:vatin": "PL8681680884",
                "operator": "Gmina Miasta Bochnia",
                "operator:type": "government",
                "amenity": "school"
            }
        },
        {
            "id": 38886,
            "type": "Feature",
            "geometry": {
                "type": "Point",
                "coordinates": [
                    20.43039,
                    49.97047
                ]
            },
            "properties": {
                "ref:rspo": 38886,
                "official_name": "Miejskie Przedszkole nr 4 \"Cztery Pory Roku\" im.marii Kownackiej w Bochni",
                "name": "Miejskie Przedszkole nr 4 \"Cztery Pory Roku\" im.marii Kownackiej w Bochni",
                "addr:postcode": "32-700",
                "addr:city": "Bochnia",
                "addr:street": "Plac Genera\u0142a Leopolda Okulickiego",
                "addr:housenumber": "2",
                "addr:city:simc": 981682,
                "addr:street:sym_ul": 14928,
                "phone": "+48 146124744",
                "email": "mp4bochnia@o2.pl",
                "ref:regon": "850454881",
                "ref:vatin": "PL8681316055",
                "operator": "Gmina Miasta Bochnia",
                "operator:type": "government",
                "amenity": "kindergarten"
            }
        },
        {
            "id": 123839,
            "type": "Feature",
            "geometry": {
                "type": "Point",
                "coordinates": [
                    20.43039,
                    49.970439999999996
                ]
            },
            "properties": {
                "ref:rspo": 123839,
                "official_name": "Zesp\u00f3\u0142 Pa\u0144stwowych Szk\u00f3\u0142 Muzycznych w Bochni",
                "name": "Zesp\u00f3\u0142 Pa\u0144stwowych Szk\u00f3\u0142 Muzycznych w Bochni",
                "addr:postcode": "32-700",
                "addr:city": "Bochnia",
                "addr:street": "Plac Genera\u0142a Leopolda Okulickiego",
                "addr:housenumber": "1",
                "addr:city:simc": 981682,
                "addr:street:sym_ul": 14928,
                "phone": "+48 146123270",
                "email": "psmsekretariat@muzycznaszkola.com",
                "website": "http:\/\/www.muzycznaszkola.com",
                "ref:regon": "123178151",
                "ref:vatin": "PL8681962619",
                "operator": "Ministerstwo Kultury I Dziedzictwa Narodowego",
                "operator:type": "government",
                "landuse": "education",
                "fixme": "amenity=school, amenity=college albo landuse=education w zale\u017cno\u015bci od tego, jakie plac\u00f3wki wchodz\u0105 w sk\u0142ad zespo\u0142u. Sprawd\u017a, kiedy stosowa\u0107 amenity=* a kiedy landuse=education.",
                "note": "Children RSPO: 75592;123886"
            }
        },
        {
            "id": 75592,
            "type": "Feature",
            "geometry": {
                "type": "Point",
                "coordinates": [
                    20.43039,
                    49.97041
                ]
            },
            "properties": {
                "ref:rspo": 75592,
                "official_name": "Pa\u0144stwowa Szko\u0142a Muzyczna I St. im. Prof. Jerzego \u017burawlewa w Bochni",
                "name": "Pa\u0144stwowa Szko\u0142a Muzyczna I St.",
                "addr:postcode": "32-700",
                "addr:city": "Bochnia",
                "addr:street": "Plac Genera\u0142a Leopolda Okulickiego",
                "addr:housenumber": "1",
                "addr:city:simc": 981682,
                "addr:street:sym_ul": 14928,
                "phone": "+48 146123270",
                "ref:regon": "000276311",
                "operator": "Ministerstwo Kultury I Dziedzictwa Narodowego",
                "operator:type": "government",
                "amenity": "music_school",
                "note": "Parent RSPO: 123839"
            }
        },
        {
            "id": 123886,
            "type": "Feature",
            "geometry": {
                "type": "Point",
                "coordinates": [
                    20.43039,
                    49.97038
                ]
            },
            "properties": {
                "ref:rspo": 123886,
                "official_name": "Pa\u0144stwowa Szko\u0142a Muzyczna II St. w Bochni",
                "name": "Pa\u0144stwowa Szko\u0142a Muzyczna II St. w Bochni",
                "addr:postcode": "32-700",
                "addr:city": "Bochnia",
                "addr:street": "Plac Genera\u0142a Leopolda Okulickiego",
                "addr:housenumber": "1",
                "addr:city:simc": 981682,
                "addr:street:sym_ul": 14928,
                "phone": "+48 146123270",
                "ref:regon": "123180604",
                "operator": "Ministerstwo Kultury I Dziedzictwa Narodowego",
                "operator:type": "government",
                "amenity": "music_school",
                "note": "Parent RSPO: 123839"
            }
        },
        {
            "id": 129622,
            "type": "Feature",
            "geometry": {
                "type": "Point",
                "coordinates": [
                    20.43007,
                    49.97079
                ]
            },
            "properties": {
                "isced:level": "4",
                "ref:rspo": 129622,
                "official_name": "Policealna Szko\u0142a w Bochni",
                "name": "Policealna Szko\u0142a w Bochni",
                "addr:postcode": "32-700",
                "addr:city": "Bochnia",
                "addr:street": "Kowalska",
                "addr:housenumber": "1-3",
                "addr:door": "11",
                "addr:city:simc": 981682,
                "addr:street:sym_ul": 9665,
                "phone": "+48 143070915",
                "email": "bochnia@szkola-torus.pl",
                "website": "http:\/\/www.szkola-torus.pl",
                "ref:regon": "362688800",
                "operator": "Ewa Piechowska",
                "operator:type": "private",
                "amenity": "college"
            }
        },
        {
            "id": 131761,
            "type": "Feature",
            "geometry": {
                "type": "Point",
                "coordinates": [
                    20.43007,
                    49.97076
                ]
            },
            "properties": {
                "isced:level": "4",
                "ref:rspo": 131761,
                "official_name": "Medyczna Szko\u0142a Policealna w Bochni",
                "name": "Medyczna Szko\u0142a Policealna w Bochni",
                "addr:postcode": "32-700",
                "addr:city": "Bochnia",
                "addr:street": "Kowalska",
                "addr:housenumber": "1-3",
                "addr:door": "11",
                "addr:city:simc": 981682,
                "addr:street:sym_ul": 9665,
                "phone": "+48 143070915",
                "email": "kielce@szkola-torus.pl",
                "ref:regon": "365344580",
                "operator": "Ewa Piechowska",
                "operator:type": "private",
                "amenity": "college"
            }
        },
        {
            "id": 44105,
            "type": "Feature",
            "geometry": {
                "type": "Point",
                "coordinates": [
                    20.43342,
                    49.97499
                ]
            },
            "properties": {
                "ref:rspo": 44105,
                "official_name": "Niepubliczne Centrum Kszta\u0142cenia w Bochni",
                "name": "Niepubliczne Centrum Kszta\u0142cenia w Bochni",
                "addr:postcode": "32-700",
                "addr:city": "Bochnia",
                "addr:street": "Pod Lipk\u0105",
                "addr:housenumber": "5",
                "addr:city:simc": 981682,
                "addr:street:sym_ul": 31304,
                "phone": "+48 146122119",
                "email": "nck_bochnia@op.pl",
                "website": "http:\/\/www.nck-bochnia.pl",
                "ref:regon": "122689843",
                "ref:vatin": "PL5521434330",
                "operator": "Agnieszka P\u0142aza",
                "operator:type": "private",
                "landuse": "education",
                "fixme": "amenity=school, amenity=college albo landuse=education w zale\u017cno\u015bci od tego, jakie plac\u00f3wki wchodz\u0105 w sk\u0142ad zespo\u0142u. Sprawd\u017a, kiedy stosowa\u0107 amenity=* a kiedy landuse=education.",
                "note": "Children RSPO: 60126;60885;61307;278120"
            }
        },
        {
            "id": 60126,
            "type": "Feature",
            "geometry": {
                "type": "Point",
                "coordinates": [
                    20.43342,
                    49.974959999999996
                ]
            },
            "properties": {
                "isced:level": "3",
                "ref:rspo": 60126,
                "official_name": "Niepubliczne Liceum Og\u00f3lnokszta\u0142c\u0105ce dla Doros\u0142ych w Bochni",
                "name": "Niepubliczne Liceum Og\u00f3lnokszta\u0142c\u0105ce dla Doros\u0142ych w Bochni",
                "addr:postcode": "32-700",
                "addr:city": "Bochnia",
                "addr:street": "Pod Lipk\u0105",
                "addr:housenumber": "5",
                "addr:city:simc": 981682,
                "addr:street:sym_ul": 31304,
                "phone": "+48 146122119",
                "email": "nck_bochnia@op.pl",
                "website": "http:\/\/www.nck.kei.pl",
                "ref:regon": "122704502",
                "operator": "Agnieszka P\u0142aza",
                "operator:type": "private",
                "amenity": "school",
                "note": "Parent RSPO: 44105"
            }
        },
        {
            "id": 60885,
            "type": "Feature",
            "geometry": {
                "type": "Point",
                "coordinates": [
                    20.43342,
                    49.97493
                ]
            },
            "properties": {
                "ref:rspo": 60885,
                "official_name": "Niepubliczna Plac\u00f3wka Kszta\u0142cenia Ustawicznego w Bochni",
                "name": "Niepubliczna Plac\u00f3wka Kszta\u0142cenia Ustawicznego w Bochni",
                "addr:postcode": "32-700",
                "addr:city": "Bochnia",
                "addr:street": "Pod Lipk\u0105",
                "addr:housenumber": "5",
                "addr:city:simc": 981682,
                "addr:street:sym_ul": 31304,
                "phone": "+48 693232288",
                "email": "nck_bochnia@op.pl",
                "website": "http:\/\/www.nck.kei.pl",
                "ref:regon": "122704560",
                "operator": "Agnieszka P\u0142aza",
                "operator:type": "private",
                "fixme": "w zale\u017cno\u015bci od przedmiotu dzia\u0142alno\u015bci (np. amenity=training + training=*, amenity=dancing_school, amenity=language_school, amenity=music_school)",
                "note": "Parent RSPO: 44105"
            }
        },
        {
            "id": 61307,
            "type": "Feature",
            "geometry": {
                "type": "Point",
                "coordinates": [
                    20.43342,
                    49.9749
                ]
            },
            "properties": {
                "isced:level": "4",
                "ref:rspo": 61307,
                "official_name": "Niepubliczna Policealna Szko\u0142a Zawodowa w Bochni",
                "name": "Niepubliczna Policealna Szko\u0142a Zawodowa w Bochni",
                "addr:postcode": "32-700",
                "addr:city": "Bochnia",
                "addr:street": "Pod Lipk\u0105",
                "addr:housenumber": "5",
                "addr:city:simc": 981682,
                "addr:street:sym_ul": 31304,
                "phone": "+48 126122119",
                "email": "nck_bochnia@op.pl",
                "website": "http:\/\/www.nck.kei.pl",
                "ref:regon": "122704519",
                "operator": "Agnieszka P\u0142aza",
                "operator:type": "private",
                "amenity": "college",
                "note": "Parent RSPO: 44105"
            }
        },
        {
            "id": 278120,
            "type": "Feature",
            "geometry": {
                "type": "Point",
                "coordinates": [
                    20.43342,
                    49.974869999999996
                ]
            },
            "properties": {
                "isced:level": "3",
                "ref:rspo": 278120,
                "official_name": "Niepubliczna Bran\u017cowa Szko\u0142a II Stopnia w Bochni",
                "name": "Niepubliczna Bran\u017cowa Szko\u0142a II Stopnia w Bochni",
                "addr:postcode": "32-700",
                "addr:city": "Bochnia",
                "addr:street": "Pod Lipk\u0105",
                "addr:housenumber": "5",
                "addr:city:simc": 981682,
                "addr:street:sym_ul": 31304,
                "phone": "+48 146122119",
                "email": "nck_bochnia@op.pl",
                "website": "http:\/\/www.nck-bochnia.pl",
                "ref:regon": "389847031",
                "operator": "Agnieszka P\u0142aza",
                "operator:type": "private",
                "amenity": "school",
                "note": "Parent RSPO: 44105"
            }
        },
        {
            "id": 262829,
            "type": "Feature",
            "geometry": {
                "type": "Point",
                "coordinates": [
                    20.4325,
                    49.975
                ]
            },
            "properties": {
                "ref:rspo": 262829,
                "official_name": "Migda\u0142owe Przedszkole",
                "name": "Migda\u0142owe Przedszkole",
                "addr:postcode": "32-700",
                "addr:city": "Bochnia",
                "addr:street": "\u015awi\u0119tego Leonarda",
                "addr:housenumber": "31",
                "addr:door": "25",
                "addr:city:simc": 981682,
                "addr:street:sym_ul": 10831,
                "email": "kontakt@migdaloweprzedszkole.pl",
                "website": "http:\/\/www.migdaloweprzedszkole.pl",
                "ref:regon": "368062378",
                "operator": "Paulina Migda\u0142",
                "operator:type": "private",
                "amenity": "kindergarten"
            }
        },
        {
            "id": 264765,
            "type": "Feature",
            "geometry": {
                "type": "Point",
                "coordinates": [
                    20.43777,
                    49.97548
                ]
            },
            "properties": {
                "ref:rspo": 264765,
                "official_name": "Lokomotywa-Niepubliczne Przedszkole w Bochni",
                "name": "Lokomotywa-Niepubliczne Przedszkole w Bochni",
                "addr:postcode": "32-700",
                "addr:city": "Bochnia",
                "addr:street": "Trudna",
                "addr:housenumber": "64",
                "addr:city:simc": 981682,
                "addr:street:sym_ul": 23028,
                "email": "bochnia@lokomotywa.net.pl",
                "website": "http:\/\/www.lokomotywa.net.pl",
                "ref:regon": "368446423",
                "operator": "Ma\u0142opolskie Centrum Edukacji Lokomotywa Sp\u00f3\u0142ka Z Ograniczon\u0105 Odpowiedzialno\u015bci\u0105",
                "operator:type": "private",
                "amenity": "kindergarten"
            }
        },
        {
            "id": 38888,
            "type": "Feature",
            "geometry": {
                "type": "Point",
                "coordinates": [
                    20.42903,
                    49.97573
                ]
            },
            "properties": {
                "ref:rspo": 38888,
                "official_name": "Miejskie Przedszkole nr 5 w Bochni",
                "name": "Miejskie Przedszkole nr 5 w Bochni",
                "addr:postcode": "32-700",
                "addr:city": "Bochnia",
                "addr:street": "Kolejowa",
                "addr:housenumber": "10",
                "addr:city:simc": 981682,
                "addr:street:sym_ul": 8828,
                "phone": "+48 146111838",
                "email": "przedszkole5.bochnia@gmail.com",
                "ref:regon": "850454898",
                "ref:vatin": "PL8681294750",
                "operator": "Gmina Miasta Bochnia",
                "operator:type": "government",
                "amenity": "kindergarten"
            }
        },
        {
            "id": 265847,
            "type": "Feature",
            "geometry": {
                "type": "Point",
                "coordinates": [
                    20.44203,
                    49.97578
                ]
            },
            "properties": {
                "ref:rspo": 265847,
                "official_name": "Niepubliczne Przedszkole \"Butterfly\" w Bochni",
                "name": "Niepubliczne Przedszkole \"Butterfly\" w Bochni",
                "addr:postcode": "32-700",
                "addr:city": "Bochnia",
                "addr:street": "Brzeska",
                "addr:housenumber": "19",
                "addr:city:simc": 981682,
                "addr:street:sym_ul": 2230,
                "email": "kontakt@przedszkole-butterfly.pl",
                "website": "http:\/\/www.przedszkole-butterfly.pl",
                "ref:regon": "368940301",
                "operator": "Ilona Goldscheidt",
                "operator:type": "private",
                "amenity": "kindergarten"
            }
        },
        {
            "id": 127162,
            "type": "Feature",
            "geometry": {
                "type": "Point",
                "coordinates": [
                    20.43295,
                    49.98011
                ]
            },
            "properties": {
                "ref:rspo": 127162,
                "official_name": "Niepubliczne Przedszkole \"Mali Einsteini\" Anna Hudak - Mi\u0105sko",
                "name": "Niepubliczne Przedszkole \"Mali Einsteini\" Anna Hudak - Mi\u0105sko",
                "addr:postcode": "32-700",
                "addr:city": "Bochnia",
                "addr:street": "20 Stycznia",
                "addr:housenumber": "40",
                "addr:city:simc": 981682,
                "addr:street:sym_ul": 21451,
                "email": "info@mali-einsteini.pl",
                "website": "http:\/\/mali-einsteini.pl",
                "ref:regon": "361161930",
                "operator": "Anna Hudak - Mi\u0105sko",
                "operator:type": "private",
                "amenity": "kindergarten"
            }
        }
    ]
}