{
    "type": "FeatureCollection",
    "features": [
        {
            "id": 23332,
            "type": "Feature",
            "geometry": {
                "type": "Point",
                "coordinates": [
                    20.44972,
                    49.85615
                ]
            },
            "properties": {
                "isced:level": "1;2",
                "ref:rspo": 23332,
                "official_name": "Szko\u0142a Podstawowa im. Kardyna\u0142a Stefana Wyszy\u0144skiego Prymasa Tysi\u0105clecia w Much\u00f3wce",
                "name": "Szko\u0142a Podstawowa",
                "addr:postcode": "32-722",
                "addr:place": "Much\u00f3wka",
                "addr:housenumber": "135",
                "addr:city:simc": 824913,
                "phone": "+48 146859110",
                "email": "spmuch@interia.pl",
                "ref:regon": "001190540",
                "ref:vatin": "PL8681280021",
                "operator": "Gmina Nowy Wi\u015bnicz",
                "operator:type": "government",
                "amenity": "school"
            }
        },
        {
            "id": 110215,
            "type": "Feature",
            "geometry": {
                "type": "Point",
                "coordinates": [
                    20.4171799,
                    49.87704
                ]
            },
            "properties": {
                "isced:level": "1;2",
                "ref:rspo": 110215,
                "official_name": "Szko\u0142a Podstawowa im. Kazimierza Brodzi\u0144skiego w Kr\u00f3L\u00f3wce",
                "name": "Szko\u0142a Podstawowa",
                "addr:postcode": "32-722",
                "addr:place": "Kr\u00f3l\u00f3wka",
                "addr:housenumber": "444",
                "addr:city:simc": 824681,
                "phone": "+48 146129490",
                "email": "zskrolowka@gmail.com",
                "website": "http:\/\/www.zskrolowka.pl",
                "ref:regon": "852710986",
                "ref:vatin": "PL8681649584",
                "operator": "Gmina Nowy Wi\u015bnicz",
                "operator:type": "government",
                "amenity": "school"
            }
        },
        {
            "id": 128036,
            "type": "Feature",
            "geometry": {
                "type": "Point",
                "coordinates": [
                    20.4545,
                    49.88003
                ]
            },
            "properties": {
                "isced:level": "1;2",
                "ref:rspo": 128036,
                "official_name": "Szko\u0142a Filialna w Po\u0142omiu Du\u017cym",
                "name": "Szko\u0142a Filialna w Po\u0142omiu Du\u017cym",
                "addr:postcode": "32-720",
                "addr:place": "Po\u0142om Du\u017cy",
                "addr:housenumber": "47",
                "addr:city:simc": 825002,
                "phone": "+48 146128788",
                "website": "http:\/\/www.szkolawisnicz.pl\/",
                "ref:regon": "852709983",
                "operator": "Gmina Nowy Wi\u015bnicz",
                "operator:type": "government",
                "amenity": "school",
                "note": "Parent RSPO: 110406"
            }
        },
        {
            "id": 130987,
            "type": "Feature",
            "geometry": {
                "type": "Point",
                "coordinates": [
                    20.54306,
                    49.90462
                ]
            },
            "properties": {
                "isced:level": "1;2",
                "ref:rspo": 130987,
                "official_name": "Publiczna Szko\u0142a Podstawowa w Chronowie",
                "name": "Publiczna Szko\u0142a Podstawowa w Chronowie",
                "addr:postcode": "32-720",
                "addr:place": "Chron\u00f3w",
                "addr:housenumber": "173",
                "addr:city:simc": 824439,
                "phone": "+48 146109885",
                "email": "psp.chronow@op.pl",
                "ref:regon": "364838209",
                "operator": "Stowarzyszenie Na Rzecz Rozwoju Wsi Chron\u00f3w \"Szko\u0142a Sercem Wsi\"",
                "operator:type": "ngo",
                "amenity": "school"
            }
        },
        {
            "id": 110406,
            "type": "Feature",
            "geometry": {
                "type": "Point",
                "coordinates": [
                    20.46392,
                    49.91113
                ]
            },
            "properties": {
                "isced:level": "1;2",
                "ref:rspo": 110406,
                "official_name": "Szko\u0142a Podstawowa im. Stanis\u0142awa Lubomirskiego w Nowym Wi\u015bniczu",
                "name": "Szko\u0142a Podstawowa",
                "addr:postcode": "32-720",
                "addr:city": "Nowy Wi\u015bnicz",
                "addr:street": "Szkolna",
                "addr:housenumber": "1",
                "addr:city:simc": 824936,
                "addr:street:sym_ul": 21970,
                "phone": "+48 146128788",
                "email": "sekretariat@szkolawisnicz.pl",
                "ref:regon": "852709983",
                "ref:vatin": "PL8681649578",
                "operator": "Gmina Nowy Wi\u015bnicz",
                "operator:type": "government",
                "amenity": "school",
                "note": "Children RSPO: 128036"
            }
        },
        {
            "id": 21694,
            "type": "Feature",
            "geometry": {
                "type": "Point",
                "coordinates": [
                    20.46085,
                    49.9148799
                ]
            },
            "properties": {
                "ref:rspo": 21694,
                "official_name": "Przedszkole w Nowym Wi\u015bniczu",
                "name": "Przedszkole w Nowym Wi\u015bniczu",
                "addr:postcode": "32-720",
                "addr:city": "Nowy Wi\u015bnicz",
                "addr:street": "Rynek",
                "addr:housenumber": "33",
                "addr:city:simc": 824936,
                "addr:street:sym_ul": 19252,
                "phone": "+48 146128171",
                "email": "przedszkole_nowywisnicz@interia.pl",
                "ref:regon": "851745280",
                "ref:vatin": "PL8681020277",
                "operator": "Gmina Nowy Wi\u015bnicz",
                "operator:type": "government",
                "amenity": "kindergarten"
            }
        },
        {
            "id": 4452,
            "type": "Feature",
            "geometry": {
                "type": "Point",
                "coordinates": [
                    20.46341,
                    49.91537
                ]
            },
            "properties": {
                "ref:rspo": 4452,
                "official_name": "Centrum Kszta\u0142cenia Ustawicznego",
                "name": "Centrum Kszta\u0142cenia Ustawicznego",
                "addr:postcode": "32-720",
                "addr:city": "Nowy Wi\u015bnicz",
                "addr:street": "Zamkowa",
                "addr:housenumber": "1",
                "addr:city:simc": 824936,
                "addr:street:sym_ul": 25547,
                "email": "zsnr1nowywisnicz@interia.pl",
                "ref:regon": "122641428",
                "operator": "Ministerstwo Sprawiedliwo\u015bci",
                "operator:type": "public",
                "amenity": "school",
                "fixme": "amenity=school lub amenity=college",
                "note": "Children RSPO: 11295;20178"
            }
        },
        {
            "id": 20178,
            "type": "Feature",
            "geometry": {
                "type": "Point",
                "coordinates": [
                    20.46341,
                    49.91534
                ]
            },
            "properties": {
                "isced:level": "1;2",
                "ref:rspo": 20178,
                "official_name": "Szko\u0142a Podstawowa dla Doros\u0142ych",
                "name": "Szko\u0142a Podstawowa dla Doros\u0142ych",
                "addr:postcode": "32-720",
                "addr:city": "Nowy Wi\u015bnicz",
                "addr:street": "Zamkowa",
                "addr:housenumber": "1",
                "addr:city:simc": 824936,
                "addr:street:sym_ul": 25547,
                "phone": "+48 146128587",
                "email": "zsnr1nowywisnicz@interia.pl",
                "ref:regon": "122669852",
                "operator": "Ministerstwo Sprawiedliwo\u015bci",
                "operator:type": "public",
                "amenity": "school",
                "note": "Parent RSPO: 4452"
            }
        },
        {
            "id": 11295,
            "type": "Feature",
            "geometry": {
                "type": "Point",
                "coordinates": [
                    20.46133,
                    49.91757
                ]
            },
            "properties": {
                "isced:level": "3",
                "ref:rspo": 11295,
                "official_name": "Liceum Og\u00f3lnokszta\u0142c\u0105ce dla Doros\u0142ych",
                "name": "Liceum Og\u00f3lnokszta\u0142c\u0105ce dla Doros\u0142ych",
                "addr:postcode": "32-720",
                "addr:place": "Nowy Wi\u015bnicz",
                "addr:housenumber": "1",
                "addr:city:simc": 824936,
                "email": "zsnr1nowywisnicz@interia.pl",
                "ref:regon": "122654158",
                "operator": "Ministerstwo Sprawiedliwo\u015bci",
                "operator:type": "public",
                "amenity": "school",
                "note": "Parent RSPO: 4452"
            }
        },
        {
            "id": 75597,
            "type": "Feature",
            "geometry": {
                "type": "Point",
                "coordinates": [
                    20.45939,
                    49.9175899
                ]
            },
            "properties": {
                "isced:level": "3",
                "ref:rspo": 75597,
                "official_name": "Pa\u0144stwowe Liceum Sztuk Plastycznych im. Jana Matejki w Nowym Wi\u015bniczu",
                "name": "Pa\u0144stwowe Liceum Sztuk Plastycznych",
                "addr:postcode": "32-720",
                "addr:city": "Nowy Wi\u015bnicz",
                "addr:street": "Boche\u0144ska",
                "addr:housenumber": "6",
                "addr:city:simc": 824936,
                "addr:street:sym_ul": 1506,
                "phone": "+48 146855650",
                "email": "sekretariat@wisnickiplastyk.pl",
                "website": "http:\/\/wisnickiplastyk.pl",
                "ref:regon": "000276498",
                "operator": "Ministerstwo Kultury I Dziedzictwa Narodowego",
                "operator:type": "public",
                "amenity": "school"
            }
        },
        {
            "id": 110508,
            "type": "Feature",
            "geometry": {
                "type": "Point",
                "coordinates": [
                    20.52171,
                    49.9197
                ]
            },
            "properties": {
                "isced:level": "1;2",
                "ref:rspo": 110508,
                "official_name": "Szko\u0142a Podstawowa im. Ks. Jana Twardowskiego w Kobylu",
                "name": "Szko\u0142a Podstawowa",
                "addr:postcode": "32-720",
                "addr:place": "Kobyle",
                "addr:housenumber": "81",
                "addr:city:simc": 824570,
                "phone": "+48 146856299",
                "email": "zszkobyle@op.pl",
                "ref:regon": "852710957",
                "ref:vatin": "PL8681649555",
                "operator": "Gmina Nowy Wi\u015bnicz",
                "operator:type": "government",
                "amenity": "school"
            }
        },
        {
            "id": 16758,
            "type": "Feature",
            "geometry": {
                "type": "Point",
                "coordinates": [
                    20.48276,
                    49.92167
                ]
            },
            "properties": {
                "ref:rspo": 16758,
                "official_name": "Przedszkole w Starym Wi\u015bniczu",
                "name": "Przedszkole w Starym Wi\u015bniczu",
                "addr:postcode": "32-720",
                "addr:place": "Stary Wi\u015bnicz",
                "addr:housenumber": "389",
                "addr:city:simc": 825077,
                "phone": "+48 146129227",
                "email": "kaskamatras@wp.pl",
                "ref:regon": "851745899",
                "ref:vatin": "PL8681021377",
                "operator": "Gmina Nowy Wi\u015bnicz",
                "operator:type": "government",
                "amenity": "kindergarten"
            }
        },
        {
            "id": 110379,
            "type": "Feature",
            "geometry": {
                "type": "Point",
                "coordinates": [
                    20.48105,
                    49.92313
                ]
            },
            "properties": {
                "isced:level": "1;2",
                "ref:rspo": 110379,
                "official_name": "Szko\u0142a Podstawowa im. Jana Paw\u0142a II w Starym Wi\u015bniczu",
                "name": "Szko\u0142a Podstawowa",
                "addr:postcode": "32-720",
                "addr:place": "Stary Wi\u015bnicz",
                "addr:housenumber": "480",
                "addr:city:simc": 825077,
                "phone": "+48 146129209",
                "email": "szkolawis@op.pl",
                "ref:regon": "852710874",
                "ref:vatin": "PL8681649561",
                "operator": "Gmina Nowy Wi\u015bnicz",
                "operator:type": "government",
                "amenity": "school"
            }
        }
    ]
}