{
    "type": "FeatureCollection",
    "features": [
        {
            "id": 4187,
            "type": "Feature",
            "geometry": {
                "type": "Point",
                "coordinates": [
                    20.3266846,
                    50.0566355
                ]
            },
            "properties": {
                "ref:rspo": 4187,
                "official_name": "Zesp\u00f3\u0142 Szkolno-Przedszkolny w Drwini",
                "name": "Zesp\u00f3\u0142 Szkolno-Przedszkolny w Drwini",
                "addr:country": "PL",
                "addr:postcode": "32-709",
                "addr:place": "Drwinia",
                "addr:housenumber": "173",
                "addr:teryt:simc": 317145,
                "contact:phone": "+48 122817017",
                "contact:email": "zsdrwinia@op.pl",
                "ref:regon": "852721346",
                "ref:vatin": "PL8681874200",
                "operator": "Gmina Drwinia",
                "operator:type": "government",
                "landuse": "education",
                "fixme": "amenity=school, amenity=college albo landuse=education w zale\u017cno\u015bci od tego, jakie plac\u00f3wki wchodz\u0105 w sk\u0142ad zespo\u0142u. Sprawd\u017a, kiedy stosowa\u0107 amenity=* a kiedy landuse=education.",
                "note": "Children RSPO: 4184;89462"
            }
        },
        {
            "id": 4184,
            "type": "Feature",
            "geometry": {
                "type": "Point",
                "coordinates": [
                    20.3266846,
                    50.056605499999996
                ]
            },
            "properties": {
                "ref:rspo": 4184,
                "official_name": "Przedszkole Samorz\u0105dowe w Drwini",
                "name": "Przedszkole Samorz\u0105dowe w Drwini",
                "addr:country": "PL",
                "addr:postcode": "32-709",
                "addr:place": "Drwinia",
                "addr:housenumber": "173",
                "addr:teryt:simc": 317145,
                "contact:phone": "+48 122817017",
                "ref:regon": "121468985",
                "ref:vatin": "PL8681949932",
                "operator": "Gmina Drwinia",
                "operator:type": "government",
                "amenity": "kindergarten",
                "note": "Parent RSPO: 4187"
            }
        },
        {
            "id": 89462,
            "type": "Feature",
            "geometry": {
                "type": "Point",
                "coordinates": [
                    20.3266846,
                    50.0565755
                ]
            },
            "properties": {
                "isced:level": "1;2",
                "ref:rspo": 89462,
                "official_name": "Szko\u0142a Podstawowa im. I. \u0141ukasiewicza w Drwini",
                "name": "Szko\u0142a Podstawowa",
                "addr:country": "PL",
                "addr:postcode": "32-709",
                "addr:place": "Drwinia",
                "addr:housenumber": "173",
                "addr:teryt:simc": 317145,
                "contact:phone": "+48 122817017",
                "contact:email": "zsdrwinia@op.pl",
                "ref:regon": "000703753",
                "ref:vatin": "PL8681649199",
                "operator": "Gmina Drwinia",
                "operator:type": "government",
                "amenity": "school",
                "note": "Parent RSPO: 4187"
            }
        },
        {
            "id": 4178,
            "type": "Feature",
            "geometry": {
                "type": "Point",
                "coordinates": [
                    20.4576919,
                    50.0594169
                ]
            },
            "properties": {
                "ref:rspo": 4178,
                "official_name": "Szko\u0142a Muzyczna I Stopnia im. Juliusza \u0141uciuka w Mikluszowicach",
                "name": "Szko\u0142a Muzyczna I Stopnia",
                "addr:country": "PL",
                "addr:postcode": "32-708",
                "addr:place": "Mikluszowice",
                "addr:housenumber": "228",
                "addr:teryt:simc": 317458,
                "contact:phone": "+48 228117123",
                "contact:email": "smmikluszowice@gmail.com",
                "ref:regon": "121851307",
                "ref:vatin": "PL8681955080",
                "operator": "Gmina Drwinia",
                "operator:type": "government",
                "amenity": "music_school"
            }
        },
        {
            "id": 4186,
            "type": "Feature",
            "geometry": {
                "type": "Point",
                "coordinates": [
                    20.4576919,
                    50.0593869
                ]
            },
            "properties": {
                "ref:rspo": 4186,
                "official_name": "Zesp\u00f3\u0142 Szkolno-Przedszkolny w Mikluszowicach",
                "name": "Zesp\u00f3\u0142 Szkolno-Przedszkolny w Mikluszowicach",
                "addr:country": "PL",
                "addr:postcode": "32-708",
                "addr:place": "Mikluszowice",
                "addr:housenumber": "228",
                "addr:teryt:simc": 317458,
                "contact:phone": "+48 122817123",
                "contact:email": "pspmikluszowice@poczta.fm",
                "ref:regon": "120530386",
                "ref:vatin": "PL8681874217",
                "operator": "Gmina Drwinia",
                "operator:type": "government",
                "landuse": "education",
                "fixme": "amenity=school, amenity=college albo landuse=education w zale\u017cno\u015bci od tego, jakie plac\u00f3wki wchodz\u0105 w sk\u0142ad zespo\u0142u. Sprawd\u017a, kiedy stosowa\u0107 amenity=* a kiedy landuse=education.",
                "note": "Children RSPO: 4183;89460"
            }
        },
        {
            "id": 4183,
            "type": "Feature",
            "geometry": {
                "type": "Point",
                "coordinates": [
                    20.4576919,
                    50.059356900000004
                ]
            },
            "properties": {
                "ref:rspo": 4183,
                "official_name": "Przedszkole Samorz\u0105dowe w Mikluszowicach",
                "name": "Przedszkole Samorz\u0105dowe w Mikluszowicach",
                "addr:country": "PL",
                "addr:postcode": "32-708",
                "addr:place": "Mikluszowice",
                "addr:housenumber": "228",
                "addr:teryt:simc": 317458,
                "contact:phone": "+48 122817123",
                "contact:email": "pspmikluszowice@poczta.fm",
                "contact:website": "http:\/\/www.mikluszowice.pl",
                "ref:regon": "121469045",
                "ref:vatin": "PL8681949903",
                "operator": "Gmina Drwinia",
                "operator:type": "government",
                "amenity": "kindergarten",
                "note": "Parent RSPO: 4186"
            }
        },
        {
            "id": 89460,
            "type": "Feature",
            "geometry": {
                "type": "Point",
                "coordinates": [
                    20.4576919,
                    50.0593269
                ]
            },
            "properties": {
                "isced:level": "1;2",
                "ref:rspo": 89460,
                "official_name": "Szko\u0142a Podstawowa w Mikluszowicach",
                "name": "Szko\u0142a Podstawowa w Mikluszowicach",
                "addr:country": "PL",
                "addr:postcode": "32-708",
                "addr:place": "Mikluszowice",
                "addr:housenumber": "228",
                "addr:teryt:simc": 317458,
                "contact:phone": "+48 122817123",
                "contact:email": "pspmikluszowice@poczta.fm",
                "contact:website": "http:\/\/www.mikluszowice.pl",
                "ref:regon": "001234770",
                "ref:vatin": "PL8681649064",
                "operator": "Gmina Drwinia",
                "operator:type": "government",
                "amenity": "school",
                "note": "Parent RSPO: 4186"
            }
        },
        {
            "id": 4180,
            "type": "Feature",
            "geometry": {
                "type": "Point",
                "coordinates": [
                    20.44821,
                    50.077887
                ]
            },
            "properties": {
                "ref:rspo": 4180,
                "official_name": "Zesp\u00f3\u0142 Szkolno- Przedszkolny w Dziewinie",
                "name": "Zesp\u00f3\u0142 Szkolno- Przedszkolny w Dziewinie",
                "addr:country": "PL",
                "addr:postcode": "32-708",
                "addr:place": "Dziewin",
                "addr:housenumber": "231",
                "addr:teryt:simc": 317180,
                "contact:phone": "+48 122817127",
                "contact:email": "szkoladziewin@wp.pl",
                "ref:regon": "122642340",
                "ref:vatin": "PL8681960282",
                "operator": "Gmina Drwinia",
                "operator:type": "government",
                "landuse": "education",
                "fixme": "amenity=school, amenity=college albo landuse=education w zale\u017cno\u015bci od tego, jakie plac\u00f3wki wchodz\u0105 w sk\u0142ad zespo\u0142u. Sprawd\u017a, kiedy stosowa\u0107 amenity=* a kiedy landuse=education.",
                "note": "Children RSPO: 104468;121788"
            }
        },
        {
            "id": 104468,
            "type": "Feature",
            "geometry": {
                "type": "Point",
                "coordinates": [
                    20.44821,
                    50.077856999999995
                ]
            },
            "properties": {
                "ref:rspo": 104468,
                "official_name": "Przedszkole Samorz\u0105dowe w Dziewinie",
                "name": "Przedszkole Samorz\u0105dowe w Dziewinie",
                "addr:country": "PL",
                "addr:postcode": "32-708",
                "addr:place": "Dziewin",
                "addr:housenumber": "231",
                "addr:teryt:simc": 317180,
                "contact:phone": "+48 122817127",
                "contact:email": "szkoladziewin@wp.pl",
                "ref:regon": "122736198",
                "ref:vatin": "PL8681949926",
                "operator": "Gmina Drwinia",
                "operator:type": "government",
                "amenity": "kindergarten",
                "note": "Parent RSPO: 4180"
            }
        },
        {
            "id": 121788,
            "type": "Feature",
            "geometry": {
                "type": "Point",
                "coordinates": [
                    20.44821,
                    50.077827
                ]
            },
            "properties": {
                "isced:level": "1;2",
                "ref:rspo": 121788,
                "official_name": "Szko\u0142a Postawowa im. Henryka Sienkiewicza w Dziewinie",
                "name": "Szko\u0142a Postawowa",
                "addr:country": "PL",
                "addr:postcode": "32-708",
                "addr:place": "Dziewin",
                "addr:housenumber": "231",
                "addr:teryt:simc": 317180,
                "contact:phone": "+48 122817127",
                "contact:email": "szkoladziewin@wp.pl",
                "ref:regon": "123039952",
                "ref:vatin": "PL8681648685",
                "operator": "Gmina Drwinia",
                "operator:type": "government",
                "amenity": "school",
                "note": "Parent RSPO: 4180"
            }
        },
        {
            "id": 122667,
            "type": "Feature",
            "geometry": {
                "type": "Point",
                "coordinates": [
                    20.3841313,
                    50.1172972
                ]
            },
            "properties": {
                "ref:rspo": 122667,
                "official_name": "Przedszkole Niepubliczne \"T\u0119cza\" w Ispini",
                "name": "Przedszkole Niepubliczne \"T\u0119cza\" w Ispini",
                "addr:country": "PL",
                "addr:postcode": "32-709",
                "addr:place": "Ispina",
                "addr:housenumber": "28",
                "addr:teryt:simc": 317429,
                "contact:phone": "+48 122817077",
                "contact:email": "przedszkole.tecza28@interia.pl",
                "ref:regon": "123079319",
                "operator": "Stowarzyszenie Wspierania Edukacji I Rozwoju Wsi Ispina",
                "operator:type": "ngo",
                "amenity": "kindergarten"
            }
        },
        {
            "id": 4182,
            "type": "Feature",
            "geometry": {
                "type": "Point",
                "coordinates": [
                    20.4592956,
                    50.1305453
                ]
            },
            "properties": {
                "ref:rspo": 4182,
                "official_name": "Zesp\u00f3\u0142 Szkolno-Przedszkolny w \u015awiniarach",
                "name": "Zesp\u00f3\u0142 Szkolno-Przedszkolny w \u015awiniarach",
                "addr:country": "PL",
                "addr:postcode": "32-709",
                "addr:place": "\u015awiniary",
                "addr:housenumber": "174",
                "addr:teryt:simc": 317553,
                "contact:phone": "+48 122817040",
                "ref:regon": "122642356",
                "ref:vatin": "PL8681960313",
                "operator": "Gmina Drwinia",
                "operator:type": "government",
                "landuse": "education",
                "fixme": "amenity=school, amenity=college albo landuse=education w zale\u017cno\u015bci od tego, jakie plac\u00f3wki wchodz\u0105 w sk\u0142ad zespo\u0142u. Sprawd\u017a, kiedy stosowa\u0107 amenity=* a kiedy landuse=education.",
                "note": "Children RSPO: 121791;121792"
            }
        },
        {
            "id": 121791,
            "type": "Feature",
            "geometry": {
                "type": "Point",
                "coordinates": [
                    20.4592956,
                    50.1305153
                ]
            },
            "properties": {
                "ref:rspo": 121791,
                "official_name": "Przedszkole Samorz\u0105dowe w \u015awiniarach",
                "name": "Przedszkole Samorz\u0105dowe w \u015awiniarach",
                "addr:country": "PL",
                "addr:postcode": "32-709",
                "addr:place": "\u015awiniary",
                "addr:housenumber": "174",
                "addr:teryt:simc": 317553,
                "contact:phone": "+48 122817040",
                "contact:email": "spswiniary@wp.pl",
                "contact:website": "http:\/\/www.spswiniary.szkolnastrona.pl",
                "ref:regon": "123039946",
                "ref:vatin": "PL8681949949",
                "operator": "Gmina Drwinia",
                "operator:type": "government",
                "amenity": "kindergarten",
                "note": "Parent RSPO: 4182"
            }
        },
        {
            "id": 121792,
            "type": "Feature",
            "geometry": {
                "type": "Point",
                "coordinates": [
                    20.4592956,
                    50.130485300000004
                ]
            },
            "properties": {
                "isced:level": "1;2",
                "ref:rspo": 121792,
                "official_name": "Szko\u0142a Podstawowa im. Marii Konopnickiej w \u015awiniarach",
                "name": "Szko\u0142a Podstawowa",
                "addr:country": "PL",
                "addr:postcode": "32-709",
                "addr:place": "\u015awiniary",
                "addr:housenumber": "174",
                "addr:teryt:simc": 317553,
                "contact:phone": "+48 122817040",
                "contact:email": "spswiniary@wp.pl",
                "contact:website": "http:\/\/www.spswiniary.szkolnastrona.pl",
                "ref:regon": "123039900",
                "ref:vatin": "PL8681649360",
                "operator": "Gmina Drwinia",
                "operator:type": "government",
                "amenity": "school",
                "note": "Parent RSPO: 4182"
            }
        },
        {
            "id": 104469,
            "type": "Feature",
            "geometry": {
                "type": "Point",
                "coordinates": [
                    20.428313,
                    50.132062
                ]
            },
            "properties": {
                "isced:level": "1;2",
                "ref:rspo": 104469,
                "official_name": "Publiczna Szko\u0142a Podstawowa im. W. Reymonta w Grobli",
                "name": "Publiczna Szko\u0142a Podstawowa",
                "addr:country": "PL",
                "addr:postcode": "32-709",
                "addr:place": "Grobla",
                "addr:housenumber": "134",
                "addr:teryt:simc": 317270,
                "contact:phone": "+48 122817034",
                "contact:email": "sekretariat@zsgrobla.pl",
                "contact:website": "http:\/\/www.zsgrobla.pl",
                "ref:regon": "122736318",
                "ref:vatin": "PL8681874192",
                "operator": "Gmina Drwinia",
                "operator:type": "government",
                "amenity": "school"
            }
        }
    ]
}