{
    "type": "FeatureCollection",
    "features": [
        {
            "id": 87602,
            "type": "Feature",
            "geometry": {
                "type": "Point",
                "coordinates": [
                    20.3016,
                    49.82758
                ]
            },
            "properties": {
                "isced:level": "1;2",
                "ref:rspo": 87602,
                "official_name": "Szko\u0142a Podstawowa w Tarnawie",
                "name": "Szko\u0142a Podstawowa w Tarnawie",
                "addr:postcode": "32-741",
                "addr:place": "Tarnawa",
                "addr:housenumber": "119",
                "addr:city:simc": 823569,
                "phone": "+48 146135570",
                "email": "psptarnawa@interia.pl",
                "website": "http:\/\/www.tarnawa.edu.pl",
                "ref:regon": "001190497",
                "ref:vatin": "PL8681809929",
                "operator": "Gmina \u0141apan\u00f3w",
                "operator:type": "government",
                "amenity": "school"
            }
        },
        {
            "id": 7690,
            "type": "Feature",
            "geometry": {
                "type": "Point",
                "coordinates": [
                    20.32156,
                    49.83685
                ]
            },
            "properties": {
                "isced:level": "1;2",
                "ref:rspo": 7690,
                "official_name": "Szko\u0142a Podstawowa im. \u015aw. Jana Paw\u0142a II w Zbydniowie",
                "name": "Szko\u0142a Podstawowa",
                "addr:postcode": "32-741",
                "addr:place": "Zbydni\u00f3w",
                "addr:housenumber": "80",
                "addr:city:simc": 823960,
                "phone": "+48 146135050",
                "email": "spzbydniow@interia.pl",
                "website": "http:\/\/spzbydniow.szkolnastrona.pl\/",
                "ref:regon": "122649080",
                "ref:vatin": "PL8681959942",
                "operator": "Stowarzyszenie Przyjaci\u00f3\u0142 Dzieci W Zbydniowie",
                "operator:type": "ngo",
                "amenity": "school"
            }
        },
        {
            "id": 20666,
            "type": "Feature",
            "geometry": {
                "type": "Point",
                "coordinates": [
                    20.32156,
                    49.836819999999996
                ]
            },
            "properties": {
                "ref:rspo": 20666,
                "official_name": "Publiczne Przedszkole \"T\u0119czowe Przedszkole\" w Zbydniowie",
                "name": "Publiczne Przedszkole \"T\u0119czowe Przedszkole\" w Zbydniowie",
                "addr:postcode": "32-741",
                "addr:place": "Zbydni\u00f3w",
                "addr:housenumber": "80",
                "addr:city:simc": 823960,
                "phone": "+48 146135050",
                "email": "spzbydniow@interia.pl",
                "ref:regon": "122670499",
                "operator": "Stowarzyszenie Przyjaci\u00f3\u0142 Dzieci W Zbydniowie",
                "operator:type": "ngo",
                "amenity": "kindergarten"
            }
        },
        {
            "id": 87597,
            "type": "Feature",
            "geometry": {
                "type": "Point",
                "coordinates": [
                    20.2699,
                    49.8466
                ]
            },
            "properties": {
                "isced:level": "1;2",
                "ref:rspo": 87597,
                "official_name": "Szko\u0142a Podstawowa im. Miko\u0142aja Kopernika w Grabiu",
                "name": "Szko\u0142a Podstawowa",
                "addr:postcode": "32-740",
                "addr:place": "Grabie",
                "addr:housenumber": "60",
                "addr:city:simc": 823121,
                "phone": "+48 146101280",
                "email": "pspwg@wp.pl",
                "website": "http:\/\/www.pspgrabie.szkolna.net",
                "ref:regon": "001190474",
                "ref:vatin": "PL8681721206",
                "operator": "Gmina \u0141apan\u00f3w",
                "operator:type": "government",
                "amenity": "school"
            }
        },
        {
            "id": 87616,
            "type": "Feature",
            "geometry": {
                "type": "Point",
                "coordinates": [
                    20.2930199,
                    49.86607
                ]
            },
            "properties": {
                "ref:rspo": 87616,
                "official_name": "Publiczne Przedszkole w \u0141apanowie",
                "name": "Publiczne Przedszkole w \u0141apanowie",
                "addr:postcode": "32-740",
                "addr:place": "\u0141apan\u00f3w",
                "addr:housenumber": "10",
                "addr:city:simc": 823440,
                "phone": "+48 146134432",
                "email": "przedszkole@lapanow.pl",
                "website": "http:\/\/www.pplapanow.szkolnastrona.pl\/",
                "ref:regon": "850020415",
                "ref:vatin": "PL8681721169",
                "operator": "Gmina \u0141apan\u00f3w",
                "operator:type": "government",
                "amenity": "kindergarten"
            }
        },
        {
            "id": 87594,
            "type": "Feature",
            "geometry": {
                "type": "Point",
                "coordinates": [
                    20.28823,
                    49.86688
                ]
            },
            "properties": {
                "isced:level": "1;2",
                "ref:rspo": 87594,
                "official_name": "Szko\u0142a Podstawowa im. \u015aw. Jana Kantego w \u0141apanowie",
                "name": "Szko\u0142a Podstawowa",
                "addr:postcode": "32-740",
                "addr:place": "\u0141apan\u00f3w",
                "addr:housenumber": "195",
                "addr:city:simc": 823440,
                "phone": "+48 146134408",
                "email": "psplapanow@wp.pl",
                "website": "http:\/\/www.psplapanow.szkolnastrona.pl",
                "ref:regon": "000718690",
                "ref:vatin": "PL8681721198",
                "operator": "Gmina \u0141apan\u00f3w",
                "operator:type": "government",
                "amenity": "school"
            }
        },
        {
            "id": 130710,
            "type": "Feature",
            "geometry": {
                "type": "Point",
                "coordinates": [
                    20.29661,
                    49.8688
                ]
            },
            "properties": {
                "ref:rspo": 130710,
                "official_name": "Niepubliczne Przedszkole \"Bajkowa Kraina\"",
                "name": "Niepubliczne Przedszkole \"Bajkowa Kraina\"",
                "addr:postcode": "32-740",
                "addr:place": "Kobylec",
                "addr:housenumber": "189",
                "addr:city:simc": 823256,
                "phone": "+48 697739561",
                "ref:regon": "364377197",
                "operator": "Anna Zdebska - Sroka",
                "operator:type": "private",
                "amenity": "kindergarten"
            }
        },
        {
            "id": 12963,
            "type": "Feature",
            "geometry": {
                "type": "Point",
                "coordinates": [
                    20.34747,
                    49.87638
                ]
            },
            "properties": {
                "isced:level": "1;2",
                "ref:rspo": 12963,
                "official_name": "Szko\u0142a Podstawowa im. Ks. Jana Twardowskiego w Cichawce",
                "name": "Szko\u0142a Podstawowa",
                "addr:postcode": "32-740",
                "addr:place": "Cichawka",
                "addr:housenumber": "8",
                "addr:city:simc": 823055,
                "phone": "+48 146134190",
                "email": "psp_cichawka@interia.pl",
                "website": "http:\/\/www.spcichawka.edupage.org",
                "ref:regon": "122657205",
                "ref:vatin": "PL8681959847",
                "operator": "Stowarzyszenie Rozwoju Wsi Cichawka \"Reali\u015bci\"",
                "operator:type": "ngo",
                "amenity": "school"
            }
        },
        {
            "id": 20677,
            "type": "Feature",
            "geometry": {
                "type": "Point",
                "coordinates": [
                    20.34747,
                    49.876349999999995
                ]
            },
            "properties": {
                "ref:rspo": 20677,
                "official_name": "Publiczne Przedszkole \"S\u0142oneczko\" w Cichawce",
                "name": "Publiczne Przedszkole \"S\u0142oneczko\" w Cichawce",
                "addr:postcode": "32-740",
                "addr:place": "Cichawka",
                "addr:housenumber": "8",
                "addr:city:simc": 823055,
                "phone": "+48 146134190",
                "email": "psp_cichawka@interia.pl",
                "website": "http:\/\/www.spcichawka.edupage.org",
                "ref:regon": "122670393",
                "ref:vatin": "PL8681959847",
                "operator": "Stowarzyszenie Rozwoju Wsi Cichawka \"Reali\u015bci\"",
                "operator:type": "ngo",
                "amenity": "kindergarten"
            }
        },
        {
            "id": 87612,
            "type": "Feature",
            "geometry": {
                "type": "Point",
                "coordinates": [
                    20.34138,
                    49.90676
                ]
            },
            "properties": {
                "isced:level": "1;2",
                "ref:rspo": 87612,
                "official_name": "Szko\u0142a Podstawowa im. Jana Kasprowicza w Sobolowie",
                "name": "Szko\u0142a Podstawowa",
                "addr:postcode": "32-742",
                "addr:place": "Sobol\u00f3w",
                "addr:housenumber": "1",
                "addr:city:simc": 823492,
                "phone": "+48 146854390",
                "email": "sobolow@wp.pl",
                "website": "http:\/\/zssobolow.edupage.org",
                "ref:regon": "001190480",
                "ref:vatin": "PL8681809964",
                "operator": "Gmina \u0141apan\u00f3w",
                "operator:type": "government",
                "amenity": "school"
            }
        },
        {
            "id": 119037,
            "type": "Feature",
            "geometry": {
                "type": "Point",
                "coordinates": [
                    20.3409215,
                    49.9067763
                ]
            },
            "properties": {
                "ref:rspo": 119037,
                "official_name": "Publiczne Przedszkole Integracyjne w Sobolowie",
                "name": "Publiczne Przedszkole Integracyjne w Sobolowie",
                "addr:postcode": "32-742",
                "addr:place": "Sobol\u00f3w",
                "addr:housenumber": "23",
                "addr:city:simc": 823492,
                "phone": "+48 882790243",
                "email": "ppisobolow@gmail.com",
                "ref:regon": "122928302",
                "operator": "Parafia Rzymsko-Katolicka P.w. Wszystkich \u015awi\u0119tych",
                "operator:type": "religious",
                "amenity": "kindergarten"
            }
        },
        {
            "id": 87619,
            "type": "Feature",
            "geometry": {
                "type": "Point",
                "coordinates": [
                    20.34113,
                    49.90796
                ]
            },
            "properties": {
                "ref:rspo": 87619,
                "official_name": "Szko\u0142a Muzyczna I Stopnia w Sobolowie",
                "name": "Szko\u0142a Muzyczna I Stopnia w Sobolowie",
                "addr:postcode": "32-742",
                "addr:place": "Sobol\u00f3w",
                "addr:housenumber": "28",
                "addr:city:simc": 823492,
                "phone": "+48 146859322",
                "email": "szkola.muzyczna_sobolow@onet.pl",
                "ref:regon": "121283694",
                "ref:vatin": "PL8681938526",
                "operator": "Gmina \u0141apan\u00f3w",
                "operator:type": "government",
                "amenity": "music_school"
            }
        },
        {
            "id": 131145,
            "type": "Feature",
            "geometry": {
                "type": "Point",
                "coordinates": [
                    20.434694290161,
                    49.948497772217
                ]
            },
            "properties": {
                "ref:rspo": 131145,
                "official_name": "Centrum Kszta\u0142cenia Zawodowego I Ustawicznego im. \u015aw. Jana Paw\u0142a II w \u0141apanowie",
                "name": "Centrum Kszta\u0142cenia Zawodowego I Ustawicznego",
                "addr:postcode": "32-740",
                "addr:place": "\u0141apan\u00f3w",
                "addr:housenumber": "32",
                "addr:city:simc": 823440,
                "phone": "+48 146853419",
                "email": "ckziu@powiat.bochnia.pl",
                "website": "http:\/\/www.ckziulapanow.pl",
                "ref:regon": "364974220",
                "operator": "Powiat Boche\u0144ski",
                "operator:type": "government",
                "landuse": "education",
                "fixme": "amenity=school, amenity=college albo landuse=education w zale\u017cno\u015bci od tego, jakie plac\u00f3wki wchodz\u0105 w sk\u0142ad zespo\u0142u. Sprawd\u017a, kiedy stosowa\u0107 amenity=* a kiedy landuse=education.",
                "note": "Children RSPO: 10230;48393;48394;48398;276414"
            }
        },
        {
            "id": 10230,
            "type": "Feature",
            "geometry": {
                "type": "Point",
                "coordinates": [
                    20.434694290161,
                    49.948467772217
                ]
            },
            "properties": {
                "isced:level": "4",
                "ref:rspo": 10230,
                "official_name": "Szko\u0142a Policealna",
                "name": "Szko\u0142a Policealna",
                "addr:postcode": "32-740",
                "addr:place": "\u0141apan\u00f3w",
                "addr:housenumber": "32",
                "addr:city:simc": 823440,
                "phone": "+48 146853419",
                "email": "ckziu@powiat.bochnia.pl",
                "website": "http:\/\/www.ckziulapanow.pl",
                "ref:regon": "120032197",
                "operator": "Powiat Boche\u0144ski",
                "operator:type": "government",
                "amenity": "college",
                "note": "Parent RSPO: 131145"
            }
        },
        {
            "id": 48393,
            "type": "Feature",
            "geometry": {
                "type": "Point",
                "coordinates": [
                    20.434694290161,
                    49.948437772217005
                ]
            },
            "properties": {
                "isced:level": "3",
                "ref:rspo": 48393,
                "official_name": "Technikum w Centrum Kszta\u0142cenia Zawodowego I Ustawicznego w \u0141apanowie",
                "name": "Technikum w Centrum Kszta\u0142cenia Zawodowego I Ustawicznego w \u0141apanowie",
                "addr:postcode": "32-740",
                "addr:place": "\u0141apan\u00f3w",
                "addr:housenumber": "32",
                "addr:city:simc": 823440,
                "phone": "+48 146853419",
                "email": "ckziu@powiat.bochnia.pl",
                "website": "http:\/\/www.ckziulapanow.pl",
                "ref:regon": "852700048",
                "operator": "Powiat Boche\u0144ski",
                "operator:type": "government",
                "amenity": "school",
                "note": "Parent RSPO: 131145"
            }
        },
        {
            "id": 48394,
            "type": "Feature",
            "geometry": {
                "type": "Point",
                "coordinates": [
                    20.434694290161,
                    49.948407772217
                ]
            },
            "properties": {
                "isced:level": "3",
                "ref:rspo": 48394,
                "official_name": "Bran\u017cowa Szko\u0142a I Stopnia",
                "name": "Bran\u017cowa Szko\u0142a I Stopnia",
                "addr:postcode": "32-740",
                "addr:place": "\u0141apan\u00f3w",
                "addr:housenumber": "32",
                "addr:city:simc": 823440,
                "phone": "+48 146853419",
                "email": "ckziu@powiat.bochnia.pl",
                "website": "http:\/\/www.ckziulapanow.pl",
                "ref:regon": "852700404",
                "operator": "Powiat Boche\u0144ski",
                "operator:type": "government",
                "amenity": "school",
                "note": "Parent RSPO: 131145"
            }
        },
        {
            "id": 48398,
            "type": "Feature",
            "geometry": {
                "type": "Point",
                "coordinates": [
                    20.434694290161,
                    49.948377772217
                ]
            },
            "properties": {
                "isced:level": "3",
                "ref:rspo": 48398,
                "official_name": "Liceum Og\u00f3lnokszta\u0142c\u0105ce dla Doros\u0142ych",
                "name": "Liceum Og\u00f3lnokszta\u0142c\u0105ce dla Doros\u0142ych",
                "addr:postcode": "32-740",
                "addr:place": "\u0141apan\u00f3w",
                "addr:housenumber": "32",
                "addr:city:simc": 823440,
                "phone": "+48 146853419",
                "email": "ckziu@powiat.bochnia.pl",
                "ref:regon": "120649851",
                "operator": "Powiat Boche\u0144ski",
                "operator:type": "government",
                "amenity": "school",
                "note": "Parent RSPO: 131145"
            }
        },
        {
            "id": 276414,
            "type": "Feature",
            "geometry": {
                "type": "Point",
                "coordinates": [
                    20.434694290161,
                    49.948347772217005
                ]
            },
            "properties": {
                "isced:level": "3",
                "ref:rspo": 276414,
                "official_name": "Bran\u017cowa Szko\u0142a II Stopnia w Centrum Kszta\u0142cenia Zawodowego I Ustawicznego im. \u015aw. Jana Paw\u0142a II w \u0141apanowie",
                "name": "Bran\u017cowa Szko\u0142a II Stopnia w Centrum Kszta\u0142cenia Zawodowego I Ustawicznego",
                "addr:postcode": "32-740",
                "addr:place": "\u0141apan\u00f3w",
                "addr:housenumber": "32",
                "addr:city:simc": 823440,
                "phone": "+48 146853419",
                "email": "ckziu@powiat.bochnia.pl",
                "ref:regon": "387126675",
                "operator": "Powiat Boche\u0144ski",
                "operator:type": "government",
                "amenity": "school",
                "note": "Parent RSPO: 131145"
            }
        }
    ]
}