{
    "type": "FeatureCollection",
    "features": [
        {
            "id": 22540,
            "type": "Feature",
            "geometry": {
                "type": "Point",
                "coordinates": [
                    20.39571,
                    49.91481
                ]
            },
            "properties": {
                "ref:rspo": 22540,
                "official_name": "Zesp\u00f3\u0142 Szk\u00f3\u0142 Gminnych im. Lotnik\u00f3w Polskich w Nieszkowicach Wielkich",
                "name": "Zesp\u00f3\u0142 Szk\u00f3\u0142 Gminnych",
                "addr:postcode": "32-700",
                "addr:place": "Nieszkowice Wielkie",
                "addr:housenumber": "67",
                "addr:city:simc": 812689,
                "phone": "+48 146856160",
                "email": "nieszkowicewielkie@szkolagminabochnia.pl",
                "website": "http:\/\/www.nieszkowicewielkie.szkolagminabochnia.pl",
                "ref:regon": "001191887",
                "ref:vatin": "PL8681649213",
                "operator": "Gmina Bochnia",
                "operator:type": "government",
                "landuse": "education",
                "fixme": "amenity=school, amenity=college albo landuse=education w zale\u017cno\u015bci od tego, jakie plac\u00f3wki wchodz\u0105 w sk\u0142ad zespo\u0142u. Sprawd\u017a, kiedy stosowa\u0107 amenity=* a kiedy landuse=education.",
                "note": "Children RSPO: 22558;71083"
            }
        },
        {
            "id": 22558,
            "type": "Feature",
            "geometry": {
                "type": "Point",
                "coordinates": [
                    20.39571,
                    49.91478
                ]
            },
            "properties": {
                "ref:rspo": 22558,
                "official_name": "Gminne Przedszkole w Nieszkowicach Wielkich",
                "name": "Gminne Przedszkole w Nieszkowicach Wielkich",
                "addr:postcode": "32-700",
                "addr:place": "Nieszkowice Wielkie",
                "addr:housenumber": "67",
                "addr:city:simc": 812689,
                "phone": "+48 146856160",
                "email": "nieszkowicewielkie@szkolagminabochnia",
                "website": "http:\/\/www.nieszkowicewielkie.szkolagminabochnia.pl",
                "ref:regon": "121439541",
                "ref:vatin": "PL8681948329",
                "operator": "Gmina Bochnia",
                "operator:type": "government",
                "amenity": "kindergarten",
                "note": "Parent RSPO: 22540"
            }
        },
        {
            "id": 71083,
            "type": "Feature",
            "geometry": {
                "type": "Point",
                "coordinates": [
                    20.39571,
                    49.914750000000005
                ]
            },
            "properties": {
                "isced:level": "1;2",
                "ref:rspo": 71083,
                "official_name": "Zesp\u00f3\u0142 Szk\u00f3\u0142 Gminnych im. Lotnik\u00f3w Polskich w Nieszkowicach Wielkich Szko\u0142a Podstawowa w Nieszkowicach Wielkich",
                "name": "Zesp\u00f3\u0142 Szk\u00f3\u0142 Gminnych",
                "addr:postcode": "32-700",
                "addr:place": "Nieszkowice Wielkie",
                "addr:housenumber": "67",
                "addr:city:simc": 812689,
                "phone": "+48 146856160",
                "email": "nieszkowicewielkie@szkolagminabochnia.pl",
                "website": "http:\/\/www.nieszkowicewielkie.szkolagminabochnia.pl",
                "ref:regon": "852488140",
                "operator": "Gmina Bochnia",
                "operator:type": "government",
                "amenity": "school",
                "note": "Parent RSPO: 22540"
            }
        },
        {
            "id": 71091,
            "type": "Feature",
            "geometry": {
                "type": "Point",
                "coordinates": [
                    20.39912,
                    49.92416
                ]
            },
            "properties": {
                "isced:level": "1;2",
                "ref:rspo": 71091,
                "official_name": "Szko\u0142a Podstawowa im. Gen. J\u00f3zefa Bema w Pogwizdowie",
                "name": "Szko\u0142a Podstawowa",
                "addr:postcode": "32-700",
                "addr:place": "Pogwizd\u00f3w",
                "addr:housenumber": "26",
                "addr:city:simc": 812784,
                "phone": "+48 146104055",
                "email": "pogwizdow@szkolagminabochnia.pl",
                "website": "http:\/\/www.pogwizdow.szkolagminabochnia.pl",
                "ref:regon": "001191893",
                "ref:vatin": "PL8681821474",
                "operator": "Gmina Bochnia",
                "operator:type": "government",
                "amenity": "school"
            }
        },
        {
            "id": 22549,
            "type": "Feature",
            "geometry": {
                "type": "Point",
                "coordinates": [
                    20.32105,
                    49.93321
                ]
            },
            "properties": {
                "ref:rspo": 22549,
                "official_name": "Zesp\u00f3\u0142 Szk\u00f3\u0142 Gminnych im. Jana Paw\u0142a II w Nieszkowicach Ma\u0142ych",
                "name": "Zesp\u00f3\u0142 Szk\u00f3\u0142 Gminnych",
                "addr:postcode": "32-744",
                "addr:place": "Nieszkowice Ma\u0142e",
                "addr:housenumber": "112",
                "addr:city:simc": 812637,
                "phone": "+48 146101667",
                "email": "nieszkowicemale@szkolagminabochnia.pl",
                "website": "http:\/\/www.nieszkowicemale.szkolagminabochnia.pl",
                "ref:regon": "120086951",
                "ref:vatin": "PL8681821511",
                "operator": "Gmina Bochnia",
                "operator:type": "government",
                "landuse": "education",
                "fixme": "amenity=school, amenity=college albo landuse=education w zale\u017cno\u015bci od tego, jakie plac\u00f3wki wchodz\u0105 w sk\u0142ad zespo\u0142u. Sprawd\u017a, kiedy stosowa\u0107 amenity=* a kiedy landuse=education.",
                "note": "Children RSPO: 71074;130942"
            }
        },
        {
            "id": 71074,
            "type": "Feature",
            "geometry": {
                "type": "Point",
                "coordinates": [
                    20.32105,
                    49.93318
                ]
            },
            "properties": {
                "isced:level": "1;2",
                "ref:rspo": 71074,
                "official_name": "Zesp\u00f3\u0142 Szk\u00f3\u0142 Gminnych im. Jana Paw\u0142a II w Nieszkowicach Ma\u0142ych Szko\u0142a Podstawowa w Nieszkowicach Ma\u0142ych",
                "name": "Zesp\u00f3\u0142 Szk\u00f3\u0142 Gminnych",
                "addr:postcode": "32-744",
                "addr:place": "Nieszkowice Ma\u0142e",
                "addr:housenumber": "112",
                "addr:city:simc": 812637,
                "phone": "+48 146101667",
                "email": "nieszkowicemale@szkolagminabochnia.pl",
                "website": "http:\/\/www.nieszkowicemale.szkolagminabochnia.pl",
                "ref:regon": "850406830",
                "ref:vatin": "PL8681329738",
                "operator": "Gmina Bochnia",
                "operator:type": "government",
                "amenity": "school",
                "note": "Parent RSPO: 22549"
            }
        },
        {
            "id": 71009,
            "type": "Feature",
            "geometry": {
                "type": "Point",
                "coordinates": [
                    20.35789,
                    49.9347
                ]
            },
            "properties": {
                "isced:level": "1;2",
                "ref:rspo": 71009,
                "official_name": "Szko\u0142a Podstawowa im. Miko\u0142aja Kopernika w D\u0105browicy",
                "name": "Szko\u0142a Podstawowa",
                "addr:postcode": "32-744",
                "addr:place": "D\u0105browica",
                "addr:housenumber": "67",
                "addr:city:simc": 812175,
                "phone": "+48 146855210",
                "email": "dabrowica@szkolagminabochnia.pl",
                "website": "http:\/\/www.dabrowica.szkolagminabochnia.pl",
                "ref:regon": "001191858",
                "ref:vatin": "PL8681821468",
                "operator": "Gmina Bochnia",
                "operator:type": "government",
                "amenity": "school"
            }
        },
        {
            "id": 130942,
            "type": "Feature",
            "geometry": {
                "type": "Point",
                "coordinates": [
                    20.3227699,
                    49.93621
                ]
            },
            "properties": {
                "ref:rspo": 130942,
                "official_name": "Zesp\u00f3\u0142 Szk\u00f3\u0142 Gminnych im. Jana Paw\u0142a II w Nieszkowicach Ma\u0142ych - Gminne Przedszkole w Nieszkowicach Ma\u0142ych",
                "name": "Zesp\u00f3\u0142 Szk\u00f3\u0142 Gminnych",
                "addr:postcode": "32-744",
                "addr:place": "Nieszkowice Ma\u0142e",
                "addr:housenumber": "117",
                "addr:city:simc": 812637,
                "phone": "+48 146101667",
                "email": "nieszkowicemale@szkolagminabochnia.pl",
                "website": "http:\/\/www.nieszkowicemale.szkolagminabochnia.pl",
                "ref:regon": "364753789",
                "operator": "Gmina Bochnia",
                "operator:type": "government",
                "amenity": "kindergarten",
                "note": "Parent RSPO: 22549"
            }
        },
        {
            "id": 22554,
            "type": "Feature",
            "geometry": {
                "type": "Point",
                "coordinates": [
                    20.5050471,
                    49.9550781
                ]
            },
            "properties": {
                "ref:rspo": 22554,
                "official_name": "Gminne Przedszkole w Brze\u017anicy",
                "name": "Gminne Przedszkole w Brze\u017anicy",
                "addr:postcode": "32-700",
                "addr:place": "Brze\u017anica",
                "addr:housenumber": "168",
                "addr:city:simc": 811891,
                "phone": "+48 146851620",
                "email": "przedszkolebrzeznica@szkolagminabochnia.pl",
                "website": "http:\/\/przedszkolebrzeznica.szkolagminabochnia.pl",
                "ref:regon": "121439469",
                "ref:vatin": "PL8681948281",
                "operator": "Gmina Bochnia",
                "operator:type": "government",
                "amenity": "kindergarten"
            }
        },
        {
            "id": 22539,
            "type": "Feature",
            "geometry": {
                "type": "Point",
                "coordinates": [
                    20.3847455,
                    49.9572417
                ]
            },
            "properties": {
                "ref:rspo": 22539,
                "official_name": "Zesp\u00f3\u0142 Szk\u00f3\u0142 Gminnych im. Marii Sk\u0142odowskiej - Curie w \u0141apczycy",
                "name": "Zesp\u00f3\u0142 Szk\u00f3\u0142 Gminnych",
                "addr:postcode": "32-744",
                "addr:place": "\u0141apczyca",
                "addr:housenumber": "437",
                "addr:city:simc": 812330,
                "phone": "+48 146116125",
                "email": "lapczyca@szkolagminabochnia.pl",
                "website": "http:\/\/www.lapczyca.szkolagminabochnia.pl",
                "ref:regon": "120214691",
                "ref:vatin": "PL8681823680",
                "operator": "Gmina Bochnia",
                "operator:type": "government",
                "landuse": "education",
                "fixme": "amenity=school, amenity=college albo landuse=education w zale\u017cno\u015bci od tego, jakie plac\u00f3wki wchodz\u0105 w sk\u0142ad zespo\u0142u. Sprawd\u017a, kiedy stosowa\u0107 amenity=* a kiedy landuse=education.",
                "note": "Children RSPO: 22557;71393"
            }
        },
        {
            "id": 71393,
            "type": "Feature",
            "geometry": {
                "type": "Point",
                "coordinates": [
                    20.3847455,
                    49.957211699999995
                ]
            },
            "properties": {
                "isced:level": "1;2",
                "ref:rspo": 71393,
                "official_name": "Zesp\u00f3\u0142 Szk\u00f3\u0142 Gminnych im. Marii Sk\u0142odowskiej - Curie w \u0141apczycy Szko\u0142a Podstawowa z Oddzia\u0142ami Integracyjnymi w \u0141apczycy",
                "name": "Zesp\u00f3\u0142 Szk\u00f3\u0142 Gminnych",
                "addr:postcode": "32-744",
                "addr:place": "\u0141apczyca",
                "addr:housenumber": "437",
                "addr:city:simc": 812330,
                "phone": "+48 146116125",
                "email": "lapczyca@szkolagminabochnia.pl",
                "website": "http:\/\/www.lapczyca.szkolagminabochnia.pl",
                "ref:regon": "852488312",
                "ref:vatin": "PL8681292515",
                "operator": "Gmina Bochnia",
                "operator:type": "government",
                "amenity": "school",
                "note": "Parent RSPO: 22539"
            }
        },
        {
            "id": 70996,
            "type": "Feature",
            "geometry": {
                "type": "Point",
                "coordinates": [
                    20.49569,
                    49.95822
                ]
            },
            "properties": {
                "isced:level": "1;2",
                "ref:rspo": 70996,
                "official_name": "Szko\u0142a Podstawowa im. Jana Kochanowskiego w Brze\u017anicy",
                "name": "Szko\u0142a Podstawowa",
                "addr:postcode": "32-700",
                "addr:place": "Brze\u017anica",
                "addr:housenumber": "180",
                "addr:city:simc": 811891,
                "phone": "+48 146851780",
                "email": "brzeznica@szkolagminabochnia.pl",
                "website": "http:\/\/www.brzeznica.szkolagminabochnia.pl",
                "ref:regon": "001191835",
                "ref:vatin": "PL8681821534",
                "operator": "Gmina Bochnia",
                "operator:type": "government",
                "amenity": "school"
            }
        },
        {
            "id": 22551,
            "type": "Feature",
            "geometry": {
                "type": "Point",
                "coordinates": [
                    20.3298395,
                    49.959949
                ]
            },
            "properties": {
                "ref:rspo": 22551,
                "official_name": "Zesp\u00f3\u0142 Szk\u00f3\u0142 Gminnych im. Bohater\u00f3w Westerplatte w Siedlcu",
                "name": "Zesp\u00f3\u0142 Szk\u00f3\u0142 Gminnych",
                "addr:postcode": "32-744",
                "addr:place": "Siedlec",
                "addr:housenumber": "143",
                "addr:city:simc": 812896,
                "phone": "+48 146127008",
                "email": "siedlec@szkolagminabochnia.pl",
                "website": "http:\/\/www.siedlec.szkolagminabochnia.pl",
                "ref:regon": "120088364",
                "ref:vatin": "PL8681821480",
                "operator": "Gmina Bochnia",
                "operator:type": "government",
                "landuse": "education",
                "fixme": "amenity=school, amenity=college albo landuse=education w zale\u017cno\u015bci od tego, jakie plac\u00f3wki wchodz\u0105 w sk\u0142ad zespo\u0142u. Sprawd\u017a, kiedy stosowa\u0107 amenity=* a kiedy landuse=education.",
                "note": "Children RSPO: 71108;71122"
            }
        },
        {
            "id": 71108,
            "type": "Feature",
            "geometry": {
                "type": "Point",
                "coordinates": [
                    20.3298395,
                    49.959919
                ]
            },
            "properties": {
                "isced:level": "1;2",
                "ref:rspo": 71108,
                "official_name": "Zesp\u00f3\u0142 Szk\u00f3\u0142 Gminnych im. Bohater\u00f3w Westerplatte w Siedlcu Szko\u0142a Podstawowa w Siedlcu",
                "name": "Zesp\u00f3\u0142 Szk\u00f3\u0142 Gminnych",
                "addr:postcode": "32-744",
                "addr:place": "Siedlec",
                "addr:housenumber": "143",
                "addr:city:simc": 812896,
                "phone": "+48 146127008",
                "email": "siedlec@szkolagminabochnia.pl",
                "website": "http:\/\/www.siedlec.szkolagminabochnia.pl",
                "ref:regon": "001191918",
                "ref:vatin": "PL8681366308",
                "operator": "Gmina Bochnia",
                "operator:type": "government",
                "amenity": "school",
                "note": "Parent RSPO: 22551"
            }
        },
        {
            "id": 71122,
            "type": "Feature",
            "geometry": {
                "type": "Point",
                "coordinates": [
                    20.3298395,
                    49.959889000000004
                ]
            },
            "properties": {
                "ref:rspo": 71122,
                "official_name": "Zesp\u00f3\u0142 Szk\u00f3\u0142 Gminnych im. Bohater\u00f3w Westerplatte w Siedlcu Gminne Przedszkole w Siedlcu",
                "name": "Zesp\u00f3\u0142 Szk\u00f3\u0142 Gminnych",
                "addr:postcode": "32-744",
                "addr:place": "Siedlec",
                "addr:housenumber": "143",
                "addr:city:simc": 812896,
                "phone": "+48 146127008",
                "email": "siedlec@szkolagminabochnia.pl",
                "website": "http:\/\/www.siedlec.szkolagminabochnia.pl",
                "ref:regon": "121439593",
                "ref:vatin": "PL8681948341",
                "operator": "Gmina Bochnia",
                "operator:type": "government",
                "amenity": "kindergarten",
                "note": "Parent RSPO: 22551"
            }
        },
        {
            "id": 22557,
            "type": "Feature",
            "geometry": {
                "type": "Point",
                "coordinates": [
                    20.37613,
                    49.96186
                ]
            },
            "properties": {
                "ref:rspo": 22557,
                "official_name": "Gminne Przedszkole w \u0141apczycy",
                "name": "Gminne Przedszkole w \u0141apczycy",
                "addr:postcode": "32-744",
                "addr:place": "\u0141apczyca",
                "addr:housenumber": "334",
                "addr:city:simc": 812330,
                "phone": "+48 143000047",
                "email": "lapczyca@szkolagminabochnia.pl",
                "website": "http:\/\/www.lapczyca.szkolagminabochnia.pl",
                "ref:regon": "121439535",
                "ref:vatin": "PL8681948312",
                "operator": "Gmina Bochnia",
                "operator:type": "government",
                "amenity": "kindergarten",
                "note": "Parent RSPO: 22539"
            }
        },
        {
            "id": 22555,
            "type": "Feature",
            "geometry": {
                "type": "Point",
                "coordinates": [
                    20.36865,
                    49.98096
                ]
            },
            "properties": {
                "ref:rspo": 22555,
                "official_name": "Gminne Przedszkole w Cikowicach",
                "name": "Gminne Przedszkole w Cikowicach",
                "addr:postcode": "32-700",
                "addr:place": "Cikowice",
                "addr:housenumber": "69",
                "addr:city:simc": 812057,
                "phone": "+48 146120120",
                "email": "przedszkolecikowice@szkolagminabochnia.pl",
                "website": "http:\/\/www.przedszkolecikowice.szkolagminabochnia.pl",
                "ref:regon": "121439481",
                "ref:vatin": "PL8681948298",
                "operator": "Gmina Bochnia",
                "operator:type": "government",
                "amenity": "kindergarten"
            }
        },
        {
            "id": 22552,
            "type": "Feature",
            "geometry": {
                "type": "Point",
                "coordinates": [
                    20.3503389,
                    49.9820609
                ]
            },
            "properties": {
                "ref:rspo": 22552,
                "official_name": "Zesp\u00f3\u0142 Szk\u00f3\u0142 Gminnych im. Henryka Sienkiewicza w Stanis\u0142awicach",
                "name": "Zesp\u00f3\u0142 Szk\u00f3\u0142 Gminnych",
                "addr:postcode": "32-015",
                "addr:place": "Stanis\u0142awice",
                "addr:housenumber": "306",
                "addr:city:simc": 321939,
                "phone": "+48 122842194",
                "email": "stanislawice@szkolagminabochnia.pl",
                "website": "http:\/\/www.stanislawice.szkolagminabochnia.pl",
                "ref:regon": "120087175",
                "ref:vatin": "PL8681821497",
                "operator": "Gmina Bochnia",
                "operator:type": "government",
                "landuse": "education",
                "fixme": "amenity=school, amenity=college albo landuse=education w zale\u017cno\u015bci od tego, jakie plac\u00f3wki wchodz\u0105 w sk\u0142ad zespo\u0142u. Sprawd\u017a, kiedy stosowa\u0107 amenity=* a kiedy landuse=education.",
                "note": "Children RSPO: 71140;71417"
            }
        },
        {
            "id": 71140,
            "type": "Feature",
            "geometry": {
                "type": "Point",
                "coordinates": [
                    20.3503389,
                    49.9820309
                ]
            },
            "properties": {
                "ref:rspo": 71140,
                "official_name": "Zesp\u00f3\u0142 Szk\u00f3\u0142 Gminnych im. Henryka Sienkiewicza w Stanis\u0142awicach Gminne Przedszkole w Stanis\u0142awicach",
                "name": "Zesp\u00f3\u0142 Szk\u00f3\u0142 Gminnych",
                "addr:postcode": "32-015",
                "addr:place": "Stanis\u0142awice",
                "addr:housenumber": "306",
                "addr:city:simc": 321939,
                "phone": "+48 122842097",
                "email": "stanislawice@szkolagminabochnia.pl",
                "website": "http:\/\/www.stanislawice@szkolagminabochnia.pl",
                "ref:regon": "121439618",
                "ref:vatin": "PL8681948358",
                "operator": "Gmina Bochnia",
                "operator:type": "government",
                "amenity": "kindergarten",
                "note": "Parent RSPO: 22552"
            }
        },
        {
            "id": 71417,
            "type": "Feature",
            "geometry": {
                "type": "Point",
                "coordinates": [
                    20.3503389,
                    49.9820009
                ]
            },
            "properties": {
                "isced:level": "1;2",
                "ref:rspo": 71417,
                "official_name": "Zesp\u00f3\u0142 Szk\u00f3\u0142 Gminnych im. Henryka Sienkiewicza w Stanis\u0142awicach Szko\u0142a Podstawowa w Stanis\u0142awicach",
                "name": "Zesp\u00f3\u0142 Szk\u00f3\u0142 Gminnych",
                "addr:postcode": "32-015",
                "addr:place": "Stanis\u0142awice",
                "addr:housenumber": "306",
                "addr:city:simc": 321939,
                "phone": "+48 122842194",
                "email": "stanislawice@szkolagminabochnia.pl",
                "website": "http:\/\/www.stanislawice@szkolagminabochnia.pl",
                "ref:regon": "001234042",
                "ref:vatin": "PL6831838625",
                "operator": "Gmina Bochnia",
                "operator:type": "government",
                "amenity": "school",
                "note": "Parent RSPO: 22552"
            }
        },
        {
            "id": 71003,
            "type": "Feature",
            "geometry": {
                "type": "Point",
                "coordinates": [
                    20.39969,
                    49.98953
                ]
            },
            "properties": {
                "isced:level": "1;2",
                "ref:rspo": 71003,
                "official_name": "Szko\u0142a Podstawowa im. Kr\u00f3la Kazimierza Wielkiego w Damienicach",
                "name": "Szko\u0142a Podstawowa",
                "addr:postcode": "32-700",
                "addr:place": "Damienice",
                "addr:housenumber": "11",
                "addr:city:simc": 812100,
                "phone": "+48 146122565",
                "email": "damienice@szkolagminabochnia.pl",
                "website": "http:\/\/www.damienice.szkolagminabochnia.pl",
                "ref:regon": "001191841",
                "ref:vatin": "PL8681821528",
                "operator": "Gmina Bochnia",
                "operator:type": "government",
                "amenity": "school"
            }
        },
        {
            "id": 270753,
            "type": "Feature",
            "geometry": {
                "type": "Point",
                "coordinates": [
                    20.41139,
                    49.99656
                ]
            },
            "properties": {
                "ref:rspo": 270753,
                "official_name": "Przedszkole Niepubliczne \"Le\u015bne Ludki\"",
                "name": "Przedszkole Niepubliczne \"Le\u015bne Ludki\"",
                "addr:postcode": "32-700",
                "addr:place": "Prosz\u00f3wki",
                "addr:housenumber": "151B",
                "addr:city:simc": 812821,
                "phone": "+48 510631021",
                "email": "centrumlesneludki@gmail.com",
                "website": "http:\/\/lesneludki.edu.pl",
                "ref:regon": "382895073",
                "operator": "Natalia Wr\u00f3blewska",
                "operator:type": "private",
                "amenity": "kindergarten"
            }
        },
        {
            "id": 22559,
            "type": "Feature",
            "geometry": {
                "type": "Point",
                "coordinates": [
                    20.42566,
                    49.9983999
                ]
            },
            "properties": {
                "ref:rspo": 22559,
                "official_name": "Gminne Przedszkole w Prosz\u00f3wkach",
                "name": "Gminne Przedszkole w Prosz\u00f3wkach",
                "addr:postcode": "32-700",
                "addr:place": "Prosz\u00f3wki",
                "addr:housenumber": "19",
                "addr:city:simc": 812821,
                "phone": "+48 146110088",
                "email": "proszowki@szkolagminabochnia.pl",
                "website": "http:\/\/www.proszowki.szkolagminabochnia.pl",
                "ref:regon": "121439570",
                "ref:vatin": "PL8681948335",
                "operator": "Gmina Bochnia",
                "operator:type": "government",
                "amenity": "kindergarten",
                "note": "Parent RSPO: 22541"
            }
        },
        {
            "id": 22541,
            "type": "Feature",
            "geometry": {
                "type": "Point",
                "coordinates": [
                    20.42931,
                    50.00308
                ]
            },
            "properties": {
                "ref:rspo": 22541,
                "official_name": "Zesp\u00f3\u0142 Szk\u00f3\u0142 Gminnych w Prosz\u00f3wkach",
                "name": "Zesp\u00f3\u0142 Szk\u00f3\u0142 Gminnych w Prosz\u00f3wkach",
                "addr:postcode": "32-700",
                "addr:place": "Prosz\u00f3wki",
                "addr:housenumber": "365",
                "addr:city:simc": 812821,
                "phone": "+48 146110088",
                "email": "proszowki@szkolagminabochnia.pl",
                "website": "http:\/\/www.proszowki.szkolagminabochnia.pl",
                "ref:regon": "852718812",
                "ref:vatin": "PL8681767237",
                "operator": "Gmina Bochnia",
                "operator:type": "government",
                "landuse": "education",
                "fixme": "amenity=school, amenity=college albo landuse=education w zale\u017cno\u015bci od tego, jakie plac\u00f3wki wchodz\u0105 w sk\u0142ad zespo\u0142u. Sprawd\u017a, kiedy stosowa\u0107 amenity=* a kiedy landuse=education.",
                "note": "Children RSPO: 22559;71101"
            }
        },
        {
            "id": 71101,
            "type": "Feature",
            "geometry": {
                "type": "Point",
                "coordinates": [
                    20.42931,
                    50.003049999999995
                ]
            },
            "properties": {
                "isced:level": "1;2",
                "ref:rspo": 71101,
                "official_name": "Zesp\u00f3\u0142 Szk\u00f3\u0142 Gminnych w Prosz\u00f3wkach Szko\u0142a Podstawowa w Prosz\u00f3wkach im. Ksi\u0119dza J\u00f3zefa Skwiruta",
                "name": "Zesp\u00f3\u0142 Szk\u00f3\u0142 Gminnych w Prosz\u00f3wkach Szko\u0142a Podstawowa w Prosz\u00f3wkach",
                "addr:postcode": "32-700",
                "addr:place": "Prosz\u00f3wki",
                "addr:housenumber": "365",
                "addr:city:simc": 812821,
                "phone": "+48 146110088",
                "email": "proszowki@szkolagminabochnia.pl",
                "website": "http:\/\/www.proszowki.szkolagminabochnia.pl",
                "ref:regon": "001191901",
                "ref:vatin": "PL8681648509",
                "operator": "Gmina Bochnia",
                "operator:type": "government",
                "amenity": "school",
                "note": "Parent RSPO: 22541"
            }
        },
        {
            "id": 22538,
            "type": "Feature",
            "geometry": {
                "type": "Point",
                "coordinates": [
                    20.46302,
                    50.02668
                ]
            },
            "properties": {
                "ref:rspo": 22538,
                "official_name": "Zesp\u00f3\u0142 Szk\u00f3\u0142 Gminnych im. Miko\u0142aja Kopernika w Gaw\u0142owie",
                "name": "Zesp\u00f3\u0142 Szk\u00f3\u0142 Gminnych",
                "addr:postcode": "32-711",
                "addr:place": "Gaw\u0142\u00f3w",
                "addr:housenumber": "64",
                "addr:city:simc": 812212,
                "phone": "+48 146859500",
                "email": "gawlow@szkolagminabochnia.pl",
                "website": "http:\/\/www.gawlow.szkolagminabochnia.pl",
                "ref:regon": "001191864",
                "ref:vatin": "PL8681652020",
                "operator": "Gmina Bochnia",
                "operator:type": "government",
                "landuse": "education",
                "fixme": "amenity=school, amenity=college albo landuse=education w zale\u017cno\u015bci od tego, jakie plac\u00f3wki wchodz\u0105 w sk\u0142ad zespo\u0142u. Sprawd\u017a, kiedy stosowa\u0107 amenity=* a kiedy landuse=education.",
                "note": "Children RSPO: 22556;71024"
            }
        },
        {
            "id": 22556,
            "type": "Feature",
            "geometry": {
                "type": "Point",
                "coordinates": [
                    20.46302,
                    50.02665
                ]
            },
            "properties": {
                "ref:rspo": 22556,
                "official_name": "Gminne Przedszkole w Gaw\u0142owie",
                "name": "Gminne Przedszkole w Gaw\u0142owie",
                "addr:postcode": "32-711",
                "addr:place": "Gaw\u0142\u00f3w",
                "addr:housenumber": "64",
                "addr:city:simc": 812212,
                "phone": "+48 146859500",
                "email": "gawlow@szkolagminabochnia.pl",
                "ref:regon": "121439498",
                "ref:vatin": "PL8681948306",
                "operator": "Gmina Bochnia",
                "operator:type": "government",
                "amenity": "kindergarten",
                "note": "Parent RSPO: 22538"
            }
        },
        {
            "id": 71024,
            "type": "Feature",
            "geometry": {
                "type": "Point",
                "coordinates": [
                    20.46302,
                    50.02662
                ]
            },
            "properties": {
                "isced:level": "1;2",
                "ref:rspo": 71024,
                "official_name": "Zesp\u00f3\u0142 Szk\u00f3\u0142 Gminnych im. Miko\u0142aja Kopernika w Gaw\u0142owie Szko\u0142a Podstawowa z Oddzia\u0142ami Sportowymi w Gaw\u0142owie",
                "name": "Zesp\u00f3\u0142 Szk\u00f3\u0142 Gminnych",
                "addr:postcode": "32-711",
                "addr:place": "Gaw\u0142\u00f3w",
                "addr:housenumber": "64",
                "addr:city:simc": 812212,
                "phone": "+48 146859500",
                "email": "gawlow@szkolagminabochnia.pl",
                "website": "http:\/\/www.gawlow.szkolagminabochnia.pl",
                "ref:regon": "852488275",
                "operator": "Gmina Bochnia",
                "operator:type": "government",
                "amenity": "school",
                "note": "Parent RSPO: 22538"
            }
        },
        {
            "id": 70981,
            "type": "Feature",
            "geometry": {
                "type": "Point",
                "coordinates": [
                    20.44179,
                    50.03255
                ]
            },
            "properties": {
                "ref:rspo": 70981,
                "official_name": "Zesp\u00f3\u0142 Szk\u00f3\u0142 Gminnych im. Adama Mickiewcza w Baczkowie Przedszkole w Baczkowie",
                "name": "Zesp\u00f3\u0142 Szk\u00f3\u0142 Gminnych",
                "addr:postcode": "32-708",
                "addr:place": "Baczk\u00f3w",
                "addr:housenumber": "113",
                "addr:city:simc": 811796,
                "phone": "+48 146850420",
                "email": "baczkow@szkolagminabochnia.pl",
                "website": "http:\/\/www.baczkow.przedszkolowo.pl",
                "ref:regon": "121439430",
                "ref:vatin": "PL8681948269",
                "operator": "Gmina Bochnia",
                "operator:type": "government",
                "amenity": "kindergarten",
                "note": "Parent RSPO: 22542"
            }
        },
        {
            "id": 22542,
            "type": "Feature",
            "geometry": {
                "type": "Point",
                "coordinates": [
                    20.44196,
                    50.03289
                ]
            },
            "properties": {
                "ref:rspo": 22542,
                "official_name": "Zesp\u00f3\u0142 Szk\u00f3\u0142 Gminnych im. Adama Mickiewicza w Baczkowie",
                "name": "Zesp\u00f3\u0142 Szk\u00f3\u0142 Gminnych",
                "addr:postcode": "32-708",
                "addr:place": "Baczk\u00f3w",
                "addr:housenumber": "23",
                "addr:city:simc": 811796,
                "phone": "+48 146110518",
                "email": "baczkow@szkolagminabochnia.pl",
                "website": "http:\/\/www.baczkow.szkolagminabochnia.pl",
                "ref:regon": "852719250",
                "ref:vatin": "PL8681964601",
                "operator": "Gmina Bochnia",
                "operator:type": "government",
                "landuse": "education",
                "fixme": "amenity=school, amenity=college albo landuse=education w zale\u017cno\u015bci od tego, jakie plac\u00f3wki wchodz\u0105 w sk\u0142ad zespo\u0142u. Sprawd\u017a, kiedy stosowa\u0107 amenity=* a kiedy landuse=education.",
                "note": "Children RSPO: 70981;71148"
            }
        },
        {
            "id": 71148,
            "type": "Feature",
            "geometry": {
                "type": "Point",
                "coordinates": [
                    20.44196,
                    50.03286
                ]
            },
            "properties": {
                "isced:level": "1;2",
                "ref:rspo": 71148,
                "official_name": "Zesp\u00f3\u0142 Szk\u00f3\u0142 Gminnych im. Adama Mickiewicza w Baczkowie Szko\u0142a Podstawowa w Baczkowie",
                "name": "Zesp\u00f3\u0142 Szk\u00f3\u0142 Gminnych",
                "addr:postcode": "32-708",
                "addr:place": "Baczk\u00f3w",
                "addr:housenumber": "23",
                "addr:city:simc": 811796,
                "phone": "+48 146110518",
                "email": "baczkow@szkolagminabochnia.pl",
                "website": "http:\/\/www.baczkow.szkolagminabochnia",
                "ref:regon": "001191812",
                "ref:vatin": "PL8681578341",
                "operator": "Gmina Bochnia",
                "operator:type": "government",
                "amenity": "school",
                "note": "Parent RSPO: 22542"
            }
        },
        {
            "id": 22543,
            "type": "Feature",
            "geometry": {
                "type": "Point",
                "coordinates": [
                    20.49841,
                    50.05737
                ]
            },
            "properties": {
                "ref:rspo": 22543,
                "official_name": "Zesp\u00f3\u0142 Szk\u00f3\u0142 Gminnych im. Henryka Sienkiewicza w Bogucicach",
                "name": "Zesp\u00f3\u0142 Szk\u00f3\u0142 Gminnych",
                "addr:postcode": "32-711",
                "addr:place": "Bogucice",
                "addr:housenumber": "83",
                "addr:city:simc": 811833,
                "phone": "+48 146116580",
                "email": "bogucice@szkolagminabochnia.pl",
                "website": "http:\/\/www.bogucice.szkolagminabochnia.pl",
                "ref:regon": "120086460",
                "ref:vatin": "PL8681821505",
                "operator": "Gmina Bochnia",
                "operator:type": "government",
                "landuse": "education",
                "fixme": "amenity=school, amenity=college albo landuse=education w zale\u017cno\u015bci od tego, jakie plac\u00f3wki wchodz\u0105 w sk\u0142ad zespo\u0142u. Sprawd\u017a, kiedy stosowa\u0107 amenity=* a kiedy landuse=education.",
                "note": "Children RSPO: 22553;70985"
            }
        },
        {
            "id": 70985,
            "type": "Feature",
            "geometry": {
                "type": "Point",
                "coordinates": [
                    20.49841,
                    50.057339999999996
                ]
            },
            "properties": {
                "isced:level": "1;2",
                "ref:rspo": 70985,
                "official_name": "Zesp\u00f3\u0142 Szk\u00f3\u0142 Gminnych im. Henryka Sienkiewicza w Bogucicach Szko\u0142a Podstawowa w Bogucicach",
                "name": "Zesp\u00f3\u0142 Szk\u00f3\u0142 Gminnych",
                "addr:postcode": "32-711",
                "addr:place": "Bogucice",
                "addr:housenumber": "83",
                "addr:city:simc": 811833,
                "phone": "+48 146116580",
                "email": "bogucice@szkolagminabochnia.pl",
                "website": "http:\/\/www.bogucice.szkolagminabochnia.pl",
                "ref:regon": "001191829",
                "ref:vatin": "PL8681369330",
                "operator": "Gmina Bochnia",
                "operator:type": "government",
                "amenity": "school",
                "note": "Parent RSPO: 22543"
            }
        },
        {
            "id": 22553,
            "type": "Feature",
            "geometry": {
                "type": "Point",
                "coordinates": [
                    20.49825,
                    50.05779
                ]
            },
            "properties": {
                "ref:rspo": 22553,
                "official_name": "Gminne Przedszkole w Bogucicach",
                "name": "Gminne Przedszkole w Bogucicach",
                "addr:postcode": "32-711",
                "addr:place": "Bogucice",
                "addr:housenumber": "172",
                "addr:city:simc": 811833,
                "phone": "+48 146859800",
                "email": "bogucice@szkolagminabochnia.pl",
                "website": "http:\/\/www.bogucice.szkolagminabochnia.pl",
                "ref:regon": "121439446",
                "ref:vatin": "PL8681948275",
                "operator": "Gmina Bochnia",
                "operator:type": "government",
                "amenity": "kindergarten",
                "note": "Parent RSPO: 22543"
            }
        }
    ]
}