{
    "type": "FeatureCollection",
    "features": [
        {
            "id": 89422,
            "type": "Feature",
            "geometry": {
                "type": "Point",
                "coordinates": [
                    20.44488,
                    49.78844
                ]
            },
            "properties": {
                "isced:level": "1;2",
                "ref:rspo": 89422,
                "official_name": "Szko\u0142a Podstawowa im. B\u0142ogos\u0142awionej Karoliny K\u00f3zk\u00f3wny",
                "name": "Szko\u0142a Podstawowa",
                "addr:country": "PL",
                "addr:postcode": "32-731",
                "addr:place": "Rozdziele",
                "addr:housenumber": "156",
                "addr:teryt:simc": 839168,
                "contact:phone": "+48 146133033",
                "contact:email": "zsrozdziele@poczta.onet.pl",
                "contact:website": "http:\/\/www.zsrozdziele.pl",
                "ref:regon": "001202668",
                "ref:vatin": "PL8681768165",
                "operator": "Gmina \u017begocina",
                "operator:type": "government",
                "amenity": "school"
            }
        },
        {
            "id": 40180,
            "type": "Feature",
            "geometry": {
                "type": "Point",
                "coordinates": [
                    20.44978,
                    49.78992
                ]
            },
            "properties": {
                "ref:rspo": 40180,
                "official_name": "Szkolne Schronisko M\u0142odzie\u017cowe w Rozdzielu",
                "name": "Szkolne Schronisko M\u0142odzie\u017cowe w Rozdzielu",
                "addr:country": "PL",
                "addr:postcode": "32-731",
                "addr:place": "Rozdziele",
                "addr:housenumber": "194",
                "addr:teryt:simc": 839168,
                "contact:phone": "+48 146133087",
                "contact:email": "schronisko@powiat.bochnia.pl",
                "contact:website": "http:\/\/www.schronisko.rozdziele.pl",
                "ref:regon": "851777534",
                "ref:vatin": "PL8681657419",
                "operator": "Powiat Boche\u0144ski",
                "operator:type": "government",
                "tourism": "hostel"
            }
        },
        {
            "id": 73954,
            "type": "Feature",
            "geometry": {
                "type": "Point",
                "coordinates": [
                    20.42083,
                    49.81245
                ]
            },
            "properties": {
                "ref:rspo": 73954,
                "official_name": "Przedszkole Publiczne w \u017begocinie",
                "name": "Przedszkole Publiczne w \u017begocinie",
                "addr:country": "PL",
                "addr:postcode": "32-731",
                "addr:place": "\u017begocina",
                "addr:housenumber": "234",
                "addr:teryt:simc": 839464,
                "contact:phone": "+48 146132018",
                "contact:email": "przedszkolezegocina@gmail.com",
                "contact:website": "http:\/\/www.przedszkolezegocina.pl",
                "ref:regon": "851789767",
                "ref:vatin": "PL8681679881",
                "operator": "Gmina \u017begocina",
                "operator:type": "government",
                "amenity": "kindergarten"
            }
        },
        {
            "id": 73952,
            "type": "Feature",
            "geometry": {
                "type": "Point",
                "coordinates": [
                    20.42125,
                    49.81273
                ]
            },
            "properties": {
                "isced:level": "1;2",
                "ref:rspo": 73952,
                "official_name": "Szko\u0142a Podstawowa im. \u015aw. Kingi w \u017begocinie",
                "name": "Szko\u0142a Podstawowa",
                "addr:country": "PL",
                "addr:postcode": "32-731",
                "addr:place": "\u017begocina",
                "addr:housenumber": "50",
                "addr:teryt:simc": 839464,
                "contact:phone": "+48 146132028",
                "contact:email": "pspzeg@wp.pl",
                "ref:regon": "000718482",
                "ref:vatin": "PL8681679846",
                "operator": "Gmina \u017begocina",
                "operator:type": "government",
                "amenity": "school"
            }
        },
        {
            "id": 73956,
            "type": "Feature",
            "geometry": {
                "type": "Point",
                "coordinates": [
                    20.42125,
                    49.8127
                ]
            },
            "properties": {
                "ref:rspo": 73956,
                "official_name": "Szko\u0142a Muzyczna I Stopnia w \u017begocinie",
                "name": "Szko\u0142a Muzyczna I Stopnia w \u017begocinie",
                "addr:country": "PL",
                "addr:postcode": "32-731",
                "addr:place": "\u017begocina",
                "addr:housenumber": "50",
                "addr:teryt:simc": 839464,
                "contact:phone": "+48 146132028",
                "contact:email": "sm1zegocina@vp.pl",
                "contact:website": "http:\/\/smzegocina.pl",
                "ref:regon": "120995040",
                "ref:vatin": "PL8681919925",
                "operator": "Gmina \u017begocina",
                "operator:type": "government",
                "amenity": "music_school"
            }
        },
        {
            "id": 73960,
            "type": "Feature",
            "geometry": {
                "type": "Point",
                "coordinates": [
                    20.42125,
                    49.812670000000004
                ]
            },
            "properties": {
                "ref:rspo": 73960,
                "official_name": "Zesp\u00f3\u0142 Szk\u00f3\u0142 im. \u015awi\u0119tej Jadwigi Kr\u00f3lowej w \u017begocinie",
                "name": "Zesp\u00f3\u0142 Szk\u00f3\u0142",
                "addr:country": "PL",
                "addr:postcode": "32-731",
                "addr:place": "\u017begocina",
                "addr:housenumber": "50",
                "addr:teryt:simc": 839464,
                "contact:phone": "+48 146132120",
                "contact:email": "zslgz1@wp.pl",
                "ref:regon": "851764135",
                "ref:vatin": "PL8681649644",
                "operator": "Gmina \u017begocina",
                "operator:type": "government",
                "landuse": "education",
                "fixme": "amenity=school, amenity=college albo landuse=education w zale\u017cno\u015bci od tego, jakie plac\u00f3wki wchodz\u0105 w sk\u0142ad zespo\u0142u. Sprawd\u017a, kiedy stosowa\u0107 amenity=* a kiedy landuse=education.",
                "note": "Children RSPO: 107530;107532;107533"
            }
        },
        {
            "id": 107530,
            "type": "Feature",
            "geometry": {
                "type": "Point",
                "coordinates": [
                    20.42125,
                    49.81264
                ]
            },
            "properties": {
                "isced:level": "3",
                "ref:rspo": 107530,
                "official_name": "Liceum Og\u00f3lnokszta\u0142c\u0105ce w \u017begocinie",
                "name": "Liceum Og\u00f3lnokszta\u0142c\u0105ce w \u017begocinie",
                "addr:country": "PL",
                "addr:postcode": "32-731",
                "addr:place": "\u017begocina",
                "addr:housenumber": "50",
                "addr:teryt:simc": 839464,
                "contact:phone": "+48 146132120",
                "contact:email": "zslgz1@wp.pl",
                "ref:regon": "852714323",
                "operator": "Gmina \u017begocina",
                "operator:type": "government",
                "amenity": "school",
                "note": "Parent RSPO: 73960"
            }
        },
        {
            "id": 107532,
            "type": "Feature",
            "geometry": {
                "type": "Point",
                "coordinates": [
                    20.42125,
                    49.81261
                ]
            },
            "properties": {
                "isced:level": "3",
                "ref:rspo": 107532,
                "official_name": "Bran\u017cowa Szko\u0142a I Stopnia",
                "name": "Bran\u017cowa Szko\u0142a I Stopnia",
                "addr:country": "PL",
                "addr:postcode": "32-731",
                "addr:place": "\u017begocina",
                "addr:housenumber": "50",
                "addr:teryt:simc": 839464,
                "contact:phone": "+48 146132120",
                "contact:email": "zslgz1@wp.pl",
                "ref:regon": "852714346",
                "ref:vatin": "PL8681649644",
                "operator": "Gmina \u017begocina",
                "operator:type": "government",
                "amenity": "school",
                "note": "Parent RSPO: 73960"
            }
        },
        {
            "id": 107533,
            "type": "Feature",
            "geometry": {
                "type": "Point",
                "coordinates": [
                    20.42125,
                    49.812580000000004
                ]
            },
            "properties": {
                "isced:level": "3",
                "ref:rspo": 107533,
                "official_name": "Liceum Og\u00f3lnokszta\u0142cace dla Doros\u0142ych w \u017begocinie",
                "name": "Liceum Og\u00f3lnokszta\u0142cace dla Doros\u0142ych w \u017begocinie",
                "addr:country": "PL",
                "addr:postcode": "32-731",
                "addr:place": "\u017begocina",
                "addr:housenumber": "50",
                "addr:teryt:simc": 839464,
                "contact:phone": "+48 146132120",
                "contact:email": "zslgz1@wp.pl",
                "ref:regon": "852622704",
                "operator": "Gmina \u017begocina",
                "operator:type": "government",
                "amenity": "school",
                "note": "Parent RSPO: 73960"
            }
        },
        {
            "id": 73953,
            "type": "Feature",
            "geometry": {
                "type": "Point",
                "coordinates": [
                    20.44691,
                    49.81855
                ]
            },
            "properties": {
                "isced:level": "1;2",
                "ref:rspo": 73953,
                "official_name": "Szko\u0142a Podstawowa im. \u015aw. Miko\u0142aja w Bytomsku",
                "name": "Szko\u0142a Podstawowa",
                "addr:country": "PL",
                "addr:postcode": "32-731",
                "addr:place": "Bytomsko",
                "addr:housenumber": "77",
                "addr:teryt:simc": 838453,
                "contact:phone": "+48 146132279",
                "contact:email": "spbytomsko@zegocina.pl",
                "contact:website": "http:\/\/www.spbytomsko.pl\/",
                "ref:regon": "001277471",
                "ref:vatin": "PL8681679869",
                "operator": "Gmina \u017begocina",
                "operator:type": "government",
                "amenity": "school"
            }
        },
        {
            "id": 107522,
            "type": "Feature",
            "geometry": {
                "type": "Point",
                "coordinates": [
                    20.41337,
                    49.82922
                ]
            },
            "properties": {
                "isced:level": "1;2",
                "ref:rspo": 107522,
                "official_name": "Szko\u0142a Podstawowa im. Jana Paw\u0142a II w \u0141\u0105kcie G\u00f3rnej",
                "name": "Szko\u0142a Podstawowa",
                "addr:country": "PL",
                "addr:postcode": "32-731",
                "addr:place": "\u0141\u0105kta G\u00f3rna",
                "addr:housenumber": "304",
                "addr:teryt:simc": 838973,
                "contact:phone": "+48 146131623",
                "contact:email": "splakta@zegocina.pl",
                "ref:regon": "001277494",
                "ref:vatin": "PL8681679852",
                "operator": "Gmina \u017begocina",
                "operator:type": "government",
                "amenity": "school"
            }
        },
        {
            "id": 73955,
            "type": "Feature",
            "geometry": {
                "type": "Point",
                "coordinates": [
                    20.43052,
                    49.83138
                ]
            },
            "properties": {
                "ref:rspo": 73955,
                "official_name": "Przedszkole Publiczne w \u0141\u0105kcie G\u00f3rnej",
                "name": "Przedszkole Publiczne w \u0141\u0105kcie G\u00f3rnej",
                "addr:country": "PL",
                "addr:postcode": "32-731",
                "addr:place": "\u0141\u0105kta G\u00f3rna",
                "addr:housenumber": "9",
                "addr:teryt:simc": 838973,
                "contact:phone": "+48 146131580",
                "contact:email": "joanna_sroka2@wp.pl",
                "ref:regon": "851789750",
                "ref:vatin": "PL8681679875",
                "operator": "Gmina \u017begocina",
                "operator:type": "government",
                "amenity": "kindergarten"
            }
        }
    ]
}