{
    "type": "FeatureCollection",
    "features": [
        {
            "id": 3653,
            "type": "Feature",
            "geometry": {
                "type": "Point",
                "coordinates": [
                    20.36718,
                    49.79782
                ]
            },
            "properties": {
                "isced:level": "1;2",
                "ref:rspo": 3653,
                "official_name": "Publiczna Szko\u0142a Podstawowa w Kamionnej im. Marii Konopnickiej",
                "name": "Publiczna Szko\u0142a Podstawowa w Kamionnej",
                "addr:country": "PL",
                "addr:postcode": "32-732",
                "addr:place": "Kamionna",
                "addr:housenumber": "263",
                "addr:teryt:sym_ul": 838542,
                "contact:phone": "+48 146137003",
                "contact:email": "pspkamionna@op.pl",
                "contact:website": "http:\/\/pgkamionna.szkolnastrona.pl",
                "ref:regon": "001202639",
                "ref:vatin": "PL8681673772",
                "operator": "Gmina Trzciana",
                "operator:type": "government",
                "amenity": "school"
            }
        },
        {
            "id": 276007,
            "type": "Feature",
            "geometry": {
                "type": "Point",
                "coordinates": [
                    20.36718,
                    49.79779
                ]
            },
            "properties": {
                "ref:rspo": 276007,
                "official_name": "Przedszkole Z Oddzia\u0142em Integracyjnym \"Kubu\u015b Puchatek\" w Kamionnej",
                "name": "Przedszkole Z Oddzia\u0142em Integracyjnym \"Kubu\u015b Puchatek\" w Kamionnej",
                "addr:country": "PL",
                "addr:postcode": "32-732",
                "addr:place": "Kamionna",
                "addr:housenumber": "263",
                "addr:teryt:sym_ul": 838542,
                "contact:phone": "+48 183376770",
                "contact:email": "midrew@poczta.fm",
                "ref:regon": "386964078",
                "operator": "Gra\u017cyna Michura",
                "operator:type": "private",
                "amenity": "kindergarten"
            }
        },
        {
            "id": 3667,
            "type": "Feature",
            "geometry": {
                "type": "Point",
                "coordinates": [
                    20.37569,
                    49.83114
                ]
            },
            "properties": {
                "isced:level": "1;2",
                "ref:rspo": 3667,
                "official_name": "Publiczna Szko\u0142a Podstawowa w Kierlik\u00f3wce im. Edwarda Dembowskiego",
                "name": "Publiczna Szko\u0142a Podstawowa w Kierlik\u00f3wce",
                "addr:country": "PL",
                "addr:postcode": "32-732",
                "addr:place": "Kierlik\u00f3wka",
                "addr:housenumber": "4",
                "addr:teryt:sym_ul": 838737,
                "contact:phone": "+48 146136023",
                "contact:email": "pspk4@op.pl",
                "contact:website": "http:\/\/www.pspkierlikowka.pl",
                "ref:regon": "001202645",
                "ref:vatin": "PL8681673826",
                "operator": "Gmina Trzciana",
                "operator:type": "government",
                "amenity": "school"
            }
        },
        {
            "id": 133589,
            "type": "Feature",
            "geometry": {
                "type": "Point",
                "coordinates": [
                    20.37569,
                    49.831109999999995
                ]
            },
            "properties": {
                "ref:rspo": 133589,
                "official_name": "Przedszkole Integracyjne \"Kubu\u015b Puchatek\"",
                "name": "Przedszkole Integracyjne \"Kubu\u015b Puchatek\"",
                "addr:country": "PL",
                "addr:postcode": "32-732",
                "addr:place": "Kierlik\u00f3wka",
                "addr:housenumber": "4",
                "addr:teryt:sym_ul": 838737,
                "contact:phone": "+48 183376770",
                "contact:email": "midrew@poczta.fm",
                "contact:website": "http:\/\/przedszkolesloneczko.com.pl",
                "ref:regon": "367450150",
                "operator": "Gra\u017cyna Michura",
                "operator:type": "private",
                "amenity": "kindergarten"
            }
        },
        {
            "id": 4558,
            "type": "Feature",
            "geometry": {
                "type": "Point",
                "coordinates": [
                    20.39976,
                    49.83881
                ]
            },
            "properties": {
                "isced:level": "1;2",
                "ref:rspo": 4558,
                "official_name": "Publiczna Szko\u0142a Podstawowa w \u0141\u0105kcie Dolnej im. \u015aw. Kingi",
                "name": "Publiczna Szko\u0142a Podstawowa w \u0141\u0105kcie Dolnej",
                "addr:country": "PL",
                "addr:postcode": "32-733",
                "addr:place": "\u0141\u0105kta Dolna",
                "addr:housenumber": "136",
                "addr:teryt:sym_ul": 838884,
                "contact:phone": "+48 146136017",
                "contact:email": "psplaktadolna@wp.pl",
                "ref:regon": "001277465",
                "ref:vatin": "PL8681673795",
                "operator": "Gmina Trzciana",
                "operator:type": "government",
                "amenity": "school"
            }
        },
        {
            "id": 19832,
            "type": "Feature",
            "geometry": {
                "type": "Point",
                "coordinates": [
                    20.36888,
                    49.84549
                ]
            },
            "properties": {
                "ref:rspo": 19832,
                "official_name": "Publiczne Przedszkole w Trzcianie",
                "name": "Publiczne Przedszkole w Trzcianie",
                "addr:country": "PL",
                "addr:postcode": "32-733",
                "addr:place": "Trzciana",
                "addr:housenumber": "300",
                "addr:teryt:sym_ul": 839317,
                "contact:phone": "+48 146136027",
                "contact:email": "pgtrzciana@wp.pl",
                "ref:regon": "851900271",
                "ref:vatin": "PL8681700486",
                "operator": "Gmina Trzciana",
                "operator:type": "government",
                "amenity": "kindergarten",
                "note": "Parent RSPO: 18098"
            }
        },
        {
            "id": 18098,
            "type": "Feature",
            "geometry": {
                "type": "Point",
                "coordinates": [
                    20.36503,
                    49.84615
                ]
            },
            "properties": {
                "ref:rspo": 18098,
                "official_name": "Zesp\u00f3\u0142 Plac\u00f3wek O\u015bwiatowych w Trzcianie",
                "name": "Zesp\u00f3\u0142 Plac\u00f3wek O\u015bwiatowych w Trzcianie",
                "addr:country": "PL",
                "addr:postcode": "32-733",
                "addr:place": "Trzciana",
                "addr:housenumber": "403",
                "addr:teryt:sym_ul": 839317,
                "contact:phone": "+48 146136011",
                "contact:email": "pgtrzciana@wp.pl",
                "contact:website": "http:\/\/www.trzciana.edu.pl",
                "ref:regon": "852631778",
                "ref:vatin": "PL8681747683",
                "operator": "Gmina Trzciana",
                "operator:type": "government",
                "landuse": "education",
                "fixme": "amenity=school, amenity=college albo landuse=education w zale\u017cno\u015bci od tego, jakie plac\u00f3wki wchodz\u0105 w sk\u0142ad zespo\u0142u. Sprawd\u017a, kiedy stosowa\u0107 amenity=* a kiedy landuse=education.",
                "note": "Children RSPO: 19832;19844;20976"
            }
        },
        {
            "id": 19844,
            "type": "Feature",
            "geometry": {
                "type": "Point",
                "coordinates": [
                    20.36549,
                    49.84642
                ]
            },
            "properties": {
                "isced:level": "1;2",
                "ref:rspo": 19844,
                "official_name": "Publiczna Szko\u0142a Podstawowa im. \u015aw.jana Kantego w Trzcianie",
                "name": "Publiczna Szko\u0142a Podstawowa",
                "addr:country": "PL",
                "addr:postcode": "32-733",
                "addr:place": "Trzciana",
                "addr:housenumber": "3",
                "addr:teryt:sym_ul": 839317,
                "contact:phone": "+48 146136011",
                "contact:email": "pgtrzciana@wp.pl",
                "ref:regon": "001204578",
                "ref:vatin": "PL8681673766",
                "operator": "Gmina Trzciana",
                "operator:type": "government",
                "amenity": "school",
                "note": "Parent RSPO: 18098"
            }
        },
        {
            "id": 20976,
            "type": "Feature",
            "geometry": {
                "type": "Point",
                "coordinates": [
                    20.36549,
                    49.84639
                ]
            },
            "properties": {
                "ref:rspo": 20976,
                "official_name": "Szko\u0142a Muzyczna I Stopnia w Trzcianie",
                "name": "Szko\u0142a Muzyczna I Stopnia w Trzcianie",
                "addr:country": "PL",
                "addr:postcode": "32-733",
                "addr:place": "Trzciana",
                "addr:housenumber": "3",
                "addr:teryt:sym_ul": 839317,
                "contact:phone": "+48 146136413",
                "contact:email": "pgtrzciana@wp.pl",
                "ref:regon": "121272940",
                "ref:vatin": "PL8681936852",
                "operator": "Gmina Trzciana",
                "operator:type": "government",
                "amenity": "music_school",
                "note": "Parent RSPO: 18098"
            }
        },
        {
            "id": 19653,
            "type": "Feature",
            "geometry": {
                "type": "Point",
                "coordinates": [
                    20.39683,
                    49.85915
                ]
            },
            "properties": {
                "isced:level": "1;2",
                "ref:rspo": 19653,
                "official_name": "Publiczna Szko\u0142a Podstawowa w Leszczynie im. Gen.w\u0142adys\u0142awa Andersa",
                "name": "Publiczna Szko\u0142a Podstawowa w Leszczynie",
                "addr:country": "PL",
                "addr:postcode": "32-733",
                "addr:place": "Leszczyna",
                "addr:housenumber": "132",
                "addr:teryt:sym_ul": 838849,
                "contact:phone": "+48 146136036",
                "contact:email": "sekretariat@pspleszczyna.pl",
                "contact:website": "http:\/\/www.pspleszczyna.pl",
                "ref:regon": "001202651",
                "ref:vatin": "PL8681809272",
                "operator": "Gmina Trzciana",
                "operator:type": "government",
                "amenity": "school"
            }
        },
        {
            "id": 128066,
            "type": "Feature",
            "geometry": {
                "type": "Point",
                "coordinates": [
                    20.39683,
                    49.85912
                ]
            },
            "properties": {
                "ref:rspo": 128066,
                "official_name": "Niepubliczne Przedszkole w Leszczynie",
                "name": "Niepubliczne Przedszkole w Leszczynie",
                "addr:country": "PL",
                "addr:postcode": "32-733",
                "addr:place": "Leszczyna",
                "addr:housenumber": "132",
                "addr:teryt:sym_ul": 838849,
                "contact:phone": "+48 784055448",
                "contact:email": "naszaleszczyna@op.pl",
                "ref:regon": "362058080",
                "operator": "Stowarzyszenie \"Nasza Leszczyna\"",
                "operator:type": "ngo",
                "amenity": "kindergarten"
            }
        }
    ]
}