{
    "type": "FeatureCollection",
    "features": [
        {
            "id": 42460,
            "type": "Feature",
            "geometry": {
                "type": "Point",
                "coordinates": [
                    20.48593,
                    49.82117
                ]
            },
            "properties": {
                "ref:rspo": 42460,
                "official_name": "Przedszkole Samorz\u0105dowe im. \u015aw. Miko\u0142aja w Rajbrocie",
                "name": "Przedszkole Samorz\u0105dowe",
                "addr:postcode": "32-725",
                "addr:place": "Rajbrot",
                "addr:housenumber": "110",
                "addr:teryt:simc": 822080,
                "phone": "+48 146138070",
                "email": "przedszkolerajbrot@wp.pl",
                "ref:regon": "852710390",
                "ref:vatin": "PL8681582265",
                "operator": "Gmina Lipnica Murowana",
                "operator:type": "government",
                "amenity": "kindergarten"
            }
        },
        {
            "id": 103557,
            "type": "Feature",
            "geometry": {
                "type": "Point",
                "coordinates": [
                    20.48713,
                    49.82135
                ]
            },
            "properties": {
                "isced:level": "1;2",
                "ref:rspo": 103557,
                "official_name": "Publiczna Szko\u0142a Podstawowa im. Jana Paw\u0142a II w Rajbrocie",
                "name": "Publiczna Szko\u0142a Podstawowa",
                "addr:postcode": "32-725",
                "addr:place": "Rajbrot",
                "addr:housenumber": "362",
                "addr:teryt:simc": 822080,
                "phone": "+48 146852980",
                "email": "psprajbrot@szkolarajbrot.edu.pl",
                "website": "https:\/\/spszkolarajbrot.edupage.org\/",
                "ref:regon": "001190451",
                "ref:vatin": "PL8681872773",
                "operator": "Gmina Lipnica Murowana",
                "operator:type": "government",
                "amenity": "school"
            }
        },
        {
            "id": 124572,
            "type": "Feature",
            "geometry": {
                "type": "Point",
                "coordinates": [
                    20.5471499,
                    49.85828
                ]
            },
            "properties": {
                "isced:level": "1;2",
                "ref:rspo": 124572,
                "official_name": "Szko\u0142a Filialna w Lipnicy Dolnej",
                "name": "Szko\u0142a Filialna w Lipnicy Dolnej",
                "addr:postcode": "32-724",
                "addr:place": "Lipnica Dolna",
                "addr:housenumber": "91",
                "addr:teryt:simc": 821760,
                "phone": "+48 146852614",
                "ref:regon": "105838400",
                "operator": "Gmina Lipnica Murowana",
                "operator:type": "government",
                "amenity": "school",
                "note": "Parent RSPO: 103559"
            }
        },
        {
            "id": 103559,
            "type": "Feature",
            "geometry": {
                "type": "Point",
                "coordinates": [
                    20.52596,
                    49.85935
                ]
            },
            "properties": {
                "isced:level": "1;2",
                "ref:rspo": 103559,
                "official_name": "Publiczna Szko\u0142a Podstawowa im. Kazimierza Brodzi\u0144skiego w Lipnicy Murowanej",
                "name": "Publiczna Szko\u0142a Podstawowa",
                "addr:postcode": "32-724",
                "addr:place": "Lipnica Murowana",
                "addr:housenumber": "59",
                "addr:teryt:simc": 821978,
                "phone": "+48 146852614",
                "email": "zslipnica@gmail.com",
                "ref:regon": "001058384",
                "ref:vatin": "PL8681872796",
                "operator": "Gmina Lipnica Murowana",
                "operator:type": "government",
                "amenity": "school",
                "note": "Children RSPO: 124542;124572"
            }
        },
        {
            "id": 42459,
            "type": "Feature",
            "geometry": {
                "type": "Point",
                "coordinates": [
                    20.5242,
                    49.85939
                ]
            },
            "properties": {
                "ref:rspo": 42459,
                "official_name": "Przedszkole Samorz\u0105dowe im. \u015aw. Urszuli Led\u00f3chowskiej w Lipnicy Murowanej",
                "name": "Przedszkole Samorz\u0105dowe",
                "addr:postcode": "32-724",
                "addr:place": "Lipnica Murowana",
                "addr:housenumber": "59A",
                "addr:teryt:simc": 821978,
                "phone": "+48 146852612",
                "email": "przedszkolelipnica@onet.eu",
                "website": "http:\/\/www.przedszkolelipnica.pl",
                "ref:regon": "852710360",
                "ref:vatin": "PL8681582271",
                "operator": "Gmina Lipnica Murowana",
                "operator:type": "government",
                "amenity": "kindergarten"
            }
        },
        {
            "id": 124542,
            "type": "Feature",
            "geometry": {
                "type": "Point",
                "coordinates": [
                    20.49818,
                    49.86696
                ]
            },
            "properties": {
                "isced:level": "1;2",
                "ref:rspo": 124542,
                "official_name": "Szko\u0142a Filialna im. J\u00f3zefa Pi\u0142sudskiego w Lipnicy G\u00f3rnej",
                "name": "Szko\u0142a Filialna",
                "addr:postcode": "32-724",
                "addr:place": "Lipnica G\u00f3rna",
                "addr:housenumber": "73",
                "addr:teryt:simc": 821866,
                "phone": "+48 146852494",
                "ref:regon": "105838400",
                "operator": "Gmina Lipnica Murowana",
                "operator:type": "government",
                "amenity": "school",
                "note": "Parent RSPO: 103559"
            }
        }
    ]
}