{"type":"FeatureCollection","features":[{"id":82557,"type":"Feature","geometry":{"type":"Point","coordinates":[22.652997,52.1103479]},"properties":{"isced:level":"1;2","ref:rspo":82557,"official_name":"Niepubliczna Szko\u0142a Podstawowa w Pr\u00f3chenkach","name":"Niepubliczna Szko\u0142a Podstawowa w Pr\u00f3chenkach","addr:country":"PL","addr:postcode":"08-207","addr:place":"Pr\u00f3chenki","addr:housenumber":"90","addr:teryt:sym_ul":16722,"contact:phone":"+48 833575127","contact:email":"nspprochenki@op.pl","ref:regon":"146415794","ref:vatin":"PL4960174391","operator":"Stowarzyszenie Na Rzecz Rozwoju Wsi Pr\u00f3chenki","operator:type":"ngo","amenity":"school"}},{"id":82902,"type":"Feature","geometry":{"type":"Point","coordinates":[22.652997,52.1103179]},"properties":{"ref:rspo":82902,"official_name":"Niepubliczne Przedszkole Przy Niepublicznej Szkole Pr\u00f3chenki","name":"Niepubliczne Przedszkole Przy Niepublicznej Szkole Pr\u00f3chenki","addr:country":"PL","addr:postcode":"08-207","addr:place":"Pr\u00f3chenki","addr:housenumber":"90","addr:teryt:sym_ul":16722,"contact:phone":"+48 833575127","contact:email":"nspprochenki@op.pl","ref:regon":"146415819","ref:vatin":"PL4960247807","operator":"Stowarzyszenie Na Rzecz Rozwoju Wsi Pr\u00f3chenki","operator:type":"ngo","amenity":"kindergarten"}},{"id":82539,"type":"Feature","geometry":{"type":"Point","coordinates":[22.616497,52.130601]},"properties":{"isced:level":"1;2","ref:rspo":82539,"official_name":"Niepubliczna Szko\u0142a Podstawowa w Szyd\u0142\u00f3wce","name":"Niepubliczna Szko\u0142a Podstawowa w Szyd\u0142\u00f3wce","addr:country":"PL","addr:postcode":"08-207","addr:place":"Szyd\u0142\u00f3wka","addr:housenumber":"62","addr:teryt:sym_ul":16768,"contact:phone":"+48 833575167","contact:email":"nsp.szydlowka@wp.pl","contact:website":"http:\/\/www.nspszydlowka.home.pl","ref:regon":"146415802","ref:vatin":"PL4960247598","operator":"Stowarzyszenie \"Szko\u0142a W Szyd\u0142\u00f3wce\"","operator:type":"ngo","amenity":"school"}},{"id":104269,"type":"Feature","geometry":{"type":"Point","coordinates":[22.616497,52.130570999999996]},"properties":{"ref:rspo":104269,"official_name":"Niepubliczne Przedszkole w Szyd\u0142\u00f3wce","name":"Niepubliczne Przedszkole w Szyd\u0142\u00f3wce","addr:country":"PL","addr:postcode":"08-207","addr:place":"Szyd\u0142\u00f3wka","addr:housenumber":"62","addr:teryt:sym_ul":16768,"contact:phone":"+48 833575167","contact:email":"nsp.szydlowka@wp.pl","contact:website":"http:\/\/www.nspszydlowka.home.pl","ref:regon":"146437548","ref:vatin":"PL4960247598","operator":"Stowarzyszenie \"Szko\u0142a W Szyd\u0142\u00f3wce\"","operator:type":"ngo","amenity":"kindergarten"}},{"id":82491,"type":"Feature","geometry":{"type":"Point","coordinates":[22.668502,52.147624]},"properties":{"isced:level":"1;2","ref:rspo":82491,"official_name":"Szko\u0142a Podstawowa w Olszance","name":"Szko\u0142a Podstawowa w Olszance","addr:country":"PL","addr:postcode":"08-207","addr:place":"Olszanka","addr:housenumber":"38A","addr:teryt:sym_ul":16700,"contact:phone":"+48 833575128","contact:email":"szp_olszanka@interia.pl","contact:website":"http:\/\/www.spolszanka.edupage.org","ref:regon":"030135478","ref:vatin":"PL4960141440","operator":"Gmina Olszanka","operator:type":"government","amenity":"school"}},{"id":129944,"type":"Feature","geometry":{"type":"Point","coordinates":[22.668502,52.147594]},"properties":{"ref:rspo":129944,"official_name":"Punkt Przedszkolny Przy Szkole Podstawowej w Olszance","name":"Punkt Przedszkolny Przy Szkole Podstawowej w Olszance","addr:country":"PL","addr:postcode":"08-207","addr:place":"Olszanka","addr:housenumber":"38A","addr:teryt:sym_ul":16700,"contact:phone":"+48 833575128","contact:email":"gim_olszanka@interia.pl","contact:website":"http:\/\/zsolszanka.edu.pl","ref:regon":"363155247","operator":"Gmina Olszanka","operator:type":"government","amenity":"kindergarten"}},{"id":67825,"type":"Feature","geometry":{"type":"Point","coordinates":[22.682218,52.1696989]},"properties":{"isced:level":"1;2","ref:rspo":67825,"official_name":"Szko\u0142a Podstawowa im. Stefana \u017beromskiego w Hadynowie","name":"Szko\u0142a Podstawowa","addr:country":"PL","addr:postcode":"08-207","addr:place":"Hadyn\u00f3w","addr:housenumber":"1","addr:teryt:sym_ul":16640,"contact:phone":"+48 833575126","contact:email":"sphadynow@poczta.onet.pl","contact:website":"http:\/\/sphadynow.edupage.org","ref:regon":"000652613","ref:vatin":"PL4960142304","operator":"Gmina Olszanka","operator:type":"government","amenity":"school"}},{"id":82915,"type":"Feature","geometry":{"type":"Point","coordinates":[22.682218,52.1696689]},"properties":{"ref:rspo":82915,"official_name":"Punkt Przedszkolny Przy Szkole Podstawowej im. Stefana \u017beromskiego w Hadynowie","name":"Punkt Przedszkolny Przy Szkole Podstawowej","addr:country":"PL","addr:postcode":"08-207","addr:place":"Hadyn\u00f3w","addr:housenumber":"1","addr:teryt:sym_ul":16640,"contact:phone":"+48 833575126","contact:email":"sphadynow@poczta.onet.pl","ref:regon":"146408009","ref:vatin":"PL4960142304","operator":"Gmina Olszanka","operator:type":"government","amenity":"kindergarten"}}]}