{
    "type": "FeatureCollection",
    "features": [
        {
            "id": 43891,
            "type": "Feature",
            "geometry": {
                "type": "Point",
                "coordinates": [
                    22.72439,
                    52.20076
                ]
            },
            "properties": {
                "ref:rspo": 43891,
                "official_name": "Zesp\u00f3\u0142 Szk\u00f3\u0142 Nr3 Rolnicze Centrum Kszta\u0142cenia Ustawicznego im. Stanis\u0142awa Staszica",
                "name": "Zesp\u00f3\u0142 Szk\u00f3\u0142 Nr3 Rolnicze Centrum Kszta\u0142cenia Ustawicznego",
                "addr:country": "PL",
                "addr:postcode": "08-200",
                "addr:city": "\u0141osice",
                "addr:street": "Radzy\u0144ska",
                "addr:housenumber": "1",
                "addr:teryt:simc": 922120,
                "addr:teryt:sym_ul": 18375,
                "contact:phone": "+48 833572580",
                "contact:email": "sekretariat@zs3losice.pl",
                "contact:website": "http:\/\/www.zs3losice.edupage.org",
                "ref:regon": "001288813",
                "ref:vatin": "PL4960001880",
                "operator": "Powiat \u0141osicki",
                "operator:type": "government",
                "landuse": "education",
                "fixme": "amenity=school, amenity=college albo landuse=education w zale\u017cno\u015bci od tego, jakie plac\u00f3wki wchodz\u0105 w sk\u0142ad zespo\u0142u. Sprawd\u017a, kiedy stosowa\u0107 amenity=* a kiedy landuse=education.",
                "note": "Children RSPO: 83743;83744;83746"
            }
        },
        {
            "id": 83743,
            "type": "Feature",
            "geometry": {
                "type": "Point",
                "coordinates": [
                    22.72439,
                    52.20073
                ]
            },
            "properties": {
                "isced:level": "3",
                "ref:rspo": 83743,
                "official_name": "Ii Technikum",
                "name": "Ii Technikum",
                "addr:country": "PL",
                "addr:postcode": "08-200",
                "addr:city": "\u0141osice",
                "addr:street": "Radzy\u0144ska",
                "addr:housenumber": "1",
                "addr:teryt:simc": 922120,
                "addr:teryt:sym_ul": 18375,
                "contact:phone": "+48 833572580",
                "contact:email": "sekretariat@zs3losice.pl",
                "contact:website": "http:\/\/www.zs3losice.pl",
                "ref:regon": "712542000",
                "ref:vatin": "PL4960001880",
                "operator": "Powiat \u0141osicki",
                "operator:type": "government",
                "amenity": "school",
                "note": "Parent RSPO: 43891"
            }
        },
        {
            "id": 83744,
            "type": "Feature",
            "geometry": {
                "type": "Point",
                "coordinates": [
                    22.72439,
                    52.200700000000005
                ]
            },
            "properties": {
                "isced:level": "3",
                "ref:rspo": 83744,
                "official_name": "Bran\u017cowa Szko\u0142a I Stopnia",
                "name": "Bran\u017cowa Szko\u0142a I Stopnia",
                "addr:country": "PL",
                "addr:postcode": "08-200",
                "addr:city": "\u0141osice",
                "addr:street": "Radzy\u0144ska",
                "addr:housenumber": "1",
                "addr:teryt:simc": 922120,
                "addr:teryt:sym_ul": 18375,
                "contact:phone": "+48 833572580",
                "contact:email": "sekretariat@zs3losice.pl",
                "contact:website": "http:\/\/www.zs3losice.pl",
                "ref:regon": "712541986",
                "ref:vatin": "PL4960001880",
                "operator": "Powiat \u0141osicki",
                "operator:type": "government",
                "amenity": "school",
                "note": "Parent RSPO: 43891"
            }
        },
        {
            "id": 83746,
            "type": "Feature",
            "geometry": {
                "type": "Point",
                "coordinates": [
                    22.72439,
                    52.20067
                ]
            },
            "properties": {
                "isced:level": "4",
                "ref:rspo": 83746,
                "official_name": "Szko\u0142a Policealna Nr 2",
                "name": "Szko\u0142a Policealna Nr 2",
                "addr:country": "PL",
                "addr:postcode": "08-200",
                "addr:city": "\u0141osice",
                "addr:street": "Radzy\u0144ska",
                "addr:housenumber": "1",
                "addr:teryt:simc": 922120,
                "addr:teryt:sym_ul": 18375,
                "contact:phone": "+48 833572580",
                "contact:email": "sekretariat@zs3losice.pl",
                "contact:website": "http:\/\/www.zs3losice.pl",
                "ref:regon": "140243100",
                "ref:vatin": "PL4960001880",
                "operator": "Powiat \u0141osicki",
                "operator:type": "government",
                "amenity": "college",
                "note": "Parent RSPO: 43891"
            }
        },
        {
            "id": 131387,
            "type": "Feature",
            "geometry": {
                "type": "Point",
                "coordinates": [
                    22.714,
                    52.20709
                ]
            },
            "properties": {
                "ref:rspo": 131387,
                "official_name": "Niepubliczne Przedszkole Integracyjne \"Dobry Start\" Z Oddzia\u0142ami Specjalnymi",
                "name": "Niepubliczne Przedszkole Integracyjne \"Dobry Start\" Z Oddzia\u0142ami Specjalnymi",
                "addr:country": "PL",
                "addr:postcode": "08-200",
                "addr:city": "\u0141osice",
                "addr:street": "Gabriela Narutowicza",
                "addr:housenumber": "5",
                "addr:teryt:simc": 922120,
                "addr:teryt:sym_ul": 14015,
                "contact:phone": "+48 690552561",
                "contact:email": "dyrektor@dobrystart-losice.pl",
                "ref:regon": "365158244",
                "operator": "\"Lekarze Rodzinni - Eskulap\" Sp\u00f3\u0142ka Z Ograniczon\u0105 Odpowiedzialno\u015bci\u0105",
                "operator:type": "private",
                "amenity": "kindergarten"
            }
        },
        {
            "id": 31710,
            "type": "Feature",
            "geometry": {
                "type": "Point",
                "coordinates": [
                    22.72129,
                    52.21046
                ]
            },
            "properties": {
                "ref:rspo": 31710,
                "official_name": "Przedszkole Samorz\u0105dowe Nr 1",
                "name": "Przedszkole Samorz\u0105dowe Nr 1",
                "addr:country": "PL",
                "addr:postcode": "08-200",
                "addr:city": "\u0141osice",
                "addr:street": "\u015awi\u0119tego Stanis\u0142awa",
                "addr:housenumber": "1",
                "addr:teryt:simc": 922120,
                "addr:teryt:sym_ul": 46939,
                "contact:phone": "+48 833573526",
                "contact:email": "przedszkolenr1losice@wp.pl",
                "ref:regon": "000966725",
                "ref:vatin": "PL4960140570",
                "operator": "Miasto I Gmina \u0141osice",
                "operator:type": "government",
                "amenity": "kindergarten"
            }
        },
        {
            "id": 131319,
            "type": "Feature",
            "geometry": {
                "type": "Point",
                "coordinates": [
                    22.7164499,
                    52.2106
                ]
            },
            "properties": {
                "ref:rspo": 131319,
                "official_name": "Przedszkole Niepubliczne \"Jacek I Agatka\"",
                "name": "Przedszkole Niepubliczne \"Jacek I Agatka\"",
                "addr:country": "PL",
                "addr:postcode": "08-200",
                "addr:city": "\u0141osice",
                "addr:street": "Berka Joselewicza",
                "addr:housenumber": "5",
                "addr:teryt:simc": 922120,
                "addr:teryt:sym_ul": 7617,
                "contact:phone": "+48 833421281",
                "contact:email": "jacekiagatka.losice@gmail.com",
                "ref:regon": "365113951",
                "operator": "Wies\u0142awa Kucewicz",
                "operator:type": "private",
                "amenity": "kindergarten"
            }
        },
        {
            "id": 43889,
            "type": "Feature",
            "geometry": {
                "type": "Point",
                "coordinates": [
                    22.71329,
                    52.21195
                ]
            },
            "properties": {
                "ref:rspo": 43889,
                "official_name": "Zesp\u00f3\u0142 Szk\u00f3\u0142 Nr 2 w \u0141osicach",
                "name": "Zesp\u00f3\u0142 Szk\u00f3\u0142 Nr 2 w \u0141osicach",
                "addr:country": "PL",
                "addr:postcode": "08-200",
                "addr:city": "\u0141osice",
                "addr:street": "Marsza\u0142ka J\u00f3zefa Pi\u0142sudskiego",
                "addr:housenumber": "9",
                "addr:teryt:simc": 922120,
                "addr:teryt:sym_ul": 36029,
                "contact:phone": "+48 833590238",
                "contact:email": "zeszkzaw@post.pl",
                "ref:regon": "000185471",
                "ref:vatin": "PL5371606053",
                "operator": "Powiat \u0141osicki",
                "operator:type": "government",
                "landuse": "education",
                "fixme": "amenity=school, amenity=college albo landuse=education w zale\u017cno\u015bci od tego, jakie plac\u00f3wki wchodz\u0105 w sk\u0142ad zespo\u0142u. Sprawd\u017a, kiedy stosowa\u0107 amenity=* a kiedy landuse=education.",
                "note": "Children RSPO: 84286;84290;84291"
            }
        },
        {
            "id": 63299,
            "type": "Feature",
            "geometry": {
                "type": "Point",
                "coordinates": [
                    22.71329,
                    52.21192
                ]
            },
            "properties": {
                "ref:rspo": 63299,
                "official_name": "Biblioteka Pedagogiczna im. Heleny Radli\u0144skiej w Siedlcach Filia w \u0141osicach",
                "name": "Biblioteka Pedagogiczna",
                "addr:country": "PL",
                "addr:postcode": "08-200",
                "addr:city": "\u0141osice",
                "addr:street": "Marsza\u0142ka J\u00f3zefa Pi\u0142sudskiego",
                "addr:housenumber": "9",
                "addr:teryt:simc": 922120,
                "addr:teryt:sym_ul": 36029,
                "contact:phone": "+48 833573567",
                "contact:email": "losice@bpsiedlce.pl",
                "contact:website": "http:\/\/www.bpsiedlce.pl",
                "ref:regon": "711690885",
                "ref:vatin": "PL8211061132",
                "operator": "Wojew\u00f3dztwo Mazowieckie",
                "operator:type": "government",
                "amenity": "library",
                "note": "Parent RSPO: 28040"
            }
        },
        {
            "id": 84286,
            "type": "Feature",
            "geometry": {
                "type": "Point",
                "coordinates": [
                    22.71329,
                    52.211890000000004
                ]
            },
            "properties": {
                "isced:level": "3",
                "ref:rspo": 84286,
                "official_name": "Bran\u017cowa Szko\u0142a I Stopnia Nr 1 im. Tadeusza Ko\u015bciuszki w \u0141osicach",
                "name": "Bran\u017cowa Szko\u0142a I Stopnia Nr 1",
                "addr:country": "PL",
                "addr:postcode": "08-200",
                "addr:city": "\u0141osice",
                "addr:street": "Marsza\u0142ka J\u00f3zefa Pi\u0142sudskiego",
                "addr:housenumber": "9",
                "addr:teryt:simc": 922120,
                "addr:teryt:sym_ul": 36029,
                "contact:phone": "+48 833590803",
                "contact:email": "zeszkzaw@post.pl",
                "ref:regon": "712542359",
                "ref:vatin": "PL5371606053",
                "operator": "Powiat \u0141osicki",
                "operator:type": "government",
                "amenity": "school",
                "note": "Parent RSPO: 43889"
            }
        },
        {
            "id": 84290,
            "type": "Feature",
            "geometry": {
                "type": "Point",
                "coordinates": [
                    22.71329,
                    52.21186
                ]
            },
            "properties": {
                "isced:level": "4",
                "ref:rspo": 84290,
                "official_name": "Szko\u0142a Policealna Nr 1 w \u0141osicach",
                "name": "Szko\u0142a Policealna Nr 1 w \u0141osicach",
                "addr:country": "PL",
                "addr:postcode": "08-200",
                "addr:city": "\u0141osice",
                "addr:street": "Marsza\u0142ka J\u00f3zefa Pi\u0142sudskiego",
                "addr:housenumber": "9",
                "addr:teryt:simc": 922120,
                "addr:teryt:sym_ul": 36029,
                "contact:phone": "+48 833590803",
                "contact:email": "zeszkzaw@post.pl",
                "ref:regon": "140245463",
                "ref:vatin": "PL5371606053",
                "operator": "Powiat \u0141osicki",
                "operator:type": "government",
                "amenity": "college",
                "note": "Parent RSPO: 43889"
            }
        },
        {
            "id": 84291,
            "type": "Feature",
            "geometry": {
                "type": "Point",
                "coordinates": [
                    22.71329,
                    52.21183
                ]
            },
            "properties": {
                "isced:level": "3",
                "ref:rspo": 84291,
                "official_name": "I Technikum im. Tadeusza Ko\u015bciuszki w Zespole Szk\u00f3\u0142 Nr 2 w \u0141osicach",
                "name": "I Technikum",
                "addr:country": "PL",
                "addr:postcode": "08-200",
                "addr:city": "\u0141osice",
                "addr:street": "Marsza\u0142ka J\u00f3zefa Pi\u0142sudskiego",
                "addr:housenumber": "9",
                "addr:teryt:simc": 922120,
                "addr:teryt:sym_ul": 36029,
                "contact:phone": "+48 833590803",
                "contact:email": "zeszkzaw@post.pl",
                "ref:regon": "712570775",
                "ref:vatin": "PL5371606053",
                "operator": "Powiat \u0141osicki",
                "operator:type": "government",
                "amenity": "school",
                "note": "Parent RSPO: 43889"
            }
        },
        {
            "id": 31593,
            "type": "Feature",
            "geometry": {
                "type": "Point",
                "coordinates": [
                    22.72107,
                    52.21208
                ]
            },
            "properties": {
                "isced:level": "1;2",
                "ref:rspo": 31593,
                "official_name": "Szko\u0142a Podstawowa Nr 2 im. Miko\u0142aja Kopernika w \u0141osicach",
                "name": "Szko\u0142a Podstawowa Nr 2",
                "addr:country": "PL",
                "addr:postcode": "08-200",
                "addr:city": "\u0141osice",
                "addr:street": "Bialska",
                "addr:housenumber": "15",
                "addr:teryt:simc": 922120,
                "addr:teryt:sym_ul": 1131,
                "contact:phone": "+48 833573767",
                "contact:email": "sekretariat@sp2losice.pl",
                "ref:regon": "000229777",
                "ref:vatin": "PL4960142215",
                "operator": "Miasto I Gmina \u0141osice",
                "operator:type": "government",
                "amenity": "school"
            }
        },
        {
            "id": 43888,
            "type": "Feature",
            "geometry": {
                "type": "Point",
                "coordinates": [
                    22.71423,
                    52.21214
                ]
            },
            "properties": {
                "ref:rspo": 43888,
                "official_name": "Poradnia Psychologiczno Pedagogiczna w \u0141osicach",
                "name": "Poradnia Psychologiczno Pedagogiczna w \u0141osicach",
                "addr:country": "PL",
                "addr:postcode": "08-200",
                "addr:city": "\u0141osice",
                "addr:street": "Marsza\u0142ka J\u00f3zefa Pi\u0142sudskiego",
                "addr:housenumber": "6",
                "addr:teryt:simc": 922120,
                "addr:teryt:sym_ul": 36029,
                "contact:phone": "+48 833573788",
                "contact:email": "ppplosice@op.pl",
                "contact:website": "http:\/\/www.poradnia.losice.pl",
                "ref:regon": "000713770",
                "ref:vatin": "PL4960177490",
                "operator": "Powiat \u0141osicki",
                "operator:type": "government",
                "healthcare": "counselling",
                "counselling_type": "education",
                "fixme": "w zale\u017cno\u015bci od przedmiotu dzia\u0142alno\u015bci (np. healthcare=counselling + counselling_type=education albo healthcare=psychotherapist)"
            }
        },
        {
            "id": 276829,
            "type": "Feature",
            "geometry": {
                "type": "Point",
                "coordinates": [
                    22.72726,
                    52.21227
                ]
            },
            "properties": {
                "ref:rspo": 276829,
                "official_name": "Niepubliczna Poradnia Psychologiczno-Pedagogiczna \"Drabinka\"",
                "name": "Niepubliczna Poradnia Psychologiczno-Pedagogiczna \"Drabinka\"",
                "addr:country": "PL",
                "addr:postcode": "08-200",
                "addr:city": "\u0141osice",
                "addr:street": "Bia\u0142ostocka",
                "addr:housenumber": "11",
                "addr:door": "A",
                "addr:teryt:simc": 922120,
                "addr:teryt:sym_ul": 1184,
                "contact:phone": "+48 577001744",
                "contact:email": "centrumdrabinka@gmail.com",
                "contact:website": "http:\/\/www.centrumdrabinka.pl",
                "ref:regon": "387668070",
                "ref:vatin": "PL4960241650",
                "operator": "Aleksandra Ka\u017cmieruk",
                "operator:type": "private",
                "healthcare": "counselling",
                "counselling_type": "education",
                "fixme": "w zale\u017cno\u015bci od przedmiotu dzia\u0142alno\u015bci (np. healthcare=counselling + counselling_type=education albo healthcare=psychotherapist)"
            }
        },
        {
            "id": 56155,
            "type": "Feature",
            "geometry": {
                "type": "Point",
                "coordinates": [
                    22.71424,
                    52.21262
                ]
            },
            "properties": {
                "ref:rspo": 56155,
                "official_name": "Pa\u0144stwowa Szko\u0142a Muzyczna I St. im. Stanis\u0142awa Moniuszki w \u0141osicach",
                "name": "Pa\u0144stwowa Szko\u0142a Muzyczna I St.",
                "addr:country": "PL",
                "addr:postcode": "08-200",
                "addr:city": "\u0141osice",
                "addr:street": "11 Listopada",
                "addr:housenumber": "1A",
                "addr:teryt:simc": 922120,
                "addr:teryt:sym_ul": 11205,
                "contact:phone": "+48 833573390",
                "contact:email": "psm.losice@post.pl",
                "ref:regon": "001275259",
                "operator": "Ministerstwo Kultury I Dziedzictwa Narodowego",
                "operator:type": "public",
                "amenity": "music_school"
            }
        },
        {
            "id": 31709,
            "type": "Feature",
            "geometry": {
                "type": "Point",
                "coordinates": [
                    22.70736,
                    52.21605
                ]
            },
            "properties": {
                "ref:rspo": 31709,
                "official_name": "Przedszkole Samorz\u0105dowe Nr 2",
                "name": "Przedszkole Samorz\u0105dowe Nr 2",
                "addr:country": "PL",
                "addr:postcode": "08-200",
                "addr:city": "\u0141osice",
                "addr:street": "Szkolna",
                "addr:housenumber": "1",
                "addr:teryt:simc": 922120,
                "addr:teryt:sym_ul": 21970,
                "contact:phone": "+48 833573602",
                "contact:email": "p2losice@wp.pl",
                "ref:regon": "030004210",
                "ref:vatin": "PL4960140564",
                "operator": "Miasto I Gmina \u0141osice",
                "operator:type": "government",
                "amenity": "kindergarten"
            }
        },
        {
            "id": 43894,
            "type": "Feature",
            "geometry": {
                "type": "Point",
                "coordinates": [
                    22.70713,
                    52.21667
                ]
            },
            "properties": {
                "ref:rspo": 43894,
                "official_name": "Zesp\u00f3\u0142 Szk\u00f3\u0142 Nr 1 w \u0141osicach",
                "name": "Zesp\u00f3\u0142 Szk\u00f3\u0142 Nr 1 w \u0141osicach",
                "addr:country": "PL",
                "addr:postcode": "08-200",
                "addr:city": "\u0141osice",
                "addr:street": "Szkolna",
                "addr:housenumber": "3",
                "addr:teryt:simc": 922120,
                "addr:teryt:sym_ul": 21970,
                "contact:phone": "+48 833573303",
                "contact:email": "lolosice@pro.onet.pl",
                "contact:website": "http:\/\/www.zs1losice.fc.pl",
                "ref:regon": "000959553",
                "ref:vatin": "PL5371651094",
                "operator": "Powiat \u0141osicki",
                "operator:type": "government",
                "landuse": "education",
                "fixme": "amenity=school, amenity=college albo landuse=education w zale\u017cno\u015bci od tego, jakie plac\u00f3wki wchodz\u0105 w sk\u0142ad zespo\u0142u. Sprawd\u017a, kiedy stosowa\u0107 amenity=* a kiedy landuse=education.",
                "note": "Children RSPO: 81714;81716"
            }
        },
        {
            "id": 81714,
            "type": "Feature",
            "geometry": {
                "type": "Point",
                "coordinates": [
                    22.70713,
                    52.21664
                ]
            },
            "properties": {
                "isced:level": "3",
                "ref:rspo": 81714,
                "official_name": "Zesp\u00f3\u0142 Szk\u00f3\u0142 Nr 1 I Liceum Og\u00f3lnokszta\u0142c\u0105ce",
                "name": "Zesp\u00f3\u0142 Szk\u00f3\u0142 Nr 1 I Liceum Og\u00f3lnokszta\u0142c\u0105ce",
                "addr:country": "PL",
                "addr:postcode": "08-200",
                "addr:city": "\u0141osice",
                "addr:street": "Szkolna",
                "addr:housenumber": "3",
                "addr:teryt:simc": 922120,
                "addr:teryt:sym_ul": 21970,
                "contact:phone": "+48 833573303",
                "contact:email": "lolosice@pro.onet.pl",
                "contact:website": "http:\/\/www.lolosice.strefa.pl",
                "ref:regon": "712351607",
                "ref:vatin": "PL4960125116",
                "operator": "Powiat \u0141osicki",
                "operator:type": "government",
                "amenity": "school",
                "note": "Parent RSPO: 43894"
            }
        },
        {
            "id": 81716,
            "type": "Feature",
            "geometry": {
                "type": "Point",
                "coordinates": [
                    22.70713,
                    52.21661
                ]
            },
            "properties": {
                "isced:level": "1;2",
                "ref:rspo": 81716,
                "official_name": "Zesp\u00f3\u0142 Szk\u00f3\u0142 Nr 1 Szko\u0142a Podstawowa Nr 1 w \u0141osicach",
                "name": "Zesp\u00f3\u0142 Szk\u00f3\u0142 Nr 1 Szko\u0142a Podstawowa Nr 1 w \u0141osicach",
                "addr:country": "PL",
                "addr:postcode": "08-200",
                "addr:city": "\u0141osice",
                "addr:street": "Szkolna",
                "addr:housenumber": "3",
                "addr:teryt:simc": 922120,
                "addr:teryt:sym_ul": 21970,
                "contact:phone": "+48 833573303",
                "contact:email": "sp1losice@op.pl",
                "contact:website": "http:\/\/www.zs1losice.fc.pl",
                "ref:regon": "712351576",
                "ref:vatin": "PL4960125091",
                "operator": "Miasto I Gmina \u0141osice",
                "operator:type": "government",
                "amenity": "school",
                "note": "Parent RSPO: 43894"
            }
        },
        {
            "id": 111015,
            "type": "Feature",
            "geometry": {
                "type": "Point",
                "coordinates": [
                    22.71303,
                    52.21691
                ]
            },
            "properties": {
                "ref:rspo": 111015,
                "official_name": "Zesp\u00f3\u0142 Plac\u00f3wek Oswiatowo-Wychowawczych w \u0141osicach",
                "name": "Zesp\u00f3\u0142 Plac\u00f3wek Oswiatowo-Wychowawczych w \u0141osicach",
                "addr:country": "PL",
                "addr:postcode": "08-200",
                "addr:city": "\u0141osice",
                "addr:street": "Ignacego Krasickiego",
                "addr:housenumber": "1",
                "addr:teryt:simc": 922120,
                "addr:teryt:sym_ul": 9830,
                "contact:phone": "+48 833590687",
                "contact:email": "oszwlosice@interia.pl",
                "contact:website": "http:\/\/www.oszwlosice.pl",
                "ref:regon": "140211493",
                "ref:vatin": "PL4960203454",
                "operator": "Powiat \u0141osicki",
                "operator:type": "government",
                "landuse": "education",
                "fixme": "amenity=school, amenity=college albo landuse=education w zale\u017cno\u015bci od tego, jakie plac\u00f3wki wchodz\u0105 w sk\u0142ad zespo\u0142u. Sprawd\u017a, kiedy stosowa\u0107 amenity=* a kiedy landuse=education.",
                "note": "Children RSPO: 43890;43892;43893"
            }
        },
        {
            "id": 84283,
            "type": "Feature",
            "geometry": {
                "type": "Point",
                "coordinates": [
                    22.71303,
                    52.216879999999996
                ]
            },
            "properties": {
                "isced:level": "1;2",
                "ref:rspo": 84283,
                "official_name": "O\u015brodek Szkolno - Wychowawczy Szko\u0142a Podstawowa",
                "name": "O\u015brodek Szkolno - Wychowawczy Szko\u0142a Podstawowa",
                "addr:country": "PL",
                "addr:postcode": "08-200",
                "addr:city": "\u0141osice",
                "addr:street": "Ignacego Krasickiego",
                "addr:housenumber": "1",
                "addr:teryt:simc": 922120,
                "addr:teryt:sym_ul": 9830,
                "contact:phone": "+48 335724415",
                "contact:email": "oszwlosice@interia.pl",
                "contact:website": "http:\/\/www.oszwlosice.pl",
                "ref:regon": "712568962",
                "ref:vatin": "PL5371505547",
                "operator": "Powiat \u0141osicki",
                "operator:type": "government",
                "amenity": "school",
                "note": "Parent RSPO: 43893"
            }
        },
        {
            "id": 84284,
            "type": "Feature",
            "geometry": {
                "type": "Point",
                "coordinates": [
                    22.71303,
                    52.21685
                ]
            },
            "properties": {
                "isced:level": "3",
                "ref:rspo": 84284,
                "official_name": "Bran\u017cowa Szko\u0142a Specjalna I Stopnia Nr 3 w \u0141osicach",
                "name": "Bran\u017cowa Szko\u0142a Specjalna I Stopnia Nr 3 w \u0141osicach",
                "addr:country": "PL",
                "addr:postcode": "08-200",
                "addr:city": "\u0141osice",
                "addr:street": "Ignacego Krasickiego",
                "addr:housenumber": "1",
                "addr:teryt:simc": 922120,
                "addr:teryt:sym_ul": 9830,
                "contact:phone": "+48 833572415",
                "contact:email": "oszwlosice@interia.pl",
                "contact:website": "http:\/\/www.oszwlosice.pl",
                "ref:regon": "712568956",
                "ref:vatin": "PL5371505547",
                "operator": "Powiat \u0141osicki",
                "operator:type": "government",
                "amenity": "school",
                "note": "Parent RSPO: 43893"
            }
        },
        {
            "id": 84285,
            "type": "Feature",
            "geometry": {
                "type": "Point",
                "coordinates": [
                    22.71303,
                    52.21682
                ]
            },
            "properties": {
                "ref:rspo": 84285,
                "official_name": "Szko\u0142a Specjalna Przysposabiaj\u0105ca Do Pracy w \u0141osicach",
                "name": "Szko\u0142a Specjalna Przysposabiaj\u0105ca Do Pracy w \u0141osicach",
                "addr:country": "PL",
                "addr:postcode": "08-200",
                "addr:city": "\u0141osice",
                "addr:street": "Ignacego Krasickiego",
                "addr:housenumber": "1",
                "addr:teryt:simc": 922120,
                "addr:teryt:sym_ul": 9830,
                "contact:phone": "+48 833572415",
                "contact:email": "oszwlosice@interia.pl",
                "contact:website": "http:\/\/www.oszwlosice.pl",
                "ref:regon": "712573118",
                "ref:vatin": "PL5371505547",
                "operator": "Powiat \u0141osicki",
                "operator:type": "government",
                "amenity": "school",
                "note": "Parent RSPO: 43893"
            }
        },
        {
            "id": 43890,
            "type": "Feature",
            "geometry": {
                "type": "Point",
                "coordinates": [
                    22.71303,
                    52.216789999999996
                ]
            },
            "properties": {
                "ref:rspo": 43890,
                "official_name": "Bursa Szkolna w \u0141osicach",
                "name": "Bursa Szkolna w \u0141osicach",
                "addr:country": "PL",
                "addr:postcode": "08-200",
                "addr:city": "\u0141osice",
                "addr:street": "Ignacego Krasickiego",
                "addr:housenumber": "1",
                "addr:teryt:simc": 922120,
                "addr:teryt:sym_ul": 9830,
                "contact:phone": "+48 833590687",
                "contact:email": "oszwlosice@interia.pl",
                "contact:website": "http:\/\/www.oszwlosice.pl",
                "ref:regon": "000960059",
                "ref:vatin": "PL5371671205",
                "operator": "Powiat \u0141osicki",
                "operator:type": "government",
                "building": "dormitory",
                "note": "Parent RSPO: 111015"
            }
        },
        {
            "id": 43893,
            "type": "Feature",
            "geometry": {
                "type": "Point",
                "coordinates": [
                    22.71303,
                    52.21676
                ]
            },
            "properties": {
                "ref:rspo": 43893,
                "official_name": "O\u015brodek Szkolno-Wychowawczy w \u0141osicach",
                "name": "O\u015brodek Szkolno-Wychowawczy w \u0141osicach",
                "addr:country": "PL",
                "addr:postcode": "08-200",
                "addr:city": "\u0141osice",
                "addr:street": "Ignacego Krasickiego",
                "addr:housenumber": "1",
                "addr:teryt:simc": 922120,
                "addr:teryt:sym_ul": 9830,
                "contact:phone": "+48 833590687",
                "contact:email": "oszwlosice@interia.pl",
                "contact:website": "http:\/\/www.oszwlosice.pl",
                "ref:regon": "000959607",
                "ref:vatin": "PL5371505547",
                "operator": "Powiat \u0141osicki",
                "operator:type": "government",
                "amenity": "school",
                "note": "Children RSPO: 84283;84284;84285Parent RSPO: 111015"
            }
        },
        {
            "id": 43892,
            "type": "Feature",
            "geometry": {
                "type": "Point",
                "coordinates": [
                    22.71244,
                    52.21835
                ]
            },
            "properties": {
                "ref:rspo": 43892,
                "official_name": "Szkolne Schronisko M\u0142odzie\u017cowe w Zespole Plac\u00f3wek O\u015bwiatowo Wychowawczych w \u0141osicach",
                "name": "Szkolne Schronisko M\u0142odzie\u017cowe w Zespole Plac\u00f3wek O\u015bwiatowo Wychowawczych w \u0141osicach",
                "addr:country": "PL",
                "addr:postcode": "08-200",
                "addr:city": "\u0141osice",
                "addr:street": "Czarkowskiego",
                "addr:housenumber": "2",
                "addr:teryt:simc": 922120,
                "addr:teryt:sym_ul": 3261,
                "contact:phone": "+48 833590687",
                "contact:email": "oszwlosice@interia.pl",
                "contact:website": "http:\/\/www.oszwlosice.pl",
                "ref:regon": "141451087",
                "ref:vatin": "PL4960203454",
                "operator": "Powiat \u0141osicki",
                "operator:type": "government",
                "tourism": "hostel",
                "note": "Parent RSPO: 111015"
            }
        },
        {
            "id": 77931,
            "type": "Feature",
            "geometry": {
                "type": "Point",
                "coordinates": [
                    22.71799,
                    52.21985
                ]
            },
            "properties": {
                "ref:rspo": 77931,
                "official_name": "Niepubliczne Przedszkole \"Mali Odkrywcy\"",
                "name": "Niepubliczne Przedszkole \"Mali Odkrywcy\"",
                "addr:country": "PL",
                "addr:postcode": "08-200",
                "addr:city": "\u0141osice",
                "addr:street": "Czarkowskiego",
                "addr:housenumber": "10",
                "addr:teryt:simc": 922120,
                "addr:teryt:sym_ul": 3261,
                "contact:phone": "+48 833115264",
                "contact:email": "maliodkrywcy.losice@onet.pl",
                "ref:regon": "146370070",
                "operator": "Grzegorz Szczerbicki",
                "operator:type": "private",
                "amenity": "kindergarten"
            }
        },
        {
            "id": 31705,
            "type": "Feature",
            "geometry": {
                "type": "Point",
                "coordinates": [
                    22.70419,
                    52.25911
                ]
            },
            "properties": {
                "ref:rspo": 31705,
                "official_name": "Zesp\u00f3\u0142 O\u015bwiatowy w Niemojkach",
                "name": "Zesp\u00f3\u0142 O\u015bwiatowy w Niemojkach",
                "addr:country": "PL",
                "addr:postcode": "08-200",
                "addr:place": "Niemojki",
                "addr:housenumber": "157",
                "addr:teryt:simc": 1054765,
                "contact:phone": "+48 833571627",
                "contact:email": "zo_niemojki@op.pl",
                "ref:regon": "712539660",
                "ref:vatin": "PL4960180061",
                "operator": "Miasto I Gmina \u0141osice",
                "operator:type": "government",
                "landuse": "education",
                "fixme": "amenity=school, amenity=college albo landuse=education w zale\u017cno\u015bci od tego, jakie plac\u00f3wki wchodz\u0105 w sk\u0142ad zespo\u0142u. Sprawd\u017a, kiedy stosowa\u0107 amenity=* a kiedy landuse=education.",
                "note": "Children RSPO: 48083;48084"
            }
        },
        {
            "id": 48084,
            "type": "Feature",
            "geometry": {
                "type": "Point",
                "coordinates": [
                    22.70419,
                    52.25908
                ]
            },
            "properties": {
                "isced:level": "1;2",
                "ref:rspo": 48084,
                "official_name": "Szko\u0142a Podstawowa im. Stefana \u017beromskiego w Niemojkach",
                "name": "Szko\u0142a Podstawowa",
                "addr:country": "PL",
                "addr:postcode": "08-200",
                "addr:place": "Niemojki",
                "addr:housenumber": "157",
                "addr:teryt:simc": 1054765,
                "contact:phone": "+48 833571627",
                "contact:email": "zo_niemojki@op.pl",
                "contact:website": "http:\/\/zoniemojki.szkolnastrona.pl\/gim\/",
                "ref:regon": "001121250",
                "ref:vatin": "PL4960140541",
                "operator": "Miasto I Gmina \u0141osice",
                "operator:type": "government",
                "amenity": "school",
                "note": "Parent RSPO: 31705"
            }
        },
        {
            "id": 48083,
            "type": "Feature",
            "geometry": {
                "type": "Point",
                "coordinates": [
                    22.6980115,
                    52.2651692
                ]
            },
            "properties": {
                "ref:rspo": 48083,
                "official_name": "Przedszkole Samorz\u0105dowe w Niemojkach",
                "name": "Przedszkole Samorz\u0105dowe w Niemojkach",
                "addr:country": "PL",
                "addr:postcode": "08-200",
                "addr:place": "Niemojki",
                "addr:housenumber": "45",
                "addr:teryt:simc": 15585,
                "contact:phone": "+48 833571622",
                "contact:email": "zo_niemojki@op.pl",
                "contact:website": "http:\/\/zoniemojki.szkolnastrona.pl\/pr\/",
                "ref:regon": "030004227",
                "ref:vatin": "PL4960140558",
                "operator": "Miasto I Gmina \u0141osice",
                "operator:type": "government",
                "amenity": "kindergarten",
                "note": "Parent RSPO: 31705"
            }
        }
    ]
}