{
    "type": "FeatureCollection",
    "features": [
        {
            "id": 268758,
            "type": "Feature",
            "geometry": {
                "type": "Point",
                "coordinates": [
                    19.6247917,
                    51.7677319
                ]
            },
            "properties": {
                "isced:level": "1;2",
                "ref:rspo": 268758,
                "official_name": "Publiczna Szko\u0142a Podstawowa Oo.bernardyn\u00f3w w Wi\u0105czyniu Dolnym",
                "name": "Publiczna Szko\u0142a Podstawowa Oo.bernardyn\u00f3w w Wi\u0105czyniu Dolnym",
                "addr:country": "PL",
                "addr:postcode": "92-701",
                "addr:place": "Wi\u0105czy\u0144 Dolny",
                "addr:housenumber": "18",
                "addr:teryt:sym_ul": 414262,
                "contact:phone": "+48 508816374",
                "contact:email": "spwiaczyn@wp.pl",
                "ref:regon": "381244600",
                "operator": "Zakon Braci Mniejszych (Oo.bernardyn\u00f3w), Prowincja Niep.pocz\u0119cia Nmp",
                "operator:type": "religious",
                "amenity": "school"
            }
        },
        {
            "id": 73709,
            "type": "Feature",
            "geometry": {
                "type": "Point",
                "coordinates": [
                    19.62859,
                    51.79843
                ]
            },
            "properties": {
                "ref:rspo": 73709,
                "official_name": "Niepubliczne Przedszkole Ekologiczne ' Ekoludek\"",
                "name": "Niepubliczne Przedszkole Ekologiczne ' Ekoludek\"",
                "addr:country": "PL",
                "addr:postcode": "92-701",
                "addr:place": "Natolin",
                "addr:housenumber": "50",
                "addr:teryt:sym_ul": 414210,
                "contact:phone": "+48 505102604",
                "contact:email": "agnieszka@ekoludek.com.pl",
                "contact:website": "http:\/\/www.ekoludek.com.pl",
                "ref:regon": "101494633",
                "ref:vatin": "PL7282700805",
                "operator": "Agnieszka Chojnacka-Gawi\u0144ska",
                "operator:type": "private",
                "amenity": "kindergarten"
            }
        },
        {
            "id": 47658,
            "type": "Feature",
            "geometry": {
                "type": "Point",
                "coordinates": [
                    19.67198,
                    51.80674
                ]
            },
            "properties": {
                "isced:level": "1;2",
                "ref:rspo": 47658,
                "official_name": "Szko\u0142a Podstawowa im. Marii Konopnickiej w Lipinach",
                "name": "Szko\u0142a Podstawowa",
                "addr:country": "PL",
                "addr:postcode": "92-701",
                "addr:place": "Lipiny",
                "addr:housenumber": "14",
                "addr:teryt:sym_ul": 414180,
                "contact:phone": "+48 426484212",
                "contact:email": "sekretariat@splipiny.pl",
                "contact:website": "http:\/\/www.splipiny.pl",
                "ref:regon": "001157873",
                "ref:vatin": "PL7281160850",
                "operator": "Gmina Nowosolna",
                "operator:type": "government",
                "amenity": "school"
            }
        },
        {
            "id": 273664,
            "type": "Feature",
            "geometry": {
                "type": "Point",
                "coordinates": [
                    19.56208,
                    51.82045
                ]
            },
            "properties": {
                "ref:rspo": 273664,
                "official_name": "E-Maluch 5",
                "name": "E-Maluch 5",
                "addr:country": "PL",
                "addr:postcode": "92-701",
                "addr:place": "Kopanka",
                "addr:housenumber": "15",
                "addr:teryt:sym_ul": 414144,
                "contact:phone": "+48 669557485",
                "contact:email": "emaluchrafal@gmail.com",
                "ref:regon": "384549850",
                "operator": "Ma\u0142gorzata Piekarska",
                "operator:type": "private",
                "amenity": "kindergarten"
            }
        },
        {
            "id": 125149,
            "type": "Feature",
            "geometry": {
                "type": "Point",
                "coordinates": [
                    19.57789,
                    51.82968
                ]
            },
            "properties": {
                "ref:rspo": 125149,
                "official_name": "Przedszkole Niepubliczne\nKraina Bajki",
                "name": "Przedszkole Niepubliczne\nKraina Bajki",
                "addr:country": "PL",
                "addr:postcode": "92-701",
                "addr:city": "Kalonka",
                "addr:street": "ul. Maciejkowa",
                "addr:housenumber": "1",
                "addr:teryt:simc": 11843,
                "addr:teryt:sym_ul": 414109,
                "contact:phone": "+48 667518502",
                "contact:email": "przedszkole@kraina-bajki.pl",
                "contact:website": "http:\/\/www.kraina-bajki.pl",
                "ref:regon": "101842382",
                "ref:vatin": "PL7282630861",
                "operator": "Edyta Osuch",
                "operator:type": "private",
                "amenity": "kindergarten"
            }
        },
        {
            "id": 47630,
            "type": "Feature",
            "geometry": {
                "type": "Point",
                "coordinates": [
                    19.63512,
                    51.84987
                ]
            },
            "properties": {
                "isced:level": "1;2",
                "ref:rspo": 47630,
                "official_name": "Szko\u0142a Podstawowa im. W\u0142. Jagie\u0142\u0142y w Starych Skoszewach",
                "name": "Szko\u0142a Podstawowa",
                "addr:country": "PL",
                "addr:postcode": "92-701",
                "addr:place": "Stare Skoszewy",
                "addr:housenumber": "19",
                "addr:teryt:sym_ul": 414256,
                "contact:phone": "+48 426714668",
                "contact:email": "spskoszewy@wp.pl",
                "contact:website": "http:\/\/spskoszewy.com",
                "ref:regon": "001157867",
                "ref:vatin": "PL7281160933",
                "operator": "Gmina Nowosolna",
                "operator:type": "government",
                "amenity": "school"
            }
        }
    ]
}