{
    "type": "FeatureCollection",
    "features": [
        {
            "id": 123563,
            "type": "Feature",
            "geometry": {
                "type": "Point",
                "coordinates": [
                    19.68969,
                    51.66465
                ]
            },
            "properties": {
                "isced:level": "1;2",
                "ref:rspo": 123563,
                "official_name": "Szko\u0142a Podstawowa im.or\u0142a Bia\u0142ego w Kurowicach",
                "name": "Szko\u0142a Podstawowa im.or\u0142a Bia\u0142ego w Kurowicach",
                "addr:country": "PL",
                "addr:postcode": "95-006",
                "addr:city": "Kurowice",
                "addr:street": "Szkolna",
                "addr:housenumber": "1",
                "addr:teryt:simc": 413268,
                "addr:teryt:sym_ul": 21970,
                "contact:phone": "+48 422140084",
                "contact:email": "sekretariat@kurowice.edu.pl",
                "contact:website": "https:\/\/spkurowice.edupage.org\/",
                "ref:regon": "101808764",
                "operator": "Gmina Br\u00f3jce",
                "operator:type": "government",
                "amenity": "school",
                "note": "Children RSPO: 123621"
            }
        },
        {
            "id": 123621,
            "type": "Feature",
            "geometry": {
                "type": "Point",
                "coordinates": [
                    19.61224,
                    51.6747
                ]
            },
            "properties": {
                "isced:level": "1;2",
                "ref:rspo": 123621,
                "official_name": "Szko\u0142a Podstawowa im.or\u0142a Bia\u0142ego w Kurowicach Filia w Woli Rakowej",
                "name": "Szko\u0142a Podstawowa im.or\u0142a Bia\u0142ego w Kurowicach Filia w Woli Rakowej",
                "addr:country": "PL",
                "addr:postcode": "95-006",
                "addr:city": "Wola Rakowa",
                "addr:street": "Szkolna",
                "addr:housenumber": "3",
                "addr:teryt:simc": 413423,
                "addr:teryt:sym_ul": 21970,
                "contact:phone": "+48 422140396",
                "contact:email": "sekretariat@kurowice.edu.pl",
                "contact:website": "http:\/\/www.spwolarakowa02.pl",
                "ref:regon": "101808764",
                "operator": "Gmina Br\u00f3jce",
                "operator:type": "government",
                "amenity": "school",
                "note": "Parent RSPO: 123563"
            }
        },
        {
            "id": 4088,
            "type": "Feature",
            "geometry": {
                "type": "Point",
                "coordinates": [
                    19.6758099,
                    51.69183
                ]
            },
            "properties": {
                "ref:rspo": 4088,
                "official_name": "Zesp\u00f3\u0142 Szkolno-Przedszkolny w Bukowcu",
                "name": "Zesp\u00f3\u0142 Szkolno-Przedszkolny w Bukowcu",
                "addr:country": "PL",
                "addr:postcode": "95-006",
                "addr:city": "Bukowiec",
                "addr:street": "Szkolna",
                "addr:housenumber": "3",
                "addr:teryt:simc": 413179,
                "addr:teryt:sym_ul": 21970,
                "contact:phone": "+48 422279888",
                "contact:email": "sekretariat@spbukowiec.pl",
                "contact:website": "http:\/\/www.spbukowiec.pl",
                "ref:regon": "101453634",
                "operator": "Gmina Br\u00f3jce",
                "operator:type": "government",
                "landuse": "education",
                "fixme": "amenity=school, amenity=college albo landuse=education w zale\u017cno\u015bci od tego, jakie plac\u00f3wki wchodz\u0105 w sk\u0142ad zespo\u0142u. Sprawd\u017a, kiedy stosowa\u0107 amenity=* a kiedy landuse=education.",
                "note": "Children RSPO: 110501;272613"
            }
        },
        {
            "id": 110501,
            "type": "Feature",
            "geometry": {
                "type": "Point",
                "coordinates": [
                    19.6758099,
                    51.6918
                ]
            },
            "properties": {
                "isced:level": "1;2",
                "ref:rspo": 110501,
                "official_name": "Szko\u0142a Podstawowa im.miko\u0142aja Kopernika w Bukowcu",
                "name": "Szko\u0142a Podstawowa im.miko\u0142aja Kopernika w Bukowcu",
                "addr:country": "PL",
                "addr:postcode": "95-006",
                "addr:city": "Bukowiec",
                "addr:street": "Szkolna",
                "addr:housenumber": "3",
                "addr:teryt:simc": 413179,
                "addr:teryt:sym_ul": 21970,
                "contact:phone": "+48 422279888",
                "contact:email": "sekretariat@spbukowiec.pl",
                "contact:website": "http:\/\/www.spbukowiec.pl",
                "ref:regon": "001157850",
                "operator": "Gmina Br\u00f3jce",
                "operator:type": "government",
                "amenity": "school",
                "note": "Parent RSPO: 4088"
            }
        },
        {
            "id": 272613,
            "type": "Feature",
            "geometry": {
                "type": "Point",
                "coordinates": [
                    19.6758099,
                    51.691770000000005
                ]
            },
            "properties": {
                "ref:rspo": 272613,
                "official_name": "Przedszkole Samorz\u0105dowe w Bukowcu",
                "name": "Przedszkole Samorz\u0105dowe w Bukowcu",
                "addr:country": "PL",
                "addr:postcode": "95-006",
                "addr:city": "Bukowiec",
                "addr:street": "Szkolna",
                "addr:housenumber": "3",
                "addr:teryt:simc": 413179,
                "addr:teryt:sym_ul": 21970,
                "contact:phone": "+48 842279888",
                "contact:email": "sekretariat@spbukowiec.pl",
                "contact:website": "http:\/\/www.spbukowiec.pl",
                "ref:regon": "384270087",
                "operator": "Gmina Br\u00f3jce",
                "operator:type": "government",
                "amenity": "kindergarten",
                "note": "Parent RSPO: 4088"
            }
        }
    ]
}