{"type":"FeatureCollection","features":[{"id":5355,"type":"Feature","geometry":{"type":"Point","coordinates":[19.4577293396,51.640518188477]},"properties":{"isced:level":"1;2","ref:rspo":5355,"official_name":"Szko\u0142a Podstawowa im. Kornela Makuszy\u0144skiego w Guzewie","name":"Szko\u0142a Podstawowa","addr:country":"PL","addr:postcode":"95-030","addr:city":"Guzew","addr:street":"ul. Edukacyjna","addr:housenumber":"6","addr:teryt:simc":4733,"addr:teryt:sym_ul":415675,"contact:phone":"+48 422141086","contact:email":"sekretariat@spguzew.rzgow.pl","contact:website":"http:\/\/www.spguzew.edu.pl","ref:regon":"001157904","ref:vatin":"PL7291541329","operator":"Gmina Rzg\u00f3w","operator:type":"government","amenity":"school"}},{"id":274406,"type":"Feature","geometry":{"type":"Point","coordinates":[19.4577293396,51.640488188477]},"properties":{"ref:rspo":274406,"official_name":"Punkt Przedszkolny \"Kornelki\" w Guzewie","name":"Punkt Przedszkolny \"Kornelki\" w Guzewie","addr:country":"PL","addr:postcode":"95-030","addr:city":"Guzew","addr:street":"ul. Edukacyjna","addr:housenumber":"8","addr:teryt:simc":4733,"addr:teryt:sym_ul":415675,"contact:phone":"+48 422141439","contact:email":"sekretariat@przedszkole.rzgow.pl","ref:regon":"385716390","operator":"Gmina Rzg\u00f3w","operator:type":"government","amenity":"kindergarten"}},{"id":277585,"type":"Feature","geometry":{"type":"Point","coordinates":[19.4577293396,51.640458188477005]},"properties":{"ref:rspo":277585,"official_name":"Punkt Przedszkolny \"Kornelki II\" w Guzewie","name":"Punkt Przedszkolny \"Kornelki II\" w Guzewie","addr:country":"PL","addr:postcode":"95-030","addr:city":"Guzew","addr:street":"ul. Edukacyjna","addr:housenumber":"8","addr:teryt:simc":4733,"addr:teryt:sym_ul":415675,"contact:phone":"+48 422141439","contact:email":"sekretariat@przedszkole.rzgow.pl","ref:regon":"389160618","operator":"Gmina Rzg\u00f3w","operator:type":"government","amenity":"kindergarten"}},{"id":5357,"type":"Feature","geometry":{"type":"Point","coordinates":[19.49565,51.66027]},"properties":{"isced:level":"1;2","ref:rspo":5357,"official_name":"Szko\u0142a Podstawowa im.jana D\u0142ugosza w Rzgowie","name":"Szko\u0142a Podstawowa im.jana D\u0142ugosza w Rzgowie","addr:country":"PL","addr:postcode":"95-030","addr:city":"Rzg\u00f3w","addr:street":"ul. Szkolna","addr:housenumber":"3","addr:teryt:simc":21970,"addr:teryt:sym_ul":415787,"contact:phone":"+48 422141339","contact:email":"sekretariat@sp.rzgow.pl","contact:website":"http:\/\/sprzgow.szkoly.lodz.pl","ref:regon":"000588424","ref:vatin":"PL7291390273","operator":"Gmina Rzg\u00f3w","operator:type":"government","amenity":"school"}},{"id":5352,"type":"Feature","geometry":{"type":"Point","coordinates":[19.49607,51.6608]},"properties":{"ref:rspo":5352,"official_name":"Przedszkole Publiczne w Rzgowie","name":"Przedszkole Publiczne w Rzgowie","addr:country":"PL","addr:postcode":"95-030","addr:city":"Rzg\u00f3w","addr:street":"ul. Szkolna","addr:housenumber":"1","addr:teryt:simc":21970,"addr:teryt:sym_ul":415787,"contact:phone":"+48 422141439","contact:email":"sekretariat@przedszkole.rzgow.pl","ref:regon":"471043830","ref:vatin":"PL7291420100","operator":"Gmina Rzg\u00f3w","operator:type":"government","amenity":"kindergarten"}},{"id":127988,"type":"Feature","geometry":{"type":"Point","coordinates":[19.49723,51.66149]},"properties":{"ref:rspo":127988,"official_name":"Niepubliczna Szko\u0142a Muzyczna I St. w Rzgowie","name":"Niepubliczna Szko\u0142a Muzyczna I St. w Rzgowie","addr:country":"PL","addr:postcode":"95-030","addr:city":"Rzg\u00f3w","addr:street":"ul. Szkolna","addr:housenumber":"7","addr:teryt:simc":21970,"addr:teryt:sym_ul":415787,"contact:email":"rzgow.muzyczna@gmail.coml","ref:regon":"362011575","operator":"Krzysztof Marciniak","operator:type":"private","amenity":"music_school"}},{"id":263479,"type":"Feature","geometry":{"type":"Point","coordinates":[19.4922,51.66251]},"properties":{"ref:rspo":263479,"official_name":"Niepubliczne J\u0119zykowe Przedszkole Integracyjne \"Kraina Nied\u017awiadk\u00f3w\"","name":"Niepubliczne J\u0119zykowe Przedszkole Integracyjne \"Kraina Nied\u017awiadk\u00f3w\"","addr:country":"PL","addr:postcode":"95-030","addr:city":"Rzg\u00f3w","addr:street":"pl. 500-lecia","addr:housenumber":"13","addr:teryt:simc":54,"addr:teryt:sym_ul":415787,"contact:phone":"+48 538447007","contact:email":"krainaniedzwiadkow@gmail.com","ref:regon":"368193442","ref:vatin":"PL9471991503","operator":"Fundacja Happy Land","operator:type":"ngo","amenity":"kindergarten"}},{"id":132312,"type":"Feature","geometry":{"type":"Point","coordinates":[19.48591,51.66839]},"properties":{"ref:rspo":132312,"official_name":"Niepubliczne Przedszkole \"Akademia U\u015bmiechu\"","name":"Niepubliczne Przedszkole \"Akademia U\u015bmiechu\"","addr:country":"PL","addr:postcode":"95-030","addr:city":"Rzg\u00f3w","addr:street":"ul. Rudzka","addr:housenumber":"2","addr:teryt:simc":19082,"addr:teryt:sym_ul":415787,"contact:phone":"+48 696255685","contact:email":"rzgow@akademiausmiechu.info","ref:regon":"365538573","ref:vatin":"PL7691313508","operator":"S\u0142awomir Oset","operator:type":"private","amenity":"kindergarten"}},{"id":124969,"type":"Feature","geometry":{"type":"Point","coordinates":[19.46236,51.6778199]},"properties":{"ref:rspo":124969,"official_name":"Niepubliczne Przedszkole Kulturowo- Rekreacyjne \u015awiat Odkrywc\u00f3w","name":"Niepubliczne Przedszkole Kulturowo- Rekreacyjne \u015awiat Odkrywc\u00f3w","addr:country":"PL","addr:postcode":"95-030","addr:city":"Stara Gadka","addr:street":"ul. Kombajnowa","addr:housenumber":"13A","addr:teryt:simc":9037,"addr:teryt:sym_ul":415793,"contact:phone":"+48 504263632","contact:email":"k.suchozebrska@interia.pl","ref:regon":"101839641","operator":"Klaudia Sucho\u017cebrska","operator:type":"consortium","amenity":"kindergarten"}},{"id":5356,"type":"Feature","geometry":{"type":"Point","coordinates":[19.54458,51.68162]},"properties":{"isced:level":"1;2","ref:rspo":5356,"official_name":"Szko\u0142a Podstawowa im.\u015bw Kr\u00f3lowej Jadwigi w Kalinie","name":"Szko\u0142a Podstawowa im.\u015bw Kr\u00f3lowej Jadwigi w Kalinie","addr:country":"PL","addr:postcode":"95-030","addr:place":"Tadzin","addr:housenumber":"24","addr:teryt:sym_ul":415706,"contact:phone":"+48 422141077","contact:email":"sekretariat@spkalino.rzgow.pl","contact:website":"http:\/\/spkalino.szkoly.lodz.pl","ref:regon":"001157910","ref:vatin":"PL7291390178","operator":"Gmina Rzg\u00f3w","operator:type":"government","amenity":"school"}},{"id":73923,"type":"Feature","geometry":{"type":"Point","coordinates":[19.48886,51.69251]},"properties":{"ref:rspo":73923,"official_name":"Niepubliczne Przedszkole Lalibu","name":"Niepubliczne Przedszkole Lalibu","addr:country":"PL","addr:postcode":"95-030","addr:city":"Starowa G\u00f3ra","addr:street":"ul. Inspektowa","addr:housenumber":"29","addr:teryt:simc":6909,"addr:teryt:sym_ul":415801,"contact:phone":"+48 501493796","contact:email":"info@lalibu.pl","contact:website":"http:\/\/www.lalibu.pl","ref:regon":"101494679","operator":"Beata Cicho\u0144-Wodzy\u0144ska","operator:type":"private","amenity":"kindergarten"}}]}