{
    "type": "FeatureCollection",
    "features": [
        {
            "id": 81295,
            "type": "Feature",
            "geometry": {
                "type": "Point",
                "coordinates": [
                    19.63348,
                    51.72095
                ]
            },
            "properties": {
                "isced:level": "1;2",
                "ref:rspo": 81295,
                "official_name": "Szko\u0142a Podstawowa im. Henryka Sienkiewicza w Wi\u015bniowej G\u00f3rze",
                "name": "Szko\u0142a Podstawowa",
                "addr:postcode": "95-020",
                "addr:city": "Wi\u015bniowa G\u00f3ra",
                "addr:street": "Tuszy\u0144ska",
                "addr:housenumber": "32",
                "addr:city:simc": 413140,
                "addr:street:sym_ul": 23191,
                "phone": "+48 422132371",
                "email": "sekretariat@spwg.edu.pl",
                "website": "http:\/\/www.bip.spwg.wikom.pl",
                "ref:regon": "470009570",
                "ref:vatin": "PL7281379436",
                "operator": "Gmina Andrespol",
                "operator:type": "government",
                "amenity": "school"
            }
        },
        {
            "id": 263472,
            "type": "Feature",
            "geometry": {
                "type": "Point",
                "coordinates": [
                    19.63348,
                    51.72092
                ]
            },
            "properties": {
                "isced:level": "3",
                "ref:rspo": 263472,
                "official_name": "Liceum Og\u00f3lnokszta\u0142c\u0105ce im.jana Karskiego w Wi\u015bniowej G\u00f3rze",
                "name": "Liceum Og\u00f3lnokszta\u0142c\u0105ce im.jana Karskiego w Wi\u015bniowej G\u00f3rze",
                "addr:postcode": "95-020",
                "addr:city": "Wi\u015bniowa G\u00f3ra",
                "addr:street": "Tuszy\u0144ska",
                "addr:housenumber": "32",
                "addr:city:simc": 413140,
                "addr:street:sym_ul": 23191,
                "phone": "+48 422134081",
                "email": "liceumwg@wikom.pl",
                "website": "http:\/\/www.liceumwg.wikom.pl",
                "ref:regon": "368192885",
                "operator": "Gmina Andrespol",
                "operator:type": "government",
                "amenity": "school"
            }
        },
        {
            "id": 83180,
            "type": "Feature",
            "geometry": {
                "type": "Point",
                "coordinates": [
                    19.64018,
                    51.72321
                ]
            },
            "properties": {
                "ref:rspo": 83180,
                "official_name": "Us\u0142ugi Edukacyjne I Opieku\u0144czo-Wychowawcze Bo\u017cenna Surowiec",
                "name": "Us\u0142ugi Edukacyjne I Opieku\u0144czo-Wychowawcze Bo\u017cenna Surowiec",
                "addr:postcode": "95-020",
                "addr:city": "Andrespol",
                "addr:street": "Lipowa",
                "addr:housenumber": "7",
                "addr:city:simc": 413050,
                "addr:street:sym_ul": 11139,
                "phone": "+48 422132408",
                "email": "bsurowiec54@wp.pl",
                "ref:regon": "101499100",
                "ref:vatin": "PL7281018448",
                "operator": "Bo\u017cenna Surowiec",
                "operator:type": "private",
                "amenity": "kindergarten"
            }
        },
        {
            "id": 276958,
            "type": "Feature",
            "geometry": {
                "type": "Point",
                "coordinates": [
                    19.6374,
                    51.72598
                ]
            },
            "properties": {
                "ref:rspo": 276958,
                "official_name": "Niepubliczne J\u0119zykowo-Sportowe Przedszkole Integracyjne Winners Wandrespolu",
                "name": "Niepubliczne J\u0119zykowo-Sportowe Przedszkole Integracyjne Winners Wandrespolu",
                "addr:postcode": "95-020",
                "addr:city": "Andrespol",
                "addr:street": "Rokici\u0144ska",
                "addr:housenumber": "130",
                "addr:city:simc": 413050,
                "addr:street:sym_ul": 18792,
                "email": "katarzyna.ignatowicz@wp.pl",
                "ref:regon": "387904500",
                "ref:vatin": "PL7282790843",
                "operator": "Katarzyna Ignatowicz",
                "operator:type": "private",
                "amenity": "kindergarten"
            }
        },
        {
            "id": 81296,
            "type": "Feature",
            "geometry": {
                "type": "Point",
                "coordinates": [
                    19.68177,
                    51.72604
                ]
            },
            "properties": {
                "isced:level": "1;2",
                "ref:rspo": 81296,
                "official_name": "Szko\u0142a Podstawowa Z Oddzia\u0142ami Przedszkolnymi im. Jana Brzechwy w Justynowie",
                "name": "Szko\u0142a Podstawowa Z Oddzia\u0142ami Przedszkolnymi",
                "addr:postcode": "95-020",
                "addr:city": "Justyn\u00f3w",
                "addr:street": "\u0141\u00f3dzka",
                "addr:housenumber": "17",
                "addr:city:simc": 413096,
                "addr:street:sym_ul": 11710,
                "phone": "+48 422134293",
                "email": "ewa.derecka@gmail.com",
                "ref:regon": "001155414",
                "ref:vatin": "PL7281158847",
                "operator": "Gmina Andrespol",
                "operator:type": "government",
                "amenity": "school"
            }
        },
        {
            "id": 263108,
            "type": "Feature",
            "geometry": {
                "type": "Point",
                "coordinates": [
                    19.63759,
                    51.72649
                ]
            },
            "properties": {
                "ref:rspo": 263108,
                "official_name": "Przedszkole Niepubliczne Mali Odkrywcy",
                "name": "Przedszkole Niepubliczne Mali Odkrywcy",
                "addr:postcode": "95-020",
                "addr:city": "Andrespol",
                "addr:street": "Rokici\u0144ska",
                "addr:housenumber": "125 E",
                "addr:city:simc": 413050,
                "addr:street:sym_ul": 18792,
                "email": "biuro@przedszkolemaliodkrywcy.eu",
                "website": "http:\/\/www.przedszkolemaliodkrywcy.com",
                "ref:regon": "368106495",
                "operator": "Marek Micha\u0142owski",
                "operator:type": "private",
                "amenity": "kindergarten"
            }
        },
        {
            "id": 82687,
            "type": "Feature",
            "geometry": {
                "type": "Point",
                "coordinates": [
                    19.63341,
                    51.72702
                ]
            },
            "properties": {
                "ref:rspo": 82687,
                "official_name": "Przedszkole Niepubliczne \"Promyczek\" Marzena Milczarek",
                "name": "Przedszkole Niepubliczne \"Promyczek\" Marzena Milczarek",
                "addr:postcode": "95-020",
                "addr:city": "Andrespol",
                "addr:street": "Niska",
                "addr:housenumber": "9",
                "addr:city:simc": 413050,
                "addr:street:sym_ul": 14264,
                "phone": "+48 506321284",
                "ref:regon": "101499033",
                "ref:vatin": "PL7282541117",
                "operator": "Marzena Milczarek",
                "operator:type": "private",
                "amenity": "kindergarten"
            }
        },
        {
            "id": 81297,
            "type": "Feature",
            "geometry": {
                "type": "Point",
                "coordinates": [
                    19.63901,
                    51.72788
                ]
            },
            "properties": {
                "ref:rspo": 81297,
                "official_name": "Samorz\u0105dowe Przedszkole w Andrespolu",
                "name": "Samorz\u0105dowe Przedszkole w Andrespolu",
                "addr:postcode": "95-020",
                "addr:city": "Andrespol",
                "addr:street": "Ceramiczna",
                "addr:housenumber": "4",
                "addr:city:simc": 413050,
                "addr:street:sym_ul": 2629,
                "phone": "+48 422132075",
                "email": "spwan@poczta.onet.pl",
                "ref:regon": "004343760",
                "ref:vatin": "PL7282255914",
                "operator": "Gmina Andrespol",
                "operator:type": "government",
                "amenity": "kindergarten"
            }
        },
        {
            "id": 83179,
            "type": "Feature",
            "geometry": {
                "type": "Point",
                "coordinates": [
                    19.67455,
                    51.7282
                ]
            },
            "properties": {
                "ref:rspo": 83179,
                "official_name": "Niepubliczne Przedszkole \"Lila Lila\" Dariusz Figiel",
                "name": "Niepubliczne Przedszkole \"Lila Lila\" Dariusz Figiel",
                "addr:postcode": "95-020",
                "addr:city": "Justyn\u00f3w",
                "addr:street": "\u0141\u00f3dzka",
                "addr:housenumber": "35",
                "addr:city:simc": 413096,
                "addr:street:sym_ul": 11710,
                "phone": "+48 666584512",
                "ref:regon": "101500693",
                "operator": "Dariusz Figiel",
                "operator:type": "private",
                "amenity": "kindergarten"
            }
        },
        {
            "id": 81298,
            "type": "Feature",
            "geometry": {
                "type": "Point",
                "coordinates": [
                    19.67248,
                    51.7304
                ]
            },
            "properties": {
                "ref:rspo": 81298,
                "official_name": "Samorz\u0105dowe Przedszkole w Justynowie",
                "name": "Samorz\u0105dowe Przedszkole w Justynowie",
                "addr:postcode": "95-020",
                "addr:city": "Justyn\u00f3w",
                "addr:street": "Marcina Kasprzaka",
                "addr:housenumber": "18",
                "addr:city:simc": 413096,
                "addr:street:sym_ul": 8157,
                "phone": "+48 422132105",
                "email": "przedszkole.justynow@op.pl",
                "website": "http:\/\/www.justynow.przedszkoledladzieci.pl\/",
                "ref:regon": "470009876",
                "ref:vatin": "PL7282255908",
                "operator": "Gmina Andrespol",
                "operator:type": "government",
                "amenity": "kindergarten"
            }
        },
        {
            "id": 105866,
            "type": "Feature",
            "geometry": {
                "type": "Point",
                "coordinates": [
                    19.64881,
                    51.74245
                ]
            },
            "properties": {
                "ref:rspo": 105866,
                "official_name": "Zesp\u00f3\u0142 Szkolno-Przedszkolny im.jana Paw\u0142a Ii",
                "name": "Zesp\u00f3\u0142 Szkolno-Przedszkolny im.jana Paw\u0142a Ii",
                "addr:postcode": "95-020",
                "addr:city": "Bedo\u0144-Wie\u015b",
                "addr:street": "Jarz\u0119binowa",
                "addr:housenumber": "1",
                "addr:city:simc": 413073,
                "addr:street:sym_ul": 7290,
                "phone": "+48 422132110",
                "email": "sekretariat@szkola-bedon.pl",
                "website": "http:\/\/www.szkola-bedon.pl",
                "ref:regon": "001281343",
                "ref:vatin": "PL7281161045",
                "operator": "Gmina Andrespol",
                "operator:type": "government",
                "landuse": "education",
                "fixme": "amenity=school, amenity=college albo landuse=education w zale\u017cno\u015bci od tego, jakie plac\u00f3wki wchodz\u0105 w sk\u0142ad zespo\u0142u. Sprawd\u017a, kiedy stosowa\u0107 amenity=* a kiedy landuse=education.",
                "note": "Children RSPO: 82685;82686"
            }
        },
        {
            "id": 82685,
            "type": "Feature",
            "geometry": {
                "type": "Point",
                "coordinates": [
                    19.64881,
                    51.742419999999996
                ]
            },
            "properties": {
                "ref:rspo": 82685,
                "official_name": "Zesp\u00f3\u0142 Szkolno-Przedszkolny im.jana Paw\u0142a II - Przedszkole Samorz\u0105dowe",
                "name": "Zesp\u00f3\u0142 Szkolno-Przedszkolny im.jana Paw\u0142a II - Przedszkole Samorz\u0105dowe",
                "addr:postcode": "95-020",
                "addr:city": "Bedo\u0144-Wie\u015b",
                "addr:street": "Jarz\u0119binowa",
                "addr:housenumber": "1",
                "addr:city:simc": 413073,
                "addr:street:sym_ul": 7290,
                "phone": "+48 422132110",
                "email": "szkola.bedon@edu.andrespol.pl",
                "website": "http:\/\/www.szkola-bedon.pl",
                "ref:regon": "472908159",
                "operator": "Gmina Andrespol",
                "operator:type": "government",
                "amenity": "kindergarten",
                "note": "Parent RSPO: 105866"
            }
        },
        {
            "id": 82686,
            "type": "Feature",
            "geometry": {
                "type": "Point",
                "coordinates": [
                    19.64881,
                    51.74239
                ]
            },
            "properties": {
                "isced:level": "1;2",
                "ref:rspo": 82686,
                "official_name": "Zesp\u00f3\u0142 Szkolno-Przedszkolny im.jana Paw\u0142a II - Szko\u0142a Podstawowa",
                "name": "Zesp\u00f3\u0142 Szkolno-Przedszkolny im.jana Paw\u0142a II - Szko\u0142a Podstawowa",
                "addr:postcode": "95-020",
                "addr:city": "Bedo\u0144-Wie\u015b",
                "addr:street": "Jarz\u0119binowa",
                "addr:housenumber": "1",
                "addr:city:simc": 413073,
                "addr:street:sym_ul": 7290,
                "phone": "+48 422132110",
                "email": "szkola.bedon@edu.andrespol.pl",
                "website": "http:\/\/www.szkola-bedon.pl",
                "ref:regon": "472908165",
                "operator": "Gmina Andrespol",
                "operator:type": "government",
                "amenity": "school",
                "note": "Parent RSPO: 105866"
            }
        }
    ]
}