{"type":"FeatureCollection","features":[{"id":119049,"type":"Feature","geometry":{"type":"Point","coordinates":[18.68665,52.73403]},"properties":{"isced:level":"1;2","ref:rspo":119049,"official_name":"Szko\u0142a Podstawowa Stowarzyszenia Przyjaci\u00f3\u0142 Szk\u00f3\u0142 Katolickich im. \u015aw. J\u00f3zefa Sancheza Del Riow Siniarzewie","name":"Szko\u0142a Podstawowa Stowarzyszenia Przyjaci\u00f3\u0142 Szk\u00f3\u0142 Katolickich","addr:country":"PL","addr:postcode":"87-705","addr:place":"Siniarzewo","addr:housenumber":"74","addr:teryt:sym_ul":872208,"contact:phone":"+48 600301679","contact:email":"siniarzewo@spsk.info.pl","ref:regon":"341471184","operator":"Stowarzyszenie Przyjaci\u00f3\u0142 Szk\u00f3\u0142 Katolickich","operator:type":"ngo","amenity":"school"}},{"id":53481,"type":"Feature","geometry":{"type":"Point","coordinates":[18.57434,52.73411]},"properties":{"isced:level":"1;2","ref:rspo":53481,"official_name":"Szko\u0142a Podstawowa im. Or\u0142a Bia\u0142ego w S\u0119dzinie","name":"Szko\u0142a Podstawowa","addr:country":"PL","addr:postcode":"87-706","addr:place":"S\u0119dzin","addr:housenumber":"27A","addr:teryt:sym_ul":872183,"contact:phone":"+48 542720371","contact:email":"pspsendzin@wp.pl","contact:website":"http:\/\/www.szkolasedzin.pl","ref:regon":"001138730","ref:vatin":"PL8911393014","operator":"Gmina Zakrzewo","operator:type":"government","amenity":"school"}},{"id":4365,"type":"Feature","geometry":{"type":"Point","coordinates":[18.62333,52.75597]},"properties":{"ref:rspo":4365,"official_name":"Zesp\u00f3\u0142 Szk\u00f3\u0142 w Zakrzewie","name":"Zesp\u00f3\u0142 Szk\u00f3\u0142 w Zakrzewie","addr:country":"PL","addr:postcode":"87-707","addr:city":"Zakrzewo","addr:street":"ul. Le\u015bna","addr:housenumber":"3a","addr:teryt:simc":10898,"addr:teryt:sym_ul":872243,"contact:phone":"+48 542720082","contact:email":"gimzakrzewo@wp.pl","contact:website":"http:\/\/www.zszakrzewo.edupage.org","ref:regon":"341316354","operator":"Gmina Zakrzewo","operator:type":"government","landuse":"education","fixme":"amenity=school, amenity=college albo landuse=education w zale\u017cno\u015bci od tego, jakie plac\u00f3wki wchodz\u0105 w sk\u0142ad zespo\u0142u. Sprawd\u017a, kiedy stosowa\u0107 amenity=* a kiedy landuse=education.","note":"Children RSPO: 3108;53713"}},{"id":53713,"type":"Feature","geometry":{"type":"Point","coordinates":[18.62333,52.755939999999995]},"properties":{"isced:level":"1;2","ref:rspo":53713,"official_name":"Szko\u0142a Podstawowa im. Polski Niepodleg\u0142ej w Zespole Szk\u00f3\u0142 w Zakrzewie","name":"Szko\u0142a Podstawowa","addr:country":"PL","addr:postcode":"87-707","addr:city":"Zakrzewo","addr:street":"ul. Le\u015bna","addr:housenumber":"3a","addr:teryt:simc":10898,"addr:teryt:sym_ul":872243,"contact:phone":"+48 542720082","contact:email":"gimzakrzewo@wp.pl","contact:website":"http:\/\/www.zszakrzewo.edupage.org","ref:regon":"000994880","operator":"Gmina Zakrzewo","operator:type":"government","amenity":"school","note":"Parent RSPO: 4365"}},{"id":3108,"type":"Feature","geometry":{"type":"Point","coordinates":[18.62507,52.75697]},"properties":{"ref:rspo":3108,"official_name":"Zesp\u00f3\u0142 Szk\u00f3\u0142 w Zakrzewie Publiczne Przedszkole \"U\u015bmiech Malucha\" w Zakrzewie","name":"Zesp\u00f3\u0142 Szk\u00f3\u0142 w Zakrzewie Publiczne Przedszkole \"U\u015bmiech Malucha\" w Zakrzewie","addr:country":"PL","addr:postcode":"87-707","addr:city":"Zakrzewo","addr:street":"ul. Osiedlowa","addr:housenumber":"25","addr:teryt:simc":15300,"addr:teryt:sym_ul":872243,"contact:phone":"+48 542720082","contact:email":"gimzakrzewo@wp.pl","contact:website":"http:\/\/www.zszakrzewo.edupage.org","ref:regon":"341312630","ref:vatin":"PL8911622986","operator":"Gmina Zakrzewo","operator:type":"government","amenity":"kindergarten","note":"Parent RSPO: 4365"}}]}