{
    "type": "FeatureCollection",
    "features": [
        {
            "id": 126265,
            "type": "Feature",
            "geometry": {
                "type": "Point",
                "coordinates": [
                    18.89379,
                    52.84328
                ]
            },
            "properties": {
                "ref:rspo": 126265,
                "official_name": "Przedszkole Niepubliczne \"Ja\u015b I Ma\u0142gosia\"",
                "name": "Przedszkole Niepubliczne \"Ja\u015b I Ma\u0142gosia\"",
                "addr:postcode": "87-720",
                "addr:city": "Ciechocinek",
                "addr:street": "Genera\u0142a J\u00f3zefa Bema",
                "addr:housenumber": "43a",
                "addr:city:simc": 985616,
                "addr:street:sym_ul": 1014,
                "phone": "+48 512950365",
                "email": "jasimalgosia@autograf.pl",
                "website": "http:\/\/jasimalgosia-przedszkole.pl",
                "ref:regon": "360190243",
                "operator": "Antonina G\u0142owacka",
                "operator:type": "private",
                "amenity": "kindergarten"
            }
        },
        {
            "id": 4104,
            "type": "Feature",
            "geometry": {
                "type": "Point",
                "coordinates": [
                    18.81243,
                    52.87397
                ]
            },
            "properties": {
                "isced:level": "3",
                "ref:rspo": 4104,
                "official_name": "Zaoczne Liceum Og\u00f3lnokszta\u0142c\u0105ce dla Doros\u0142ych Towarzystwa Wiedzy Powszechnej w Nieszawie",
                "name": "Zaoczne Liceum Og\u00f3lnokszta\u0142c\u0105ce dla Doros\u0142ych Towarzystwa Wiedzy Powszechnej w Nieszawie",
                "addr:postcode": "87-730",
                "addr:city": "Ciechocinek",
                "addr:street": "Wojska Polskiego",
                "addr:housenumber": "37",
                "addr:city:simc": 985616,
                "addr:street:sym_ul": 24628,
                "phone": "+48 523258050",
                "email": "twp@twp.edu.pl",
                "ref:regon": "341320019",
                "ref:vatin": "PL9670194873",
                "operator": "Towarzystwo Wiedzy Powszechnej Oddzia\u0142 Regionalny W Bydgoszczy",
                "operator:type": "cooperative",
                "amenity": "school"
            }
        },
        {
            "id": 9330,
            "type": "Feature",
            "geometry": {
                "type": "Point",
                "coordinates": [
                    18.81243,
                    52.87394
                ]
            },
            "properties": {
                "isced:level": "3",
                "ref:rspo": 9330,
                "official_name": "Prestige Liceum Og\u00f3lnokszta\u0142c\u0105ce w Ciechocinku",
                "name": "Prestige Liceum Og\u00f3lnokszta\u0142c\u0105ce w Ciechocinku",
                "addr:postcode": "87-720",
                "addr:city": "Ciechocinek",
                "addr:street": "Wojska Polskiego",
                "addr:housenumber": "37",
                "addr:city:simc": 985616,
                "addr:street:sym_ul": 24628,
                "phone": "+48 542834471",
                "email": "dyrektor.sp3@ciechocinek.pl",
                "ref:regon": "341323064",
                "ref:vatin": "PL5562751599",
                "operator": "Tw\u00f3j Prestige Sp\u00f3\u0142ka Z Ograniczon\u0105 Odpowiedzialno\u015bci\u0105",
                "operator:type": "private",
                "amenity": "school"
            }
        },
        {
            "id": 119148,
            "type": "Feature",
            "geometry": {
                "type": "Point",
                "coordinates": [
                    18.81243,
                    52.87391
                ]
            },
            "properties": {
                "isced:level": "4",
                "ref:rspo": 119148,
                "official_name": "Policealna Szko\u0142a Zawodowa Towarzystwa Wiedzy Powszechnej",
                "name": "Policealna Szko\u0142a Zawodowa Towarzystwa Wiedzy Powszechnej",
                "addr:postcode": "87-730",
                "addr:city": "Ciechocinek",
                "addr:street": "Wojska Polskiego",
                "addr:housenumber": "37",
                "addr:city:simc": 985616,
                "addr:street:sym_ul": 24628,
                "phone": "+48 523258050",
                "email": "twp@twp.edu.pl",
                "ref:regon": "341473148",
                "ref:vatin": "PL9670194873",
                "operator": "Towarzystwo Wiedzy Powszechnej Oddzia\u0142 Regionalny W Bydgoszczy",
                "operator:type": "cooperative",
                "amenity": "college"
            }
        },
        {
            "id": 262224,
            "type": "Feature",
            "geometry": {
                "type": "Point",
                "coordinates": [
                    18.81243,
                    52.87388
                ]
            },
            "properties": {
                "isced:level": "1;2",
                "ref:rspo": 262224,
                "official_name": "Szko\u0142a Podstawowa nr 3 im. Polskich Olimpijczyk\u00f3w w Ciechocinku",
                "name": "Szko\u0142a Podstawowa nr 3",
                "addr:postcode": "87-720",
                "addr:city": "Ciechocinek",
                "addr:street": "Wojska Polskiego",
                "addr:housenumber": "37",
                "addr:city:simc": 985616,
                "addr:street:sym_ul": 24628,
                "phone": "+48 542834471",
                "email": "sp3@ciechocinek.pl",
                "website": "http:\/\/sp3.ciechocinek.pl",
                "ref:regon": "367994186",
                "operator": "Gmina Miejska Ciechocinek",
                "operator:type": "government",
                "amenity": "school"
            }
        },
        {
            "id": 82816,
            "type": "Feature",
            "geometry": {
                "type": "Point",
                "coordinates": [
                    18.79016,
                    52.87513
                ]
            },
            "properties": {
                "ref:rspo": 82816,
                "official_name": "Przedszkole Samorz\u0105dowe nr 2 im. Kubusia Puchatka",
                "name": "Przedszkole Samorz\u0105dowe nr 2",
                "addr:postcode": "87-720",
                "addr:city": "Ciechocinek",
                "addr:street": "Wierzbowa",
                "addr:housenumber": "10",
                "addr:city:simc": 985616,
                "addr:street:sym_ul": 24170,
                "phone": "+48 542834489",
                "email": "ps2ciech@op.pl",
                "website": "http:\/\/www.ps2.ciechocinek.pl",
                "ref:regon": "910005295",
                "operator": "Gmina Miejska Ciechocinek",
                "operator:type": "government",
                "amenity": "kindergarten"
            }
        },
        {
            "id": 126844,
            "type": "Feature",
            "geometry": {
                "type": "Point",
                "coordinates": [
                    18.7886099,
                    52.87529
                ]
            },
            "properties": {
                "ref:rspo": 126844,
                "official_name": "Przedszkole Niepubliczne Akademia Malucha O Profilu Angloj\u0119zycznym",
                "name": "Przedszkole Niepubliczne Akademia Malucha O Profilu Angloj\u0119zycznym",
                "addr:postcode": "87-720",
                "addr:city": "Ciechocinek",
                "addr:street": "Polna",
                "addr:housenumber": "9",
                "addr:city:simc": 985616,
                "addr:street:sym_ul": 17011,
                "phone": "+48 530466096",
                "email": "eweline3@wp.pl",
                "website": "http:\/\/przedszkole-akademia-malucha.pl",
                "ref:regon": "360807844",
                "operator": "Ewelina Urba\u0144ska",
                "operator:type": "private",
                "amenity": "kindergarten"
            }
        },
        {
            "id": 83692,
            "type": "Feature",
            "geometry": {
                "type": "Point",
                "coordinates": [
                    18.7932099,
                    52.87564
                ]
            },
            "properties": {
                "ref:rspo": 83692,
                "official_name": "Przedszkole Samorz\u0105dowe nr 1 Bajka",
                "name": "Przedszkole Samorz\u0105dowe nr 1 Bajka",
                "addr:postcode": "87-720",
                "addr:city": "Ciechocinek",
                "addr:street": "Widok",
                "addr:housenumber": "9",
                "addr:city:simc": 985616,
                "addr:street:sym_ul": 24011,
                "phone": "+48 542834835",
                "email": "przedsamnr1@op.pl",
                "website": "http:\/\/www.ps1.ciechocinek.pl",
                "ref:regon": "910004605",
                "operator": "Gmina Miejska Ciechocinek",
                "operator:type": "government",
                "amenity": "kindergarten"
            }
        },
        {
            "id": 85208,
            "type": "Feature",
            "geometry": {
                "type": "Point",
                "coordinates": [
                    18.78352,
                    52.87914
                ]
            },
            "properties": {
                "isced:level": "1;2",
                "ref:rspo": 85208,
                "official_name": "Szko\u0142a Podstawowa nr 1 im. Marsza\u0142ka J\u00f3zefa Pi\u0142sudskiego",
                "name": "Szko\u0142a Podstawowa nr 1",
                "addr:postcode": "87-720",
                "addr:city": "Ciechocinek",
                "addr:street": "Miko\u0142aja Kopernika",
                "addr:housenumber": "18",
                "addr:city:simc": 985616,
                "addr:street:sym_ul": 9282,
                "phone": "+48 542836460",
                "email": "sp1ciechocinek@poczta.onet.pl",
                "website": "http:\/\/www.sp1ciechocinek.szkolnastrona.pl",
                "ref:regon": "000767842",
                "operator": "Gmina Miejska Ciechocinek",
                "operator:type": "government",
                "amenity": "school"
            }
        },
        {
            "id": 3513,
            "type": "Feature",
            "geometry": {
                "type": "Point",
                "coordinates": [
                    18.79104,
                    52.88156
                ]
            },
            "properties": {
                "isced:level": "3",
                "ref:rspo": 3513,
                "official_name": "Liceum Og\u00f3lnokszta\u0142c\u0105ce im. Stanis\u0142awa Staszica w Ciechocinku",
                "name": "Liceum Og\u00f3lnokszta\u0142c\u0105ce",
                "addr:postcode": "87-720",
                "addr:city": "Ciechocinek",
                "addr:street": "Miko\u0142aja Kopernika",
                "addr:housenumber": "1",
                "addr:city:simc": 985616,
                "addr:street:sym_ul": 9282,
                "phone": "+48 542832531",
                "email": "sekretariat@lociechocinek.pl",
                "website": "http:\/\/www.lociechocinek.pl",
                "ref:regon": "000258514",
                "ref:vatin": "PL8911276828",
                "operator": "Powiat Aleksandrowski",
                "operator:type": "government",
                "amenity": "school"
            }
        },
        {
            "id": 131418,
            "type": "Feature",
            "geometry": {
                "type": "Point",
                "coordinates": [
                    18.8232,
                    52.8823099
                ]
            },
            "properties": {
                "ref:rspo": 131418,
                "official_name": "Niepubliczny Punkt Przedszkolny \"Niebieski Balonik\"",
                "name": "Niepubliczny Punkt Przedszkolny \"Niebieski Balonik\"",
                "addr:postcode": "87-720",
                "addr:city": "Ciechocinek",
                "addr:street": "S\u0142o\u0144sk G\u00f3rny",
                "addr:housenumber": "39",
                "addr:city:simc": 985616,
                "addr:street:sym_ul": 32505,
                "phone": "+48 691826763",
                "email": "zosia.makowska@gmail.com",
                "ref:regon": "365170647",
                "operator": "Zofia Makowska",
                "operator:type": "private",
                "amenity": "kindergarten"
            }
        },
        {
            "id": 47951,
            "type": "Feature",
            "geometry": {
                "type": "Point",
                "coordinates": [
                    18.78933,
                    52.88509
                ]
            },
            "properties": {
                "ref:rspo": 47951,
                "official_name": "Zesp\u00f3\u0142 Szk\u00f3\u0142 Specjalnych dla Dzieci I M\u0142odzie\u017cy Przewlekle Chorych I Niepe\u0142nosprawnych nr 1",
                "name": "Zesp\u00f3\u0142 Szk\u00f3\u0142 Specjalnych dla Dzieci I M\u0142odzie\u017cy Przewlekle Chorych I Niepe\u0142nosprawnych nr 1",
                "addr:postcode": "87-720",
                "addr:city": "Ciechocinek",
                "addr:street": "Stanis\u0142awa Staszica",
                "addr:housenumber": "7",
                "addr:city:simc": 985616,
                "addr:street:sym_ul": 21071,
                "phone": "+48 542836466",
                "email": "sekretariat@zss1ciechocinek.pl",
                "website": "http:\/\/www.zsuciechocinek.szkolnastrona.pl",
                "ref:regon": "910922620",
                "ref:vatin": "PL8911428422",
                "operator": "Wojew\u00f3dztwo Kujawsko-Pomorskie",
                "operator:type": "government",
                "landuse": "education",
                "fixme": "amenity=school, amenity=college albo landuse=education w zale\u017cno\u015bci od tego, jakie plac\u00f3wki wchodz\u0105 w sk\u0142ad zespo\u0142u. Sprawd\u017a, kiedy stosowa\u0107 amenity=* a kiedy landuse=education.",
                "note": "Children RSPO: 59570;130991"
            }
        },
        {
            "id": 59570,
            "type": "Feature",
            "geometry": {
                "type": "Point",
                "coordinates": [
                    18.78933,
                    52.885059999999996
                ]
            },
            "properties": {
                "isced:level": "1;2",
                "ref:rspo": 59570,
                "official_name": "Szko\u0142a Podstawowa Specjalna nr 2 w Ciechocinku",
                "name": "Szko\u0142a Podstawowa Specjalna nr 2 w Ciechocinku",
                "addr:postcode": "87-720",
                "addr:city": "Ciechocinek",
                "addr:street": "Stanis\u0142awa Staszica",
                "addr:housenumber": "7",
                "addr:city:simc": 985616,
                "addr:street:sym_ul": 21071,
                "phone": "+48 542836466",
                "email": "sekretariat@zss1ciechocinek.pl",
                "ref:regon": "000259413",
                "operator": "Wojew\u00f3dztwo Kujawsko-Pomorskie",
                "operator:type": "government",
                "amenity": "school",
                "note": "Parent RSPO: 47951"
            }
        },
        {
            "id": 130991,
            "type": "Feature",
            "geometry": {
                "type": "Point",
                "coordinates": [
                    18.78933,
                    52.88503
                ]
            },
            "properties": {
                "isced:level": "3",
                "ref:rspo": 130991,
                "official_name": "Liceum Og\u00f3lnokszta\u0142c\u0105ce Specjalne",
                "name": "Liceum Og\u00f3lnokszta\u0142c\u0105ce Specjalne",
                "addr:postcode": "87-720",
                "addr:city": "Ciechocinek",
                "addr:street": "Stanis\u0142awa Staszica",
                "addr:housenumber": "7",
                "addr:city:simc": 985616,
                "addr:street:sym_ul": 21071,
                "phone": "+48 542836466",
                "ref:regon": "364858413",
                "operator": "Wojew\u00f3dztwo Kujawsko-Pomorskie",
                "operator:type": "government",
                "amenity": "school",
                "note": "Parent RSPO: 47951"
            }
        }
    ]
}