{"type":"FeatureCollection","features":[{"id":88691,"type":"Feature","geometry":{"type":"Point","coordinates":[18.69707,52.82958]},"properties":{"isced:level":"1;2","ref:rspo":88691,"official_name":"Szko\u0142a Podstawowa im. Ks. Kan. Jana Matusiaka w Ostrow\u0105sie","name":"Szko\u0142a Podstawowa","addr:country":"PL","addr:postcode":"87-700","addr:place":"Ostrow\u0105s","addr:housenumber":"81","addr:teryt:sym_ul":857373,"contact:phone":"+48 542822743","contact:email":"dyrektor@sp.ostrowas.eu","contact:website":"http:\/\/pspostrowas.hekko.pl\/","ref:regon":"001170187","ref:vatin":"PL8911393155","operator":"Gmina Aleksandr\u00f3w Kujawski","operator:type":"government","amenity":"school"}},{"id":88692,"type":"Feature","geometry":{"type":"Point","coordinates":[18.65651,52.83121]},"properties":{"isced:level":"1;2","ref:rspo":88692,"official_name":"Szko\u0142a Podstawowa im.mjr Henryka Dobrza\u0144skiego \"Hubala\" w Przybranowie","name":"Szko\u0142a Podstawowa im.mjr Henryka Dobrza\u0144skiego \"Hubala\" w Przybranowie","addr:country":"PL","addr:postcode":"87-700","addr:place":"Przybranowo","addr:housenumber":"46","addr:teryt:sym_ul":857491,"contact:phone":"+48 542820331","contact:email":"hubal@sp.przybranowo.eu","contact:website":"http:\/\/www.szkolaprzybranowo.pl","ref:regon":"001170218","ref:vatin":"PL8911393126","operator":"Gmina Aleksandr\u00f3w Kujawski","operator:type":"government","amenity":"school"}},{"id":88690,"type":"Feature","geometry":{"type":"Point","coordinates":[18.57553,52.83292]},"properties":{"isced:level":"1;2","ref:rspo":88690,"official_name":"Szko\u0142a Podstawowa im. Powsta\u0144c\u00f3w Wielkopolskich w Opokach","name":"Szko\u0142a Podstawowa","addr:country":"PL","addr:postcode":"87-700","addr:place":"Opoki","addr:housenumber":"43","addr:teryt:sym_ul":857367,"contact:phone":"+48 542821225","contact:email":"sekretariat@sp.opoki.eu","contact:website":"https:\/\/psp-opoki.superszkolna.pl\/","ref:regon":"001170193","ref:vatin":"PL8911393149","operator":"Gmina Aleksandr\u00f3w Kujawski","operator:type":"government","amenity":"school"}},{"id":91719,"type":"Feature","geometry":{"type":"Point","coordinates":[18.64577,52.85613]},"properties":{"isced:level":"1;2","ref:rspo":91719,"official_name":"Szko\u0142a Podstawowa im. Tadeusza Ko\u015bciuszki w S\u0142u\u017cewie","name":"Szko\u0142a Podstawowa","addr:country":"PL","addr:postcode":"87-700","addr:city":"S\u0142u\u017cewo","addr:street":"ul. Toru\u0144ska","addr:housenumber":"8","addr:teryt:simc":22902,"addr:teryt:sym_ul":857605,"contact:phone":"+48 542820347","contact:email":"gimdyr1@wp.pl","contact:website":"http:\/\/www.zsws.szkolnastrona.pl\/","ref:regon":"001170201","ref:vatin":"PL8911262163","operator":"Gmina Aleksandr\u00f3w Kujawski","operator:type":"government","amenity":"school"}},{"id":91716,"type":"Feature","geometry":{"type":"Point","coordinates":[18.72665,52.86239]},"properties":{"isced:level":"1;2","ref:rspo":91716,"official_name":"Szko\u0142a Podstawowa im. Marii Danilewicz Zieli\u0144skiej w Stawkach","name":"Szko\u0142a Podstawowa","addr:country":"PL","addr:postcode":"87-700","addr:city":"Stawki","addr:street":"ul. Szkolna","addr:housenumber":"4","addr:teryt:simc":21970,"addr:teryt:sym_ul":857628,"contact:phone":"+48 542822457","contact:email":"sekretariat@sp.stawki.edu.pl","contact:website":"http:\/\/www.sp-stawki.pl","ref:regon":"000597340","ref:vatin":"PL8911393161","operator":"Gmina Aleksandr\u00f3w Kujawski","operator:type":"government","amenity":"school"}},{"id":128799,"type":"Feature","geometry":{"type":"Point","coordinates":[18.72665,52.862359999999995]},"properties":{"ref:rspo":128799,"official_name":"Niepubliczne Przedszkole \"Wyspa Malucha\"","name":"Niepubliczne Przedszkole \"Wyspa Malucha\"","addr:country":"PL","addr:postcode":"87-700","addr:city":"Stawki","addr:street":"ul. Szkolna","addr:housenumber":"4","addr:teryt:simc":21970,"addr:teryt:sym_ul":857628,"contact:phone":"+48 542824097","contact:email":"ziemia.kujawska@wp.pl","contact:website":"http:\/\/przedszkola.ziemiakujawska.pl","ref:regon":"362409527","ref:vatin":"PL8911563284","operator":"Stowarzyszenie \"Partnerstwo Dla Ziemi Kujawskiej\"","operator:type":"ngo","amenity":"kindergarten"}},{"id":272663,"type":"Feature","geometry":{"type":"Point","coordinates":[18.67194,52.88035]},"properties":{"ref:rspo":272663,"official_name":"J\u0119zykowe Przedszkole Niepubliczne Freedom","name":"J\u0119zykowe Przedszkole Niepubliczne Freedom","addr:country":"PL","addr:postcode":"87-700","addr:city":"Ro\u017cno-Parcele","addr:street":"ul. Hiacyntowa","addr:housenumber":"13","addr:teryt:simc":6650,"addr:teryt:sym_ul":857545,"contact:email":"rutkowskak752@gmail.com","ref:regon":"384272940","operator":"Katarzyna Rutkowska","operator:type":"private","amenity":"kindergarten"}},{"id":88693,"type":"Feature","geometry":{"type":"Point","coordinates":[18.75967,52.88936]},"properties":{"isced:level":"1;2","ref:rspo":88693,"official_name":"Szko\u0142a Podstawowa im. Wincentego Piotrowskiego w Wo\u0142uszewie","name":"Szko\u0142a Podstawowa","addr:country":"PL","addr:postcode":"87-720","addr:place":"Wo\u0142uszewo","addr:housenumber":"79","addr:teryt:sym_ul":857640,"contact:phone":"+48 542834719","contact:email":"sekretariat@sp.woluszewo.eu","contact:website":"http:\/\/pspwoluszewo.edupage.org","ref:regon":"001169913","ref:vatin":"PL8911393190","operator":"Gmina Aleksandr\u00f3w Kujawski","operator:type":"government","amenity":"school"}}]}