{
    "type": "FeatureCollection",
    "features": [
        {
            "id": 88735,
            "type": "Feature",
            "geometry": {
                "type": "Point",
                "coordinates": [
                    21.019257,
                    52.011274
                ]
            },
            "properties": {
                "isced:level": "1;2",
                "ref:rspo": 88735,
                "official_name": "Prywatna Szko\u0142a Podstawowa Nr 72 \"Szko\u0142a Marze\u0144\"",
                "name": "Prywatna Szko\u0142a Podstawowa Nr 72 \"Szko\u0142a Marze\u0144\"",
                "addr:country": "PL",
                "addr:postcode": "05-501",
                "addr:city": "Jazgarzewszczyzna",
                "addr:street": "Okr\u0119\u017cna",
                "addr:housenumber": "25A",
                "addr:teryt:simc": 4771,
                "addr:teryt:sym_ul": 14907,
                "contact:phone": "+48 227500787",
                "contact:email": "zalesie@szkolamarzen.pl",
                "contact:website": "http:\/\/www.szkolamarzen.pl",
                "ref:regon": "146432315",
                "operator": "Sapientia Sp\u00f3\u0142ka Z Ograniczon\u0105 Odpowiedzialno\u015bci\u0105",
                "operator:type": "private",
                "amenity": "school"
            }
        },
        {
            "id": 88803,
            "type": "Feature",
            "geometry": {
                "type": "Point",
                "coordinates": [
                    21.019257,
                    52.011244
                ]
            },
            "properties": {
                "ref:rspo": 88803,
                "official_name": "Gminne Przedszkole w Jastrz\u0119bcu",
                "name": "Gminne Przedszkole w Jastrz\u0119bcu",
                "addr:country": "PL",
                "addr:postcode": "05-552",
                "addr:city": "Jastrz\u0119biec",
                "addr:street": "\u0141\u0105kowa",
                "addr:housenumber": "13",
                "addr:teryt:simc": 4736,
                "addr:teryt:sym_ul": 11596,
                "contact:phone": "+48 227561582",
                "contact:email": "dyrektor@pj13.eu",
                "contact:website": "http:\/\/www.pj13.eu",
                "ref:regon": "013003528",
                "ref:vatin": "PL1230934706",
                "operator": "Gmina Lesznowola",
                "operator:type": "government",
                "amenity": "kindergarten"
            }
        },
        {
            "id": 93044,
            "type": "Feature",
            "geometry": {
                "type": "Point",
                "coordinates": [
                    21.019257,
                    52.011214
                ]
            },
            "properties": {
                "ref:rspo": 93044,
                "official_name": "Przedszkole Niepubliczne \"Stokrotka\"",
                "name": "Przedszkole Niepubliczne \"Stokrotka\"",
                "addr:country": "PL",
                "addr:postcode": "05-506",
                "addr:city": "Janczewice",
                "addr:street": "Jedno\u015bci",
                "addr:housenumber": "71",
                "addr:teryt:simc": 4765,
                "addr:teryt:sym_ul": 7431,
                "contact:phone": "+48 227579078",
                "contact:email": "majasowinska@op.pl",
                "contact:website": "http:\/\/www.przedszkolestokrotka.com.pl",
                "ref:regon": "146450750",
                "ref:vatin": "PL1231193181",
                "operator": "Emilia Jagodzi\u0144ska",
                "operator:type": "private",
                "amenity": "kindergarten"
            }
        },
        {
            "id": 123896,
            "type": "Feature",
            "geometry": {
                "type": "Point",
                "coordinates": [
                    21.019257,
                    52.011184
                ]
            },
            "properties": {
                "isced:level": "1;2",
                "ref:rspo": 123896,
                "official_name": "Niepubliczna Szko\u0142a Podstawowa Da Vinci",
                "name": "Niepubliczna Szko\u0142a Podstawowa Da Vinci",
                "addr:country": "PL",
                "addr:postcode": "05-552",
                "addr:city": "Kos\u00f3w",
                "addr:street": "Sadowa",
                "addr:housenumber": "34H",
                "addr:teryt:simc": 4788,
                "addr:teryt:sym_ul": 19404,
                "contact:phone": "+48 600259759",
                "contact:email": "sekretariat@szkoladavinci.pl",
                "ref:regon": "147362396",
                "operator": "Dzieci\u0119cy \u015awiat Sp\u00f3\u0142ka Z Ograniczon\u0105 Odpowiedzialno\u015bci\u0105",
                "operator:type": "private",
                "amenity": "school"
            }
        },
        {
            "id": 89421,
            "type": "Feature",
            "geometry": {
                "type": "Point",
                "coordinates": [
                    20.98291,
                    52.03124
                ]
            },
            "properties": {
                "ref:rspo": 89421,
                "official_name": "Gminne Przedszkole w W\u00f3lce Kosowskiej",
                "name": "Gminne Przedszkole w W\u00f3lce Kosowskiej",
                "addr:country": "PL",
                "addr:postcode": "05-552",
                "addr:city": "W\u00f3lka Kosowska",
                "addr:street": "\"Jana Bandurskiego ps. \"\"Norwid\"\"\"",
                "addr:housenumber": "1",
                "addr:teryt:simc": 5084,
                "addr:teryt:sym_ul": 55572,
                "contact:phone": "+48 227561368",
                "contact:email": "sekretariat@wolka.edu.pl",
                "contact:website": "http:\/\/www.wolka.edu.pl",
                "ref:regon": "013003511",
                "ref:vatin": "PL1230934712",
                "operator": "Gmina Lesznowola",
                "operator:type": "government",
                "amenity": "kindergarten"
            }
        },
        {
            "id": 120492,
            "type": "Feature",
            "geometry": {
                "type": "Point",
                "coordinates": [
                    20.86364,
                    52.03746
                ]
            },
            "properties": {
                "ref:rspo": 120492,
                "official_name": "Niepubliczne Przedszkole \"Pod Zielonym Groszkiem\"",
                "name": "Niepubliczne Przedszkole \"Pod Zielonym Groszkiem\"",
                "addr:country": "PL",
                "addr:postcode": "05-552",
                "addr:city": "Wola Mrokowska",
                "addr:street": "Rejonowa",
                "addr:housenumber": "39A",
                "addr:teryt:simc": 5078,
                "addr:teryt:sym_ul": 18568,
                "contact:phone": "+48 692848827",
                "contact:email": "przedszkole.mrokow@wp.pl",
                "contact:website": "http:\/\/www.przedszkolemrokow.pl",
                "ref:regon": "146908829",
                "operator": "Eko - Instalbud Miros\u0142aw Skrobot",
                "operator:type": "consortium",
                "amenity": "kindergarten"
            }
        },
        {
            "id": 93046,
            "type": "Feature",
            "geometry": {
                "type": "Point",
                "coordinates": [
                    20.87112,
                    52.03939
                ]
            },
            "properties": {
                "ref:rspo": 93046,
                "official_name": "Przedszkole Niepubliczne \"Mini Przedszkole\"",
                "name": "Przedszkole Niepubliczne \"Mini Przedszkole\"",
                "addr:country": "PL",
                "addr:postcode": "05-552",
                "addr:city": "Kolonia Mrokowska",
                "addr:street": "Rejonowa",
                "addr:housenumber": "34C",
                "addr:teryt:simc": 4937,
                "addr:teryt:sym_ul": 18568,
                "contact:phone": "+48 509869959",
                "contact:email": "tstawikowski@vp.pl",
                "contact:website": "http:\/\/www.miniprzedszkole.com.pl",
                "ref:regon": "146450804",
                "ref:vatin": "PL5272622037",
                "operator": "Dzieci\u0119cy \u015awiat Sp\u00f3\u0142ka Z Ograniczon\u0105 Odpowiedzialno\u015bci\u0105",
                "operator:type": "private",
                "amenity": "kindergarten"
            }
        },
        {
            "id": 106087,
            "type": "Feature",
            "geometry": {
                "type": "Point",
                "coordinates": [
                    20.85987,
                    52.03981
                ]
            },
            "properties": {
                "isced:level": "1;2",
                "ref:rspo": 106087,
                "official_name": "Szko\u0142a Podstawowa im. Marii Konopnickiej w Mrokowie",
                "name": "Szko\u0142a Podstawowa",
                "addr:country": "PL",
                "addr:postcode": "05-552",
                "addr:city": "Mrok\u00f3w",
                "addr:street": "Marii \u015awi\u0105tkiewicz",
                "addr:housenumber": "2a",
                "addr:teryt:simc": 4920,
                "addr:teryt:sym_ul": 49857,
                "contact:phone": "+48 227561555",
                "contact:email": "sekretariat@zspmrokow.pl",
                "contact:website": "http:\/\/www.zspmrokow.pl",
                "ref:regon": "001147188",
                "operator": "Gmina Lesznowola",
                "operator:type": "government",
                "amenity": "school"
            }
        },
        {
            "id": 93042,
            "type": "Feature",
            "geometry": {
                "type": "Point",
                "coordinates": [
                    20.85546,
                    52.05222
                ]
            },
            "properties": {
                "ref:rspo": 93042,
                "official_name": "Niepubliczne Przedszkole \"Panda\"",
                "name": "Niepubliczne Przedszkole \"Panda\"",
                "addr:country": "PL",
                "addr:postcode": "05-552",
                "addr:city": "Mrok\u00f3w",
                "addr:street": "Marii \u015awi\u0105tkiewicz",
                "addr:housenumber": "49",
                "addr:teryt:simc": 4920,
                "addr:teryt:sym_ul": 49857,
                "contact:phone": "+48 666391037",
                "contact:email": "katarzyna.obarzanek@gmail.com",
                "contact:website": "http:\/\/www.przedszkolepanda.pl",
                "ref:regon": "146450709",
                "ref:vatin": "PL1231240578",
                "operator": "Upp Sp\u00f3\u0142ka Z Ograniczon\u0105 Odpowiedzialno\u015bci\u0105",
                "operator:type": "private",
                "amenity": "kindergarten"
            }
        },
        {
            "id": 123934,
            "type": "Feature",
            "geometry": {
                "type": "Point",
                "coordinates": [
                    20.92359,
                    52.06475
                ]
            },
            "properties": {
                "isced:level": "1;2",
                "ref:rspo": 123934,
                "official_name": "Niepubliczna Katolicka Szko\u0142a Podstawowa im. B\u0142. Ks. Jerzego Popie\u0142uszki",
                "name": "Niepubliczna Katolicka Szko\u0142a Podstawowa",
                "addr:country": "PL",
                "addr:postcode": "05-506",
                "addr:city": "W\u0142adys\u0142aw\u00f3w",
                "addr:street": "Wojska Polskiego",
                "addr:housenumber": "31",
                "addr:teryt:simc": 5061,
                "addr:teryt:sym_ul": 24628,
                "contact:phone": "+48 728473434",
                "contact:email": "sekretariat@szkolawmagdalence.pl",
                "contact:website": "http:\/\/www.szkolawmagdalence.pl",
                "ref:regon": "147364403",
                "operator": "Fundacja Edukacji I Kultury",
                "operator:type": "ngo",
                "amenity": "school"
            }
        },
        {
            "id": 38914,
            "type": "Feature",
            "geometry": {
                "type": "Point",
                "coordinates": [
                    20.9274999,
                    52.07379
                ]
            },
            "properties": {
                "ref:rspo": 38914,
                "official_name": "Niepubliczna Poradnia Psychologiczno-Pedagogiczna \"Bullerbyn\"",
                "name": "Niepubliczna Poradnia Psychologiczno-Pedagogiczna \"Bullerbyn\"",
                "addr:country": "PL",
                "addr:postcode": "05-506",
                "addr:city": "Wilcza G\u00f3ra",
                "addr:street": "Nieziemska",
                "addr:housenumber": "1",
                "addr:teryt:simc": 5055,
                "addr:teryt:sym_ul": 37896,
                "contact:phone": "+48 517216734",
                "contact:email": "biuro@bullerbyn.pl",
                "contact:website": "http:\/\/www.bullerbyn.pl",
                "ref:regon": "146353410",
                "ref:vatin": "PL1231134020",
                "operator": "Fundacja Bullerbyn Na Rzecz Wsp\u00f3lnoty Dzieci I Doros\u0142ych",
                "operator:type": "ngo",
                "healthcare": "counselling",
                "counselling_type": "education",
                "fixme": "w zale\u017cno\u015bci od przedmiotu dzia\u0142alno\u015bci (np. healthcare=counselling + counselling_type=education albo healthcare=psychotherapist)"
            }
        },
        {
            "id": 29309,
            "type": "Feature",
            "geometry": {
                "type": "Point",
                "coordinates": [
                    20.87784,
                    52.07526
                ]
            },
            "properties": {
                "ref:rspo": 29309,
                "official_name": "Assecuro",
                "name": "Assecuro",
                "addr:country": "PL",
                "addr:postcode": "05-552",
                "addr:city": "\u0141azy",
                "addr:street": "Aleja Krakowska",
                "addr:housenumber": "184a",
                "addr:teryt:simc": 4848,
                "addr:teryt:sym_ul": 41777,
                "contact:phone": "+48 227577512",
                "contact:email": "info@assecuro.pl",
                "contact:website": "http:\/\/www.assecuro.pl",
                "ref:regon": "146342440",
                "ref:vatin": "PL1230926925",
                "operator": "Micha\u0142 Tokarzewski",
                "operator:type": "private",
                "fixme": "w zale\u017cno\u015bci od przedmiotu dzia\u0142alno\u015bci (np. amenity=training + training=*, amenity=dancing_school, amenity=language_school, amenity=music_school)"
            }
        },
        {
            "id": 128465,
            "type": "Feature",
            "geometry": {
                "type": "Point",
                "coordinates": [
                    20.98948,
                    52.07594
                ]
            },
            "properties": {
                "isced:level": "1;2",
                "ref:rspo": 128465,
                "official_name": "\"Akademia Rosenberga\" Niepubliczna Szko\u0142a Podstawowa",
                "name": "\"Akademia Rosenberga\" Niepubliczna Szko\u0142a Podstawowa",
                "addr:country": "PL",
                "addr:postcode": "05-506",
                "addr:city": "\u0141oziska",
                "addr:street": "Kwitn\u0105cej Wi\u015bni",
                "addr:housenumber": "13",
                "addr:teryt:simc": 4883,
                "addr:teryt:sym_ul": 10591,
                "contact:phone": "+48 696068488",
                "contact:email": "sekretariat@akademiarosenberga.pl",
                "contact:website": "http:\/\/akademiarosenberga.pl",
                "ref:regon": "362290517",
                "operator": "Agnieszka Satalecka",
                "operator:type": "private",
                "amenity": "school"
            }
        },
        {
            "id": 89466,
            "type": "Feature",
            "geometry": {
                "type": "Point",
                "coordinates": [
                    20.89014,
                    52.07672
                ]
            },
            "properties": {
                "ref:rspo": 89466,
                "official_name": "Niepubliczne Przedszkole \"Calineczka\"",
                "name": "Niepubliczne Przedszkole \"Calineczka\"",
                "addr:country": "PL",
                "addr:postcode": "05-552",
                "addr:city": "\u0141azy",
                "addr:street": "Rolna",
                "addr:housenumber": "33B",
                "addr:teryt:simc": 4848,
                "addr:teryt:sym_ul": 18819,
                "contact:phone": "+48 604554969",
                "contact:email": "joannakucewicz@vp.pl",
                "contact:website": "http:\/\/www.przedszkole-calineczka.pl",
                "ref:regon": "146432404",
                "operator": "Joanna Kucewicz",
                "operator:type": "private",
                "amenity": "kindergarten"
            }
        },
        {
            "id": 28177,
            "type": "Feature",
            "geometry": {
                "type": "Point",
                "coordinates": [
                    20.89046,
                    52.07706
                ]
            },
            "properties": {
                "ref:rspo": 28177,
                "official_name": "Szko\u0142a Ta\u0144ca I Baletu \"Maestro w \u0141azach",
                "name": "Szko\u0142a Ta\u0144ca I Baletu \"Maestro w \u0141azach",
                "addr:country": "PL",
                "addr:postcode": "05-552",
                "addr:city": "\u0141azy",
                "addr:street": "Ksi\u0119dza Kanonika Henryka S\u0142ojewskiego",
                "addr:housenumber": "1",
                "addr:teryt:simc": 4848,
                "addr:teryt:sym_ul": 50145,
                "contact:phone": "+48 602280086",
                "contact:email": "sekretariat@szkolamaestro.art.pl",
                "contact:website": "http:\/\/www.szkolatanca.art.pl",
                "ref:regon": "146371430",
                "ref:vatin": "PL9181315277",
                "operator": "Andrzej Gozdecki",
                "operator:type": "private",
                "fixme": "w zale\u017cno\u015bci od przedmiotu dzia\u0142alno\u015bci (np. amenity=training + training=*, amenity=dancing_school, amenity=language_school, amenity=music_school)"
            }
        },
        {
            "id": 106091,
            "type": "Feature",
            "geometry": {
                "type": "Point",
                "coordinates": [
                    20.89046,
                    52.07703
                ]
            },
            "properties": {
                "isced:level": "1;2",
                "ref:rspo": 106091,
                "official_name": "Szko\u0142a Podstawowa im. Jana Paw\u0142a II w \u0141azach",
                "name": "Szko\u0142a Podstawowa",
                "addr:country": "PL",
                "addr:postcode": "05-552",
                "addr:city": "\u0141azy",
                "addr:street": "Ksi\u0119dza Kanonika Henryka S\u0142ojewskiego",
                "addr:housenumber": "1",
                "addr:teryt:simc": 4848,
                "addr:teryt:sym_ul": 50145,
                "contact:phone": "+48 227577361",
                "contact:email": "sekretariat@lazy.edu.pl",
                "contact:website": "http:\/\/www.lazy.edu.pl\/",
                "ref:regon": "001146496",
                "ref:vatin": "PL1231000242",
                "operator": "Gmina Lesznowola",
                "operator:type": "government",
                "amenity": "school"
            }
        },
        {
            "id": 106040,
            "type": "Feature",
            "geometry": {
                "type": "Point",
                "coordinates": [
                    20.8893999,
                    52.07944
                ]
            },
            "properties": {
                "ref:rspo": 106040,
                "official_name": "Przedszkole Niepubliczne \"Fantazja\" Jadwiga Bi\u0144kowska",
                "name": "Przedszkole Niepubliczne \"Fantazja\" Jadwiga Bi\u0144kowska",
                "addr:country": "PL",
                "addr:postcode": "05-552",
                "addr:city": "\u0141azy",
                "addr:street": "\u0141\u0105czno\u015bci",
                "addr:housenumber": "2F",
                "addr:teryt:simc": 4848,
                "addr:teryt:sym_ul": 11582,
                "contact:phone": "+48 506125282",
                "contact:email": "przedszkolefantazja@interia.pl",
                "contact:website": "http:\/\/www.fantazja.edu.pl",
                "ref:regon": "146571169",
                "operator": "Jadwiga Bi\u0144kowska",
                "operator:type": "private",
                "amenity": "kindergarten"
            }
        },
        {
            "id": 106435,
            "type": "Feature",
            "geometry": {
                "type": "Point",
                "coordinates": [
                    20.88437,
                    52.08025
                ]
            },
            "properties": {
                "ref:rspo": 106435,
                "official_name": "Przedszkole Zgromadzenia Si\u00f3str Matki Bo\u017cej Mi\u0142osierdzia \"Jutrzenka\"",
                "name": "Przedszkole Zgromadzenia Si\u00f3str Matki Bo\u017cej Mi\u0142osierdzia \"Jutrzenka\"",
                "addr:country": "PL",
                "addr:postcode": "05-552",
                "addr:city": "\u0141azy",
                "addr:street": "\u0141\u0105czno\u015bci",
                "addr:housenumber": "158",
                "addr:teryt:simc": 4848,
                "addr:teryt:sym_ul": 11582,
                "contact:phone": "+48 227577740",
                "contact:email": "dyr.jutrzenka@faustyna.pl",
                "ref:regon": "146474058",
                "ref:vatin": "PL1230062844",
                "operator": "Zgromadzenie Si\u00f3str Matki Bo\u017cej Mi\u0142osierdzia",
                "operator:type": "religious",
                "amenity": "kindergarten"
            }
        },
        {
            "id": 89457,
            "type": "Feature",
            "geometry": {
                "type": "Point",
                "coordinates": [
                    20.88305,
                    52.08034
                ]
            },
            "properties": {
                "ref:rspo": 89457,
                "official_name": "Przedszkole Niepubliczne \"Bzyczek\"",
                "name": "Przedszkole Niepubliczne \"Bzyczek\"",
                "addr:country": "PL",
                "addr:postcode": "05-552",
                "addr:city": "\u0141azy",
                "addr:street": "\u0141\u0105czno\u015bci",
                "addr:housenumber": "11",
                "addr:teryt:simc": 4848,
                "addr:teryt:sym_ul": 11582,
                "contact:phone": "+48 227577602",
                "contact:email": "przedszkolebzyczek@wp.pl",
                "contact:website": "http:\/\/www.bzyczek.eu",
                "ref:regon": "146432373",
                "operator": "Marta Adamczyk-Borucka",
                "operator:type": "private",
                "amenity": "kindergarten"
            }
        },
        {
            "id": 106059,
            "type": "Feature",
            "geometry": {
                "type": "Point",
                "coordinates": [
                    20.9784599,
                    52.08038
                ]
            },
            "properties": {
                "ref:rspo": 106059,
                "official_name": "Niepubliczne Przedszkole \"Pluszowy Mi\u015b\"",
                "name": "Niepubliczne Przedszkole \"Pluszowy Mi\u015b\"",
                "addr:country": "PL",
                "addr:postcode": "05-500",
                "addr:city": "Stara Iwiczna",
                "addr:street": "S\u0142oneczna",
                "addr:housenumber": "105",
                "addr:teryt:simc": 5003,
                "addr:teryt:sym_ul": 20254,
                "contact:phone": "+48 503444505",
                "contact:email": "sekretariat@akademiarosenberga.pl",
                "contact:website": "http:\/\/www.przedszkole-pluszowymis.pl",
                "ref:regon": "146469940",
                "ref:vatin": "PL7971509477",
                "operator": "Agnieszka Satalecka",
                "operator:type": "private",
                "amenity": "kindergarten"
            }
        },
        {
            "id": 270621,
            "type": "Feature",
            "geometry": {
                "type": "Point",
                "coordinates": [
                    20.94452,
                    52.08158
                ]
            },
            "properties": {
                "ref:rspo": 270621,
                "official_name": "Filia Niepublicznego Przedszkola ,,Cypiskowo.pl\"",
                "name": "Filia Niepublicznego Przedszkola ,,Cypiskowo.pl\"",
                "addr:country": "PL",
                "addr:postcode": "05-552",
                "addr:city": "Lesznowola",
                "addr:street": "\u017bubra",
                "addr:housenumber": "4",
                "addr:teryt:simc": 4802,
                "addr:teryt:sym_ul": 36860,
                "contact:email": "cypiskowo@cypiskowo.pl",
                "contact:website": "http:\/\/www.cypiskowo.pl",
                "ref:regon": "382814258",
                "operator": "Katarzyna Brogowska",
                "operator:type": "private",
                "amenity": "kindergarten"
            }
        },
        {
            "id": 52083,
            "type": "Feature",
            "geometry": {
                "type": "Point",
                "coordinates": [
                    20.89512,
                    52.08182
                ]
            },
            "properties": {
                "ref:rspo": 52083,
                "official_name": "Przedszkole Niepubiczne \"Muzyczna Przedszkolandia\"",
                "name": "Przedszkole Niepubiczne \"Muzyczna Przedszkolandia\"",
                "addr:country": "PL",
                "addr:postcode": "05-552",
                "addr:city": "\u0141azy",
                "addr:street": "Wiejska",
                "addr:housenumber": "3E",
                "addr:teryt:simc": 4848,
                "addr:teryt:sym_ul": 24048,
                "contact:phone": "+48 697657677",
                "contact:email": "przedszkolandia@vp.pl",
                "contact:website": "http:\/\/www.muzycznaprzedszkolandia.pl",
                "ref:regon": "146374670",
                "ref:vatin": "PL1231137395",
                "operator": "Muzyczna Przedszkolandia Agnieszka Malicka Sp\u00f3\u0142ka Komandytowa",
                "operator:type": "private",
                "amenity": "kindergarten"
            }
        },
        {
            "id": 107320,
            "type": "Feature",
            "geometry": {
                "type": "Point",
                "coordinates": [
                    21.00488,
                    52.08324
                ]
            },
            "properties": {
                "ref:rspo": 107320,
                "official_name": "Niepubliczne Przedszkole \"Nutka\"",
                "name": "Niepubliczne Przedszkole \"Nutka\"",
                "addr:country": "PL",
                "addr:postcode": "05-500",
                "addr:city": "Stara Iwiczna",
                "addr:street": "S\u0142oneczna",
                "addr:housenumber": "30",
                "addr:teryt:simc": 5003,
                "addr:teryt:sym_ul": 20254,
                "contact:phone": "+48 227568906",
                "contact:email": "biuro@przedszkolenutka.pl",
                "contact:website": "http:\/\/www.przedszkolenutka.pl",
                "ref:regon": "146497800",
                "ref:vatin": "PL1230461604",
                "operator": "Justyna Glica",
                "operator:type": "private",
                "amenity": "kindergarten"
            }
        },
        {
            "id": 121576,
            "type": "Feature",
            "geometry": {
                "type": "Point",
                "coordinates": [
                    21.00949,
                    52.08378
                ]
            },
            "properties": {
                "ref:rspo": 121576,
                "official_name": "Niepubliczne Przedszkole \"Ba\u015bniowa Buba\"",
                "name": "Niepubliczne Przedszkole \"Ba\u015bniowa Buba\"",
                "addr:country": "PL",
                "addr:postcode": "05-500",
                "addr:city": "Stara Iwiczna",
                "addr:street": "S\u0142oneczna",
                "addr:housenumber": "14",
                "addr:teryt:simc": 5003,
                "addr:teryt:sym_ul": 20254,
                "contact:phone": "+48 602422795",
                "contact:email": "natalia.trzaska@interia.pl",
                "contact:website": "http:\/\/www.bubaluba.edu.pl",
                "ref:regon": "147060175",
                "ref:vatin": "PL1231129088",
                "operator": "Piotr Trzaska",
                "operator:type": "private",
                "amenity": "kindergarten"
            }
        },
        {
            "id": 274163,
            "type": "Feature",
            "geometry": {
                "type": "Point",
                "coordinates": [
                    21.010499,
                    52.083847
                ]
            },
            "properties": {
                "ref:rspo": 274163,
                "official_name": "Niepubliczne Przedszkole ,,S\u0142oneczne Anio\u0142ki\"",
                "name": "Niepubliczne Przedszkole ,,S\u0142oneczne Anio\u0142ki\"",
                "addr:country": "PL",
                "addr:postcode": "05-500",
                "addr:city": "Stara Iwiczna",
                "addr:street": "S\u0142oneczna",
                "addr:housenumber": "10",
                "addr:teryt:simc": 5003,
                "addr:teryt:sym_ul": 20254,
                "contact:phone": "+48 500749388",
                "contact:email": "kasiakawka1974@wp.pl",
                "ref:regon": "386935390",
                "operator": "Wanda Kawka",
                "operator:type": "private",
                "amenity": "kindergarten"
            }
        },
        {
            "id": 124668,
            "type": "Feature",
            "geometry": {
                "type": "Point",
                "coordinates": [
                    20.89636,
                    52.08418
                ]
            },
            "properties": {
                "isced:level": "3",
                "ref:rspo": 124668,
                "official_name": "Publiczne Katolickie Liceum Og\u00f3lnokszta\u0142c\u0105ce im. B\u0142.ks. Jerzego Popie\u0142uszki",
                "name": "Publiczne Katolickie Liceum Og\u00f3lnokszta\u0142c\u0105ce",
                "addr:country": "PL",
                "addr:postcode": "05-552",
                "addr:city": "\u0141azy",
                "addr:street": "Wiejska",
                "addr:housenumber": "2",
                "addr:teryt:simc": 4848,
                "addr:teryt:sym_ul": 24048,
                "contact:phone": "+48 227577031",
                "contact:email": "sekretariat@popieluszko.org.pl",
                "ref:regon": "147404723",
                "operator": "Centrum Edukacyjne Archidiecezji Warszawskiej",
                "operator:type": "religious",
                "amenity": "school"
            }
        },
        {
            "id": 277380,
            "type": "Feature",
            "geometry": {
                "type": "Point",
                "coordinates": [
                    20.89636,
                    52.08415
                ]
            },
            "properties": {
                "isced:level": "3",
                "ref:rspo": 277380,
                "official_name": "Katolickie Liceum Og\u00f3lnokszta\u0142c\u0105ce im. B\u0142. Ks. Jerzego Popie\u0142uszki w \u0141azach",
                "name": "Katolickie Liceum Og\u00f3lnokszta\u0142c\u0105ce",
                "addr:country": "PL",
                "addr:postcode": "05-552",
                "addr:city": "\u0141azy",
                "addr:street": "Wiejska",
                "addr:housenumber": "2",
                "addr:teryt:simc": 4848,
                "addr:teryt:sym_ul": 24048,
                "contact:phone": "+48 227577031",
                "contact:email": "sekretariat@popieluszko.org.pl",
                "ref:regon": "388738481",
                "operator": "Centrum Edukacyjne Archidiecezji Warszawskiej",
                "operator:type": "religious",
                "amenity": "school"
            }
        },
        {
            "id": 276179,
            "type": "Feature",
            "geometry": {
                "type": "Point",
                "coordinates": [
                    20.94395,
                    52.0843
                ]
            },
            "properties": {
                "ref:rspo": 276179,
                "official_name": "Niepubliczne Przedszkole ,,R\u00f3\u017cowe Okulary\"",
                "name": "Niepubliczne Przedszkole ,,R\u00f3\u017cowe Okulary\"",
                "addr:country": "PL",
                "addr:postcode": "05-506",
                "addr:city": "Lesznowola",
                "addr:street": "Okr\u0119\u017cna",
                "addr:housenumber": "63",
                "addr:teryt:simc": 4802,
                "addr:teryt:sym_ul": 14907,
                "contact:phone": "+48 573085921",
                "contact:email": "przedszkolerozoweokulary@gmail.com",
                "contact:website": "http:\/\/www.przedszkole-rozoweokulary.pl",
                "ref:regon": "387017360",
                "operator": "Piotr Ammol",
                "operator:type": "private",
                "amenity": "kindergarten"
            }
        },
        {
            "id": 126510,
            "type": "Feature",
            "geometry": {
                "type": "Point",
                "coordinates": [
                    20.941730499268,
                    52.08752822876
                ]
            },
            "properties": {
                "ref:rspo": 126510,
                "official_name": "Niepubliczne Przedszkole Cypiskowo.pl",
                "name": "Niepubliczne Przedszkole Cypiskowo.pl",
                "addr:country": "PL",
                "addr:postcode": "05-506",
                "addr:city": "Lesznowola",
                "addr:street": "Gminna",
                "addr:housenumber": "56A",
                "addr:teryt:simc": 4802,
                "addr:teryt:sym_ul": 5654,
                "contact:phone": "+48 602593463",
                "contact:email": "cypiskowo@cypiskowo.pl",
                "contact:website": "http:\/\/www.cypiskowo.pl",
                "ref:regon": "360402521",
                "operator": "Katarzyna Brogowska",
                "operator:type": "private",
                "amenity": "kindergarten"
            }
        },
        {
            "id": 29241,
            "type": "Feature",
            "geometry": {
                "type": "Point",
                "coordinates": [
                    20.94896,
                    52.08782
                ]
            },
            "properties": {
                "ref:rspo": 29241,
                "official_name": "Zesp\u00f3\u0142 Szkolno-Przedszkolny im. Noblist\u00f3w Polskich w Lesznowoli",
                "name": "Zesp\u00f3\u0142 Szkolno-Przedszkolny",
                "addr:country": "PL",
                "addr:postcode": "05-506",
                "addr:city": "Lesznowola",
                "addr:street": "Szkolna",
                "addr:housenumber": "6",
                "addr:teryt:simc": 4802,
                "addr:teryt:sym_ul": 21970,
                "contact:phone": "+48 227579399",
                "contact:email": "zspsekretariat@zsplesznowola.pl",
                "contact:website": "http:\/\/www.zsplesznowola.pl",
                "ref:regon": "017251269",
                "ref:vatin": "PL1230934824",
                "operator": "Gmina Lesznowola",
                "operator:type": "government",
                "landuse": "education",
                "fixme": "amenity=school, amenity=college albo landuse=education w zale\u017cno\u015bci od tego, jakie plac\u00f3wki wchodz\u0105 w sk\u0142ad zespo\u0142u. Sprawd\u017a, kiedy stosowa\u0107 amenity=* a kiedy landuse=education.",
                "note": "Children RSPO: 41493;107387"
            }
        },
        {
            "id": 41493,
            "type": "Feature",
            "geometry": {
                "type": "Point",
                "coordinates": [
                    20.94896,
                    52.08779
                ]
            },
            "properties": {
                "ref:rspo": 41493,
                "official_name": "Przedszkole w Lesznowoli",
                "name": "Przedszkole w Lesznowoli",
                "addr:country": "PL",
                "addr:postcode": "05-506",
                "addr:city": "Lesznowola",
                "addr:street": "Szkolna",
                "addr:housenumber": "6",
                "addr:teryt:simc": 4802,
                "addr:teryt:sym_ul": 21970,
                "contact:phone": "+48 227579399",
                "contact:email": "zspsekretariat@zsplesznowola.pl",
                "ref:regon": "017251364",
                "operator": "Gmina Lesznowola",
                "operator:type": "government",
                "amenity": "kindergarten",
                "note": "Parent RSPO: 29241"
            }
        },
        {
            "id": 107387,
            "type": "Feature",
            "geometry": {
                "type": "Point",
                "coordinates": [
                    20.94896,
                    52.08776
                ]
            },
            "properties": {
                "isced:level": "1;2",
                "ref:rspo": 107387,
                "official_name": "Szko\u0142a Podstawowa w Lesznowoli",
                "name": "Szko\u0142a Podstawowa w Lesznowoli",
                "addr:country": "PL",
                "addr:postcode": "05-506",
                "addr:city": "Lesznowola",
                "addr:street": "Szkolna",
                "addr:housenumber": "6",
                "addr:teryt:simc": 4802,
                "addr:teryt:sym_ul": 21970,
                "contact:phone": "+48 227579399",
                "contact:email": "zspsekretariat@zsplesznowola.pl",
                "ref:regon": "017251335",
                "operator": "Gmina Lesznowola",
                "operator:type": "government",
                "amenity": "school",
                "note": "Parent RSPO: 29241"
            }
        },
        {
            "id": 93045,
            "type": "Feature",
            "geometry": {
                "type": "Point",
                "coordinates": [
                    20.94982,
                    52.08816
                ]
            },
            "properties": {
                "ref:rspo": 93045,
                "official_name": "Przedszkole Niepubliczne \"Bajkolandia\"",
                "name": "Przedszkole Niepubliczne \"Bajkolandia\"",
                "addr:country": "PL",
                "addr:postcode": "05-506",
                "addr:city": "Lesznowola",
                "addr:street": "Sportowa",
                "addr:housenumber": "3",
                "addr:teryt:simc": 4802,
                "addr:teryt:sym_ul": 20683,
                "contact:phone": "+48 605627049",
                "contact:email": "dyrektor@przedszkole-bajkolandia.pl",
                "contact:website": "http:\/\/www.przedszkole-bajkolandia.pl",
                "ref:regon": "146450780",
                "ref:vatin": "PL1231204341",
                "operator": "Edu-Invest Sp\u00f3\u0142ka Z Ograniczon\u0105 Odpowiedzialno\u015bci\u0105",
                "operator:type": "private",
                "amenity": "kindergarten"
            }
        },
        {
            "id": 28239,
            "type": "Feature",
            "geometry": {
                "type": "Point",
                "coordinates": [
                    20.94904,
                    52.0882999
                ]
            },
            "properties": {
                "ref:rspo": 28239,
                "official_name": "Szko\u0142a Ta\u0144ca I Baletu \"Maestro\"",
                "name": "Szko\u0142a Ta\u0144ca I Baletu \"Maestro\"",
                "addr:country": "PL",
                "addr:postcode": "05-506",
                "addr:city": "Lesznowola",
                "addr:street": "Szkolna",
                "addr:housenumber": "8",
                "addr:teryt:simc": 4802,
                "addr:teryt:sym_ul": 21970,
                "contact:phone": "+48 602280086",
                "contact:email": "sekretariat@szkolamaestro.art.pl",
                "contact:website": "http:\/\/www.szkolatanca.art.pl",
                "ref:regon": "146342291",
                "ref:vatin": "PL9181315277",
                "operator": "Andrzej Gozdecki",
                "operator:type": "private",
                "fixme": "w zale\u017cno\u015bci od przedmiotu dzia\u0142alno\u015bci (np. amenity=training + training=*, amenity=dancing_school, amenity=language_school, amenity=music_school)"
            }
        },
        {
            "id": 68580,
            "type": "Feature",
            "geometry": {
                "type": "Point",
                "coordinates": [
                    20.94904,
                    52.0882699
                ]
            },
            "properties": {
                "ref:rspo": 68580,
                "official_name": "Niepubliczna Szkola Muzyczna Maestro I St. w Lesznowoli",
                "name": "Niepubliczna Szkola Muzyczna Maestro I St. w Lesznowoli",
                "addr:country": "PL",
                "addr:postcode": "05-506",
                "addr:city": "Lesznowola",
                "addr:street": "Szkolna",
                "addr:housenumber": "8",
                "addr:teryt:simc": 4802,
                "addr:teryt:sym_ul": 21970,
                "ref:regon": "146396559",
                "operator": "Andrzej Gozdecki",
                "operator:type": "private",
                "amenity": "music_school"
            }
        },
        {
            "id": 27307,
            "type": "Feature",
            "geometry": {
                "type": "Point",
                "coordinates": [
                    20.87323,
                    52.08973
                ]
            },
            "properties": {
                "ref:rspo": 27307,
                "official_name": "O\u015brodek Dokszta\u0142cania Zawodowego \"Green West\"",
                "name": "O\u015brodek Dokszta\u0142cania Zawodowego \"Green West\"",
                "addr:country": "PL",
                "addr:postcode": "05-552",
                "addr:city": "\u0141azy",
                "addr:street": "W\u0105ska",
                "addr:housenumber": "12b",
                "addr:teryt:simc": 4848,
                "addr:teryt:sym_ul": 23795,
                "contact:phone": "+48 224782850",
                "contact:email": "szkolenia@odz.com.pl",
                "contact:website": "http:\/\/www.odz.com.pl",
                "ref:regon": "146339395",
                "ref:vatin": "PL9522022330",
                "operator": "O\u015brodek Dokszta\u0142cania Zawodowego \"Green West\" Sp\u00f3\u0142ka Z Ograniczon\u0105 Odpowiedzialno\u015bci\u0105",
                "operator:type": "private",
                "fixme": "w zale\u017cno\u015bci od przedmiotu dzia\u0142alno\u015bci (np. amenity=training + training=*, amenity=dancing_school, amenity=language_school, amenity=music_school)"
            }
        },
        {
            "id": 267927,
            "type": "Feature",
            "geometry": {
                "type": "Point",
                "coordinates": [
                    20.98947,
                    52.08984
                ]
            },
            "properties": {
                "ref:rspo": 267927,
                "official_name": "Niepubliczne Przedszkole Smart Kids Academy",
                "name": "Niepubliczne Przedszkole Smart Kids Academy",
                "addr:country": "PL",
                "addr:postcode": "05-500",
                "addr:city": "Nowa Iwiczna",
                "addr:street": "Ignacego Krasickiego",
                "addr:housenumber": "100",
                "addr:teryt:simc": 4966,
                "addr:teryt:sym_ul": 9830,
                "contact:phone": "+48 604127977",
                "contact:email": "przedszkole@smartkidsacademy.pl",
                "ref:regon": "380755296",
                "operator": "Krzysztof Skotarek",
                "operator:type": "private",
                "amenity": "kindergarten"
            }
        },
        {
            "id": 279262,
            "type": "Feature",
            "geometry": {
                "type": "Point",
                "coordinates": [
                    21.00015,
                    52.09079
                ]
            },
            "properties": {
                "ref:rspo": 279262,
                "official_name": "Happynest Center",
                "name": "Happynest Center",
                "addr:country": "PL",
                "addr:postcode": "05-515",
                "addr:city": "Nowa Iwiczna",
                "addr:street": "Ignacego Krasickiego",
                "addr:housenumber": "62",
                "addr:teryt:simc": 4966,
                "addr:teryt:sym_ul": 9830,
                "contact:email": "magdalena.zolondek.11@gmail.com",
                "ref:regon": "521062006",
                "operator": "Magdalena \u017bo\u0142\u0105dek",
                "operator:type": "private",
                "fixme": "w zale\u017cno\u015bci od przedmiotu dzia\u0142alno\u015bci (np. amenity=training + training=*, amenity=dancing_school, amenity=language_school, amenity=music_school)"
            }
        },
        {
            "id": 121554,
            "type": "Feature",
            "geometry": {
                "type": "Point",
                "coordinates": [
                    21.00493,
                    52.09087
                ]
            },
            "properties": {
                "ref:rspo": 121554,
                "official_name": "Niepubliczne Przedszkole \"Alfabet\"",
                "name": "Niepubliczne Przedszkole \"Alfabet\"",
                "addr:country": "PL",
                "addr:postcode": "05-515",
                "addr:city": "Nowa Iwiczna",
                "addr:street": "Ignacego Krasickiego",
                "addr:housenumber": "27",
                "addr:teryt:simc": 4966,
                "addr:teryt:sym_ul": 9830,
                "contact:phone": "+48 883682882",
                "contact:email": "przedszkolealfabet@hotmail.com",
                "contact:website": "http:\/\/www.alfabet.edu.pl",
                "ref:regon": "147059522",
                "operator": "Krystya Skibicka",
                "operator:type": "private",
                "amenity": "kindergarten"
            }
        },
        {
            "id": 130657,
            "type": "Feature",
            "geometry": {
                "type": "Point",
                "coordinates": [
                    20.97963,
                    52.09107
                ]
            },
            "properties": {
                "ref:rspo": 130657,
                "official_name": "Niepubliczny Punkt Przedszkolny Chrze\u015bcija\u0144sko-Agroturystyczny \"Zwierzaki\"",
                "name": "Niepubliczny Punkt Przedszkolny Chrze\u015bcija\u0144sko-Agroturystyczny \"Zwierzaki\"",
                "addr:country": "PL",
                "addr:postcode": "05-515",
                "addr:city": "Nowa Wola",
                "addr:street": "Ignacego Krasickiego",
                "addr:housenumber": "143",
                "addr:teryt:simc": 4972,
                "addr:teryt:sym_ul": 9830,
                "contact:email": "przedszkole.zwierzaki@op.pl",
                "ref:regon": "364304896",
                "operator": "Niepubliczny Punkt Przedszkolny Zwierzaki Sp\u00f3\u0142ka Z Ograniczon\u0105 Odpowiedzialno\u015bci\u0105",
                "operator:type": "private",
                "amenity": "kindergarten"
            }
        },
        {
            "id": 103742,
            "type": "Feature",
            "geometry": {
                "type": "Point",
                "coordinates": [
                    21.00209,
                    52.09114
                ]
            },
            "properties": {
                "isced:level": "1;2",
                "ref:rspo": 103742,
                "official_name": "Szko\u0142a Podstawowa w Nowej Iwicznej",
                "name": "Szko\u0142a Podstawowa w Nowej Iwicznej",
                "addr:country": "PL",
                "addr:postcode": "05-500",
                "addr:city": "Nowa Iwiczna",
                "addr:street": "Ignacego Krasickiego",
                "addr:housenumber": "56",
                "addr:teryt:simc": 4966,
                "addr:teryt:sym_ul": 9830,
                "contact:phone": "+48 227508380",
                "contact:email": "sekretariat@zspwni.edu.pl",
                "contact:website": "http:\/\/www.spwni.edu.pl\/",
                "ref:regon": "001147194",
                "operator": "Gmina Lesznowola",
                "operator:type": "government",
                "amenity": "school"
            }
        },
        {
            "id": 279091,
            "type": "Feature",
            "geometry": {
                "type": "Point",
                "coordinates": [
                    21.00209,
                    52.09111
                ]
            },
            "properties": {
                "ref:rspo": 279091,
                "official_name": "Edumoto",
                "name": "Edumoto",
                "addr:country": "PL",
                "addr:postcode": "05-500",
                "addr:city": "Nowa Iwiczna",
                "addr:street": "Ignacego Krasickiego",
                "addr:housenumber": "56",
                "addr:teryt:simc": 4966,
                "addr:teryt:sym_ul": 9830,
                "contact:phone": "+48 726008606",
                "contact:email": "biuro@eumoto.pl",
                "contact:website": "http:\/\/www.edumoto.pl",
                "ref:regon": "520592185",
                "operator": "Edumoto Prosta Sp\u00f3\u0142ka Akcyjna",
                "operator:type": "private",
                "fixme": "w zale\u017cno\u015bci od przedmiotu dzia\u0142alno\u015bci (np. amenity=training + training=*, amenity=dancing_school, amenity=language_school, amenity=music_school)"
            }
        },
        {
            "id": 128548,
            "type": "Feature",
            "geometry": {
                "type": "Point",
                "coordinates": [
                    21.01125,
                    52.0912999
                ]
            },
            "properties": {
                "ref:rspo": 128548,
                "official_name": "Niepubliczny Punkt Przedszkolny \"Malinowy Domek\"",
                "name": "Niepubliczny Punkt Przedszkolny \"Malinowy Domek\"",
                "addr:country": "PL",
                "addr:postcode": "05-515",
                "addr:city": "Nowa Iwiczna",
                "addr:street": "Ignacego Krasickiego",
                "addr:housenumber": "7a",
                "addr:teryt:simc": 4966,
                "addr:teryt:sym_ul": 9830,
                "contact:phone": "+48 535773663",
                "contact:email": "info@malinowy-domek.pl",
                "contact:website": "http:\/\/www.malinowydomek.pl",
                "ref:regon": "362318150",
                "operator": "Centrum Rozwoju I Opieki Nad Dzie\u0107mi \"Malinowy Domek\" S.c.",
                "operator:type": "consortium",
                "amenity": "kindergarten"
            }
        },
        {
            "id": 111664,
            "type": "Feature",
            "geometry": {
                "type": "Point",
                "coordinates": [
                    21.01056,
                    52.09137
                ]
            },
            "properties": {
                "ref:rspo": 111664,
                "official_name": "Punkt Przedszkolny \"Mr\u00f3wkolandia\"",
                "name": "Punkt Przedszkolny \"Mr\u00f3wkolandia\"",
                "addr:country": "PL",
                "addr:postcode": "05-500",
                "addr:city": "Nowa Iwiczna",
                "addr:street": "Ignacego Krasickiego",
                "addr:housenumber": "7D",
                "addr:teryt:simc": 4966,
                "addr:teryt:sym_ul": 9830,
                "contact:phone": "+48 790540881",
                "contact:email": "mrowkam@op.pl",
                "ref:regon": "146580560",
                "operator": "Rafa\u0142 Jackiewicz",
                "operator:type": "private",
                "amenity": "kindergarten"
            }
        },
        {
            "id": 125595,
            "type": "Feature",
            "geometry": {
                "type": "Point",
                "coordinates": [
                    20.98921,
                    52.09369
                ]
            },
            "properties": {
                "ref:rspo": 125595,
                "official_name": "Niepubliczne Przedszkole Prozdrowotne Ram-Tam-Tam",
                "name": "Niepubliczne Przedszkole Prozdrowotne Ram-Tam-Tam",
                "addr:country": "PL",
                "addr:postcode": "05-515",
                "addr:city": "Zgorza\u0142a",
                "addr:street": "Jask\u00f3\u0142ki",
                "addr:housenumber": "3",
                "addr:teryt:simc": 5109,
                "addr:teryt:sym_ul": 29406,
                "contact:phone": "+48 660543698",
                "contact:email": "biuro@ramtamtam.edu.pl",
                "contact:website": "http:\/\/www.ramtamtam.edu.pl",
                "ref:regon": "147459351",
                "operator": "Agnieszka Augustyn",
                "operator:type": "private",
                "amenity": "kindergarten"
            }
        },
        {
            "id": 131832,
            "type": "Feature",
            "geometry": {
                "type": "Point",
                "coordinates": [
                    21.00001,
                    52.09408
                ]
            },
            "properties": {
                "ref:rspo": 131832,
                "official_name": "Niepubliczne Przedszkole \"Zaczarowany O\u0142\u00f3wek\"",
                "name": "Niepubliczne Przedszkole \"Zaczarowany O\u0142\u00f3wek\"",
                "addr:country": "PL",
                "addr:postcode": "05-500",
                "addr:city": "Nowa Iwiczna",
                "addr:street": "Niezapominajki",
                "addr:housenumber": "2",
                "addr:teryt:simc": 4966,
                "addr:teryt:sym_ul": 14247,
                "contact:phone": "+48 736618776",
                "contact:email": "przedszkole@zaczarowany-olowek.edu.pl",
                "contact:website": "http:\/\/www.zaczarowany-olowek.edu.pl",
                "ref:regon": "365358687",
                "operator": "Jolanta Krakowiak-Kontek",
                "operator:type": "private",
                "amenity": "kindergarten"
            }
        },
        {
            "id": 132653,
            "type": "Feature",
            "geometry": {
                "type": "Point",
                "coordinates": [
                    20.96452,
                    52.09426
                ]
            },
            "properties": {
                "ref:rspo": 132653,
                "official_name": "Przedszkole Niepubliczne Magiczna Kraina",
                "name": "Przedszkole Niepubliczne Magiczna Kraina",
                "addr:country": "PL",
                "addr:postcode": "05-500",
                "addr:city": "Nowa Wola",
                "addr:street": "Ignacego Krasickiego",
                "addr:housenumber": "205",
                "addr:teryt:simc": 4972,
                "addr:teryt:sym_ul": 9830,
                "contact:phone": "+48 501423413",
                "contact:email": "agnieszkaostrowska28@wp.pl",
                "ref:regon": "365986515",
                "operator": "Agnieszka Pawlak",
                "operator:type": "private",
                "amenity": "kindergarten"
            }
        },
        {
            "id": 129422,
            "type": "Feature",
            "geometry": {
                "type": "Point",
                "coordinates": [
                    20.97436,
                    52.09752
                ]
            },
            "properties": {
                "ref:rspo": 129422,
                "official_name": "Niepubliczna Poradnia Psychologiczno-Pedagogiczna \"Ab Ovo\"",
                "name": "Niepubliczna Poradnia Psychologiczno-Pedagogiczna \"Ab Ovo\"",
                "addr:country": "PL",
                "addr:postcode": "05-500",
                "addr:city": "Nowa Wola",
                "addr:street": "Post\u0119pu",
                "addr:housenumber": "86",
                "addr:teryt:simc": 4972,
                "addr:teryt:sym_ul": 17248,
                "contact:phone": "+48 695353235",
                "contact:email": "karolina.k.godlewska@gmail.com",
                "ref:regon": "362597144",
                "operator": "Karolina Godlewska",
                "operator:type": "private",
                "healthcare": "counselling",
                "counselling_type": "education",
                "fixme": "w zale\u017cno\u015bci od przedmiotu dzia\u0142alno\u015bci (np. healthcare=counselling + counselling_type=education albo healthcare=psychotherapist)"
            }
        },
        {
            "id": 268541,
            "type": "Feature",
            "geometry": {
                "type": "Point",
                "coordinates": [
                    20.97436,
                    52.09749
                ]
            },
            "properties": {
                "ref:rspo": 268541,
                "official_name": "Publiczne Przedszkole Z Oddzia\u0142ami Integracyjnymi \"Truskawkowo\"",
                "name": "Publiczne Przedszkole Z Oddzia\u0142ami Integracyjnymi \"Truskawkowo\"",
                "addr:country": "PL",
                "addr:postcode": "05-500",
                "addr:city": "Nowa Wola",
                "addr:street": "Post\u0119pu",
                "addr:housenumber": "86",
                "addr:teryt:simc": 4972,
                "addr:teryt:sym_ul": 17248,
                "contact:email": "biuro@truskawkowo.edu.pl",
                "contact:website": "http:\/\/www.truskawkowo.edu.pl\/o_nas",
                "ref:regon": "381200590",
                "operator": "Maciej Godlewski",
                "operator:type": "private",
                "amenity": "kindergarten"
            }
        },
        {
            "id": 89412,
            "type": "Feature",
            "geometry": {
                "type": "Point",
                "coordinates": [
                    21.01789,
                    52.09803
                ]
            },
            "properties": {
                "ref:rspo": 89412,
                "official_name": "Gminne Przedszkole w Mysiadle Z Oddzia\u0142ami Integracyjnymi",
                "name": "Gminne Przedszkole w Mysiadle Z Oddzia\u0142ami Integracyjnymi",
                "addr:country": "PL",
                "addr:postcode": "05-515",
                "addr:city": "Mysiad\u0142o",
                "addr:street": "Osiedlowa",
                "addr:housenumber": "4",
                "addr:teryt:simc": 4943,
                "addr:teryt:sym_ul": 15300,
                "contact:phone": "+48 517665037",
                "contact:email": "witamy@gpwm.edu.pl",
                "contact:website": "http:\/\/www.przedszkolewmysiadle.pl",
                "ref:regon": "010766125",
                "ref:vatin": "PL1230934741",
                "operator": "Gmina Lesznowola",
                "operator:type": "government",
                "amenity": "kindergarten"
            }
        },
        {
            "id": 103309,
            "type": "Feature",
            "geometry": {
                "type": "Point",
                "coordinates": [
                    21.0276299,
                    52.1001
                ]
            },
            "properties": {
                "isced:level": "1;2",
                "ref:rspo": 103309,
                "official_name": "Niepubliczna Szko\u0142a Podstawowa im. Ferdynanda Magellana",
                "name": "Niepubliczna Szko\u0142a Podstawowa",
                "addr:country": "PL",
                "addr:postcode": "05-500",
                "addr:city": "Mysiad\u0142o",
                "addr:street": "Wiejska",
                "addr:housenumber": "1",
                "addr:teryt:simc": 4943,
                "addr:teryt:sym_ul": 24048,
                "contact:phone": "+48 227507642",
                "contact:email": "sekretariat@szkola-magellana.pl",
                "contact:website": "http:\/\/www.szkola-magellana.pl",
                "ref:regon": "146461676",
                "operator": "Studio S Edukacja Sp. Z O.o. Sp\u00f3\u0142ka Komandytowa",
                "operator:type": "consortium",
                "amenity": "school"
            }
        },
        {
            "id": 113974,
            "type": "Feature",
            "geometry": {
                "type": "Point",
                "coordinates": [
                    21.0276299,
                    52.100069999999995
                ]
            },
            "properties": {
                "ref:rspo": 113974,
                "official_name": "Niepubliczne Przedszkole Nibylandia",
                "name": "Niepubliczne Przedszkole Nibylandia",
                "addr:country": "PL",
                "addr:postcode": "05-500",
                "addr:city": "Mysiad\u0142o",
                "addr:street": "Wiejska",
                "addr:housenumber": "1",
                "addr:teryt:simc": 4943,
                "addr:teryt:sym_ul": 24048,
                "contact:phone": "+48 227507475",
                "contact:email": "przedzkole@nibylandia.com",
                "contact:website": "http:\/\/www.nibylandia.com",
                "ref:regon": "146640930",
                "operator": "Studio S Edukacja Sp. Z O.o. Sp\u00f3\u0142ka Komandytowa",
                "operator:type": "consortium",
                "amenity": "kindergarten"
            }
        },
        {
            "id": 88601,
            "type": "Feature",
            "geometry": {
                "type": "Point",
                "coordinates": [
                    21.00555,
                    52.10015
                ]
            },
            "properties": {
                "isced:level": "1;2",
                "ref:rspo": 88601,
                "official_name": "Niepubliczna Integracyjna Szko\u0142a Podstawowa",
                "name": "Niepubliczna Integracyjna Szko\u0142a Podstawowa",
                "addr:country": "PL",
                "addr:postcode": "05-500",
                "addr:city": "Mysiad\u0142o",
                "addr:street": "Kr\u00f3tka",
                "addr:housenumber": "11",
                "addr:teryt:simc": 4943,
                "addr:teryt:sym_ul": 10009,
                "contact:phone": "+48 227014077",
                "contact:email": "sekretariat@szkolawmysiadle.pl",
                "contact:website": "http:\/\/www.szkolawmysiadle.pl",
                "ref:regon": "146432166",
                "operator": "Stowarzyszenie Na Rzecz Przyjaznego Dzieciom \u015awiata",
                "operator:type": "ngo",
                "amenity": "school"
            }
        },
        {
            "id": 88349,
            "type": "Feature",
            "geometry": {
                "type": "Point",
                "coordinates": [
                    21.00356,
                    52.1011
                ]
            },
            "properties": {
                "isced:level": "1;2",
                "ref:rspo": 88349,
                "official_name": "Szko\u0142a Podstawowa im. Polskich Olimpijczyk\u00f3w w Mysiadle",
                "name": "Szko\u0142a Podstawowa",
                "addr:country": "PL",
                "addr:postcode": "05-500",
                "addr:city": "Mysiad\u0142o",
                "addr:street": "Kwiatowa",
                "addr:housenumber": "28",
                "addr:teryt:simc": 4943,
                "addr:teryt:sym_ul": 10562,
                "contact:phone": "+48 224628520",
                "contact:email": "sekretariat@spwmy.edu.pl",
                "contact:website": "http:\/\/ww.mysp.edu.pl",
                "ref:regon": "141054311",
                "ref:vatin": "PL1231288674",
                "operator": "Gmina Lesznowola",
                "operator:type": "government",
                "amenity": "school"
            }
        },
        {
            "id": 128456,
            "type": "Feature",
            "geometry": {
                "type": "Point",
                "coordinates": [
                    20.9761099,
                    52.10198
                ]
            },
            "properties": {
                "ref:rspo": 128456,
                "official_name": "\"Akademia Dziecka\" Niepubliczne Przedszkole",
                "name": "\"Akademia Dziecka\" Niepubliczne Przedszkole",
                "addr:country": "PL",
                "addr:postcode": "05-515",
                "addr:city": "Nowa Wola",
                "addr:street": "Post\u0119pu",
                "addr:housenumber": "102",
                "addr:teryt:simc": 4972,
                "addr:teryt:sym_ul": 17248,
                "contact:phone": "+48 608622922",
                "contact:email": "sekretariat@akademiadziecka.waw.pl",
                "contact:website": "http:\/\/www.akademiadziecka.waw.pl",
                "ref:regon": "362290405",
                "operator": "Jadwiga Golec",
                "operator:type": "private",
                "amenity": "kindergarten"
            }
        },
        {
            "id": 128458,
            "type": "Feature",
            "geometry": {
                "type": "Point",
                "coordinates": [
                    20.9761099,
                    52.101949999999995
                ]
            },
            "properties": {
                "isced:level": "1;2",
                "ref:rspo": 128458,
                "official_name": "\"Akademia Dziecka\" Niepubliczna Szko\u0142a Podstawowa",
                "name": "\"Akademia Dziecka\" Niepubliczna Szko\u0142a Podstawowa",
                "addr:country": "PL",
                "addr:postcode": "05-515",
                "addr:city": "Nowa Wola",
                "addr:street": "Post\u0119pu",
                "addr:housenumber": "102",
                "addr:teryt:simc": 4972,
                "addr:teryt:sym_ul": 17248,
                "contact:phone": "+48 608622922",
                "contact:email": "sekretariat@akademiadziecka.waw.pl",
                "contact:website": "http:\/\/www.akademiadziecka.waw.pl",
                "ref:regon": "362290434",
                "operator": "Jadwiga Golec",
                "operator:type": "private",
                "amenity": "school"
            }
        },
        {
            "id": 277418,
            "type": "Feature",
            "geometry": {
                "type": "Point",
                "coordinates": [
                    20.96649,
                    52.11171
                ]
            },
            "properties": {
                "isced:level": "1;2",
                "ref:rspo": 277418,
                "official_name": "Szko\u0142a Podstawowa w Zamieniu",
                "name": "Szko\u0142a Podstawowa w Zamieniu",
                "addr:country": "PL",
                "addr:postcode": "05-500",
                "addr:city": "Zamienie",
                "addr:street": "Waniliowa",
                "addr:housenumber": "7",
                "addr:teryt:simc": 5090,
                "addr:teryt:sym_ul": 23615,
                "contact:phone": "+48 221124340",
                "contact:email": "sekretariat@spzamienie.edu.pl",
                "contact:website": "http:\/\/www.spzamienie.edu.pl",
                "ref:regon": "388801742",
                "operator": "Gmina Lesznowola",
                "operator:type": "government",
                "amenity": "school"
            }
        },
        {
            "id": 88791,
            "type": "Feature",
            "geometry": {
                "type": "Point",
                "coordinates": [
                    20.97413,
                    52.11491
                ]
            },
            "properties": {
                "ref:rspo": 88791,
                "official_name": "Gminne Przedszkole w Zamieniu",
                "name": "Gminne Przedszkole w Zamieniu",
                "addr:country": "PL",
                "addr:postcode": "05-500",
                "addr:city": "Zamienie",
                "addr:street": "B\u0142\u0119dna",
                "addr:housenumber": "32",
                "addr:teryt:simc": 5090,
                "addr:teryt:sym_ul": 1455,
                "contact:phone": "+48 224356358",
                "contact:email": "zamienieprzedszkole@op.pl",
                "contact:website": "http:\/\/www.przedszkolewzamieniu.pl",
                "ref:regon": "013003505",
                "operator": "Gmina Lesznowola",
                "operator:type": "government",
                "amenity": "kindergarten"
            }
        }
    ]
}