{"type":"FeatureCollection","features":[{"id":29694,"type":"Feature","geometry":{"type":"Point","coordinates":[21.019257,52.011274]},"properties":{"ref:rspo":29694,"official_name":"Centrum Edukacji Barto\u0144","name":"Centrum Edukacji Barto\u0144","addr:country":"PL","addr:postcode":"05-507","addr:city":"S\u0142omczyn","addr:street":"ul. Jab\u0142oniowa","addr:housenumber":"31","addr:teryt:simc":6967,"addr:teryt:sym_ul":4015,"contact:phone":"+48 501139033","contact:email":"a-barton@o2.pl","ref:regon":"146342138","ref:vatin":"PL5261048333","operator":"Beata Barto\u0144","operator:type":"private","fixme":"w zale\u017cno\u015bci od przedmiotu dzia\u0142alno\u015bci (np. amenity=training + training=*, amenity=dancing_school, amenity=language_school, amenity=music_school)"}},{"id":83173,"type":"Feature","geometry":{"type":"Point","coordinates":[21.019257,52.011244]},"properties":{"ref:rspo":83173,"official_name":"Niepubliczne Przedszkole\n\"Akademia Pana Adama\"","name":"Niepubliczne Przedszkole\n\"Akademia Pana Adama\"","addr:country":"PL","addr:postcode":"05-520","addr:city":"Bielawa","addr:street":"ul. Warszawska","addr:housenumber":"200","addr:door":"96A","addr:teryt:simc":23682,"addr:teryt:sym_ul":3665,"contact:phone":"+48 502048177","contact:email":"biuro@akademia-panaadama.pl","contact:website":"http:\/\/www.akademia-panaadama.pl","ref:regon":"146415908","ref:vatin":"PL5241816585","operator":"Adam Sulich","operator:type":"private","amenity":"kindergarten"}},{"id":83203,"type":"Feature","geometry":{"type":"Point","coordinates":[21.019257,52.011214]},"properties":{"ref:rspo":83203,"official_name":"Przedszkole Nr 3 Kolorowe Kredki","name":"Przedszkole Nr 3 Kolorowe Kredki","addr:country":"PL","addr:postcode":"05-520","addr:city":"Obory","addr:street":"ul. Literat\u00f3w","addr:housenumber":"22","addr:teryt:simc":11222,"addr:teryt:sym_ul":3926,"contact:phone":"+48 227541643","contact:email":"kolorowekredki@post.pl","contact:website":"http:\/\/www.gp5.przedszkola.net.pl","ref:regon":"013000748","ref:vatin":"PL1230055494","operator":"Gmina Konstancin-Jeziorna","operator:type":"government","amenity":"kindergarten"}},{"id":103371,"type":"Feature","geometry":{"type":"Point","coordinates":[21.019257,52.011184]},"properties":{"isced:level":"1;2","ref:rspo":103371,"official_name":"Szko\u0142a Podstawowa Nr 4","name":"Szko\u0142a Podstawowa Nr 4","addr:country":"PL","addr:postcode":"05-520","addr:city":"S\u0142omczyn","addr:street":"ul. Wilanowska","addr:housenumber":"218","addr:teryt:simc":24259,"addr:teryt:sym_ul":4015,"contact:phone":"+48 227544410","contact:email":"sekretariat@slomczyn.edu.pl","contact:website":"https:\/\/slomczyn.edupage.org\/","ref:regon":"011338443","ref:vatin":"PL1230967120","operator":"Gmina Konstancin-Jeziorna","operator:type":"government","amenity":"school"}},{"id":109965,"type":"Feature","geometry":{"type":"Point","coordinates":[21.019257,52.011154]},"properties":{"ref:rspo":109965,"official_name":"Przedszkole Niepubliczne \"\u015awiat Dziecka\"","name":"Przedszkole Niepubliczne \"\u015awiat Dziecka\"","addr:country":"PL","addr:postcode":"05-520","addr:city":"Bielawa","addr:street":"ul. \u015acienna","addr:housenumber":"148","addr:teryt:simc":22293,"addr:teryt:sym_ul":3665,"contact:phone":"+48 606138988","contact:email":"przedszkoleswiatdziecka@onet.pl","ref:regon":"146545812","operator":"Aldona Warto\u0144","operator:type":"private","amenity":"kindergarten"}},{"id":264772,"type":"Feature","geometry":{"type":"Point","coordinates":[21.019257,52.011124]},"properties":{"ref:rspo":264772,"official_name":"Przedszkole Niepubliczne Krasnalek","name":"Przedszkole Niepubliczne Krasnalek","addr:country":"PL","addr:postcode":"05-520","addr:city":"Bielawa","addr:street":"ul. Powsi\u0144ska","addr:housenumber":"8","addr:teryt:simc":17335,"addr:teryt:sym_ul":3665,"contact:email":"krasnalek.konstancin@gmail.com","ref:regon":"368448988","operator":"Paulina Z\u0142otkowska","operator:type":"private","amenity":"kindergarten"}},{"id":278690,"type":"Feature","geometry":{"type":"Point","coordinates":[21.019257,52.011094]},"properties":{"ref:rspo":278690,"official_name":"Niepubliczne Przedszkole American Montessori Preschool","name":"Niepubliczne Przedszkole American Montessori Preschool","addr:country":"PL","addr:postcode":"05-520","addr:city":"Bielawa","addr:street":"ul. Lipowa","addr:housenumber":"22A","addr:teryt:simc":11139,"addr:teryt:sym_ul":3665,"contact:phone":"+48 785120000","contact:email":"kontakt@americanmontessori.pl","ref:regon":"520046703","operator":"American Montessori Preschool Sp\u00f3\u0142ka Z Ograniczon\u0105 Odpowiedzialno\u015bci\u0105","operator:type":"private","amenity":"kindergarten"}},{"id":267707,"type":"Feature","geometry":{"type":"Point","coordinates":[21.11442,52.05339]},"properties":{"ref:rspo":267707,"official_name":"Niepubliczny Punkt Przedszkolny \"Borowina\"","name":"Niepubliczny Punkt Przedszkolny \"Borowina\"","addr:country":"PL","addr:postcode":"05-520","addr:city":"Borowina","addr:street":"ul. Zale\u015bna","addr:housenumber":"55H","addr:teryt:simc":25494,"addr:teryt:sym_ul":3671,"contact:email":"biuro@przedszkoleborowina.pl","contact:website":"http:\/\/www.przedszkoleborowina.pl","ref:regon":"380530410","operator":"Katarzyna Sieradzan","operator:type":"private","amenity":"kindergarten"}},{"id":272046,"type":"Feature","geometry":{"type":"Point","coordinates":[21.12172,52.07008]},"properties":{"ref:rspo":272046,"official_name":"Zesp\u00f3\u0142 Szk\u00f3\u0142 Specjalnych w Uzdrowisku Konstancin-Zdr\u00f3j S.a. w Konstancinie -Jeziornie","name":"Zesp\u00f3\u0142 Szk\u00f3\u0142 Specjalnych w Uzdrowisku Konstancin-Zdr\u00f3j S.a. w Konstancinie -Jeziornie","addr:country":"PL","addr:postcode":"05-510","addr:city":"Konstancin-Jeziorna","addr:street":"ul. Sue Ryder","addr:housenumber":"1","addr:teryt:simc":37993,"addr:teryt:sym_ul":920634,"contact:phone":"+48 224842870","contact:email":"zespolszkol-konstancin@wp.pl","ref:regon":"383891901","operator":"Wojew\u00f3dztwo Mazowieckie","operator:type":"government","landuse":"education","fixme":"amenity=school, amenity=college albo landuse=education w zale\u017cno\u015bci od tego, jakie plac\u00f3wki wchodz\u0105 w sk\u0142ad zespo\u0142u. Sprawd\u017a, kiedy stosowa\u0107 amenity=* a kiedy landuse=education.","note":"Children RSPO: 272066;272067"}},{"id":272066,"type":"Feature","geometry":{"type":"Point","coordinates":[21.12172,52.070049999999995]},"properties":{"isced:level":"1;2","ref:rspo":272066,"official_name":"Szko\u0142a Podstawowa Specjalna w Uzdrowisku Konstancin-Zdr\u00f3j S.a. w Konstancinie - Jeziornie","name":"Szko\u0142a Podstawowa Specjalna w Uzdrowisku Konstancin-Zdr\u00f3j S.a. w Konstancinie - Jeziornie","addr:country":"PL","addr:postcode":"05-510","addr:city":"Konstancin-Jeziorna","addr:street":"ul. Sue Ryder","addr:housenumber":"1","addr:teryt:simc":37993,"addr:teryt:sym_ul":920634,"contact:phone":"+48 224842870","contact:email":"zespolszkol-konstancin@wp.pl","ref:regon":"383904555","operator":"Wojew\u00f3dztwo Mazowieckie","operator:type":"government","amenity":"school","note":"Parent RSPO: 272046"}},{"id":272067,"type":"Feature","geometry":{"type":"Point","coordinates":[21.12172,52.07002]},"properties":{"isced:level":"3","ref:rspo":272067,"official_name":"Liceum Og\u00f3lnokszta\u0142c\u0105ce Specjalne w Uzdrowisku Konstancin-Zdr\u00f3j S.a. w Konstancinie-Jeziornie","name":"Liceum Og\u00f3lnokszta\u0142c\u0105ce Specjalne w Uzdrowisku Konstancin-Zdr\u00f3j S.a. w Konstancinie-Jeziornie","addr:country":"PL","addr:postcode":"05-510","addr:city":"Konstancin-Jeziorna","addr:street":"ul. Sue Ryder","addr:housenumber":"1","addr:teryt:simc":37993,"addr:teryt:sym_ul":920634,"contact:phone":"+48 224842870","contact:email":"zespolszkol-konstancin@wp.pl","ref:regon":"383904584","operator":"Wojew\u00f3dztwo Mazowieckie","operator:type":"government","amenity":"school","note":"Parent RSPO: 272046"}},{"id":263375,"type":"Feature","geometry":{"type":"Point","coordinates":[21.08353,52.07401]},"properties":{"ref:rspo":263375,"official_name":"Little Academy Dwuj\u0119zyczne Przedszkole Niepubliczne","name":"Little Academy Dwuj\u0119zyczne Przedszkole Niepubliczne","addr:country":"PL","addr:postcode":"05-510","addr:city":"Konstancin-Jeziorna","addr:street":"ul. \u0141\u0105kowa","addr:housenumber":"38","addr:teryt:simc":11596,"addr:teryt:sym_ul":920634,"contact:email":"kontakt@kidsplace.pl","contact:website":"http:\/\/www.kidsplace.pl","ref:regon":"368183337","operator":"Iwona Ferszter-Petz","operator:type":"private","amenity":"kindergarten"}},{"id":278767,"type":"Feature","geometry":{"type":"Point","coordinates":[21.12251,52.07601]},"properties":{"isced:level":"1;2","ref:rspo":278767,"official_name":"Niepubliczna Szko\u0142a Podstawowa Mikroszko\u0142a Konstancin","name":"Niepubliczna Szko\u0142a Podstawowa Mikroszko\u0142a Konstancin","addr:country":"PL","addr:postcode":"05-510","addr:city":"Konstancin-Jeziorna","addr:street":"ul. Hetmana Stefana Czarnieckiego","addr:housenumber":"5","addr:teryt:simc":3281,"addr:teryt:sym_ul":920634,"contact:phone":"+48 530788288","contact:email":"mikroszkola.konstancin@gmail.com","contact:website":"http:\/\/www.konstancin.edu.pl","ref:regon":"520061186","operator":"\"Fundacja Ma\u0142a Droga\"","operator:type":"ngo","amenity":"school"}},{"id":105040,"type":"Feature","geometry":{"type":"Point","coordinates":[21.08361,52.07613]},"properties":{"ref:rspo":105040,"official_name":"Przedszkole Niepubliczne \"Blue Bell\"","name":"Przedszkole Niepubliczne \"Blue Bell\"","addr:country":"PL","addr:postcode":"05-510","addr:city":"Konstancin-Jeziorna","addr:street":"ul. Wiejska","addr:housenumber":"35A","addr:teryt:simc":24048,"addr:teryt:sym_ul":920634,"contact:phone":"+48 501644075","contact:email":"przedszkole.bluebell@gmail.com","contact:website":"http:\/\/www.przedszkole-bluebell.pl","ref:regon":"146461788","ref:vatin":"PL1231201650","operator":"Joanna Gilewska-Turska","operator:type":"private","amenity":"kindergarten"}},{"id":26109,"type":"Feature","geometry":{"type":"Point","coordinates":[21.1255193,52.0765065]},"properties":{"ref:rspo":26109,"official_name":"Specjalny O\u015brodek Szkolno-Wychowawczy","name":"Specjalny O\u015brodek Szkolno-Wychowawczy","addr:country":"PL","addr:postcode":"05-510","addr:city":"Konstancin-Jeziorna","addr:street":"ul. Wac\u0142awa G\u0105siorowskiego","addr:housenumber":"12","addr:door":"14","addr:teryt:simc":5417,"addr:teryt:sym_ul":920634,"contact:phone":"+48 227547175","contact:email":"szkola@ckr.pl","contact:website":"http:\/\/www.ckr.pl","ref:regon":"146338237","ref:vatin":"PL1230930105","operator":"Centrum Kompleksowej Rehabilitacji Sp\u00f3\u0142ka Z Ograniczon\u0105 Odpowiedzialno\u015bci\u0105","operator:type":"private","amenity":"school","note":"Children RSPO: 103446"}},{"id":103446,"type":"Feature","geometry":{"type":"Point","coordinates":[21.1255193,52.0764765]},"properties":{"isced:level":"4","ref:rspo":103446,"official_name":"Szko\u0142a Policealna","name":"Szko\u0142a Policealna","addr:country":"PL","addr:postcode":"05-510","addr:city":"Konstancin-Jeziorna","addr:street":"ul. Wac\u0142awa G\u0105siorowskiego","addr:housenumber":"12","addr:door":"14","addr:teryt:simc":5417,"addr:teryt:sym_ul":920634,"contact:phone":"+48 785880717","contact:email":"szkola@ckr.pl","contact:website":"http:\/\/www.ckr.pl","ref:regon":"146451169","operator":"Centrum Kompleksowej Rehabilitacji Sp\u00f3\u0142ka Z Ograniczon\u0105 Odpowiedzialno\u015bci\u0105","operator:type":"private","amenity":"college","note":"Parent RSPO: 26109"}},{"id":40969,"type":"Feature","geometry":{"type":"Point","coordinates":[21.08568,52.07761]},"properties":{"ref:rspo":40969,"official_name":"Zesp\u00f3\u0142 Szk\u00f3\u0142 Specjalnych w Mazowieckim Centrum Rehabilitacji w Konstancinie-Jeziorna","name":"Zesp\u00f3\u0142 Szk\u00f3\u0142 Specjalnych w Mazowieckim Centrum Rehabilitacji w Konstancinie-Jeziorna","addr:country":"PL","addr:postcode":"05-510","addr:city":"Konstancin-Jeziorna","addr:street":"ul. D\u0142uga","addr:housenumber":"40\/42","addr:teryt:simc":3839,"addr:teryt:sym_ul":920634,"contact:phone":"+48 227547448","contact:email":"sekretariat@zsswmcr-konstancin.pl","contact:website":"http:\/\/www.zsswcr.biposwiata.pl","ref:regon":"000195682","ref:vatin":"PL1230829085","operator":"Wojew\u00f3dztwo Mazowieckie","operator:type":"government","landuse":"education","fixme":"amenity=school, amenity=college albo landuse=education w zale\u017cno\u015bci od tego, jakie plac\u00f3wki wchodz\u0105 w sk\u0142ad zespo\u0142u. Sprawd\u017a, kiedy stosowa\u0107 amenity=* a kiedy landuse=education.","note":"Children RSPO: 83877;130994;130995"}},{"id":83877,"type":"Feature","geometry":{"type":"Point","coordinates":[21.08568,52.07758]},"properties":{"isced:level":"1;2","ref:rspo":83877,"official_name":"Zesp\u00f3\u0142 Szk\u00f3\u0142 Specjalnych w Mazowieckkim Centrum Rehabilitacji w Konstancinie - Jeziornie - Szko\u0142a Podstawowa Nr 7","name":"Zesp\u00f3\u0142 Szk\u00f3\u0142 Specjalnych w Mazowieckkim Centrum Rehabilitacji w Konstancinie - Jeziornie - Szko\u0142a Podstawowa Nr 7","addr:country":"PL","addr:postcode":"05-510","addr:city":"Konstancin-Jeziorna","addr:street":"ul. D\u0142uga","addr:housenumber":"40\/42","addr:teryt:simc":3839,"addr:teryt:sym_ul":920634,"contact:phone":"+48 227547448","contact:email":"sekretariat@zsswmcr-konstancin.pl","contact:website":"http:\/\/www.zsswcr.biposwiata.pl","ref:regon":"000959688","ref:vatin":"PL1230829085","operator":"Wojew\u00f3dztwo Mazowieckie","operator:type":"government","amenity":"school","note":"Parent RSPO: 40969"}},{"id":130994,"type":"Feature","geometry":{"type":"Point","coordinates":[21.08568,52.07755]},"properties":{"ref:rspo":130994,"official_name":"Przedszkole Specjalne w Mazowieckim Centrum Rehabilitacji w Konstancinie - Jeziornie","name":"Przedszkole Specjalne w Mazowieckim Centrum Rehabilitacji w Konstancinie - Jeziornie","addr:country":"PL","addr:postcode":"05-510","addr:city":"Konstancin-Jeziorna","addr:street":"ul. D\u0142uga","addr:housenumber":"40\/42","addr:teryt:simc":3839,"addr:teryt:sym_ul":920634,"contact:phone":"+48 227547448","contact:email":"sekretariat@zsswmcr-konstancin.pl","contact:website":"http:\/\/www.zsswcr.biposwiata.pl","ref:regon":"364856466","operator":"Wojew\u00f3dztwo Mazowieckie","operator:type":"government","amenity":"kindergarten","note":"Parent RSPO: 40969"}},{"id":130995,"type":"Feature","geometry":{"type":"Point","coordinates":[21.08568,52.07752]},"properties":{"isced:level":"3","ref:rspo":130995,"official_name":"Liceum Og\u00f3lnokszta\u0142c\u0105ce Specjalne w Mazowieckim Centrum Rehabilitacji w Konstancinie Jeziornie","name":"Liceum Og\u00f3lnokszta\u0142c\u0105ce Specjalne w Mazowieckim Centrum Rehabilitacji w Konstancinie Jeziornie","addr:country":"PL","addr:postcode":"05-510","addr:city":"Konstancin-Jeziorna","addr:street":"ul. D\u0142uga","addr:housenumber":"40\/42","addr:teryt:simc":3839,"addr:teryt:sym_ul":920634,"contact:phone":"+48 227547448","contact:email":"sekretariat@zsswmcr-konstancin.pl","contact:website":"http:\/\/www.zsswcr.biposwiata.pl","ref:regon":"364856555","operator":"Wojew\u00f3dztwo Mazowieckie","operator:type":"government","amenity":"school","note":"Parent RSPO: 40969"}},{"id":81276,"type":"Feature","geometry":{"type":"Point","coordinates":[21.07038,52.07834]},"properties":{"ref:rspo":81276,"official_name":"\"Goodstart\" Punkt Przedszkolny","name":"\"Goodstart\" Punkt Przedszkolny","addr:country":"PL","addr:postcode":"05-510","addr:city":"Konstancin-Jeziorna","addr:street":"ul. D\u0142uga","addr:housenumber":"7A","addr:teryt:simc":3839,"addr:teryt:sym_ul":920634,"contact:email":"info@goodstartkonstancin.pl","contact:website":"http:\/\/www.goodstartkonstancin.pl","ref:regon":"146422156","ref:vatin":"PL1230064174","operator":"Agnieszka Kowal","operator:type":"private","amenity":"kindergarten"}},{"id":92452,"type":"Feature","geometry":{"type":"Point","coordinates":[21.10104,52.07889]},"properties":{"isced:level":"1;2","ref:rspo":92452,"official_name":"Szko\u0142a Podstawowa Nr 1","name":"Szko\u0142a Podstawowa Nr 1","addr:country":"PL","addr:postcode":"05-510","addr:city":"Konstancin-Jeziorna","addr:street":"ul. Wojew\u00f3dzka","addr:housenumber":"12","addr:teryt:simc":24601,"addr:teryt:sym_ul":920634,"contact:phone":"+48 227564158","contact:email":"sekretariat@sp1kj.pl","ref:regon":"011338532","ref:vatin":"PL1230965598","operator":"Gmina Konstancin-Jeziorna","operator:type":"government","amenity":"school"}},{"id":92718,"type":"Feature","geometry":{"type":"Point","coordinates":[21.1231,52.07924]},"properties":{"isced:level":"1;2","ref:rspo":92718,"official_name":"Szko\u0142a Podstawowa Nr 2","name":"Szko\u0142a Podstawowa Nr 2","addr:country":"PL","addr:postcode":"05-510","addr:city":"Konstancin-Jeziorna","addr:street":"ul. Stefana \u017beromskiego","addr:housenumber":"15","addr:teryt:simc":26469,"addr:teryt:sym_ul":920634,"contact:phone":"+48 227564191","contact:email":"sp2@zs2-konstancin.edu.pl","contact:website":"http:\/\/www.zs2-konstancin.edupage.org","ref:regon":"011338510","ref:vatin":"PL1230965612","operator":"Gmina Konstancin-Jeziorna","operator:type":"government","amenity":"school"}},{"id":82406,"type":"Feature","geometry":{"type":"Point","coordinates":[21.0982,52.0794799]},"properties":{"ref:rspo":82406,"official_name":"Przedszkole Nr 1 Zielony Zak\u0105tek","name":"Przedszkole Nr 1 Zielony Zak\u0105tek","addr:country":"PL","addr:postcode":"05-510","addr:city":"Konstancin-Jeziorna","addr:street":"ul. Oborska","addr:housenumber":"2","addr:teryt:simc":14595,"addr:teryt:sym_ul":920634,"contact:phone":"+48 227564166","contact:email":"zielonyzakatek@post.pl","contact:website":"http:\/\/www.gp1.przedszkola.net.pl","ref:regon":"010420214","ref:vatin":"PL1230058848","operator":"Gmina Konstancin-Jeziorna","operator:type":"government","amenity":"kindergarten"}},{"id":83196,"type":"Feature","geometry":{"type":"Point","coordinates":[21.0991399,52.07952]},"properties":{"ref:rspo":83196,"official_name":"Przedszkole Niepubliczne \"Bimbo\"","name":"Przedszkole Niepubliczne \"Bimbo\"","addr:country":"PL","addr:postcode":"05-510","addr:city":"Konstancin-Jeziorna","addr:street":"ul. Oborska","addr:housenumber":"4","addr:teryt:simc":14595,"addr:teryt:sym_ul":920634,"contact:phone":"+48 791707272","contact:email":"pat.rydel@gmail.com","contact:website":"http:\/\/www.bimbo.edu.pl","ref:regon":"146429572","ref:vatin":"PL5222371780","operator":"Patrycja Rydel","operator:type":"private","amenity":"kindergarten"}},{"id":83101,"type":"Feature","geometry":{"type":"Point","coordinates":[21.1110261,52.0795362]},"properties":{"ref:rspo":83101,"official_name":"Przedszkole Nr 4 Z Oddzia\u0142ami Integracyjnymi \"Le\u015bna Chatka\"","name":"Przedszkole Nr 4 Z Oddzia\u0142ami Integracyjnymi \"Le\u015bna Chatka\"","addr:country":"PL","addr:postcode":"05-510","addr:city":"Konstancin-Jeziorna","addr:street":"ul. Sanatoryjna","addr:housenumber":"8","addr:teryt:simc":19488,"addr:teryt:sym_ul":920634,"contact:phone":"+48 227563201","contact:email":"lesnachatka@post.pl","ref:regon":"010421544","ref:vatin":"PL1230787547","operator":"Gmina Konstancin-Jeziorna","operator:type":"government","amenity":"kindergarten"}},{"id":273812,"type":"Feature","geometry":{"type":"Point","coordinates":[21.1229,52.08121]},"properties":{"ref:rspo":273812,"official_name":"Niepubliczne Przedszkole Skrzatka Oczatka","name":"Niepubliczne Przedszkole Skrzatka Oczatka","addr:country":"PL","addr:postcode":"05-520","addr:city":"Konstancin-Jeziorna","addr:street":"ul. Stefana Batorego","addr:housenumber":"18","addr:teryt:simc":891,"addr:teryt:sym_ul":920634,"contact:phone":"+48 511225229","contact:email":"info@skrzatek-oczatek.pl","contact:website":"http:\/\/skrzatek-oczatek.pl","ref:regon":"384674554","operator":"El\u017cbieta Mr\u00f3z","operator:type":"private","amenity":"kindergarten"}},{"id":132744,"type":"Feature","geometry":{"type":"Point","coordinates":[21.0853499,52.0844499]},"properties":{"ref:rspo":132744,"official_name":"Niepubliczna Poradnia Psychologiczno-Pedagogiczna Centrum Zdrowia","name":"Niepubliczna Poradnia Psychologiczno-Pedagogiczna Centrum Zdrowia","addr:country":"PL","addr:postcode":"05-510","addr:city":"Konstancin-Jeziorna","addr:street":"ul. Kazimierza Pu\u0142askiego","addr:housenumber":"20B","addr:teryt:simc":18099,"addr:teryt:sym_ul":920634,"contact:phone":"+48 224466644","contact:email":"s.bandziorowska@centrumzdrowia.com","ref:regon":"366177545","operator":"Centrum Zdrowia Adam Muszy\u0144ski Sp\u00f3\u0142ka Jawna","operator:type":"private","healthcare":"councelling","counselling_type":"education","fixme":"w zale\u017cno\u015bci od przedmiotu dzia\u0142alno\u015bci (np. healthcare=councelling + counselling_type=education albo healthcare=psychotherapist)"}},{"id":120802,"type":"Feature","geometry":{"type":"Point","coordinates":[21.12649,52.08502]},"properties":{"ref:rspo":120802,"official_name":"Przedszkole Niepubliczne \"Ochronka im. B\u0142. Edmunda Bojanowskiego\"","name":"Przedszkole Niepubliczne \"Ochronka","addr:country":"PL","addr:postcode":"05-510","addr:city":"Konstancin-Jeziorna","addr:street":"ul. Wilanowska","addr:housenumber":"26","addr:teryt:simc":24259,"addr:teryt:sym_ul":920634,"contact:phone":"+48 227564436","contact:email":"ochronka.kj@gmail.com","contact:website":"http:\/\/konstancinochronka.pl","ref:regon":"146962817","operator":"Zg.ss.s\u0142u\u017cebniczek Niepokalanego Pocz\u0119cia Nmp.,Prowincja Warszawska","operator:type":"religious","amenity":"kindergarten"}},{"id":133744,"type":"Feature","geometry":{"type":"Point","coordinates":[21.10734,52.09013]},"properties":{"ref:rspo":133744,"official_name":"Niepubliczne Przedszkole Weso\u0142y Reksio","name":"Niepubliczne Przedszkole Weso\u0142y Reksio","addr:country":"PL","addr:postcode":"05-520","addr:city":"Konstancin-Jeziorna","addr:street":"ul. Piaseczy\u0144ska","addr:housenumber":"27","addr:teryt:simc":16022,"addr:teryt:sym_ul":920634,"contact:email":"wesolyreksio_przedszkole@o2.pl","ref:regon":"367580450","operator":"Anna \u015awiderek","operator:type":"private","amenity":"kindergarten"}},{"id":103370,"type":"Feature","geometry":{"type":"Point","coordinates":[21.1115299,52.09024]},"properties":{"isced:level":"1;2","ref:rspo":103370,"official_name":"Szko\u0142a Podstawowa Integracyjna Nr 5","name":"Szko\u0142a Podstawowa Integracyjna Nr 5","addr:country":"PL","addr:postcode":"05-520","addr:city":"Konstancin-Jeziorna","addr:street":"ul. Szkolna","addr:housenumber":"7","addr:teryt:simc":21970,"addr:teryt:sym_ul":920634,"contact:phone":"+48 227564307","contact:email":"sekretariat@szkolaintegracyjnanr5.pl","contact:website":"http:\/\/kjzsinr5.edupage.org","ref:regon":"011338390","ref:vatin":"PL1231193347","operator":"Gmina Konstancin-Jeziorna","operator:type":"government","amenity":"school"}},{"id":28568,"type":"Feature","geometry":{"type":"Point","coordinates":[21.1217599,52.09103]},"properties":{"ref:rspo":28568,"official_name":"Egurrola Dance Studio Agustin Marek Egurrola","name":"Egurrola Dance Studio Agustin Marek Egurrola","addr:country":"PL","addr:postcode":"05-520","addr:city":"Konstancin-Jeziorna","addr:street":"ul. Aleja Wojska Polskiego","addr:housenumber":"3","addr:teryt:simc":33764,"addr:teryt:sym_ul":920634,"contact:phone":"+48 224273274","contact:email":"studio@egurrola.pl","contact:website":"http:\/\/www.egurrola.pl","ref:regon":"146348402","ref:vatin":"PL5251340026","operator":"Agustin Egurrola","operator:type":"private","fixme":"w zale\u017cno\u015bci od przedmiotu dzia\u0142alno\u015bci (np. amenity=training + training=*, amenity=dancing_school, amenity=language_school, amenity=music_school)"}},{"id":83125,"type":"Feature","geometry":{"type":"Point","coordinates":[21.13379,52.09512]},"properties":{"ref:rspo":83125,"official_name":"Przedszkole Nr 2 \"T\u0119czowe Przedszkole\"","name":"Przedszkole Nr 2 \"T\u0119czowe Przedszkole\"","addr:country":"PL","addr:postcode":"05-520","addr:city":"Konstancin-Jeziorna","addr:street":"ul. Anny Walentynowicz","addr:housenumber":"3","addr:teryt:simc":45993,"addr:teryt:sym_ul":920634,"contact:phone":"+48 227543234","contact:email":"teczoweprzedszkole@post.pl","ref:regon":"010420272","ref:vatin":"PL1230057464","operator":"Gmina Konstancin-Jeziorna","operator:type":"government","amenity":"kindergarten"}},{"id":41888,"type":"Feature","geometry":{"type":"Point","coordinates":[21.1225099,52.09722]},"properties":{"ref:rspo":41888,"official_name":"Szko\u0142a Muzyczna I St. w Konstancinie-Jeziornie","name":"Szko\u0142a Muzyczna I St. w Konstancinie-Jeziornie","addr:country":"PL","addr:postcode":"05-520","addr:city":"Konstancin-Jeziorna","addr:street":"ul. \u015awietlicowa","addr:housenumber":"7\/9","addr:door":"A1","addr:teryt:simc":22521,"addr:teryt:sym_ul":920634,"contact:phone":"+48 227543969","contact:email":"dyrektor@muzyczna-konstancin.pl","contact:website":"http:\/\/www.muzyczna-konstancin.pl","ref:regon":"146375592","operator":"Ma\u0142gorzata Szandu\u0142a","operator:type":"private","amenity":"music_school"}},{"id":79337,"type":"Feature","geometry":{"type":"Point","coordinates":[21.11711,52.09908]},"properties":{"ref:rspo":79337,"official_name":"Niepubliczne Przedszkole Muzyczno-J\u0119zykowe\n\"Kolorowe-Nutki\"","name":"Niepubliczne Przedszkole Muzyczno-J\u0119zykowe\n\"Kolorowe-Nutki\"","addr:country":"PL","addr:postcode":"05-520","addr:city":"Konstancin-Jeziorna","addr:street":"ul. Warszawska","addr:housenumber":"44","addr:teryt:simc":23682,"addr:teryt:sym_ul":920634,"contact:phone":"+48 698938536","contact:email":"biuro@kolorowenutki.pl","contact:website":"http:\/\/www.kolorowenutki.pl","ref:regon":"146415475","ref:vatin":"PL7120315773","operator":"Aneta Sztejnbis-Maciejewska","operator:type":"private","amenity":"kindergarten"}},{"id":103362,"type":"Feature","geometry":{"type":"Point","coordinates":[21.12926,52.10044]},"properties":{"isced:level":"1;2","ref:rspo":103362,"official_name":"No Bell Szko\u0142a Podstawowa Montessori","name":"No Bell Szko\u0142a Podstawowa Montessori","addr:country":"PL","addr:postcode":"05-520","addr:city":"Konstancin-Jeziorna","addr:street":"ul. Mirkowska","addr:housenumber":"39 B","addr:teryt:simc":13008,"addr:teryt:sym_ul":920634,"contact:phone":"+48 227569888","contact:email":"sekretarz@nobell.edu.pl","contact:website":"http:\/\/www.nobell.edu.pl","ref:regon":"146451258","ref:vatin":"PL5211991757","operator":"No Bell Education Centre Hanna Bieniek, Izabella Gorczyca Sp\u00f3\u0142ka Cywilna","operator:type":"consortium","amenity":"school"}},{"id":274638,"type":"Feature","geometry":{"type":"Point","coordinates":[21.12926,52.10041]},"properties":{"ref:rspo":274638,"official_name":"No Bell Instytut Innowacji Edukacyjnych","name":"No Bell Instytut Innowacji Edukacyjnych","addr:country":"PL","addr:postcode":"05-520","addr:city":"Konstancin-Jeziorna","addr:street":"ul. Mirkowska","addr:housenumber":"39B","addr:teryt:simc":13008,"addr:teryt:sym_ul":920634,"contact:phone":"+48 691690022","contact:email":"szkolenia@nobel.edu.pl","contact:website":"http:\/\/www.facebook\/no bell instytut innowacji edukacyjnych","ref:regon":"386126176","operator":"Izabella Gorczyca","operator:type":"private","amenity":"training"}},{"id":103373,"type":"Feature","geometry":{"type":"Point","coordinates":[21.12471,52.10063]},"properties":{"isced:level":"1;2","ref:rspo":103373,"official_name":"Szko\u0142a Podstawowa Nr 3","name":"Szko\u0142a Podstawowa Nr 3","addr:country":"PL","addr:postcode":"05-520","addr:city":"Konstancin-Jeziorna","addr:street":"ul. Bielawska","addr:housenumber":"57","addr:teryt:simc":1250,"addr:teryt:sym_ul":920634,"contact:phone":"+48 227564282","contact:email":"sekretariat@sp3kj.pl","contact:website":"http:\/\/www.sp3kj.pl","ref:regon":"011338466","ref:vatin":"PL1230860988","operator":"Gmina Konstancin-Jeziorna","operator:type":"government","amenity":"school"}},{"id":24209,"type":"Feature","geometry":{"type":"Point","coordinates":[21.1290799,52.10083]},"properties":{"ref:rspo":24209,"official_name":"Zesp\u00f3\u0142 Szk\u00f3\u0142 im. W\u0142adys\u0142awa Stanis\u0142awa Reymonta","name":"Zesp\u00f3\u0142 Szk\u00f3\u0142","addr:country":"PL","addr:postcode":"05-520","addr:city":"Konstancin-Jeziorna","addr:street":"ul. Mirkowska","addr:housenumber":"39","addr:teryt:simc":13008,"addr:teryt:sym_ul":920634,"contact:phone":"+48 227564281","contact:email":"sekretariat@zskj.pl","contact:website":"http:\/\/www.zskj.pl","ref:regon":"000673319","ref:vatin":"PL1230040021","operator":"Powiat Piaseczy\u0144ski","operator:type":"government","landuse":"education","fixme":"amenity=school, amenity=college albo landuse=education w zale\u017cno\u015bci od tego, jakie plac\u00f3wki wchodz\u0105 w sk\u0142ad zespo\u0142u. Sprawd\u017a, kiedy stosowa\u0107 amenity=* a kiedy landuse=education.","note":"Children RSPO: 27924;27973;30045;30654"}},{"id":103360,"type":"Feature","geometry":{"type":"Point","coordinates":[21.1290799,52.1008]},"properties":{"ref:rspo":103360,"official_name":"No Bell Przedszkole Montessori","name":"No Bell Przedszkole Montessori","addr:country":"PL","addr:postcode":"05-520","addr:city":"Konstancin-Jeziorna","addr:street":"ul. Mirkowska","addr:housenumber":"39","addr:teryt:simc":13008,"addr:teryt:sym_ul":920634,"contact:phone":"+48 227569888","contact:email":"sekretarz@nobell.edu.pl","contact:website":"http:\/\/www.nobell.edu.pl","ref:regon":"146451212","ref:vatin":"PL5211991757","operator":"No Bell Education Centre Hanna Bieniek, Izabella Gorczyca Sp\u00f3\u0142ka Cywilna","operator:type":"consortium","amenity":"kindergarten"}},{"id":126983,"type":"Feature","geometry":{"type":"Point","coordinates":[21.1290799,52.100770000000004]},"properties":{"ref:rspo":126983,"official_name":"Niepubliczna Poradnia Psychologiczno -Pedagogiczna No Bell Laboratorium Psychologii Dziecka","name":"Niepubliczna Poradnia Psychologiczno -Pedagogiczna No Bell Laboratorium Psychologii Dziecka","addr:country":"PL","addr:postcode":"05-520","addr:city":"Konstancin-Jeziorna","addr:street":"ul. Mirkowska","addr:housenumber":"39","addr:teryt:simc":13008,"addr:teryt:sym_ul":920634,"contact:phone":"+48 888393393","contact:email":"laboratorium@nobell.edu.pl","ref:regon":"361002396","operator":"Izabella Gorczyca","operator:type":"private","healthcare":"councelling","counselling_type":"education","fixme":"w zale\u017cno\u015bci od przedmiotu dzia\u0142alno\u015bci (np. healthcare=councelling + counselling_type=education albo healthcare=psychotherapist)"}},{"id":268659,"type":"Feature","geometry":{"type":"Point","coordinates":[21.1290799,52.10074]},"properties":{"isced:level":"3","ref:rspo":268659,"official_name":"No Bell Liceum Og\u00f3lnokszta\u0142c\u0105ce","name":"No Bell Liceum Og\u00f3lnokszta\u0142c\u0105ce","addr:country":"PL","addr:postcode":"05-520","addr:city":"Konstancin-Jeziorna","addr:street":"ul. Mirkowska","addr:housenumber":"39","addr:teryt:simc":13008,"addr:teryt:sym_ul":920634,"contact:phone":"+48 227569888","contact:email":"sekretariat@nobell.edu.pl","contact:website":"http:\/\/www.nobell-liceum.pl","ref:regon":"381224454","operator":"Izabella Gorczyca","operator:type":"private","amenity":"school"}},{"id":27924,"type":"Feature","geometry":{"type":"Point","coordinates":[21.1290799,52.10071]},"properties":{"isced:level":"3","ref:rspo":27924,"official_name":"I Liceum Og\u00f3lnokszta\u0142c\u0105ce","name":"I Liceum Og\u00f3lnokszta\u0142c\u0105ce","addr:country":"PL","addr:postcode":"05-520","addr:city":"Konstancin-Jeziorna","addr:street":"ul. Mirkowska","addr:housenumber":"39","addr:teryt:simc":13008,"addr:teryt:sym_ul":920634,"contact:email":"sekretariat@zskj.pl","contact:website":"http:\/\/www.zskj.pl","ref:regon":"015544524","operator":"Powiat Piaseczy\u0144ski","operator:type":"government","amenity":"school","note":"Parent RSPO: 24209"}},{"id":27973,"type":"Feature","geometry":{"type":"Point","coordinates":[21.1290799,52.100680000000004]},"properties":{"isced:level":"3","ref:rspo":27973,"official_name":"I Liceum Og\u00f3lnokszta\u0142c\u0105ce dla Doros\u0142ych","name":"I Liceum Og\u00f3lnokszta\u0142c\u0105ce dla Doros\u0142ych","addr:country":"PL","addr:postcode":"05-520","addr:city":"Konstancin-Jeziorna","addr:street":"ul. Mirkowska","addr:housenumber":"39","addr:teryt:simc":13008,"addr:teryt:sym_ul":920634,"contact:email":"sekretariat@zskj.pl","contact:website":"http:\/\/www.zskj.pl","ref:regon":"140244742","operator":"Powiat Piaseczy\u0144ski","operator:type":"government","amenity":"school","note":"Parent RSPO: 24209"}},{"id":30045,"type":"Feature","geometry":{"type":"Point","coordinates":[21.1290799,52.10065]},"properties":{"isced:level":"3","ref:rspo":30045,"official_name":"Bran\u017cowa Szko\u0142a I Stopnia Nr 1","name":"Bran\u017cowa Szko\u0142a I Stopnia Nr 1","addr:country":"PL","addr:postcode":"05-520","addr:city":"Konstancin-Jeziorna","addr:street":"ul. Mirkowska","addr:housenumber":"39","addr:teryt:simc":13008,"addr:teryt:sym_ul":920634,"contact:phone":"+48 224564281","contact:email":"sekretariat@zskj.pl","contact:website":"http:\/\/www.zskj.pl","ref:regon":"146342210","operator":"Powiat Piaseczy\u0144ski","operator:type":"government","amenity":"school","note":"Parent RSPO: 24209"}},{"id":30654,"type":"Feature","geometry":{"type":"Point","coordinates":[21.1290799,52.10062]},"properties":{"isced:level":"3","ref:rspo":30654,"official_name":"Technikum Nr 1","name":"Technikum Nr 1","addr:country":"PL","addr:postcode":"05-520","addr:city":"Konstancin-Jeziorna","addr:street":"ul. Mirkowska","addr:housenumber":"39","addr:teryt:simc":13008,"addr:teryt:sym_ul":920634,"contact:email":"sekretariat@zskj.pl","contact:website":"http:\/\/www.zskj.pl","ref:regon":"015544501","operator":"Powiat Piaseczy\u0144ski","operator:type":"government","amenity":"school","note":"Parent RSPO: 24209"}},{"id":77606,"type":"Feature","geometry":{"type":"Point","coordinates":[21.165081,52.1017703]},"properties":{"isced:level":"1;2","ref:rspo":77606,"official_name":"Szko\u0142a Podstawowa Nr 6","name":"Szko\u0142a Podstawowa Nr 6","addr:country":"PL","addr:postcode":"05-520","addr:place":"Opacz","addr:housenumber":"9","addr:teryt:sym_ul":3978,"contact:phone":"+48 227542872","contact:email":"sp6@opacz.edu.pl","contact:website":"http:\/\/www.opacz.edu.pl","ref:regon":"011338414","ref:vatin":"PL1230785011","operator":"Gmina Konstancin-Jeziorna","operator:type":"government","amenity":"school"}},{"id":268682,"type":"Feature","geometry":{"type":"Point","coordinates":[21.11358,52.10422]},"properties":{"ref:rspo":268682,"official_name":"Przedszkole Niepubliczne \"Weso\u0142y Tygrysek\"","name":"Przedszkole Niepubliczne \"Weso\u0142y Tygrysek\"","addr:country":"PL","addr:postcode":"05-520","addr:city":"Konstancin-Jeziorna","addr:street":"ul. Warszawska","addr:housenumber":"79","addr:teryt:simc":23682,"addr:teryt:sym_ul":920634,"ref:regon":"381232011","operator":"Albena Mirowska","operator:type":"private","amenity":"kindergarten"}},{"id":128899,"type":"Feature","geometry":{"type":"Point","coordinates":[21.1301757,52.1066698]},"properties":{"ref:rspo":128899,"official_name":"Abc Montessori Education","name":"Abc Montessori Education","addr:country":"PL","addr:postcode":"05-520","addr:city":"Bielawa","addr:street":"ul. Lipowa","addr:housenumber":"27","addr:teryt:simc":11139,"addr:teryt:sym_ul":3665,"contact:phone":"+48 602430160","contact:email":"abc@abcmontessori.pl","ref:regon":"362437446","operator":"Aneta Sucho\u017cebrska","operator:type":"private","amenity":"kindergarten"}}]}