{
    "type": "FeatureCollection",
    "features": [
        {
            "id": 128467,
            "type": "Feature",
            "geometry": {
                "type": "Point",
                "coordinates": [
                    20.954330444336,
                    51.941020965576
                ]
            },
            "properties": {
                "ref:rspo": 128467,
                "official_name": "Zesp\u00f3\u0142 Szkolno-Przedszkolny w Pra\u017cmowie",
                "name": "Zesp\u00f3\u0142 Szkolno-Przedszkolny w Pra\u017cmowie",
                "addr:postcode": "05-505",
                "addr:city": "Pra\u017cm\u00f3w",
                "addr:street": "Franciszka Ryxa",
                "addr:housenumber": "72",
                "addr:city:simc": 7380,
                "addr:street:sym_ul": 38237,
                "phone": "+48 227270804",
                "email": "szkola@zspprazmow.pl",
                "website": "https:\/\/zsp-prazmow.edupage.org\/",
                "ref:regon": "362290552",
                "operator": "Gmina Pra\u017cm\u00f3w",
                "operator:type": "government",
                "landuse": "education",
                "fixme": "amenity=school, amenity=college albo landuse=education w zale\u017cno\u015bci od tego, jakie plac\u00f3wki wchodz\u0105 w sk\u0142ad zespo\u0142u. Sprawd\u017a, kiedy stosowa\u0107 amenity=* a kiedy landuse=education.",
                "note": "Children RSPO: 4699;4972;128198"
            }
        },
        {
            "id": 4699,
            "type": "Feature",
            "geometry": {
                "type": "Point",
                "coordinates": [
                    20.954330444336,
                    51.940990965576
                ]
            },
            "properties": {
                "isced:level": "1;2",
                "ref:rspo": 4699,
                "official_name": "Szko\u0142a Podstawowa",
                "name": "Szko\u0142a Podstawowa",
                "addr:postcode": "05-505",
                "addr:city": "Pra\u017cm\u00f3w",
                "addr:street": "Franciszka Ryxa",
                "addr:housenumber": "72",
                "addr:city:simc": 7380,
                "addr:street:sym_ul": 38237,
                "phone": "+48 227270804",
                "email": "szkola@zspprazmow.pl",
                "website": "https:\/\/zsp-prazmow.edupage.org\/",
                "ref:regon": "017380297",
                "ref:vatin": "PL1230445516",
                "operator": "Gmina Pra\u017cm\u00f3w",
                "operator:type": "government",
                "amenity": "school",
                "note": "Parent RSPO: 128467"
            }
        },
        {
            "id": 128198,
            "type": "Feature",
            "geometry": {
                "type": "Point",
                "coordinates": [
                    20.954330444336,
                    51.940960965576004
                ]
            },
            "properties": {
                "ref:rspo": 128198,
                "official_name": "Gminne Przedszkole w Pra\u017cmowie",
                "name": "Gminne Przedszkole w Pra\u017cmowie",
                "addr:postcode": "05-505",
                "addr:city": "Pra\u017cm\u00f3w",
                "addr:street": "Franciszka Ryxa",
                "addr:housenumber": "72",
                "addr:city:simc": 7380,
                "addr:street:sym_ul": 38237,
                "phone": "+48 227270804",
                "email": "przedszlole@zspprazmow.pl",
                "website": "https:\/\/zsp-prazmow.edupage.org\/",
                "ref:regon": "362183610",
                "operator": "Gmina Pra\u017cm\u00f3w",
                "operator:type": "government",
                "amenity": "kindergarten",
                "note": "Parent RSPO: 128467"
            }
        },
        {
            "id": 129940,
            "type": "Feature",
            "geometry": {
                "type": "Point",
                "coordinates": [
                    21.07552,
                    51.96043
                ]
            },
            "properties": {
                "ref:rspo": 129940,
                "official_name": "Publiczny Punkt Przedszkolny \"Ma\u0142e Przedszkole Tu w Gabryelinie\"",
                "name": "Publiczny Punkt Przedszkolny \"Ma\u0142e Przedszkole Tu w Gabryelinie\"",
                "addr:postcode": "05-505",
                "addr:city": "Gabryelin",
                "addr:street": "D\u0119bowa",
                "addr:housenumber": "18",
                "addr:city:simc": 7077,
                "addr:street:sym_ul": 3811,
                "phone": "+48 698378000",
                "email": "mwczpp@wp.pl",
                "ref:regon": "363145444",
                "operator": "Stowarzyszenie Ma\u0142y Wielki Cz\u0142owiek",
                "operator:type": "ngo",
                "amenity": "kindergarten"
            }
        },
        {
            "id": 4972,
            "type": "Feature",
            "geometry": {
                "type": "Point",
                "coordinates": [
                    20.95013,
                    51.96801
                ]
            },
            "properties": {
                "ref:rspo": 4972,
                "official_name": "Gminne Przedszkole w Nowym Pra\u017cmowie",
                "name": "Gminne Przedszkole w Nowym Pra\u017cmowie",
                "addr:postcode": "05-505",
                "addr:city": "Nowy Pra\u017cm\u00f3w",
                "addr:street": "G\u0142\u00f3wna",
                "addr:housenumber": "49",
                "addr:city:simc": 7344,
                "addr:street:sym_ul": 5635,
                "phone": "+48 227270235",
                "email": "przedszkole@zspprazmow.pl",
                "website": "https:\/\/zsp-prazmow.edupage.org\/",
                "ref:regon": "143039675",
                "ref:vatin": "PL1231253813",
                "operator": "Gmina Pra\u017cm\u00f3w",
                "operator:type": "government",
                "amenity": "kindergarten",
                "note": "Parent RSPO: 128467"
            }
        },
        {
            "id": 279269,
            "type": "Feature",
            "geometry": {
                "type": "Point",
                "coordinates": [
                    21.04169,
                    51.97359
                ]
            },
            "properties": {
                "ref:rspo": 279269,
                "official_name": "Przedszkole Niepubliczne Maluch",
                "name": "Przedszkole Niepubliczne Maluch",
                "addr:postcode": "05-540",
                "addr:city": "Uwieliny",
                "addr:street": "G\u0142\u00f3wna",
                "addr:housenumber": "8",
                "addr:city:simc": 7404,
                "addr:street:sym_ul": 5635,
                "phone": "+48 692118584",
                "email": "przedszkole@maluchuwieliny.pl",
                "ref:regon": "521062035",
                "operator": "Norbert Bogucki",
                "operator:type": "private",
                "amenity": "kindergarten"
            }
        },
        {
            "id": 4698,
            "type": "Feature",
            "geometry": {
                "type": "Point",
                "coordinates": [
                    21.0392,
                    51.97515
                ]
            },
            "properties": {
                "isced:level": "1;2",
                "ref:rspo": 4698,
                "official_name": "Szko\u0142a Podstawowa",
                "name": "Szko\u0142a Podstawowa",
                "addr:postcode": "05-540",
                "addr:city": "Uwieliny",
                "addr:street": "Szkolna",
                "addr:housenumber": "2A",
                "addr:city:simc": 7404,
                "addr:street:sym_ul": 21970,
                "phone": "+48 227267640",
                "email": "sekretariat@zsuwieliny.pl",
                "ref:regon": "001146786",
                "ref:vatin": "PL1230916424",
                "operator": "Gmina Pra\u017cm\u00f3w",
                "operator:type": "government",
                "amenity": "school"
            }
        },
        {
            "id": 104288,
            "type": "Feature",
            "geometry": {
                "type": "Point",
                "coordinates": [
                    20.96333,
                    51.98025
                ]
            },
            "properties": {
                "ref:rspo": 104288,
                "official_name": "Niepubliczne Przedszkole \"Pluszowy Domek\"",
                "name": "Niepubliczne Przedszkole \"Pluszowy Domek\"",
                "addr:postcode": "05-504",
                "addr:city": "\u0141o\u015b",
                "addr:street": "Sp\u00f3\u0142dzielcza",
                "addr:housenumber": "25",
                "addr:city:simc": 7290,
                "addr:street:sym_ul": 20696,
                "phone": "+48 509578617",
                "ref:regon": "146451301",
                "operator": "Luiza Nowakowska",
                "operator:type": "private",
                "amenity": "kindergarten"
            }
        },
        {
            "id": 123994,
            "type": "Feature",
            "geometry": {
                "type": "Point",
                "coordinates": [
                    21.08357,
                    51.99129
                ]
            },
            "properties": {
                "isced:level": "1;2",
                "ref:rspo": 123994,
                "official_name": "Szko\u0142a Podstawowa Sokrates",
                "name": "Szko\u0142a Podstawowa Sokrates",
                "addr:postcode": "05-530",
                "addr:city": "Kr\u0119pa",
                "addr:street": "Wodnik\u00f3w",
                "addr:housenumber": "5",
                "addr:city:simc": 7210,
                "addr:street:sym_ul": 33019,
                "phone": "+48 570335554",
                "email": "sekretariat@esokrates.com",
                "ref:regon": "147368163",
                "operator": "Piotr Strze\u017cek",
                "operator:type": "private",
                "amenity": "school"
            }
        },
        {
            "id": 132740,
            "type": "Feature",
            "geometry": {
                "type": "Point",
                "coordinates": [
                    21.0362699,
                    52.00146
                ]
            },
            "properties": {
                "ref:rspo": 132740,
                "official_name": "Ma\u0142e Przedszkole Tu w Ustanowie",
                "name": "Ma\u0142e Przedszkole Tu w Ustanowie",
                "addr:postcode": "05-540",
                "addr:city": "Ustan\u00f3w",
                "addr:street": "G\u0142ogowa",
                "addr:housenumber": "6",
                "addr:city:simc": 7396,
                "addr:street:sym_ul": 5610,
                "phone": "+48 531762965",
                "email": "aleksandra.puch@tu.edu.pl",
                "ref:regon": "366164471",
                "operator": "Stowarzyszenie Rodzic\u00f3w \"Tu\"",
                "operator:type": "ngo",
                "amenity": "kindergarten"
            }
        },
        {
            "id": 5442,
            "type": "Feature",
            "geometry": {
                "type": "Point",
                "coordinates": [
                    21.03923,
                    52.00291
                ]
            },
            "properties": {
                "ref:rspo": 5442,
                "official_name": "Niepubliczne Przedszkole w Ustanowie \"Kidi\"",
                "name": "Niepubliczne Przedszkole w Ustanowie \"Kidi\"",
                "addr:postcode": "05-540",
                "addr:city": "Ustan\u00f3w",
                "addr:street": "G\u0142\u00f3wna",
                "addr:housenumber": "10",
                "addr:city:simc": 7396,
                "addr:street:sym_ul": 5635,
                "phone": "+48 608710988",
                "email": "przedszkole@kidi.com.pl",
                "ref:regon": "146267460",
                "operator": "Iwona Sankowska",
                "operator:type": "private",
                "amenity": "kindergarten"
            }
        },
        {
            "id": 122935,
            "type": "Feature",
            "geometry": {
                "type": "Point",
                "coordinates": [
                    21.03923,
                    52.00288
                ]
            },
            "properties": {
                "isced:level": "1;2",
                "ref:rspo": 122935,
                "official_name": "Szko\u0142a Podstawowa im. Miko\u0142aja Kopernika",
                "name": "Szko\u0142a Podstawowa",
                "addr:postcode": "05-540",
                "addr:city": "Ustan\u00f3w",
                "addr:street": "G\u0142\u00f3wna",
                "addr:housenumber": "10",
                "addr:city:simc": 7396,
                "addr:street:sym_ul": 5635,
                "phone": "+48 692343408",
                "email": "sekretariat@szkola-kopernik.pl",
                "ref:regon": "147215488",
                "operator": "Leszek Sankowski",
                "operator:type": "private",
                "amenity": "school"
            }
        },
        {
            "id": 129727,
            "type": "Feature",
            "geometry": {
                "type": "Point",
                "coordinates": [
                    21.03923,
                    52.00947
                ]
            },
            "properties": {
                "ref:rspo": 129727,
                "official_name": "Niepubliczna Poradnia Psychologiczno-Pedagogiczna Progressus",
                "name": "Niepubliczna Poradnia Psychologiczno-Pedagogiczna Progressus",
                "addr:postcode": "05-540",
                "addr:city": "Ustan\u00f3w",
                "addr:street": "S\u0142owicza",
                "addr:housenumber": "1A",
                "addr:door": "5",
                "addr:city:simc": 7396,
                "addr:street:sym_ul": 20298,
                "phone": "+48 609146175",
                "email": "babetka@onet.eu",
                "website": "https:\/\/progressus.net.pl\/",
                "ref:regon": "362796145",
                "operator": "Karina Bartos",
                "operator:type": "private",
                "healthcare": "counselling",
                "counselling_type": "education",
                "fixme": "w zale\u017cno\u015bci od przedmiotu dzia\u0142alno\u015bci (np. healthcare=counselling + counselling_type=education albo healthcare=psychotherapist)"
            }
        }
    ]
}