{"type":"FeatureCollection","features":[{"id":57114,"type":"Feature","geometry":{"type":"Point","coordinates":[21.225882,51.9285489]},"properties":{"isced:level":"1;2","ref:rspo":57114,"official_name":"Szko\u0142a Podstawowa im. W\u0142adys\u0142awa Reymonta w Coniewie","name":"Szko\u0142a Podstawowa","addr:country":"PL","addr:postcode":"05-530","addr:place":"Coniew","addr:housenumber":"28","addr:teryt:sym_ul":1590,"contact:phone":"+48 600063051","contact:email":"szkola@spconiew.pl","contact:website":"http:\/\/spconiew.szkolnastrona.pl","ref:regon":"000799871","operator":"Gmina G\u00f3ra Kalwaria","operator:type":"government","amenity":"school"}},{"id":59580,"type":"Feature","geometry":{"type":"Point","coordinates":[21.135425,51.9471629]},"properties":{"isced:level":"1;2","ref:rspo":59580,"official_name":"Szko\u0142a Podstawowa im. Kazimierza G\u00f3rskiego w Czaplinku","name":"Szko\u0142a Podstawowa","addr:country":"PL","addr:postcode":"05-530","addr:city":"Czaplinek","addr:street":"ul. Szkolna","addr:housenumber":"5","addr:teryt:simc":21970,"addr:teryt:sym_ul":1666,"contact:phone":"+48 227268341","contact:email":"kontakt@spczaplinek.pl","contact:website":"http:\/\/www.spczaplinek.pl","ref:regon":"010357496","ref:vatin":"PL1230894390","operator":"Gmina G\u00f3ra Kalwaria","operator:type":"government","amenity":"school"}},{"id":130169,"type":"Feature","geometry":{"type":"Point","coordinates":[21.2138659,51.957584]},"properties":{"ref:rspo":130169,"official_name":"Przedszkole Publiczne ,,Ba\u015bniowy Domek Na Przyborowiu''","name":"Przedszkole Publiczne ,,Ba\u015bniowy Domek Na Przyborowiu''","addr:country":"PL","addr:postcode":"05-530","addr:city":"Czersk","addr:street":"ul. Trakt K. Pu\u0142askiego","addr:housenumber":"18H","addr:teryt:simc":28182,"addr:teryt:sym_ul":1695,"contact:phone":"+48 502709585","contact:email":"basniowydomek@gmail.com","contact:website":"http:\/\/www.basniowydomek.com","ref:regon":"363575707","ref:vatin":"PL5211310243","operator":"Lidia Bobkiewicz","operator:type":"private","amenity":"kindergarten"}},{"id":59575,"type":"Feature","geometry":{"type":"Point","coordinates":[21.0883289,51.9603267]},"properties":{"isced:level":"1;2","ref:rspo":59575,"official_name":"Szko\u0142a Podstawowa im.ksi\u0119dza Jana Twardowskiego w Czach\u00f3wku","name":"Szko\u0142a Podstawowa im.ksi\u0119dza Jana Twardowskiego w Czach\u00f3wku","addr:country":"PL","addr:postcode":"05-530","addr:city":"Czach\u00f3wek","addr:street":"ul. G\u0142\u00f3wna","addr:housenumber":"56","addr:teryt:simc":5635,"addr:teryt:sym_ul":1620,"contact:phone":"+48 227276573","contact:email":"sekretariat@spczachowek.eu","contact:website":"http:\/\/spczachowek.edupage.org","ref:regon":"000799865","ref:vatin":"PL1230894421","operator":"Gmina G\u00f3ra Kalwaria","operator:type":"government","amenity":"school"}},{"id":58847,"type":"Feature","geometry":{"type":"Point","coordinates":[21.2269771,51.9603382]},"properties":{"isced:level":"1;2","ref:rspo":58847,"official_name":"Szko\u0142a Podstawowa im. Kawaler\u00f3w Orderu U\u015bmiechu w Czersku","name":"Szko\u0142a Podstawowa","addr:country":"PL","addr:postcode":"05-530","addr:city":"Czersk","addr:street":"ul. Warszawska","addr:housenumber":"17","addr:teryt:simc":23682,"addr:teryt:sym_ul":1695,"contact:phone":"+48 227273218","contact:email":"sekretariat@spczersk.eu","contact:website":"http:\/\/spczersk.edupage.org","ref:regon":"013209922","ref:vatin":"PL1230894444","operator":"Gmina G\u00f3ra Kalwaria","operator:type":"government","amenity":"school"}},{"id":65263,"type":"Feature","geometry":{"type":"Point","coordinates":[21.2240189,51.960884]},"properties":{"ref:rspo":65263,"official_name":"Przedszkole Niepubliczne Si\u00f3str S\u0142u\u017cebniczek Niepokalanego Pocz\u0119cia N.m.p w Czersku","name":"Przedszkole Niepubliczne Si\u00f3str S\u0142u\u017cebniczek Niepokalanego Pocz\u0119cia N.m.p w Czersku","addr:country":"PL","addr:postcode":"05-530","addr:city":"Czersk","addr:street":"ul. Warszawska","addr:housenumber":"20","addr:teryt:simc":23682,"addr:teryt:sym_ul":1695,"contact:phone":"+48 227273602","contact:email":"przedszkoleczersk@gmail.com","ref:regon":"146428762","ref:vatin":"PL1230946678","operator":"Zg.ss.s\u0142u\u017cebniczek Niepokalanego Pocz\u0119cia Nmp.,Prowincja Warszawska","operator:type":"religious","amenity":"kindergarten"}},{"id":277244,"type":"Feature","geometry":{"type":"Point","coordinates":[21.132119,51.9672875]},"properties":{"ref:rspo":277244,"official_name":"Zesp\u00f3\u0142 Szkolno-Przedszkolny w Cendrowicach","name":"Zesp\u00f3\u0142 Szkolno-Przedszkolny w Cendrowicach","addr:country":"PL","addr:postcode":"05-530","addr:city":"Cendrowice","addr:street":"ul. Szkolna","addr:housenumber":"4","addr:teryt:simc":21970,"addr:teryt:sym_ul":1583,"contact:phone":"+48 227268345","contact:email":"szkola@cendrowice.pl","contact:website":"https:\/\/sp-cendrowice.edupage.org","ref:regon":"388432138","operator":"Gmina G\u00f3ra Kalwaria","operator:type":"government","landuse":"education","fixme":"amenity=school, amenity=college albo landuse=education w zale\u017cno\u015bci od tego, jakie plac\u00f3wki wchodz\u0105 w sk\u0142ad zespo\u0142u. Sprawd\u017a, kiedy stosowa\u0107 amenity=* a kiedy landuse=education.","note":"Children RSPO: 262333;277248"}},{"id":262333,"type":"Feature","geometry":{"type":"Point","coordinates":[21.132119,51.967257499999995]},"properties":{"isced:level":"1;2","ref:rspo":262333,"official_name":"Szko\u0142a Podstawowa im. Feliksa Kapackiego w Cendrowicach","name":"Szko\u0142a Podstawowa","addr:country":"PL","addr:postcode":"05-530","addr:city":"Cendrowice","addr:street":"ul. Szkolna","addr:housenumber":"4","addr:teryt:simc":21970,"addr:teryt:sym_ul":1583,"contact:phone":"+48 227268345","contact:email":"szkola@cendrowice.pl","contact:website":"https:\/\/sp-cendrowice.edupage.org","ref:regon":"368007570","operator":"Gmina G\u00f3ra Kalwaria","operator:type":"government","amenity":"school","note":"Parent RSPO: 277244"}},{"id":277248,"type":"Feature","geometry":{"type":"Point","coordinates":[21.132119,51.9672275]},"properties":{"ref:rspo":277248,"official_name":"Przedszkole Samorz\u0105dowe w Cendrowicach","name":"Przedszkole Samorz\u0105dowe w Cendrowicach","addr:country":"PL","addr:postcode":"05-530","addr:city":"Cendrowice","addr:street":"ul. Szkolna","addr:housenumber":"4","addr:teryt:simc":21970,"addr:teryt:sym_ul":1583,"contact:phone":"+48 227268345","contact:email":"szkola@cendrowice.pl","contact:website":"https:\/\/sp-cendrowice.edupage.org","ref:regon":"388441226","operator":"Gmina G\u00f3ra Kalwaria","operator:type":"government","amenity":"kindergarten","note":"Parent RSPO: 277244"}},{"id":21267,"type":"Feature","geometry":{"type":"Point","coordinates":[21.21872,51.9788]},"properties":{"ref:rspo":21267,"official_name":"Zesp\u00f3\u0142 Szk\u00f3\u0142 Zawodowych im. Ppor. Emilii Gierczak","name":"Zesp\u00f3\u0142 Szk\u00f3\u0142 Zawodowych","addr:country":"PL","addr:postcode":"05-530","addr:city":"G\u00f3ra Kalwaria","addr:street":"ul. Dominika\u0144ska","addr:housenumber":"9 E","addr:teryt:simc":4102,"addr:teryt:sym_ul":920321,"contact:phone":"+48 227273527","contact:email":"zszgk@o2.pl","contact:website":"http:\/\/www.zszgk.edupage.org","ref:regon":"010400418","ref:vatin":"PL1230825271","operator":"Powiat Piaseczy\u0144ski","operator:type":"government","landuse":"education","fixme":"amenity=school, amenity=college albo landuse=education w zale\u017cno\u015bci od tego, jakie plac\u00f3wki wchodz\u0105 w sk\u0142ad zespo\u0142u. Sprawd\u017a, kiedy stosowa\u0107 amenity=* a kiedy landuse=education.","note":"Children RSPO: 25470;25504"}},{"id":25470,"type":"Feature","geometry":{"type":"Point","coordinates":[21.21872,51.97877]},"properties":{"isced:level":"3","ref:rspo":25470,"official_name":"Technikum Nr 1","name":"Technikum Nr 1","addr:country":"PL","addr:postcode":"05-530","addr:city":"G\u00f3ra Kalwaria","addr:street":"ul. Dominika\u0144ska","addr:housenumber":"9E","addr:teryt:simc":4102,"addr:teryt:sym_ul":920321,"contact:phone":"+48 227273527","contact:email":"zszgk@o2.pl","contact:website":"http:\/\/www.zszgk.edupage.org","ref:regon":"015542519","operator":"Powiat Piaseczy\u0144ski","operator:type":"government","amenity":"school","note":"Parent RSPO: 21267"}},{"id":25504,"type":"Feature","geometry":{"type":"Point","coordinates":[21.21872,51.97874]},"properties":{"isced:level":"3","ref:rspo":25504,"official_name":"Bran\u017cowa Szko\u0142a I Stopnia Nr 1","name":"Bran\u017cowa Szko\u0142a I Stopnia Nr 1","addr:country":"PL","addr:postcode":"05-530","addr:city":"G\u00f3ra Kalwaria","addr:street":"ul. Dominika\u0144ska","addr:housenumber":"9E","addr:teryt:simc":4102,"addr:teryt:sym_ul":920321,"contact:phone":"+48 227273527","contact:email":"zszgk@o2.pl","contact:website":"http:\/\/www.zszgk.edupage.org","ref:regon":"010400507","operator":"Powiat Piaseczy\u0144ski","operator:type":"government","amenity":"school","note":"Parent RSPO: 21267"}},{"id":130166,"type":"Feature","geometry":{"type":"Point","coordinates":[21.21644,51.98022]},"properties":{"ref:rspo":130166,"official_name":"Przedszkole Publiczne ,,R\u00f3\u017cowy Baranek''","name":"Przedszkole Publiczne ,,R\u00f3\u017cowy Baranek''","addr:country":"PL","addr:postcode":"05-530","addr:city":"G\u00f3ra Kalwaria","addr:street":"ul. Dominika\u0144ska","addr:housenumber":"7","addr:teryt:simc":4102,"addr:teryt:sym_ul":920321,"contact:phone":"+48 798731101","contact:email":"baranek@onet.eu","contact:website":"http:\/\/www.rozowybaranek.pl","ref:regon":"363564394","ref:vatin":"PL8262112684","operator":"Izabela \u0141odyga","operator:type":"private","amenity":"kindergarten"}},{"id":30833,"type":"Feature","geometry":{"type":"Point","coordinates":[21.2134,51.98086]},"properties":{"ref:rspo":30833,"official_name":"Plac\u00f3wka O\u015bwiatowa-O\u015brodek Szkolenia Consulting Company Wz","name":"Plac\u00f3wka O\u015bwiatowa-O\u015brodek Szkolenia Consulting Company Wz","addr:country":"PL","addr:postcode":"05-530","addr:city":"G\u00f3ra Kalwaria","addr:street":"ul. Kalwaryjska","addr:housenumber":"3","addr:teryt:simc":7842,"addr:teryt:sym_ul":920321,"contact:phone":"+48 603221480","contact:email":"leszek@uzo.pl","contact:website":"http:\/\/www.ccwz.com.pl","ref:regon":"146349175","ref:vatin":"PL5260208823","operator":"Consulting Company Wsch\u00f3d Zach\u00f3d Sp\u00f3\u0142ka Z Ograniczon\u0105 Odpowiedzialno\u015bci\u0105","operator:type":"private","fixme":"w zale\u017cno\u015bci od przedmiotu dzia\u0142alno\u015bci (np. amenity=training + training=*, amenity=dancing_school, amenity=language_school, amenity=music_school)"}},{"id":59852,"type":"Feature","geometry":{"type":"Point","coordinates":[21.2134,51.98083]},"properties":{"isced:level":"1;2","ref:rspo":59852,"official_name":"Szko\u0142a Podstawowa Nr 2 im.ksi\u0119cia Janusza w G\u00f3rze Kalwarii","name":"Szko\u0142a Podstawowa Nr 2 im.ksi\u0119cia Janusza w G\u00f3rze Kalwarii","addr:country":"PL","addr:postcode":"05-530","addr:city":"G\u00f3ra Kalwaria","addr:street":"ul. Kalwaryjska","addr:housenumber":"3","addr:teryt:simc":7842,"addr:teryt:sym_ul":920321,"contact:phone":"+48 227273528","contact:email":"sp2@sp2.mgk.pl","contact:website":"http:\/\/www.sp2.mgk.pl","ref:regon":"000799919","ref:vatin":"PL1230894378","operator":"Gmina G\u00f3ra Kalwaria","operator:type":"government","amenity":"school"}},{"id":58635,"type":"Feature","geometry":{"type":"Point","coordinates":[21.202459335327,51.982089996338]},"properties":{"ref:rspo":58635,"official_name":"Zesp\u00f3\u0142 Szk\u00f3\u0142 Og\u00f3lnokszta\u0142c\u0105cych w G\u00f3rze Kalwarii","name":"Zesp\u00f3\u0142 Szk\u00f3\u0142 Og\u00f3lnokszta\u0142c\u0105cych w G\u00f3rze Kalwarii","addr:country":"PL","addr:postcode":"05-530","addr:city":"G\u00f3ra Kalwaria","addr:street":"ul. Ksi\u0119dza Zygmunta Sajny","addr:housenumber":"16","addr:teryt:simc":46665,"addr:teryt:sym_ul":920321,"contact:phone":"+48 227271229","contact:email":"sekretariat@zsogorakalwaria.pl","contact:website":"http:\/\/www.zsogorakalwaria.pl","ref:regon":"006374836","ref:vatin":"PL1230894349","operator":"Gmina G\u00f3ra Kalwaria","operator:type":"government","landuse":"education","fixme":"amenity=school, amenity=college albo landuse=education w zale\u017cno\u015bci od tego, jakie plac\u00f3wki wchodz\u0105 w sk\u0142ad zespo\u0142u. Sprawd\u017a, kiedy stosowa\u0107 amenity=* a kiedy landuse=education.","note":"Children RSPO: 86434;262353"}},{"id":64553,"type":"Feature","geometry":{"type":"Point","coordinates":[21.202459335327,51.982059996337995]},"properties":{"ref:rspo":64553,"official_name":"Samorz\u0105dowe Przedszkole Integracyjne w G\u00f3rze Kalwarii","name":"Samorz\u0105dowe Przedszkole Integracyjne w G\u00f3rze Kalwarii","addr:country":"PL","addr:postcode":"05-530","addr:city":"G\u00f3ra Kalwaria","addr:street":"ul. gen. J\u00f3zefa Bema","addr:housenumber":"1","addr:teryt:simc":1014,"addr:teryt:sym_ul":920321,"contact:email":"sekretariat@spi3gorakalwaria.pl","contact:website":"http:\/\/spi3.szkolnastrona.pl","ref:regon":"013003468","ref:vatin":"PL1230894214","operator":"Gmina G\u00f3ra Kalwaria","operator:type":"government","amenity":"kindergarten"}},{"id":86434,"type":"Feature","geometry":{"type":"Point","coordinates":[21.202459335327,51.982029996338]},"properties":{"isced:level":"3","ref:rspo":86434,"official_name":"Liceum Og\u00f3lnokszta\u0142c\u0105ce im. Ksi\u0119dza Zygmunta Sajny w G\u00f3rze Kalwarii","name":"Liceum Og\u00f3lnokszta\u0142c\u0105ce","addr:country":"PL","addr:postcode":"05-530","addr:city":"G\u00f3ra Kalwaria","addr:street":"ul. Ksi\u0119dza Zygmunta Sajny","addr:housenumber":"16","addr:teryt:simc":46665,"addr:teryt:sym_ul":920321,"contact:phone":"+48 227271229","contact:email":"sekretariat@zsogorakalwaria.pl","contact:website":"http:\/\/www.zsogorakalwaria.pl","ref:regon":"013300717","operator":"Gmina G\u00f3ra Kalwaria","operator:type":"government","amenity":"school","note":"Parent RSPO: 58635"}},{"id":262353,"type":"Feature","geometry":{"type":"Point","coordinates":[21.202459335327,51.981999996338]},"properties":{"isced:level":"1;2","ref:rspo":262353,"official_name":"Szko\u0142a Podstawowa Nr 1","name":"Szko\u0142a Podstawowa Nr 1","addr:country":"PL","addr:postcode":"05-530","addr:city":"G\u00f3ra Kalwaria","addr:street":"ul. Ksi\u0119dza Zygmunta Sajny","addr:housenumber":"16","addr:teryt:simc":46665,"addr:teryt:sym_ul":920321,"contact:phone":"+48 227271229","contact:email":"sekretariat@zsogorakalwaria.pl","contact:website":"http:\/\/sp1.zsogorakalwaria.pl","ref:regon":"367990165","operator":"Gmina G\u00f3ra Kalwaria","operator:type":"government","amenity":"school","note":"Parent RSPO: 58635"}},{"id":114203,"type":"Feature","geometry":{"type":"Point","coordinates":[21.201198577881,51.983337402344]},"properties":{"ref:rspo":114203,"official_name":"I Niepubliczna Szko\u0142a Muzyczna I St. Orfeusz w G\u00f3rze Kalwarii","name":"I Niepubliczna Szko\u0142a Muzyczna I St. Orfeusz w G\u00f3rze Kalwarii","addr:country":"PL","addr:postcode":"05-530","addr:city":"G\u00f3ra Kalwaria","addr:street":"ul. Ksi\u0119dza Zygmunta Sajny","addr:housenumber":"1","addr:teryt:simc":46665,"addr:teryt:sym_ul":920321,"ref:regon":"146646170","operator":"Fundacja Promocji I Edukacji Artystycznej \"Promotus\"","operator:type":"ngo","amenity":"music_school"}},{"id":130167,"type":"Feature","geometry":{"type":"Point","coordinates":[21.21611,51.98429]},"properties":{"ref:rspo":130167,"official_name":"Publiczne Przedszkole ,,Bajkowy Zak\u0105tek''","name":"Publiczne Przedszkole ,,Bajkowy Zak\u0105tek''","addr:country":"PL","addr:postcode":"05-530","addr:city":"G\u00f3ra Kalwaria","addr:street":"ul. Pijarska","addr:housenumber":"23b","addr:teryt:simc":16204,"addr:teryt:sym_ul":920321,"contact:phone":"+48 227500671","contact:email":"bajkowyzakatek@wp.pl","contact:website":"http:\/\/www.bajkowyzakatek.com.pl","ref:regon":"363575660","ref:vatin":"PL1231225840","operator":"\"Bajkowy Zak\u0105tek\" Kubicka, Pietraszek Sp\u00f3\u0142ka Jawna","operator:type":"private","amenity":"kindergarten"}},{"id":68435,"type":"Feature","geometry":{"type":"Point","coordinates":[21.21886,51.98485]},"properties":{"ref:rspo":68435,"official_name":"Przedszkole Samorz\u0105dowe Nr 1 w G\u00f3rze Kalwarii","name":"Przedszkole Samorz\u0105dowe Nr 1 w G\u00f3rze Kalwarii","addr:country":"PL","addr:postcode":"05-530","addr:city":"G\u00f3ra Kalwaria","addr:street":"ul. Ksi\u0119dza Zygmunta Sajny","addr:housenumber":"18","addr:teryt:simc":46665,"addr:teryt:sym_ul":920321,"contact:phone":"+48 227273557","contact:email":"ps1@mgk.pl","contact:website":"http:\/\/www.ps1.eprzedszkole.pl","ref:regon":"013003439","ref:vatin":"PL1230894183","operator":"Gmina G\u00f3ra Kalwaria","operator:type":"government","amenity":"kindergarten"}},{"id":66507,"type":"Feature","geometry":{"type":"Point","coordinates":[21.18815,51.98578]},"properties":{"ref:rspo":66507,"official_name":"Przedszkole Niepubliczne Zuzia w G\u00f3rze Kalwarii","name":"Przedszkole Niepubliczne Zuzia w G\u00f3rze Kalwarii","addr:country":"PL","addr:postcode":"05-530","addr:city":"G\u00f3ra Kalwaria","addr:street":"ul. Rybie","addr:housenumber":"17C","addr:teryt:simc":19169,"addr:teryt:sym_ul":920321,"contact:phone":"+48 227273998","contact:email":"piotr.podgorzak@gmail.com","contact:website":"http:\/\/www.przedszkole-zuzia.pl","ref:regon":"146395933","ref:vatin":"PL1231147206","operator":"Piotr Podg\u00f3rzak","operator:type":"private","amenity":"kindergarten"}},{"id":21222,"type":"Feature","geometry":{"type":"Point","coordinates":[21.196,51.9874]},"properties":{"ref:rspo":21222,"official_name":"Zesp\u00f3\u0142 Szk\u00f3\u0142 Zawodowych im. Marsza\u0142ka Franciszka Bieli\u0144skiego","name":"Zesp\u00f3\u0142 Szk\u00f3\u0142 Zawodowych","addr:country":"PL","addr:postcode":"05-530","addr:city":"G\u00f3ra Kalwaria","addr:street":"ul. Budowlanych","addr:housenumber":"14","addr:teryt:simc":2337,"addr:teryt:sym_ul":920321,"contact:phone":"+48 227273236","contact:email":"sekretariat@zsz-gk.pl","contact:website":"http:\/\/www.zsz-gk.pl","ref:regon":"000197215","ref:vatin":"PL1230035936","operator":"Powiat Piaseczy\u0144ski","operator:type":"government","landuse":"education","fixme":"amenity=school, amenity=college albo landuse=education w zale\u017cno\u015bci od tego, jakie plac\u00f3wki wchodz\u0105 w sk\u0142ad zespo\u0142u. Sprawd\u017a, kiedy stosowa\u0107 amenity=* a kiedy landuse=education.","note":"Children RSPO: 24424;25312;25357;25429"}},{"id":24424,"type":"Feature","geometry":{"type":"Point","coordinates":[21.196,51.98737]},"properties":{"isced:level":"3","ref:rspo":24424,"official_name":"Liceum Og\u00f3lnokszta\u0142c\u0105ce im. Marsza\u0142ka Franciszka Bieli\u0144skiego","name":"Liceum Og\u00f3lnokszta\u0142c\u0105ce","addr:country":"PL","addr:postcode":"05-530","addr:city":"G\u00f3ra Kalwaria","addr:street":"ul. Budowlanych","addr:housenumber":"14","addr:teryt:simc":2337,"addr:teryt:sym_ul":920321,"contact:phone":"+48 227273236","contact:email":"sekretariat@zsz-gk.pl","contact:website":"http:\/\/www.zsz-gk.pl","ref:regon":"142566970","operator":"Powiat Piaseczy\u0144ski","operator:type":"government","amenity":"school","note":"Parent RSPO: 21222"}},{"id":25312,"type":"Feature","geometry":{"type":"Point","coordinates":[21.196,51.98734]},"properties":{"isced:level":"3","ref:rspo":25312,"official_name":"Bran\u017cowa Szko\u0142a I Stopnia Nr 2","name":"Bran\u017cowa Szko\u0142a I Stopnia Nr 2","addr:country":"PL","addr:postcode":"05-530","addr:city":"G\u00f3ra Kalwaria","addr:street":"ul. Budowlanych","addr:housenumber":"14","addr:teryt:simc":2337,"addr:teryt:sym_ul":920321,"contact:phone":"+48 227273236","contact:email":"sekretariat@zsz-gk.pl","contact:website":"http:\/\/www.zsz-gk.pl","ref:regon":"015558265","operator":"Powiat Piaseczy\u0144ski","operator:type":"government","amenity":"school","note":"Parent RSPO: 21222"}},{"id":25357,"type":"Feature","geometry":{"type":"Point","coordinates":[21.196,51.98731]},"properties":{"isced:level":"3","ref:rspo":25357,"official_name":"Technikum Nr 2","name":"Technikum Nr 2","addr:country":"PL","addr:postcode":"05-530","addr:city":"G\u00f3ra Kalwaria","addr:street":"ul. Budowlanych","addr:housenumber":"14","addr:teryt:simc":2337,"addr:teryt:sym_ul":920321,"contact:phone":"+48 227273236","contact:email":"sekretariat@zsz-gk.pl","contact:website":"http:\/\/bielinski.edupage.org\/","ref:regon":"015558070","operator":"Powiat Piaseczy\u0144ski","operator:type":"government","amenity":"school","note":"Parent RSPO: 21222"}},{"id":25429,"type":"Feature","geometry":{"type":"Point","coordinates":[21.196,51.98728]},"properties":{"isced:level":"3","ref:rspo":25429,"official_name":"Liceum Og\u00f3lnokszta\u0142c\u0105ce dla Doros\u0142ych","name":"Liceum Og\u00f3lnokszta\u0142c\u0105ce dla Doros\u0142ych","addr:country":"PL","addr:postcode":"05-530","addr:city":"G\u00f3ra Kalwaria","addr:street":"ul. Budowlanych","addr:housenumber":"14","addr:teryt:simc":2337,"addr:teryt:sym_ul":920321,"contact:phone":"+48 227273236","contact:email":"sekretariat@zsz-gk.pl","contact:website":"http:\/\/www.zsz-gk.pl","ref:regon":"146335606","operator":"Powiat Piaseczy\u0144ski","operator:type":"government","amenity":"school","note":"Parent RSPO: 21222"}},{"id":111650,"type":"Feature","geometry":{"type":"Point","coordinates":[21.19746,51.9879]},"properties":{"ref:rspo":111650,"official_name":"Pszcz\u00f3\u0142ka Przedszkole w G\u00f3rze Kalwarii","name":"Pszcz\u00f3\u0142ka Przedszkole w G\u00f3rze Kalwarii","addr:country":"PL","addr:postcode":"05-530","addr:city":"G\u00f3ra Kalwaria","addr:street":"ul. Fryderyka Chopina","addr:housenumber":"4","addr:teryt:simc":2849,"addr:teryt:sym_ul":920321,"contact:phone":"+48 604777914","contact:email":"pszczolkaprzedszkole@gmail.com","contact:website":"http:\/\/www.przedszkolepszczolka.pl","ref:regon":"146580659","ref:vatin":"PL9511952479","operator":"Matada Sp\u00f3\u0142ka Z Ograniczon\u0105 Odpowiedzialno\u015bci\u0105","operator:type":"private","amenity":"kindergarten"}},{"id":28521,"type":"Feature","geometry":{"type":"Point","coordinates":[21.19983,51.98833]},"properties":{"ref:rspo":28521,"official_name":"Szko\u0142a Ta\u0144ca I Baletu \"Maestro\" w G\u00f3rze Kalwarii","name":"Szko\u0142a Ta\u0144ca I Baletu \"Maestro\" w G\u00f3rze Kalwarii","addr:country":"PL","addr:postcode":"05-530","addr:city":"G\u00f3ra Kalwaria","addr:street":"ul. Pijarska","addr:housenumber":"119","addr:teryt:simc":16204,"addr:teryt:sym_ul":920321,"contact:phone":"+48 602280086","contact:email":"sekretariat@szkolamaestro.art.pl","contact:website":"http:\/\/www.szkolatanca.art.pl","ref:regon":"146342345","ref:vatin":"PL9181315277","operator":"Andrzej Gozdecki","operator:type":"private","fixme":"w zale\u017cno\u015bci od przedmiotu dzia\u0142alno\u015bci (np. amenity=training + training=*, amenity=dancing_school, amenity=language_school, amenity=music_school)"}},{"id":130161,"type":"Feature","geometry":{"type":"Point","coordinates":[21.20902,51.9883499]},"properties":{"ref:rspo":130161,"official_name":"Publiczne Przedszkole ,,Kraina U\u015bmiechu''","name":"Publiczne Przedszkole ,,Kraina U\u015bmiechu''","addr:country":"PL","addr:postcode":"05-530","addr:city":"G\u00f3ra Kalwaria","addr:street":"ul. Stefana Batorego","addr:housenumber":"13","addr:teryt:simc":891,"addr:teryt:sym_ul":920321,"contact:phone":"+48 533550516","contact:email":"krainausmiechu@o2.pl","contact:website":"http:\/\/www.facebook.com\/naszeprzedszkole","ref:regon":"363556160","ref:vatin":"PL1230572953","operator":"Anna Godlewska","operator:type":"private","amenity":"kindergarten"}},{"id":124309,"type":"Feature","geometry":{"type":"Point","coordinates":[21.21411,51.99111]},"properties":{"ref:rspo":124309,"official_name":"Przedszkole Niepubliczne Czarodziejska Planeta","name":"Przedszkole Niepubliczne Czarodziejska Planeta","addr:country":"PL","addr:postcode":"05-530","addr:city":"G\u00f3ra Kalwaria","addr:street":"ul. kard. Stefana Wyszy\u0144skiego","addr:housenumber":"14b","addr:teryt:simc":25107,"addr:teryt:sym_ul":920321,"contact:phone":"+48 504279343","contact:email":"czarodziejskaplaneta@gmail.com","contact:website":"http:\/\/www.czarodziejskaplaneta.pl","ref:regon":"147387048","ref:vatin":"PL1230753778","operator":"Natalia Matusiak","operator:type":"private","amenity":"kindergarten"}},{"id":64798,"type":"Feature","geometry":{"type":"Point","coordinates":[21.21439,51.99351]},"properties":{"ref:rspo":64798,"official_name":"Przedszkole Niepubliczne Zgromadzenia Si\u00f3str S\u0142u\u017cebnic Jezusa w Eucharystii w G\u00f3rze Kalwarii","name":"Przedszkole Niepubliczne Zgromadzenia Si\u00f3str S\u0142u\u017cebnic Jezusa w Eucharystii w G\u00f3rze Kalwarii","addr:country":"PL","addr:postcode":"05-530","addr:city":"G\u00f3ra Kalwaria","addr:street":"ul. kard. Stefana Wyszy\u0144skiego","addr:housenumber":"24A","addr:teryt:simc":25107,"addr:teryt:sym_ul":920321,"contact:phone":"+48 227273334","contact:email":"mariatluczek@wp.pl","ref:regon":"146432284","ref:vatin":"PL1230834175","operator":"Zg.ss.s\u0142u\u017cebnic Jezusa W Eucharystii,Dom Generalny","operator:type":"religious","amenity":"kindergarten"}},{"id":64554,"type":"Feature","geometry":{"type":"Point","coordinates":[21.1011576,51.9936796]},"properties":{"isced:level":"1;2","ref:rspo":64554,"official_name":"Szko\u0142a Podstawowa im. Kardyna\u0142a Stefana Wyszy\u0144skiego w Dobieszu","name":"Szko\u0142a Podstawowa","addr:country":"PL","addr:postcode":"05-530","addr:city":"Dobiesz","addr:street":"ul. Wolska","addr:housenumber":"36","addr:teryt:simc":24694,"addr:teryt:sym_ul":1726,"contact:phone":"+48 227268993","contact:email":"sekretariat@spdobiesz.com.pl","contact:website":"http:\/\/www.spdobiesz.edupage.org","ref:regon":"000799859","ref:vatin":"PL1230894237","operator":"Gmina G\u00f3ra Kalwaria","operator:type":"government","amenity":"school"}},{"id":66206,"type":"Feature","geometry":{"type":"Point","coordinates":[21.12514,52.02248]},"properties":{"ref:rspo":66206,"official_name":"Przedszkole Samorz\u0105dowe w Baniosze","name":"Przedszkole Samorz\u0105dowe w Baniosze","addr:country":"PL","addr:postcode":"05-532","addr:city":"Baniocha","addr:street":"ul. Ko\u015bcielna","addr:housenumber":"1","addr:teryt:simc":9546,"addr:teryt:sym_ul":1519,"contact:phone":"+48 227275589","contact:email":"sekretariat@przedszkolewbaniosze.pl","contact:website":"http:\/\/www.przedszkolebaniosze.szkolnastrona.pl","ref:regon":"013003480","ref:vatin":"PL1230894177","operator":"Gmina G\u00f3ra Kalwaria","operator:type":"government","amenity":"kindergarten"}},{"id":57874,"type":"Feature","geometry":{"type":"Point","coordinates":[21.1200384,52.0227013]},"properties":{"isced:level":"1;2","ref:rspo":57874,"official_name":"Szko\u0142a Podstawowa w Baniosze","name":"Szko\u0142a Podstawowa w Baniosze","addr:country":"PL","addr:postcode":"05-532","addr:city":"Baniocha","addr:street":"ul. Szkolna","addr:housenumber":"1","addr:teryt:simc":21970,"addr:teryt:sym_ul":1519,"contact:phone":"+48 227275518","contact:email":"sekretariat@spbaniocha.pl","contact:website":"http:\/\/www.spbaniocha.pl","ref:regon":"000799894","operator":"Gmina G\u00f3ra Kalwaria","operator:type":"government","amenity":"school"}},{"id":57320,"type":"Feature","geometry":{"type":"Point","coordinates":[21.184285,52.0294529]},"properties":{"isced:level":"1;2","ref:rspo":57320,"official_name":"Szko\u0142a Podstawowa im.or\u0142a Bia\u0142ego w Brze\u015bcach","name":"Szko\u0142a Podstawowa im.or\u0142a Bia\u0142ego w Brze\u015bcach","addr:country":"PL","addr:postcode":"05-507","addr:city":"Brze\u015bce","addr:street":"ul. Wilanowska","addr:housenumber":"55","addr:teryt:simc":24259,"addr:teryt:sym_ul":1531,"contact:phone":"+48 227273027","contact:email":"sekretariat@spbrzesce.eu","contact:website":"http:\/\/spbrzesce.szkolnastrona.pl","ref:regon":"000799902","operator":"Gmina G\u00f3ra Kalwaria","operator:type":"government","amenity":"school"}},{"id":125227,"type":"Feature","geometry":{"type":"Point","coordinates":[21.1793319,52.0336018]},"properties":{"ref:rspo":125227,"official_name":"Przedszkole Niepubliczne ,,Zielony Domek''","name":"Przedszkole Niepubliczne ,,Zielony Domek''","addr:country":"PL","addr:postcode":"05-507","addr:city":"Brze\u015bce","addr:street":"ul. Wilanowska","addr:housenumber":"91a","addr:teryt:simc":24259,"addr:teryt:sym_ul":1531,"contact:phone":"+48 784320950","contact:email":"kontakt@zielonydomek.edu.pl","contact:website":"http:\/\/www.zielonydomek.edu.pl","ref:regon":"147433073","operator":"Monika \u017buber","operator:type":"private","amenity":"kindergarten"}},{"id":41880,"type":"Feature","geometry":{"type":"Point","coordinates":[21.0274119,52.0753599]},"properties":{"ref:rspo":41880,"official_name":"Zesp\u00f3\u0142 Szkolno-Przedszkolny w K\u0105tach","name":"Zesp\u00f3\u0142 Szkolno-Przedszkolny w K\u0105tach","addr:country":"PL","addr:postcode":"05-532","addr:city":"K\u0105ty","addr:street":"ul. Pu\u0142awska","addr:housenumber":"4","addr:teryt:simc":18102,"addr:teryt:sym_ul":1778,"contact:phone":"+48 227273026","contact:email":"sp_katy@poczta.fm","contact:website":"http:\/\/www.zspkaty.szkolnastrona.pl","ref:regon":"144689234","ref:vatin":"PL1231261304","operator":"Gmina G\u00f3ra Kalwaria","operator:type":"government","landuse":"education","fixme":"amenity=school, amenity=college albo landuse=education w zale\u017cno\u015bci od tego, jakie plac\u00f3wki wchodz\u0105 w sk\u0142ad zespo\u0142u. Sprawd\u017a, kiedy stosowa\u0107 amenity=* a kiedy landuse=education.","note":"Children RSPO: 60542;61348"}},{"id":60542,"type":"Feature","geometry":{"type":"Point","coordinates":[21.0274119,52.0753299]},"properties":{"isced:level":"1;2","ref:rspo":60542,"official_name":"Szko\u0142a Podstawowa im. B\u0142ogos\u0142awionego Ojca Stanis\u0142awa Papczy\u0144skiego w K\u0105tach","name":"Szko\u0142a Podstawowa","addr:country":"PL","addr:postcode":"05-532","addr:city":"K\u0105ty","addr:street":"ul. Pu\u0142awska","addr:housenumber":"4","addr:teryt:simc":18102,"addr:teryt:sym_ul":1778,"contact:phone":"+48 227273026","contact:email":"sp_katy@poczta.fm","ref:regon":"016285987","operator":"Gmina G\u00f3ra Kalwaria","operator:type":"government","amenity":"school","note":"Parent RSPO: 41880"}},{"id":61348,"type":"Feature","geometry":{"type":"Point","coordinates":[21.0274119,52.075299900000005]},"properties":{"ref:rspo":61348,"official_name":"Przedszkole w K\u0105tach","name":"Przedszkole w K\u0105tach","addr:country":"PL","addr:postcode":"05-532","addr:city":"K\u0105ty","addr:street":"ul. Pu\u0142awska","addr:housenumber":"4","addr:teryt:simc":18102,"addr:teryt:sym_ul":1778,"contact:phone":"+48 227273026","contact:email":"sp_katy@poczta.fm","ref:regon":"144689613","operator":"Gmina G\u00f3ra Kalwaria","operator:type":"government","amenity":"kindergarten","note":"Parent RSPO: 41880"}}]}