{
    "type": "FeatureCollection",
    "features": [
        {
            "id": 84158,
            "type": "Feature",
            "geometry": {
                "type": "Point",
                "coordinates": [
                    21.21905,
                    51.9602
                ]
            },
            "properties": {
                "ref:rspo": 84158,
                "official_name": "Centrum Mikropigmentacji Agnieszka Zapa\u0142a",
                "name": "Centrum Mikropigmentacji Agnieszka Zapa\u0142a",
                "addr:postcode": "05-509",
                "addr:city": "Julian\u00f3w",
                "addr:street": "Przytulna",
                "addr:housenumber": "1",
                "addr:city:simc": 6379,
                "addr:street:sym_ul": 18010,
                "phone": "+48 225065016",
                "email": "ksiegowosc@centrummike.pl",
                "website": "http:\/\/www.naturalnypermanentny.pl",
                "ref:regon": "146422280",
                "ref:vatin": "PL6631675851",
                "operator": "Agnieszka Zapa\u0142a",
                "operator:type": "private",
                "fixme": "w zale\u017cno\u015bci od przedmiotu dzia\u0142alno\u015bci (np. amenity=training + training=*, amenity=dancing_school, amenity=language_school, amenity=music_school)"
            }
        },
        {
            "id": 266067,
            "type": "Feature",
            "geometry": {
                "type": "Point",
                "coordinates": [
                    21.21905,
                    51.96017
                ]
            },
            "properties": {
                "ref:rspo": 266067,
                "official_name": "Centrum Mikropigmentacji Zapa\u0142a Dariusz Kasprzyk",
                "name": "Centrum Mikropigmentacji Zapa\u0142a Dariusz Kasprzyk",
                "addr:postcode": "05-509",
                "addr:city": "Julian\u00f3w",
                "addr:street": "Przytulna",
                "addr:housenumber": "1",
                "addr:city:simc": 6379,
                "addr:street:sym_ul": 18010,
                "phone": "+48 225065016",
                "email": "ksiegowosc@centrummike.pl",
                "ref:regon": "369216790",
                "ref:vatin": "PL5381289766",
                "operator": "Dariusz Kasprzyk",
                "operator:type": "private",
                "fixme": "w zale\u017cno\u015bci od przedmiotu dzia\u0142alno\u015bci (np. amenity=training + training=*, amenity=dancing_school, amenity=language_school, amenity=music_school)"
            }
        },
        {
            "id": 105971,
            "type": "Feature",
            "geometry": {
                "type": "Point",
                "coordinates": [
                    20.90318,
                    52.00139
                ]
            },
            "properties": {
                "ref:rspo": 105971,
                "official_name": "Przedszkole Niepubliczne \u015awiat Montessori",
                "name": "Przedszkole Niepubliczne \u015awiat Montessori",
                "addr:postcode": "05-504",
                "addr:city": "Z\u0142otok\u0142os",
                "addr:street": "Stanis\u0142awa Staszica",
                "addr:housenumber": "11",
                "addr:city:simc": 6652,
                "addr:street:sym_ul": 21065,
                "phone": "+48 509723815",
                "email": "przedszkole@swiatmontessori.pl",
                "ref:regon": "146490005",
                "ref:vatin": "PL1180379489",
                "operator": "Izabela Borowiecka",
                "operator:type": "private",
                "amenity": "kindergarten"
            }
        },
        {
            "id": 126348,
            "type": "Feature",
            "geometry": {
                "type": "Point",
                "coordinates": [
                    20.9025,
                    52.0018
                ]
            },
            "properties": {
                "ref:rspo": 126348,
                "official_name": "Publiczne Przedszkole Abc w Z\u0142otok\u0142osie",
                "name": "Publiczne Przedszkole Abc w Z\u0142otok\u0142osie",
                "addr:postcode": "05-504",
                "addr:city": "Z\u0142otok\u0142os",
                "addr:street": "Stanis\u0142awa Staszica",
                "addr:housenumber": "12",
                "addr:city:simc": 6652,
                "addr:street:sym_ul": 21065,
                "phone": "+48 504238314",
                "email": "d.celejewska@vp.pl",
                "website": "http:\/\/www.przedszkoleabc-zlotoklos.pl",
                "ref:regon": "360256670",
                "ref:vatin": "PL1230157591",
                "operator": "Daria Celejewska",
                "operator:type": "private",
                "amenity": "kindergarten"
            }
        },
        {
            "id": 85526,
            "type": "Feature",
            "geometry": {
                "type": "Point",
                "coordinates": [
                    20.9113742,
                    52.010995
                ]
            },
            "properties": {
                "isced:level": "1;2",
                "ref:rspo": 85526,
                "official_name": "Szko\u0142a Podstawowa w Z\u0142otok\u0142osie",
                "name": "Szko\u0142a Podstawowa w Z\u0142otok\u0142osie",
                "addr:postcode": "05-504",
                "addr:city": "Z\u0142otok\u0142os",
                "addr:street": "Romualda Traugutta",
                "addr:housenumber": "10",
                "addr:city:simc": 6652,
                "addr:street:sym_ul": 22961,
                "phone": "+48 227269260",
                "email": "szkola@zlotoklos.szkola.pl",
                "website": "http:\/\/www.zlotoklos.szkola.pl",
                "ref:regon": "000799724",
                "ref:vatin": "PL1230899358",
                "operator": "Gmina Piaseczno",
                "operator:type": "government",
                "amenity": "school"
            }
        },
        {
            "id": 113464,
            "type": "Feature",
            "geometry": {
                "type": "Point",
                "coordinates": [
                    20.9113742,
                    52.010965
                ]
            },
            "properties": {
                "ref:rspo": 113464,
                "official_name": "Szko\u0142a Ta\u0144ca I Baletu \"Maestro\" w Z\u0142otok\u0142osie",
                "name": "Szko\u0142a Ta\u0144ca I Baletu \"Maestro\" w Z\u0142otok\u0142osie",
                "addr:postcode": "05-504",
                "addr:city": "Z\u0142otok\u0142os",
                "addr:street": "Romualda Traugutta",
                "addr:housenumber": "10",
                "addr:city:simc": 6652,
                "addr:street:sym_ul": 22961,
                "phone": "+48 602280086",
                "email": "sekretariat@szkolamaestro.art.pl",
                "website": "http:\/\/www.szkolatanca.art.pl",
                "ref:regon": "146620318",
                "ref:vatin": "PL9181315277",
                "operator": "Andrzej Gozdecki",
                "operator:type": "private",
                "fixme": "w zale\u017cno\u015bci od przedmiotu dzia\u0142alno\u015bci (np. amenity=training + training=*, amenity=dancing_school, amenity=language_school, amenity=music_school)"
            }
        },
        {
            "id": 23169,
            "type": "Feature",
            "geometry": {
                "type": "Point",
                "coordinates": [
                    21.00604,
                    52.0203599
                ]
            },
            "properties": {
                "ref:rspo": 23169,
                "official_name": "Zesp\u00f3\u0142 Szk\u00f3\u0142 Specjalnych",
                "name": "Zesp\u00f3\u0142 Szk\u00f3\u0142 Specjalnych",
                "addr:postcode": "05-502",
                "addr:city": "P\u0119chery",
                "addr:street": "Boles\u0142awa Chrobrego",
                "addr:housenumber": "83",
                "addr:city:simc": 6445,
                "addr:street:sym_ul": 1742,
                "phone": "+48 227562565",
                "email": "sekretariat@zsspechery.pl",
                "website": "https:\/\/szkolalbiska.edupage.org\/",
                "ref:regon": "016185719",
                "ref:vatin": "PL1230882240",
                "operator": "Powiat Piaseczy\u0144ski",
                "operator:type": "government",
                "landuse": "education",
                "fixme": "amenity=school, amenity=college albo landuse=education w zale\u017cno\u015bci od tego, jakie plac\u00f3wki wchodz\u0105 w sk\u0142ad zespo\u0142u. Sprawd\u017a, kiedy stosowa\u0107 amenity=* a kiedy landuse=education.",
                "note": "Children RSPO: 26234;26298"
            }
        },
        {
            "id": 26234,
            "type": "Feature",
            "geometry": {
                "type": "Point",
                "coordinates": [
                    21.00604,
                    52.0203299
                ]
            },
            "properties": {
                "isced:level": "1;2",
                "ref:rspo": 26234,
                "official_name": "Szko\u0142a Podstawowa Specjalna",
                "name": "Szko\u0142a Podstawowa Specjalna",
                "addr:postcode": "05-502",
                "addr:city": "P\u0119chery",
                "addr:street": "Boles\u0142awa Chrobrego",
                "addr:housenumber": "83",
                "addr:city:simc": 6445,
                "addr:street:sym_ul": 1742,
                "phone": "+48 227562565",
                "email": "sekretariat@zsspechery.pl",
                "website": "https:\/\/szkolalbiska.edupage.org\/",
                "ref:regon": "016185607",
                "operator": "Powiat Piaseczy\u0144ski",
                "operator:type": "government",
                "amenity": "school",
                "note": "Parent RSPO: 23169"
            }
        },
        {
            "id": 26298,
            "type": "Feature",
            "geometry": {
                "type": "Point",
                "coordinates": [
                    21.00604,
                    52.020299900000005
                ]
            },
            "properties": {
                "ref:rspo": 26298,
                "official_name": "Szko\u0142a Przysposabiaj\u0105ca Do Pracy",
                "name": "Szko\u0142a Przysposabiaj\u0105ca Do Pracy",
                "addr:postcode": "05-502",
                "addr:city": "P\u0119chery",
                "addr:street": "Boles\u0142awa Chrobrego",
                "addr:housenumber": "83",
                "addr:city:simc": 6445,
                "addr:street:sym_ul": 1742,
                "phone": "+48 227562565",
                "email": "sekretariat@zsspechery.pl",
                "website": "https:\/\/szkolalbiska.edupage.org\/",
                "ref:regon": "015823767",
                "operator": "Powiat Piaseczy\u0144ski",
                "operator:type": "government",
                "amenity": "school",
                "note": "Parent RSPO: 23169"
            }
        },
        {
            "id": 81665,
            "type": "Feature",
            "geometry": {
                "type": "Point",
                "coordinates": [
                    21.03985,
                    52.0253299
                ]
            },
            "properties": {
                "ref:rspo": 81665,
                "official_name": "Przedszkole Hula-Hop",
                "name": "Przedszkole Hula-Hop",
                "addr:postcode": "05-540",
                "addr:city": "Zalesie G\u00f3rne",
                "addr:street": "Sarenki",
                "addr:housenumber": "2",
                "addr:city:simc": 6617,
                "addr:street:sym_ul": 19528,
                "phone": "+48 227578608",
                "email": "przedszkole@hula-hop.pl",
                "ref:regon": "146422707",
                "ref:vatin": "PL5251619389",
                "operator": "Iwona Wi\u015bniewska",
                "operator:type": "private",
                "amenity": "kindergarten"
            }
        },
        {
            "id": 28175,
            "type": "Feature",
            "geometry": {
                "type": "Point",
                "coordinates": [
                    21.03325,
                    52.02537
                ]
            },
            "properties": {
                "ref:rspo": 28175,
                "official_name": "Szko\u0142a Ta\u0144ca I Baletu \"Maestro\" w Zalesiu G\u00f3rnym",
                "name": "Szko\u0142a Ta\u0144ca I Baletu \"Maestro\" w Zalesiu G\u00f3rnym",
                "addr:postcode": "05-540",
                "addr:city": "Zalesie G\u00f3rne",
                "addr:street": "Sarenki",
                "addr:housenumber": "20",
                "addr:city:simc": 6617,
                "addr:street:sym_ul": 19528,
                "phone": "+48 602280086",
                "email": "sekretariat@szkolamaestro.art.pl",
                "website": "http:\/\/www.szkolatanca.art.pl",
                "ref:regon": "146348313",
                "ref:vatin": "PL9181315277",
                "operator": "Andrzej Gozdecki",
                "operator:type": "private",
                "fixme": "w zale\u017cno\u015bci od przedmiotu dzia\u0142alno\u015bci (np. amenity=training + training=*, amenity=dancing_school, amenity=language_school, amenity=music_school)"
            }
        },
        {
            "id": 83973,
            "type": "Feature",
            "geometry": {
                "type": "Point",
                "coordinates": [
                    21.03325,
                    52.02534
                ]
            },
            "properties": {
                "isced:level": "1;2",
                "ref:rspo": 83973,
                "official_name": "Szko\u0142a Podstawowa im. Wsp\u00f3lnej Europy w Zalesiu G\u00f3rnym",
                "name": "Szko\u0142a Podstawowa",
                "addr:postcode": "05-540",
                "addr:city": "Zalesie G\u00f3rne",
                "addr:street": "Sarenki",
                "addr:housenumber": "20",
                "addr:city:simc": 6617,
                "addr:street:sym_ul": 19528,
                "phone": "+48 227565217",
                "email": "sekretariat@spzalesiegorne.pl",
                "website": "http:\/\/www.spzalesiegorne.pl",
                "ref:regon": "000799718",
                "ref:vatin": "PL1230900311",
                "operator": "Gmina Piaseczno",
                "operator:type": "government",
                "amenity": "school"
            }
        },
        {
            "id": 111175,
            "type": "Feature",
            "geometry": {
                "type": "Point",
                "coordinates": [
                    21.03325,
                    52.025310000000005
                ]
            },
            "properties": {
                "ref:rspo": 111175,
                "official_name": "Szko\u0142a Muzyczna I St. Maestro w Zalesiu G\u00f3rnym",
                "name": "Szko\u0142a Muzyczna I St. Maestro w Zalesiu G\u00f3rnym",
                "addr:postcode": "05-540",
                "addr:city": "Zalesie G\u00f3rne",
                "addr:street": "Sarenki",
                "addr:housenumber": "20",
                "addr:city:simc": 6617,
                "addr:street:sym_ul": 19528,
                "website": "http:\/\/www.szkolamuzyczna.art.pl",
                "ref:regon": "146568813",
                "operator": "Andrzej Gozdecki",
                "operator:type": "private",
                "amenity": "music_school"
            }
        },
        {
            "id": 125673,
            "type": "Feature",
            "geometry": {
                "type": "Point",
                "coordinates": [
                    21.03325,
                    52.02528
                ]
            },
            "properties": {
                "ref:rspo": 125673,
                "official_name": "Lingua Study Center\/Lsc-Szko\u0142a J\u0119zykowa",
                "name": "Lingua Study Center\/Lsc-Szko\u0142a J\u0119zykowa",
                "addr:postcode": "05-540",
                "addr:city": "Zalesie G\u00f3rne",
                "addr:street": "Sarenki",
                "addr:housenumber": "20",
                "addr:city:simc": 6617,
                "addr:street:sym_ul": 19528,
                "phone": "+48 227565337",
                "email": "biuro@linguastudycenter.com.pl",
                "ref:regon": "147465239",
                "operator": "Monika Bashford",
                "operator:type": "private",
                "fixme": "w zale\u017cno\u015bci od przedmiotu dzia\u0142alno\u015bci (np. amenity=training + training=*, amenity=dancing_school, amenity=language_school, amenity=music_school)"
            }
        },
        {
            "id": 81790,
            "type": "Feature",
            "geometry": {
                "type": "Point",
                "coordinates": [
                    21.03693,
                    52.02987
                ]
            },
            "properties": {
                "ref:rspo": 81790,
                "official_name": "Przedszkole Nr 7 w Zalesiu G\u00f3rnym",
                "name": "Przedszkole Nr 7 w Zalesiu G\u00f3rnym",
                "addr:postcode": "05-540",
                "addr:city": "Zalesie G\u00f3rne",
                "addr:street": "M\u0142odych Wilcz\u0105t",
                "addr:housenumber": "7",
                "addr:city:simc": 6617,
                "addr:street:sym_ul": 13091,
                "phone": "+48 227266550",
                "email": "kontakt@zalesiolandia.pl",
                "ref:regon": "013006320",
                "ref:vatin": "PL1230899157",
                "operator": "Gmina Piaseczno",
                "operator:type": "government",
                "amenity": "kindergarten"
            }
        },
        {
            "id": 124857,
            "type": "Feature",
            "geometry": {
                "type": "Point",
                "coordinates": [
                    21.01851,
                    52.0305899
                ]
            },
            "properties": {
                "isced:level": "1;2",
                "ref:rspo": 124857,
                "official_name": "Prywatna Szko\u0142a Podstawowa Eureka im.hypatii Z Aleksandrii",
                "name": "Prywatna Szko\u0142a Podstawowa Eureka im.hypatii Z Aleksandrii",
                "addr:postcode": "05-540",
                "addr:city": "Zalesie G\u00f3rne",
                "addr:street": "Przebudzenia Wiosny",
                "addr:housenumber": "32",
                "addr:city:simc": 6617,
                "addr:street:sym_ul": 17632,
                "phone": "+48 576958207",
                "email": "sekretariat@szkola-eureka.edu.pl",
                "ref:regon": "147408709",
                "operator": "\"Eureka-Tw\u00f3rcza Edukacja\" Sp\u00f3\u0142ka Z Ograniczon\u0105 Odpowiedzialno\u015bci\u0105",
                "operator:type": "consortium",
                "amenity": "school"
            }
        },
        {
            "id": 126502,
            "type": "Feature",
            "geometry": {
                "type": "Point",
                "coordinates": [
                    21.02984,
                    52.03065
                ]
            },
            "properties": {
                "ref:rspo": 126502,
                "official_name": "Przedszkole Publiczne Zegar S\u0142oneczny",
                "name": "Przedszkole Publiczne Zegar S\u0142oneczny",
                "addr:postcode": "05-540",
                "addr:city": "Zalesie G\u00f3rne",
                "addr:street": "Poranku",
                "addr:housenumber": "5",
                "addr:city:simc": 6617,
                "addr:street:sym_ul": 17190,
                "phone": "+48 227565916",
                "email": "kontakt@zegarsloneczny.pl",
                "ref:regon": "360386590",
                "operator": "Zegar S\u0142oneczny Sp\u00f3\u0142ka Z Ograniczon\u0105 Odpowiedzialno\u015bci\u0105",
                "operator:type": "private",
                "amenity": "kindergarten"
            }
        },
        {
            "id": 91836,
            "type": "Feature",
            "geometry": {
                "type": "Point",
                "coordinates": [
                    20.9174599,
                    52.0315
                ]
            },
            "properties": {
                "ref:rspo": 91836,
                "official_name": "Niepubliczne Przedszkole U \u017bwirka Z Oddzia\u0142ami Integracyjnymi",
                "name": "Niepubliczne Przedszkole U \u017bwirka Z Oddzia\u0142ami Integracyjnymi",
                "addr:postcode": "05-503",
                "addr:city": "Baszk\u00f3wka",
                "addr:street": "Sadowa",
                "addr:housenumber": "14B",
                "addr:city:simc": 6161,
                "addr:street:sym_ul": 19404,
                "phone": "+48 604954772",
                "email": "info@przedszkoleuzwirka.pl",
                "ref:regon": "146432485",
                "ref:vatin": "PL1230210440",
                "operator": "Agnieszka Zawi\u015blak",
                "operator:type": "private",
                "amenity": "kindergarten"
            }
        },
        {
            "id": 118807,
            "type": "Feature",
            "geometry": {
                "type": "Point",
                "coordinates": [
                    20.9652299,
                    52.03731
                ]
            },
            "properties": {
                "ref:rspo": 118807,
                "official_name": "Przedszkole Niepubliczne Weso\u0142y Tygrysek",
                "name": "Przedszkole Niepubliczne Weso\u0142y Tygrysek",
                "addr:postcode": "05-500",
                "addr:city": "Piaseczno",
                "addr:street": "Zielona",
                "addr:housenumber": "16",
                "addr:city:simc": 921438,
                "addr:street:sym_ul": 26081,
                "phone": "+48 692376594",
                "email": "kontakt@wesoly-tygrysek.pl",
                "ref:regon": "146831587",
                "ref:vatin": "PL5261670877",
                "operator": "Albena Mirowska",
                "operator:type": "private",
                "amenity": "kindergarten"
            }
        },
        {
            "id": 81660,
            "type": "Feature",
            "geometry": {
                "type": "Point",
                "coordinates": [
                    20.94303,
                    52.03734
                ]
            },
            "properties": {
                "isced:level": "1;2",
                "ref:rspo": 81660,
                "official_name": "Szko\u0142a Podstawowa im.tadeusza Ko\u015bciuszki w G\u0142oskowie",
                "name": "Szko\u0142a Podstawowa im.tadeusza Ko\u015bciuszki w G\u0142oskowie",
                "addr:postcode": "05-503",
                "addr:city": "G\u0142osk\u00f3w",
                "addr:street": "Millenium",
                "addr:housenumber": "76",
                "addr:city:simc": 6250,
                "addr:street:sym_ul": 12940,
                "phone": "+48 227578195",
                "email": "spgloskow@poczta.onet.pl",
                "website": "http:\/\/www.spgloskow.waw.pl",
                "ref:regon": "000799693",
                "ref:vatin": "PL1230899364",
                "operator": "Gmina Piaseczno",
                "operator:type": "government",
                "amenity": "school"
            }
        },
        {
            "id": 85420,
            "type": "Feature",
            "geometry": {
                "type": "Point",
                "coordinates": [
                    20.99574,
                    52.03741
                ]
            },
            "properties": {
                "isced:level": "1;2",
                "ref:rspo": 85420,
                "official_name": "Szko\u0142a Podstawowa im.ksi\u0119dza Kardyna\u0142a Stefana Wyszy\u0144skiego Prymasa Tysi\u0105clecia w Jazgarzewie",
                "name": "Szko\u0142a Podstawowa im.ksi\u0119dza Kardyna\u0142a Stefana Wyszy\u0144skiego Prymasa Tysi\u0105clecia w Jazgarzewie",
                "addr:postcode": "05-500",
                "addr:city": "Jazgarzew",
                "addr:street": "Szkolna",
                "addr:housenumber": "10",
                "addr:city:simc": 6340,
                "addr:street:sym_ul": 21970,
                "phone": "+48 227567251",
                "email": "zsp.jazgarzew@op.pl",
                "ref:regon": "000799701",
                "ref:vatin": "PL1230899542",
                "operator": "Gmina Piaseczno",
                "operator:type": "government",
                "amenity": "school"
            }
        },
        {
            "id": 73167,
            "type": "Feature",
            "geometry": {
                "type": "Point",
                "coordinates": [
                    20.9655099,
                    52.03777
                ]
            },
            "properties": {
                "isced:level": "1;2",
                "ref:rspo": 73167,
                "official_name": "Prywatna Szko\u0142a Podstawowa Nr 72 Szko\u0142a Marze\u0144",
                "name": "Prywatna Szko\u0142a Podstawowa Nr 72 Szko\u0142a Marze\u0144",
                "addr:postcode": "05-500",
                "addr:city": "Piaseczno",
                "addr:street": "Zielona",
                "addr:housenumber": "14",
                "addr:city:simc": 921438,
                "addr:street:sym_ul": 26081,
                "phone": "+48 227572899",
                "email": "sekretariat@szkolamarzen.pl",
                "website": "http:\/\/www.szkolamarzen.pl",
                "ref:regon": "146401770",
                "ref:vatin": "PL7010106761",
                "operator": "Sapientia Sp\u00f3\u0142ka Z Ograniczon\u0105 Odpowiedzialno\u015bci\u0105",
                "operator:type": "private",
                "amenity": "school"
            }
        },
        {
            "id": 123596,
            "type": "Feature",
            "geometry": {
                "type": "Point",
                "coordinates": [
                    20.9655099,
                    52.03774
                ]
            },
            "properties": {
                "ref:rspo": 123596,
                "official_name": "Niepubliczna Szko\u0142a Muzyczna I St. Szko\u0142a Marze\u0144 w Piasecznie",
                "name": "Niepubliczna Szko\u0142a Muzyczna I St. Szko\u0142a Marze\u0144 w Piasecznie",
                "addr:postcode": "05-500",
                "addr:city": "Piaseczno",
                "addr:street": "Zielona",
                "addr:housenumber": "14",
                "addr:city:simc": 921438,
                "addr:street:sym_ul": 26081,
                "phone": "+48 227572899",
                "email": "sekretariat@szkolamarzen.pl",
                "website": "http:\/\/szkolamarzen.pl",
                "ref:regon": "147330769",
                "operator": "Sapientia Sp\u00f3\u0142ka Z Ograniczon\u0105 Odpowiedzialno\u015bci\u0105",
                "operator:type": "private",
                "amenity": "music_school"
            }
        },
        {
            "id": 270662,
            "type": "Feature",
            "geometry": {
                "type": "Point",
                "coordinates": [
                    20.9655099,
                    52.037710000000004
                ]
            },
            "properties": {
                "isced:level": "3",
                "ref:rspo": 270662,
                "official_name": "Prywatne Akademickie Liceum Og\u00f3lnokszta\u0142c\u0105ce w Piasecznie",
                "name": "Prywatne Akademickie Liceum Og\u00f3lnokszta\u0142c\u0105ce w Piasecznie",
                "addr:postcode": "05-500",
                "addr:city": "Piaseczno",
                "addr:street": "Zielona",
                "addr:housenumber": "14",
                "addr:city:simc": 921438,
                "addr:street:sym_ul": 26081,
                "phone": "+48 227572899",
                "email": "sekretariat@szkolamarzen.pl",
                "website": "http:\/\/www.szkolamarzen.pl",
                "ref:regon": "382850478",
                "operator": "Sapientia Sp\u00f3\u0142ka Z Ograniczon\u0105 Odpowiedzialno\u015bci\u0105",
                "operator:type": "private",
                "amenity": "school"
            }
        },
        {
            "id": 81751,
            "type": "Feature",
            "geometry": {
                "type": "Point",
                "coordinates": [
                    20.95616,
                    52.03813
                ]
            },
            "properties": {
                "ref:rspo": 81751,
                "official_name": "Przedszkole Nr 6 w G\u0142oskowie",
                "name": "Przedszkole Nr 6 w G\u0142oskowie",
                "addr:postcode": "05-503",
                "addr:city": "G\u0142osk\u00f3w-Letnisko",
                "addr:street": "Parkowa",
                "addr:housenumber": "8",
                "addr:city:simc": 6280,
                "addr:street:sym_ul": 15710,
                "phone": "+48 227578182",
                "email": "przedszkole-gloskow@wp.pl",
                "ref:regon": "013006314",
                "ref:vatin": "PL1230899140",
                "operator": "Gmina Piaseczno",
                "operator:type": "government",
                "amenity": "kindergarten"
            }
        },
        {
            "id": 269982,
            "type": "Feature",
            "geometry": {
                "type": "Point",
                "coordinates": [
                    21.00829,
                    52.03992
                ]
            },
            "properties": {
                "ref:rspo": 269982,
                "official_name": "Niepubliczny Punkt Przedszkolny \"Ba\u015bniowy Zameczek\"",
                "name": "Niepubliczny Punkt Przedszkolny \"Ba\u015bniowy Zameczek\"",
                "addr:postcode": "05-502",
                "addr:city": "W\u00f3lka Kozodawska",
                "addr:street": "\u0179r\u00f3dlana",
                "addr:housenumber": "28",
                "addr:city:simc": 6557,
                "addr:street:sym_ul": 26359,
                "phone": "+48 694451564",
                "email": "piotr.trzaska@interia.pl",
                "ref:regon": "381936999",
                "operator": "Piotr Trzaska",
                "operator:type": "private",
                "amenity": "kindergarten"
            }
        },
        {
            "id": 126500,
            "type": "Feature",
            "geometry": {
                "type": "Point",
                "coordinates": [
                    20.98845,
                    52.0491699
                ]
            },
            "properties": {
                "ref:rspo": 126500,
                "official_name": "Przedszkole Publiczne \"Klub Misia Bo\"",
                "name": "Przedszkole Publiczne \"Klub Misia Bo\"",
                "addr:postcode": "05-502",
                "addr:city": "Piaseczno",
                "addr:street": "Go\u0142kowska",
                "addr:housenumber": "2",
                "addr:city:simc": 921438,
                "addr:street:sym_ul": 5775,
                "phone": "+48 603911898",
                "email": "klub@klub-misia-bo.pl",
                "website": "http:\/\/klub-misia-bo.pl",
                "ref:regon": "360386420",
                "operator": "Joanna Macenowicz",
                "operator:type": "private",
                "amenity": "kindergarten"
            }
        },
        {
            "id": 276475,
            "type": "Feature",
            "geometry": {
                "type": "Point",
                "coordinates": [
                    20.933274,
                    52.0495592
                ]
            },
            "properties": {
                "ref:rspo": 276475,
                "official_name": "Przedszkole Forrest",
                "name": "Przedszkole Forrest",
                "addr:postcode": "05-503",
                "addr:city": "Wola Go\u0142kowska",
                "addr:street": "Piesza",
                "addr:housenumber": "22",
                "addr:city:simc": 6540,
                "addr:street:sym_ul": 16164,
                "phone": "+48 692623327",
                "email": "przedszkole.forrest@gmail.com",
                "ref:regon": "387157635",
                "operator": "Magdalena Malinowska",
                "operator:type": "private",
                "amenity": "kindergarten"
            }
        },
        {
            "id": 124197,
            "type": "Feature",
            "geometry": {
                "type": "Point",
                "coordinates": [
                    21.00006,
                    52.05182
                ]
            },
            "properties": {
                "ref:rspo": 124197,
                "official_name": "Przedszkole Niepubliczne Delfinek",
                "name": "Przedszkole Niepubliczne Delfinek",
                "addr:postcode": "05-501",
                "addr:city": "Piaseczno",
                "addr:street": "Pod Bateriami",
                "addr:housenumber": "43",
                "addr:city:simc": 921438,
                "addr:street:sym_ul": 16584,
                "phone": "+48 605100933",
                "email": "sekretariat@przedszkole-delfinek.pl",
                "ref:regon": "147381086",
                "operator": "Sylwia Kowalczyk-Malinowska",
                "operator:type": "private",
                "amenity": "kindergarten"
            }
        },
        {
            "id": 122566,
            "type": "Feature",
            "geometry": {
                "type": "Point",
                "coordinates": [
                    21.00312,
                    52.05297
                ]
            },
            "properties": {
                "isced:level": "1;2",
                "ref:rspo": 122566,
                "official_name": "Prywatna Szko\u0142a Podstawowa \"World School\"",
                "name": "Prywatna Szko\u0142a Podstawowa \"World School\"",
                "addr:postcode": "05-502",
                "addr:city": "Piaseczno",
                "addr:street": "Pod Bateriami",
                "addr:housenumber": "60",
                "addr:city:simc": 921438,
                "addr:street:sym_ul": 16584,
                "phone": "+48 600888000",
                "email": "m.otreba@wp.pl",
                "ref:regon": "147161203",
                "operator": "Marcin Otr\u0119ba",
                "operator:type": "private",
                "amenity": "school"
            }
        },
        {
            "id": 16946,
            "type": "Feature",
            "geometry": {
                "type": "Point",
                "coordinates": [
                    21.02062,
                    52.05385
                ]
            },
            "properties": {
                "ref:rspo": 16946,
                "official_name": "Zesp\u00f3\u0142 Szk\u00f3\u0142 Nr 2 im. Emilii Plater",
                "name": "Zesp\u00f3\u0142 Szk\u00f3\u0142 Nr 2",
                "addr:postcode": "05-501",
                "addr:city": "Piaseczno",
                "addr:street": "Aleja Brz\u00f3z",
                "addr:housenumber": "26",
                "addr:city:simc": 921438,
                "addr:street:sym_ul": 186,
                "phone": "+48 227567305",
                "email": "sekretariat@platerowka-szkola.edu.pl",
                "website": "http:\/\/www.platerowka-szkola.edu.pl",
                "ref:regon": "000829767",
                "ref:vatin": "PL1230809711",
                "operator": "Powiat Piaseczy\u0144ski",
                "operator:type": "government",
                "landuse": "education",
                "fixme": "amenity=school, amenity=college albo landuse=education w zale\u017cno\u015bci od tego, jakie plac\u00f3wki wchodz\u0105 w sk\u0142ad zespo\u0142u. Sprawd\u017a, kiedy stosowa\u0107 amenity=* a kiedy landuse=education.",
                "note": "Children RSPO: 25720;25767"
            }
        },
        {
            "id": 25720,
            "type": "Feature",
            "geometry": {
                "type": "Point",
                "coordinates": [
                    21.02062,
                    52.053819999999995
                ]
            },
            "properties": {
                "isced:level": "3",
                "ref:rspo": 25720,
                "official_name": "Ii Liceum Og\u00f3lnokszta\u0142c\u0105ce im. Emilii Plater",
                "name": "Ii Liceum Og\u00f3lnokszta\u0142c\u0105ce",
                "addr:postcode": "05-501",
                "addr:city": "Piaseczno",
                "addr:street": "Aleja Brz\u00f3z",
                "addr:housenumber": "26",
                "addr:city:simc": 921438,
                "addr:street:sym_ul": 186,
                "phone": "+48 227567305",
                "email": "sekretariat@platerowka-szkola.edu.pl",
                "website": "http:\/\/www.platerowka-szkola.edu.pl",
                "ref:regon": "015537524",
                "operator": "Powiat Piaseczy\u0144ski",
                "operator:type": "government",
                "amenity": "school",
                "note": "Parent RSPO: 16946"
            }
        },
        {
            "id": 25767,
            "type": "Feature",
            "geometry": {
                "type": "Point",
                "coordinates": [
                    21.02062,
                    52.05379
                ]
            },
            "properties": {
                "isced:level": "3",
                "ref:rspo": 25767,
                "official_name": "Technikum Nr 2 im. Emilii Plater",
                "name": "Technikum Nr 2",
                "addr:postcode": "05-501",
                "addr:city": "Piaseczno",
                "addr:street": "Aleja Brz\u00f3z",
                "addr:housenumber": "26",
                "addr:city:simc": 921438,
                "addr:street:sym_ul": 186,
                "phone": "+48 227567305",
                "email": "sekretariat@platerowka-szkola.edu.pl",
                "website": "http:\/\/www.platerowka-szkola.edu.pl",
                "ref:regon": "015537547",
                "operator": "Powiat Piaseczy\u0144ski",
                "operator:type": "government",
                "amenity": "school",
                "note": "Parent RSPO: 16946"
            }
        },
        {
            "id": 129458,
            "type": "Feature",
            "geometry": {
                "type": "Point",
                "coordinates": [
                    21.0067,
                    52.05565
                ]
            },
            "properties": {
                "ref:rspo": 129458,
                "official_name": "Niepubliczna Poradnia Psychologiczno-Pedagogiczna Sentidos",
                "name": "Niepubliczna Poradnia Psychologiczno-Pedagogiczna Sentidos",
                "addr:postcode": "05-502",
                "addr:city": "Piaseczno",
                "addr:street": "Aleja Lipowa",
                "addr:housenumber": "5",
                "addr:city:simc": 921438,
                "addr:street:sym_ul": 30312,
                "phone": "+48 511314012",
                "email": "agnieszka.mucha.terapia@gmail.com",
                "ref:regon": "362620392",
                "operator": "Agnieszka Mucha",
                "operator:type": "private",
                "healthcare": "counselling",
                "counselling_type": "education",
                "fixme": "w zale\u017cno\u015bci od przedmiotu dzia\u0142alno\u015bci (np. healthcare=counselling + counselling_type=education albo healthcare=psychotherapist)"
            }
        },
        {
            "id": 31192,
            "type": "Feature",
            "geometry": {
                "type": "Point",
                "coordinates": [
                    20.9833399,
                    52.05575
                ]
            },
            "properties": {
                "ref:rspo": 31192,
                "official_name": "Szko\u0142a Ta\u0144ca I Baletu \"Maestro\" w Go\u0142kowie",
                "name": "Szko\u0142a Ta\u0144ca I Baletu \"Maestro\" w Go\u0142kowie",
                "addr:postcode": "05-502",
                "addr:city": "Piaseczno",
                "addr:street": "G\u0142\u00f3wna",
                "addr:housenumber": "50",
                "addr:city:simc": 921438,
                "addr:street:sym_ul": 5635,
                "phone": "+48 602280086",
                "email": "sekretariat@szkolamaestro.art.pl",
                "website": "http:\/\/www.szkolatanca.art.pl",
                "ref:regon": "146350126",
                "ref:vatin": "PL9181315277",
                "operator": "Andrzej Gozdecki",
                "operator:type": "private",
                "fixme": "w zale\u017cno\u015bci od przedmiotu dzia\u0142alno\u015bci (np. amenity=training + training=*, amenity=dancing_school, amenity=language_school, amenity=music_school)"
            }
        },
        {
            "id": 85167,
            "type": "Feature",
            "geometry": {
                "type": "Point",
                "coordinates": [
                    20.9833399,
                    52.05572
                ]
            },
            "properties": {
                "isced:level": "1;2",
                "ref:rspo": 85167,
                "official_name": "Szko\u0142a Podstawowa Nr 3 im.tadeusza Zawadzkiego Zo\u015bki w Piasecznie",
                "name": "Szko\u0142a Podstawowa Nr 3 im.tadeusza Zawadzkiego Zo\u015bki w Piasecznie",
                "addr:postcode": "05-500",
                "addr:city": "Piaseczno",
                "addr:street": "G\u0142\u00f3wna",
                "addr:housenumber": "50",
                "addr:city:simc": 921438,
                "addr:street:sym_ul": 5635,
                "phone": "+48 227567519",
                "email": "sp.golkow@wp.pl",
                "ref:regon": "000799658",
                "ref:vatin": "PL1231092758",
                "operator": "Gmina Piaseczno",
                "operator:type": "government",
                "amenity": "school"
            }
        },
        {
            "id": 40974,
            "type": "Feature",
            "geometry": {
                "type": "Point",
                "coordinates": [
                    20.9958255,
                    52.0569394
                ]
            },
            "properties": {
                "ref:rspo": 40974,
                "official_name": "Przedszkola Nr 2 w Piasecznie",
                "name": "Przedszkola Nr 2 w Piasecznie",
                "addr:postcode": "05-502",
                "addr:city": "Piaseczno",
                "addr:street": "Longinusa",
                "addr:housenumber": "25",
                "addr:city:simc": 921438,
                "addr:street:sym_ul": 11255,
                "phone": "+48 227567767",
                "email": "przedszkole-zalesinek@wp.pl",
                "ref:regon": "013006231",
                "ref:vatin": "PL1230899105",
                "operator": "Gmina Piaseczno",
                "operator:type": "government",
                "amenity": "kindergarten"
            }
        },
        {
            "id": 105583,
            "type": "Feature",
            "geometry": {
                "type": "Point",
                "coordinates": [
                    20.93045,
                    52.05713
                ]
            },
            "properties": {
                "ref:rspo": 105583,
                "official_name": "Prywatne Przedszkole Smyk",
                "name": "Prywatne Przedszkole Smyk",
                "addr:postcode": "05-501",
                "addr:city": "Piaseczno",
                "addr:street": "Orzechowa",
                "addr:housenumber": "16A",
                "addr:city:simc": 921438,
                "addr:street:sym_ul": 15202,
                "phone": "+48 227569242",
                "email": "przedszkolesmyk@o2.pl",
                "ref:regon": "146461624",
                "ref:vatin": "PL1230925618",
                "operator": "Klaudyna Boja\u0144czyk",
                "operator:type": "private",
                "amenity": "kindergarten"
            }
        },
        {
            "id": 16023,
            "type": "Feature",
            "geometry": {
                "type": "Point",
                "coordinates": [
                    21.01567,
                    52.05736
                ]
            },
            "properties": {
                "ref:rspo": 16023,
                "official_name": "Przedszkole Niepubliczne Ba\u015bniowy Zameczek",
                "name": "Przedszkole Niepubliczne Ba\u015bniowy Zameczek",
                "addr:postcode": "05-501",
                "addr:city": "Piaseczno",
                "addr:street": "Bukowa",
                "addr:housenumber": "12",
                "addr:city:simc": 921438,
                "addr:street:sym_ul": 2387,
                "phone": "+48 602422795",
                "email": "piotr.trzaska@interia.pl",
                "website": "http:\/\/basniowyzameczek.pl",
                "ref:regon": "146305083",
                "operator": "Piotr Trzaska",
                "operator:type": "private",
                "amenity": "kindergarten"
            }
        },
        {
            "id": 28176,
            "type": "Feature",
            "geometry": {
                "type": "Point",
                "coordinates": [
                    21.01467,
                    52.05841
                ]
            },
            "properties": {
                "ref:rspo": 28176,
                "official_name": "Szko\u0142a Ta\u0144ca I Baletu \"Maestro\" w Piasecznie",
                "name": "Szko\u0142a Ta\u0144ca I Baletu \"Maestro\" w Piasecznie",
                "addr:postcode": "05-500",
                "addr:city": "Piaseczno",
                "addr:street": "Aleja Kasztan\u00f3w",
                "addr:housenumber": "12",
                "addr:city:simc": 921438,
                "addr:street:sym_ul": 190,
                "phone": "+48 602280086",
                "email": "sekretariat@szkolamaestro.art.pl",
                "website": "http:\/\/www.szkolatanca.art.pl",
                "ref:regon": "146348336",
                "ref:vatin": "PL9181315277",
                "operator": "Andrzej Gozdecki",
                "operator:type": "private",
                "fixme": "w zale\u017cno\u015bci od przedmiotu dzia\u0142alno\u015bci (np. amenity=training + training=*, amenity=dancing_school, amenity=language_school, amenity=music_school)"
            }
        },
        {
            "id": 85706,
            "type": "Feature",
            "geometry": {
                "type": "Point",
                "coordinates": [
                    21.01467,
                    52.05838
                ]
            },
            "properties": {
                "isced:level": "1;2",
                "ref:rspo": 85706,
                "official_name": "Szko\u0142a Podstawowa Nr 2 im.ewy Krauze w Piasecznie",
                "name": "Szko\u0142a Podstawowa Nr 2 im.ewy Krauze w Piasecznie",
                "addr:postcode": "05-500",
                "addr:city": "Piaseczno",
                "addr:street": "Aleja Kasztan\u00f3w",
                "addr:housenumber": "12",
                "addr:city:simc": 921438,
                "addr:street:sym_ul": 190,
                "phone": "+48 227567314",
                "email": "szkola@krauzowka.pl",
                "website": "http:\/\/www.krauzowka.pl",
                "ref:regon": "000799664",
                "ref:vatin": "PL1230900334",
                "operator": "Gmina Piaseczno",
                "operator:type": "government",
                "amenity": "school"
            }
        },
        {
            "id": 128023,
            "type": "Feature",
            "geometry": {
                "type": "Point",
                "coordinates": [
                    20.98139,
                    52.05882
                ]
            },
            "properties": {
                "ref:rspo": 128023,
                "official_name": "Przedszkole Publiczne Poziomkowa Akademia",
                "name": "Przedszkole Publiczne Poziomkowa Akademia",
                "addr:postcode": "05-502",
                "addr:city": "Kamionka",
                "addr:street": "G\u0142\u00f3wna",
                "addr:housenumber": "60",
                "addr:city:simc": 6385,
                "addr:street:sym_ul": 5635,
                "phone": "+48 696418114",
                "email": "info@akademiapoziomkowa.pl",
                "ref:regon": "362027286",
                "ref:vatin": "PL1230958925",
                "operator": "Agnieszka Bolek",
                "operator:type": "private",
                "amenity": "kindergarten"
            }
        },
        {
            "id": 80182,
            "type": "Feature",
            "geometry": {
                "type": "Point",
                "coordinates": [
                    21.01717,
                    52.05953
                ]
            },
            "properties": {
                "ref:rspo": 80182,
                "official_name": "Przedszkole Nr 3 w Piasecznie",
                "name": "Przedszkole Nr 3 w Piasecznie",
                "addr:postcode": "05-501",
                "addr:city": "Piaseczno",
                "addr:street": "Jaworowa",
                "addr:housenumber": "4",
                "addr:city:simc": 921438,
                "addr:street:sym_ul": 7394,
                "phone": "+48 227567756",
                "email": "p3@przedszkolepodjaworem.pl",
                "ref:regon": "013006248",
                "ref:vatin": "PL1230899111",
                "operator": "Gmina Piaseczno",
                "operator:type": "government",
                "amenity": "kindergarten"
            }
        },
        {
            "id": 111174,
            "type": "Feature",
            "geometry": {
                "type": "Point",
                "coordinates": [
                    21.02718,
                    52.06088
                ]
            },
            "properties": {
                "ref:rspo": 111174,
                "official_name": "Szko\u0142a Muzyczna I St. Maestro w Piasecznie",
                "name": "Szko\u0142a Muzyczna I St. Maestro w Piasecznie",
                "addr:postcode": "05-500",
                "addr:city": "Piaseczno",
                "addr:street": "Aleja Kalin",
                "addr:housenumber": "30",
                "addr:city:simc": 921438,
                "addr:street:sym_ul": 189,
                "email": "szkolamaestro@op.pl",
                "website": "http:\/\/www.szkolamuzyczna.art.pl",
                "ref:regon": "146568820",
                "operator": "Andrzej Gozdecki",
                "operator:type": "private",
                "amenity": "music_school"
            }
        },
        {
            "id": 118905,
            "type": "Feature",
            "geometry": {
                "type": "Point",
                "coordinates": [
                    21.00147,
                    52.0623
                ]
            },
            "properties": {
                "ref:rspo": 118905,
                "official_name": "Przedszkole Niepubliczne Domek Elf\u00f3w",
                "name": "Przedszkole Niepubliczne Domek Elf\u00f3w",
                "addr:postcode": "05-501",
                "addr:city": "Piaseczno",
                "addr:street": "Stanis\u0142awa Wyspia\u0144skiego",
                "addr:housenumber": "1",
                "addr:city:simc": 921438,
                "addr:street:sym_ul": 25081,
                "phone": "+48 221101000",
                "email": "info@domekelfow.pl",
                "ref:regon": "146827195",
                "operator": "Piotr Sygu\u0142a",
                "operator:type": "private",
                "amenity": "kindergarten"
            }
        },
        {
            "id": 40970,
            "type": "Feature",
            "geometry": {
                "type": "Point",
                "coordinates": [
                    20.99575,
                    52.06315
                ]
            },
            "properties": {
                "ref:rspo": 40970,
                "official_name": "Przedszkole Nr 8 w Piasecznie",
                "name": "Przedszkole Nr 8 w Piasecznie",
                "addr:postcode": "05-501",
                "addr:city": "Piaseczno",
                "addr:street": "Ksi\u0119cia J\u00f3zefa",
                "addr:housenumber": "19",
                "addr:city:simc": 921438,
                "addr:street:sym_ul": 7624,
                "phone": "+48 227504182",
                "email": "przedszkole8piaseczno@gmail.com",
                "ref:regon": "013006277",
                "ref:vatin": "PL1230899163",
                "operator": "Gmina Piaseczno",
                "operator:type": "government",
                "amenity": "kindergarten"
            }
        },
        {
            "id": 264335,
            "type": "Feature",
            "geometry": {
                "type": "Point",
                "coordinates": [
                    21.03621,
                    52.06322
                ]
            },
            "properties": {
                "ref:rspo": 264335,
                "official_name": "Terapeutyczny Punkt Przedszkolny Forrest",
                "name": "Terapeutyczny Punkt Przedszkolny Forrest",
                "addr:postcode": "05-500",
                "addr:city": "Piaseczno",
                "addr:street": "Aleja Kalin",
                "addr:housenumber": "55",
                "addr:door": "2",
                "addr:city:simc": 921438,
                "addr:street:sym_ul": 189,
                "phone": "+48 692623327",
                "email": "forrest.przedszkole@gmail.com",
                "ref:regon": "368314957",
                "operator": "Magdalena Malinowska",
                "operator:type": "private",
                "amenity": "kindergarten"
            }
        },
        {
            "id": 31093,
            "type": "Feature",
            "geometry": {
                "type": "Point",
                "coordinates": [
                    21.02277,
                    52.06347
                ]
            },
            "properties": {
                "ref:rspo": 31093,
                "official_name": "Specjalny O\u015brodek Szkolno-Wychowawczy",
                "name": "Specjalny O\u015brodek Szkolno-Wychowawczy",
                "addr:postcode": "05-500",
                "addr:city": "Piaseczno",
                "addr:street": "Szpitalna",
                "addr:housenumber": "12",
                "addr:city:simc": 921438,
                "addr:street:sym_ul": 22073,
                "phone": "+48 227562057",
                "email": "gimspec5@wp.pl",
                "website": "http:\/\/www.piasecznososw.otostrona.pl",
                "ref:regon": "016185671",
                "ref:vatin": "PL1230882257",
                "operator": "Powiat Piaseczy\u0144ski",
                "operator:type": "government",
                "amenity": "school",
                "note": "Children RSPO: 81027;84155;84163;271022"
            }
        },
        {
            "id": 81027,
            "type": "Feature",
            "geometry": {
                "type": "Point",
                "coordinates": [
                    21.02277,
                    52.06344
                ]
            },
            "properties": {
                "isced:level": "1;2",
                "ref:rspo": 81027,
                "official_name": "Szko\u0142a Podstawowa Specjalna Nr 7",
                "name": "Szko\u0142a Podstawowa Specjalna Nr 7",
                "addr:postcode": "05-500",
                "addr:city": "Piaseczno",
                "addr:street": "Szpitalna",
                "addr:housenumber": "12",
                "addr:city:simc": 921438,
                "addr:street:sym_ul": 22073,
                "email": "gimspec@wp.pl",
                "website": "http:\/\/www.otostrona.pl\/piasecznososw",
                "ref:regon": "016185808",
                "operator": "Powiat Piaseczy\u0144ski",
                "operator:type": "government",
                "amenity": "school",
                "note": "Parent RSPO: 31093"
            }
        },
        {
            "id": 84155,
            "type": "Feature",
            "geometry": {
                "type": "Point",
                "coordinates": [
                    21.02277,
                    52.063410000000005
                ]
            },
            "properties": {
                "isced:level": "3",
                "ref:rspo": 84155,
                "official_name": "Bran\u017cowa Szko\u0142a I Stopnia Nr 4",
                "name": "Bran\u017cowa Szko\u0142a I Stopnia Nr 4",
                "addr:postcode": "05-500",
                "addr:city": "Piaseczno",
                "addr:street": "Szpitalna",
                "addr:housenumber": "12",
                "addr:city:simc": 921438,
                "addr:street:sym_ul": 22073,
                "phone": "+48 227562048",
                "email": "gimspec5@wp.pl",
                "website": "http:\/\/www.piasecznososw.otostrona.pl",
                "ref:regon": "016185748",
                "operator": "Powiat Piaseczy\u0144ski",
                "operator:type": "government",
                "amenity": "school",
                "note": "Parent RSPO: 31093"
            }
        },
        {
            "id": 84163,
            "type": "Feature",
            "geometry": {
                "type": "Point",
                "coordinates": [
                    21.02277,
                    52.06338
                ]
            },
            "properties": {
                "isced:level": "3",
                "ref:rspo": 84163,
                "official_name": "Liceum Og\u00f3lnokszta\u0142c\u0105ce Specjalne",
                "name": "Liceum Og\u00f3lnokszta\u0142c\u0105ce Specjalne",
                "addr:postcode": "05-500",
                "addr:city": "Piaseczno",
                "addr:street": "Szpitalna",
                "addr:housenumber": "12",
                "addr:city:simc": 921438,
                "addr:street:sym_ul": 22073,
                "phone": "+48 227562057",
                "email": "gimspec5@wp.pl",
                "website": "http:\/\/www.otostrona.pl\/piasecznososw",
                "ref:regon": "142545324",
                "operator": "Powiat Piaseczy\u0144ski",
                "operator:type": "government",
                "amenity": "school",
                "note": "Parent RSPO: 31093"
            }
        },
        {
            "id": 271022,
            "type": "Feature",
            "geometry": {
                "type": "Point",
                "coordinates": [
                    21.02277,
                    52.06335
                ]
            },
            "properties": {
                "ref:rspo": 271022,
                "official_name": "Szko\u0142a Specjalna Przysposabiaj\u0105ca Do Pracy",
                "name": "Szko\u0142a Specjalna Przysposabiaj\u0105ca Do Pracy",
                "addr:postcode": "05-500",
                "addr:city": "Piaseczno",
                "addr:street": "Szpitalna",
                "addr:housenumber": "12",
                "addr:city:simc": 921438,
                "addr:street:sym_ul": 22073,
                "phone": "+48 227562048",
                "email": "gimspec5@wp.pl",
                "ref:regon": "383060241",
                "operator": "Powiat Piaseczy\u0144ski",
                "operator:type": "government",
                "amenity": "school",
                "note": "Parent RSPO: 31093"
            }
        },
        {
            "id": 30883,
            "type": "Feature",
            "geometry": {
                "type": "Point",
                "coordinates": [
                    21.02231,
                    52.06393
                ]
            },
            "properties": {
                "ref:rspo": 30883,
                "official_name": "Zesp\u00f3\u0142 Szk\u00f3\u0142 Nr 1",
                "name": "Zesp\u00f3\u0142 Szk\u00f3\u0142 Nr 1",
                "addr:postcode": "05-500",
                "addr:city": "Piaseczno",
                "addr:street": "Szpitalna",
                "addr:housenumber": "10",
                "addr:city:simc": 921438,
                "addr:street:sym_ul": 22073,
                "phone": "+48 227567432",
                "email": "sekretariat@zs1piaseczno.pl",
                "website": "http:\/\/www.zs1piaseczno.pl",
                "ref:regon": "000677748",
                "ref:vatin": "PL1230499558",
                "operator": "Powiat Piaseczy\u0144ski",
                "operator:type": "government",
                "landuse": "education",
                "fixme": "amenity=school, amenity=college albo landuse=education w zale\u017cno\u015bci od tego, jakie plac\u00f3wki wchodz\u0105 w sk\u0142ad zespo\u0142u. Sprawd\u017a, kiedy stosowa\u0107 amenity=* a kiedy landuse=education.",
                "note": "Children RSPO: 76043;81024"
            }
        },
        {
            "id": 76043,
            "type": "Feature",
            "geometry": {
                "type": "Point",
                "coordinates": [
                    21.02231,
                    52.0639
                ]
            },
            "properties": {
                "isced:level": "3",
                "ref:rspo": 76043,
                "official_name": "Bran\u017cowa Szko\u0142a I Stopnia Nr 1",
                "name": "Bran\u017cowa Szko\u0142a I Stopnia Nr 1",
                "addr:postcode": "05-500",
                "addr:city": "Piaseczno",
                "addr:street": "Szpitalna",
                "addr:housenumber": "10",
                "addr:city:simc": 921438,
                "addr:street:sym_ul": 22073,
                "phone": "+48 227567432",
                "email": "sekretariat@zs1piaseczno.pl",
                "website": "http:\/\/www.zs1piaseczno.pl",
                "ref:regon": "015537694",
                "operator": "Powiat Piaseczy\u0144ski",
                "operator:type": "government",
                "amenity": "school",
                "note": "Parent RSPO: 30883"
            }
        },
        {
            "id": 81024,
            "type": "Feature",
            "geometry": {
                "type": "Point",
                "coordinates": [
                    21.02231,
                    52.06387
                ]
            },
            "properties": {
                "isced:level": "3",
                "ref:rspo": 81024,
                "official_name": "Technikum Nr 1",
                "name": "Technikum Nr 1",
                "addr:postcode": "05-500",
                "addr:city": "Piaseczno",
                "addr:street": "Szpitalna",
                "addr:housenumber": "10",
                "addr:city:simc": 921438,
                "addr:street:sym_ul": 22073,
                "phone": "+48 227567432",
                "email": "sekretariat@zs1piaseczno.pl",
                "website": "http:\/\/www.zs1piaseczno.pl",
                "ref:regon": "015537731",
                "operator": "Powiat Piaseczy\u0144ski",
                "operator:type": "government",
                "amenity": "school",
                "note": "Parent RSPO: 30883"
            }
        },
        {
            "id": 126347,
            "type": "Feature",
            "geometry": {
                "type": "Point",
                "coordinates": [
                    21.00942,
                    52.06453
                ]
            },
            "properties": {
                "ref:rspo": 126347,
                "official_name": "Przedszkole Publiczne Melodia w Piasecznie",
                "name": "Przedszkole Publiczne Melodia w Piasecznie",
                "addr:postcode": "05-501",
                "addr:city": "Piaseczno",
                "addr:street": "Dunikowskiego",
                "addr:housenumber": "2",
                "addr:city:simc": 921438,
                "addr:street:sym_ul": 4397,
                "phone": "+48 606810385",
                "email": "przedszkolemelodia@gmail.com",
                "ref:regon": "360256611",
                "operator": "Maciej Bugalski",
                "operator:type": "private",
                "amenity": "kindergarten"
            }
        },
        {
            "id": 3951,
            "type": "Feature",
            "geometry": {
                "type": "Point",
                "coordinates": [
                    21.02881,
                    52.06477
                ]
            },
            "properties": {
                "isced:level": "1;2",
                "ref:rspo": 3951,
                "official_name": "Szko\u0142a Podstawowa Nr 1 im. J\u00f3zefa Pi\u0142sudskiego w Piasecznie",
                "name": "Szko\u0142a Podstawowa Nr 1",
                "addr:postcode": "05-500",
                "addr:city": "Piaseczno",
                "addr:street": "\u015awi\u0119toja\u0144ska",
                "addr:housenumber": "18",
                "addr:city:simc": 921438,
                "addr:street:sym_ul": 22548,
                "phone": "+48 227562285",
                "email": "sekretariat@sp1piaseczno.pl",
                "website": "https:\/\/sp1piaseczno.pl\/",
                "ref:regon": "000269386",
                "ref:vatin": "PL1230900475",
                "operator": "Gmina Piaseczno",
                "operator:type": "government",
                "amenity": "school"
            }
        },
        {
            "id": 268848,
            "type": "Feature",
            "geometry": {
                "type": "Point",
                "coordinates": [
                    21.02906,
                    52.06603
                ]
            },
            "properties": {
                "ref:rspo": 268848,
                "official_name": "Niepubliczny Punkt Przedszkolny \"\u017beby K\u00f3zka...\"",
                "name": "Niepubliczny Punkt Przedszkolny \"\u017beby K\u00f3zka...\"",
                "addr:postcode": "05-500",
                "addr:city": "Piaseczno",
                "addr:street": "\u015awi\u0119toja\u0144ska",
                "addr:housenumber": "7",
                "addr:city:simc": 921438,
                "addr:street:sym_ul": 22548,
                "phone": "+48 517821944",
                "email": "biuro@zebykozka.edu.pl",
                "ref:regon": "381261142",
                "ref:vatin": "PL9511068937",
                "operator": "Anna Nowacka-Devillard",
                "operator:type": "private",
                "amenity": "kindergarten"
            }
        },
        {
            "id": 105933,
            "type": "Feature",
            "geometry": {
                "type": "Point",
                "coordinates": [
                    20.96864,
                    52.06624
                ]
            },
            "properties": {
                "ref:rspo": 105933,
                "official_name": "Przedszkole Niepubliczne Hu\u015btawka Anio\u0142a",
                "name": "Przedszkole Niepubliczne Hu\u015btawka Anio\u0142a",
                "addr:postcode": "05-502",
                "addr:city": "Bobrowiec",
                "addr:street": "Willowa",
                "addr:housenumber": "18",
                "addr:city:simc": 6184,
                "addr:street:sym_ul": 24317,
                "phone": "+48 227362849",
                "email": "przedszkole@hustawka-aniola.pl",
                "website": "http:\/\/hustawka-aniola.pl",
                "ref:regon": "146470066",
                "ref:vatin": "PL1230872537",
                "operator": "Aneta Strzeszewska",
                "operator:type": "private",
                "amenity": "kindergarten"
            }
        },
        {
            "id": 129433,
            "type": "Feature",
            "geometry": {
                "type": "Point",
                "coordinates": [
                    21.03169,
                    52.06629
                ]
            },
            "properties": {
                "ref:rspo": 129433,
                "official_name": "Niepubliczne Przedszkole Maluszek",
                "name": "Niepubliczne Przedszkole Maluszek",
                "addr:postcode": "05-500",
                "addr:city": "Piaseczno",
                "addr:street": "Ksi\u0119cia Janusza I Starego",
                "addr:housenumber": "9",
                "addr:city:simc": 921438,
                "addr:street:sym_ul": 52928,
                "phone": "+48 601791888",
                "email": "przedszkole.maluszek.piaseczno@gmail.com",
                "ref:regon": "362605760",
                "operator": "Magdalena Niewczas",
                "operator:type": "private",
                "amenity": "kindergarten"
            }
        },
        {
            "id": 272538,
            "type": "Feature",
            "geometry": {
                "type": "Point",
                "coordinates": [
                    21.02922,
                    52.06639
                ]
            },
            "properties": {
                "ref:rspo": 272538,
                "official_name": "Punkt Przedszkolny Laudame",
                "name": "Punkt Przedszkolny Laudame",
                "addr:postcode": "05-500",
                "addr:city": "Piaseczno",
                "addr:street": "\u015awi\u0119toja\u0144ska",
                "addr:housenumber": "5",
                "addr:city:simc": 921438,
                "addr:street:sym_ul": 22548,
                "phone": "+48 570964917",
                "email": "laudame.piaseczno@gmail.com",
                "ref:regon": "384262685",
                "operator": "Edu Kosmala Adamczuk Sp\u00f3\u0142ka Z Ograniczon\u0105 Odpowiedzialno\u015bci\u0105",
                "operator:type": "private",
                "amenity": "kindergarten"
            }
        },
        {
            "id": 126497,
            "type": "Feature",
            "geometry": {
                "type": "Point",
                "coordinates": [
                    21.03105,
                    52.06643
                ]
            },
            "properties": {
                "ref:rspo": 126497,
                "official_name": "Publiczne Przedszkole \"Bajka\"",
                "name": "Publiczne Przedszkole \"Bajka\"",
                "addr:postcode": "05-500",
                "addr:city": "Piaseczno",
                "addr:street": "Ksi\u0119cia Janusza I Starego",
                "addr:housenumber": "5",
                "addr:city:simc": 921438,
                "addr:street:sym_ul": 52928,
                "phone": "+48 227155207",
                "email": "m.otreba@wp.pl",
                "ref:regon": "360386182",
                "ref:vatin": "PL1230214372",
                "operator": "Krystyna Otr\u0119ba - Kurasiewicz",
                "operator:type": "private",
                "amenity": "kindergarten"
            }
        },
        {
            "id": 128757,
            "type": "Feature",
            "geometry": {
                "type": "Point",
                "coordinates": [
                    21.02411,
                    52.06664
                ]
            },
            "properties": {
                "ref:rspo": 128757,
                "official_name": "Publiczne Przedszkole Le\u015bny Skrzat",
                "name": "Publiczne Przedszkole Le\u015bny Skrzat",
                "addr:postcode": "05-500",
                "addr:city": "Piaseczno",
                "addr:street": "Adama Mickiewicza",
                "addr:housenumber": "11",
                "addr:city:simc": 921438,
                "addr:street:sym_ul": 12734,
                "phone": "+48 501017050",
                "email": "lesnyskrzat@onet.pl",
                "ref:regon": "362395653",
                "operator": "Joanna Borowska",
                "operator:type": "private",
                "amenity": "kindergarten"
            }
        },
        {
            "id": 73487,
            "type": "Feature",
            "geometry": {
                "type": "Point",
                "coordinates": [
                    21.03237,
                    52.06666
                ]
            },
            "properties": {
                "ref:rspo": 73487,
                "official_name": "Niepubliczne Przedszkole Fantazja",
                "name": "Niepubliczne Przedszkole Fantazja",
                "addr:postcode": "05-500",
                "addr:city": "Piaseczno",
                "addr:street": "Stanis\u0142awa Staszica",
                "addr:housenumber": "12",
                "addr:city:simc": 921438,
                "addr:street:sym_ul": 21065,
                "phone": "+48 506125282",
                "email": "przedszkolefantazja@interia.pl",
                "ref:regon": "146401059",
                "ref:vatin": "PL1230533019",
                "operator": "Jadwiga Bi\u0144kowska",
                "operator:type": "private",
                "amenity": "kindergarten"
            }
        },
        {
            "id": 273522,
            "type": "Feature",
            "geometry": {
                "type": "Point",
                "coordinates": [
                    20.96068,
                    52.06774
                ]
            },
            "properties": {
                "isced:level": "1;2",
                "ref:rspo": 273522,
                "official_name": "Niepubliczna Szko\u0142a Podstawowa Thames British School",
                "name": "Niepubliczna Szko\u0142a Podstawowa Thames British School",
                "addr:postcode": "05-502",
                "addr:city": "Bobrowiec",
                "addr:street": "Mazowiecka",
                "addr:housenumber": "43",
                "addr:city:simc": 6184,
                "addr:street:sym_ul": 12540,
                "phone": "+48 508399732",
                "email": "info@thamesbritishschool.pl",
                "ref:regon": "384485304",
                "operator": "Thames British School Sp\u00f3\u0142ka Z Ograniczon\u0105 Odpowiedzialno\u015bci\u0105",
                "operator:type": "private",
                "amenity": "school"
            }
        },
        {
            "id": 277155,
            "type": "Feature",
            "geometry": {
                "type": "Point",
                "coordinates": [
                    20.96068,
                    52.06771
                ]
            },
            "properties": {
                "ref:rspo": 277155,
                "official_name": "Niepubliczne Przedszkole Thames British School w Bobrowcu",
                "name": "Niepubliczne Przedszkole Thames British School w Bobrowcu",
                "addr:postcode": "05-502",
                "addr:city": "Bobrowiec",
                "addr:street": "Mazowiecka",
                "addr:housenumber": "43",
                "addr:city:simc": 6184,
                "addr:street:sym_ul": 12540,
                "phone": "+48 505014424",
                "email": "piaseczno@thamesbritishschool.pl",
                "website": "http:\/\/www.thamesbritishschool.pl",
                "ref:regon": "388207306",
                "operator": "Thames British School Sp\u00f3\u0142ka Z Ograniczon\u0105 Odpowiedzialno\u015bci\u0105",
                "operator:type": "private",
                "amenity": "kindergarten"
            }
        },
        {
            "id": 277618,
            "type": "Feature",
            "geometry": {
                "type": "Point",
                "coordinates": [
                    20.96068,
                    52.06768
                ]
            },
            "properties": {
                "isced:level": "3",
                "ref:rspo": 277618,
                "official_name": "Niepubliczne Liceum Og\u00f3lnokszta\u0142c\u0105ce Thames British School",
                "name": "Niepubliczne Liceum Og\u00f3lnokszta\u0142c\u0105ce Thames British School",
                "addr:postcode": "05-502",
                "addr:city": "Bobrowiec",
                "addr:street": "Mazowiecka",
                "addr:housenumber": "43",
                "addr:city:simc": 6184,
                "addr:street:sym_ul": 12540,
                "phone": "+48 508399732",
                "email": "piaseczno@thamesbritishschool.pl",
                "ref:regon": "389200358",
                "operator": "Thames British School Sp\u00f3\u0142ka Z Ograniczon\u0105 Odpowiedzialno\u015bci\u0105",
                "operator:type": "private",
                "amenity": "school"
            }
        },
        {
            "id": 126501,
            "type": "Feature",
            "geometry": {
                "type": "Point",
                "coordinates": [
                    21.02055,
                    52.06902
                ]
            },
            "properties": {
                "ref:rspo": 126501,
                "official_name": "Przedszkole Publiczne \"Przyjaciele Kubusia II\"",
                "name": "Przedszkole Publiczne \"Przyjaciele Kubusia II\"",
                "addr:postcode": "05-500",
                "addr:city": "Piaseczno",
                "addr:street": "Genera\u0142a Jana Grochowskiego",
                "addr:housenumber": "7",
                "addr:door": "41",
                "addr:city:simc": 921438,
                "addr:street:sym_ul": 53280,
                "phone": "+48 221268266",
                "email": "grochowskiego@puchatek.waw.pl",
                "ref:regon": "360386526",
                "ref:vatin": "PL1231288929",
                "operator": "Serwis Edukacyjny Ii Sp\u00f3\u0142ka Z Ograniczon\u0105 Odpowiedzialno\u015bci\u0105",
                "operator:type": "private",
                "amenity": "kindergarten"
            }
        },
        {
            "id": 73829,
            "type": "Feature",
            "geometry": {
                "type": "Point",
                "coordinates": [
                    20.99862,
                    52.07058
                ]
            },
            "properties": {
                "ref:rspo": 73829,
                "official_name": "Niepubliczne Przedszkole Abc",
                "name": "Niepubliczne Przedszkole Abc",
                "addr:postcode": "05-500",
                "addr:city": "Piaseczno",
                "addr:street": "Waniliowa",
                "addr:housenumber": "2",
                "addr:city:simc": 921438,
                "addr:street:sym_ul": 23615,
                "phone": "+48 504011660",
                "email": "przedszkoleabc@op.pl",
                "website": "http:\/\/www.przedszkoleabc.pl",
                "ref:regon": "146403012",
                "ref:vatin": "PL1230828016",
                "operator": "S\u0142awomir Jaworski",
                "operator:type": "private",
                "amenity": "kindergarten"
            }
        },
        {
            "id": 40966,
            "type": "Feature",
            "geometry": {
                "type": "Point",
                "coordinates": [
                    21.03014,
                    52.07062
                ]
            },
            "properties": {
                "ref:rspo": 40966,
                "official_name": "Przedszkole Nr 1 w Piasecznie",
                "name": "Przedszkole Nr 1 w Piasecznie",
                "addr:postcode": "05-500",
                "addr:city": "Piaseczno",
                "addr:street": "Kauna",
                "addr:housenumber": "4",
                "addr:city:simc": 921438,
                "addr:street:sym_ul": 51281,
                "phone": "+48 227567663",
                "email": "przedszkole1800@wp.pl",
                "website": "http:\/\/przedszkole1piaseczno.pl",
                "ref:regon": "013006225",
                "ref:vatin": "PL1230899097",
                "operator": "Gmina Piaseczno",
                "operator:type": "government",
                "amenity": "kindergarten"
            }
        },
        {
            "id": 130713,
            "type": "Feature",
            "geometry": {
                "type": "Point",
                "coordinates": [
                    21.0351,
                    52.07064
                ]
            },
            "properties": {
                "ref:rspo": 130713,
                "official_name": "Publiczne Przedszkole \"Ptasie Gniazdo\"",
                "name": "Publiczne Przedszkole \"Ptasie Gniazdo\"",
                "addr:postcode": "05-500",
                "addr:city": "Piaseczno",
                "addr:street": "Elizy Orzeszkowej",
                "addr:housenumber": "15",
                "addr:city:simc": 921438,
                "addr:street:sym_ul": 15211,
                "phone": "+48 227501485",
                "email": "przedszkole@szkolamarzen.pl",
                "ref:regon": "364402742",
                "operator": "Sapientia Sp\u00f3\u0142ka Z Ograniczon\u0105 Odpowiedzialno\u015bci\u0105",
                "operator:type": "private",
                "amenity": "kindergarten"
            }
        },
        {
            "id": 105498,
            "type": "Feature",
            "geometry": {
                "type": "Point",
                "coordinates": [
                    21.03505,
                    52.07089
                ]
            },
            "properties": {
                "ref:rspo": 105498,
                "official_name": "Przedszkole Niepubliczne Przedszkole Le\u015bne",
                "name": "Przedszkole Niepubliczne Przedszkole Le\u015bne",
                "addr:postcode": "05-500",
                "addr:city": "Piaseczno",
                "addr:street": "Elizy Orzeszkowej",
                "addr:housenumber": "13",
                "addr:city:simc": 921438,
                "addr:street:sym_ul": 15209,
                "phone": "+48 604437501",
                "email": "piaseczno@przedszkole-lesne.pl",
                "ref:regon": "146461386",
                "ref:vatin": "PL7752005386",
                "operator": "Przedszkole Le\u015bne Sp\u00f3\u0142ka Z Ograniczon\u0105 Odpowiedzialno\u015bci\u0105",
                "operator:type": "private",
                "amenity": "kindergarten"
            }
        },
        {
            "id": 128021,
            "type": "Feature",
            "geometry": {
                "type": "Point",
                "coordinates": [
                    21.00474,
                    52.07097
                ]
            },
            "properties": {
                "ref:rspo": 128021,
                "official_name": "Publiczne Przedszkole Radosne",
                "name": "Publiczne Przedszkole Radosne",
                "addr:postcode": "05-500",
                "addr:city": "Piaseczno",
                "addr:street": "Or\u0119\u017cna",
                "addr:housenumber": "8a",
                "addr:city:simc": 921438,
                "addr:street:sym_ul": 15129,
                "phone": "+48 696418114",
                "email": "info@przedszkoleradosne.pl",
                "ref:regon": "362026980",
                "ref:vatin": "PL1230958925",
                "operator": "Agnieszka Bolek",
                "operator:type": "private",
                "amenity": "kindergarten"
            }
        },
        {
            "id": 30219,
            "type": "Feature",
            "geometry": {
                "type": "Point",
                "coordinates": [
                    21.0199,
                    52.07102
                ]
            },
            "properties": {
                "ref:rspo": 30219,
                "official_name": "Niepubliczna Poradnia Psychologiczno-Pedagogiczna Nintu Marta \u017bysko-Pa\u0142uba",
                "name": "Niepubliczna Poradnia Psychologiczno-Pedagogiczna Nintu Marta \u017bysko-Pa\u0142uba",
                "addr:postcode": "05-500",
                "addr:city": "Piaseczno",
                "addr:street": "Genera\u0142a Jana Grochowskiego",
                "addr:housenumber": "11",
                "addr:door": "83",
                "addr:city:simc": 921438,
                "addr:street:sym_ul": 53280,
                "phone": "+48 224145218",
                "email": "info@nintu.pl",
                "website": "http:\/\/www.nintu.pl",
                "ref:regon": "146346610",
                "ref:vatin": "PL1231191762",
                "operator": "Pracownia Psychologiczna Nintu Marta \u017bysko-Pa\u0142uba",
                "operator:type": "consortium",
                "healthcare": "counselling",
                "counselling_type": "education",
                "fixme": "w zale\u017cno\u015bci od przedmiotu dzia\u0142alno\u015bci (np. healthcare=counselling + counselling_type=education albo healthcare=psychotherapist)"
            }
        },
        {
            "id": 271784,
            "type": "Feature",
            "geometry": {
                "type": "Point",
                "coordinates": [
                    21.00976,
                    52.07117
                ]
            },
            "properties": {
                "ref:rspo": 271784,
                "official_name": "Niepubliczne Przedszkole Kolorowe Kredki",
                "name": "Niepubliczne Przedszkole Kolorowe Kredki",
                "addr:postcode": "05-500",
                "addr:city": "Piaseczno",
                "addr:street": "Or\u0119\u017cna",
                "addr:housenumber": "3b",
                "addr:city:simc": 921438,
                "addr:street:sym_ul": 15129,
                "phone": "+48 690298598",
                "email": "lipinskamalwina@gmail.com",
                "website": "http:\/\/kolorowekredki.edu.pl",
                "ref:regon": "383650327",
                "operator": "Malwina Lipi\u0144ska",
                "operator:type": "private",
                "amenity": "kindergarten"
            }
        },
        {
            "id": 132348,
            "type": "Feature",
            "geometry": {
                "type": "Point",
                "coordinates": [
                    21.0231299,
                    52.07119
                ]
            },
            "properties": {
                "ref:rspo": 132348,
                "official_name": "Niepubliczna Poradnia Psychologiczno-Pedagogiczna",
                "name": "Niepubliczna Poradnia Psychologiczno-Pedagogiczna",
                "addr:postcode": "05-500",
                "addr:city": "Piaseczno",
                "addr:street": "Wojska Polskiego",
                "addr:housenumber": "38",
                "addr:city:simc": 921438,
                "addr:street:sym_ul": 24628,
                "phone": "+48 606556654",
                "email": "mmszmigiel2@wp.pl",
                "ref:regon": "365557599",
                "ref:vatin": "PL1230312175",
                "operator": "Monika Szmigiel",
                "operator:type": "private",
                "healthcare": "counselling",
                "counselling_type": "education",
                "fixme": "w zale\u017cno\u015bci od przedmiotu dzia\u0142alno\u015bci (np. healthcare=counselling + counselling_type=education albo healthcare=psychotherapist)"
            }
        },
        {
            "id": 264349,
            "type": "Feature",
            "geometry": {
                "type": "Point",
                "coordinates": [
                    21.03019,
                    52.07136
                ]
            },
            "properties": {
                "ref:rspo": 264349,
                "official_name": "Niepubliczny Integracyjny Punkt Przedszkolny Creative Mind School",
                "name": "Niepubliczny Integracyjny Punkt Przedszkolny Creative Mind School",
                "addr:postcode": "05-500",
                "addr:city": "Piaseczno",
                "addr:street": "Stefana \u017beromskiego",
                "addr:housenumber": "13",
                "addr:city:simc": 921438,
                "addr:street:sym_ul": 26464,
                "phone": "+48 601493039",
                "email": "biuro.creativemind@gmail.com",
                "ref:regon": "368316181",
                "operator": "Damian Szewczyk",
                "operator:type": "private",
                "amenity": "kindergarten"
            }
        },
        {
            "id": 83981,
            "type": "Feature",
            "geometry": {
                "type": "Point",
                "coordinates": [
                    21.01766,
                    52.07245
                ]
            },
            "properties": {
                "ref:rspo": 83981,
                "official_name": "Przedszkole Nr 10 w Piasecznie",
                "name": "Przedszkole Nr 10 w Piasecznie",
                "addr:postcode": "05-500",
                "addr:city": "Piaseczno",
                "addr:street": "Nadarzy\u0144ska",
                "addr:housenumber": "54",
                "addr:city:simc": 921438,
                "addr:street:sym_ul": 13849,
                "phone": "+48 228740902",
                "email": "przedszkolenr10p@wp.pl",
                "ref:regon": "013006290",
                "ref:vatin": "PL1230899217",
                "operator": "Gmina Piaseczno",
                "operator:type": "government",
                "amenity": "kindergarten"
            }
        },
        {
            "id": 271152,
            "type": "Feature",
            "geometry": {
                "type": "Point",
                "coordinates": [
                    21.01333,
                    52.07358
                ]
            },
            "properties": {
                "ref:rspo": 271152,
                "official_name": "Zesp\u00f3\u0142 Szkolno-Przedszkolny w Piasecznie",
                "name": "Zesp\u00f3\u0142 Szkolno-Przedszkolny w Piasecznie",
                "addr:postcode": "05-500",
                "addr:city": "Piaseczno",
                "addr:street": "Jana Paw\u0142a II",
                "addr:housenumber": "55",
                "addr:city:simc": 921438,
                "addr:street:sym_ul": 7123,
                "phone": "+48 224842600",
                "email": "sekretariat@cempiaseczno.edu.pl",
                "ref:regon": "383122730",
                "operator": "Gmina Piaseczno",
                "operator:type": "government",
                "landuse": "education",
                "fixme": "amenity=school, amenity=college albo landuse=education w zale\u017cno\u015bci od tego, jakie plac\u00f3wki wchodz\u0105 w sk\u0142ad zespo\u0142u. Sprawd\u017a, kiedy stosowa\u0107 amenity=* a kiedy landuse=education.",
                "note": "Children RSPO: 83988;270789"
            }
        },
        {
            "id": 83988,
            "type": "Feature",
            "geometry": {
                "type": "Point",
                "coordinates": [
                    21.01333,
                    52.07355
                ]
            },
            "properties": {
                "ref:rspo": 83988,
                "official_name": "Przedszkole Nr 5 w Piasecznie",
                "name": "Przedszkole Nr 5 w Piasecznie",
                "addr:postcode": "05-500",
                "addr:city": "Piaseczno",
                "addr:street": "Jana Paw\u0142a II",
                "addr:housenumber": "55",
                "addr:city:simc": 921438,
                "addr:street:sym_ul": 7123,
                "phone": "+48 224842600",
                "email": "sekretariat@cempiaseczno.edu.pl",
                "ref:regon": "013006260",
                "ref:vatin": "PL1230899134",
                "operator": "Gmina Piaseczno",
                "operator:type": "government",
                "amenity": "kindergarten",
                "note": "Parent RSPO: 271152"
            }
        },
        {
            "id": 270789,
            "type": "Feature",
            "geometry": {
                "type": "Point",
                "coordinates": [
                    21.01333,
                    52.07352
                ]
            },
            "properties": {
                "isced:level": "1;2",
                "ref:rspo": 270789,
                "official_name": "Szko\u0142a Podstawowa Nr 4 w Piasecznie",
                "name": "Szko\u0142a Podstawowa Nr 4 w Piasecznie",
                "addr:postcode": "05-500",
                "addr:city": "Piaseczno",
                "addr:street": "Jana Paw\u0142a II",
                "addr:housenumber": "55",
                "addr:city:simc": 921438,
                "addr:street:sym_ul": 7123,
                "phone": "+48 224842600",
                "email": "sekretariat@cempiaseczno.edu.pl",
                "website": "http:\/\/cempiaseczno.edu.pl",
                "ref:regon": "382939020",
                "operator": "Gmina Piaseczno",
                "operator:type": "government",
                "amenity": "school",
                "note": "Parent RSPO: 271152"
            }
        },
        {
            "id": 30046,
            "type": "Feature",
            "geometry": {
                "type": "Point",
                "coordinates": [
                    21.03185,
                    52.07382
                ]
            },
            "properties": {
                "isced:level": "3",
                "ref:rspo": 30046,
                "official_name": "Katolickie Liceum Og\u00f3lnokszta\u0142c\u0105ce im. Cecylii Plater-Zyberk\u00f3wny",
                "name": "Katolickie Liceum Og\u00f3lnokszta\u0142c\u0105ce",
                "addr:postcode": "05-500",
                "addr:city": "Piaseczno",
                "addr:street": "Chyliczkowska",
                "addr:housenumber": "20E",
                "addr:city:simc": 921438,
                "addr:street:sym_ul": 2953,
                "phone": "+48 227572390",
                "email": "stowarzyszenie.chyliczanka@onet.pl",
                "ref:regon": "146343037",
                "ref:vatin": "PL1230537879",
                "operator": "Stowarzyszenie Wychowanek Szko\u0142y Gospodarstwa Wiejskiego W Chyliczkach \"Chyliczanka\"",
                "operator:type": "ngo",
                "amenity": "school"
            }
        },
        {
            "id": 263216,
            "type": "Feature",
            "geometry": {
                "type": "Point",
                "coordinates": [
                    21.02865,
                    52.0743
                ]
            },
            "properties": {
                "ref:rspo": 263216,
                "official_name": "Publiczne Przedszkole Babaloo",
                "name": "Publiczne Przedszkole Babaloo",
                "addr:postcode": "05-500",
                "addr:city": "Piaseczno",
                "addr:street": "Zgoda",
                "addr:housenumber": "1",
                "addr:city:simc": 921438,
                "addr:street:sym_ul": 26022,
                "phone": "+48 227567368",
                "email": "przedszkole@koala.com.pl",
                "website": "http:\/\/www.koala.com.pl",
                "ref:regon": "368124903",
                "operator": "Babaloo Sp\u00f3\u0142ka Z Ograniczon\u0105 Odpowiedzialno\u015bci\u0105",
                "operator:type": "private",
                "amenity": "kindergarten"
            }
        },
        {
            "id": 126499,
            "type": "Feature",
            "geometry": {
                "type": "Point",
                "coordinates": [
                    21.0145899,
                    52.07435
                ]
            },
            "properties": {
                "ref:rspo": 126499,
                "official_name": "Publiczne Przedszkole \"S\u0142oneczne\"",
                "name": "Publiczne Przedszkole \"S\u0142oneczne\"",
                "addr:postcode": "05-500",
                "addr:city": "Piaseczno",
                "addr:street": "Jana Paw\u0142a II",
                "addr:housenumber": "27a",
                "addr:city:simc": 921438,
                "addr:street:sym_ul": 7123,
                "phone": "+48 604617800",
                "email": "sloneczneprzedszkole.piaseczno@gmail.com",
                "ref:regon": "360386294",
                "operator": "Maria Murawska",
                "operator:type": "private",
                "amenity": "kindergarten"
            }
        },
        {
            "id": 105965,
            "type": "Feature",
            "geometry": {
                "type": "Point",
                "coordinates": [
                    21.02569,
                    52.07453
                ]
            },
            "properties": {
                "ref:rspo": 105965,
                "official_name": "Przedszkole im. Dzieci\u0105tka Jezus",
                "name": "Przedszkole",
                "addr:postcode": "05-500",
                "addr:city": "Piaseczno",
                "addr:street": "Ko\u015bcielna",
                "addr:housenumber": "9",
                "addr:city:simc": 921438,
                "addr:street:sym_ul": 9546,
                "phone": "+48 227506440",
                "email": "przedszkole.sp@wp.pl",
                "ref:regon": "146489953",
                "ref:vatin": "PL1231037162",
                "operator": "Zgromadzenie S\u0142u\u017cebnic Matki Dobrego Pasterza, Dom Generalny",
                "operator:type": "religious",
                "amenity": "kindergarten"
            }
        },
        {
            "id": 106603,
            "type": "Feature",
            "geometry": {
                "type": "Point",
                "coordinates": [
                    21.0185348,
                    52.0748014
                ]
            },
            "properties": {
                "ref:rspo": 106603,
                "official_name": "Niepubliczne Przedszkole Kleks",
                "name": "Niepubliczne Przedszkole Kleks",
                "addr:postcode": "05-500",
                "addr:city": "Piaseczno",
                "addr:street": "Jana Paw\u0142a II",
                "addr:housenumber": "36",
                "addr:city:simc": 921438,
                "addr:street:sym_ul": 7123,
                "phone": "+48 227370017",
                "email": "ammolplus@gmail.com",
                "ref:regon": "146477045",
                "ref:vatin": "PL1230296507",
                "operator": "Piotr Ammol",
                "operator:type": "private",
                "amenity": "kindergarten"
            }
        },
        {
            "id": 269092,
            "type": "Feature",
            "geometry": {
                "type": "Point",
                "coordinates": [
                    21.02504,
                    52.0754499
                ]
            },
            "properties": {
                "isced:level": "3",
                "ref:rspo": 269092,
                "official_name": "Liceum Og\u00f3lnokszta\u0142c\u0105ce dla Doros\u0142ych \"Archimedes\" w Piasecznie",
                "name": "Liceum Og\u00f3lnokszta\u0142c\u0105ce dla Doros\u0142ych \"Archimedes\" w Piasecznie",
                "addr:postcode": "05-500",
                "addr:city": "Piaseczno",
                "addr:street": "Jana Paw\u0142a II",
                "addr:housenumber": "10",
                "addr:door": "6 biuro 8",
                "addr:city:simc": 921438,
                "addr:street:sym_ul": 7123,
                "phone": "+48 661015554",
                "email": "pszcnbia.piaseczno@gmail.com",
                "website": "http:\/\/cnbia.pl",
                "ref:regon": "381362676",
                "operator": "Rafa\u0142 Ceg\u0142owski",
                "operator:type": "private",
                "amenity": "school"
            }
        },
        {
            "id": 269093,
            "type": "Feature",
            "geometry": {
                "type": "Point",
                "coordinates": [
                    21.02504,
                    52.0754199
                ]
            },
            "properties": {
                "isced:level": "4",
                "ref:rspo": 269093,
                "official_name": "Policealna Szko\u0142a Zawodowa Centrum Nauki Biznesu I Administracji w Piasecznie",
                "name": "Policealna Szko\u0142a Zawodowa Centrum Nauki Biznesu I Administracji w Piasecznie",
                "addr:postcode": "05-500",
                "addr:city": "Piaseczno",
                "addr:street": "Jana Paw\u0142a II",
                "addr:housenumber": "10",
                "addr:door": "6",
                "addr:city:simc": 921438,
                "addr:street:sym_ul": 7123,
                "phone": "+48 661015554",
                "email": "pszcnbia.piaseczno@gmail.com",
                "website": "https:\/\/szkolyarchimedes.edu.pl\/",
                "ref:regon": "381366214",
                "operator": "Rafa\u0142 Ceg\u0142owski",
                "operator:type": "private",
                "amenity": "college"
            }
        },
        {
            "id": 119102,
            "type": "Feature",
            "geometry": {
                "type": "Point",
                "coordinates": [
                    21.02858,
                    52.07555
                ]
            },
            "properties": {
                "ref:rspo": 119102,
                "official_name": "Punkt Przedszkolny Harwardzik",
                "name": "Punkt Przedszkolny Harwardzik",
                "addr:postcode": "05-500",
                "addr:city": "Piaseczno",
                "addr:street": "Warszawska",
                "addr:housenumber": "4",
                "addr:city:simc": 921438,
                "addr:street:sym_ul": 23682,
                "phone": "+48 601902603",
                "email": "kontakt@harwardzik.pl",
                "ref:regon": "146836171",
                "operator": "Magdalena Miko\u0142ajczyk",
                "operator:type": "private",
                "amenity": "kindergarten"
            }
        },
        {
            "id": 24077,
            "type": "Feature",
            "geometry": {
                "type": "Point",
                "coordinates": [
                    21.02235,
                    52.07558
                ]
            },
            "properties": {
                "ref:rspo": 24077,
                "official_name": "Poradnia Psychologiczno-Pedagogiczna",
                "name": "Poradnia Psychologiczno-Pedagogiczna",
                "addr:postcode": "05-500",
                "addr:city": "Piaseczno",
                "addr:street": "Wojska Polskiego",
                "addr:housenumber": "30",
                "addr:city:simc": 921438,
                "addr:street:sym_ul": 24628,
                "phone": "+48 227564455",
                "email": "poczta@poradnia.piaseczno.pl",
                "website": "http:\/\/www.poradnia.piaseczno.pl",
                "ref:regon": "016190181",
                "ref:vatin": "PL1230882292",
                "operator": "Powiat Piaseczy\u0144ski",
                "operator:type": "government",
                "healthcare": "counselling",
                "counselling_type": "education",
                "fixme": "w zale\u017cno\u015bci od przedmiotu dzia\u0142alno\u015bci (np. healthcare=counselling + counselling_type=education albo healthcare=psychotherapist)"
            }
        },
        {
            "id": 26110,
            "type": "Feature",
            "geometry": {
                "type": "Point",
                "coordinates": [
                    21.13074,
                    52.0756
                ]
            },
            "properties": {
                "ref:rspo": 26110,
                "official_name": "Specjalny O\u015brodek Wychowawczy Zgromadzenia Si\u00f3str Mi\u0142osierdzia \u015aw. Wincentego A Paulo",
                "name": "Specjalny O\u015brodek Wychowawczy Zgromadzenia Si\u00f3str Mi\u0142osierdzia \u015aw. Wincentego A Paulo",
                "addr:postcode": "05-502",
                "addr:city": "P\u0119chery",
                "addr:street": "Boles\u0142awa Chrobrego",
                "addr:housenumber": "80",
                "addr:city:simc": 6445,
                "addr:street:sym_ul": 1742,
                "phone": "+48 227567592",
                "email": "sow@sowlbiska.pl",
                "website": "http:\/\/www.sowlbiska.pl",
                "ref:regon": "146338409",
                "ref:vatin": "PL1230461337",
                "operator": "Zgromadzenie Si\u00f3str Mi\u0142osierdzia \u015aw. Wincentego A Paulo, Dom Zakonny",
                "operator:type": "religious",
                "amenity": "social_facility",
                "social_facility": "group_home",
                "social_facility:for": "child;juvenile"
            }
        },
        {
            "id": 105967,
            "type": "Feature",
            "geometry": {
                "type": "Point",
                "coordinates": [
                    21.13074,
                    52.07557
                ]
            },
            "properties": {
                "ref:rspo": 105967,
                "official_name": "Niepubliczne Przedszkole Integracyjne Zgromadzenia Si\u00f3str Mi\u0142osierdzia \u015aw. Wincentego A Paulo",
                "name": "Niepubliczne Przedszkole Integracyjne Zgromadzenia Si\u00f3str Mi\u0142osierdzia \u015aw. Wincentego A Paulo",
                "addr:postcode": "05-502",
                "addr:city": "P\u0119chery",
                "addr:street": "Boles\u0142awa Chrobrego",
                "addr:housenumber": "80",
                "addr:city:simc": 6445,
                "addr:street:sym_ul": 1742,
                "phone": "+48 227572599",
                "email": "przedszkolelbiska@poczta.fm",
                "website": "http:\/\/www.przedszkolelbiska.pl",
                "ref:regon": "146489812",
                "ref:vatin": "PL1231089437",
                "operator": "Zg.ss.mi\u0142osierdzia \u015aw.wincentego A Paulo, Prowincja Warszawska",
                "operator:type": "religious",
                "amenity": "kindergarten"
            }
        },
        {
            "id": 40978,
            "type": "Feature",
            "geometry": {
                "type": "Point",
                "coordinates": [
                    21.02303,
                    52.07576
                ]
            },
            "properties": {
                "ref:rspo": 40978,
                "official_name": "Przedszkole Nr 4 w Piasecznie",
                "name": "Przedszkole Nr 4 w Piasecznie",
                "addr:postcode": "05-500",
                "addr:city": "Piaseczno",
                "addr:street": "Fabryczna",
                "addr:housenumber": "13",
                "addr:city:simc": 921438,
                "addr:street:sym_ul": 4863,
                "phone": "+48 227567865",
                "email": "przedszkole.4.fabryczna@interia.eu",
                "ref:regon": "013006254",
                "ref:vatin": "PL1230899128",
                "operator": "Gmina Piaseczno",
                "operator:type": "government",
                "amenity": "kindergarten"
            }
        },
        {
            "id": 74278,
            "type": "Feature",
            "geometry": {
                "type": "Point",
                "coordinates": [
                    21.01912,
                    52.07578
                ]
            },
            "properties": {
                "ref:rspo": 74278,
                "official_name": "Niepubliczne Przedszkole Kleks 2",
                "name": "Niepubliczne Przedszkole Kleks 2",
                "addr:postcode": "05-500",
                "addr:city": "Piaseczno",
                "addr:street": "Fabryczna",
                "addr:housenumber": "32a",
                "addr:city:simc": 921438,
                "addr:street:sym_ul": 4863,
                "phone": "+48 227501555",
                "email": "ammolplus@gmail.com",
                "ref:regon": "146404112",
                "ref:vatin": "PL1230296507",
                "operator": "Piotr Ammol",
                "operator:type": "private",
                "amenity": "kindergarten"
            }
        },
        {
            "id": 22286,
            "type": "Feature",
            "geometry": {
                "type": "Point",
                "coordinates": [
                    21.03445,
                    52.0758
                ]
            },
            "properties": {
                "ref:rspo": 22286,
                "official_name": "Zesp\u00f3\u0142 Szk\u00f3\u0142 Nr 3 im. Cecylii Plater-Zyberk\u00f3wny",
                "name": "Zesp\u00f3\u0142 Szk\u00f3\u0142 Nr 3",
                "addr:postcode": "05-500",
                "addr:city": "Piaseczno",
                "addr:street": "Chyliczkowska",
                "addr:housenumber": "20",
                "addr:city:simc": 921438,
                "addr:street:sym_ul": 2953,
                "phone": "+48 227567354",
                "email": "zs.rcku2@interia.pl",
                "website": "http:\/\/zs3piaseczno.pl",
                "ref:regon": "000095390",
                "ref:vatin": "PL1230789925",
                "operator": "Powiat Piaseczy\u0144ski",
                "operator:type": "government",
                "landuse": "education",
                "fixme": "amenity=school, amenity=college albo landuse=education w zale\u017cno\u015bci od tego, jakie plac\u00f3wki wchodz\u0105 w sk\u0142ad zespo\u0142u. Sprawd\u017a, kiedy stosowa\u0107 amenity=* a kiedy landuse=education.",
                "note": "Children RSPO: 25550;25575;25622;26080"
            }
        },
        {
            "id": 25550,
            "type": "Feature",
            "geometry": {
                "type": "Point",
                "coordinates": [
                    21.03445,
                    52.07577
                ]
            },
            "properties": {
                "isced:level": "3",
                "ref:rspo": 25550,
                "official_name": "Technikum Nr 3",
                "name": "Technikum Nr 3",
                "addr:postcode": "05-500",
                "addr:city": "Piaseczno",
                "addr:street": "Chyliczkowska",
                "addr:housenumber": "20",
                "addr:city:simc": 921438,
                "addr:street:sym_ul": 2953,
                "phone": "+48 227567354",
                "email": "zs.rcku2@interia.pl",
                "website": "http:\/\/www.zsrcku.com.pl",
                "ref:regon": "015792073",
                "operator": "Powiat Piaseczy\u0144ski",
                "operator:type": "government",
                "amenity": "school",
                "note": "Parent RSPO: 22286"
            }
        },
        {
            "id": 25575,
            "type": "Feature",
            "geometry": {
                "type": "Point",
                "coordinates": [
                    21.03445,
                    52.07574
                ]
            },
            "properties": {
                "isced:level": "3",
                "ref:rspo": 25575,
                "official_name": "Iii Liceum Og\u00f3lnokszta\u0142c\u0105ce",
                "name": "Iii Liceum Og\u00f3lnokszta\u0142c\u0105ce",
                "addr:postcode": "05-500",
                "addr:city": "Piaseczno",
                "addr:street": "Chyliczkowska",
                "addr:housenumber": "20",
                "addr:city:simc": 921438,
                "addr:street:sym_ul": 2953,
                "email": "zs.rcku2@interia.pl",
                "website": "http:\/\/www.zsrcku.com.pl",
                "ref:regon": "015792133",
                "operator": "Powiat Piaseczy\u0144ski",
                "operator:type": "government",
                "amenity": "school",
                "note": "Parent RSPO: 22286"
            }
        },
        {
            "id": 25622,
            "type": "Feature",
            "geometry": {
                "type": "Point",
                "coordinates": [
                    21.03445,
                    52.07571
                ]
            },
            "properties": {
                "isced:level": "3",
                "ref:rspo": 25622,
                "official_name": "I Liceum Og\u00f3lnokszta\u0142c\u0105ce dla Doros\u0142ych",
                "name": "I Liceum Og\u00f3lnokszta\u0142c\u0105ce dla Doros\u0142ych",
                "addr:postcode": "05-500",
                "addr:city": "Piaseczno",
                "addr:street": "Chyliczkowska",
                "addr:housenumber": "20",
                "addr:city:simc": 921438,
                "addr:street:sym_ul": 2953,
                "email": "zs.rcku2@interia.pl",
                "website": "http:\/\/www.zsrcku.com.pl",
                "ref:regon": "015792067",
                "operator": "Powiat Piaseczy\u0144ski",
                "operator:type": "government",
                "amenity": "school",
                "note": "Parent RSPO: 22286"
            }
        },
        {
            "id": 26080,
            "type": "Feature",
            "geometry": {
                "type": "Point",
                "coordinates": [
                    21.03445,
                    52.07568
                ]
            },
            "properties": {
                "isced:level": "3",
                "ref:rspo": 26080,
                "official_name": "Bran\u017cowa Szko\u0142a I Stopnia Nr 3",
                "name": "Bran\u017cowa Szko\u0142a I Stopnia Nr 3",
                "addr:postcode": "05-500",
                "addr:city": "Piaseczno",
                "addr:street": "Chyliczkowska",
                "addr:housenumber": "20",
                "addr:city:simc": 921438,
                "addr:street:sym_ul": 2953,
                "phone": "+48 227567354",
                "email": "zs.rcku2@interia.pl",
                "website": "http:\/\/www.zsrcku.com.pl",
                "ref:regon": "146337137",
                "operator": "Powiat Piaseczy\u0144ski",
                "operator:type": "government",
                "amenity": "school",
                "note": "Parent RSPO: 22286"
            }
        },
        {
            "id": 91996,
            "type": "Feature",
            "geometry": {
                "type": "Point",
                "coordinates": [
                    21.0121,
                    52.07663
                ]
            },
            "properties": {
                "ref:rspo": 91996,
                "official_name": "Przedszkole Niepubliczne Chatka Puchatka",
                "name": "Przedszkole Niepubliczne Chatka Puchatka",
                "addr:postcode": "05-500",
                "addr:city": "Piaseczno",
                "addr:street": "Kazimierza Jarz\u0105bka",
                "addr:housenumber": "4",
                "addr:city:simc": 921438,
                "addr:street:sym_ul": 32097,
                "phone": "+48 227500457",
                "email": "info@chatka.puchatka.pl",
                "website": "http:\/\/chatka.puchatka.pl",
                "ref:regon": "146432440",
                "ref:vatin": "PL6571955994",
                "operator": "Adrianna Mieszcza\u0144ska",
                "operator:type": "private",
                "amenity": "kindergarten"
            }
        },
        {
            "id": 105839,
            "type": "Feature",
            "geometry": {
                "type": "Point",
                "coordinates": [
                    21.03266,
                    52.07669
                ]
            },
            "properties": {
                "isced:level": "3",
                "ref:rspo": 105839,
                "official_name": "Iv Liceum Og\u00f3lnokszta\u0142c\u0105ce im. Rtm. Witolda Pileckiego",
                "name": "Iv Liceum Og\u00f3lnokszta\u0142c\u0105ce",
                "addr:postcode": "05-500",
                "addr:city": "Piaseczno",
                "addr:street": "Chyliczkowska",
                "addr:housenumber": "17",
                "addr:city:simc": 921438,
                "addr:street:sym_ul": 2953,
                "phone": "+48 227567413",
                "email": "sekretariat@lopiaseczno.waw.pl",
                "website": "http:\/\/www.lopiaseczno.waw.pl",
                "ref:regon": "000799397",
                "ref:vatin": "PL1230045136",
                "operator": "Powiat Piaseczy\u0144ski",
                "operator:type": "government",
                "amenity": "school"
            }
        },
        {
            "id": 128020,
            "type": "Feature",
            "geometry": {
                "type": "Point",
                "coordinates": [
                    21.02842,
                    52.07682
                ]
            },
            "properties": {
                "ref:rspo": 128020,
                "official_name": "Przedszkole Publiczne Ala I Kot",
                "name": "Przedszkole Publiczne Ala I Kot",
                "addr:postcode": "05-500",
                "addr:city": "Piaseczno",
                "addr:street": "Zgoda",
                "addr:housenumber": "27",
                "addr:city:simc": 921438,
                "addr:street:sym_ul": 26022,
                "phone": "+48 662619546",
                "email": "kontakt@alaikot.pl",
                "ref:regon": "362026915",
                "ref:vatin": "PL6261987480",
                "operator": "Jolanta Szymosz",
                "operator:type": "private",
                "amenity": "kindergarten"
            }
        },
        {
            "id": 83978,
            "type": "Feature",
            "geometry": {
                "type": "Point",
                "coordinates": [
                    21.02129,
                    52.07687
                ]
            },
            "properties": {
                "isced:level": "1;2",
                "ref:rspo": 83978,
                "official_name": "Szko\u0142a Podstawowa Nr 5 im.krzysztofa Kamila Baczy\u0144skiego w Piasecznie",
                "name": "Szko\u0142a Podstawowa Nr 5 im.krzysztofa Kamila Baczy\u0144skiego w Piasecznie",
                "addr:postcode": "05-500",
                "addr:city": "Piaseczno",
                "addr:street": "Szkolna",
                "addr:housenumber": "14",
                "addr:city:simc": 921438,
                "addr:street:sym_ul": 21970,
                "phone": "+48 227567439",
                "email": "sp5pias@wp.pl",
                "website": "http:\/\/www.sp5piaseczno.pl",
                "ref:regon": "000799641",
                "ref:vatin": "PL1230899387",
                "operator": "Gmina Piaseczno",
                "operator:type": "government",
                "amenity": "school"
            }
        },
        {
            "id": 30639,
            "type": "Feature",
            "geometry": {
                "type": "Point",
                "coordinates": [
                    21.02927,
                    52.07721
                ]
            },
            "properties": {
                "ref:rspo": 30639,
                "official_name": "M\u0142odzie\u017cowy O\u015brodek Socjoterapii \"Dom Matki Dobrego Pasterza\"",
                "name": "M\u0142odzie\u017cowy O\u015brodek Socjoterapii \"Dom Matki Dobrego Pasterza\"",
                "addr:postcode": "05-500",
                "addr:city": "Piaseczno",
                "addr:street": "Zgoda",
                "addr:housenumber": "14",
                "addr:city:simc": 921438,
                "addr:street:sym_ul": 26022,
                "phone": "+48 227568337",
                "email": "poczta@mos-piaseczno.pl",
                "website": "http:\/\/mos-piaseczno.pl",
                "ref:regon": "146359162",
                "ref:vatin": "PL1230848409",
                "operator": "Zgromadzenie S\u0142u\u017cebnic Matki Dobrego Pasterza, Dom Generalny",
                "operator:type": "religious",
                "fixme": "amenity=social_facility + social_facility=group_home + social_facility:for=juvenile",
                "note": "Children RSPO: 127728;127751;262274"
            }
        },
        {
            "id": 127728,
            "type": "Feature",
            "geometry": {
                "type": "Point",
                "coordinates": [
                    21.02927,
                    52.07718
                ]
            },
            "properties": {
                "isced:level": "3",
                "ref:rspo": 127728,
                "official_name": "Bran\u017cowa Szko\u0142a I Stopnia",
                "name": "Bran\u017cowa Szko\u0142a I Stopnia",
                "addr:postcode": "05-500",
                "addr:city": "Piaseczno",
                "addr:street": "Zgoda",
                "addr:housenumber": "14",
                "addr:city:simc": 921438,
                "addr:street:sym_ul": 26022,
                "phone": "+48 227568337",
                "email": "szkola@mos-piaseczno.pl",
                "website": "http:\/\/mos-piaseczno.pl",
                "ref:regon": "361817939",
                "operator": "Zgromadzenie S\u0142u\u017cebnic Matki Dobrego Pasterza, Dom Generalny",
                "operator:type": "religious",
                "amenity": "school",
                "note": "Parent RSPO: 30639"
            }
        },
        {
            "id": 127751,
            "type": "Feature",
            "geometry": {
                "type": "Point",
                "coordinates": [
                    21.02927,
                    52.07715
                ]
            },
            "properties": {
                "isced:level": "3",
                "ref:rspo": 127751,
                "official_name": "Technikum Specjalne im. \u015aw. Ma\u0142gorzaty Z Kortony",
                "name": "Technikum Specjalne",
                "addr:postcode": "05-500",
                "addr:city": "Piaseczno",
                "addr:street": "Zgoda",
                "addr:housenumber": "14",
                "addr:city:simc": 921438,
                "addr:street:sym_ul": 26022,
                "phone": "+48 227568337",
                "email": "szkola@mos-piaseczno.pl",
                "website": "http:\/\/mos-piaseczno.pl",
                "ref:regon": "361820025",
                "operator": "Zgromadzenie S\u0142u\u017cebnic Matki Dobrego Pasterza, Dom Generalny",
                "operator:type": "religious",
                "amenity": "school",
                "note": "Parent RSPO: 30639"
            }
        },
        {
            "id": 262274,
            "type": "Feature",
            "geometry": {
                "type": "Point",
                "coordinates": [
                    21.02927,
                    52.07712
                ]
            },
            "properties": {
                "isced:level": "1;2",
                "ref:rspo": 262274,
                "official_name": "Szko\u0142a Podstawowa Specjalna im. \u015aw. Ma\u0142gorzaty Z Kortony",
                "name": "Szko\u0142a Podstawowa Specjalna",
                "addr:postcode": "05-500",
                "addr:city": "Piaseczno",
                "addr:street": "Zgoda",
                "addr:housenumber": "14",
                "addr:city:simc": 921438,
                "addr:street:sym_ul": 26022,
                "phone": "+48 227568337",
                "email": "szkola@mos-piaseczno.pl",
                "website": "http:\/\/mos-piaseczno.pl",
                "ref:regon": "367999628",
                "operator": "Zgromadzenie S\u0142u\u017cebnic Matki Dobrego Pasterza, Dom Generalny",
                "operator:type": "religious",
                "amenity": "school",
                "note": "Parent RSPO: 30639"
            }
        },
        {
            "id": 273740,
            "type": "Feature",
            "geometry": {
                "type": "Point",
                "coordinates": [
                    21.03454,
                    52.07785
                ]
            },
            "properties": {
                "ref:rspo": 273740,
                "official_name": "Poradnia Psychologiczno-Pedagogiczna Gedeon Medica",
                "name": "Poradnia Psychologiczno-Pedagogiczna Gedeon Medica",
                "addr:postcode": "05-500",
                "addr:city": "Piaseczno",
                "addr:street": "M\u0142ynarska",
                "addr:housenumber": "39",
                "addr:door": "8",
                "addr:city:simc": 921438,
                "addr:street:sym_ul": 13112,
                "phone": "+48 668927239",
                "email": "e.bonder@gedeonmedica.com.pl",
                "website": "http:\/\/www.gedeonmedica.pl",
                "ref:regon": "384596676",
                "operator": "Gedeon Medica Sp\u00f3\u0142ka Z Ograniczon\u0105 Odpowiedzialno\u015bci\u0105",
                "operator:type": "private",
                "healthcare": "counselling",
                "counselling_type": "education",
                "fixme": "w zale\u017cno\u015bci od przedmiotu dzia\u0142alno\u015bci (np. healthcare=counselling + counselling_type=education albo healthcare=psychotherapist)"
            }
        },
        {
            "id": 83972,
            "type": "Feature",
            "geometry": {
                "type": "Point",
                "coordinates": [
                    21.06685,
                    52.07829
                ]
            },
            "properties": {
                "isced:level": "1;2",
                "ref:rspo": 83972,
                "official_name": "Szko\u0142a Podstawowa im. Ksi\u0119dza Jana Twardowskiego w Chylicach",
                "name": "Szko\u0142a Podstawowa",
                "addr:postcode": "05-510",
                "addr:city": "Chylice",
                "addr:street": "Dworska",
                "addr:housenumber": "2",
                "addr:city:simc": 6221,
                "addr:street:sym_ul": 4446,
                "phone": "+48 227564125",
                "email": "sekretariat@szkolachylice.pl",
                "website": "http:\/\/szkolachylice.pl",
                "ref:regon": "000799687",
                "ref:vatin": "PL1230900481",
                "operator": "Gmina Piaseczno",
                "operator:type": "government",
                "amenity": "school"
            }
        },
        {
            "id": 30496,
            "type": "Feature",
            "geometry": {
                "type": "Point",
                "coordinates": [
                    21.03178,
                    52.07864
                ]
            },
            "properties": {
                "ref:rspo": 30496,
                "official_name": "Poradnia Psychologiczno-Pedagogiczna",
                "name": "Poradnia Psychologiczno-Pedagogiczna",
                "addr:postcode": "05-500",
                "addr:city": "Piaseczno",
                "addr:street": "M\u0142ynarska",
                "addr:housenumber": "21",
                "addr:door": "106",
                "addr:city:simc": 921438,
                "addr:street:sym_ul": 13112,
                "phone": "+48 227501402",
                "email": "poradnia@poradniapsychped1.pl",
                "website": "http:\/\/www.poradniapsychped.pl",
                "ref:regon": "146346930",
                "ref:vatin": "PL1230067008",
                "operator": "Joanna Matyjasiak",
                "operator:type": "private",
                "healthcare": "counselling",
                "counselling_type": "education",
                "fixme": "w zale\u017cno\u015bci od przedmiotu dzia\u0142alno\u015bci (np. healthcare=counselling + counselling_type=education albo healthcare=psychotherapist)"
            }
        },
        {
            "id": 38912,
            "type": "Feature",
            "geometry": {
                "type": "Point",
                "coordinates": [
                    21.01063,
                    52.07875
                ]
            },
            "properties": {
                "ref:rspo": 38912,
                "official_name": "Poradnia Psychologiczno-Pedagogiczna",
                "name": "Poradnia Psychologiczno-Pedagogiczna",
                "addr:postcode": "05-500",
                "addr:city": "Piaseczno",
                "addr:street": "Pawia",
                "addr:housenumber": "7",
                "addr:door": "148",
                "addr:city:simc": 921438,
                "addr:street:sym_ul": 15832,
                "phone": "+48 227507202",
                "email": "malgosiazero@o2.pl",
                "website": "http:\/\/www.poradnia-piaseczno.pl",
                "ref:regon": "146354963",
                "ref:vatin": "PL1230452769",
                "operator": "Ma\u0142gorzata \u017bero",
                "operator:type": "private",
                "healthcare": "counselling",
                "counselling_type": "education",
                "fixme": "w zale\u017cno\u015bci od przedmiotu dzia\u0142alno\u015bci (np. healthcare=counselling + counselling_type=education albo healthcare=psychotherapist)"
            }
        },
        {
            "id": 91825,
            "type": "Feature",
            "geometry": {
                "type": "Point",
                "coordinates": [
                    21.00857,
                    52.07882
                ]
            },
            "properties": {
                "ref:rspo": 91825,
                "official_name": "Niepubliczne Przedszkole Terateutyczno-Rehabilitacyjne Brzd\u0105c",
                "name": "Niepubliczne Przedszkole Terateutyczno-Rehabilitacyjne Brzd\u0105c",
                "addr:postcode": "05-500",
                "addr:city": "Piaseczno",
                "addr:street": "Kazimierza Jarz\u0105bka",
                "addr:housenumber": "20",
                "addr:door": "3",
                "addr:city:simc": 921438,
                "addr:street:sym_ul": 32097,
                "phone": "+48 509028929",
                "email": "malgorzata.zero@brzdac.com.pl",
                "ref:regon": "146450425",
                "ref:vatin": "PL1230452769",
                "operator": "Ma\u0142gorzata \u017bero",
                "operator:type": "private",
                "amenity": "kindergarten"
            }
        },
        {
            "id": 106022,
            "type": "Feature",
            "geometry": {
                "type": "Point",
                "coordinates": [
                    21.00857,
                    52.07879
                ]
            },
            "properties": {
                "ref:rspo": 106022,
                "official_name": "Integracyjno-Rehabilitacyjne Przedszkole Niepubliczne Panda",
                "name": "Integracyjno-Rehabilitacyjne Przedszkole Niepubliczne Panda",
                "addr:postcode": "05-500",
                "addr:city": "Piaseczno",
                "addr:street": "Kazimierza Jarz\u0105bka",
                "addr:housenumber": "20",
                "addr:door": "1",
                "addr:city:simc": 921438,
                "addr:street:sym_ul": 32097,
                "phone": "+48 790630101",
                "email": "a.domska@centrum-panda.pl",
                "website": "http:\/\/www.centrum-panda.pl",
                "ref:regon": "146469815",
                "operator": "Agata Domska",
                "operator:type": "private",
                "amenity": "kindergarten"
            }
        },
        {
            "id": 25644,
            "type": "Feature",
            "geometry": {
                "type": "Point",
                "coordinates": [
                    21.01539,
                    52.07937
                ]
            },
            "properties": {
                "isced:level": "4",
                "ref:rspo": 25644,
                "official_name": "Policealna Szko\u0142a Centrum Nauki I Biznesu \u017bak w Piasecznie",
                "name": "Policealna Szko\u0142a Centrum Nauki I Biznesu \u017bak w Piasecznie",
                "addr:postcode": "05-500",
                "addr:city": "Piaseczno",
                "addr:street": "Powsta\u0144c\u00f3w Warszawy",
                "addr:housenumber": "21",
                "addr:city:simc": 921438,
                "addr:street:sym_ul": 17372,
                "phone": "+48 227267473",
                "email": "piaseczno@zak.edu.pl",
                "website": "http:\/\/www.zak.edu.pl",
                "ref:regon": "146339700",
                "ref:vatin": "PL7292597869",
                "operator": "Centrum Nauki I Biznesu \"\u017bak\" Sp\u00f3\u0142ka Z Ograniczon\u0105 Odpowiedzialno\u015bci\u0105",
                "operator:type": "private",
                "amenity": "college"
            }
        },
        {
            "id": 25646,
            "type": "Feature",
            "geometry": {
                "type": "Point",
                "coordinates": [
                    21.01539,
                    52.079339999999995
                ]
            },
            "properties": {
                "isced:level": "3",
                "ref:rspo": 25646,
                "official_name": "Liceum Og\u00f3lnokszta\u0142c\u0105ce dla Doros\u0142ych \u017bak w Piasecznie",
                "name": "Liceum Og\u00f3lnokszta\u0142c\u0105ce dla Doros\u0142ych \u017bak w Piasecznie",
                "addr:postcode": "05-500",
                "addr:city": "Piaseczno",
                "addr:street": "Powsta\u0144c\u00f3w Warszawy",
                "addr:housenumber": "21",
                "addr:city:simc": 921438,
                "addr:street:sym_ul": 17372,
                "phone": "+48 227267473",
                "email": "piaseczno@zak.edu.pl",
                "website": "http:\/\/www.zak.edu.pl",
                "ref:regon": "146338310",
                "ref:vatin": "PL7292597869",
                "operator": "Centrum Nauki I Biznesu \"\u017bak\" Sp\u00f3\u0142ka Z Ograniczon\u0105 Odpowiedzialno\u015bci\u0105",
                "operator:type": "private",
                "amenity": "school"
            }
        },
        {
            "id": 25649,
            "type": "Feature",
            "geometry": {
                "type": "Point",
                "coordinates": [
                    21.01539,
                    52.07931
                ]
            },
            "properties": {
                "ref:rspo": 25649,
                "official_name": "O\u015brodek Szkoleniowy Centrum Nauki I Biznesu \u017bak w Piasecznie",
                "name": "O\u015brodek Szkoleniowy Centrum Nauki I Biznesu \u017bak w Piasecznie",
                "addr:postcode": "05-500",
                "addr:city": "Piaseczno",
                "addr:street": "Powsta\u0144c\u00f3w Warszawy",
                "addr:housenumber": "21",
                "addr:city:simc": 921438,
                "addr:street:sym_ul": 17372,
                "phone": "+48 227267473",
                "email": "piaseczno@zak.edu.pl",
                "website": "http:\/\/www.zak.edu.pl",
                "ref:regon": "146338295",
                "ref:vatin": "PL7292597869",
                "operator": "Centrum Nauki I Biznesu \"\u017bak\" Sp\u00f3\u0142ka Z Ograniczon\u0105 Odpowiedzialno\u015bci\u0105",
                "operator:type": "private",
                "fixme": "w zale\u017cno\u015bci od przedmiotu dzia\u0142alno\u015bci (np. amenity=training + training=*, amenity=dancing_school, amenity=language_school, amenity=music_school) albo amenity=school, amenity=college, albo landuse=education w zale\u017cno\u015bci od tego, jakie plac\u00f3wki wchodz\u0105 w sk\u0142ad zespo\u0142u. Sprawd\u017a, kiedy stosowa\u0107 amenity=* a kiedy landuse=education."
            }
        },
        {
            "id": 271393,
            "type": "Feature",
            "geometry": {
                "type": "Point",
                "coordinates": [
                    21.01539,
                    52.07928
                ]
            },
            "properties": {
                "isced:level": "4",
                "ref:rspo": 271393,
                "official_name": "Policealna Szko\u0142a Opieki Medycznej dla Doros\u0142ych \"\u017bak\" w Piasecznie",
                "name": "Policealna Szko\u0142a Opieki Medycznej dla Doros\u0142ych \"\u017bak\" w Piasecznie",
                "addr:postcode": "05-500",
                "addr:city": "Piaseczno",
                "addr:street": "Powsta\u0144c\u00f3w Warszawy",
                "addr:housenumber": "21",
                "addr:city:simc": 921438,
                "addr:street:sym_ul": 17372,
                "phone": "+48 227267473",
                "email": "piaseczno@zak.edu.pl",
                "website": "http:\/\/piaseczno.zak.edu.pl",
                "ref:regon": "383313430",
                "operator": "Centrum Nauki I Biznesu \"\u017bak\" Sp\u00f3\u0142ka Z Ograniczon\u0105 Odpowiedzialno\u015bci\u0105",
                "operator:type": "private",
                "amenity": "college"
            }
        },
        {
            "id": 276860,
            "type": "Feature",
            "geometry": {
                "type": "Point",
                "coordinates": [
                    21.01539,
                    52.079249999999995
                ]
            },
            "properties": {
                "isced:level": "4",
                "ref:rspo": 276860,
                "official_name": "Publiczna Szko\u0142a Policealna Opieki Medycznej \"\u017bak\"",
                "name": "Publiczna Szko\u0142a Policealna Opieki Medycznej \"\u017bak\"",
                "addr:postcode": "05-500",
                "addr:city": "Piaseczno",
                "addr:street": "Powsta\u0144c\u00f3w Warszawy",
                "addr:housenumber": "21",
                "addr:city:simc": 921438,
                "addr:street:sym_ul": 17372,
                "phone": "+48 227267473",
                "email": "piaseczno@zak.edu.pl",
                "ref:regon": "387746716",
                "operator": "Centrum Nauki I Biznesu \"\u017bak\" Sp\u00f3\u0142ka Z Ograniczon\u0105 Odpowiedzialno\u015bci\u0105",
                "operator:type": "private",
                "amenity": "college"
            }
        },
        {
            "id": 276861,
            "type": "Feature",
            "geometry": {
                "type": "Point",
                "coordinates": [
                    21.01539,
                    52.07922
                ]
            },
            "properties": {
                "isced:level": "4",
                "ref:rspo": 276861,
                "official_name": "Szko\u0142a Policealna Medyczna \"\u017bak\"",
                "name": "Szko\u0142a Policealna Medyczna \"\u017bak\"",
                "addr:postcode": "05-500",
                "addr:city": "Piaseczno",
                "addr:street": "Powsta\u0144c\u00f3w Warszawy",
                "addr:housenumber": "21",
                "addr:city:simc": 921438,
                "addr:street:sym_ul": 17372,
                "phone": "+48 227267473",
                "email": "piaseczno@zak.edu.pl",
                "website": "http:\/\/piaseczno.zak.edu.pl",
                "ref:regon": "387746722",
                "operator": "Centrum Nauki I Biznesu \"\u017bak\" Sp\u00f3\u0142ka Z Ograniczon\u0105 Odpowiedzialno\u015bci\u0105",
                "operator:type": "private",
                "amenity": "college"
            }
        },
        {
            "id": 273473,
            "type": "Feature",
            "geometry": {
                "type": "Point",
                "coordinates": [
                    21.0278,
                    52.07961
                ]
            },
            "properties": {
                "ref:rspo": 273473,
                "official_name": "Niepubliczne Przedszkole Creative Mind School",
                "name": "Niepubliczne Przedszkole Creative Mind School",
                "addr:postcode": "05-500",
                "addr:city": "Piaseczno",
                "addr:street": "Warszawska",
                "addr:housenumber": "30",
                "addr:door": "5,6",
                "addr:city:simc": 921438,
                "addr:street:sym_ul": 23682,
                "phone": "+48 508237723",
                "email": "biuro.creativemind@gmail.com",
                "ref:regon": "384476676",
                "operator": "Damian Szewczyk",
                "operator:type": "private",
                "amenity": "kindergarten"
            }
        },
        {
            "id": 124745,
            "type": "Feature",
            "geometry": {
                "type": "Point",
                "coordinates": [
                    21.01844,
                    52.07968
                ]
            },
            "properties": {
                "isced:level": "3",
                "ref:rspo": 124745,
                "official_name": "Zaoczne Liceum Og\u00f3lnokszta\u0142c\u0105ce \"Cosinus\" w Piasecznie",
                "name": "Zaoczne Liceum Og\u00f3lnokszta\u0142c\u0105ce \"Cosinus\" w Piasecznie",
                "addr:postcode": "05-500",
                "addr:city": "Piaseczno",
                "addr:street": "Sikorskiego",
                "addr:housenumber": "20",
                "addr:city:simc": 921438,
                "addr:street:sym_ul": 19900,
                "phone": "+48 227567209",
                "email": "piaseczno@cosinus.pl",
                "website": "http:\/\/www.cosinus.pl\/piaseczno",
                "ref:regon": "147404634",
                "operator": "Fundacja Cosinus Edukacja Ps",
                "operator:type": "ngo",
                "amenity": "school"
            }
        },
        {
            "id": 125640,
            "type": "Feature",
            "geometry": {
                "type": "Point",
                "coordinates": [
                    21.01844,
                    52.07965
                ]
            },
            "properties": {
                "isced:level": "4",
                "ref:rspo": 125640,
                "official_name": "Policealna Szko\u0142a \"Cosinus\" w Piasecznie",
                "name": "Policealna Szko\u0142a \"Cosinus\" w Piasecznie",
                "addr:postcode": "05-500",
                "addr:city": "Piaseczno",
                "addr:street": "Sikorskiego",
                "addr:housenumber": "20",
                "addr:city:simc": 921438,
                "addr:street:sym_ul": 19900,
                "phone": "+48 227567209",
                "email": "piaseczno@cosinus.pl",
                "website": "http:\/\/www.cosinus.pl\/piaseczno",
                "ref:regon": "147463565",
                "operator": "Fundacja Cosinus Edukacja Ps",
                "operator:type": "ngo",
                "amenity": "college"
            }
        },
        {
            "id": 83985,
            "type": "Feature",
            "geometry": {
                "type": "Point",
                "coordinates": [
                    21.0484,
                    52.08191
                ]
            },
            "properties": {
                "ref:rspo": 83985,
                "official_name": "Przedszkole Nr 9 w Piasecznie",
                "name": "Przedszkole Nr 9 w Piasecznie",
                "addr:postcode": "05-500",
                "addr:city": "Piaseczno",
                "addr:street": "Przesmyckiego",
                "addr:housenumber": "100\/101",
                "addr:city:simc": 921438,
                "addr:street:sym_ul": 51288,
                "phone": "+48 227562297",
                "email": "przedszkole9.piaseczno@gmail.com",
                "website": "https:\/\/przedszkole9.edupage.org",
                "ref:regon": "013006283",
                "ref:vatin": "PL1230899186",
                "operator": "Gmina Piaseczno",
                "operator:type": "government",
                "amenity": "kindergarten"
            }
        },
        {
            "id": 274449,
            "type": "Feature",
            "geometry": {
                "type": "Point",
                "coordinates": [
                    21.07117,
                    52.08376
                ]
            },
            "properties": {
                "ref:rspo": 274449,
                "official_name": "Niepubliczny Punkt Przedszkolny La Maternelle",
                "name": "Niepubliczny Punkt Przedszkolny La Maternelle",
                "addr:postcode": "05-510",
                "addr:city": "Chyliczki",
                "addr:street": "\u0141amana",
                "addr:housenumber": "7",
                "addr:city:simc": 6244,
                "addr:street:sym_ul": 11507,
                "phone": "+48 607043216",
                "email": "biuro@lamaternelle.edu.pl",
                "ref:regon": "385800966",
                "operator": "Tricolore Groupe Sp\u00f3\u0142ka Z Ograniczon\u0105 Odpowiedzialno\u015bci\u0105",
                "operator:type": "private",
                "amenity": "kindergarten"
            }
        },
        {
            "id": 275184,
            "type": "Feature",
            "geometry": {
                "type": "Point",
                "coordinates": [
                    21.06062,
                    52.08704
                ]
            },
            "properties": {
                "ref:rspo": 275184,
                "official_name": "Mazowieckie Centrum Kszta\u0142cenia Kadr-Dar Sport Tour",
                "name": "Mazowieckie Centrum Kszta\u0142cenia Kadr-Dar Sport Tour",
                "addr:postcode": "05-500",
                "addr:city": "Piaseczno",
                "addr:street": "Owocowy Sad",
                "addr:housenumber": "17",
                "addr:door": "3",
                "addr:city:simc": 921438,
                "addr:street:sym_ul": 40326,
                "phone": "+48 606542444",
                "email": "lozn@interia.pl",
                "ref:regon": "386671063",
                "operator": "Dar Sport Tour Dariusz Kluszczy\u0144ski",
                "operator:type": "consortium",
                "amenity": "training"
            }
        },
        {
            "id": 39706,
            "type": "Feature",
            "geometry": {
                "type": "Point",
                "coordinates": [
                    21.0509,
                    52.09073
                ]
            },
            "properties": {
                "ref:rspo": 39706,
                "official_name": "Niepubliczna Poradnia Psychologiczno-Pedagogiczna \"Tersen\"",
                "name": "Niepubliczna Poradnia Psychologiczno-Pedagogiczna \"Tersen\"",
                "addr:postcode": "05-500",
                "addr:city": "Piaseczno",
                "addr:street": "Julianowska",
                "addr:housenumber": "66b",
                "addr:city:simc": 921438,
                "addr:street:sym_ul": 7656,
                "phone": "+48 602507701",
                "email": "sekretariat@jedynka-julianow.pl",
                "website": "http:\/\/www.tersen.pl",
                "ref:regon": "146376261",
                "ref:vatin": "PL1230871153",
                "operator": "Maria Kali\u0144ska",
                "operator:type": "private",
                "healthcare": "counselling",
                "counselling_type": "education",
                "fixme": "w zale\u017cno\u015bci od przedmiotu dzia\u0142alno\u015bci (np. healthcare=counselling + counselling_type=education albo healthcare=psychotherapist)"
            }
        },
        {
            "id": 126496,
            "type": "Feature",
            "geometry": {
                "type": "Point",
                "coordinates": [
                    21.0509,
                    52.0907
                ]
            },
            "properties": {
                "ref:rspo": 126496,
                "official_name": "Publiczne Przedszkole Nr 1 Z Oddzia\u0142ami Integracyjnymi",
                "name": "Publiczne Przedszkole Nr 1 Z Oddzia\u0142ami Integracyjnymi",
                "addr:postcode": "05-500",
                "addr:city": "Julian\u00f3w",
                "addr:street": "Julianowska",
                "addr:housenumber": "66B",
                "addr:city:simc": 6379,
                "addr:street:sym_ul": 7656,
                "phone": "+48 602507701",
                "email": "sekretariat@jedynka-julianow.pl",
                "website": "http:\/\/www.jedynka-julianow.pl",
                "ref:regon": "360386041",
                "operator": "Maria Kali\u0144ska",
                "operator:type": "private",
                "amenity": "kindergarten"
            }
        },
        {
            "id": 128019,
            "type": "Feature",
            "geometry": {
                "type": "Point",
                "coordinates": [
                    21.0509,
                    52.09067
                ]
            },
            "properties": {
                "isced:level": "1;2",
                "ref:rspo": 128019,
                "official_name": "Publiczna Szko\u0142a Podstawowa Nr 1 Z Oddzia\u0142ami Integracyjnymi",
                "name": "Publiczna Szko\u0142a Podstawowa Nr 1 Z Oddzia\u0142ami Integracyjnymi",
                "addr:postcode": "05-500",
                "addr:city": "Julian\u00f3w",
                "addr:street": "Julianowska",
                "addr:housenumber": "66B",
                "addr:city:simc": 6379,
                "addr:street:sym_ul": 7656,
                "phone": "+48 602507701",
                "email": "sekretariat@jedynka-julianow.pl",
                "ref:regon": "362026855",
                "ref:vatin": "PL1230871153",
                "operator": "Maria Kali\u0144ska",
                "operator:type": "private",
                "amenity": "school"
            }
        },
        {
            "id": 132367,
            "type": "Feature",
            "geometry": {
                "type": "Point",
                "coordinates": [
                    21.03344,
                    52.09161
                ]
            },
            "properties": {
                "ref:rspo": 132367,
                "official_name": "Punkt Przedszkolny \"Stumilowy Las\"",
                "name": "Punkt Przedszkolny \"Stumilowy Las\"",
                "addr:postcode": "05-500",
                "addr:city": "Piaseczno",
                "addr:street": "Energetyczna",
                "addr:housenumber": "11",
                "addr:city:simc": 921438,
                "addr:street:sym_ul": 4801,
                "phone": "+48 692253423",
                "email": "izzabienkowska@gmail.com",
                "website": "http:\/\/stumilowylas.edu.pl",
                "ref:regon": "365574066",
                "operator": "Barbara Kaczmarek",
                "operator:type": "private",
                "amenity": "kindergarten"
            }
        },
        {
            "id": 91998,
            "type": "Feature",
            "geometry": {
                "type": "Point",
                "coordinates": [
                    21.01779,
                    52.09174
                ]
            },
            "properties": {
                "ref:rspo": 91998,
                "official_name": "Przedszkole Niepubliczne Akwarella",
                "name": "Przedszkole Niepubliczne Akwarella",
                "addr:postcode": "05-500",
                "addr:city": "Piaseczno",
                "addr:street": "Pu\u0142awska",
                "addr:housenumber": "45b",
                "addr:door": "5",
                "addr:city:simc": 921438,
                "addr:street:sym_ul": 18102,
                "phone": "+48 792031296",
                "email": "k.orlowska1@onet.pl",
                "website": "http:\/\/www.akwarella.pl",
                "ref:regon": "146441946",
                "ref:vatin": "PL1181372408",
                "operator": "Anna Or\u0142owska-Posiej",
                "operator:type": "private",
                "amenity": "kindergarten"
            }
        },
        {
            "id": 129327,
            "type": "Feature",
            "geometry": {
                "type": "Point",
                "coordinates": [
                    21.0461199,
                    52.09239
                ]
            },
            "properties": {
                "ref:rspo": 129327,
                "official_name": "Przedszkole Publiczne \"Przyjaciele Kubusia III\"",
                "name": "Przedszkole Publiczne \"Przyjaciele Kubusia III\"",
                "addr:postcode": "05-509",
                "addr:city": "J\u00f3zefos\u0142aw",
                "addr:street": "Geodet\u00f3w",
                "addr:housenumber": "45 A",
                "addr:city:simc": 6362,
                "addr:street:sym_ul": 5452,
                "phone": "+48 698686851",
                "email": "geodetow@puchatek.waw.pl",
                "ref:regon": "362566570",
                "operator": "Serwis Edukacyjny Iii Sp\u00f3\u0142ka Z Ograniczon\u0105 Odpowiedzialno\u015bci\u0105",
                "operator:type": "private",
                "amenity": "kindergarten"
            }
        },
        {
            "id": 120042,
            "type": "Feature",
            "geometry": {
                "type": "Point",
                "coordinates": [
                    21.01221,
                    52.09483
                ]
            },
            "properties": {
                "ref:rspo": 120042,
                "official_name": "Niepubliczne Przedszkole Nutka",
                "name": "Niepubliczne Przedszkole Nutka",
                "addr:postcode": "05-500",
                "addr:city": "Piaseczno",
                "addr:street": "Mleczarska",
                "addr:housenumber": "70",
                "addr:city:simc": 921438,
                "addr:street:sym_ul": 13053,
                "phone": "+48 600555511",
                "email": "info@przedszkolenutka.pl",
                "ref:regon": "146880611",
                "operator": "Dane Do Uzupe\u0142nienia",
                "operator:type": "private",
                "amenity": "kindergarten"
            }
        },
        {
            "id": 107626,
            "type": "Feature",
            "geometry": {
                "type": "Point",
                "coordinates": [
                    21.02769,
                    52.09495
                ]
            },
            "properties": {
                "ref:rspo": 107626,
                "official_name": "Przedszkole Nr 11 Nefrytowy Zak\u0105tek w Piasecznie",
                "name": "Przedszkole Nr 11 Nefrytowy Zak\u0105tek w Piasecznie",
                "addr:postcode": "05-500",
                "addr:city": "Piaseczno",
                "addr:street": "Nefrytowa",
                "addr:housenumber": "14",
                "addr:city:simc": 921438,
                "addr:street:sym_ul": 14069,
                "phone": "+48 227507750",
                "email": "przedszkole11.piaseczno@poczta.fm",
                "ref:regon": "141500437",
                "ref:vatin": "PL1231155890",
                "operator": "Gmina Piaseczno",
                "operator:type": "government",
                "amenity": "kindergarten"
            }
        },
        {
            "id": 12273,
            "type": "Feature",
            "geometry": {
                "type": "Point",
                "coordinates": [
                    21.0538,
                    52.09663
                ]
            },
            "properties": {
                "ref:rspo": 12273,
                "official_name": "Incy-Wincy Niepubliczne Przedszkole O Profilu J\u0119zykowym",
                "name": "Incy-Wincy Niepubliczne Przedszkole O Profilu J\u0119zykowym",
                "addr:postcode": "05-500",
                "addr:city": "Julian\u00f3w",
                "addr:street": "Julianowska",
                "addr:housenumber": "86a",
                "addr:city:simc": 6379,
                "addr:street:sym_ul": 7656,
                "phone": "+48 227505420",
                "email": "sekretariat@incywincy.pl",
                "website": "http:\/\/incywincy.pl",
                "ref:regon": "146292920",
                "operator": "Ma\u0142gorzata Medy\u0144ska",
                "operator:type": "private",
                "amenity": "kindergarten"
            }
        },
        {
            "id": 270222,
            "type": "Feature",
            "geometry": {
                "type": "Point",
                "coordinates": [
                    21.05099,
                    52.09924
                ]
            },
            "properties": {
                "isced:level": "3",
                "ref:rspo": 270222,
                "official_name": "Niepubliczne Liceum Og\u00f3lnokszta\u0142c\u0105ce w J\u00f3zefos\u0142awiu",
                "name": "Niepubliczne Liceum Og\u00f3lnokszta\u0142c\u0105ce w J\u00f3zefos\u0142awiu",
                "addr:postcode": "05-509",
                "addr:city": "J\u00f3zefos\u0142aw",
                "addr:street": "Urocza",
                "addr:housenumber": "14",
                "addr:city:simc": 6362,
                "addr:street:sym_ul": 23406,
                "phone": "+48 501111202",
                "email": "niepubliczne@lo-jozefoslaw.pl",
                "website": "http:\/\/www.lo-jozefoslaw.pl",
                "ref:regon": "382217137",
                "operator": "El\u017cbieta Lenard",
                "operator:type": "private",
                "amenity": "school"
            }
        },
        {
            "id": 77598,
            "type": "Feature",
            "geometry": {
                "type": "Point",
                "coordinates": [
                    21.04844,
                    52.09964
                ]
            },
            "properties": {
                "ref:rspo": 77598,
                "official_name": "Niepubliczne Przedszkole Zebra",
                "name": "Niepubliczne Przedszkole Zebra",
                "addr:postcode": "02-972",
                "addr:city": "J\u00f3zefos\u0142aw",
                "addr:street": "Urocza",
                "addr:housenumber": "6",
                "addr:door": "U 3",
                "addr:city:simc": 6362,
                "addr:street:sym_ul": 23406,
                "phone": "+48 605999811",
                "email": "biuro@przedszkole-zebra.pl",
                "ref:regon": "146404632",
                "ref:vatin": "PL5342093800",
                "operator": "Zebra Sp\u00f3\u0142ka Cywilna Olga Baca Marcin Brzezi\u0144ski",
                "operator:type": "consortium",
                "amenity": "kindergarten"
            }
        },
        {
            "id": 270741,
            "type": "Feature",
            "geometry": {
                "type": "Point",
                "coordinates": [
                    21.02797,
                    52.09994
                ]
            },
            "properties": {
                "ref:rspo": 270741,
                "official_name": "Centrum Edukacji Technologicznej",
                "name": "Centrum Edukacji Technologicznej",
                "addr:postcode": "05-500",
                "addr:city": "J\u00f3zefos\u0142aw",
                "addr:street": "Wiejska",
                "addr:housenumber": "8",
                "addr:city:simc": 6362,
                "addr:street:sym_ul": 24048,
                "phone": "+48 608044144",
                "email": "cet.sylwiadrabek@gmail.com",
                "ref:regon": "382880730",
                "operator": "Liberis Sp\u00f3\u0142ka Z Ograniczon\u0105 Odpowiedzialno\u015bci\u0105",
                "operator:type": "private",
                "fixme": "w zale\u017cno\u015bci od przedmiotu dzia\u0142alno\u015bci (np. amenity=training + training=*, amenity=dancing_school, amenity=language_school, amenity=music_school)"
            }
        },
        {
            "id": 104934,
            "type": "Feature",
            "geometry": {
                "type": "Point",
                "coordinates": [
                    21.0518,
                    52.09994
                ]
            },
            "properties": {
                "ref:rspo": 104934,
                "official_name": "Przedszkole Niepubliczne \u015awiat Bajek",
                "name": "Przedszkole Niepubliczne \u015awiat Bajek",
                "addr:postcode": "05-500",
                "addr:city": "J\u00f3zefos\u0142aw",
                "addr:street": "Julianowska",
                "addr:housenumber": "67D",
                "addr:city:simc": 6362,
                "addr:street:sym_ul": 7656,
                "phone": "+48 600429247",
                "email": "kontakt@swiatbajek.eu",
                "ref:regon": "146453352",
                "ref:vatin": "PL5213176984",
                "operator": "Niepubliczne Przedszkole \u015awiat Bajek Sp\u00f3\u0142ka Z Ograniczon\u0105 Odpowiedzialno\u015bci\u0105",
                "operator:type": "private",
                "amenity": "kindergarten"
            }
        },
        {
            "id": 28178,
            "type": "Feature",
            "geometry": {
                "type": "Point",
                "coordinates": [
                    21.05274,
                    52.1013499
                ]
            },
            "properties": {
                "ref:rspo": 28178,
                "official_name": "Szko\u0142a Ta\u0144ca I Baletu \"Maestro\" w J\u00f3zefos\u0142awiu",
                "name": "Szko\u0142a Ta\u0144ca I Baletu \"Maestro\" w J\u00f3zefos\u0142awiu",
                "addr:postcode": "05-509",
                "addr:city": "J\u00f3zefos\u0142aw",
                "addr:street": "Kameralna",
                "addr:housenumber": "11",
                "addr:city:simc": 6362,
                "addr:street:sym_ul": 7862,
                "phone": "+48 602280086",
                "email": "sekretariat@szkolamaestro.art.pl",
                "website": "http:\/\/www.szkolatanca.art.pl",
                "ref:regon": "146348879",
                "ref:vatin": "PL9181315277",
                "operator": "Andrzej Gozdecki",
                "operator:type": "private",
                "fixme": "w zale\u017cno\u015bci od przedmiotu dzia\u0142alno\u015bci (np. amenity=training + training=*, amenity=dancing_school, amenity=language_school, amenity=music_school)"
            }
        },
        {
            "id": 68614,
            "type": "Feature",
            "geometry": {
                "type": "Point",
                "coordinates": [
                    21.05274,
                    52.1013199
                ]
            },
            "properties": {
                "ref:rspo": 68614,
                "official_name": "Szko\u0142a Muzyczna I St. Maestro w J\u00f3zefos\u0142awiu",
                "name": "Szko\u0142a Muzyczna I St. Maestro w J\u00f3zefos\u0142awiu",
                "addr:postcode": "05-509",
                "addr:city": "J\u00f3zefos\u0142aw",
                "addr:street": "Kameralna",
                "addr:housenumber": "11",
                "addr:city:simc": 6362,
                "addr:street:sym_ul": 7862,
                "email": "sekretariat@szkolamuzyczna.art.pl",
                "website": "http:\/\/szkolamuzyczna.art.pl",
                "ref:regon": "146396602",
                "operator": "Andrzej Gozdecki",
                "operator:type": "private",
                "amenity": "music_school"
            }
        },
        {
            "id": 84510,
            "type": "Feature",
            "geometry": {
                "type": "Point",
                "coordinates": [
                    21.05274,
                    52.101289900000005
                ]
            },
            "properties": {
                "isced:level": "1;2",
                "ref:rspo": 84510,
                "official_name": "Szko\u0142a Podstawowa im. Janusza Korczaka w J\u00f3zefos\u0142awiu",
                "name": "Szko\u0142a Podstawowa",
                "addr:postcode": "05-500",
                "addr:city": "J\u00f3zefos\u0142aw",
                "addr:street": "Kameralna",
                "addr:housenumber": "11",
                "addr:city:simc": 6362,
                "addr:street:sym_ul": 7862,
                "phone": "+48 227507440",
                "email": "szkola@jozefoslaw.edu.pl",
                "website": "http:\/\/www.jozefoslaw.edu.pl",
                "ref:regon": "141056818",
                "ref:vatin": "PL1231118050",
                "operator": "Gmina Piaseczno",
                "operator:type": "government",
                "amenity": "school"
            }
        },
        {
            "id": 91834,
            "type": "Feature",
            "geometry": {
                "type": "Point",
                "coordinates": [
                    21.04644,
                    52.10158
                ]
            },
            "properties": {
                "ref:rspo": 91834,
                "official_name": "Niepubliczne Przedszkole S\u0142oneczko",
                "name": "Niepubliczne Przedszkole S\u0142oneczko",
                "addr:postcode": "05-509",
                "addr:city": "J\u00f3zefos\u0142aw",
                "addr:street": "\u015anieguliczki",
                "addr:housenumber": "1",
                "addr:city:simc": 6362,
                "addr:street:sym_ul": 22396,
                "phone": "+48 604171099",
                "email": "biuro@przedszkole-sloneczko.eu",
                "ref:regon": "146432522",
                "ref:vatin": "PL1230939201",
                "operator": "Adam Styczek",
                "operator:type": "private",
                "amenity": "kindergarten"
            }
        },
        {
            "id": 120501,
            "type": "Feature",
            "geometry": {
                "type": "Point",
                "coordinates": [
                    21.03726,
                    52.10165
                ]
            },
            "properties": {
                "ref:rspo": 120501,
                "official_name": "Przedszkole Niepubliczne Akademia Przedszkolak\u00f3w",
                "name": "Przedszkole Niepubliczne Akademia Przedszkolak\u00f3w",
                "addr:postcode": "05-500",
                "addr:city": "J\u00f3zefos\u0142aw",
                "addr:street": "Ogrodowa",
                "addr:housenumber": "14",
                "addr:city:simc": 6362,
                "addr:street:sym_ul": 14834,
                "phone": "+48 607642049",
                "email": "biuro.pn@tlen.pl",
                "ref:regon": "146909697",
                "ref:vatin": "PL9512367211",
                "operator": "Eruditio M.kuligowska, J.kuligowski S.c.",
                "operator:type": "consortium",
                "amenity": "kindergarten"
            }
        },
        {
            "id": 120507,
            "type": "Feature",
            "geometry": {
                "type": "Point",
                "coordinates": [
                    21.03726,
                    52.10162
                ]
            },
            "properties": {
                "isced:level": "1;2",
                "ref:rspo": 120507,
                "official_name": "Niepubliczna Podstawowa Szko\u0142a Odkrywc\u00f3w",
                "name": "Niepubliczna Podstawowa Szko\u0142a Odkrywc\u00f3w",
                "addr:postcode": "05-500",
                "addr:city": "J\u00f3zefos\u0142aw",
                "addr:street": "Ogrodowa",
                "addr:housenumber": "14",
                "addr:city:simc": 6362,
                "addr:street:sym_ul": 14834,
                "phone": "+48 607642049",
                "email": "dyrekcja@szkola-odkrywcow.pl",
                "ref:regon": "146910358",
                "ref:vatin": "PL9512367211",
                "operator": "Eruditio M.kuligowska, J.kuligowski S.c.",
                "operator:type": "consortium",
                "amenity": "school"
            }
        },
        {
            "id": 129328,
            "type": "Feature",
            "geometry": {
                "type": "Point",
                "coordinates": [
                    21.03962,
                    52.1023799
                ]
            },
            "properties": {
                "ref:rspo": 129328,
                "official_name": "Przedszkole Publiczne \"Przyjaciele Kubusia I\"",
                "name": "Przedszkole Publiczne \"Przyjaciele Kubusia I\"",
                "addr:postcode": "05-509",
                "addr:city": "J\u00f3zefos\u0142aw",
                "addr:street": "Ogrodowa",
                "addr:housenumber": "20 A",
                "addr:city:simc": 6362,
                "addr:street:sym_ul": 14834,
                "phone": "+48 227508303",
                "email": "ogrodowa@puchatek.waw.pl",
                "ref:regon": "362566669",
                "operator": "Serwis Edukacyjny I Sp\u00f3\u0142ka Z Ograniczon\u0105 Odpowiedzialno\u015bci\u0105",
                "operator:type": "private",
                "amenity": "kindergarten"
            }
        },
        {
            "id": 119110,
            "type": "Feature",
            "geometry": {
                "type": "Point",
                "coordinates": [
                    21.03959,
                    52.10279
                ]
            },
            "properties": {
                "ref:rspo": 119110,
                "official_name": "Przedszkole Pomara\u0144czowa Ciuchcia",
                "name": "Przedszkole Pomara\u0144czowa Ciuchcia",
                "addr:postcode": "05-509",
                "addr:city": "J\u00f3zefos\u0142aw",
                "addr:street": "Ogrodowa",
                "addr:housenumber": "20B",
                "addr:city:simc": 6362,
                "addr:street:sym_ul": 14834,
                "phone": "+48 730000301",
                "email": "jozefoslaw@pomaranczowa-ciuchcia.pl",
                "ref:regon": "146836780",
                "operator": "Przedszkola Pomara\u0144czowa Ciuchcia Sp\u00f3\u0142ka Z Ograniczon\u0105 Odpowiedzialno\u015bci\u0105",
                "operator:type": "private",
                "amenity": "kindergarten"
            }
        },
        {
            "id": 120500,
            "type": "Feature",
            "geometry": {
                "type": "Point",
                "coordinates": [
                    21.03959,
                    52.102759999999996
                ]
            },
            "properties": {
                "isced:level": "1;2",
                "ref:rspo": 120500,
                "official_name": "Niepubliczna Szko\u0142a Podstawowa Gaudeamus",
                "name": "Niepubliczna Szko\u0142a Podstawowa Gaudeamus",
                "addr:postcode": "05-509",
                "addr:city": "J\u00f3zefos\u0142aw",
                "addr:street": "Ogrodowa",
                "addr:housenumber": "20B",
                "addr:city:simc": 6362,
                "addr:street:sym_ul": 14834,
                "phone": "+48 690999126",
                "email": "jozefoslaw@szkola-gaudeamus.pl",
                "ref:regon": "146909600",
                "operator": "Przedszkola Pomara\u0144czowa Ciuchcia Sp\u00f3\u0142ka Z Ograniczon\u0105 Odpowiedzialno\u015bci\u0105",
                "operator:type": "private",
                "amenity": "school"
            }
        },
        {
            "id": 125898,
            "type": "Feature",
            "geometry": {
                "type": "Point",
                "coordinates": [
                    21.05017,
                    52.10674
                ]
            },
            "properties": {
                "ref:rspo": 125898,
                "official_name": "Przedszkole Niepubliczne The International School",
                "name": "Przedszkole Niepubliczne The International School",
                "addr:postcode": "05-509",
                "addr:city": "J\u00f3zefos\u0142aw",
                "addr:street": "Dzia\u0142kowa",
                "addr:housenumber": "34",
                "addr:city:simc": 6362,
                "addr:street:sym_ul": 4572,
                "phone": "+48 604944999",
                "email": "sekretariat.dzialkowa@internationalschool.pl",
                "ref:regon": "360074844",
                "ref:vatin": "PL9512295167",
                "operator": "Stowarzyszenie Edukacyjne \"Pro Bono Linguae\"",
                "operator:type": "ngo",
                "amenity": "kindergarten"
            }
        },
        {
            "id": 126855,
            "type": "Feature",
            "geometry": {
                "type": "Point",
                "coordinates": [
                    21.05017,
                    52.10671
                ]
            },
            "properties": {
                "isced:level": "1;2",
                "ref:rspo": 126855,
                "official_name": "Podstawowa Szko\u0142a Mi\u0119dzynarodowa The International School",
                "name": "Podstawowa Szko\u0142a Mi\u0119dzynarodowa The International School",
                "addr:postcode": "05-509",
                "addr:city": "J\u00f3zefos\u0142aw",
                "addr:street": "Dzia\u0142kowa",
                "addr:housenumber": "34",
                "addr:city:simc": 6362,
                "addr:street:sym_ul": 4572,
                "phone": "+48 604944999",
                "email": "sekretariat.dzialkowa@internationalschool.pl",
                "website": "http:\/\/www.internationalschool.pl",
                "ref:regon": "360815281",
                "operator": "Szko\u0142a Mi\u0119dzynarodowa Sp\u00f3\u0142ka Z Ograniczon\u0105 Odpowiedzialno\u015bci\u0105",
                "operator:type": "private",
                "amenity": "school"
            }
        },
        {
            "id": 270471,
            "type": "Feature",
            "geometry": {
                "type": "Point",
                "coordinates": [
                    21.04411,
                    52.10735
                ]
            },
            "properties": {
                "ref:rspo": 270471,
                "official_name": "Centrum Diagnozy, Terapii I Rozwoju dla Dzieci, M\u0142odzie\u017cy I Doros\u0142ych, Niepubliczna Poradnia Psychologiczno-Pedagogiczna Izyss",
                "name": "Centrum Diagnozy, Terapii I Rozwoju dla Dzieci, M\u0142odzie\u017cy I Doros\u0142ych, Niepubliczna Poradnia Psychologiczno-Pedagogiczna Izyss",
                "addr:postcode": "05-509",
                "addr:city": "J\u00f3zefos\u0142aw",
                "addr:street": "Pachn\u0105cego Groszku",
                "addr:housenumber": "3",
                "addr:city:simc": 6362,
                "addr:street:sym_ul": 36290,
                "phone": "+48 796741012",
                "email": "poradnia@izyss.pl",
                "website": "http:\/\/www.izyss.pl",
                "ref:regon": "382609216",
                "operator": "Aneta Bednarczyk-Oleba",
                "operator:type": "private",
                "healthcare": "counselling",
                "counselling_type": "education",
                "fixme": "w zale\u017cno\u015bci od przedmiotu dzia\u0142alno\u015bci (np. healthcare=counselling + counselling_type=education albo healthcare=psychotherapist)"
            }
        }
    ]
}