{
    "type": "FeatureCollection",
    "features": [
        {
            "id": 275271,
            "type": "Feature",
            "geometry": {
                "type": "Point",
                "coordinates": [
                    17.48075,
                    50.98039
                ]
            },
            "properties": {
                "isced:level": "1;2",
                "ref:rspo": 275271,
                "official_name": "Publiczna Szko\u0142a Podstawowa im. Jana Kochanowskiego",
                "name": "Publiczna Szko\u0142a Podstawowa",
                "addr:country": "PL",
                "addr:postcode": "55-220",
                "addr:city": "W\u00f3jcice",
                "addr:street": "G\u0142\u00f3wna",
                "addr:housenumber": "87",
                "addr:teryt:simc": 874704,
                "addr:teryt:sym_ul": 5635,
                "contact:phone": "+48 713186627",
                "contact:email": "pspwojcice@o2.pl",
                "ref:regon": "386782851",
                "operator": "Gmina Jelcz-Laskowice",
                "operator:type": "government",
                "amenity": "school"
            }
        },
        {
            "id": 109167,
            "type": "Feature",
            "geometry": {
                "type": "Point",
                "coordinates": [
                    17.46743,
                    51.0204
                ]
            },
            "properties": {
                "isced:level": "1;2",
                "ref:rspo": 109167,
                "official_name": "Publiczna Szko\u0142a Podstawowa w Minkowicach O\u0142awskich im. Jana Brzechwy",
                "name": "Publiczna Szko\u0142a Podstawowa w Minkowicach O\u0142awskich",
                "addr:country": "PL",
                "addr:postcode": "55-220",
                "addr:city": "Minkowice O\u0142awskie",
                "addr:street": "Ko\u015bcielna",
                "addr:housenumber": "20",
                "addr:teryt:simc": 874667,
                "addr:teryt:sym_ul": 9546,
                "contact:phone": "+48 713186010",
                "contact:email": "sekretariat@psp-minkowice-olawskie.pl",
                "contact:website": "http:\/\/www.psp-minkowice-olawskie.pl",
                "ref:regon": "932935545",
                "ref:vatin": "PL9121873298",
                "operator": "Gmina Jelcz-Laskowice",
                "operator:type": "government",
                "amenity": "school"
            }
        },
        {
            "id": 81290,
            "type": "Feature",
            "geometry": {
                "type": "Point",
                "coordinates": [
                    17.31912,
                    51.02236
                ]
            },
            "properties": {
                "isced:level": "1;2",
                "ref:rspo": 81290,
                "official_name": "Publiczna Szko\u0142a Podstawowa Nr 3 im. Boles\u0142awa Prusa",
                "name": "Publiczna Szko\u0142a Podstawowa Nr 3",
                "addr:country": "PL",
                "addr:postcode": "55-220",
                "addr:city": "Jelcz-Laskowice",
                "addr:street": "Boles\u0142awa Prusa",
                "addr:housenumber": "2",
                "addr:teryt:simc": 987118,
                "addr:teryt:sym_ul": 17577,
                "contact:phone": "+48 713188123",
                "contact:email": "sekretariat@psp3jl.pl",
                "contact:website": "http:\/\/www.psp3jl.pl",
                "ref:regon": "001181363",
                "ref:vatin": "PL9121873275",
                "operator": "Gmina Jelcz-Laskowice",
                "operator:type": "government",
                "amenity": "school"
            }
        },
        {
            "id": 267642,
            "type": "Feature",
            "geometry": {
                "type": "Point",
                "coordinates": [
                    17.3466022,
                    51.0331301
                ]
            },
            "properties": {
                "ref:rspo": 267642,
                "official_name": "Przedszkole Publiczne Nr 1",
                "name": "Przedszkole Publiczne Nr 1",
                "addr:country": "PL",
                "addr:postcode": "55-220",
                "addr:city": "Jelcz-Laskowice",
                "addr:street": "Aleja Wolno\u015bci",
                "addr:housenumber": "42",
                "addr:teryt:simc": 987118,
                "addr:teryt:sym_ul": 207,
                "contact:phone": "+48 713014312",
                "contact:email": "sekretariat@przedszkole1jl.pl",
                "contact:website": "http:\/\/www.przedszkole1jl.pl",
                "ref:regon": "380473250",
                "ref:vatin": "PL9121926474",
                "operator": "Gmina Jelcz-Laskowice",
                "operator:type": "government",
                "amenity": "kindergarten"
            }
        },
        {
            "id": 277197,
            "type": "Feature",
            "geometry": {
                "type": "Point",
                "coordinates": [
                    17.33764,
                    51.0332
                ]
            },
            "properties": {
                "ref:rspo": 277197,
                "official_name": "O\u015brodek Doskonalenia Nauczycieli -Centrum Szkole\u0144 I Promocji Zatrudnienia",
                "name": "O\u015brodek Doskonalenia Nauczycieli -Centrum Szkole\u0144 I Promocji Zatrudnienia",
                "addr:country": "PL",
                "addr:postcode": "55-220",
                "addr:city": "Jelcz-Laskowice",
                "addr:street": "O\u0142awska",
                "addr:housenumber": "23i",
                "addr:door": "4",
                "addr:teryt:simc": 987118,
                "addr:teryt:sym_ul": 15031,
                "contact:website": "http:\/\/www.csipz.pl",
                "ref:regon": "388329280",
                "operator": "Anna P\u0142oska",
                "operator:type": "private",
                "amenity": "training"
            }
        },
        {
            "id": 12693,
            "type": "Feature",
            "geometry": {
                "type": "Point",
                "coordinates": [
                    17.31759,
                    51.03425
                ]
            },
            "properties": {
                "ref:rspo": 12693,
                "official_name": "Zesp\u00f3\u0142 Szk\u00f3\u0142 im. Jana Kasprowicza w Jelczu-Laskowicach",
                "name": "Zesp\u00f3\u0142 Szk\u00f3\u0142",
                "addr:country": "PL",
                "addr:postcode": "55-220",
                "addr:city": "Jelcz-Laskowice",
                "addr:street": "Technik\u00f3w",
                "addr:housenumber": "26",
                "addr:teryt:simc": 987118,
                "addr:teryt:sym_ul": 22728,
                "contact:email": "zspjelcz@poczta.onet.pl",
                "contact:website": "http:\/\/www.zspjelcz.pl",
                "ref:regon": "932821824",
                "ref:vatin": "PL9121746453",
                "operator": "Powiat O\u0142awski",
                "operator:type": "government",
                "landuse": "education",
                "fixme": "amenity=school, amenity=college albo landuse=education w zale\u017cno\u015bci od tego, jakie plac\u00f3wki wchodz\u0105 w sk\u0142ad zespo\u0142u. Sprawd\u017a, kiedy stosowa\u0107 amenity=* a kiedy landuse=education.",
                "note": "Children RSPO: 31040;31089;31152;275933"
            }
        },
        {
            "id": 31040,
            "type": "Feature",
            "geometry": {
                "type": "Point",
                "coordinates": [
                    17.31759,
                    51.03422
                ]
            },
            "properties": {
                "isced:level": "3",
                "ref:rspo": 31040,
                "official_name": "Liceum Og\u00f3lnokszta\u0142c\u0105ce w Jelczu-Laskowicach",
                "name": "Liceum Og\u00f3lnokszta\u0142c\u0105ce w Jelczu-Laskowicach",
                "addr:country": "PL",
                "addr:postcode": "55-220",
                "addr:city": "Jelcz-Laskowice",
                "addr:street": "Technik\u00f3w",
                "addr:housenumber": "26",
                "addr:teryt:simc": 987118,
                "addr:teryt:sym_ul": 22728,
                "contact:email": "zspjelcz@poczta.onet.pl",
                "contact:website": "http:\/\/www.zspjelcz.pl",
                "ref:regon": "932250238",
                "ref:vatin": "PL9121746453",
                "operator": "Powiat O\u0142awski",
                "operator:type": "government",
                "amenity": "school",
                "note": "Parent RSPO: 12693"
            }
        },
        {
            "id": 31089,
            "type": "Feature",
            "geometry": {
                "type": "Point",
                "coordinates": [
                    17.31759,
                    51.03419
                ]
            },
            "properties": {
                "isced:level": "3",
                "ref:rspo": 31089,
                "official_name": "Technikum w Jelczu-Laskowicach",
                "name": "Technikum w Jelczu-Laskowicach",
                "addr:country": "PL",
                "addr:postcode": "55-220",
                "addr:city": "Jelcz-Laskowice",
                "addr:street": "Technik\u00f3w",
                "addr:housenumber": "26",
                "addr:teryt:simc": 987118,
                "addr:teryt:sym_ul": 22728,
                "contact:email": "zspjelcz@poczta.onet.pl",
                "contact:website": "http:\/\/www.zspjelcz.pl",
                "ref:regon": "932250280",
                "ref:vatin": "PL9121746453",
                "operator": "Powiat O\u0142awski",
                "operator:type": "government",
                "amenity": "school",
                "note": "Parent RSPO: 12693"
            }
        },
        {
            "id": 31152,
            "type": "Feature",
            "geometry": {
                "type": "Point",
                "coordinates": [
                    17.31759,
                    51.03416
                ]
            },
            "properties": {
                "isced:level": "3",
                "ref:rspo": 31152,
                "official_name": "Bran\u017cowa Szko\u0142a I Stopnia w Jelczu-Laskowicach",
                "name": "Bran\u017cowa Szko\u0142a I Stopnia w Jelczu-Laskowicach",
                "addr:country": "PL",
                "addr:postcode": "55-220",
                "addr:city": "Jelcz-Laskowice",
                "addr:street": "Technik\u00f3w",
                "addr:housenumber": "26",
                "addr:teryt:simc": 987118,
                "addr:teryt:sym_ul": 22728,
                "contact:email": "zspjelcz@poczta.onet.pl",
                "contact:website": "http:\/\/www.zspjelcz.pl",
                "ref:regon": "932250267",
                "ref:vatin": "PL9121746453",
                "operator": "Powiat O\u0142awski",
                "operator:type": "government",
                "amenity": "school",
                "note": "Parent RSPO: 12693"
            }
        },
        {
            "id": 275933,
            "type": "Feature",
            "geometry": {
                "type": "Point",
                "coordinates": [
                    17.31759,
                    51.03413
                ]
            },
            "properties": {
                "isced:level": "3",
                "ref:rspo": 275933,
                "official_name": "Bran\u017cowa Szko\u0142a II Stopnia w Jelczu-Laskowicach",
                "name": "Bran\u017cowa Szko\u0142a II Stopnia w Jelczu-Laskowicach",
                "addr:country": "PL",
                "addr:postcode": "55-220",
                "addr:city": "Jelcz-Laskowice",
                "addr:street": "Technik\u00f3w",
                "addr:housenumber": "26",
                "addr:teryt:simc": 987118,
                "addr:teryt:sym_ul": 22728,
                "contact:email": "zspjelcz@poczta.onet.pl",
                "contact:website": "http:\/\/www.zsjelcz.pl",
                "ref:regon": "386966479",
                "operator": "Powiat O\u0142awski",
                "operator:type": "government",
                "amenity": "school",
                "note": "Parent RSPO: 12693"
            }
        },
        {
            "id": 267643,
            "type": "Feature",
            "geometry": {
                "type": "Point",
                "coordinates": [
                    17.3353499,
                    51.03505
                ]
            },
            "properties": {
                "ref:rspo": 267643,
                "official_name": "Przedszkole Publiczne Nr 2",
                "name": "Przedszkole Publiczne Nr 2",
                "addr:country": "PL",
                "addr:postcode": "55-220",
                "addr:city": "Jelcz-Laskowice",
                "addr:street": "Liliowa",
                "addr:housenumber": "3",
                "addr:teryt:simc": 987118,
                "addr:teryt:sym_ul": 11067,
                "contact:phone": "+48 713014151",
                "contact:email": "sekretariat@przedszkole2jl.pl",
                "contact:website": "http:\/\/www.przedszkole2jl.pl",
                "ref:regon": "380473273",
                "operator": "Gmina Jelcz-Laskowice",
                "operator:type": "government",
                "amenity": "kindergarten"
            }
        },
        {
            "id": 12533,
            "type": "Feature",
            "geometry": {
                "type": "Point",
                "coordinates": [
                    17.33153,
                    51.0351
                ]
            },
            "properties": {
                "ref:rspo": 12533,
                "official_name": "Poradnia Psychologiczno-Pedagogiczna w Jelczu-Laskowicach",
                "name": "Poradnia Psychologiczno-Pedagogiczna w Jelczu-Laskowicach",
                "addr:country": "PL",
                "addr:postcode": "55-220",
                "addr:city": "Jelcz-Laskowice",
                "addr:street": "Aleja M\u0142odych",
                "addr:housenumber": "1",
                "addr:teryt:simc": 987118,
                "addr:teryt:sym_ul": 198,
                "contact:phone": "+48 713181397",
                "contact:email": "ppp.jelczlaskowice@neostrada.pl",
                "contact:website": "http:\/\/www.pppjelczlaskowice.pl",
                "ref:regon": "932253432",
                "ref:vatin": "PL9121685154",
                "operator": "Powiat O\u0142awski",
                "operator:type": "government",
                "healthcare": "counselling",
                "counselling_type": "education",
                "fixme": "w zale\u017cno\u015bci od przedmiotu dzia\u0142alno\u015bci (np. healthcare=counselling + counselling_type=education albo healthcare=psychotherapist)"
            }
        },
        {
            "id": 81289,
            "type": "Feature",
            "geometry": {
                "type": "Point",
                "coordinates": [
                    17.33153,
                    51.03507
                ]
            },
            "properties": {
                "isced:level": "1;2",
                "ref:rspo": 81289,
                "official_name": "Publiczna Szko\u0142a Podstawowa Nr 2 im. Marii Sk\u0142odowskiej -Curie w Jelczu-Laskowicach",
                "name": "Publiczna Szko\u0142a Podstawowa Nr 2",
                "addr:country": "PL",
                "addr:postcode": "55-220",
                "addr:city": "Jelcz-Laskowice",
                "addr:street": "Aleja M\u0142odych",
                "addr:housenumber": "1",
                "addr:teryt:simc": 987118,
                "addr:teryt:sym_ul": 198,
                "contact:phone": "+48 713181210",
                "contact:email": "psp2jelcz_laskowice@poczta.onet.pl",
                "contact:website": "http:\/\/www.psp2jl.pl",
                "ref:regon": "001181386",
                "ref:vatin": "PL9121873281",
                "operator": "Gmina Jelcz-Laskowice",
                "operator:type": "government",
                "amenity": "school"
            }
        },
        {
            "id": 272596,
            "type": "Feature",
            "geometry": {
                "type": "Point",
                "coordinates": [
                    17.35185,
                    51.04046
                ]
            },
            "properties": {
                "ref:rspo": 272596,
                "official_name": "Niepubliczne Przedszkole Montessori \"Tuptu\u015b\"",
                "name": "Niepubliczne Przedszkole Montessori \"Tuptu\u015b\"",
                "addr:country": "PL",
                "addr:postcode": "55-220",
                "addr:city": "Jelcz-Laskowice",
                "addr:street": "Parkowa",
                "addr:housenumber": "1",
                "addr:teryt:simc": 987118,
                "addr:teryt:sym_ul": 15710,
                "contact:phone": "+48 691965873",
                "contact:email": "kontakt@tuptus-przedszkole.pl",
                "contact:website": "http:\/\/www.tuptus-przedszkole.pl",
                "ref:regon": "384267518",
                "operator": "Alicja Sidor",
                "operator:type": "private",
                "amenity": "kindergarten"
            }
        },
        {
            "id": 275274,
            "type": "Feature",
            "geometry": {
                "type": "Point",
                "coordinates": [
                    17.35205,
                    51.04103
                ]
            },
            "properties": {
                "ref:rspo": 275274,
                "official_name": "Niepubliczne Przedszkole Montessori \"Tuptu\u015b\"",
                "name": "Niepubliczne Przedszkole Montessori \"Tuptu\u015b\"",
                "addr:country": "PL",
                "addr:postcode": "55-220",
                "addr:city": "Jelcz-Laskowice",
                "addr:street": "Parkowa",
                "addr:housenumber": "3",
                "addr:teryt:simc": 987118,
                "addr:teryt:sym_ul": 15710,
                "contact:phone": "+48 695551313",
                "contact:email": "kontakt@tuptus-przedszkole.pl",
                "ref:regon": "386782578",
                "operator": "Alicja Sidor",
                "operator:type": "private",
                "amenity": "kindergarten"
            }
        },
        {
            "id": 128156,
            "type": "Feature",
            "geometry": {
                "type": "Point",
                "coordinates": [
                    17.34945,
                    51.04351
                ]
            },
            "properties": {
                "isced:level": "1;2",
                "ref:rspo": 128156,
                "official_name": "Publiczna Szko\u0142a Podstawowa Nr 1, im. \u015awi\u0119tego Jana Paw\u0142a II w Jelczu-Laskowicach",
                "name": "Publiczna Szko\u0142a Podstawowa Nr 1,",
                "addr:country": "PL",
                "addr:postcode": "55-220",
                "addr:city": "Jelcz-Laskowice",
                "addr:street": "Boles\u0142awa \u015awi\u0119tochowskiego",
                "addr:housenumber": "1",
                "addr:teryt:simc": 987118,
                "addr:teryt:sym_ul": 22545,
                "contact:phone": "+48 713182041",
                "contact:email": "sekretariat@psp1-jelczlaskowice.pl",
                "contact:website": "http:\/\/www.psp1-jelczlaskowice.pl",
                "ref:regon": "362179346",
                "operator": "Gmina Jelcz-Laskowice",
                "operator:type": "government",
                "amenity": "school"
            }
        },
        {
            "id": 277813,
            "type": "Feature",
            "geometry": {
                "type": "Point",
                "coordinates": [
                    17.34817,
                    51.04815
                ]
            },
            "properties": {
                "isced:level": "1;2",
                "ref:rspo": 277813,
                "official_name": "Niepubliczna Szko\u0142a Podstawowa Altra",
                "name": "Niepubliczna Szko\u0142a Podstawowa Altra",
                "addr:country": "PL",
                "addr:postcode": "55-220",
                "addr:city": "Jelcz-Laskowice",
                "addr:street": "Ole\u015bnicka",
                "addr:housenumber": "34",
                "addr:teryt:simc": 987118,
                "addr:teryt:sym_ul": 14975,
                "contact:phone": "+48 728381998",
                "contact:email": "szkola@altra.edu.pl",
                "contact:website": "http:\/\/altra.edu.pl",
                "ref:regon": "389566852",
                "operator": "Altra Lab Sp\u00f3\u0142ka Z Ograniczon\u0105 Odpowiedzialno\u015bci\u0105",
                "operator:type": "private",
                "amenity": "school"
            }
        },
        {
            "id": 78056,
            "type": "Feature",
            "geometry": {
                "type": "Point",
                "coordinates": [
                    17.31105,
                    51.04835
                ]
            },
            "properties": {
                "isced:level": "1;2",
                "ref:rspo": 78056,
                "official_name": "Publiczna Szko\u0142a Podstawowa im. Marato\u0144czyk\u00f3w Polskich w Mi\u0142oszycach",
                "name": "Publiczna Szko\u0142a Podstawowa",
                "addr:country": "PL",
                "addr:postcode": "55-220",
                "addr:city": "Mi\u0142oszyce",
                "addr:street": "G\u0142\u00f3wna",
                "addr:housenumber": "24",
                "addr:teryt:simc": 874650,
                "addr:teryt:sym_ul": 5635,
                "contact:phone": "+48 713184636",
                "contact:email": "pspmiloszyce@wp.pl",
                "contact:website": "http:\/\/www.pspmiloszyce.pl",
                "ref:regon": "001181788",
                "ref:vatin": "PL9121873329",
                "operator": "Gmina Jelcz-Laskowice",
                "operator:type": "government",
                "amenity": "school"
            }
        },
        {
            "id": 78054,
            "type": "Feature",
            "geometry": {
                "type": "Point",
                "coordinates": [
                    17.30866,
                    51.04854
                ]
            },
            "properties": {
                "ref:rspo": 78054,
                "official_name": "Przedszkole Niepubliczne \"Miko\u0142ajek\" w Mi\u0142oszycach",
                "name": "Przedszkole Niepubliczne \"Miko\u0142ajek\" w Mi\u0142oszycach",
                "addr:country": "PL",
                "addr:postcode": "55-220",
                "addr:city": "Mi\u0142oszyce",
                "addr:street": "Sadowa",
                "addr:housenumber": "2",
                "addr:teryt:simc": 874650,
                "addr:teryt:sym_ul": 19404,
                "contact:phone": "+48 505045718",
                "contact:email": "biuro@przedszkolemikolajek.pl",
                "ref:regon": "022007427",
                "operator": "\"Miko\u0142ajek\" Sp\u00f3\u0142ka Z Ograniczon\u0105 Odpowiedzialno\u015bci\u0105",
                "operator:type": "private",
                "amenity": "kindergarten"
            }
        }
    ]
}