{
    "type": "FeatureCollection",
    "features": [
        {
            "id": 273851,
            "type": "Feature",
            "geometry": {
                "type": "Point",
                "coordinates": [
                    17.3002,
                    50.92219
                ]
            },
            "properties": {
                "ref:rspo": 273851,
                "official_name": "Niepubliczne Przedszkole Kolorowych Skrzat\u00f3w",
                "name": "Niepubliczne Przedszkole Kolorowych Skrzat\u00f3w",
                "addr:postcode": "55-200",
                "addr:city": "O\u0142awa",
                "addr:street": "Opolska",
                "addr:housenumber": "50",
                "addr:city:simc": 987259,
                "addr:street:sym_ul": 15095,
                "phone": "+48 883496956",
                "email": "biuro@koloroweskrzaty.pl",
                "website": "http:\/\/www.koloroweskrzaty.pl",
                "ref:regon": "384765015",
                "ref:vatin": "PL8942831314",
                "operator": "Justyna Pielech",
                "operator:type": "private",
                "amenity": "kindergarten"
            }
        },
        {
            "id": 19683,
            "type": "Feature",
            "geometry": {
                "type": "Point",
                "coordinates": [
                    17.29886,
                    50.9340199
                ]
            },
            "properties": {
                "ref:rspo": 19683,
                "official_name": "Dolno\u015bL\u0105ski Zak\u0142ad Doskonalenia Zawodowego Oddzia\u0142 I we Wroc\u0142awiu O\u015brodek Kszta\u0142cenia Zawodowego w O\u0142awie",
                "name": "Dolno\u015bL\u0105ski Zak\u0142ad Doskonalenia Zawodowego Oddzia\u0142 I we Wroc\u0142awiu O\u015brodek Kszta\u0142cenia Zawodowego w O\u0142awie",
                "addr:postcode": "55-200",
                "addr:city": "O\u0142awa",
                "addr:street": "1 Maja",
                "addr:housenumber": "44",
                "addr:city:simc": 987259,
                "addr:street:sym_ul": 11926,
                "phone": "+48 713032343",
                "email": "okz.olawa@dzdz.wroc.pl",
                "website": "http:\/\/dzdz.wroc.pl",
                "ref:regon": "021977460",
                "ref:vatin": "PL8960004550",
                "operator": "Dolno\u015bl\u0105ski Zak\u0142ad Doskonalenia Zawodowego Oddzia\u0142 I We Wroc\u0142awiu",
                "operator:type": "ngo",
                "fixme": "w zale\u017cno\u015bci od przedmiotu dzia\u0142alno\u015bci (np. amenity=training + training=*, amenity=dancing_school, amenity=language_school, amenity=music_school)"
            }
        },
        {
            "id": 8937,
            "type": "Feature",
            "geometry": {
                "type": "Point",
                "coordinates": [
                    17.29965,
                    50.93606
                ]
            },
            "properties": {
                "isced:level": "1;2",
                "ref:rspo": 8937,
                "official_name": "Szko\u0142a Podstawowa nr 5 im. Kawaler\u00f3w Orderu U\u015bmiechu w O\u0142awie",
                "name": "Szko\u0142a Podstawowa nr 5",
                "addr:postcode": "55-200",
                "addr:city": "O\u0142awa",
                "addr:street": "Kamienna",
                "addr:housenumber": "8",
                "addr:city:simc": 987259,
                "addr:street:sym_ul": 7879,
                "phone": "+48 713132832",
                "email": "sp5olawa@wp.pl",
                "website": "http:\/\/sp5olawa.szkolnastrona.pl",
                "ref:regon": "000704385",
                "ref:vatin": "PL9121772611",
                "operator": "Gmina Miasto O\u0142awa",
                "operator:type": "government",
                "amenity": "school"
            }
        },
        {
            "id": 8960,
            "type": "Feature",
            "geometry": {
                "type": "Point",
                "coordinates": [
                    17.30205,
                    50.93682
                ]
            },
            "properties": {
                "ref:rspo": 8960,
                "official_name": "Miejskie Przedszkole nr 4 w O\u0142awie",
                "name": "Miejskie Przedszkole nr 4 w O\u0142awie",
                "addr:postcode": "55-200",
                "addr:city": "O\u0142awa",
                "addr:street": "1 Maja",
                "addr:housenumber": "33",
                "addr:city:simc": 987259,
                "addr:street:sym_ul": 11926,
                "phone": "+48 713132379",
                "email": "mp4-olawa@idsl.pl",
                "website": "http:\/\/www.mp4olawa.szkolnastrona.pl",
                "ref:regon": "021394646",
                "ref:vatin": "PL9121862343",
                "operator": "Gmina Miasto O\u0142awa",
                "operator:type": "government",
                "amenity": "kindergarten"
            }
        },
        {
            "id": 12607,
            "type": "Feature",
            "geometry": {
                "type": "Point",
                "coordinates": [
                    17.30237,
                    50.93777
                ]
            },
            "properties": {
                "ref:rspo": 12607,
                "official_name": "Zesp\u00f3\u0142 Szk\u00f3\u0142 im. Zjednoczonej Europy w O\u0142awie",
                "name": "Zesp\u00f3\u0142 Szk\u00f3\u0142",
                "addr:postcode": "55-200",
                "addr:city": "O\u0142awa",
                "addr:street": "3 Maja",
                "addr:housenumber": "18e",
                "addr:city:simc": 987259,
                "addr:street:sym_ul": 11937,
                "phone": "+48 713132636",
                "email": "administracja@zsp2olawa.edu.pl",
                "website": "http:\/\/www.zsp2olawa.edu.pl",
                "ref:regon": "932820836",
                "ref:vatin": "PL9121745979",
                "operator": "Powiat O\u0142awski",
                "operator:type": "government",
                "landuse": "education",
                "fixme": "amenity=school, amenity=college albo landuse=education w zale\u017cno\u015bci od tego, jakie plac\u00f3wki wchodz\u0105 w sk\u0142ad zespo\u0142u. Sprawd\u017a, kiedy stosowa\u0107 amenity=* a kiedy landuse=education.",
                "note": "Children RSPO: 29699;29742"
            }
        },
        {
            "id": 29699,
            "type": "Feature",
            "geometry": {
                "type": "Point",
                "coordinates": [
                    17.30237,
                    50.93774
                ]
            },
            "properties": {
                "isced:level": "3",
                "ref:rspo": 29699,
                "official_name": "Technikum nr 2 w O\u0142awie",
                "name": "Technikum nr 2 w O\u0142awie",
                "addr:postcode": "55-200",
                "addr:city": "O\u0142awa",
                "addr:street": "3 Maja",
                "addr:housenumber": "18e",
                "addr:city:simc": 987259,
                "addr:street:sym_ul": 11937,
                "phone": "+48 713132636",
                "email": "administracja@zsp2olawa.edu.pl",
                "website": "http:\/\/www.zsp2olawa.edu.pl",
                "ref:regon": "932823740",
                "ref:vatin": "PL9121745979",
                "operator": "Powiat O\u0142awski",
                "operator:type": "government",
                "amenity": "school",
                "note": "Parent RSPO: 12607"
            }
        },
        {
            "id": 29742,
            "type": "Feature",
            "geometry": {
                "type": "Point",
                "coordinates": [
                    17.30237,
                    50.93771
                ]
            },
            "properties": {
                "isced:level": "3",
                "ref:rspo": 29742,
                "official_name": "Bran\u017cowa Szko\u0142a I Stopnia nr 2 w O\u0142awie",
                "name": "Bran\u017cowa Szko\u0142a I Stopnia nr 2 w O\u0142awie",
                "addr:postcode": "55-200",
                "addr:city": "O\u0142awa",
                "addr:street": "3 Maja",
                "addr:housenumber": "18e",
                "addr:city:simc": 987259,
                "addr:street:sym_ul": 11937,
                "phone": "+48 713132636",
                "email": "administracja@zsp2olawa.edu.pl",
                "website": "http:\/\/www.zsp2olawa.edu.pl",
                "ref:regon": "932088097",
                "ref:vatin": "PL9121745979",
                "operator": "Powiat O\u0142awski",
                "operator:type": "government",
                "amenity": "school",
                "note": "Parent RSPO: 12607"
            }
        },
        {
            "id": 129406,
            "type": "Feature",
            "geometry": {
                "type": "Point",
                "coordinates": [
                    17.29996,
                    50.93953
                ]
            },
            "properties": {
                "ref:rspo": 129406,
                "official_name": "O\u015brodek Rewalidacyjny Krok Po Kroku",
                "name": "O\u015brodek Rewalidacyjny Krok Po Kroku",
                "addr:postcode": "55-200",
                "addr:city": "O\u0142awa",
                "addr:street": "3 Maja",
                "addr:housenumber": "14",
                "addr:city:simc": 987259,
                "addr:street:sym_ul": 11937,
                "phone": "+48 534045722",
                "email": "fundacja@fundacjakrokpokroku.org.pl",
                "website": "http:\/\/www.fundacjakrokpokroku.org.pl",
                "ref:regon": "362588174",
                "operator": "\"Krok Po Kroku\"",
                "operator:type": "ngo",
                "amenity": "school"
            }
        },
        {
            "id": 8938,
            "type": "Feature",
            "geometry": {
                "type": "Point",
                "coordinates": [
                    17.292850494385,
                    50.940208435059
                ]
            },
            "properties": {
                "isced:level": "1;2",
                "ref:rspo": 8938,
                "official_name": "Szko\u0142a Podstawowa nr 1 im. Boles\u0142awa Chrobrego w O\u0142awie",
                "name": "Szko\u0142a Podstawowa nr 1",
                "addr:postcode": "55-200",
                "addr:city": "O\u0142awa",
                "addr:street": "\u017bo\u0142nierzy Armii Krajowej",
                "addr:housenumber": "21",
                "addr:city:simc": 987259,
                "addr:street:sym_ul": 26508,
                "phone": "+48 713132817",
                "email": "sp1olawa@gmail.com",
                "website": "http:\/\/sp1olawa.szkolnastrona.pl",
                "ref:regon": "000704793",
                "ref:vatin": "PL9121772634",
                "operator": "Gmina Miasto O\u0142awa",
                "operator:type": "government",
                "amenity": "school"
            }
        },
        {
            "id": 120336,
            "type": "Feature",
            "geometry": {
                "type": "Point",
                "coordinates": [
                    17.292850494385,
                    50.940178435058996
                ]
            },
            "properties": {
                "ref:rspo": 120336,
                "official_name": "Przedszkole Niepubliczne \"\u017bak\" w O\u0142awie",
                "name": "Przedszkole Niepubliczne \"\u017bak\" w O\u0142awie",
                "addr:postcode": "55-200",
                "addr:city": "O\u0142awa",
                "addr:street": "\u017bo\u0142nierzy Armii Krajowej",
                "addr:housenumber": "9",
                "addr:city:simc": 987259,
                "addr:street:sym_ul": 26508,
                "phone": "+48 790526002",
                "email": "przedszkolezak@wp.pl",
                "website": "http:\/\/www.przedszkolezak.pl",
                "ref:regon": "022259235",
                "operator": "Beta Wo\u017aniaczek",
                "operator:type": "private",
                "amenity": "kindergarten"
            }
        },
        {
            "id": 131461,
            "type": "Feature",
            "geometry": {
                "type": "Point",
                "coordinates": [
                    17.292850494385,
                    50.940148435059
                ]
            },
            "properties": {
                "isced:level": "3",
                "ref:rspo": 131461,
                "official_name": "Liceum Og\u00f3lnokszta\u0142c\u0105ce dla Doros\u0142ych \"Eureka\" w O\u0142awie",
                "name": "Liceum Og\u00f3lnokszta\u0142c\u0105ce dla Doros\u0142ych \"Eureka\" w O\u0142awie",
                "addr:postcode": "55-200",
                "addr:city": "O\u0142awa",
                "addr:street": "\u017bo\u0142nierzy Armii Krajowej",
                "addr:housenumber": "21",
                "addr:city:simc": 987259,
                "addr:street:sym_ul": 26508,
                "phone": "+48 663734460",
                "email": "biuro@eureka.olawa.pl",
                "ref:regon": "365193677",
                "operator": "Dorota Seku\u0142a",
                "operator:type": "private",
                "amenity": "school"
            }
        },
        {
            "id": 263998,
            "type": "Feature",
            "geometry": {
                "type": "Point",
                "coordinates": [
                    17.2586,
                    50.9405
                ]
            },
            "properties": {
                "ref:rspo": 263998,
                "official_name": "Przedszkole Niepubliczne Magdalenka",
                "name": "Przedszkole Niepubliczne Magdalenka",
                "addr:postcode": "55-200",
                "addr:city": "O\u0142awa",
                "addr:street": "Szmaragdowa",
                "addr:housenumber": "8",
                "addr:city:simc": 987259,
                "addr:street:sym_ul": 22003,
                "email": "dyrektor@magdalenkaolawa.pl",
                "website": "http:\/\/magdalenkaolawa.pl",
                "ref:regon": "368249102",
                "operator": "Ewa Stelmaszek",
                "operator:type": "private",
                "amenity": "kindergarten"
            }
        },
        {
            "id": 8968,
            "type": "Feature",
            "geometry": {
                "type": "Point",
                "coordinates": [
                    17.30508,
                    50.94242
                ]
            },
            "properties": {
                "isced:level": "1;2",
                "ref:rspo": 8968,
                "official_name": "Szko\u0142a Podstawowa nr 2 im. Jakuba Sobieskiego w O\u0142awie",
                "name": "Szko\u0142a Podstawowa nr 2",
                "addr:postcode": "55-200",
                "addr:city": "O\u0142awa",
                "addr:street": "Rybacka",
                "addr:housenumber": "6a",
                "addr:city:simc": 987259,
                "addr:street:sym_ul": 19142,
                "phone": "+48 713132423",
                "email": "sp2olawa@poczta.fm",
                "website": "http:\/\/sp2.olawa.pl",
                "ref:regon": "000704787",
                "ref:vatin": "PL9121772640",
                "operator": "Gmina Miasto O\u0142awa",
                "operator:type": "government",
                "amenity": "school"
            }
        },
        {
            "id": 35047,
            "type": "Feature",
            "geometry": {
                "type": "Point",
                "coordinates": [
                    17.2963293,
                    50.9428101
                ]
            },
            "properties": {
                "ref:rspo": 35047,
                "official_name": "Pa\u0144stwowa Szko\u0142a Muzyczna I St. im. Jadwigi Szajny-Lewandowskiej w O\u0142awie",
                "name": "Pa\u0144stwowa Szko\u0142a Muzyczna I St.",
                "addr:postcode": "55-200",
                "addr:city": "O\u0142awa",
                "addr:street": "Rynek",
                "addr:housenumber": "12",
                "addr:city:simc": 987259,
                "addr:street:sym_ul": 19252,
                "phone": "+48 713134330",
                "email": "psmolawa@poczta.onet.pl",
                "website": "http:\/\/olawamuzyczna.com",
                "ref:regon": "001245620",
                "operator": "Ministerstwo Kultury I Dziedzictwa Narodowego",
                "operator:type": "government",
                "amenity": "music_school"
            }
        },
        {
            "id": 9288,
            "type": "Feature",
            "geometry": {
                "type": "Point",
                "coordinates": [
                    17.32144,
                    50.94299
                ]
            },
            "properties": {
                "ref:rspo": 9288,
                "official_name": "Crd Niepubliczne Przedszkole \"Kredka\"",
                "name": "Crd Niepubliczne Przedszkole \"Kredka\"",
                "addr:postcode": "55-200",
                "addr:city": "O\u0142awa",
                "addr:street": "Zwierzyniec Du\u017cy",
                "addr:housenumber": "23",
                "addr:city:simc": 987259,
                "addr:street:sym_ul": 26304,
                "phone": "+48 504195532",
                "email": "biuro@przedszkole-kredka.pl",
                "website": "http:\/\/przedszkole-kredka.pl",
                "ref:regon": "021955056",
                "operator": "Gtlcrd Idczak",
                "operator:type": "private",
                "amenity": "kindergarten"
            }
        },
        {
            "id": 8959,
            "type": "Feature",
            "geometry": {
                "type": "Point",
                "coordinates": [
                    17.30068,
                    50.94409
                ]
            },
            "properties": {
                "ref:rspo": 8959,
                "official_name": "Miejskie Przedszkole nr 3 w O\u0142awie",
                "name": "Miejskie Przedszkole nr 3 w O\u0142awie",
                "addr:postcode": "55-200",
                "addr:city": "O\u0142awa",
                "addr:street": "Boles\u0142awa Chrobrego",
                "addr:housenumber": "30A",
                "addr:city:simc": 987259,
                "addr:street:sym_ul": 1742,
                "phone": "+48 713137429",
                "email": "mp3-olawskie@o2.pl",
                "website": "http:\/\/mp3olawa.szkolnastrona.pl\/",
                "ref:regon": "021394617",
                "ref:vatin": "PL9121862320",
                "operator": "Gmina Miasto O\u0142awa",
                "operator:type": "government",
                "amenity": "kindergarten"
            }
        },
        {
            "id": 12361,
            "type": "Feature",
            "geometry": {
                "type": "Point",
                "coordinates": [
                    17.29636,
                    50.94427
                ]
            },
            "properties": {
                "isced:level": "3",
                "ref:rspo": 12361,
                "official_name": "Liceum Og\u00f3lnokszta\u0142c\u0105ce nr I im. Jana III Sobieskiego w O\u0142awie",
                "name": "Liceum Og\u00f3lnokszta\u0142c\u0105ce nr I",
                "addr:postcode": "55-200",
                "addr:city": "O\u0142awa",
                "addr:street": "Plac Zamkowy",
                "addr:housenumber": "10",
                "addr:city:simc": 987259,
                "addr:street:sym_ul": 25554,
                "phone": "+48 713132748",
                "email": "sekretariat@lo.olawa.pl",
                "website": "http:\/\/www.lo.olawa.pl",
                "ref:regon": "932129761",
                "ref:vatin": "PL9121823828",
                "operator": "Powiat O\u0142awski",
                "operator:type": "government",
                "amenity": "school"
            }
        },
        {
            "id": 12453,
            "type": "Feature",
            "geometry": {
                "type": "Point",
                "coordinates": [
                    17.2933,
                    50.94431
                ]
            },
            "properties": {
                "ref:rspo": 12453,
                "official_name": "Powiatowy O\u015brodek Pomocy Psychologiczno-Pedagogicznej I Doradztwa Metodycznego w O\u0142awie",
                "name": "Powiatowy O\u015brodek Pomocy Psychologiczno-Pedagogicznej I Doradztwa Metodycznego w O\u0142awie",
                "addr:postcode": "55-200",
                "addr:city": "O\u0142awa",
                "addr:street": "Plac Zamkowy",
                "addr:housenumber": "18",
                "addr:city:simc": 987259,
                "addr:street:sym_ul": 25554,
                "phone": "+48 713132239",
                "email": "sekretariat-poradnia@poradnia.olawa.pl",
                "website": "http:\/\/www.poradnia.olawa.pl",
                "ref:regon": "020089740",
                "ref:vatin": "PL9121790678",
                "operator": "Powiat O\u0142awski",
                "operator:type": "government",
                "landuse": "education",
                "fixme": "amenity=school, amenity=college albo landuse=education w zale\u017cno\u015bci od tego, jakie plac\u00f3wki wchodz\u0105 w sk\u0142ad zespo\u0142u. Sprawd\u017a, kiedy stosowa\u0107 amenity=* a kiedy landuse=education.",
                "note": "Children RSPO: 35167;39007;39009"
            }
        },
        {
            "id": 35167,
            "type": "Feature",
            "geometry": {
                "type": "Point",
                "coordinates": [
                    17.2933,
                    50.94428
                ]
            },
            "properties": {
                "ref:rspo": 35167,
                "official_name": "Poradnia Psychologiczno-Pedagogiczna w O\u0142awie",
                "name": "Poradnia Psychologiczno-Pedagogiczna w O\u0142awie",
                "addr:postcode": "55-200",
                "addr:city": "O\u0142awa",
                "addr:street": "Plac Zamkowy",
                "addr:housenumber": "18",
                "addr:city:simc": 987259,
                "addr:street:sym_ul": 25554,
                "phone": "+48 713132239",
                "email": "sekretariat-poradnia@poradnia.olawa.pl",
                "website": "http:\/\/www.poradnia.olawa.pl",
                "ref:regon": "932090941",
                "ref:vatin": "PL9121790678",
                "operator": "Powiat O\u0142awski",
                "operator:type": "government",
                "healthcare": "counselling",
                "counselling_type": "education",
                "fixme": "w zale\u017cno\u015bci od przedmiotu dzia\u0142alno\u015bci (np. healthcare=counselling + counselling_type=education albo healthcare=psychotherapist)",
                "note": "Parent RSPO: 12453"
            }
        },
        {
            "id": 39007,
            "type": "Feature",
            "geometry": {
                "type": "Point",
                "coordinates": [
                    17.2933,
                    50.944250000000004
                ]
            },
            "properties": {
                "ref:rspo": 39007,
                "official_name": "Powiatowy O\u015brodek Doskonalenia Nauczycieli w O\u0142awie",
                "name": "Powiatowy O\u015brodek Doskonalenia Nauczycieli w O\u0142awie",
                "addr:postcode": "55-200",
                "addr:city": "O\u0142awa",
                "addr:street": "Plac Zamkowy",
                "addr:housenumber": "18",
                "addr:city:simc": 987259,
                "addr:street:sym_ul": 25554,
                "phone": "+48 713033923",
                "email": "sekretariat-podn@poradnia.olawa.pl",
                "website": "http:\/\/www.poradnia.olawa.pl",
                "ref:regon": "932688207",
                "ref:vatin": "PL9121790678",
                "operator": "Powiat O\u0142awski",
                "operator:type": "government",
                "amenity": "training",
                "note": "Parent RSPO: 12453"
            }
        },
        {
            "id": 279149,
            "type": "Feature",
            "geometry": {
                "type": "Point",
                "coordinates": [
                    17.28404,
                    50.94517
                ]
            },
            "properties": {
                "ref:rspo": 279149,
                "official_name": "Niepubliczne Przedszkole I \u017b\u0142obek \"Magiczna Kraina\" Sylwia Ratajczyk",
                "name": "Niepubliczne Przedszkole I \u017b\u0142obek \"Magiczna Kraina\" Sylwia Ratajczyk",
                "addr:postcode": "55-200",
                "addr:city": "O\u0142awa",
                "addr:street": "W\u0142adys\u0142awa Broniewskiego",
                "addr:housenumber": "1",
                "addr:city:simc": 987259,
                "addr:street:sym_ul": 2125,
                "phone": "+48 794427207",
                "email": "magiczna.kraina.broniewskiego@gmail.com",
                "website": "http:\/\/www.zlobekmagicznakraina.pl",
                "ref:regon": "520782454",
                "ref:vatin": "PL9121487342",
                "operator": "Sylwia Ratajczyk",
                "operator:type": "private",
                "amenity": "kindergarten"
            }
        },
        {
            "id": 12729,
            "type": "Feature",
            "geometry": {
                "type": "Point",
                "coordinates": [
                    17.27892,
                    50.9453
                ]
            },
            "properties": {
                "ref:rspo": 12729,
                "official_name": "Zesp\u00f3\u0142 Szk\u00f3\u0142 Specjalnych im. Ireny Komorowskiej w O\u0142awie",
                "name": "Zesp\u00f3\u0142 Szk\u00f3\u0142 Specjalnych",
                "addr:postcode": "55-200",
                "addr:city": "O\u0142awa",
                "addr:street": "Jaros\u0142awa Iwaszkiewicza",
                "addr:housenumber": "9a",
                "addr:city:simc": 987259,
                "addr:street:sym_ul": 6944,
                "phone": "+48 717345910",
                "email": "sekretariat@zssolawa.szkolnastrona.pl",
                "website": "http:\/\/www.zssolawa.szkolnastrona.pl",
                "ref:regon": "932091780",
                "ref:vatin": "PL9121686886",
                "operator": "Powiat O\u0142awski",
                "operator:type": "government",
                "landuse": "education",
                "fixme": "amenity=school, amenity=college albo landuse=education w zale\u017cno\u015bci od tego, jakie plac\u00f3wki wchodz\u0105 w sk\u0142ad zespo\u0142u. Sprawd\u017a, kiedy stosowa\u0107 amenity=* a kiedy landuse=education.",
                "note": "Children RSPO: 60251;60252;119465;262718"
            }
        },
        {
            "id": 19821,
            "type": "Feature",
            "geometry": {
                "type": "Point",
                "coordinates": [
                    17.27892,
                    50.94527
                ]
            },
            "properties": {
                "isced:level": "3",
                "ref:rspo": 19821,
                "official_name": "Prywatne Liceum Og\u00f3lnokszta\u0142c\u0105ce dla Doros\u0142ych \"Twoja Szko\u0142a\" w O\u0142awie",
                "name": "Prywatne Liceum Og\u00f3lnokszta\u0142c\u0105ce dla Doros\u0142ych \"Twoja Szko\u0142a\" w O\u0142awie",
                "addr:postcode": "55-200",
                "addr:city": "O\u0142awa",
                "addr:street": "Jaros\u0142awa Iwaszkiewicza",
                "addr:housenumber": "9a",
                "addr:city:simc": 987259,
                "addr:street:sym_ul": 6944,
                "phone": "+48 713015166",
                "email": "olawa@twoja-szkola.pl",
                "website": "http:\/\/www.twoja-szkola.pl",
                "ref:regon": "021976390",
                "ref:vatin": "PL8762050934",
                "operator": "Twoja Szko\u0142a Sp\u00f3\u0142ka Z Ograniczon\u0105 Odpowiedzialno\u015bci\u0105",
                "operator:type": "private",
                "amenity": "school"
            }
        },
        {
            "id": 279179,
            "type": "Feature",
            "geometry": {
                "type": "Point",
                "coordinates": [
                    17.27892,
                    50.945240000000005
                ]
            },
            "properties": {
                "isced:level": "4",
                "ref:rspo": 279179,
                "official_name": "Prywatna Szko\u0142a Policealna \"Twoja-Szko\u0142a\" w O\u0142awie",
                "name": "Prywatna Szko\u0142a Policealna \"Twoja-Szko\u0142a\" w O\u0142awie",
                "addr:postcode": "55-200",
                "addr:city": "O\u0142awa",
                "addr:street": "Jaros\u0142awa Iwaszkiewicza",
                "addr:housenumber": "9A",
                "addr:city:simc": 987259,
                "addr:street:sym_ul": 6944,
                "phone": "+48 713015166",
                "email": "olawa@twoja-szkola.pl",
                "ref:regon": "520825583",
                "operator": "Twoja Szko\u0142a Sp\u00f3\u0142ka Z Ograniczon\u0105 Odpowiedzialno\u015bci\u0105",
                "operator:type": "private",
                "amenity": "college"
            }
        },
        {
            "id": 60251,
            "type": "Feature",
            "geometry": {
                "type": "Point",
                "coordinates": [
                    17.27892,
                    50.94521
                ]
            },
            "properties": {
                "isced:level": "3",
                "ref:rspo": 60251,
                "official_name": "Bran\u017cowa Szko\u0142a I Stopnia Specjalna nr 3 w O\u0142awie",
                "name": "Bran\u017cowa Szko\u0142a I Stopnia Specjalna nr 3 w O\u0142awie",
                "addr:postcode": "55-200",
                "addr:city": "O\u0142awa",
                "addr:street": "Jaros\u0142awa Iwaszkiewicza",
                "addr:housenumber": "9A",
                "addr:city:simc": 987259,
                "addr:street:sym_ul": 6944,
                "phone": "+48 717345910",
                "email": "sekretariat@zssolawa.szkolnastrona.pl",
                "ref:regon": "932936272",
                "ref:vatin": "PL9121686886",
                "operator": "Powiat O\u0142awski",
                "operator:type": "government",
                "amenity": "school",
                "note": "Parent RSPO: 12729"
            }
        },
        {
            "id": 60252,
            "type": "Feature",
            "geometry": {
                "type": "Point",
                "coordinates": [
                    17.27892,
                    50.94518
                ]
            },
            "properties": {
                "isced:level": "1;2",
                "ref:rspo": 60252,
                "official_name": "Szko\u0142a Podstawowa Specjalna nr 1 w O\u0142awie",
                "name": "Szko\u0142a Podstawowa Specjalna nr 1 w O\u0142awie",
                "addr:postcode": "55-200",
                "addr:city": "O\u0142awa",
                "addr:street": "Jaros\u0142awa Iwaszkiewicza",
                "addr:housenumber": "9a",
                "addr:city:simc": 987259,
                "addr:street:sym_ul": 6944,
                "phone": "+48 717345910",
                "email": "sekretariat@zssolawa.szkolnastrona.pl",
                "ref:regon": "020358306",
                "ref:vatin": "PL9121686886",
                "operator": "Powiat O\u0142awski",
                "operator:type": "government",
                "amenity": "school",
                "note": "Parent RSPO: 12729"
            }
        },
        {
            "id": 119465,
            "type": "Feature",
            "geometry": {
                "type": "Point",
                "coordinates": [
                    17.27892,
                    50.945150000000005
                ]
            },
            "properties": {
                "ref:rspo": 119465,
                "official_name": "Szko\u0142a Specjalna Przysposabiaj\u0105ca do Pracy w O\u0142awie",
                "name": "Szko\u0142a Specjalna Przysposabiaj\u0105ca do Pracy w O\u0142awie",
                "addr:postcode": "55-200",
                "addr:city": "O\u0142awa",
                "addr:street": "Jaros\u0142awa Iwaszkiewicza",
                "addr:housenumber": "9a",
                "addr:city:simc": 987259,
                "addr:street:sym_ul": 6944,
                "phone": "+48 717345910",
                "email": "sekretariat@zssolawa.szkolnastrona.pl",
                "ref:regon": "022239340",
                "operator": "Powiat O\u0142awski",
                "operator:type": "government",
                "amenity": "school",
                "note": "Parent RSPO: 12729"
            }
        },
        {
            "id": 262718,
            "type": "Feature",
            "geometry": {
                "type": "Point",
                "coordinates": [
                    17.27892,
                    50.94512
                ]
            },
            "properties": {
                "ref:rspo": 262718,
                "official_name": "Przedszkole Specjalne nr 5 w O\u0142awie",
                "name": "Przedszkole Specjalne nr 5 w O\u0142awie",
                "addr:postcode": "55-200",
                "addr:city": "O\u0142awa",
                "addr:street": "Jaros\u0142awa Iwaszkiewicza",
                "addr:housenumber": "9a",
                "addr:city:simc": 987259,
                "addr:street:sym_ul": 6944,
                "phone": "+48 717345910",
                "email": "sekretariat@zssolawa.szkolnastrona.pl",
                "ref:regon": "368052931",
                "operator": "Powiat O\u0142awski",
                "operator:type": "government",
                "amenity": "kindergarten",
                "note": "Parent RSPO: 12729"
            }
        },
        {
            "id": 9441,
            "type": "Feature",
            "geometry": {
                "type": "Point",
                "coordinates": [
                    17.28405,
                    50.94564
                ]
            },
            "properties": {
                "isced:level": "1;2",
                "ref:rspo": 9441,
                "official_name": "Szko\u0142a Podstawowa nr 4 im. Jana Paw\u0142a II w O\u0142awie",
                "name": "Szko\u0142a Podstawowa nr 4",
                "addr:postcode": "55-200",
                "addr:city": "O\u0142awa",
                "addr:street": "W\u0142adys\u0142awa Broniewskiego",
                "addr:housenumber": "6",
                "addr:city:simc": 987259,
                "addr:street:sym_ul": 2125,
                "phone": "+48 713132541",
                "email": "szp4@wp.pl",
                "ref:regon": "000704764",
                "ref:vatin": "PL9121772628",
                "operator": "Gmina Miasto O\u0142awa",
                "operator:type": "government",
                "amenity": "school"
            }
        },
        {
            "id": 278427,
            "type": "Feature",
            "geometry": {
                "type": "Point",
                "coordinates": [
                    17.29999,
                    50.94567
                ]
            },
            "properties": {
                "ref:rspo": 278427,
                "official_name": "Niepubliczne Przedszkole Ekoludki",
                "name": "Niepubliczne Przedszkole Ekoludki",
                "addr:postcode": "55-200",
                "addr:city": "O\u0142awa",
                "addr:street": "Sportowa",
                "addr:housenumber": "4B",
                "addr:door": "3-4",
                "addr:city:simc": 987259,
                "addr:street:sym_ul": 20683,
                "email": "agnieszkahanderek@o2.pl",
                "ref:regon": "389898152",
                "operator": "Fundacja Bezpieczna Przysta\u0144",
                "operator:type": "ngo",
                "amenity": "kindergarten"
            }
        },
        {
            "id": 8939,
            "type": "Feature",
            "geometry": {
                "type": "Point",
                "coordinates": [
                    17.27635,
                    50.94573
                ]
            },
            "properties": {
                "ref:rspo": 8939,
                "official_name": "Zesp\u00f3\u0142 Szkolno - Przedszkolny nr 1 w O\u0142awie",
                "name": "Zesp\u00f3\u0142 Szkolno - Przedszkolny nr 1 w O\u0142awie",
                "addr:postcode": "55-200",
                "addr:city": "O\u0142awa",
                "addr:street": "Jaros\u0142awa Iwaszkiewicza",
                "addr:housenumber": "11",
                "addr:city:simc": 987259,
                "addr:street:sym_ul": 6944,
                "phone": "+48 713038014",
                "email": "szp8@poczta.onet.pl",
                "website": "http:\/\/zsp1.olawa.szkolnastrona.pl",
                "ref:regon": "933016504",
                "ref:vatin": "PL9121781343",
                "operator": "Gmina Miasto O\u0142awa",
                "operator:type": "government",
                "landuse": "education",
                "fixme": "amenity=school, amenity=college albo landuse=education w zale\u017cno\u015bci od tego, jakie plac\u00f3wki wchodz\u0105 w sk\u0142ad zespo\u0142u. Sprawd\u017a, kiedy stosowa\u0107 amenity=* a kiedy landuse=education.",
                "note": "Children RSPO: 10455;10469"
            }
        },
        {
            "id": 10455,
            "type": "Feature",
            "geometry": {
                "type": "Point",
                "coordinates": [
                    17.27635,
                    50.945699999999995
                ]
            },
            "properties": {
                "isced:level": "1;2",
                "ref:rspo": 10455,
                "official_name": "Szko\u0142a Podstawowa nr 8 im. Genera\u0142a Karola Rolow Mia\u0142owskiego w O\u0142awie",
                "name": "Szko\u0142a Podstawowa nr 8",
                "addr:postcode": "55-200",
                "addr:city": "O\u0142awa",
                "addr:street": "Jaros\u0142awa Iwaszkiewicza",
                "addr:housenumber": "11",
                "addr:city:simc": 987259,
                "addr:street:sym_ul": 6944,
                "phone": "+48 713038014",
                "email": "szp8@poczta.onet.pl",
                "website": "http:\/\/zsp1.olawa.szkolnastrona.pl",
                "ref:regon": "001101341",
                "ref:vatin": "PL9121768093",
                "operator": "Gmina Miasto O\u0142awa",
                "operator:type": "government",
                "amenity": "school",
                "note": "Parent RSPO: 8939"
            }
        },
        {
            "id": 10469,
            "type": "Feature",
            "geometry": {
                "type": "Point",
                "coordinates": [
                    17.27635,
                    50.94567
                ]
            },
            "properties": {
                "ref:rspo": 10469,
                "official_name": "Miejskie Przedszkole nr 1 w O\u0142awie",
                "name": "Miejskie Przedszkole nr 1 w O\u0142awie",
                "addr:postcode": "55-200",
                "addr:city": "O\u0142awa",
                "addr:street": "Jaros\u0142awa Iwaszkiewicza",
                "addr:housenumber": "11",
                "addr:city:simc": 987259,
                "addr:street:sym_ul": 6944,
                "phone": "+48 713038014",
                "email": "szp8@poczta.onet.pl",
                "website": "http:\/\/zsp1.olawa.szkolnastrona.pl",
                "ref:regon": "021393807",
                "ref:vatin": "PL9121768093",
                "operator": "Gmina Miasto O\u0142awa",
                "operator:type": "government",
                "amenity": "kindergarten",
                "note": "Parent RSPO: 8939"
            }
        },
        {
            "id": 263066,
            "type": "Feature",
            "geometry": {
                "type": "Point",
                "coordinates": [
                    17.30031,
                    50.94596
                ]
            },
            "properties": {
                "isced:level": "1;2",
                "ref:rspo": 263066,
                "official_name": "Szko\u0142a Podstawowa nr 6 im. Polskich Olimpijczyk\u00f3w w O\u0142awie",
                "name": "Szko\u0142a Podstawowa nr 6",
                "addr:postcode": "55-200",
                "addr:city": "O\u0142awa",
                "addr:street": "Sportowa",
                "addr:housenumber": "6",
                "addr:city:simc": 987259,
                "addr:street:sym_ul": 20683,
                "phone": "+48 713137256",
                "email": "olgim1@op.pl",
                "website": "http:\/\/www.sp6olawa.edupage.org",
                "ref:regon": "368102310",
                "ref:vatin": "PL9121910243",
                "operator": "Gmina Miasto O\u0142awa",
                "operator:type": "government",
                "amenity": "school"
            }
        },
        {
            "id": 8944,
            "type": "Feature",
            "geometry": {
                "type": "Point",
                "coordinates": [
                    17.2899299,
                    50.94739
                ]
            },
            "properties": {
                "ref:rspo": 8944,
                "official_name": "Miejskie Przedszkole nr 2 w O\u0142awie",
                "name": "Miejskie Przedszkole nr 2 w O\u0142awie",
                "addr:postcode": "55-200",
                "addr:city": "O\u0142awa",
                "addr:street": "Lipowa",
                "addr:housenumber": "20A",
                "addr:city:simc": 987259,
                "addr:street:sym_ul": 11139,
                "phone": "+48 713132542",
                "email": "mp.2@op.pl",
                "website": "http:\/\/www.mp-2olawa.szkolnastrona.pl",
                "ref:regon": "021394623",
                "ref:vatin": "PL9121862604",
                "operator": "Gmina Miasto O\u0142awa",
                "operator:type": "government",
                "amenity": "kindergarten"
            }
        },
        {
            "id": 263064,
            "type": "Feature",
            "geometry": {
                "type": "Point",
                "coordinates": [
                    17.2881399,
                    50.94924
                ]
            },
            "properties": {
                "isced:level": "1;2",
                "ref:rspo": 263064,
                "official_name": "Szko\u0142a Podstawowa nr 3 im. Orl\u0105t Lwowskich w O\u0142awie",
                "name": "Szko\u0142a Podstawowa nr 3",
                "addr:postcode": "55-200",
                "addr:city": "O\u0142awa",
                "addr:street": "Lwowska",
                "addr:housenumber": "3",
                "addr:city:simc": 987259,
                "addr:street:sym_ul": 11467,
                "phone": "+48 713033301",
                "ref:regon": "368102273",
                "operator": "Gmina Miasto O\u0142awa",
                "operator:type": "government",
                "amenity": "school"
            }
        },
        {
            "id": 277726,
            "type": "Feature",
            "geometry": {
                "type": "Point",
                "coordinates": [
                    17.2881399,
                    50.94921
                ]
            },
            "properties": {
                "isced:level": "4",
                "ref:rspo": 277726,
                "official_name": "Policealna Szko\u0142a Medyczna Epsilon w O\u0142awie",
                "name": "Policealna Szko\u0142a Medyczna Epsilon w O\u0142awie",
                "addr:postcode": "55-200",
                "addr:city": "O\u0142awa",
                "addr:street": "Lwowska",
                "addr:housenumber": "3",
                "addr:city:simc": 987259,
                "addr:street:sym_ul": 11467,
                "phone": "+48 506908757",
                "email": "bogumila.skalecka@gmail.com",
                "website": "http:\/\/www.epsilon.edu.pl",
                "ref:regon": "389435400",
                "ref:vatin": "PL7531483578",
                "operator": "Bogumi\u0142a Ska\u0142ecka",
                "operator:type": "private",
                "amenity": "college"
            }
        },
        {
            "id": 13228,
            "type": "Feature",
            "geometry": {
                "type": "Point",
                "coordinates": [
                    17.28256,
                    50.95008
                ]
            },
            "properties": {
                "ref:rspo": 13228,
                "official_name": "Zesp\u00f3\u0142 Plac\u00f3wek Resocjalizacyjno-Socjoterapeutycznych w O\u0142awie",
                "name": "Zesp\u00f3\u0142 Plac\u00f3wek Resocjalizacyjno-Socjoterapeutycznych w O\u0142awie",
                "addr:postcode": "55-200",
                "addr:city": "O\u0142awa",
                "addr:street": "Ksi\u0119dza Franciszka Kutrowskiego",
                "addr:housenumber": "31a",
                "addr:city:simc": 987259,
                "addr:street:sym_ul": 26860,
                "phone": "+48 713133744",
                "email": "zprs@mos.olawa.pl",
                "website": "http:\/\/zprs.olawa.pl",
                "ref:regon": "021859849",
                "ref:vatin": "PL9121872809",
                "operator": "Powiat O\u0142awski",
                "operator:type": "government",
                "landuse": "education",
                "fixme": "amenity=school, amenity=college albo landuse=education w zale\u017cno\u015bci od tego, jakie plac\u00f3wki wchodz\u0105 w sk\u0142ad zespo\u0142u. Sprawd\u017a, kiedy stosowa\u0107 amenity=* a kiedy landuse=education.",
                "note": "Children RSPO: 81394;81395"
            }
        },
        {
            "id": 123134,
            "type": "Feature",
            "geometry": {
                "type": "Point",
                "coordinates": [
                    17.28256,
                    50.95005
                ]
            },
            "properties": {
                "ref:rspo": 123134,
                "official_name": "Centrum Kszta\u0142cenia Zawodowego I Ustawicznego w O\u0142awie",
                "name": "Centrum Kszta\u0142cenia Zawodowego I Ustawicznego w O\u0142awie",
                "addr:postcode": "55-200",
                "addr:city": "O\u0142awa",
                "addr:street": "Ksi\u0119dza Franciszka Kutrowskiego",
                "addr:housenumber": "31",
                "addr:city:simc": 987259,
                "addr:street:sym_ul": 26860,
                "phone": "+48 713132711",
                "email": "sekretariat@ckziu.olawa.pl",
                "website": "http:\/\/www.ckziu.olawa.pl",
                "ref:regon": "022425573",
                "ref:vatin": "PL9121875050",
                "operator": "Powiat O\u0142awski",
                "operator:type": "government",
                "landuse": "education",
                "fixme": "amenity=school, amenity=college albo landuse=education w zale\u017cno\u015bci od tego, jakie plac\u00f3wki wchodz\u0105 w sk\u0142ad zespo\u0142u. Sprawd\u017a, kiedy stosowa\u0107 amenity=* a kiedy landuse=education.",
                "note": "Children RSPO: 29775;29798;30693;127106;127107"
            }
        },
        {
            "id": 39009,
            "type": "Feature",
            "geometry": {
                "type": "Point",
                "coordinates": [
                    17.28256,
                    50.95002
                ]
            },
            "properties": {
                "ref:rspo": 39009,
                "official_name": "Biblioteka Pedagogiczna w O\u0142awie",
                "name": "Biblioteka Pedagogiczna w O\u0142awie",
                "addr:postcode": "55-200",
                "addr:city": "O\u0142awa",
                "addr:street": "Ksi\u0119dza Franciszka Kutrowskiego",
                "addr:housenumber": "31a",
                "addr:city:simc": 987259,
                "addr:street:sym_ul": 26860,
                "phone": "+48 713132704",
                "email": "olawa@dbp.wroc.pl",
                "website": "http:\/\/www.dbp.wroc.pl",
                "ref:regon": "021990928",
                "operator": "Powiat O\u0142awski",
                "operator:type": "government",
                "amenity": "library",
                "note": "Parent RSPO: 12453"
            }
        },
        {
            "id": 81394,
            "type": "Feature",
            "geometry": {
                "type": "Point",
                "coordinates": [
                    17.28256,
                    50.94999
                ]
            },
            "properties": {
                "ref:rspo": 81394,
                "official_name": "M\u0142odzie\u017cowy O\u015brodek Socjoterapii w O\u0142awie",
                "name": "M\u0142odzie\u017cowy O\u015brodek Socjoterapii w O\u0142awie",
                "addr:postcode": "55-200",
                "addr:city": "O\u0142awa",
                "addr:street": "Ksi\u0119dza Franciszka Kutrowskiego",
                "addr:housenumber": "31a",
                "addr:city:simc": 987259,
                "addr:street:sym_ul": 26860,
                "phone": "+48 713133744",
                "email": "zprs@mos.olawa.pl",
                "website": "http:\/\/zprs.olawa.pl",
                "ref:regon": "930412518",
                "ref:vatin": "PL9121031820",
                "operator": "Powiat O\u0142awski",
                "operator:type": "government",
                "fixme": "amenity=social_facility + social_facility=group_home + social_facility:for=juvenile",
                "note": "Parent RSPO: 13228"
            }
        },
        {
            "id": 81395,
            "type": "Feature",
            "geometry": {
                "type": "Point",
                "coordinates": [
                    17.28256,
                    50.94996
                ]
            },
            "properties": {
                "ref:rspo": 81395,
                "official_name": "M\u0142odzie\u017cowy O\u015brodek Wychowawczy w O\u0142awie",
                "name": "M\u0142odzie\u017cowy O\u015brodek Wychowawczy w O\u0142awie",
                "addr:postcode": "55-200",
                "addr:city": "O\u0142awa",
                "addr:street": "Ksi\u0119dza Franciszka Kutrowskiego",
                "addr:housenumber": "31a",
                "addr:city:simc": 987259,
                "addr:street:sym_ul": 26860,
                "phone": "+48 713133744",
                "email": "zprs@mos.olawa.pl",
                "website": "http:\/\/zprs.olawa.pl",
                "ref:regon": "021859884",
                "operator": "Powiat O\u0142awski",
                "operator:type": "government",
                "fixme": "amenity=social_facility + social_facility=group_home + social_facility:for=juvenile",
                "note": "Children RSPO: 262304Parent RSPO: 13228"
            }
        },
        {
            "id": 262304,
            "type": "Feature",
            "geometry": {
                "type": "Point",
                "coordinates": [
                    17.28256,
                    50.94993
                ]
            },
            "properties": {
                "isced:level": "1;2",
                "ref:rspo": 262304,
                "official_name": "Szko\u0142a Podstawowa Specjalna nr 2 w O\u0142awie",
                "name": "Szko\u0142a Podstawowa Specjalna nr 2 w O\u0142awie",
                "addr:postcode": "55-200",
                "addr:city": "O\u0142awa",
                "addr:street": "Ksi\u0119dza Franciszka Kutrowskiego",
                "addr:housenumber": "31a",
                "addr:city:simc": 987259,
                "addr:street:sym_ul": 26860,
                "phone": "+48 713133744",
                "email": "zprs@mos.olawa.pl",
                "website": "http:\/\/zprs.olawa.pl",
                "ref:regon": "367993324",
                "operator": "Powiat O\u0142awski",
                "operator:type": "government",
                "amenity": "school",
                "note": "Parent RSPO: 81395"
            }
        },
        {
            "id": 29775,
            "type": "Feature",
            "geometry": {
                "type": "Point",
                "coordinates": [
                    17.28256,
                    50.9499
                ]
            },
            "properties": {
                "isced:level": "3",
                "ref:rspo": 29775,
                "official_name": "Liceum Og\u00f3lnokszta\u0142c\u0105ce nr II w O\u0142awie",
                "name": "Liceum Og\u00f3lnokszta\u0142c\u0105ce nr II w O\u0142awie",
                "addr:postcode": "55-200",
                "addr:city": "O\u0142awa",
                "addr:street": "Ksi\u0119dza Franciszka Kutrowskiego",
                "addr:housenumber": "31",
                "addr:city:simc": 987259,
                "addr:street:sym_ul": 26860,
                "phone": "+48 713132711",
                "email": "sekretariat@ckziu.olawa.pl",
                "website": "http:\/\/www.ckziu.olawa.pl",
                "ref:regon": "932244835",
                "ref:vatin": "PL9121391062",
                "operator": "Powiat O\u0142awski",
                "operator:type": "government",
                "amenity": "school",
                "note": "Parent RSPO: 123134"
            }
        },
        {
            "id": 29798,
            "type": "Feature",
            "geometry": {
                "type": "Point",
                "coordinates": [
                    17.28256,
                    50.94987
                ]
            },
            "properties": {
                "isced:level": "3",
                "ref:rspo": 29798,
                "official_name": "Technikum nr 1 w O\u0142awie",
                "name": "Technikum nr 1 w O\u0142awie",
                "addr:postcode": "55-200",
                "addr:city": "O\u0142awa",
                "addr:street": "Ksi\u0119dza Franciszka Kutrowskiego",
                "addr:housenumber": "31",
                "addr:city:simc": 987259,
                "addr:street:sym_ul": 26860,
                "phone": "+48 713132711",
                "email": "sekretariat@ckziu.olawa.pl",
                "website": "http:\/\/www.ckziu.olawa.pl",
                "ref:regon": "932824780",
                "ref:vatin": "PL9121391062",
                "operator": "Powiat O\u0142awski",
                "operator:type": "government",
                "amenity": "school",
                "note": "Parent RSPO: 123134"
            }
        },
        {
            "id": 30693,
            "type": "Feature",
            "geometry": {
                "type": "Point",
                "coordinates": [
                    17.28256,
                    50.94984
                ]
            },
            "properties": {
                "isced:level": "3",
                "ref:rspo": 30693,
                "official_name": "Bran\u017cowa Szko\u0142a I Stopnia nr 1 w O\u0142awie",
                "name": "Bran\u017cowa Szko\u0142a I Stopnia nr 1 w O\u0142awie",
                "addr:postcode": "55-200",
                "addr:city": "O\u0142awa",
                "addr:street": "Ksi\u0119dza Franciszka Kutrowskiego",
                "addr:housenumber": "31",
                "addr:city:simc": 987259,
                "addr:street:sym_ul": 26860,
                "phone": "+48 713132711",
                "email": "sekretariat@ckziu.olawa.pl",
                "website": "http:\/\/www.ckziu.olawa.pl",
                "ref:regon": "932244864",
                "ref:vatin": "PL9121391062",
                "operator": "Powiat O\u0142awski",
                "operator:type": "government",
                "amenity": "school",
                "note": "Parent RSPO: 123134"
            }
        },
        {
            "id": 127106,
            "type": "Feature",
            "geometry": {
                "type": "Point",
                "coordinates": [
                    17.28256,
                    50.94981
                ]
            },
            "properties": {
                "ref:rspo": 127106,
                "official_name": "Centrum Kszta\u0142cenia Zawodowego w O\u0142awie",
                "name": "Centrum Kszta\u0142cenia Zawodowego w O\u0142awie",
                "addr:postcode": "55-200",
                "addr:city": "O\u0142awa",
                "addr:street": "Ksi\u0119dza Franciszka Kutrowskiego",
                "addr:housenumber": "31",
                "addr:city:simc": 987259,
                "addr:street:sym_ul": 26860,
                "phone": "+48 713132711",
                "email": "ckziu.olawa@onet.pl",
                "website": "http:\/\/www.ckziu.olawa.pl",
                "ref:regon": "361145351",
                "operator": "Powiat O\u0142awski",
                "operator:type": "government",
                "fixme": "w zale\u017cno\u015bci od przedmiotu dzia\u0142alno\u015bci (np. amenity=training + training=*, amenity=dancing_school, amenity=language_school, amenity=music_school) albo amenity=school, amenity=college, albo landuse=education w zale\u017cno\u015bci od tego, jakie plac\u00f3wki wchodz\u0105 w sk\u0142ad zespo\u0142u. Sprawd\u017a, kiedy stosowa\u0107 amenity=* a kiedy landuse=education.",
                "note": "Parent RSPO: 123134"
            }
        },
        {
            "id": 127107,
            "type": "Feature",
            "geometry": {
                "type": "Point",
                "coordinates": [
                    17.28256,
                    50.94978
                ]
            },
            "properties": {
                "ref:rspo": 127107,
                "official_name": "Centrum Kszta\u0142cenia Ustawicznego w O\u0142awie",
                "name": "Centrum Kszta\u0142cenia Ustawicznego w O\u0142awie",
                "addr:postcode": "55-200",
                "addr:city": "O\u0142awa",
                "addr:street": "Ksi\u0119dza Franciszka Kutrowskiego",
                "addr:housenumber": "31",
                "addr:city:simc": 987259,
                "addr:street:sym_ul": 26860,
                "phone": "+48 713132711",
                "email": "sekretariat@ckziu.olawa.pl",
                "website": "http:\/\/www.ckziu.olawa.pl",
                "ref:regon": "361145658",
                "operator": "Powiat O\u0142awski",
                "operator:type": "government",
                "fixme": "w zale\u017cno\u015bci od przedmiotu dzia\u0142alno\u015bci (np. amenity=training + training=*, amenity=dancing_school, amenity=language_school, amenity=music_school)",
                "note": "Parent RSPO: 123134"
            }
        },
        {
            "id": 263028,
            "type": "Feature",
            "geometry": {
                "type": "Point",
                "coordinates": [
                    17.28765,
                    50.95041
                ]
            },
            "properties": {
                "isced:level": "1;2",
                "ref:rspo": 263028,
                "official_name": "Gminna Szko\u0142a Podstawowa im. Polskich Noblist\u00f3w w O\u0142awie",
                "name": "Gminna Szko\u0142a Podstawowa",
                "addr:postcode": "55-200",
                "addr:city": "O\u0142awa",
                "addr:street": "Lwowska",
                "addr:housenumber": "10",
                "addr:city:simc": 987259,
                "addr:street:sym_ul": 11467,
                "phone": "+48 713133629",
                "email": "gspolawa@gmail.com",
                "website": "http:\/\/www.gspolawa.edupage.org",
                "ref:regon": "368094036",
                "operator": "Gmina O\u0142awa",
                "operator:type": "government",
                "amenity": "school"
            }
        },
        {
            "id": 278884,
            "type": "Feature",
            "geometry": {
                "type": "Point",
                "coordinates": [
                    17.27247,
                    50.95285
                ]
            },
            "properties": {
                "ref:rspo": 278884,
                "official_name": "Niepubliczne Przedszkole \"B\u0105belki\"",
                "name": "Niepubliczne Przedszkole \"B\u0105belki\"",
                "addr:postcode": "55-200",
                "addr:city": "O\u0142awa",
                "addr:street": "\u0141agodna",
                "addr:housenumber": "4",
                "addr:city:simc": 987259,
                "addr:street:sym_ul": 11501,
                "email": "babelki.olawa@gmail.com",
                "website": "http:\/\/babelki-olawa.eprzedszkola.pl",
                "ref:regon": "520150553",
                "operator": "Anna Kozaczek",
                "operator:type": "private",
                "amenity": "kindergarten"
            }
        }
    ]
}