{
    "type": "FeatureCollection",
    "features": [
        {
            "id": 105028,
            "type": "Feature",
            "geometry": {
                "type": "Point",
                "coordinates": [
                    17.27705,
                    50.8444
                ]
            },
            "properties": {
                "ref:rspo": 105028,
                "official_name": "Niepubliczny Zesp\u00f3\u0142 Wychowania Przedszkolnego w Ole\u015bnicy Ma\u0142ej",
                "name": "Niepubliczny Zesp\u00f3\u0142 Wychowania Przedszkolnego w Ole\u015bnicy Ma\u0142ej",
                "addr:postcode": "55-200",
                "addr:place": "Ole\u015bnica Ma\u0142a",
                "addr:housenumber": "52",
                "addr:city:simc": 879535,
                "email": "szk_podst_om@wp.pl",
                "ref:regon": "022048662",
                "operator": "Stowarzyszenie Na Rzecz Rozwoju Gminy O\u0142awa",
                "operator:type": "ngo",
                "amenity": "kindergarten"
            }
        },
        {
            "id": 105021,
            "type": "Feature",
            "geometry": {
                "type": "Point",
                "coordinates": [
                    17.31197,
                    50.8726399
                ]
            },
            "properties": {
                "isced:level": "1;2",
                "ref:rspo": 105021,
                "official_name": "Szko\u0142a Podstawowa w Chwalibo\u017cycach",
                "name": "Szko\u0142a Podstawowa w Chwalibo\u017cycach",
                "addr:postcode": "55-200",
                "addr:place": "Chwalibo\u017cyce",
                "addr:housenumber": "1C",
                "addr:city:simc": 879340,
                "phone": "+48 713014687",
                "email": "spchwalibozyce@op.pl",
                "website": "http:\/\/spchwalibozyce.superszkolna.pl",
                "ref:regon": "930371819",
                "ref:vatin": "PL9121720382",
                "operator": "Gmina O\u0142awa",
                "operator:type": "government",
                "amenity": "school"
            }
        },
        {
            "id": 105030,
            "type": "Feature",
            "geometry": {
                "type": "Point",
                "coordinates": [
                    17.31197,
                    50.8726099
                ]
            },
            "properties": {
                "ref:rspo": 105030,
                "official_name": "Niepubliczny Zesp\u00f3\u0142 Wychowania Przedszkolnego w Chwalibo\u017cycach",
                "name": "Niepubliczny Zesp\u00f3\u0142 Wychowania Przedszkolnego w Chwalibo\u017cycach",
                "addr:postcode": "55-200",
                "addr:place": "Chwalibo\u017cyce",
                "addr:housenumber": "1C",
                "addr:city:simc": 879340,
                "phone": "+48 713014687",
                "email": "monigal@interia.pl",
                "ref:regon": "022048633",
                "operator": "Stowarzyszenie Na Rzecz Rozwoju Gminy O\u0142awa",
                "operator:type": "ngo",
                "amenity": "kindergarten"
            }
        },
        {
            "id": 105024,
            "type": "Feature",
            "geometry": {
                "type": "Point",
                "coordinates": [
                    17.2408,
                    50.87766
                ]
            },
            "properties": {
                "isced:level": "1;2",
                "ref:rspo": 105024,
                "official_name": "Szko\u0142a Podstawowa im. Kazimierza G\u00f3rskiego w Drzemlikowicach",
                "name": "Szko\u0142a Podstawowa",
                "addr:postcode": "55-200",
                "addr:place": "Drzemlikowice",
                "addr:housenumber": "14",
                "addr:city:simc": 879357,
                "phone": "+48 713131032",
                "email": "spdrzemlikowice@go2.pl",
                "ref:regon": "001268609",
                "ref:vatin": "PL9121851902",
                "operator": "Gmina O\u0142awa",
                "operator:type": "government",
                "amenity": "school"
            }
        },
        {
            "id": 105033,
            "type": "Feature",
            "geometry": {
                "type": "Point",
                "coordinates": [
                    17.2408,
                    50.877629999999996
                ]
            },
            "properties": {
                "ref:rspo": 105033,
                "official_name": "Punkt Przedszkolny \"Micha\u0142ki\" w Drzemlikowicach",
                "name": "Punkt Przedszkolny \"Micha\u0142ki\" w Drzemlikowicach",
                "addr:postcode": "55-200",
                "addr:place": "Drzemlikowice",
                "addr:housenumber": "14",
                "addr:city:simc": 879357,
                "phone": "+48 600891193",
                "email": "stowarzyszenie@drzemlikowice.org",
                "website": "http:\/\/www.przedszkole.drzemlikowice.org",
                "ref:regon": "022047243",
                "operator": "Stowarzyszenie Wspierania Edukacji W Drzemlikowicach",
                "operator:type": "ngo",
                "amenity": "kindergarten"
            }
        },
        {
            "id": 105025,
            "type": "Feature",
            "geometry": {
                "type": "Point",
                "coordinates": [
                    17.2927,
                    50.88261
                ]
            },
            "properties": {
                "isced:level": "1;2",
                "ref:rspo": 105025,
                "official_name": "Szko\u0142a Podstawowa im. Karola Wojty\u0142y w Osieku",
                "name": "Szko\u0142a Podstawowa",
                "addr:postcode": "55-200",
                "addr:place": "Osiek",
                "addr:housenumber": "124",
                "addr:city:simc": 879541,
                "phone": "+48 713131792",
                "email": "sposiek@autograf.pl",
                "ref:regon": "001180843",
                "ref:vatin": "PL9121852333",
                "operator": "Gmina O\u0142awa",
                "operator:type": "government",
                "amenity": "school"
            }
        },
        {
            "id": 131433,
            "type": "Feature",
            "geometry": {
                "type": "Point",
                "coordinates": [
                    17.36339,
                    50.88704
                ]
            },
            "properties": {
                "isced:level": "1;2",
                "ref:rspo": 131433,
                "official_name": "Szko\u0142a Podstawowa im. W\u0142odzimierza Luba\u0144skiego w Gaci",
                "name": "Szko\u0142a Podstawowa",
                "addr:postcode": "55-200",
                "addr:place": "Ga\u0107",
                "addr:housenumber": "53",
                "addr:city:simc": 879370,
                "phone": "+48 713131527",
                "email": "sp_gac1@wp.pl",
                "website": "https:\/\/szkolagac.wordpress.com",
                "ref:regon": "365189842",
                "ref:vatin": "PL9121890552",
                "operator": "Gmina O\u0142awa",
                "operator:type": "government",
                "amenity": "school"
            }
        },
        {
            "id": 105026,
            "type": "Feature",
            "geometry": {
                "type": "Point",
                "coordinates": [
                    17.34748,
                    50.91538
                ]
            },
            "properties": {
                "isced:level": "1;2",
                "ref:rspo": 105026,
                "official_name": "Szko\u0142a Podstawowa w \u015acinawie Polskiej",
                "name": "Szko\u0142a Podstawowa w \u015acinawie Polskiej",
                "addr:postcode": "55-200",
                "addr:place": "\u015acinawa Polska",
                "addr:housenumber": "26",
                "addr:city:simc": 879647,
                "phone": "+48 713133190",
                "email": "sp_scinawa_polska@poczta.onet.pl",
                "website": "http:\/\/www.spscinawapol.szkolnastrona.pl",
                "ref:regon": "022048580",
                "operator": "Stowarzyszenie Na Rzecz Rozwoju Gminy O\u0142awa",
                "operator:type": "ngo",
                "amenity": "school"
            }
        },
        {
            "id": 105034,
            "type": "Feature",
            "geometry": {
                "type": "Point",
                "coordinates": [
                    17.39761,
                    50.96093
                ]
            },
            "properties": {
                "isced:level": "1;2",
                "ref:rspo": 105034,
                "official_name": "Szko\u0142a Podstawowa im. Bronis\u0142awa Malinowskiego w Bystrzycy",
                "name": "Szko\u0142a Podstawowa",
                "addr:postcode": "55-200",
                "addr:city": "Bystrzyca",
                "addr:street": "Tadeusza Ko\u015bciuszki",
                "addr:housenumber": "45",
                "addr:city:simc": 879334,
                "addr:street:sym_ul": 9582,
                "phone": "+48 713130217",
                "email": "sp_bystrzyca@wp.pl",
                "ref:regon": "000269446",
                "operator": "Gmina O\u0142awa",
                "operator:type": "government",
                "amenity": "school"
            }
        },
        {
            "id": 106596,
            "type": "Feature",
            "geometry": {
                "type": "Point",
                "coordinates": [
                    17.19151,
                    50.96165
                ]
            },
            "properties": {
                "ref:rspo": 106596,
                "official_name": "Niepubliczne Przedszkole \"Smyk\" w Sobocisku",
                "name": "Niepubliczne Przedszkole \"Smyk\" w Sobocisku",
                "addr:postcode": "55-200",
                "addr:place": "Sobocisko",
                "addr:housenumber": "22",
                "addr:city:simc": 879593,
                "email": "arfit@o2.pl",
                "ref:regon": "022048946",
                "operator": "P.p.h.u.\"Arfit\" Beata Wo\u017aniaczek",
                "operator:type": "consortium",
                "amenity": "kindergarten"
            }
        },
        {
            "id": 105022,
            "type": "Feature",
            "geometry": {
                "type": "Point",
                "coordinates": [
                    17.38991,
                    50.96281
                ]
            },
            "properties": {
                "ref:rspo": 105022,
                "official_name": "Publiczne Przedszkole w Bystrzycy",
                "name": "Publiczne Przedszkole w Bystrzycy",
                "addr:postcode": "55-200",
                "addr:city": "Bystrzyca",
                "addr:street": "Tadeusza Ko\u015bciuszki",
                "addr:housenumber": "99",
                "addr:city:simc": 879334,
                "addr:street:sym_ul": 9582,
                "phone": "+48 713018413",
                "email": "ppbystrzyca@interia.pl",
                "ref:regon": "001012347",
                "ref:vatin": "PL9121691700",
                "operator": "Gmina O\u0142awa",
                "operator:type": "government",
                "amenity": "kindergarten"
            }
        },
        {
            "id": 105032,
            "type": "Feature",
            "geometry": {
                "type": "Point",
                "coordinates": [
                    17.25724,
                    50.96384
                ]
            },
            "properties": {
                "ref:rspo": 105032,
                "official_name": "Niepubliczne Przedszkole \"Kredka\" w Stanowicach",
                "name": "Niepubliczne Przedszkole \"Kredka\" w Stanowicach",
                "addr:postcode": "55-200",
                "addr:city": "Stanowice",
                "addr:street": "Le\u015bna",
                "addr:housenumber": "1",
                "addr:city:simc": 879601,
                "addr:street:sym_ul": 10898,
                "phone": "+48 513021811",
                "email": "biuro@centrum-kredka.pl",
                "website": "http:\/\/www.centrum-kredka.pl",
                "ref:regon": "022047208",
                "operator": "Centrum Wczesnej Interwencji Beata Brzezi\u0144ska",
                "operator:type": "consortium",
                "amenity": "kindergarten"
            }
        },
        {
            "id": 105023,
            "type": "Feature",
            "geometry": {
                "type": "Point",
                "coordinates": [
                    17.2279899,
                    50.98903
                ]
            },
            "properties": {
                "isced:level": "1;2",
                "ref:rspo": 105023,
                "official_name": "Szko\u0142a Podstawowa im. Kawaler\u00f3w Orderu U\u015bmiechu w Marcinkowicach",
                "name": "Szko\u0142a Podstawowa",
                "addr:postcode": "55-200",
                "addr:city": "Marcinkowice",
                "addr:street": "Szkolna",
                "addr:housenumber": "1",
                "addr:city:simc": 879475,
                "addr:street:sym_ul": 21970,
                "phone": "+48 713028693",
                "email": "sp.marcinkowice@poczta.onet.pl",
                "website": "http:\/\/spmarcinkowice.pl",
                "ref:regon": "001180814",
                "ref:vatin": "PL9121851894",
                "operator": "Gmina O\u0142awa",
                "operator:type": "government",
                "amenity": "school"
            }
        },
        {
            "id": 266804,
            "type": "Feature",
            "geometry": {
                "type": "Point",
                "coordinates": [
                    17.22259,
                    50.99247
                ]
            },
            "properties": {
                "ref:rspo": 266804,
                "official_name": "Niepubliczny Punkt Przedszkolny Ekomarcinki",
                "name": "Niepubliczny Punkt Przedszkolny Ekomarcinki",
                "addr:postcode": "55-200",
                "addr:city": "Marcinkowice",
                "addr:street": "Spacerowa",
                "addr:housenumber": "24",
                "addr:city:simc": 879475,
                "addr:street:sym_ul": 20641,
                "email": "agnieszkahanderek@o2.pl",
                "ref:regon": "369707328",
                "operator": "Fundacja Bezpieczna Przysta\u0144",
                "operator:type": "ngo",
                "amenity": "kindergarten"
            }
        }
    ]
}