{
    "type": "FeatureCollection",
    "features": [
        {
            "id": 118973,
            "type": "Feature",
            "geometry": {
                "type": "Point",
                "coordinates": [
                    17.19194,
                    50.86734
                ]
            },
            "properties": {
                "isced:level": "1;2",
                "ref:rspo": 118973,
                "official_name": "Publiczna Szko\u0142a Podstawowa Fundacji \u015awiat Dzieci I Doros\u0142ych w Goszczynie",
                "name": "Publiczna Szko\u0142a Podstawowa Fundacji \u015awiat Dzieci I Doros\u0142ych w Goszczynie",
                "addr:postcode": "55-216",
                "addr:place": "Goszczyna",
                "addr:housenumber": "28",
                "addr:teryt:simc": 874348,
                "phone": "+48 713131003",
                "email": "swiat.fundacji@o2.pl",
                "ref:regon": "022213948",
                "operator": "Dane Do Uzupe\u0142nienia",
                "operator:type": "private",
                "amenity": "school"
            }
        },
        {
            "id": 53310,
            "type": "Feature",
            "geometry": {
                "type": "Point",
                "coordinates": [
                    17.12476,
                    50.89406
                ]
            },
            "properties": {
                "isced:level": "1;2",
                "ref:rspo": 53310,
                "official_name": "Szko\u0142a Podstawowa im. Jana Paw\u0142a II w Domaniowie",
                "name": "Szko\u0142a Podstawowa",
                "addr:postcode": "55-216",
                "addr:city": "Domani\u00f3w",
                "addr:street": "Sportowa",
                "addr:housenumber": "6",
                "addr:teryt:simc": 874302,
                "addr:teryt:sym_ul": 20683,
                "phone": "+48 713017731",
                "email": "domaniowzs@o2.pl",
                "website": "http:\/\/www.zsdomaniow.szkolnastrona.pl",
                "ref:regon": "000579371",
                "ref:vatin": "PL9121817839",
                "operator": "Gmina Domani\u00f3w",
                "operator:type": "government",
                "amenity": "school"
            }
        },
        {
            "id": 23151,
            "type": "Feature",
            "geometry": {
                "type": "Point",
                "coordinates": [
                    17.09856,
                    50.90563
                ]
            },
            "properties": {
                "ref:rspo": 23151,
                "official_name": "Przedszkole Publiczne w Danielowicach",
                "name": "Przedszkole Publiczne w Danielowicach",
                "addr:postcode": "55-216",
                "addr:place": "Danielowice",
                "addr:housenumber": "3",
                "addr:teryt:simc": 874294,
                "phone": "+48 713131262",
                "email": "przedszkole@danielowice.pl",
                "website": "http:\/\/przedszkole.danielowice.pl",
                "ref:regon": "021293448",
                "ref:vatin": "PL9121858991",
                "operator": "Gmina Domani\u00f3w",
                "operator:type": "government",
                "amenity": "kindergarten"
            }
        },
        {
            "id": 23150,
            "type": "Feature",
            "geometry": {
                "type": "Point",
                "coordinates": [
                    17.16956,
                    50.90981
                ]
            },
            "properties": {
                "ref:rspo": 23150,
                "official_name": "Przedszkole Publiczne w Polwicy",
                "name": "Przedszkole Publiczne w Polwicy",
                "addr:postcode": "55-216",
                "addr:place": "Polwica",
                "addr:housenumber": "23",
                "addr:teryt:simc": 874437,
                "phone": "+48 713019217",
                "email": "dyrektor@przedszkolepolwica.pl",
                "website": "http:\/\/przedszkolepolwica.przedszkolowo.pl",
                "ref:regon": "001012301",
                "ref:vatin": "PL9121390973",
                "operator": "Gmina Domani\u00f3w",
                "operator:type": "government",
                "amenity": "kindergarten"
            }
        },
        {
            "id": 41398,
            "type": "Feature",
            "geometry": {
                "type": "Point",
                "coordinates": [
                    17.18103,
                    50.93448
                ]
            },
            "properties": {
                "isced:level": "1;2",
                "ref:rspo": 41398,
                "official_name": "Szko\u0142a Podstawowa im.adama Mickiewicza w Wierzbnie",
                "name": "Szko\u0142a Podstawowa im.adama Mickiewicza w Wierzbnie",
                "addr:postcode": "55-216",
                "addr:place": "Wierzbno",
                "addr:housenumber": "84",
                "addr:teryt:simc": 874503,
                "phone": "+48 713131212",
                "email": "zespolszkolwierzbno@poczta.onet.pl",
                "website": "http:\/\/www.zs.wierzbno.szkolnastrona.pl",
                "ref:regon": "000703931",
                "ref:vatin": "PL9121817791",
                "operator": "Gmina Domani\u00f3w",
                "operator:type": "government",
                "amenity": "school"
            }
        }
    ]
}