{
    "type": "FeatureCollection",
    "features": [
        {
            "id": 269134,
            "type": "Feature",
            "geometry": {
                "type": "Point",
                "coordinates": [
                    19.52629,
                    50.91044
                ]
            },
            "properties": {
                "ref:rspo": 269134,
                "official_name": "Centrum Szkoleniowe Omnis Arma",
                "name": "Centrum Szkoleniowe Omnis Arma",
                "addr:postcode": "97-540",
                "addr:place": "Graby",
                "addr:housenumber": "22",
                "addr:teryt:simc": 131564,
                "email": "info@omnisarma.pl",
                "website": "http:\/\/www.omnisarma.pl",
                "ref:regon": "381382093",
                "operator": "Mateusz Stanisz",
                "operator:type": "private",
                "fixme": "w zale\u017cno\u015bci od przedmiotu dzia\u0142alno\u015bci (np. amenity=training + training=*, amenity=dancing_school, amenity=language_school, amenity=music_school)"
            }
        },
        {
            "id": 91951,
            "type": "Feature",
            "geometry": {
                "type": "Point",
                "coordinates": [
                    19.53278,
                    50.93016
                ]
            },
            "properties": {
                "isced:level": "1;2",
                "ref:rspo": 91951,
                "official_name": "Publiczna Szko\u0142a Podstawowa w Ci\u0119\u017ckowicach",
                "name": "Publiczna Szko\u0142a Podstawowa w Ci\u0119\u017ckowicach",
                "addr:postcode": "97-540",
                "addr:place": "Ci\u0119\u017ckowice",
                "addr:housenumber": "36",
                "addr:teryt:simc": 131506,
                "phone": "+48 343272281",
                "email": "pspciezkowice@interia.pl",
                "website": "http:\/\/pspciezkowice.edupage.org",
                "ref:regon": "001155207",
                "ref:vatin": "PL7722119286",
                "operator": "Gmina Gidle",
                "operator:type": "government",
                "amenity": "school"
            }
        },
        {
            "id": 89387,
            "type": "Feature",
            "geometry": {
                "type": "Point",
                "coordinates": [
                    19.46864,
                    50.96497
                ]
            },
            "properties": {
                "isced:level": "1;2",
                "ref:rspo": 89387,
                "official_name": "Publiczna Szko\u0142a Podstawowa im. J. Pi\u0142sudskiego w Gidlach",
                "name": "Publiczna Szko\u0142a Podstawowa",
                "addr:postcode": "97-540",
                "addr:city": "Gidle",
                "addr:street": "Szkolna",
                "addr:housenumber": "7",
                "addr:teryt:simc": 131529,
                "addr:teryt:sym_ul": 21970,
                "phone": "+48 343272127",
                "email": "sekretariat@pspgidle.pl",
                "website": "http:\/\/www.pspgidle.pl",
                "ref:regon": "000630451",
                "ref:vatin": "PL7722119300",
                "operator": "Gmina Gidle",
                "operator:type": "government",
                "amenity": "school"
            }
        },
        {
            "id": 91950,
            "type": "Feature",
            "geometry": {
                "type": "Point",
                "coordinates": [
                    19.45376,
                    50.9778
                ]
            },
            "properties": {
                "ref:rspo": 91950,
                "official_name": "Publiczne Przedszkole w Gidlach",
                "name": "Publiczne Przedszkole w Gidlach",
                "addr:postcode": "97-540",
                "addr:city": "Gidle",
                "addr:street": "Cz\u0119stochowska",
                "addr:housenumber": "2",
                "addr:teryt:simc": 131529,
                "addr:teryt:sym_ul": 3458,
                "phone": "+48 343272198",
                "email": "ppgidle@onet.pl",
                "website": "http:\/\/przedszkolegidle.szkolnastrona.pl",
                "ref:regon": "590790692",
                "ref:vatin": "PL7722117695",
                "operator": "Gmina Gidle",
                "operator:type": "government",
                "amenity": "kindergarten"
            }
        },
        {
            "id": 19802,
            "type": "Feature",
            "geometry": {
                "type": "Point",
                "coordinates": [
                    19.485364,
                    50.9781879
                ]
            },
            "properties": {
                "ref:rspo": 19802,
                "official_name": "O\u015brodek Szkoleniowy Operator\u00f3w Maszyn Le\u015bnych",
                "name": "O\u015brodek Szkoleniowy Operator\u00f3w Maszyn Le\u015bnych",
                "addr:postcode": "97-540",
                "addr:place": "Niesul\u00f3w",
                "addr:housenumber": "3",
                "addr:teryt:simc": 131535,
                "phone": "+48 343272970",
                "email": "gidle@katowice.lasy.gov.pl",
                "website": "http:\/\/www.katowice.lasy.gov.pl\/gidle",
                "ref:regon": "101474518",
                "operator": "Pa\u0144stwowe Gospodarstwo Le\u015bne Lasy Pa\u0144stwowe Nadle\u015bnictwo Gidle",
                "operator:type": "private",
                "fixme": "w zale\u017cno\u015bci od przedmiotu dzia\u0142alno\u015bci (np. amenity=training + training=*, amenity=dancing_school, amenity=language_school, amenity=music_school)"
            }
        },
        {
            "id": 91952,
            "type": "Feature",
            "geometry": {
                "type": "Point",
                "coordinates": [
                    19.4585,
                    50.97949
                ]
            },
            "properties": {
                "isced:level": "1;2",
                "ref:rspo": 91952,
                "official_name": "Publiczna Szko\u0142a Podstawowa w P\u0142awnie",
                "name": "Publiczna Szko\u0142a Podstawowa w P\u0142awnie",
                "addr:postcode": "97-540",
                "addr:city": "P\u0142awno",
                "addr:street": "Przedborska",
                "addr:housenumber": "4",
                "addr:teryt:simc": 131647,
                "addr:teryt:sym_ul": 17654,
                "phone": "+48 343272092",
                "email": "zsg_plawno@poczta.onet.pl",
                "website": "http:\/\/www.zsgplawno.pl",
                "ref:regon": "590767411",
                "ref:vatin": "PL7722413672",
                "operator": "Gmina Gidle",
                "operator:type": "government",
                "amenity": "school"
            }
        },
        {
            "id": 91949,
            "type": "Feature",
            "geometry": {
                "type": "Point",
                "coordinates": [
                    19.50775,
                    51.08878
                ]
            },
            "properties": {
                "ref:rspo": 91949,
                "official_name": "Publiczne Przedszkole w P\u0142awnie",
                "name": "Publiczne Przedszkole w P\u0142awnie",
                "addr:postcode": "97-540",
                "addr:city": "P\u0142awno",
                "addr:street": "Radomszcza\u0144ska",
                "addr:housenumber": "32",
                "addr:teryt:simc": 131647,
                "addr:teryt:sym_ul": 18317,
                "phone": "+48 343272640",
                "email": "przedszkole.plawno@wp.pl",
                "website": "http:\/\/przedszkoleplawno.edupage.org",
                "ref:regon": "592154374",
                "ref:vatin": "PL7722117703",
                "operator": "Gmina Gidle",
                "operator:type": "government",
                "amenity": "kindergarten"
            }
        }
    ]
}