{
    "type": "FeatureCollection",
    "features": [
        {
            "id": 69391,
            "type": "Feature",
            "geometry": {
                "type": "Point",
                "coordinates": [
                    19.62368,
                    51.02859
                ]
            },
            "properties": {
                "isced:level": "1;2",
                "ref:rspo": 69391,
                "official_name": "Publiczna Szko\u0142a Podstawowa im. W\u0142adys\u0142awa Stanis\u0142awa Reymonta w Kobielach Wielkich",
                "name": "Publiczna Szko\u0142a Podstawowa",
                "addr:postcode": "97-524",
                "addr:city": "Kobiele Wielkie",
                "addr:street": "Szkolna",
                "addr:housenumber": "4",
                "addr:city:simc": 543054,
                "addr:street:sym_ul": 21970,
                "phone": "+48 446814466",
                "email": "pspkobw@poczta.fm",
                "website": "http:\/\/www.pspkobielewielkie.szkolnastrona.pl",
                "ref:regon": "000684872",
                "ref:vatin": "PL7722117620",
                "operator": "Gmina Kobiele Wielkie",
                "operator:type": "government",
                "amenity": "school"
            }
        },
        {
            "id": 105193,
            "type": "Feature",
            "geometry": {
                "type": "Point",
                "coordinates": [
                    19.62368,
                    51.02856
                ]
            },
            "properties": {
                "ref:rspo": 105193,
                "official_name": "Zesp\u00f3\u0142 Wychowania Przedszkolnego Przy Publicznej Szkole Podstawowej im. W\u0142adys\u0142awa Stanis\u0142awa Reymonta w Kobielach Wielkich",
                "name": "Zesp\u00f3\u0142 Wychowania Przedszkolnego Przy Publicznej Szkole Podstawowej",
                "addr:postcode": "97-524",
                "addr:city": "Kobiele Wielkie",
                "addr:street": "Szkolna",
                "addr:housenumber": "4",
                "addr:city:simc": 543054,
                "addr:street:sym_ul": 21970,
                "phone": "+48 448814466",
                "email": "pspkobw@poczta.fm",
                "website": "http:\/\/www.pspkobielewielkie.szkolnastrona.pl",
                "ref:regon": "101501304",
                "operator": "Gmina Kobiele Wielkie",
                "operator:type": "government",
                "amenity": "kindergarten"
            }
        },
        {
            "id": 69163,
            "type": "Feature",
            "geometry": {
                "type": "Point",
                "coordinates": [
                    19.54032,
                    51.0386499
                ]
            },
            "properties": {
                "isced:level": "1;2",
                "ref:rspo": 69163,
                "official_name": "Publiczna Szko\u0142a Podstawowa im. Henryka Sienkiewicza w Orzechowie",
                "name": "Publiczna Szko\u0142a Podstawowa",
                "addr:postcode": "97-524",
                "addr:place": "Orzech\u00f3w",
                "addr:housenumber": "2",
                "addr:city:simc": 1040645,
                "phone": "+48 446814530",
                "email": "psporzechow@wp.pl",
                "website": "http:\/\/www.psporzechow.nazwa.pl",
                "ref:regon": "001139295",
                "ref:vatin": "PL7722117643",
                "operator": "Gmina Kobiele Wielkie",
                "operator:type": "government",
                "amenity": "school"
            }
        }
    ]
}