{
    "type": "FeatureCollection",
    "features": [
        {
            "id": 65193,
            "type": "Feature",
            "geometry": {
                "type": "Point",
                "coordinates": [
                    19.43464,
                    51.04513
                ]
            },
            "properties": {
                "isced:level": "1;2",
                "ref:rspo": 65193,
                "official_name": "Publiczna Szko\u0142a Podstawowa Nr 3 im. Mieszka I w Radomsku",
                "name": "Publiczna Szko\u0142a Podstawowa Nr 3",
                "addr:postcode": "97-500",
                "addr:city": "Radomsko",
                "addr:street": "Marii D\u0105browskiej",
                "addr:housenumber": "27",
                "addr:city:simc": 968078,
                "addr:street:sym_ul": 3691,
                "phone": "+48 446838784",
                "email": "dyrektorpsp3@radomsko.pl",
                "ref:regon": "000257986",
                "ref:vatin": "PL7722122348",
                "operator": "Miasto Radomsko",
                "operator:type": "government",
                "amenity": "school"
            }
        },
        {
            "id": 59169,
            "type": "Feature",
            "geometry": {
                "type": "Point",
                "coordinates": [
                    19.43877,
                    51.04996
                ]
            },
            "properties": {
                "ref:rspo": 59169,
                "official_name": "Centrum Edukacji dla Dzieci \"Skrzat\"",
                "name": "Centrum Edukacji dla Dzieci \"Skrzat\"",
                "addr:postcode": "97-500",
                "addr:city": "Radomsko",
                "addr:street": "Krakowska",
                "addr:housenumber": "180",
                "addr:city:simc": 968078,
                "addr:street:sym_ul": 9796,
                "phone": "+48 661525102",
                "email": "gdrozdek@o2.pl",
                "ref:regon": "101490084",
                "ref:vatin": "PL7721425006",
                "operator": "Gra\u017cyna Drozdek",
                "operator:type": "private",
                "amenity": "kindergarten"
            }
        },
        {
            "id": 20836,
            "type": "Feature",
            "geometry": {
                "type": "Point",
                "coordinates": [
                    19.44869,
                    51.05353
                ]
            },
            "properties": {
                "ref:rspo": 20836,
                "official_name": "Prywatna Plac\u00f3wka J\u0119zyk\u00f3w Obcych \"Horizon\"",
                "name": "Prywatna Plac\u00f3wka J\u0119zyk\u00f3w Obcych \"Horizon\"",
                "addr:postcode": "97-500",
                "addr:city": "Radomsko",
                "addr:street": "Starowiejska",
                "addr:housenumber": "33",
                "addr:city:simc": 968078,
                "addr:street:sym_ul": 20998,
                "phone": "+48 446851188",
                "email": "radomsko@horizon.edu.pl",
                "website": "http:\/\/www.horizon.edu.pl",
                "ref:regon": "101475050",
                "operator": "Piotr Pacholik",
                "operator:type": "private",
                "fixme": "w zale\u017cno\u015bci od przedmiotu dzia\u0142alno\u015bci (np. amenity=training + training=*, amenity=dancing_school, amenity=language_school, amenity=music_school)"
            }
        },
        {
            "id": 71369,
            "type": "Feature",
            "geometry": {
                "type": "Point",
                "coordinates": [
                    19.45457,
                    51.05446
                ]
            },
            "properties": {
                "isced:level": "1;2",
                "ref:rspo": 71369,
                "official_name": "Publiczna Szko\u0142a Podstawowa Nr 6 im. W\u0142adys\u0142awa Broniewskiego w Radomsku",
                "name": "Publiczna Szko\u0142a Podstawowa Nr 6",
                "addr:postcode": "97-500",
                "addr:city": "Radomsko",
                "addr:street": "\u015awi\u0119tej Jadwigi Kr\u00f3lowej",
                "addr:housenumber": "20",
                "addr:city:simc": 968078,
                "addr:street:sym_ul": 46966,
                "phone": "+48 446854406",
                "email": "dyrektorpsp6@radomsko.pl",
                "ref:regon": "000258218",
                "ref:vatin": "PL7722203041",
                "operator": "Miasto Radomsko",
                "operator:type": "government",
                "amenity": "school"
            }
        },
        {
            "id": 17128,
            "type": "Feature",
            "geometry": {
                "type": "Point",
                "coordinates": [
                    19.44157,
                    51.05558
                ]
            },
            "properties": {
                "ref:rspo": 17128,
                "official_name": "Plac\u00f3wka Kszta\u0142cenia Ustawicznego \"Behap\"",
                "name": "Plac\u00f3wka Kszta\u0142cenia Ustawicznego \"Behap\"",
                "addr:postcode": "97-500",
                "addr:city": "Radomsko",
                "addr:street": "Krakowska",
                "addr:housenumber": "123",
                "addr:city:simc": 968078,
                "addr:street:sym_ul": 9796,
                "phone": "+48 696071310",
                "email": "beatamichalek@op.pl",
                "ref:regon": "101471856",
                "operator": "Beata Micha\u0142ek",
                "operator:type": "private",
                "fixme": "w zale\u017cno\u015bci od przedmiotu dzia\u0142alno\u015bci (np. amenity=training + training=*, amenity=dancing_school, amenity=language_school, amenity=music_school)"
            }
        },
        {
            "id": 65199,
            "type": "Feature",
            "geometry": {
                "type": "Point",
                "coordinates": [
                    19.4492699,
                    51.05748
                ]
            },
            "properties": {
                "ref:rspo": 65199,
                "official_name": "Publiczne Przedszkole Nr 10 w Radomsku",
                "name": "Publiczne Przedszkole Nr 10 w Radomsku",
                "addr:postcode": "97-500",
                "addr:city": "Radomsko",
                "addr:street": "Armii Krajowej",
                "addr:housenumber": "13",
                "addr:city:simc": 968078,
                "addr:street:sym_ul": 432,
                "phone": "+48 446854545",
                "email": "dyrektorpp10@radomsko.pl",
                "ref:regon": "590745740",
                "ref:vatin": "PL7722122957",
                "operator": "Miasto Radomsko",
                "operator:type": "government",
                "amenity": "kindergarten"
            }
        },
        {
            "id": 7912,
            "type": "Feature",
            "geometry": {
                "type": "Point",
                "coordinates": [
                    19.44639,
                    51.05875
                ]
            },
            "properties": {
                "isced:level": "3",
                "ref:rspo": 7912,
                "official_name": "I Liceum Og\u00f3lnokszta\u0142c\u0105ce im. Feliksa Fabianiego w Radomsku",
                "name": "I Liceum Og\u00f3lnokszta\u0142c\u0105ce",
                "addr:postcode": "97-500",
                "addr:city": "Radomsko",
                "addr:street": "Armii Krajowej",
                "addr:housenumber": "30",
                "addr:city:simc": 968078,
                "addr:street:sym_ul": 432,
                "phone": "+48 446830941",
                "email": "sekretariat@fabiani.edu.pl",
                "website": "http:\/\/www.fabiani.edu.pl",
                "ref:regon": "000258282",
                "ref:vatin": "PL7721071815",
                "operator": "Powiat Radomszcza\u0144ski",
                "operator:type": "government",
                "amenity": "school"
            }
        },
        {
            "id": 5885,
            "type": "Feature",
            "geometry": {
                "type": "Point",
                "coordinates": [
                    19.43852,
                    51.05883
                ]
            },
            "properties": {
                "isced:level": "3",
                "ref:rspo": 5885,
                "official_name": "Liceum Og\u00f3lnokszta\u0142c\u0105ce dla Doros\u0142ych \"Sokrates\"",
                "name": "Liceum Og\u00f3lnokszta\u0142c\u0105ce dla Doros\u0142ych \"Sokrates\"",
                "addr:postcode": "97-500",
                "addr:city": "Radomsko",
                "addr:street": "Stara Droga",
                "addr:housenumber": "49",
                "addr:city:simc": 968078,
                "addr:street:sym_ul": 20863,
                "phone": "+48 446822730",
                "email": "radomsko@szkola-sokrates.pl",
                "website": "http:\/\/www.szkola-sokrates.pl",
                "ref:regon": "101496804",
                "ref:vatin": "PL9491450779",
                "operator": "Adam Zjawiony",
                "operator:type": "private",
                "amenity": "school"
            }
        },
        {
            "id": 5922,
            "type": "Feature",
            "geometry": {
                "type": "Point",
                "coordinates": [
                    19.43852,
                    51.0588
                ]
            },
            "properties": {
                "isced:level": "4",
                "ref:rspo": 5922,
                "official_name": "Szko\u0142a Policealna \"Sokrates\"",
                "name": "Szko\u0142a Policealna \"Sokrates\"",
                "addr:postcode": "97-500",
                "addr:city": "Radomsko",
                "addr:street": "Stara Droga",
                "addr:housenumber": "49",
                "addr:city:simc": 968078,
                "addr:street:sym_ul": 20863,
                "phone": "+48 446822730",
                "email": "radomsko@szkola-sokrates.pl",
                "website": "http:\/\/www.szkola-sokrates.pl",
                "ref:regon": "101459648",
                "ref:vatin": "PL9491450779",
                "operator": "Adam Zjawiony",
                "operator:type": "private",
                "amenity": "college"
            }
        },
        {
            "id": 133133,
            "type": "Feature",
            "geometry": {
                "type": "Point",
                "coordinates": [
                    19.43852,
                    51.05877
                ]
            },
            "properties": {
                "ref:rspo": 133133,
                "official_name": "Niepubliczne Przedszkole \"Nibylandia\"",
                "name": "Niepubliczne Przedszkole \"Nibylandia\"",
                "addr:postcode": "97-500",
                "addr:city": "Radomsko",
                "addr:street": "Stara Droga",
                "addr:housenumber": "49",
                "addr:city:simc": 968078,
                "addr:street:sym_ul": 20863,
                "phone": "+48 691021777",
                "email": "info@szkola-sokrates.pl",
                "ref:regon": "366699887",
                "operator": "Adam Zjawiony",
                "operator:type": "private",
                "amenity": "kindergarten"
            }
        },
        {
            "id": 276878,
            "type": "Feature",
            "geometry": {
                "type": "Point",
                "coordinates": [
                    19.43852,
                    51.05874
                ]
            },
            "properties": {
                "isced:level": "4",
                "ref:rspo": 276878,
                "official_name": "Medyczna Szko\u0142a Policealna \"Sokrates\" w Radomsku",
                "name": "Medyczna Szko\u0142a Policealna \"Sokrates\" w Radomsku",
                "addr:postcode": "97-500",
                "addr:city": "Radomsko",
                "addr:street": "Stara Droga",
                "addr:housenumber": "49",
                "addr:city:simc": 968078,
                "addr:street:sym_ul": 20863,
                "website": "http:\/\/www.szkola-sokrates.pl",
                "ref:regon": "387778580",
                "operator": "Adam Zjawiony",
                "operator:type": "private",
                "amenity": "college"
            }
        },
        {
            "id": 8715,
            "type": "Feature",
            "geometry": {
                "type": "Point",
                "coordinates": [
                    19.44988,
                    51.06068
                ]
            },
            "properties": {
                "ref:rspo": 8715,
                "official_name": "Specjalny O\u015brodek Szkolno-Wychowawczy im. Ks. Jana Twardowskiego w Radomsku",
                "name": "Specjalny O\u015brodek Szkolno-Wychowawczy",
                "addr:postcode": "97-500",
                "addr:city": "Radomsko",
                "addr:street": "Piastowska",
                "addr:housenumber": "12",
                "addr:city:simc": 968078,
                "addr:street:sym_ul": 16046,
                "phone": "+48 446834682",
                "email": "soswradomsko@poczta.fm",
                "website": "http:\/\/www.soswradomsko.pl",
                "ref:regon": "000197899",
                "ref:vatin": "PL7721527416",
                "operator": "Powiat Radomszcza\u0144ski",
                "operator:type": "government",
                "amenity": "school",
                "note": "Children RSPO: 13290;13291;13292"
            }
        },
        {
            "id": 13290,
            "type": "Feature",
            "geometry": {
                "type": "Point",
                "coordinates": [
                    19.44988,
                    51.060649999999995
                ]
            },
            "properties": {
                "isced:level": "3",
                "ref:rspo": 13290,
                "official_name": "Bran\u017cowa Szko\u0142a Specjalna I Stopnia w Radomsku",
                "name": "Bran\u017cowa Szko\u0142a Specjalna I Stopnia w Radomsku",
                "addr:postcode": "97-500",
                "addr:city": "Radomsko",
                "addr:street": "Piastowska",
                "addr:housenumber": "12",
                "addr:city:simc": 968078,
                "addr:street:sym_ul": 16046,
                "phone": "+48 446834703",
                "email": "soswradomsko@poczta.fm",
                "website": "http:\/\/www.soswradomsko.pl",
                "ref:regon": "592293822",
                "operator": "Powiat Radomszcza\u0144ski",
                "operator:type": "government",
                "amenity": "school",
                "note": "Parent RSPO: 8715"
            }
        },
        {
            "id": 13291,
            "type": "Feature",
            "geometry": {
                "type": "Point",
                "coordinates": [
                    19.44988,
                    51.06062
                ]
            },
            "properties": {
                "ref:rspo": 13291,
                "official_name": "Szko\u0142a Specjalna Przysposabiaj\u0105ca Do Pracy w Radomsku",
                "name": "Szko\u0142a Specjalna Przysposabiaj\u0105ca Do Pracy w Radomsku",
                "addr:postcode": "97-500",
                "addr:city": "Radomsko",
                "addr:street": "Piastowska",
                "addr:housenumber": "12",
                "addr:city:simc": 968078,
                "addr:street:sym_ul": 16046,
                "phone": "+48 446834703",
                "email": "soswradomsko@poczta.fm",
                "website": "http:\/\/www.soswradomsko.pl",
                "ref:regon": "592293839",
                "operator": "Powiat Radomszcza\u0144ski",
                "operator:type": "government",
                "amenity": "school",
                "note": "Parent RSPO: 8715"
            }
        },
        {
            "id": 13292,
            "type": "Feature",
            "geometry": {
                "type": "Point",
                "coordinates": [
                    19.44988,
                    51.06059
                ]
            },
            "properties": {
                "isced:level": "1;2",
                "ref:rspo": 13292,
                "official_name": "Szko\u0142a Podstawowa Specjalna w Radomsku",
                "name": "Szko\u0142a Podstawowa Specjalna w Radomsku",
                "addr:postcode": "97-500",
                "addr:city": "Radomsko",
                "addr:street": "Piastowska",
                "addr:housenumber": "12",
                "addr:city:simc": 968078,
                "addr:street:sym_ul": 16046,
                "phone": "+48 446834703",
                "email": "soswradomsko@poczta.fm",
                "website": "http:\/\/www.soswradomsko.pl",
                "ref:regon": "590744500",
                "operator": "Powiat Radomszcza\u0144ski",
                "operator:type": "government",
                "amenity": "school",
                "note": "Parent RSPO: 8715"
            }
        },
        {
            "id": 65192,
            "type": "Feature",
            "geometry": {
                "type": "Point",
                "coordinates": [
                    19.4497,
                    51.0615499
                ]
            },
            "properties": {
                "ref:rspo": 65192,
                "official_name": "Przedszkole Specjalne w Radomsku",
                "name": "Przedszkole Specjalne w Radomsku",
                "addr:postcode": "97-500",
                "addr:city": "Radomsko",
                "addr:street": "Piastowska",
                "addr:housenumber": "10a",
                "addr:city:simc": 968078,
                "addr:street:sym_ul": 16046,
                "phone": "+48 446854448",
                "email": "dyrektorps@radomsko.pl",
                "ref:regon": "590718950",
                "ref:vatin": "PL7722122963",
                "operator": "Miasto Radomsko",
                "operator:type": "government",
                "amenity": "kindergarten"
            }
        },
        {
            "id": 8334,
            "type": "Feature",
            "geometry": {
                "type": "Point",
                "coordinates": [
                    19.45164,
                    51.0615499
                ]
            },
            "properties": {
                "ref:rspo": 8334,
                "official_name": "Zesp\u00f3\u0142 Plac\u00f3wek O\u015bwiatowo-Wychowawczych w Radomsku",
                "name": "Zesp\u00f3\u0142 Plac\u00f3wek O\u015bwiatowo-Wychowawczych w Radomsku",
                "addr:postcode": "97-500",
                "addr:city": "Radomsko",
                "addr:street": "Piastowska",
                "addr:housenumber": "21",
                "addr:city:simc": 968078,
                "addr:street:sym_ul": 16046,
                "phone": "+48 446834495",
                "email": "bursa.radomsko@wp.pl",
                "website": "http:\/\/www.zpow.radomsko.pl",
                "ref:regon": "592307837",
                "ref:vatin": "PL7722237011",
                "operator": "Powiat Radomszcza\u0144ski",
                "operator:type": "government",
                "landuse": "education",
                "fixme": "amenity=school, amenity=college albo landuse=education w zale\u017cno\u015bci od tego, jakie plac\u00f3wki wchodz\u0105 w sk\u0142ad zespo\u0142u. Sprawd\u017a, kiedy stosowa\u0107 amenity=* a kiedy landuse=education.",
                "note": "Children RSPO: 13106;13107"
            }
        },
        {
            "id": 8572,
            "type": "Feature",
            "geometry": {
                "type": "Point",
                "coordinates": [
                    19.45164,
                    51.0615199
                ]
            },
            "properties": {
                "ref:rspo": 8572,
                "official_name": "Poradnia Psychologiczno-Pedagogiczna w Radomsku",
                "name": "Poradnia Psychologiczno-Pedagogiczna w Radomsku",
                "addr:postcode": "97-500",
                "addr:city": "Radomsko",
                "addr:street": "Piastowska",
                "addr:housenumber": "21",
                "addr:city:simc": 968078,
                "addr:street:sym_ul": 16046,
                "phone": "+48 446834114",
                "email": "sekretariat@ppp.radomszczanski.pl",
                "website": "http:\/\/www.ppp.radomsko.pl",
                "ref:regon": "001045849",
                "ref:vatin": "PL7722184444",
                "operator": "Powiat Radomszcza\u0144ski",
                "operator:type": "government",
                "healthcare": "counselling",
                "counselling_type": "education",
                "fixme": "w zale\u017cno\u015bci od przedmiotu dzia\u0142alno\u015bci (np. healthcare=counselling + counselling_type=education albo healthcare=psychotherapist)"
            }
        },
        {
            "id": 13106,
            "type": "Feature",
            "geometry": {
                "type": "Point",
                "coordinates": [
                    19.45164,
                    51.061489900000005
                ]
            },
            "properties": {
                "ref:rspo": 13106,
                "official_name": "Bursa Szkolna Nr 1 w Radomsku",
                "name": "Bursa Szkolna Nr 1 w Radomsku",
                "addr:postcode": "97-500",
                "addr:city": "Radomsko",
                "addr:street": "Piastowska",
                "addr:housenumber": "21",
                "addr:city:simc": 968078,
                "addr:street:sym_ul": 16046,
                "phone": "+48 446834495",
                "email": "bursa.radomsko@wp.pl",
                "website": "http:\/\/www.zpow.radomsko.pl",
                "ref:regon": "001086280",
                "operator": "Powiat Radomszcza\u0144ski",
                "operator:type": "government",
                "building": "dormitory",
                "note": "Parent RSPO: 8334"
            }
        },
        {
            "id": 13107,
            "type": "Feature",
            "geometry": {
                "type": "Point",
                "coordinates": [
                    19.45164,
                    51.0614599
                ]
            },
            "properties": {
                "ref:rspo": 13107,
                "official_name": "Szkolne Schronisko M\u0142odzie\u017cowe w Radomsku",
                "name": "Szkolne Schronisko M\u0142odzie\u017cowe w Radomsku",
                "addr:postcode": "97-500",
                "addr:city": "Radomsko",
                "addr:street": "Piastowska",
                "addr:housenumber": "21",
                "addr:city:simc": 968078,
                "addr:street:sym_ul": 16046,
                "phone": "+48 446834495",
                "email": "bursa.radomsko@wp.pl",
                "website": "http:\/\/www.zpow.radomsko.pl",
                "ref:regon": "592275505",
                "operator": "Powiat Radomszcza\u0144ski",
                "operator:type": "government",
                "tourism": "hostel",
                "note": "Parent RSPO: 8334"
            }
        },
        {
            "id": 65184,
            "type": "Feature",
            "geometry": {
                "type": "Point",
                "coordinates": [
                    19.4436,
                    51.06198
                ]
            },
            "properties": {
                "ref:rspo": 65184,
                "official_name": "Publiczne Przedszkole Nr 2 im. Janusza Korczaka w Radomsku",
                "name": "Publiczne Przedszkole Nr 2",
                "addr:postcode": "97-500",
                "addr:city": "Radomsko",
                "addr:street": "Targowa",
                "addr:housenumber": "7",
                "addr:city:simc": 968078,
                "addr:street:sym_ul": 22659,
                "phone": "+48 446854548",
                "email": "dyrektorpp2@radomsko.pl",
                "ref:regon": "590745680",
                "ref:vatin": "PL7722122897",
                "operator": "Miasto Radomsko",
                "operator:type": "government",
                "amenity": "kindergarten"
            }
        },
        {
            "id": 71366,
            "type": "Feature",
            "geometry": {
                "type": "Point",
                "coordinates": [
                    19.45054,
                    51.06243
                ]
            },
            "properties": {
                "isced:level": "1;2",
                "ref:rspo": 71366,
                "official_name": "Publiczna Szko\u0142a Podstawowa Nr 1 im. Boles\u0142awa Chrobrego w Radomsku",
                "name": "Publiczna Szko\u0142a Podstawowa Nr 1",
                "addr:postcode": "97-500",
                "addr:city": "Radomsko",
                "addr:street": "Piastowska",
                "addr:housenumber": "17",
                "addr:city:simc": 968078,
                "addr:street:sym_ul": 16046,
                "phone": "+48 446834448",
                "email": "dyrektorpsp1@radomsko.pl",
                "ref:regon": "001045884",
                "ref:vatin": "PL7722193845",
                "operator": "Miasto Radomsko",
                "operator:type": "government",
                "amenity": "school"
            }
        },
        {
            "id": 65190,
            "type": "Feature",
            "geometry": {
                "type": "Point",
                "coordinates": [
                    19.44982,
                    51.06425
                ]
            },
            "properties": {
                "ref:rspo": 65190,
                "official_name": "Publiczne Przedszkole Nr 9 im. Jasia I Ma\u0142gosi w Radomsku",
                "name": "Publiczne Przedszkole Nr 9",
                "addr:postcode": "97-500",
                "addr:city": "Radomsko",
                "addr:street": "Sokola",
                "addr:housenumber": "2",
                "addr:city:simc": 968078,
                "addr:street:sym_ul": 20478,
                "phone": "+48 446854450",
                "email": "dyrektorpp9@radomsko.pl",
                "ref:regon": "590745770",
                "ref:vatin": "PL7722122940",
                "operator": "Miasto Radomsko",
                "operator:type": "government",
                "amenity": "kindergarten"
            }
        },
        {
            "id": 273347,
            "type": "Feature",
            "geometry": {
                "type": "Point",
                "coordinates": [
                    19.43519,
                    51.06444
                ]
            },
            "properties": {
                "ref:rspo": 273347,
                "official_name": "Przedszkole Kot w Butach",
                "name": "Przedszkole Kot w Butach",
                "addr:postcode": "97-500",
                "addr:city": "Radomsko",
                "addr:street": "Pu\u0142askiego",
                "addr:housenumber": "11",
                "addr:city:simc": 968078,
                "addr:street:sym_ul": 18091,
                "phone": "+48 507140099",
                "email": "angelika.mastalerz3@gmail.com",
                "website": "http:\/\/akademiadziecka.com.pl",
                "ref:regon": "384452925",
                "operator": "Przedszkole I \u017b\u0142obek Krasnoludek Sp\u00f3\u0142ka Z Ograniczon\u0105 Odpowiedzialno\u015bci\u0105",
                "operator:type": "private",
                "amenity": "kindergarten"
            }
        },
        {
            "id": 16392,
            "type": "Feature",
            "geometry": {
                "type": "Point",
                "coordinates": [
                    19.44243,
                    51.0648
                ]
            },
            "properties": {
                "ref:rspo": 16392,
                "official_name": "Plac\u00f3wka O\u015bwiatowo-Szkoleniowa \"Spec-Szkol\"",
                "name": "Plac\u00f3wka O\u015bwiatowo-Szkoleniowa \"Spec-Szkol\"",
                "addr:postcode": "97-500",
                "addr:city": "Radomsko",
                "addr:street": "Brze\u017anicka",
                "addr:housenumber": "5",
                "addr:city:simc": 968078,
                "addr:street:sym_ul": 2254,
                "phone": "+48 600808954",
                "ref:regon": "101471684",
                "ref:vatin": "PL7721008426",
                "operator": "Krzysztof Boruta",
                "operator:type": "private",
                "fixme": "w zale\u017cno\u015bci od przedmiotu dzia\u0142alno\u015bci (np. amenity=training + training=*, amenity=dancing_school, amenity=language_school, amenity=music_school)"
            }
        },
        {
            "id": 71367,
            "type": "Feature",
            "geometry": {
                "type": "Point",
                "coordinates": [
                    19.44016,
                    51.0648399
                ]
            },
            "properties": {
                "isced:level": "1;2",
                "ref:rspo": 71367,
                "official_name": "Publiczna Szko\u0142a Podstawowa Nr 2 im. Tadeusza Ko\u015bciuszki w Radomsku",
                "name": "Publiczna Szko\u0142a Podstawowa Nr 2",
                "addr:postcode": "97-500",
                "addr:city": "Radomsko",
                "addr:street": "J\u00f3zefa Pi\u0142sudskiego",
                "addr:housenumber": "22",
                "addr:city:simc": 968078,
                "addr:street:sym_ul": 16252,
                "phone": "+48 446854560",
                "email": "dyrektorpsp2@radomsko.pl",
                "ref:regon": "000257880",
                "ref:vatin": "PL7722203058",
                "operator": "Miasto Radomsko",
                "operator:type": "government",
                "amenity": "school"
            }
        },
        {
            "id": 65195,
            "type": "Feature",
            "geometry": {
                "type": "Point",
                "coordinates": [
                    19.444629669189,
                    51.065128326416
                ]
            },
            "properties": {
                "isced:level": "1;2",
                "ref:rspo": 65195,
                "official_name": "Publiczna Szko\u0142a Podstawowa Nr 8 im. Przyjaci\u00f3\u0142 Dzieci w Radomsku",
                "name": "Publiczna Szko\u0142a Podstawowa Nr 8",
                "addr:postcode": "97-500",
                "addr:city": "Radomsko",
                "addr:street": "Miko\u0142aja Reja",
                "addr:housenumber": "81",
                "addr:city:simc": 968078,
                "addr:street:sym_ul": 18562,
                "phone": "+48 446854625",
                "email": "dyrektorpsp8@radomsko.pl",
                "website": "http:\/\/psp8radomsko.edupage.org",
                "ref:regon": "000816090",
                "ref:vatin": "PL7722122408",
                "operator": "Miasto Radomsko",
                "operator:type": "government",
                "amenity": "school"
            }
        },
        {
            "id": 71371,
            "type": "Feature",
            "geometry": {
                "type": "Point",
                "coordinates": [
                    19.45681,
                    51.06624
                ]
            },
            "properties": {
                "isced:level": "1;2",
                "ref:rspo": 71371,
                "official_name": "Publiczna Szko\u0142a Podstawowa Nr 9 im. Henryka Sienkiewicza",
                "name": "Publiczna Szko\u0142a Podstawowa Nr 9",
                "addr:postcode": "97-500",
                "addr:city": "Radomsko",
                "addr:street": "Rolna",
                "addr:housenumber": "65",
                "addr:city:simc": 968078,
                "addr:street:sym_ul": 18819,
                "phone": "+48 446835880",
                "email": "dyrektorpsp9@radomsko.pl",
                "ref:regon": "000258260",
                "ref:vatin": "PL7722203035",
                "operator": "Miasto Radomsko",
                "operator:type": "government",
                "amenity": "school"
            }
        },
        {
            "id": 268393,
            "type": "Feature",
            "geometry": {
                "type": "Point",
                "coordinates": [
                    19.44566,
                    51.06677
                ]
            },
            "properties": {
                "ref:rspo": 268393,
                "official_name": "Publiczna Specjalistyczna Poradnia Psychologiczno - Pedagogiczna \"Wczesnego Wspomagania Rozwoju Dziecka\" w Radomsku",
                "name": "Publiczna Specjalistyczna Poradnia Psychologiczno - Pedagogiczna \"Wczesnego Wspomagania Rozwoju Dziecka\" w Radomsku",
                "addr:postcode": "97-500",
                "addr:city": "Radomsko",
                "addr:street": "Prymasa Wyszy\u0144skiego",
                "addr:housenumber": "3",
                "addr:door": "3",
                "addr:city:simc": 968078,
                "addr:street:sym_ul": 25117,
                "phone": "+48 447413122",
                "email": "poradnia@logopedia.pl",
                "ref:regon": "381135673",
                "operator": "Jan Koz\u0142owski",
                "operator:type": "private",
                "healthcare": "counselling",
                "counselling_type": "education",
                "fixme": "w zale\u017cno\u015bci od przedmiotu dzia\u0142alno\u015bci (np. healthcare=counselling + counselling_type=education albo healthcare=psychotherapist)"
            }
        },
        {
            "id": 65188,
            "type": "Feature",
            "geometry": {
                "type": "Point",
                "coordinates": [
                    19.44869,
                    51.06772
                ]
            },
            "properties": {
                "ref:rspo": 65188,
                "official_name": "Publiczne Przedszkole Nr 6 im. Marii Konopnickiej w Radomsku",
                "name": "Publiczne Przedszkole Nr 6",
                "addr:postcode": "97-500",
                "addr:city": "Radomsko",
                "addr:street": "Rolna",
                "addr:housenumber": "2",
                "addr:city:simc": 968078,
                "addr:street:sym_ul": 18819,
                "phone": "+48 446854426",
                "email": "dyrektorpp6@radomsko.pl",
                "ref:regon": "590745651",
                "ref:vatin": "PL7722122934",
                "operator": "Miasto Radomsko",
                "operator:type": "government",
                "amenity": "kindergarten"
            }
        },
        {
            "id": 15751,
            "type": "Feature",
            "geometry": {
                "type": "Point",
                "coordinates": [
                    19.4417,
                    51.06792
                ]
            },
            "properties": {
                "ref:rspo": 15751,
                "official_name": "Centrum Kszta\u0142cenia Ustawicznego Cechu Rzemie\u015blnik\u00f3w I Przedsi\u0119biorc\u00f3w",
                "name": "Centrum Kszta\u0142cenia Ustawicznego Cechu Rzemie\u015blnik\u00f3w I Przedsi\u0119biorc\u00f3w",
                "addr:postcode": "97-500",
                "addr:city": "Radomsko",
                "addr:street": "W\u0142adys\u0142awa Reymonta",
                "addr:housenumber": "12",
                "addr:city:simc": 968078,
                "addr:street:sym_ul": 18645,
                "phone": "+48 446832178",
                "email": "cku.cechu.radomsko@gmail.com",
                "website": "http:\/\/www.cechradomsko.pl\/strona.4.centrum.ksztalcenia.ustawicznego.html",
                "ref:regon": "101469256",
                "operator": "Cech Rzemie\u015blnik\u00f3w I Przedsi\u0119biorc\u00f3w W Radomsku",
                "operator:type": "cooperative",
                "fixme": "w zale\u017cno\u015bci od przedmiotu dzia\u0142alno\u015bci (np. amenity=training + training=*, amenity=dancing_school, amenity=language_school, amenity=music_school)"
            }
        },
        {
            "id": 277033,
            "type": "Feature",
            "geometry": {
                "type": "Point",
                "coordinates": [
                    19.44096,
                    51.06874
                ]
            },
            "properties": {
                "isced:level": "3",
                "ref:rspo": 277033,
                "official_name": "Publiczne Zaoczne Liceum Og\u00f3lnokszta\u0142c\u0105ce dla Doros\u0142ych \"Edukacja\" w Radomsku",
                "name": "Publiczne Zaoczne Liceum Og\u00f3lnokszta\u0142c\u0105ce dla Doros\u0142ych \"Edukacja\" w Radomsku",
                "addr:postcode": "97-500",
                "addr:city": "Radomsko",
                "addr:street": "Aleje Jana Paw\u0142a II",
                "addr:housenumber": "3\/4",
                "addr:city:simc": 968078,
                "addr:street:sym_ul": 37819,
                "phone": "+48 728395242",
                "email": "radomsko@szkoly-edukacja.pl",
                "website": "http:\/\/www.szkoly-edukacja.pl",
                "ref:regon": "388062635",
                "operator": "Marzena \u017bemejda-Zybura",
                "operator:type": "private",
                "amenity": "school"
            }
        },
        {
            "id": 277089,
            "type": "Feature",
            "geometry": {
                "type": "Point",
                "coordinates": [
                    19.44096,
                    51.068709999999996
                ]
            },
            "properties": {
                "isced:level": "4",
                "ref:rspo": 277089,
                "official_name": "Publiczna Szko\u0142a Policealna \"Edukacja\" w Radomsku",
                "name": "Publiczna Szko\u0142a Policealna \"Edukacja\" w Radomsku",
                "addr:postcode": "97-500",
                "addr:city": "Radomsko",
                "addr:street": "Aleje Jana Paw\u0142a II",
                "addr:housenumber": "3\/4",
                "addr:city:simc": 968078,
                "addr:street:sym_ul": 37819,
                "phone": "+48 728395242",
                "email": "radomsko@szkoly-edukacja.pl",
                "website": "http:\/\/www.szkoly-edukacja.pl",
                "ref:regon": "388146332",
                "operator": "Marzena \u017bemejda-Zybura",
                "operator:type": "private",
                "amenity": "college"
            }
        },
        {
            "id": 279122,
            "type": "Feature",
            "geometry": {
                "type": "Point",
                "coordinates": [
                    19.44096,
                    51.06868
                ]
            },
            "properties": {
                "ref:rspo": 279122,
                "official_name": "Nwp w Radomsku",
                "name": "Nwp w Radomsku",
                "addr:postcode": "97-500",
                "addr:city": "Radomsko",
                "addr:street": "Aleje Jana Paw\u0142a II",
                "addr:housenumber": "3\/4",
                "addr:city:simc": 968078,
                "addr:street:sym_ul": 37819,
                "email": "kierownik@csk.waw.pl",
                "ref:regon": "520711359",
                "operator": "Maksym Grabarczyk",
                "operator:type": "private",
                "fixme": "w zale\u017cno\u015bci od przedmiotu dzia\u0142alno\u015bci (np. amenity=training + training=*, amenity=dancing_school, amenity=language_school, amenity=music_school)"
            }
        },
        {
            "id": 279298,
            "type": "Feature",
            "geometry": {
                "type": "Point",
                "coordinates": [
                    19.44096,
                    51.06865
                ]
            },
            "properties": {
                "ref:rspo": 279298,
                "official_name": "Centrum Doskonalenia Zawodowego - Cdz",
                "name": "Centrum Doskonalenia Zawodowego - Cdz",
                "addr:postcode": "97-500",
                "addr:city": "Radomsko",
                "addr:street": "Aleje Jana Paw\u0142a II",
                "addr:housenumber": "3\/4",
                "addr:city:simc": 968078,
                "addr:street:sym_ul": 37819,
                "email": "kierownik@csk.waw.pl",
                "ref:regon": "521186145",
                "operator": "Maksym Grabarczyk",
                "operator:type": "private",
                "fixme": "w zale\u017cno\u015bci od przedmiotu dzia\u0142alno\u015bci (np. amenity=training + training=*, amenity=dancing_school, amenity=language_school, amenity=music_school)"
            }
        },
        {
            "id": 279299,
            "type": "Feature",
            "geometry": {
                "type": "Point",
                "coordinates": [
                    19.44096,
                    51.068619999999996
                ]
            },
            "properties": {
                "ref:rspo": 279299,
                "official_name": "Centrum Doskonalenia Zawodowego E-Edukator",
                "name": "Centrum Doskonalenia Zawodowego E-Edukator",
                "addr:postcode": "97-500",
                "addr:city": "Radomsko",
                "addr:street": "Aleje Jana Paw\u0142a II",
                "addr:housenumber": "3\/4",
                "addr:city:simc": 968078,
                "addr:street:sym_ul": 37819,
                "email": "kierownik@csk.waw.pl",
                "ref:regon": "521186228",
                "operator": "Adrian Miko\u0142ajczak",
                "operator:type": "private",
                "fixme": "w zale\u017cno\u015bci od przedmiotu dzia\u0142alno\u015bci (np. amenity=training + training=*, amenity=dancing_school, amenity=language_school, amenity=music_school)"
            }
        },
        {
            "id": 279300,
            "type": "Feature",
            "geometry": {
                "type": "Point",
                "coordinates": [
                    19.44096,
                    51.06859
                ]
            },
            "properties": {
                "ref:rspo": 279300,
                "official_name": "Idsw",
                "name": "Idsw",
                "addr:postcode": "97-500",
                "addr:city": "Radomsko",
                "addr:street": "Aleje Jana Paw\u0142a II",
                "addr:housenumber": "3\/4",
                "addr:city:simc": 968078,
                "addr:street:sym_ul": 37819,
                "email": "kierownik@csk.waw.pl",
                "ref:regon": "521186642",
                "operator": "Natalia Miko\u0142ajczak",
                "operator:type": "private",
                "fixme": "w zale\u017cno\u015bci od przedmiotu dzia\u0142alno\u015bci (np. amenity=training + training=*, amenity=dancing_school, amenity=language_school, amenity=music_school)"
            }
        },
        {
            "id": 279301,
            "type": "Feature",
            "geometry": {
                "type": "Point",
                "coordinates": [
                    19.44096,
                    51.06856
                ]
            },
            "properties": {
                "ref:rspo": 279301,
                "official_name": "Krajowy Instytut Medyczny",
                "name": "Krajowy Instytut Medyczny",
                "addr:postcode": "97-500",
                "addr:city": "Radomsko",
                "addr:street": "Aleje Jana Paw\u0142a II",
                "addr:housenumber": "3\/4",
                "addr:city:simc": 968078,
                "addr:street:sym_ul": 37819,
                "email": "kierownik@csk.waw.pl",
                "ref:regon": "521186524",
                "operator": "Centrum Szkole\u0144 Kwalifikacyjnych Sp\u00f3\u0142ka Z Ograniczon\u0105 Odpowiedzialno\u015bci\u0105",
                "operator:type": "private",
                "fixme": "w zale\u017cno\u015bci od przedmiotu dzia\u0142alno\u015bci (np. amenity=training + training=*, amenity=dancing_school, amenity=language_school, amenity=music_school)"
            }
        },
        {
            "id": 279302,
            "type": "Feature",
            "geometry": {
                "type": "Point",
                "coordinates": [
                    19.44096,
                    51.068529999999996
                ]
            },
            "properties": {
                "ref:rspo": 279302,
                "official_name": "Centrum Doskonalenia Zawodowego",
                "name": "Centrum Doskonalenia Zawodowego",
                "addr:postcode": "97-500",
                "addr:city": "Radomsko",
                "addr:street": "Aleje Jana Paw\u0142a II",
                "addr:housenumber": "3\/4",
                "addr:city:simc": 968078,
                "addr:street:sym_ul": 37819,
                "email": "kierownik@csk.waw.pl",
                "ref:regon": "521186292",
                "operator": "Studio Programowania Sp\u00f3\u0142ka Z Ograniczon\u0105 Odpowiedzialno\u015bci\u0105",
                "operator:type": "private",
                "fixme": "w zale\u017cno\u015bci od przedmiotu dzia\u0142alno\u015bci (np. amenity=training + training=*, amenity=dancing_school, amenity=language_school, amenity=music_school)"
            }
        },
        {
            "id": 279303,
            "type": "Feature",
            "geometry": {
                "type": "Point",
                "coordinates": [
                    19.44096,
                    51.0685
                ]
            },
            "properties": {
                "ref:rspo": 279303,
                "official_name": "Polski Instytut Dietetyki",
                "name": "Polski Instytut Dietetyki",
                "addr:postcode": "97-500",
                "addr:city": "Radomsko",
                "addr:street": "Aleje Jana Paw\u0142a II",
                "addr:housenumber": "3\/4",
                "addr:city:simc": 968078,
                "addr:street:sym_ul": 37819,
                "email": "kierownik@csk.waw.pl",
                "ref:regon": "521186375",
                "operator": "Studio Programowania Sp\u00f3\u0142ka Z Ograniczon\u0105 Odpowiedzialno\u015bci\u0105",
                "operator:type": "private",
                "fixme": "w zale\u017cno\u015bci od przedmiotu dzia\u0142alno\u015bci (np. amenity=training + training=*, amenity=dancing_school, amenity=language_school, amenity=music_school)"
            }
        },
        {
            "id": 279304,
            "type": "Feature",
            "geometry": {
                "type": "Point",
                "coordinates": [
                    19.44096,
                    51.06847
                ]
            },
            "properties": {
                "ref:rspo": 279304,
                "official_name": "Polska Akademia Kultury I Sportu",
                "name": "Polska Akademia Kultury I Sportu",
                "addr:postcode": "97-500",
                "addr:city": "Radomsko",
                "addr:street": "Aleje Jana Paw\u0142a II",
                "addr:housenumber": "3\/4",
                "addr:city:simc": 968078,
                "addr:street:sym_ul": 37819,
                "email": "kierownik@csk.waw.pl",
                "ref:regon": "521186470",
                "operator": "Ise Sp\u00f3\u0142ka Z Ograniczon\u0105 Odpowiedzialno\u015bci\u0105",
                "operator:type": "private",
                "fixme": "w zale\u017cno\u015bci od przedmiotu dzia\u0142alno\u015bci (np. amenity=training + training=*, amenity=dancing_school, amenity=language_school, amenity=music_school)"
            }
        },
        {
            "id": 279305,
            "type": "Feature",
            "geometry": {
                "type": "Point",
                "coordinates": [
                    19.44096,
                    51.068439999999995
                ]
            },
            "properties": {
                "ref:rspo": 279305,
                "official_name": "Krajowa Izba Ksi\u0119gowych",
                "name": "Krajowa Izba Ksi\u0119gowych",
                "addr:postcode": "97-500",
                "addr:city": "Radomsko",
                "addr:street": "Aleje Jana Paw\u0142a II",
                "addr:housenumber": "3\/4",
                "addr:city:simc": 968078,
                "addr:street:sym_ul": 37819,
                "email": "kierownik@csk.waw.pl",
                "ref:regon": "521186412",
                "operator": "Ise Sp\u00f3\u0142ka Z Ograniczon\u0105 Odpowiedzialno\u015bci\u0105",
                "operator:type": "private",
                "fixme": "w zale\u017cno\u015bci od przedmiotu dzia\u0142alno\u015bci (np. amenity=training + training=*, amenity=dancing_school, amenity=language_school, amenity=music_school)"
            }
        },
        {
            "id": 31187,
            "type": "Feature",
            "geometry": {
                "type": "Point",
                "coordinates": [
                    19.44095,
                    51.06875
                ]
            },
            "properties": {
                "ref:rspo": 31187,
                "official_name": "Szko\u0142a J\u0119zyk\u00f3w Obcych \"Eurolingwista\"",
                "name": "Szko\u0142a J\u0119zyk\u00f3w Obcych \"Eurolingwista\"",
                "addr:postcode": "97-500",
                "addr:city": "Radomsko",
                "addr:street": "Aleje Jana Paw\u0142a II",
                "addr:housenumber": "3",
                "addr:door": "4",
                "addr:city:simc": 968078,
                "addr:street:sym_ul": 37819,
                "phone": "+48 446833147",
                "email": "szkola@eurolingwista.pl",
                "website": "http:\/\/www.eurolingwista.pl",
                "ref:regon": "101482660",
                "operator": "Pawe\u0142 Handydraj",
                "operator:type": "private",
                "fixme": "w zale\u017cno\u015bci od przedmiotu dzia\u0142alno\u015bci (np. amenity=training + training=*, amenity=dancing_school, amenity=language_school, amenity=music_school)"
            }
        },
        {
            "id": 13088,
            "type": "Feature",
            "geometry": {
                "type": "Point",
                "coordinates": [
                    19.4502161,
                    51.0694839
                ]
            },
            "properties": {
                "isced:level": "3",
                "ref:rspo": 13088,
                "official_name": "Technikum",
                "name": "Technikum",
                "addr:postcode": "97-500",
                "addr:city": "Radomsko",
                "addr:street": "Przedborska",
                "addr:housenumber": "39",
                "addr:door": "41",
                "addr:city:simc": 968078,
                "addr:street:sym_ul": 17654,
                "phone": "+48 446821209",
                "email": "sekretariat@zseradomsko.edu.pl",
                "website": "http:\/\/www.zseradomsko.edu.pl",
                "ref:regon": "592191139",
                "operator": "Powiat Radomszcza\u0144ski",
                "operator:type": "government",
                "amenity": "school",
                "note": "Parent RSPO: 7961"
            }
        },
        {
            "id": 13092,
            "type": "Feature",
            "geometry": {
                "type": "Point",
                "coordinates": [
                    19.4502161,
                    51.0694539
                ]
            },
            "properties": {
                "isced:level": "4",
                "ref:rspo": 13092,
                "official_name": "Szko\u0142a Policealna Nr 1 w Radomsku",
                "name": "Szko\u0142a Policealna Nr 1 w Radomsku",
                "addr:postcode": "97-500",
                "addr:city": "Radomsko",
                "addr:street": "Przedborska",
                "addr:housenumber": "39",
                "addr:door": "41",
                "addr:city:simc": 968078,
                "addr:street:sym_ul": 17654,
                "phone": "+48 446821209",
                "email": "sekretariat@zseradomsko.edu.pl",
                "website": "http:\/\/www.zseradomsko.edu.pl",
                "ref:regon": "100077548",
                "operator": "Powiat Radomszcza\u0144ski",
                "operator:type": "government",
                "amenity": "college",
                "note": "Parent RSPO: 7961"
            }
        },
        {
            "id": 56598,
            "type": "Feature",
            "geometry": {
                "type": "Point",
                "coordinates": [
                    19.42514,
                    51.06984
                ]
            },
            "properties": {
                "ref:rspo": 56598,
                "official_name": "Publiczne Przedszkole Nr 1 im. Jana Brzechwy w Radomsku",
                "name": "Publiczne Przedszkole Nr 1",
                "addr:postcode": "97-500",
                "addr:city": "Radomsko",
                "addr:street": "Mi\u0142a",
                "addr:housenumber": "13",
                "addr:city:simc": 968078,
                "addr:street:sym_ul": 12947,
                "phone": "+48 446854428",
                "email": "dyrektorpp1@radomsko.pl",
                "ref:regon": "590745645",
                "ref:vatin": "PL7722122880",
                "operator": "Miasto Radomsko",
                "operator:type": "government",
                "amenity": "kindergarten"
            }
        },
        {
            "id": 7961,
            "type": "Feature",
            "geometry": {
                "type": "Point",
                "coordinates": [
                    19.44982,
                    51.06989
                ]
            },
            "properties": {
                "ref:rspo": 7961,
                "official_name": "Zesp\u00f3\u0142 Szk\u00f3\u0142 Ekonomicznych im. Tadeusza Kotarbi\u0144skiego w Radomsku",
                "name": "Zesp\u00f3\u0142 Szk\u00f3\u0142 Ekonomicznych",
                "addr:postcode": "97-500",
                "addr:city": "Radomsko",
                "addr:street": "Przedborska",
                "addr:housenumber": "39\/41",
                "addr:city:simc": 968078,
                "addr:street:sym_ul": 17654,
                "phone": "+48 446821209",
                "email": "sekretariat@zseradomsko.edu.pl",
                "website": "http:\/\/www.zseradomsko.edu.pl",
                "ref:regon": "000186944",
                "ref:vatin": "PL7721522502",
                "operator": "Powiat Radomszcza\u0144ski",
                "operator:type": "government",
                "landuse": "education",
                "fixme": "amenity=school, amenity=college albo landuse=education w zale\u017cno\u015bci od tego, jakie plac\u00f3wki wchodz\u0105 w sk\u0142ad zespo\u0142u. Sprawd\u017a, kiedy stosowa\u0107 amenity=* a kiedy landuse=education.",
                "note": "Children RSPO: 13088;13090;13092"
            }
        },
        {
            "id": 13090,
            "type": "Feature",
            "geometry": {
                "type": "Point",
                "coordinates": [
                    19.44982,
                    51.06986
                ]
            },
            "properties": {
                "isced:level": "3",
                "ref:rspo": 13090,
                "official_name": "Bran\u017cowa Szko\u0142a I Stopnia Nr 2 w Radomsku",
                "name": "Bran\u017cowa Szko\u0142a I Stopnia Nr 2 w Radomsku",
                "addr:postcode": "97-500",
                "addr:city": "Radomsko",
                "addr:street": "Przedborska",
                "addr:housenumber": "39\/41",
                "addr:city:simc": 968078,
                "addr:street:sym_ul": 17654,
                "phone": "+48 446821209",
                "email": "sekretariat@zseradomsko.edu.pl",
                "website": "http:\/\/www.zseradomsko.edu.pl",
                "ref:regon": "592191145",
                "operator": "Powiat Radomszcza\u0144ski",
                "operator:type": "government",
                "amenity": "school",
                "note": "Parent RSPO: 7961"
            }
        },
        {
            "id": 59170,
            "type": "Feature",
            "geometry": {
                "type": "Point",
                "coordinates": [
                    19.44434,
                    51.0700999
                ]
            },
            "properties": {
                "ref:rspo": 59170,
                "official_name": "Edukacyjne Centrum dla Dzieci \"Bajkowa Kraina\"",
                "name": "Edukacyjne Centrum dla Dzieci \"Bajkowa Kraina\"",
                "addr:postcode": "97-500",
                "addr:city": "Radomsko",
                "addr:street": "Gabriela Narutowicza",
                "addr:housenumber": "3",
                "addr:city:simc": 968078,
                "addr:street:sym_ul": 14015,
                "phone": "+48 501013192",
                "email": "katarzynkabe@interia.pl",
                "website": "http:\/\/przedszkoleradomsko.pl",
                "ref:regon": "101490061",
                "ref:vatin": "PL7722103724",
                "operator": "Katarzyna Margas",
                "operator:type": "private",
                "amenity": "kindergarten"
            }
        },
        {
            "id": 8256,
            "type": "Feature",
            "geometry": {
                "type": "Point",
                "coordinates": [
                    19.43246,
                    51.07024
                ]
            },
            "properties": {
                "ref:rspo": 8256,
                "official_name": "Zesp\u00f3\u0142 Szk\u00f3\u0142 Ponadpodstawowych Nr 1 im. Stanis\u0142awa Staszica w Radomsku",
                "name": "Zesp\u00f3\u0142 Szk\u00f3\u0142 Ponadpodstawowych Nr 1",
                "addr:postcode": "97-500",
                "addr:city": "Radomsko",
                "addr:street": "Brze\u017anicka",
                "addr:housenumber": "20",
                "addr:city:simc": 968078,
                "addr:street:sym_ul": 2254,
                "phone": "+48 446822156",
                "email": "zsp1@radomsko.edu.pl",
                "website": "http:\/\/www.radomsko.edu.pl",
                "ref:regon": "000187607",
                "ref:vatin": "PL7721261243",
                "operator": "Powiat Radomszcza\u0144ski",
                "operator:type": "government",
                "landuse": "education",
                "fixme": "amenity=school, amenity=college albo landuse=education w zale\u017cno\u015bci od tego, jakie plac\u00f3wki wchodz\u0105 w sk\u0142ad zespo\u0142u. Sprawd\u017a, kiedy stosowa\u0107 amenity=* a kiedy landuse=education.",
                "note": "Children RSPO: 12668;12669;12670;12672"
            }
        },
        {
            "id": 12668,
            "type": "Feature",
            "geometry": {
                "type": "Point",
                "coordinates": [
                    19.43246,
                    51.070209999999996
                ]
            },
            "properties": {
                "isced:level": "3",
                "ref:rspo": 12668,
                "official_name": "Iii Liceum Og\u00f3lnokszta\u0142c\u0105ce w Radomsku",
                "name": "Iii Liceum Og\u00f3lnokszta\u0142c\u0105ce w Radomsku",
                "addr:postcode": "97-500",
                "addr:city": "Radomsko",
                "addr:street": "Brze\u017anicka",
                "addr:housenumber": "20",
                "addr:city:simc": 968078,
                "addr:street:sym_ul": 2254,
                "phone": "+48 446822156",
                "email": "zsp1@radomsko.edu.pl",
                "website": "http:\/\/www.radomsko.edu.pl",
                "ref:regon": "592147894",
                "operator": "Powiat Radomszcza\u0144ski",
                "operator:type": "government",
                "amenity": "school",
                "note": "Parent RSPO: 8256"
            }
        },
        {
            "id": 12669,
            "type": "Feature",
            "geometry": {
                "type": "Point",
                "coordinates": [
                    19.43246,
                    51.07018
                ]
            },
            "properties": {
                "isced:level": "3",
                "ref:rspo": 12669,
                "official_name": "Technikum Mechaniczno-Budowlane w Radomsku",
                "name": "Technikum Mechaniczno-Budowlane w Radomsku",
                "addr:postcode": "97-500",
                "addr:city": "Radomsko",
                "addr:street": "Brze\u017anicka",
                "addr:housenumber": "20",
                "addr:city:simc": 968078,
                "addr:street:sym_ul": 2254,
                "phone": "+48 446822156",
                "email": "zsp1@radomsko.edu.pl",
                "website": "http:\/\/www.radomsko.edu.pl",
                "ref:regon": "592147859",
                "operator": "Powiat Radomszcza\u0144ski",
                "operator:type": "government",
                "amenity": "school",
                "note": "Parent RSPO: 8256"
            }
        },
        {
            "id": 12670,
            "type": "Feature",
            "geometry": {
                "type": "Point",
                "coordinates": [
                    19.43246,
                    51.07015
                ]
            },
            "properties": {
                "isced:level": "3",
                "ref:rspo": 12670,
                "official_name": "Bran\u017cowa Szko\u0142a I Stopnia Nr 4 w Radomsku",
                "name": "Bran\u017cowa Szko\u0142a I Stopnia Nr 4 w Radomsku",
                "addr:postcode": "97-500",
                "addr:city": "Radomsko",
                "addr:street": "Brze\u017anicka",
                "addr:housenumber": "20",
                "addr:city:simc": 968078,
                "addr:street:sym_ul": 2254,
                "phone": "+48 446822156",
                "email": "zsp1@radomsko.edu.pl",
                "website": "http:\/\/www.radomsko.edu.pl",
                "ref:regon": "592147871",
                "operator": "Powiat Radomszcza\u0144ski",
                "operator:type": "government",
                "amenity": "school",
                "note": "Parent RSPO: 8256"
            }
        },
        {
            "id": 12672,
            "type": "Feature",
            "geometry": {
                "type": "Point",
                "coordinates": [
                    19.43246,
                    51.070119999999996
                ]
            },
            "properties": {
                "isced:level": "4",
                "ref:rspo": 12672,
                "official_name": "Szko\u0142a Policealna Nr 3 w Radomsku",
                "name": "Szko\u0142a Policealna Nr 3 w Radomsku",
                "addr:postcode": "97-500",
                "addr:city": "Radomsko",
                "addr:street": "Brze\u017anicka",
                "addr:housenumber": "20",
                "addr:city:simc": 968078,
                "addr:street:sym_ul": 2254,
                "phone": "+48 446822156",
                "email": "zsp1@radomsko.edu.pl",
                "website": "http:\/\/www.radomsko.edu.pl",
                "ref:regon": "100358454",
                "operator": "Powiat Radomszcza\u0144ski",
                "operator:type": "government",
                "amenity": "college",
                "note": "Parent RSPO: 8256"
            }
        },
        {
            "id": 8285,
            "type": "Feature",
            "geometry": {
                "type": "Point",
                "coordinates": [
                    19.4302199,
                    51.07055
                ]
            },
            "properties": {
                "ref:rspo": 8285,
                "official_name": "Zesp\u00f3\u0142 Szk\u00f3\u0142 Drzewnych I Ochrony \u015arodowiska w Radomsku",
                "name": "Zesp\u00f3\u0142 Szk\u00f3\u0142 Drzewnych I Ochrony \u015arodowiska w Radomsku",
                "addr:postcode": "97-500",
                "addr:city": "Radomsko",
                "addr:street": "Brze\u017anicka",
                "addr:housenumber": "22",
                "addr:city:simc": 968078,
                "addr:street:sym_ul": 2254,
                "phone": "+48 446822378",
                "email": "z_s_d@wp.pl",
                "website": "http:\/\/www.drzewniak.pl",
                "ref:regon": "000187850",
                "ref:vatin": "PL7721524725",
                "operator": "Powiat Radomszcza\u0144ski",
                "operator:type": "government",
                "landuse": "education",
                "fixme": "amenity=school, amenity=college albo landuse=education w zale\u017cno\u015bci od tego, jakie plac\u00f3wki wchodz\u0105 w sk\u0142ad zespo\u0142u. Sprawd\u017a, kiedy stosowa\u0107 amenity=* a kiedy landuse=education.",
                "note": "Children RSPO: 10030;10031;10033;10036;118557"
            }
        },
        {
            "id": 10030,
            "type": "Feature",
            "geometry": {
                "type": "Point",
                "coordinates": [
                    19.4302199,
                    51.070519999999995
                ]
            },
            "properties": {
                "isced:level": "3",
                "ref:rspo": 10030,
                "official_name": "Technikum Drzewne I Ochrony \u015arodowiska im. Miko\u0142aja Kopernika w Radomsku",
                "name": "Technikum Drzewne I Ochrony \u015arodowiska",
                "addr:postcode": "97-500",
                "addr:city": "Radomsko",
                "addr:street": "Brze\u017anicka",
                "addr:housenumber": "22",
                "addr:city:simc": 968078,
                "addr:street:sym_ul": 2254,
                "phone": "+48 446822395",
                "email": "z_s_d@wp.pl",
                "website": "http:\/\/www.drzewniak.pl",
                "ref:regon": "592146771",
                "operator": "Powiat Radomszcza\u0144ski",
                "operator:type": "government",
                "amenity": "school",
                "note": "Parent RSPO: 8285"
            }
        },
        {
            "id": 10031,
            "type": "Feature",
            "geometry": {
                "type": "Point",
                "coordinates": [
                    19.4302199,
                    51.07049
                ]
            },
            "properties": {
                "isced:level": "3",
                "ref:rspo": 10031,
                "official_name": "Bran\u017cowa Szko\u0142a I Stopnia Nr 3 im. Miko\u0142aja Kopernika w Radomsku",
                "name": "Bran\u017cowa Szko\u0142a I Stopnia Nr 3",
                "addr:postcode": "97-500",
                "addr:city": "Radomsko",
                "addr:street": "Brze\u017anicka",
                "addr:housenumber": "22",
                "addr:city:simc": 968078,
                "addr:street:sym_ul": 2254,
                "phone": "+48 446822395",
                "email": "z_s_d@wp.pl",
                "website": "http:\/\/www.drzewniak.pl",
                "ref:regon": "592146794",
                "operator": "Powiat Radomszcza\u0144ski",
                "operator:type": "government",
                "amenity": "school",
                "note": "Parent RSPO: 8285"
            }
        },
        {
            "id": 10033,
            "type": "Feature",
            "geometry": {
                "type": "Point",
                "coordinates": [
                    19.4302199,
                    51.07046
                ]
            },
            "properties": {
                "isced:level": "4",
                "ref:rspo": 10033,
                "official_name": "Szko\u0142a Policealna Nr 4 w Radomsku",
                "name": "Szko\u0142a Policealna Nr 4 w Radomsku",
                "addr:postcode": "97-500",
                "addr:city": "Radomsko",
                "addr:street": "Brze\u017anicka",
                "addr:housenumber": "22",
                "addr:city:simc": 968078,
                "addr:street:sym_ul": 2254,
                "phone": "+48 446822395",
                "email": "z_s_d@wp.pl",
                "website": "http:\/\/www.drzewniak.pl",
                "ref:regon": "100240250",
                "operator": "Powiat Radomszcza\u0144ski",
                "operator:type": "government",
                "amenity": "college",
                "note": "Parent RSPO: 8285"
            }
        },
        {
            "id": 10036,
            "type": "Feature",
            "geometry": {
                "type": "Point",
                "coordinates": [
                    19.4302199,
                    51.070429999999995
                ]
            },
            "properties": {
                "ref:rspo": 10036,
                "official_name": "Centrum Kszta\u0142cenia Zawodowego w Radomsku",
                "name": "Centrum Kszta\u0142cenia Zawodowego w Radomsku",
                "addr:postcode": "97-500",
                "addr:city": "Radomsko",
                "addr:street": "Brze\u017anicka",
                "addr:housenumber": "22",
                "addr:city:simc": 968078,
                "addr:street:sym_ul": 2254,
                "phone": "+48 446822378",
                "email": "z_s_d@wp.pl",
                "website": "http:\/\/www.drzewniak.pl",
                "ref:regon": "100496280",
                "operator": "Powiat Radomszcza\u0144ski",
                "operator:type": "government",
                "fixme": "w zale\u017cno\u015bci od przedmiotu dzia\u0142alno\u015bci (np. amenity=training + training=*, amenity=dancing_school, amenity=language_school, amenity=music_school) albo amenity=school, amenity=college, albo landuse=education w zale\u017cno\u015bci od tego, jakie plac\u00f3wki wchodz\u0105 w sk\u0142ad zespo\u0142u. Sprawd\u017a, kiedy stosowa\u0107 amenity=* a kiedy landuse=education.",
                "note": "Parent RSPO: 8285"
            }
        },
        {
            "id": 118557,
            "type": "Feature",
            "geometry": {
                "type": "Point",
                "coordinates": [
                    19.4302199,
                    51.0704
                ]
            },
            "properties": {
                "isced:level": "3",
                "ref:rspo": 118557,
                "official_name": "Liceum Og\u00f3lnokszta\u0142c\u0105ce dla Doros\u0142ych",
                "name": "Liceum Og\u00f3lnokszta\u0142c\u0105ce dla Doros\u0142ych",
                "addr:postcode": "97-500",
                "addr:city": "Radomsko",
                "addr:street": "Brze\u017anicka",
                "addr:housenumber": "22",
                "addr:city:simc": 968078,
                "addr:street:sym_ul": 2254,
                "phone": "+48 446822378",
                "email": "z_s_d@wp.pl",
                "website": "http:\/\/www.drzewniak.pl",
                "ref:regon": "101644995",
                "operator": "Powiat Radomszcza\u0144ski",
                "operator:type": "government",
                "amenity": "school",
                "note": "Parent RSPO: 8285"
            }
        },
        {
            "id": 7929,
            "type": "Feature",
            "geometry": {
                "type": "Point",
                "coordinates": [
                    19.44876,
                    51.07164
                ]
            },
            "properties": {
                "isced:level": "3",
                "ref:rspo": 7929,
                "official_name": "Ii Liceum Og\u00f3lnokszta\u0142c\u0105ce im. Krzysztofa Kamila Baczy\u0144skiego w Radomsku",
                "name": "Ii Liceum Og\u00f3lnokszta\u0142c\u0105ce",
                "addr:postcode": "97-500",
                "addr:city": "Radomsko",
                "addr:street": "Bugaj",
                "addr:housenumber": "3",
                "addr:city:simc": 968078,
                "addr:street:sym_ul": 2367,
                "phone": "+48 446832653",
                "email": "sekretariat@lo2.radomsko.pl",
                "website": "http:\/\/www.lo2.radomsko.pl",
                "ref:regon": "000258299",
                "ref:vatin": "PL7721515749",
                "operator": "Powiat Radomszcza\u0144ski",
                "operator:type": "government",
                "amenity": "school"
            }
        },
        {
            "id": 65185,
            "type": "Feature",
            "geometry": {
                "type": "Point",
                "coordinates": [
                    19.43594,
                    51.07172
                ]
            },
            "properties": {
                "ref:rspo": 65185,
                "official_name": "Publiczne Przedszkole Nr 3 w Radomsku",
                "name": "Publiczne Przedszkole Nr 3 w Radomsku",
                "addr:postcode": "97-500",
                "addr:city": "Radomsko",
                "addr:street": "Sierakowskiego",
                "addr:housenumber": "19",
                "addr:city:simc": 968078,
                "addr:street:sym_ul": 19849,
                "phone": "+48 446854440",
                "email": "dyrektorpp3@radomsko.pl",
                "ref:regon": "590745728",
                "ref:vatin": "PL7722122905",
                "operator": "Miasto Radomsko",
                "operator:type": "government",
                "amenity": "kindergarten"
            }
        },
        {
            "id": 266300,
            "type": "Feature",
            "geometry": {
                "type": "Point",
                "coordinates": [
                    19.45505,
                    51.07172
                ]
            },
            "properties": {
                "ref:rspo": 266300,
                "official_name": "Przedszkole Niepubliczne Akademia Myszki Miki w Radomsku Nr 1",
                "name": "Przedszkole Niepubliczne Akademia Myszki Miki w Radomsku Nr 1",
                "addr:postcode": "97-500",
                "addr:city": "Radomsko",
                "addr:street": "Przedborska",
                "addr:housenumber": "57",
                "addr:city:simc": 968078,
                "addr:street:sym_ul": 17654,
                "phone": "+48 500127135",
                "email": "akademiadziecka2@gmail.com",
                "ref:regon": "369396450",
                "operator": "Akademia Dziecka 2 Sp\u00f3\u0142ka Z Ograniczon\u0105 Odpowiedzialno\u015bci\u0105",
                "operator:type": "private",
                "amenity": "kindergarten"
            }
        },
        {
            "id": 269782,
            "type": "Feature",
            "geometry": {
                "type": "Point",
                "coordinates": [
                    19.45505,
                    51.07169
                ]
            },
            "properties": {
                "ref:rspo": 269782,
                "official_name": "Przedszkole Kubusia Puchatka w Radomsku",
                "name": "Przedszkole Kubusia Puchatka w Radomsku",
                "addr:postcode": "97-500",
                "addr:city": "Radomsko",
                "addr:street": "Przedborska",
                "addr:housenumber": "57",
                "addr:city:simc": 968078,
                "addr:street:sym_ul": 17654,
                "phone": "+48 662339839",
                "email": "akademiamyszkimiki1@gmail.com",
                "ref:regon": "381765084",
                "operator": "Pawe\u0142 D\u0119dek New Look",
                "operator:type": "private",
                "amenity": "kindergarten"
            }
        },
        {
            "id": 25971,
            "type": "Feature",
            "geometry": {
                "type": "Point",
                "coordinates": [
                    19.44105,
                    51.07204
                ]
            },
            "properties": {
                "ref:rspo": 25971,
                "official_name": "Agencja Us\u0142ug O\u015bwiatowych L-Mot Oddzia\u0142 w Radomsku",
                "name": "Agencja Us\u0142ug O\u015bwiatowych L-Mot Oddzia\u0142 w Radomsku",
                "addr:postcode": "97-500",
                "addr:city": "Radomsko",
                "addr:street": "Tadeusza Ko\u015bciuszki",
                "addr:housenumber": "6",
                "addr:city:simc": 968078,
                "addr:street:sym_ul": 9572,
                "phone": "+48 446832525",
                "email": "imot@om.pl",
                "ref:regon": "101479786",
                "operator": "Agencja Us\u0142ug O\u015bwiatowych \"L-Mot\" Sp\u00f3\u0142ka Z Ograniczon\u0105  Odpowiedzialno\u015bci\u0105",
                "operator:type": "private",
                "fixme": "w zale\u017cno\u015bci od przedmiotu dzia\u0142alno\u015bci (np. amenity=training + training=*, amenity=dancing_school, amenity=language_school, amenity=music_school)"
            }
        },
        {
            "id": 8039,
            "type": "Feature",
            "geometry": {
                "type": "Point",
                "coordinates": [
                    19.44752,
                    51.0720699
                ]
            },
            "properties": {
                "ref:rspo": 8039,
                "official_name": "Zesp\u00f3\u0142 Szk\u00f3\u0142 Elektryczno-Elektronicznych im. Prof.dr.in\u017c. Janusza Groszkowskiego w Radomsku",
                "name": "Zesp\u00f3\u0142 Szk\u00f3\u0142 Elektryczno-Elektronicznych",
                "addr:postcode": "97-500",
                "addr:city": "Radomsko",
                "addr:street": "Gabriela Narutowicza",
                "addr:housenumber": "12",
                "addr:city:simc": 968078,
                "addr:street:sym_ul": 14015,
                "phone": "+48 446832673",
                "email": "sekretariat@zse-e.edu.pl",
                "website": "http:\/\/www.zse-e.edu.pl",
                "ref:regon": "000674282",
                "ref:vatin": "PL7721074593",
                "operator": "Powiat Radomszcza\u0144ski",
                "operator:type": "government",
                "landuse": "education",
                "fixme": "amenity=school, amenity=college albo landuse=education w zale\u017cno\u015bci od tego, jakie plac\u00f3wki wchodz\u0105 w sk\u0142ad zespo\u0142u. Sprawd\u017a, kiedy stosowa\u0107 amenity=* a kiedy landuse=education.",
                "note": "Children RSPO: 12976;12978;12980"
            }
        },
        {
            "id": 12976,
            "type": "Feature",
            "geometry": {
                "type": "Point",
                "coordinates": [
                    19.44752,
                    51.0720399
                ]
            },
            "properties": {
                "isced:level": "3",
                "ref:rspo": 12976,
                "official_name": "Technikum Elektryczno-Elektroniczne w Radomsku",
                "name": "Technikum Elektryczno-Elektroniczne w Radomsku",
                "addr:postcode": "97-500",
                "addr:city": "Radomsko",
                "addr:street": "Gabriela Narutowicza",
                "addr:housenumber": "12",
                "addr:city:simc": 968078,
                "addr:street:sym_ul": 14015,
                "phone": "+48 446832673",
                "email": "sekretariat@zse-e.edu.pl",
                "website": "http:\/\/www.zse-e.edu.pl",
                "ref:regon": "592194876",
                "operator": "Powiat Radomszcza\u0144ski",
                "operator:type": "government",
                "amenity": "school",
                "note": "Parent RSPO: 8039"
            }
        },
        {
            "id": 12978,
            "type": "Feature",
            "geometry": {
                "type": "Point",
                "coordinates": [
                    19.44752,
                    51.072009900000005
                ]
            },
            "properties": {
                "isced:level": "3",
                "ref:rspo": 12978,
                "official_name": "Bran\u017cowa Szko\u0142a I Stopnia Nr 1 w Radomsku",
                "name": "Bran\u017cowa Szko\u0142a I Stopnia Nr 1 w Radomsku",
                "addr:postcode": "97-500",
                "addr:city": "Radomsko",
                "addr:street": "Gabriela Narutowicza",
                "addr:housenumber": "12",
                "addr:city:simc": 968078,
                "addr:street:sym_ul": 14015,
                "phone": "+48 446832673",
                "email": "sekretariat@zse-e.edu.pl",
                "website": "http:\/\/www.zse-e.edu.pl",
                "ref:regon": "592194860",
                "operator": "Powiat Radomszcza\u0144ski",
                "operator:type": "government",
                "amenity": "school",
                "note": "Parent RSPO: 8039"
            }
        },
        {
            "id": 12980,
            "type": "Feature",
            "geometry": {
                "type": "Point",
                "coordinates": [
                    19.44752,
                    51.0719799
                ]
            },
            "properties": {
                "isced:level": "4",
                "ref:rspo": 12980,
                "official_name": "Szko\u0142a Policealna Nr 2 w Radomsku",
                "name": "Szko\u0142a Policealna Nr 2 w Radomsku",
                "addr:postcode": "97-500",
                "addr:city": "Radomsko",
                "addr:street": "Gabriela Narutowicza",
                "addr:housenumber": "12",
                "addr:city:simc": 968078,
                "addr:street:sym_ul": 14015,
                "phone": "+48 446832673",
                "email": "sekretariat@zse-e.edu.pl",
                "website": "http:\/\/www.zse-e.edu.pl",
                "ref:regon": "100412981",
                "operator": "Powiat Radomszcza\u0144ski",
                "operator:type": "government",
                "amenity": "college",
                "note": "Parent RSPO: 8039"
            }
        },
        {
            "id": 75601,
            "type": "Feature",
            "geometry": {
                "type": "Point",
                "coordinates": [
                    19.43854,
                    51.07231
                ]
            },
            "properties": {
                "ref:rspo": 75601,
                "official_name": "Pa\u0144stwowa Szko\u0142a Muzyczna I St. im. Gra\u017cyny Bacewicz w Radomsku",
                "name": "Pa\u0144stwowa Szko\u0142a Muzyczna I St.",
                "addr:postcode": "97-500",
                "addr:city": "Radomsko",
                "addr:street": "Tadeusza Ko\u015bciuszki",
                "addr:housenumber": "14",
                "addr:city:simc": 968078,
                "addr:street:sym_ul": 9572,
                "phone": "+48 446832407",
                "email": "psmbacewicz@interia.pl",
                "website": "http:\/\/psmradomsko.pl",
                "ref:regon": "000277730",
                "operator": "Ministerstwo Kultury I Dziedzictwa Narodowego",
                "operator:type": "public",
                "amenity": "music_school"
            }
        },
        {
            "id": 71368,
            "type": "Feature",
            "geometry": {
                "type": "Point",
                "coordinates": [
                    19.44896,
                    51.07256
                ]
            },
            "properties": {
                "isced:level": "1;2",
                "ref:rspo": 71368,
                "official_name": "Publiczna Szko\u0142a Podstawowa Nr 4 im. W\u0142adys\u0142awa Stanis\u0142awa Reymonta w Radomsku",
                "name": "Publiczna Szko\u0142a Podstawowa Nr 4",
                "addr:postcode": "97-500",
                "addr:city": "Radomsko",
                "addr:street": "Szkolna",
                "addr:housenumber": "4",
                "addr:city:simc": 968078,
                "addr:street:sym_ul": 21970,
                "phone": "+48 446854566",
                "email": "dyrektorpsp4@radomsko.pl",
                "website": "http:\/\/psp4.radomsko.pl",
                "ref:regon": "000258075",
                "ref:vatin": "PL7722193851",
                "operator": "Miasto Radomsko",
                "operator:type": "government",
                "amenity": "school"
            }
        },
        {
            "id": 278712,
            "type": "Feature",
            "geometry": {
                "type": "Point",
                "coordinates": [
                    19.42001,
                    51.07259
                ]
            },
            "properties": {
                "ref:rspo": 278712,
                "official_name": "Niepubliczne Przedszkole \"\u015awiat Bajek\"",
                "name": "Niepubliczne Przedszkole \"\u015awiat Bajek\"",
                "addr:postcode": "97-500",
                "addr:city": "Radomsko",
                "addr:street": "Brze\u017anicka",
                "addr:housenumber": "58",
                "addr:city:simc": 968078,
                "addr:street:sym_ul": 2254,
                "phone": "+48 691376021",
                "email": "jolapechta@op.pl",
                "ref:regon": "520047358",
                "operator": "Jola Pechta Przedsi\u0119biorstwo Produkcyjno-Handlowo-Us\u0142ugowe\"Jola\"",
                "operator:type": "private",
                "amenity": "kindergarten"
            }
        },
        {
            "id": 18884,
            "type": "Feature",
            "geometry": {
                "type": "Point",
                "coordinates": [
                    19.43064,
                    51.07399
                ]
            },
            "properties": {
                "ref:rspo": 18884,
                "official_name": "Biblioteka Pedagogiczna w Piotrkowie Trybunalskim Filia w Radomsku",
                "name": "Biblioteka Pedagogiczna w Piotrkowie Trybunalskim Filia w Radomsku",
                "addr:postcode": "97-500",
                "addr:city": "Radomsko",
                "addr:street": "11 Listopada",
                "addr:housenumber": "2",
                "addr:city:simc": 968078,
                "addr:street:sym_ul": 11205,
                "phone": "+48 446821462",
                "email": "bibl.pedagogiczna.radomsko@neostrada.pl",
                "ref:regon": "103210800",
                "operator": "Wojew\u00f3dztwo \u0141\u00f3dzkie",
                "operator:type": "government",
                "amenity": "library",
                "note": "Parent RSPO: 12703"
            }
        },
        {
            "id": 65187,
            "type": "Feature",
            "geometry": {
                "type": "Point",
                "coordinates": [
                    19.42175,
                    51.0772199
                ]
            },
            "properties": {
                "ref:rspo": 65187,
                "official_name": "Publiczne Przedszkole Nr 5 w Radomsku",
                "name": "Publiczne Przedszkole Nr 5 w Radomsku",
                "addr:postcode": "97-500",
                "addr:city": "Radomsko",
                "addr:street": "11 Listopada",
                "addr:housenumber": "33",
                "addr:city:simc": 968078,
                "addr:street:sym_ul": 11205,
                "phone": "+48 446854424",
                "email": "dyrektorpp5@radomsko.pl",
                "ref:regon": "590745639",
                "ref:vatin": "PL7722122928",
                "operator": "Miasto Radomsko",
                "operator:type": "government",
                "amenity": "kindergarten"
            }
        },
        {
            "id": 71370,
            "type": "Feature",
            "geometry": {
                "type": "Point",
                "coordinates": [
                    19.4217,
                    51.07794
                ]
            },
            "properties": {
                "isced:level": "1;2",
                "ref:rspo": 71370,
                "official_name": "Publiczna Szko\u0142a Podstawowa Nr 7 im. Romualda Traugutta w Radomsku",
                "name": "Publiczna Szko\u0142a Podstawowa Nr 7",
                "addr:postcode": "97-500",
                "addr:city": "Radomsko",
                "addr:street": "11 Listopada",
                "addr:housenumber": "16",
                "addr:city:simc": 968078,
                "addr:street:sym_ul": 11205,
                "phone": "+48 446854434",
                "email": "dyrektorpsp7@radomsko.pl",
                "website": "http:\/\/www.psp7.radomsko.pl",
                "ref:regon": "000257590",
                "ref:vatin": "PL7722193868",
                "operator": "Miasto Radomsko",
                "operator:type": "government",
                "amenity": "school"
            }
        },
        {
            "id": 65186,
            "type": "Feature",
            "geometry": {
                "type": "Point",
                "coordinates": [
                    19.45203,
                    51.07859
                ]
            },
            "properties": {
                "ref:rspo": 65186,
                "official_name": "Publiczne Przedszkole Nr 4 Pod Zielonym Ludkiem w Radomsku",
                "name": "Publiczne Przedszkole Nr 4 Pod Zielonym Ludkiem w Radomsku",
                "addr:postcode": "97-500",
                "addr:city": "Radomsko",
                "addr:street": "Hugona Ko\u0142\u0142\u0105taja",
                "addr:housenumber": "12",
                "addr:city:simc": 968078,
                "addr:street:sym_ul": 9000,
                "phone": "+48 446458814",
                "email": "dyrektorpp4@radomsko.pl",
                "website": "http:\/\/www.przedszkole4.radomsko.pl",
                "ref:regon": "590745697",
                "ref:vatin": "PL7722122911",
                "operator": "Miasto Radomsko",
                "operator:type": "government",
                "amenity": "kindergarten"
            }
        },
        {
            "id": 71372,
            "type": "Feature",
            "geometry": {
                "type": "Point",
                "coordinates": [
                    19.40123,
                    51.08075
                ]
            },
            "properties": {
                "isced:level": "1;2",
                "ref:rspo": 71372,
                "official_name": "Publiczna Szko\u0142a Podstawowa Nr 10 w Radomsku",
                "name": "Publiczna Szko\u0142a Podstawowa Nr 10 w Radomsku",
                "addr:postcode": "97-500",
                "addr:city": "Radomsko",
                "addr:street": "Makuszy\u0144skiego",
                "addr:housenumber": "25",
                "addr:city:simc": 968078,
                "addr:street:sym_ul": 12023,
                "phone": "+48 446854442",
                "email": "dyrektorpsp10@radomsko.pl",
                "ref:regon": "000684889",
                "ref:vatin": "PL7722203029",
                "operator": "Miasto Radomsko",
                "operator:type": "government",
                "amenity": "school"
            }
        },
        {
            "id": 278728,
            "type": "Feature",
            "geometry": {
                "type": "Point",
                "coordinates": [
                    19.4512,
                    51.08181
                ]
            },
            "properties": {
                "ref:rspo": 278728,
                "official_name": "Niepubliczny O\u015brodek Doskonalenia Nauczycieli \"Modum\"",
                "name": "Niepubliczny O\u015brodek Doskonalenia Nauczycieli \"Modum\"",
                "addr:postcode": "97-500",
                "addr:city": "Radomsko",
                "addr:street": "Gabriela Narutowicza",
                "addr:housenumber": "59",
                "addr:city:simc": 968078,
                "addr:street:sym_ul": 14015,
                "email": "modum@fcdiu.eu",
                "website": "http:\/\/www.nodnmodum.com",
                "ref:regon": "520047192",
                "operator": "Fundacja Centrum Doskonalenia I Nauki",
                "operator:type": "ngo",
                "amenity": "training"
            }
        },
        {
            "id": 5800,
            "type": "Feature",
            "geometry": {
                "type": "Point",
                "coordinates": [
                    19.37386,
                    51.08446
                ]
            },
            "properties": {
                "isced:level": "3",
                "ref:rspo": 5800,
                "official_name": "Liceum Og\u00f3lnokszta\u0142c\u0105ce dla Doros\u0142ych \"\u017bak\"",
                "name": "Liceum Og\u00f3lnokszta\u0142c\u0105ce dla Doros\u0142ych \"\u017bak\"",
                "addr:postcode": "97-500",
                "addr:city": "Radomsko",
                "addr:street": "Metalurgii",
                "addr:housenumber": "1",
                "addr:city:simc": 968078,
                "addr:street:sym_ul": 55138,
                "phone": "+48 446852056",
                "email": "radomsko@zak.edu.pl",
                "website": "http:\/\/www.zak.edu.pl",
                "ref:regon": "101459157",
                "ref:vatin": "PL7292597869",
                "operator": "Centrum Nauki I Biznesu \"\u017bak\" Sp\u00f3\u0142ka Z Ograniczon\u0105 Odpowiedzialno\u015bci\u0105",
                "operator:type": "private",
                "amenity": "school"
            }
        },
        {
            "id": 5802,
            "type": "Feature",
            "geometry": {
                "type": "Point",
                "coordinates": [
                    19.37386,
                    51.08443
                ]
            },
            "properties": {
                "isced:level": "4",
                "ref:rspo": 5802,
                "official_name": "Szko\u0142a Policealna Centrum Nauki I Biznesu \"\u017bak\"",
                "name": "Szko\u0142a Policealna Centrum Nauki I Biznesu \"\u017bak\"",
                "addr:postcode": "97-500",
                "addr:city": "Radomsko",
                "addr:street": "Metalurgii",
                "addr:housenumber": "1",
                "addr:city:simc": 968078,
                "addr:street:sym_ul": 55138,
                "phone": "+48 446852056",
                "email": "radomsko@zak.edu.pl",
                "website": "http:\/\/www.zak.edu.pl",
                "ref:regon": "101467122",
                "ref:vatin": "PL7292597869",
                "operator": "Centrum Nauki I Biznesu \"\u017bak\" Sp\u00f3\u0142ka Z Ograniczon\u0105 Odpowiedzialno\u015bci\u0105",
                "operator:type": "private",
                "amenity": "college"
            }
        },
        {
            "id": 5805,
            "type": "Feature",
            "geometry": {
                "type": "Point",
                "coordinates": [
                    19.37386,
                    51.0844
                ]
            },
            "properties": {
                "ref:rspo": 5805,
                "official_name": "O\u015brodek Szkoleniowy Centrum Nauki I Biznesu \"\u017bak\" w Radomsku",
                "name": "O\u015brodek Szkoleniowy Centrum Nauki I Biznesu \"\u017bak\" w Radomsku",
                "addr:postcode": "97-500",
                "addr:city": "Radomsko",
                "addr:street": "Metalurgii",
                "addr:housenumber": "1",
                "addr:city:simc": 968078,
                "addr:street:sym_ul": 55138,
                "phone": "+48 446852056",
                "email": "radomsko@zak.edu.pl",
                "website": "http:\/\/www.zak.edu.pl",
                "ref:regon": "101459878",
                "ref:vatin": "PL7292597869",
                "operator": "Centrum Nauki I Biznesu \"\u017bak\" Sp\u00f3\u0142ka Z Ograniczon\u0105 Odpowiedzialno\u015bci\u0105",
                "operator:type": "private",
                "fixme": "w zale\u017cno\u015bci od przedmiotu dzia\u0142alno\u015bci (np. amenity=training + training=*, amenity=dancing_school, amenity=language_school, amenity=music_school)"
            }
        },
        {
            "id": 14416,
            "type": "Feature",
            "geometry": {
                "type": "Point",
                "coordinates": [
                    19.37386,
                    51.08437
                ]
            },
            "properties": {
                "ref:rspo": 14416,
                "official_name": "O\u015brodek Kszta\u0142cenia Zawodowego Nr 8",
                "name": "O\u015brodek Kszta\u0142cenia Zawodowego Nr 8",
                "addr:postcode": "97-500",
                "addr:city": "Radomsko",
                "addr:street": "Metalurgii",
                "addr:housenumber": "1",
                "addr:city:simc": 968078,
                "addr:street:sym_ul": 55138,
                "phone": "+48 446832209",
                "email": "okz.radomsko@wp.pl",
                "ref:regon": "101471046",
                "operator": "Zak\u0142ad Doskonalenia Zawodowego W \u0141odzi",
                "operator:type": "ngo",
                "fixme": "w zale\u017cno\u015bci od przedmiotu dzia\u0142alno\u015bci (np. amenity=training + training=*, amenity=dancing_school, amenity=language_school, amenity=music_school)"
            }
        },
        {
            "id": 124444,
            "type": "Feature",
            "geometry": {
                "type": "Point",
                "coordinates": [
                    19.37386,
                    51.08434
                ]
            },
            "properties": {
                "isced:level": "4",
                "ref:rspo": 124444,
                "official_name": "Szko\u0142a Policealna Medyczna \"\u017bak\" w Radomsku",
                "name": "Szko\u0142a Policealna Medyczna \"\u017bak\" w Radomsku",
                "addr:postcode": "97-500",
                "addr:city": "Radomsko",
                "addr:street": "Metalurgii",
                "addr:housenumber": "1",
                "addr:city:simc": 968078,
                "addr:street:sym_ul": 55138,
                "phone": "+48 446852056",
                "email": "radomsko@zak.edu.pl",
                "website": "http:\/\/www.zak.edu.pl",
                "ref:regon": "101831378",
                "operator": "Centrum Nauki I Biznesu \"\u017bak\" Sp\u00f3\u0142ka Z Ograniczon\u0105 Odpowiedzialno\u015bci\u0105",
                "operator:type": "private",
                "amenity": "college"
            }
        },
        {
            "id": 127345,
            "type": "Feature",
            "geometry": {
                "type": "Point",
                "coordinates": [
                    19.37386,
                    51.08431
                ]
            },
            "properties": {
                "isced:level": "4",
                "ref:rspo": 127345,
                "official_name": "Szko\u0142a Policealna Opieki Medycznej \"\u017bak\" w Radomsku",
                "name": "Szko\u0142a Policealna Opieki Medycznej \"\u017bak\" w Radomsku",
                "addr:postcode": "97-500",
                "addr:city": "Radomsko",
                "addr:street": "Metalurgii",
                "addr:housenumber": "1",
                "addr:city:simc": 968078,
                "addr:street:sym_ul": 55138,
                "phone": "+48 446852056",
                "email": "radomsko@zak.edu.pl",
                "website": "http:\/\/www.zak.edu.pl",
                "ref:regon": "361388243",
                "operator": "Centrum Nauki I Biznesu \"\u017bak\" Sp\u00f3\u0142ka Z Ograniczon\u0105 Odpowiedzialno\u015bci\u0105",
                "operator:type": "private",
                "amenity": "college"
            }
        },
        {
            "id": 65194,
            "type": "Feature",
            "geometry": {
                "type": "Point",
                "coordinates": [
                    19.4591,
                    51.09686
                ]
            },
            "properties": {
                "isced:level": "1;2",
                "ref:rspo": 65194,
                "official_name": "Publiczna Szko\u0142a Podstawowa Nr 5 im. Miko\u0142aja Kopernika w Radomsku",
                "name": "Publiczna Szko\u0142a Podstawowa Nr 5",
                "addr:postcode": "97-500",
                "addr:city": "Radomsko",
                "addr:street": "Gabriela Narutowicza",
                "addr:housenumber": "207",
                "addr:city:simc": 968078,
                "addr:street:sym_ul": 14015,
                "phone": "+48 446826392",
                "email": "dyrektorpsp5@radomsko.pl",
                "website": "http:\/\/www.psp5.radomsko.pl",
                "ref:regon": "000639995",
                "ref:vatin": "PL7722122360",
                "operator": "Miasto Radomsko",
                "operator:type": "government",
                "amenity": "school"
            }
        }
    ]
}